[
    {
        "city": "Assis",
        "state": "SP",
        "district": "Jardim Paulista",
        "street": "Rua Luiz Kobal",
        "zipcode": "19815-060"
    },
    {
        "city": "Assis",
        "state": "SP",
        "district": "Centro",
        "street": "Rua José Teodoro",
        "zipcode": "19800-055"
    },
    {
        "city": "Assis",
        "state": "SP",
        "district": "Jardim Eldorado",
        "street": "Rua P",
        "zipcode": "19803-340"
    },
    {
        "city": "Assis",
        "state": "SP",
        "district": "Vila Operária",
        "street": "Rua Lins de Vasconcelos",
        "zipcode": "19804-130"
    },
    {
        "city": "Assis",
        "state": "SP",
        "district": "Centro",
        "street": "Rua Capitão Assis",
        "zipcode": "19800-062"
    },
    {
        "city": "Assis",
        "state": "SP",
        "district": "Vila Paraíso",
        "street": "Rua Euclides da Cunha",
        "zipcode": "19802-140"
    },
    {
        "city": "Assis",
        "state": "SP",
        "district": "Vila Funari",
        "street": "Rua Gonçalves Dias",
        "zipcode": "19800-111"
    },
    {
        "city": "Assis",
        "state": "SP",
        "district": "San Fernando Valley",
        "street": "Rua Luiz Francisco de Almeida",
        "zipcode": "19800-410"
    },
    {
        "city": "Assis",
        "state": "SP",
        "district": "Centro",
        "street": "Avenida Nove de Julho",
        "zipcode": "19800-021"
    },
    {
        "city": "Assis",
        "state": "SP",
        "district": "Centro",
        "street": "Avenida Rui Barbosa",
        "zipcode": "19800-003"
    },
    {
        "city": "Assis",
        "state": "SP",
        "district": "Vila Palhares",
        "street": "Rua Sebastião da Silva Leite",
        "zipcode": "19800-201"
    },
    {
        "city": "Assis",
        "state": "SP",
        "district": "Vila Paraíso",
        "street": "Rua Viriato Corrêa",
        "zipcode": "19802-160"
    },
    {
        "city": "Assis",
        "state": "SP",
        "district": "Quinta dos Flamboyants",
        "street": "Rua Cinco",
        "zipcode": "19810-860"
    },
    {
        "city": "Assis",
        "state": "SP",
        "district": "Quinta dos Flamboyants",
        "street": "Via Chico Mendes",
        "zipcode": "19810-005"
    },
    {
        "city": "Assis",
        "state": "SP",
        "district": "Vila Progresso",
        "street": "Rua Presidente Prudente",
        "zipcode": "19807-605"
    },
    {
        "city": "Assis",
        "state": "SP",
        "district": "Vila Palhares",
        "street": "Rua Senhor do Bonfim",
        "zipcode": "19800-330"
    },
    {
        "city": "Assis",
        "state": "SP",
        "district": "Vila Xavier",
        "street": "Rua Afonso Taunay",
        "zipcode": "19802-050"
    },
    {
        "city": "Assis",
        "state": "SP",
        "district": "Centro",
        "street": "Rua Almirante Barroso",
        "zipcode": "19800-280"
    },
    {
        "city": "Assis",
        "state": "SP",
        "district": "Jardim Canadá",
        "street": "Rua Antônio Luciano Gomes",
        "zipcode": "19801-000"
    },
    {
        "city": "Assis",
        "state": "SP",
        "district": "Vila São João",
        "street": "Rua Antônio Viana Silva",
        "zipcode": "19801-150"
    },
    {
        "city": "Assis",
        "state": "SP",
        "district": "Vila Claudia",
        "street": "Rua Benedito Cardoso",
        "zipcode": "19815-153"
    },
    {
        "city": "Assis",
        "state": "SP",
        "district": "CDA",
        "street": "Rua da Biotita",
        "zipcode": "19812-100"
    },
    {
        "city": "Assis",
        "state": "SP",
        "district": "Vila Independência",
        "street": "Rua da Cabiúna",
        "zipcode": "19802-515"
    },
    {
        "city": "Assis",
        "state": "SP",
        "district": "Vila Mercedes",
        "street": "Rua Cândido de Oliveira Carvalho",
        "zipcode": "19802-410"
    },
    {
        "city": "Assis",
        "state": "SP",
        "district": "Conjunto Habitacional Assis IV",
        "street": "Rua Décio do Canto Neubern",
        "zipcode": "19807-814"
    },
    {
        "city": "Assis",
        "state": "SP",
        "district": "CDA",
        "street": "Rua da Dolomita",
        "zipcode": "19812-070"
    },
    {
        "city": "Assis",
        "state": "SP",
        "district": "Vila Mercedes",
        "street": "Rua Humberto de Campos",
        "zipcode": "19802-091"
    },
    {
        "city": "Assis",
        "state": "SP",
        "district": "CDA",
        "street": "Rua do Jacarandá",
        "zipcode": "19812-090"
    },
    {
        "city": "Assis",
        "state": "SP",
        "district": "Jardim Paraná",
        "street": "Rua Jacarezinho",
        "zipcode": "19807-335"
    },
    {
        "city": "Assis",
        "state": "SP",
        "district": "Vila Clementina",
        "street": "Rua João Maldonado",
        "zipcode": "19802-320"
    },
    {
        "city": "Assis",
        "state": "SP",
        "district": "San Fernando Valley",
        "street": "Rua José A. Piovessani",
        "zipcode": "19800-430"
    },
    {
        "city": "Assis",
        "state": "SP",
        "district": "Jardim Amaury",
        "street": "Rua José de Camargo",
        "zipcode": "19816-235"
    },
    {
        "city": "Assis",
        "state": "SP",
        "district": "San Fernando Valley",
        "street": "Rua José Leão Pimentel",
        "zipcode": "19800-370"
    },
    {
        "city": "Assis",
        "state": "SP",
        "district": "Jardim 3 Américas I",
        "street": "Rua José Paes Maldonado",
        "zipcode": "19802-530"
    },
    {
        "city": "Assis",
        "state": "SP",
        "district": "Vila Claudia",
        "street": "Rua Lourival Santana",
        "zipcode": "19815-300"
    },
    {
        "city": "Assis",
        "state": "SP",
        "district": "Parque das Flores",
        "street": "Rua Luiz dos Santos Sismeiro",
        "zipcode": "19813-348"
    },
    {
        "city": "Assis",
        "state": "SP",
        "district": "Vila Ouro Verde",
        "street": "Rua Ipes",
        "zipcode": "19816-065"
    },
    {
        "city": "Assis",
        "state": "SP",
        "district": "Jardim Santa Clara",
        "street": "Rua Abílio Bernardino de Souza",
        "zipcode": "19804-788"
    },
    {
        "city": "Assis",
        "state": "SP",
        "district": "Centro",
        "street": "Rua José Teodoro",
        "zipcode": "19800-999"
    },
    {
        "city": "Assis",
        "state": "SP",
        "district": "Centro",
        "street": "Rua General Osório",
        "zipcode": "19806-020"
    },
    {
        "city": "Assis",
        "state": "SP",
        "district": "Centro",
        "street": "Rua General Carneiro",
        "zipcode": "19806-100"
    },
    {
        "city": "Assis",
        "state": "SP",
        "district": "Conjunto Habitacional Irmã Catarina",
        "street": "Rua Felício Mandalho",
        "zipcode": "19813-745"
    },
    {
        "city": "Assis",
        "state": "SP",
        "district": "Conjunto Habitacional Irmã Catarina",
        "street": "Travessa do Multirão",
        "zipcode": "19813-760"
    },
    {
        "city": "Assis",
        "state": "SP",
        "district": "Conjunto Habitacional Irmã Catarina",
        "street": "Rua Valdecir de Camargo",
        "zipcode": "19813-770"
    },
    {
        "city": "Assis",
        "state": "SP",
        "district": "Conjunto Habitacional Irmã Catarina",
        "street": "Rua Juvenal N. Piedade",
        "zipcode": "19813-740"
    },
    {
        "city": "Assis",
        "state": "SP",
        "district": "Conjunto Habitacional Irmã Catarina",
        "street": "Rua Chaim Cury",
        "zipcode": "19813-765"
    },
    {
        "city": "Assis",
        "state": "SP",
        "district": "Conjunto Habitacional Irmã Catarina",
        "street": "Rua Olavo Vitório Buziquia",
        "zipcode": "19813-790"
    },
    {
        "city": "Assis",
        "state": "SP",
        "district": "Vila Santo Antônio",
        "street": "Rua Misael Camilo Nogueira",
        "zipcode": "19800-340"
    },
    {
        "city": "Assis",
        "state": "SP",
        "district": "Vila Rodrigues",
        "street": "Avenida Paschoal Santilli",
        "zipcode": "19807-220"
    },
    {
        "city": "Assis",
        "state": "SP",
        "district": "Vila Independência",
        "street": "Rua do Pavão",
        "zipcode": "19802-210"
    },
    {
        "city": "Assis",
        "state": "SP",
        "district": "Vila Independência",
        "street": "Rua Pedro Carricondo",
        "zipcode": "19802-200"
    },
    {
        "city": "Assis",
        "state": "SP",
        "district": "Conjunto Habitacional Nelson Marcondes",
        "street": "Rua Pedro Rodrigues da Silva",
        "zipcode": "19813-560"
    },
    {
        "city": "Assis",
        "state": "SP",
        "district": "Parque das Flores",
        "street": "Rua Professora Maria Helena Gonso de Lima",
        "zipcode": "19813-367"
    },
    {
        "city": "Assis",
        "state": "SP",
        "district": "Centro",
        "street": "Travessa Rotarianos",
        "zipcode": "19806-109"
    },
    {
        "city": "Assis",
        "state": "SP",
        "district": "Centro",
        "street": "Rua São Paulo",
        "zipcode": "19802-000"
    },
    {
        "city": "Assis",
        "state": "SP",
        "district": "Jardim Canadá",
        "street": "Rua Sérgio Lourenço",
        "zipcode": "19801-080"
    },
    {
        "city": "Assis",
        "state": "SP",
        "district": "Vila Tênis Clube",
        "street": "Rua Sílvio Bombonati",
        "zipcode": "19806-281"
    },
    {
        "city": "Assis",
        "state": "SP",
        "district": "Jardim Canadá",
        "street": "Rua Vasco Vitório Fagiolli",
        "zipcode": "19801-090"
    },
    {
        "city": "Assis",
        "state": "SP",
        "district": "Vila Ribeiro",
        "street": "Rua Vicente Fernandes Figueiredo",
        "zipcode": "19802-180"
    },
    {
        "city": "Assis",
        "state": "SP",
        "district": "Vila Fabiano",
        "street": "Rua Vicente Fernandes Figueiredo",
        "zipcode": "19802-182"
    },
    {
        "city": "Assis",
        "state": "SP",
        "district": "Vila Jardim Aeroporto",
        "street": "Rua Virgílio O. Castro",
        "zipcode": "19814-090"
    },
    {
        "city": "Assis",
        "state": "SP",
        "district": "San Fernando Valley",
        "street": "Rua Valdemir Francisco Pinto",
        "zipcode": "19800-390"
    },
    {
        "city": "Assis",
        "state": "SP",
        "district": "Portal de São Francisco",
        "street": "Avenida Antonino José de Carvalho",
        "zipcode": "19807-490"
    },
    {
        "city": "Assis",
        "state": "SP",
        "district": "Vila Brasileira",
        "street": "Rua Cruz e Souza",
        "zipcode": "19802-112"
    },
    {
        "city": "Assis",
        "state": "SP",
        "district": "Vila Clementina",
        "street": "Rua Doutor Lycio Brandão de Camargo",
        "zipcode": "19802-300"
    },
    {
        "city": "Assis",
        "state": "SP",
        "district": "Jardim Morumbi",
        "street": "Rua Aparecido de Almeida",
        "zipcode": "19815-520"
    },
    {
        "city": "Assis",
        "state": "SP",
        "district": "DVille Residencial",
        "street": "Alameda Paris",
        "zipcode": "19815-602"
    },
    {
        "city": "Assis",
        "state": "SP",
        "district": "Residencial Park Bambu",
        "street": "Rua Um",
        "zipcode": "19801-260"
    },
    {
        "city": "Assis",
        "state": "SP",
        "district": "Centro",
        "street": "Rua Ângelo Bertoncini",
        "zipcode": "19814-904"
    },
    {
        "city": "Assis",
        "state": "SP",
        "district": "DVille Residencial",
        "street": "Alameda Toulouse",
        "zipcode": "19815-604"
    },
    {
        "city": "Assis",
        "state": "SP",
        "district": "DVille Residencial",
        "street": "Alameda Marselha",
        "zipcode": "19815-606"
    },
    {
        "city": "Assis",
        "state": "SP",
        "district": "Vila Marialves",
        "street": "Rua Ângelo Gava",
        "zipcode": "19804-679"
    },
    {
        "city": "Assis",
        "state": "SP",
        "district": "Centro",
        "street": "Travessa Antônio Serezani",
        "zipcode": "19806-139"
    },
    {
        "city": "Assis",
        "state": "SP",
        "district": "Vila Operária",
        "street": "Rua Boava",
        "zipcode": "19804-165"
    },
    {
        "city": "Assis",
        "state": "SP",
        "district": "Vila Central",
        "street": "Rua Cândido Mota",
        "zipcode": "19806-250"
    },
    {
        "city": "Assis",
        "state": "SP",
        "district": "Vila Carvalho",
        "street": "Rua Carlos Gomes",
        "zipcode": "19804-207"
    },
    {
        "city": "Assis",
        "state": "SP",
        "district": "Vila Carvalho",
        "street": "Rua Caxambu",
        "zipcode": "19804-320"
    },
    {
        "city": "Assis",
        "state": "SP",
        "district": "Vila São Benedito",
        "street": "Rua Dezenove de Setembro",
        "zipcode": "19804-660"
    },
    {
        "city": "Assis",
        "state": "SP",
        "district": "Vila Tênis Clube",
        "street": "Avenida Dom Antônio",
        "zipcode": "19806-173"
    },
    {
        "city": "Assis",
        "state": "SP",
        "district": "Vila Santa Cecília",
        "street": "Avenida Dom Antônio",
        "zipcode": "19806-171"
    },
    {
        "city": "Assis",
        "state": "SP",
        "district": "Vila Rodrigues",
        "street": "Avenida Dom Antônio",
        "zipcode": "19806-172"
    },
    {
        "city": "Assis",
        "state": "SP",
        "district": "Vila Tênis Clube",
        "street": "Rua Doutor Chicão Teixeira",
        "zipcode": "19806-350"
    },
    {
        "city": "Assis",
        "state": "SP",
        "district": "Vila Operária",
        "street": "Rua Doutor Teixeira Camargo",
        "zipcode": "19804-001"
    },
    {
        "city": "Assis",
        "state": "SP",
        "district": "Vila Nova Florínea",
        "street": "Rua Engrácio da Silva",
        "zipcode": "19803-270"
    },
    {
        "city": "Assis",
        "state": "SP",
        "district": "Núcleo Habitacional Dirceu Gomes Cervilha",
        "street": "Rua Geraldo Passarello",
        "zipcode": "19804-746"
    },
    {
        "city": "Assis",
        "state": "SP",
        "district": "Vila Marialves",
        "street": "Rua I",
        "zipcode": "19804-650"
    },
    {
        "city": "Assis",
        "state": "SP",
        "district": "Vila Maria Izabel",
        "street": "Rua Ipiranga",
        "zipcode": "19804-470"
    },
    {
        "city": "Assis",
        "state": "SP",
        "district": "Vila Ribeiro",
        "street": "Rua João Martines Molines",
        "zipcode": "19803-020"
    },
    {
        "city": "Assis",
        "state": "SP",
        "district": "Vila Nova Florínea",
        "street": "Rua Lucas Menk",
        "zipcode": "19803-130"
    },
    {
        "city": "Assis",
        "state": "SP",
        "district": "Vila Ribeiro",
        "street": "Rua Luís de Mello Filho",
        "zipcode": "19803-010"
    },
    {
        "city": "Assis",
        "state": "SP",
        "district": "Vila Cambuí",
        "street": "Rua Luiz Batista Silveira",
        "zipcode": "19804-190"
    },
    {
        "city": "Assis",
        "state": "SP",
        "district": "Vila Boa Vista",
        "street": "Rua Orozimbo Leão de Carvalho",
        "zipcode": "19806-041"
    },
    {
        "city": "Assis",
        "state": "SP",
        "district": "Vl Glória",
        "street": "Rua Osvaldo Aranha",
        "zipcode": "19807-020"
    },
    {
        "city": "Assis",
        "state": "SP",
        "district": "Vila Santa Cecília",
        "street": "Rua Padre Gusmão",
        "zipcode": "19806-081"
    },
    {
        "city": "Assis",
        "state": "SP",
        "district": "Vila Maria Izabel",
        "street": "Rua Pedro Álvares Cabral",
        "zipcode": "19804-450"
    },
    {
        "city": "Assis",
        "state": "SP",
        "district": "Vila Operária",
        "street": "Rua Pinheiro Machado",
        "zipcode": "19804-110"
    },
    {
        "city": "Assis",
        "state": "SP",
        "district": "Jardim Eldorado",
        "street": "Rua Q",
        "zipcode": "19803-307"
    },
    {
        "city": "Assis",
        "state": "SP",
        "district": "Jardim 3 Américas II",
        "street": "Rua Quatro",
        "zipcode": "19803-050"
    },
    {
        "city": "Assis",
        "state": "SP",
        "district": "Jardim Aeroporto",
        "street": "Rua Luiz Borges",
        "zipcode": "19813-180"
    },
    {
        "city": "Assis",
        "state": "SP",
        "district": "Jardim Eldorado",
        "street": "Rua Romão Cuencas Borrego",
        "zipcode": "19803-320"
    },
    {
        "city": "Assis",
        "state": "SP",
        "district": "Vila Silvestre",
        "street": "Rua do Rosário",
        "zipcode": "19804-410"
    },
    {
        "city": "Assis",
        "state": "SP",
        "district": "Quinta dos Flamboyants",
        "street": "Rua Um",
        "zipcode": "19810-820"
    },
    {
        "city": "Assis",
        "state": "SP",
        "district": "Vila Boa Vista",
        "street": "Rua Santa Cecília",
        "zipcode": "19806-051"
    },
    {
        "city": "Assis",
        "state": "SP",
        "district": "Vila São Benedito",
        "street": "Rua Santo Antônio",
        "zipcode": "19804-580"
    },
    {
        "city": "Assis",
        "state": "SP",
        "district": "Vila Boa Vista",
        "street": "Rua Santos Dumont",
        "zipcode": "19806-061"
    },
    {
        "city": "Assis",
        "state": "SP",
        "district": "Vila Carvalho",
        "street": "Rua Seis",
        "zipcode": "19804-300"
    },
    {
        "city": "Assis",
        "state": "SP",
        "district": "Vila Nova Santana",
        "street": "Rua Sete de Setembro",
        "zipcode": "19807-100"
    },
    {
        "city": "Assis",
        "state": "SP",
        "district": "Vila Prudenciana",
        "street": "Avenida Vereador David Passarinho",
        "zipcode": "19803-170"
    },
    {
        "city": "Assis",
        "state": "SP",
        "district": "Núcleo Habitacional Dirceu Gomes Cervilha",
        "street": "Rua Vitório dos Santos",
        "zipcode": "19804-720"
    },
    {
        "city": "Assis",
        "state": "SP",
        "district": "Vila Central",
        "street": "Rua João Pessoa",
        "zipcode": "19806-001"
    },
    {
        "city": "Assis",
        "state": "SP",
        "district": "Vila Tênis Clube",
        "street": "Rua Martim Afonso",
        "zipcode": "19806-322"
    },
    {
        "city": "Assis",
        "state": "SP",
        "district": "Vila Tênis Clube",
        "street": "Rua João Ramalho",
        "zipcode": "19806-182"
    },
    {
        "city": "Assis",
        "state": "SP",
        "district": "Vila Marialves",
        "street": "Rua São Vicente",
        "zipcode": "19804-595"
    },
    {
        "city": "Assis",
        "state": "SP",
        "district": "Parque Universitário",
        "street": "Rua José Janúncio",
        "zipcode": "19806-735"
    },
    {
        "city": "Assis",
        "state": "SP",
        "district": "Vila Prudenciana",
        "street": "Rua Machado de Assis",
        "zipcode": "19803-230"
    },
    {
        "city": "Assis",
        "state": "SP",
        "district": "Vila Maria Izabel",
        "street": "Rua Líbero Badaró",
        "zipcode": "19804-520"
    },
    {
        "city": "Assis",
        "state": "SP",
        "district": "Nova Assis",
        "street": "Rua Dez",
        "zipcode": "19803-445"
    },
    {
        "city": "Assis",
        "state": "SP",
        "district": "Vila Santa Rita",
        "street": "Travessa Antônio Carlos",
        "zipcode": "19807-315"
    },
    {
        "city": "Assis",
        "state": "SP",
        "district": "Jardim Europa",
        "street": "Rua Antônio Morelli",
        "zipcode": "19814-580"
    },
    {
        "city": "Assis",
        "state": "SP",
        "district": "Jardim Alvorada",
        "street": "Rua Bom Pastor",
        "zipcode": "19807-559"
    },
    {
        "city": "Assis",
        "state": "SP",
        "district": "Jardim Paraná",
        "street": "Rua Curitiba",
        "zipcode": "19807-510"
    },
    {
        "city": "Assis",
        "state": "SP",
        "district": "Vila Maria",
        "street": "Rua Dionísio Dias Paiao",
        "zipcode": "19814-170"
    },
    {
        "city": "Assis",
        "state": "SP",
        "district": "Centro",
        "street": "Rua Dom José Lázaro Neves",
        "zipcode": "19814-391"
    },
    {
        "city": "Assis",
        "state": "SP",
        "district": "Centro",
        "street": "Rua Doutor Adalberto de Assis Nazareth",
        "zipcode": "19814-040"
    },
    {
        "city": "Assis",
        "state": "SP",
        "district": "Vila Jardim Aeroporto",
        "street": "Rua Doutor Antônio S. Figueiredo",
        "zipcode": "19814-100"
    },
    {
        "city": "Assis",
        "state": "SP",
        "district": "Jardim Europa",
        "street": "Rua Doutor Heitor Bastos Cordeiro",
        "zipcode": "19814-590"
    },
    {
        "city": "Assis",
        "state": "SP",
        "district": "Centro",
        "street": "Rua Doutor Luiz Pizza",
        "zipcode": "19814-350"
    },
    {
        "city": "Assis",
        "state": "SP",
        "district": "Jardim Europa",
        "street": "Rua Doutor Uracy da S. Lobo",
        "zipcode": "19814-680"
    },
    {
        "city": "Assis",
        "state": "SP",
        "district": "Parque das Flores",
        "street": "Rua Eduardo Quintino de Oliveira",
        "zipcode": "19813-320"
    },
    {
        "city": "Assis",
        "state": "SP",
        "district": "CDA",
        "street": "Rua da Esmeralda",
        "zipcode": "19812-030"
    },
    {
        "city": "Assis",
        "state": "SP",
        "district": "Parque das Flores",
        "street": "Rua Francisco Blefari",
        "zipcode": "19813-369"
    },
    {
        "city": "Assis",
        "state": "SP",
        "district": "Conjunto Habitacional Assis IV",
        "street": "Rua Francisco Bonini",
        "zipcode": "19807-816"
    },
    {
        "city": "Assis",
        "state": "SP",
        "district": "Vila Progresso",
        "street": "Rua Irmã Maria J. Trevisan",
        "zipcode": "19807-637"
    },
    {
        "city": "Assis",
        "state": "SP",
        "district": "Vila Rodrigues",
        "street": "Rua Joaquim Carvalho Mota",
        "zipcode": "19807-265"
    },
    {
        "city": "Assis",
        "state": "SP",
        "district": "Vila Rodrigues",
        "street": "Rua Joaquim Nabuco",
        "zipcode": "19807-310"
    },
    {
        "city": "Assis",
        "state": "SP",
        "district": "Conjunto Habitacional Nelson Marcondes",
        "street": "Rua José Maria Vasconcelos",
        "zipcode": "19813-545"
    },
    {
        "city": "Assis",
        "state": "SP",
        "district": "Conjunto Habitacional Assis IV",
        "street": "Rua José Zibordi",
        "zipcode": "19807-832"
    },
    {
        "city": "Assis",
        "state": "SP",
        "district": "Parque das Flores",
        "street": "Rua Luciano Ribeiro de Almeida",
        "zipcode": "19813-339"
    },
    {
        "city": "Assis",
        "state": "SP",
        "district": "Parque das Flores",
        "street": "Rua Luiz Henrique Xavier",
        "zipcode": "19813-338"
    },
    {
        "city": "Assis",
        "state": "SP",
        "district": "CDA",
        "street": "Avenida do Manganez",
        "zipcode": "19812-080"
    },
    {
        "city": "Assis",
        "state": "SP",
        "district": "Vila Fiuza",
        "street": "Rua Manoel A. de Oliveira",
        "zipcode": "19814-540"
    },
    {
        "city": "Assis",
        "state": "SP",
        "district": "Centro",
        "street": "Rua Mauá",
        "zipcode": "19806-010"
    },
    {
        "city": "Assis",
        "state": "SP",
        "district": "Conjunto Habitacional Nelson Marcondes",
        "street": "Rua Myrthes Spera Conceição",
        "zipcode": "19813-550"
    },
    {
        "city": "Assis",
        "state": "SP",
        "district": "CDA",
        "street": "Avenida do Níquel",
        "zipcode": "19812-040"
    },
    {
        "city": "Assis",
        "state": "SP",
        "district": "Vila Progresso",
        "street": "Rua Piracicaba",
        "zipcode": "19807-585"
    },
    {
        "city": "Assis",
        "state": "SP",
        "district": "Quinta dos Flamboyants",
        "street": "Rua Quatro",
        "zipcode": "19810-850"
    },
    {
        "city": "Assis",
        "state": "SP",
        "district": "Vila Progresso",
        "street": "Rua Rio Claro",
        "zipcode": "19807-615"
    },
    {
        "city": "Assis",
        "state": "SP",
        "district": "Centro de Desenvolvimento de Assis",
        "street": "Rua Alcides Senno",
        "zipcode": "19812-130"
    },
    {
        "city": "Assis",
        "state": "SP",
        "district": "Jardim Aeroporto",
        "street": "Rua Oito",
        "zipcode": "19813-206"
    },
    {
        "city": "Assis",
        "state": "SP",
        "district": "Park Residencial Colinas",
        "street": "Rua Maria Aparecida Marques",
        "zipcode": "19803-502"
    },
    {
        "city": "Assis",
        "state": "SP",
        "district": "Centro",
        "street": "Rua Smith Vasconcelos",
        "zipcode": "19814-903"
    },
    {
        "city": "Assis",
        "state": "SP",
        "district": "Jardim Europa",
        "street": "Rua Romano Spinardi",
        "zipcode": "19814-660"
    },
    {
        "city": "Assis",
        "state": "SP",
        "district": "Jardim Paulista",
        "street": "Avenida Rui Barbosa",
        "zipcode": "19815-001"
    },
    {
        "city": "Assis",
        "state": "SP",
        "district": "Conjunto Habitacional Nelson Marcondes",
        "street": "Rua Salvador Rodrigues Moraes",
        "zipcode": "19813-530"
    },
    {
        "city": "Assis",
        "state": "SP",
        "district": "Centro",
        "street": "Rua Sebastião da Silva Leite",
        "zipcode": "19814-371"
    },
    {
        "city": "Assis",
        "state": "SP",
        "district": "Jardim Paraná",
        "street": "Avenida Teotônio Vilela",
        "zipcode": "19807-370"
    },
    {
        "city": "Assis",
        "state": "SP",
        "district": "Parque das Acácias",
        "street": "Rua Vinícius de Moraes",
        "zipcode": "19813-135"
    },
    {
        "city": "Assis",
        "state": "SP",
        "district": "Vila Progresso",
        "street": "Rua Vitória",
        "zipcode": "19807-590"
    },
    {
        "city": "Assis",
        "state": "SP",
        "district": "Conjunto Habitacional Assis IV",
        "street": "Rua Waldomiro Carpintieri",
        "zipcode": "19807-810"
    },
    {
        "city": "Assis",
        "state": "SP",
        "district": "Vila Rosangela",
        "street": "Avenida Abílio Duarte de Souza",
        "zipcode": "19813-000"
    },
    {
        "city": "Assis",
        "state": "SP",
        "district": "Jardim Alvorada",
        "street": "Rua Deolindo Menk Plens",
        "zipcode": "19807-600"
    },
    {
        "city": "Assis",
        "state": "SP",
        "district": "Parque das Flores",
        "street": "Rua Gilberto Pedro Longo",
        "zipcode": "19813-351"
    },
    {
        "city": "Assis",
        "state": "SP",
        "district": "Conjunto Habitacional Assis IV",
        "street": "Rua José A. Soares",
        "zipcode": "19807-804"
    },
    {
        "city": "Assis",
        "state": "SP",
        "district": "Vila Maria",
        "street": "Rua Arlindo Quintino Freitas",
        "zipcode": "19814-140"
    },
    {
        "city": "Assis",
        "state": "SP",
        "district": "Cdhu",
        "street": "Rua Eleutério M Oliveira",
        "zipcode": "19813-376"
    },
    {
        "city": "Assis",
        "state": "SP",
        "district": "Cdhu",
        "street": "Rua Estéfano Paulo Ambrósio",
        "zipcode": "19813-377"
    },
    {
        "city": "Assis",
        "state": "SP",
        "district": "Vila Marialves",
        "street": "Rua B",
        "zipcode": "19804-635"
    },
    {
        "city": "Assis",
        "state": "SP",
        "district": "Centro",
        "street": "Rua Brasil",
        "zipcode": "19800-100"
    },
    {
        "city": "Assis",
        "state": "SP",
        "district": "Jardim Santa Amélia",
        "street": "Rua das Camélias",
        "zipcode": "19816-097"
    },
    {
        "city": "Assis",
        "state": "SP",
        "district": "Vila Santa Elisa",
        "street": "Rua Capitão Francisco Rodrigues Garcia",
        "zipcode": "19800-131"
    },
    {
        "city": "Assis",
        "state": "SP",
        "district": "Jardim Amaury",
        "street": "Rua Catorze de Julho",
        "zipcode": "19816-267"
    },
    {
        "city": "Assis",
        "state": "SP",
        "district": "Vila Ouro Verde",
        "street": "Rua dos Comerciários",
        "zipcode": "19816-215"
    },
    {
        "city": "Assis",
        "state": "SP",
        "district": "Centro",
        "street": "Rua Fadlo Jabur",
        "zipcode": "19800-045"
    },
    {
        "city": "Assis",
        "state": "SP",
        "district": "Centro",
        "street": "Rua Floriano Peixoto",
        "zipcode": "19800-010"
    },
    {
        "city": "Assis",
        "state": "SP",
        "district": "Jardim Taquaral",
        "street": "Rua Gino Bertolucci",
        "zipcode": "19816-325"
    },
    {
        "city": "Assis",
        "state": "SP",
        "district": "Vl Glória",
        "street": "Avenida Glória",
        "zipcode": "19806-095"
    },
    {
        "city": "Assis",
        "state": "SP",
        "district": "Centro",
        "street": "Rua Gonçalves Dias",
        "zipcode": "19800-110"
    },
    {
        "city": "Assis",
        "state": "SP",
        "district": "Jardim Europa",
        "street": "Rua Hermógenes de Souza",
        "zipcode": "19815-160"
    },
    {
        "city": "Assis",
        "state": "SP",
        "district": "Jardim Europa",
        "street": "Rua Hilda Castilho de Avelar Garcia",
        "zipcode": "19815-195"
    },
    {
        "city": "Assis",
        "state": "SP",
        "district": "Vila Clementina",
        "street": "Rua Ibitira",
        "zipcode": "19802-329"
    },
    {
        "city": "Assis",
        "state": "SP",
        "district": "Jardim Faria",
        "street": "Avenida Independência",
        "zipcode": "19807-160"
    },
    {
        "city": "Assis",
        "state": "SP",
        "district": "Jardim América",
        "street": "Rua João Oswaldo Bondi",
        "zipcode": "19816-300"
    },
    {
        "city": "Assis",
        "state": "SP",
        "district": "Jardim Europa",
        "street": "Rua José B. Arantes",
        "zipcode": "19815-240"
    },
    {
        "city": "Assis",
        "state": "SP",
        "district": "Centro",
        "street": "Rua José Bonifácio",
        "zipcode": "19800-070"
    },
    {
        "city": "Assis",
        "state": "SP",
        "district": "Centro",
        "street": "Rua José Bonifácio",
        "zipcode": "19800-072"
    },
    {
        "city": "Assis",
        "state": "SP",
        "district": "Jardim Paulista",
        "street": "Rua José de Camargo",
        "zipcode": "19815-065"
    },
    {
        "city": "Assis",
        "state": "SP",
        "district": "Centro",
        "street": "Rua José Vieira da Cunha e Silva",
        "zipcode": "19800-140"
    },
    {
        "city": "Assis",
        "state": "SP",
        "district": "Vila Santa Elisa",
        "street": "Rua José Vieira da Cunha e Silva",
        "zipcode": "19800-141"
    },
    {
        "city": "Assis",
        "state": "SP",
        "district": "Jardim América",
        "street": "Rua Luciana Leandro C. Bondi",
        "zipcode": "19815-088"
    },
    {
        "city": "Assis",
        "state": "SP",
        "district": "Vila Claudia",
        "street": "Rua Nelson Rosa",
        "zipcode": "19815-325"
    },
    {
        "city": "Assis",
        "state": "SP",
        "district": "Centro",
        "street": "Avenida Nove de Julho",
        "zipcode": "19800-020"
    },
    {
        "city": "Assis",
        "state": "SP",
        "district": "Vila Ouro Verde",
        "street": "Rua Palmares",
        "zipcode": "19816-020"
    },
    {
        "city": "Assis",
        "state": "SP",
        "district": "Vila Claudia",
        "street": "Rua Pedro Caetano de Almeida",
        "zipcode": "19815-320"
    },
    {
        "city": "Assis",
        "state": "SP",
        "district": "Vila Santa Rita",
        "street": "Rua Rosita",
        "zipcode": "19807-313"
    },
    {
        "city": "Assis",
        "state": "SP",
        "district": "Park Residencial Colinas",
        "street": "Rua Joaquim Francisco Serra",
        "zipcode": "19803-522"
    },
    {
        "city": "Assis",
        "state": "SP",
        "district": "Park Residencial Colinas",
        "street": "Rua Maria Aparecida dos Reis Souza",
        "zipcode": "19803-524"
    },
    {
        "city": "Assis",
        "state": "SP",
        "district": "Park Residencial Colinas",
        "street": "Rua Luiz de Souza Campos",
        "zipcode": "19803-500"
    },
    {
        "city": "Assis",
        "state": "SP",
        "district": "Jardim Santa Clara",
        "street": "Rua Regina de Almeida",
        "zipcode": "19804-780"
    },
    {
        "city": "Assis",
        "state": "SP",
        "district": "Jardim Paulista",
        "street": "Avenida Rui Barbosa",
        "zipcode": "19816-000"
    },
    {
        "city": "Assis",
        "state": "SP",
        "district": "Centro",
        "street": "Praça São Paulo",
        "zipcode": "19800-039"
    },
    {
        "city": "Assis",
        "state": "SP",
        "district": "Centro",
        "street": "Rua Sebastião Leite do Canto",
        "zipcode": "19800-120"
    },
    {
        "city": "Assis",
        "state": "SP",
        "district": "Centro",
        "street": "Rua Tiradentes",
        "zipcode": "19800-091"
    },
    {
        "city": "Assis",
        "state": "SP",
        "district": "Vila Ouro Verde",
        "street": "Rua Valverde",
        "zipcode": "19816-210"
    },
    {
        "city": "Assis",
        "state": "SP",
        "district": "Centro",
        "street": "Rua Vinte e Quatro de Maio",
        "zipcode": "19800-030"
    },
    {
        "city": "Assis",
        "state": "SP",
        "district": "Jardim Santa Amélia",
        "street": "Rua das Violetas",
        "zipcode": "19816-090"
    },
    {
        "city": "Assis",
        "state": "SP",
        "district": "Vila Tênis Clube",
        "street": "Rua João Cambali",
        "zipcode": "19806-400"
    },
    {
        "city": "Assis",
        "state": "SP",
        "district": "Vila Claudia",
        "street": "Rua Brasílio Ramos",
        "zipcode": "19815-305"
    },
    {
        "city": "Assis",
        "state": "SP",
        "district": "Centro",
        "street": "Rua Osvaldo Cruz",
        "zipcode": "19800-080"
    },
    {
        "city": "Assis",
        "state": "SP",
        "district": "Vila Progresso",
        "street": "Rua Irmã Maria José Trevisan",
        "zipcode": "19807-655"
    },
    {
        "city": "Assis",
        "state": "SP",
        "district": "Jardim Monte Carlo",
        "street": "Rua Francisco Tozoni",
        "zipcode": "19815-400"
    },
    {
        "city": "Assis",
        "state": "SP",
        "district": "Jardim Morumbi",
        "street": "Rua Francisco Bonanato",
        "zipcode": "19815-555"
    },
    {
        "city": "Assis",
        "state": "SP",
        "district": "Jardim Morumbi",
        "street": "Avenida Hum",
        "zipcode": "19815-500"
    },
    {
        "city": "Assis",
        "state": "SP",
        "district": "Nova Assis",
        "street": "Rua Enfermeira Deolinda Entringer da Silva",
        "zipcode": "19803-455"
    },
    {
        "city": "Assis",
        "state": "SP",
        "district": "Centro",
        "street": "Rua Ângelo Bertoncini",
        "zipcode": "19800-150"
    },
    {
        "city": "Assis",
        "state": "SP",
        "district": "Vila São Jorge",
        "street": "Rua Aurélio Salotti",
        "zipcode": "19801-125"
    },
    {
        "city": "Assis",
        "state": "SP",
        "district": "Vila Xavier",
        "street": "Rua Benedito Lutti",
        "zipcode": "19802-060"
    },
    {
        "city": "Assis",
        "state": "SP",
        "district": "Vila São Cristóvão",
        "street": "Rua da Cabilina",
        "zipcode": "19801-200"
    },
    {
        "city": "Assis",
        "state": "SP",
        "district": "Centro",
        "street": "Rua Capitão Garcez",
        "zipcode": "19800-260"
    },
    {
        "city": "Assis",
        "state": "SP",
        "district": "Vila Ribeiro",
        "street": "Rua Cassemiro de Abreu",
        "zipcode": "19802-040"
    },
    {
        "city": "Assis",
        "state": "SP",
        "district": "Vila Xavier",
        "street": "Rua Coelho Neto",
        "zipcode": "19802-070"
    },
    {
        "city": "Assis",
        "state": "SP",
        "district": "San Fernando Valley",
        "street": "Rua Conceição Chicolli",
        "zipcode": "19800-380"
    },
    {
        "city": "Assis",
        "state": "SP",
        "district": "Vila Xavier",
        "street": "Rua Doutor Clibas Pinto Ferraz",
        "zipcode": "19802-030"
    },
    {
        "city": "Assis",
        "state": "SP",
        "district": "Vila Xavier",
        "street": "Rua Emílio de Menezes",
        "zipcode": "19802-101"
    },
    {
        "city": "Assis",
        "state": "SP",
        "district": "Vila Brasileira",
        "street": "Rua Emílio de Menezes",
        "zipcode": "19802-102"
    },
    {
        "city": "Assis",
        "state": "SP",
        "district": "Vila Ribeiro",
        "street": "Rua Euclides da Cunha",
        "zipcode": "19802-141"
    },
    {
        "city": "Assis",
        "state": "SP",
        "district": "Vila Ribeiro",
        "street": "Rua Fagundes Varela",
        "zipcode": "19802-150"
    },
    {
        "city": "Assis",
        "state": "SP",
        "district": "Vila Ribeiro",
        "street": "Rua Fagundes Varela",
        "zipcode": "19802-151"
    },
    {
        "city": "Assis",
        "state": "SP",
        "district": "Conjunto Habitacional Assis IV",
        "street": "Rua José Justo Garcia",
        "zipcode": "19804-739"
    },
    {
        "city": "Assis",
        "state": "SP",
        "district": "Portal de São Francisco",
        "street": "Rua Daniel Ribeiro de Andrade",
        "zipcode": "19807-459"
    },
    {
        "city": "Assis",
        "state": "SP",
        "district": "Vila Ribeiro",
        "street": "Rua Fagundes Varela",
        "zipcode": "19802-152"
    },
    {
        "city": "Assis",
        "state": "SP",
        "district": "Centro",
        "street": "Rua Fernão Dias",
        "zipcode": "19800-270"
    },
    {
        "city": "Assis",
        "state": "SP",
        "district": "San Fernando Valley",
        "street": "Rua Filomena C. Longo",
        "zipcode": "19800-425"
    },
    {
        "city": "Assis",
        "state": "SP",
        "district": "Vila São Cristóvão",
        "street": "Rua João Flauzino Pereira",
        "zipcode": "19801-180"
    },
    {
        "city": "Assis",
        "state": "SP",
        "district": "Vila São Cristóvão",
        "street": "Rua Francisco Lourenço",
        "zipcode": "19801-170"
    },
    {
        "city": "Assis",
        "state": "SP",
        "district": "Centro",
        "street": "Rua Humberto de Campos",
        "zipcode": "19802-090"
    },
    {
        "city": "Assis",
        "state": "SP",
        "district": "Vila Mercedes",
        "street": "Rua Humberto de Campos",
        "zipcode": "19802-092"
    },
    {
        "city": "Assis",
        "state": "SP",
        "district": "Centro",
        "street": "Rua Joaquim Galvão de França",
        "zipcode": "19800-170"
    },
    {
        "city": "Assis",
        "state": "SP",
        "district": "Vila Palhares",
        "street": "Rua Joaquim Galvão de França",
        "zipcode": "19800-171"
    },
    {
        "city": "Assis",
        "state": "SP",
        "district": "Jardim Canadá",
        "street": "Rua José Furlan",
        "zipcode": "19801-040"
    },
    {
        "city": "Assis",
        "state": "SP",
        "district": "San Fernando Valley",
        "street": "Rua José Sebastião da Rosa",
        "zipcode": "19800-420"
    },
    {
        "city": "Assis",
        "state": "SP",
        "district": "San Fernando Valley",
        "street": "Rua Lafayette de Santana",
        "zipcode": "19800-360"
    },
    {
        "city": "Assis",
        "state": "SP",
        "district": "San Fernando Valley",
        "street": "Rua Nove",
        "zipcode": "19800-440"
    },
    {
        "city": "Assis",
        "state": "SP",
        "district": "Jardim Eldorado",
        "street": "Rua O",
        "zipcode": "19803-330"
    },
    {
        "city": "Assis",
        "state": "SP",
        "district": "Vila Xavier",
        "street": "Rua Olavo Bilac",
        "zipcode": "19802-020"
    },
    {
        "city": "Assis",
        "state": "SP",
        "district": "Jardim Canadá",
        "street": "Rua Otávio Floriano Rosa",
        "zipcode": "19801-030"
    },
    {
        "city": "Assis",
        "state": "SP",
        "district": "San Fernando Valley",
        "street": "Avenida Otto Ribeiro",
        "zipcode": "19800-300"
    },
    {
        "city": "Assis",
        "state": "SP",
        "district": "Centro",
        "street": "Rua Padre Anchieta",
        "zipcode": "19800-310"
    },
    {
        "city": "Assis",
        "state": "SP",
        "district": "Centro",
        "street": "Rua Palmares",
        "zipcode": "19800-230"
    },
    {
        "city": "Assis",
        "state": "SP",
        "district": "Vila Santo Antônio",
        "street": "Rua Quinze de Novembro",
        "zipcode": "19800-160"
    },
    {
        "city": "Assis",
        "state": "SP",
        "district": "Centro",
        "street": "Rua Regente Feijó",
        "zipcode": "19800-210"
    },
    {
        "city": "Assis",
        "state": "SP",
        "district": "Centro",
        "street": "Rua Santa Cruz",
        "zipcode": "19800-320"
    },
    {
        "city": "Assis",
        "state": "SP",
        "district": "Vila Paraíso",
        "street": "Rua São Paulo",
        "zipcode": "19802-002"
    },
    {
        "city": "Assis",
        "state": "SP",
        "district": "Centro",
        "street": "Rua Sebastião da Silva Leite",
        "zipcode": "19800-200"
    },
    {
        "city": "Assis",
        "state": "SP",
        "district": "Jardim Canadá",
        "street": "Rua Suzana Hofacter dos Santos",
        "zipcode": "19801-120"
    },
    {
        "city": "Assis",
        "state": "SP",
        "district": "Centro",
        "street": "Rua Treze de Maio",
        "zipcode": "19800-240"
    },
    {
        "city": "Assis",
        "state": "SP",
        "district": "Vila Xavier",
        "street": "Rua Vicente de Carvalho",
        "zipcode": "19802-120"
    },
    {
        "city": "Assis",
        "state": "SP",
        "district": "Vila Ribeiro",
        "street": "Rua Vicente de Carvalho",
        "zipcode": "19802-121"
    },
    {
        "city": "Assis",
        "state": "SP",
        "district": "Vila Ribeiro",
        "street": "Rua Vicente de Carvalho",
        "zipcode": "19802-122"
    },
    {
        "city": "Assis",
        "state": "SP",
        "district": "Vila Ribeiro",
        "street": "Rua Viriato Corrêa",
        "zipcode": "19802-162"
    },
    {
        "city": "Assis",
        "state": "SP",
        "district": "San Fernando Valley",
        "street": "Rua Viriato Correia",
        "zipcode": "19800-400"
    },
    {
        "city": "Assis",
        "state": "SP",
        "district": "Vila São Cristóvão",
        "street": "Avenida Benedito Pires",
        "zipcode": "19801-210"
    },
    {
        "city": "Assis",
        "state": "SP",
        "district": "Vila São Jorge",
        "street": "Rua Primeiro de Outubro",
        "zipcode": "19801-160"
    },
    {
        "city": "Assis",
        "state": "SP",
        "district": "Vila Ribeiro",
        "street": "Rua Senhor do Bonfim",
        "zipcode": "19802-132"
    },
    {
        "city": "Assis",
        "state": "SP",
        "district": "Vila Xavier",
        "street": "Rua Cruz e Souza",
        "zipcode": "19802-110"
    },
    {
        "city": "Assis",
        "state": "SP",
        "district": "Jardim Canadá",
        "street": "Rua Eros Guerreiro Tangerino",
        "zipcode": "19801-010"
    },
    {
        "city": "Assis",
        "state": "SP",
        "district": "Centro",
        "street": "Rua Joaquim José da Siqueira",
        "zipcode": "19800-190"
    },
    {
        "city": "Assis",
        "state": "SP",
        "district": "Vila Palhares",
        "street": "Rua Joaquim José da Siqueira",
        "zipcode": "19800-191"
    },
    {
        "city": "Assis",
        "state": "SP",
        "district": "Vila Brasileira",
        "street": "Rua Ananias Máximo de Souza",
        "zipcode": "19802-420"
    },
    {
        "city": "Assis",
        "state": "SP",
        "district": "Vila Ribeiro",
        "street": "Rua Antônio Augusto Palhares",
        "zipcode": "19803-025"
    },
    {
        "city": "Assis",
        "state": "SP",
        "district": "Jardim 3 Américas I",
        "street": "Rua Antonio Circhia",
        "zipcode": "19802-550"
    },
    {
        "city": "Assis",
        "state": "SP",
        "district": "Vila Nova Florínea",
        "street": "Rua Ary de Mello",
        "zipcode": "19803-110"
    },
    {
        "city": "Assis",
        "state": "SP",
        "district": "Jardim Eldorado",
        "street": "Rua Augusto Batista",
        "zipcode": "19803-310"
    },
    {
        "city": "Assis",
        "state": "SP",
        "district": "Vila Prudenciana",
        "street": "Rua Cateto",
        "zipcode": "19803-240"
    },
    {
        "city": "Assis",
        "state": "SP",
        "district": "Jardim 3 Américas I",
        "street": "Rua Cinco",
        "zipcode": "19802-500"
    },
    {
        "city": "Assis",
        "state": "SP",
        "district": "Jardim Eldorado",
        "street": "Rua Clarindo Gomes Alvarez",
        "zipcode": "19803-390"
    },
    {
        "city": "Assis",
        "state": "SP",
        "district": "Jardim Eldorado",
        "street": "Rua Diogo Hernandez",
        "zipcode": "19803-400"
    },
    {
        "city": "Assis",
        "state": "SP",
        "district": "Vila Ribeiro",
        "street": "Rua Dona Senhorinha de Souza",
        "zipcode": "19802-350"
    },
    {
        "city": "Assis",
        "state": "SP",
        "district": "Vila Operária",
        "street": "Rua Doutor Teixeira Camargo",
        "zipcode": "19804-000"
    },
    {
        "city": "Assis",
        "state": "SP",
        "district": "Jardim Eldorado",
        "street": "Rua Fernando Calonico",
        "zipcode": "19803-415"
    },
    {
        "city": "Assis",
        "state": "SP",
        "district": "Jardim 3 Américas II",
        "street": "Rua Fernando Salinas",
        "zipcode": "19803-040"
    },
    {
        "city": "Assis",
        "state": "SP",
        "district": "Vila Independência",
        "street": "Estrada da Fortuninha",
        "zipcode": "19802-220"
    },
    {
        "city": "Assis",
        "state": "SP",
        "district": "Vila Nova Florínea",
        "street": "Rua Horácio Mendes",
        "zipcode": "19803-300"
    },
    {
        "city": "Assis",
        "state": "SP",
        "district": "Vila Ribeiro",
        "street": "Rua Horácio Rodrigues Tucunduva",
        "zipcode": "19803-030"
    },
    {
        "city": "Assis",
        "state": "SP",
        "district": "Vila Fortuna",
        "street": "Rua João Batista Dantas",
        "zipcode": "19802-430"
    },
    {
        "city": "Assis",
        "state": "SP",
        "district": "Vila Ribeiro",
        "street": "Rua João Bricoli",
        "zipcode": "19803-000"
    },
    {
        "city": "Assis",
        "state": "SP",
        "district": "Vila Ribeiro",
        "street": "Rua João Ribeiro",
        "zipcode": "19802-170"
    },
    {
        "city": "Assis",
        "state": "SP",
        "district": "Vila Fabiano",
        "street": "Rua João Ribeiro",
        "zipcode": "19802-172"
    },
    {
        "city": "Assis",
        "state": "SP",
        "district": "Jardim Eldorado",
        "street": "Rua Jorge Francisco Giorgi Júnior",
        "zipcode": "19803-325"
    },
    {
        "city": "Assis",
        "state": "SP",
        "district": "Vila Ribeiro",
        "street": "Rua José Cândido Fonseca",
        "zipcode": "19803-005"
    },
    {
        "city": "Assis",
        "state": "SP",
        "district": "Jardim 3 Américas II",
        "street": "Rua José Clemente",
        "zipcode": "19803-045"
    },
    {
        "city": "Assis",
        "state": "SP",
        "district": "Vila Prudenciana",
        "street": "Rua José dos Santos Silva",
        "zipcode": "19803-250"
    },
    {
        "city": "Assis",
        "state": "SP",
        "district": "Vila Nova Florínea",
        "street": "Rua Jotto Casadio",
        "zipcode": "19803-120"
    },
    {
        "city": "Assis",
        "state": "SP",
        "district": "Vila Brasileira",
        "street": "Rua Jupurá",
        "zipcode": "19802-450"
    },
    {
        "city": "Assis",
        "state": "SP",
        "district": "Vila Prudenciana",
        "street": "Rua Laranjeiras",
        "zipcode": "19803-200"
    },
    {
        "city": "Assis",
        "state": "SP",
        "district": "Vila Fabiano",
        "street": "Rua Leonor",
        "zipcode": "19802-191"
    },
    {
        "city": "Assis",
        "state": "SP",
        "district": "Vila Fabiano",
        "street": "Rua Leonor",
        "zipcode": "19802-192"
    },
    {
        "city": "Assis",
        "state": "SP",
        "district": "Vila Ribeiro",
        "street": "Avenida Luiz Chizzolini",
        "zipcode": "19802-480"
    },
    {
        "city": "Assis",
        "state": "SP",
        "district": "Vila Xavier",
        "street": "Rua Luiz de Souza Cardoso",
        "zipcode": "19802-330"
    },
    {
        "city": "Assis",
        "state": "SP",
        "district": "Vila Clementina",
        "street": "Rua Maestro Augusto Mathias",
        "zipcode": "19802-310"
    },
    {
        "city": "Assis",
        "state": "SP",
        "district": "Vila Nova Florínea",
        "street": "Rua Marco Antônio Ribeiro",
        "zipcode": "19803-260"
    },
    {
        "city": "Assis",
        "state": "SP",
        "district": "Vila Nova Florínea",
        "street": "Rua Marco Pólo",
        "zipcode": "19803-280"
    },
    {
        "city": "Assis",
        "state": "SP",
        "district": "Jardim 3 Américas II",
        "street": "Rua Miguel Nespoli",
        "zipcode": "19803-055"
    },
    {
        "city": "Assis",
        "state": "SP",
        "district": "Jardim Eldorado",
        "street": "Rua Nelson Semeghini",
        "zipcode": "19803-370"
    },
    {
        "city": "Assis",
        "state": "SP",
        "district": "Vila Prudenciana",
        "street": "Rua Nivaldo Neres Gusmão",
        "zipcode": "19803-160"
    },
    {
        "city": "Assis",
        "state": "SP",
        "district": "Jardim 3 Américas I",
        "street": "Rua Nove",
        "zipcode": "19802-523"
    },
    {
        "city": "Assis",
        "state": "SP",
        "district": "Vila Operária",
        "street": "Rua Otacílio Dorácio Mendes",
        "zipcode": "19804-020"
    },
    {
        "city": "Assis",
        "state": "SP",
        "district": "Vila Prudenciana",
        "street": "Rua Pântano",
        "zipcode": "19803-220"
    },
    {
        "city": "Assis",
        "state": "SP",
        "district": "Vila Independência",
        "street": "Rua do Pavão",
        "zipcode": "19802-211"
    },
    {
        "city": "Assis",
        "state": "SP",
        "district": "Vila Ribeiro",
        "street": "Rua Pedro Nigro",
        "zipcode": "19802-475"
    },
    {
        "city": "Assis",
        "state": "SP",
        "district": "Vila Soubhie",
        "street": "Rua Santa Sofia",
        "zipcode": "19802-490"
    },
    {
        "city": "Assis",
        "state": "SP",
        "district": "Jardim Eldorado",
        "street": "Rua Silvina C. Miguel",
        "zipcode": "19803-315"
    },
    {
        "city": "Assis",
        "state": "SP",
        "district": "Vila Operária",
        "street": "Avenida Siqueira Campos",
        "zipcode": "19804-010"
    },
    {
        "city": "Assis",
        "state": "SP",
        "district": "Vila Clementina",
        "street": "Rua Tibiriçá",
        "zipcode": "19802-370"
    },
    {
        "city": "Assis",
        "state": "SP",
        "district": "Jardim 3 Américas I",
        "street": "Rua Um",
        "zipcode": "19802-555"
    },
    {
        "city": "Assis",
        "state": "SP",
        "district": "Vila Fabiano",
        "street": "Rua Vicente Fernandes Figueiredo",
        "zipcode": "19802-181"
    },
    {
        "city": "Assis",
        "state": "SP",
        "district": "Jardim 3 Américas II",
        "street": "Rua Sete",
        "zipcode": "19803-060"
    },
    {
        "city": "Assis",
        "state": "SP",
        "district": "Vila Nova Florínea",
        "street": "Rua C",
        "zipcode": "19803-289"
    },
    {
        "city": "Assis",
        "state": "SP",
        "district": "Vila Nova Florínea",
        "street": "Rua Ivaí",
        "zipcode": "19803-150"
    },
    {
        "city": "Assis",
        "state": "SP",
        "district": "Nova Assis",
        "street": "Rua Quatorze",
        "zipcode": "19803-420"
    },
    {
        "city": "Assis",
        "state": "SP",
        "district": "Nova Assis",
        "street": "Rua Seis",
        "zipcode": "19803-475"
    },
    {
        "city": "Assis",
        "state": "SP",
        "district": "Vila Marialves",
        "street": "Rua Antônio M. Piemont",
        "zipcode": "19804-670"
    },
    {
        "city": "Assis",
        "state": "SP",
        "district": "Vila Cambuí",
        "street": "Avenida Antônio Zuardi",
        "zipcode": "19804-040"
    },
    {
        "city": "Assis",
        "state": "SP",
        "district": "Vila São Benedito",
        "street": "Rua Barão da Passagem",
        "zipcode": "19804-570"
    },
    {
        "city": "Assis",
        "state": "SP",
        "district": "Vila Silvestre",
        "street": "Rua Belo Horizonte",
        "zipcode": "19804-500"
    },
    {
        "city": "Assis",
        "state": "SP",
        "district": "Vila Progresso",
        "street": "Rua Bonfim",
        "zipcode": "19807-635"
    },
    {
        "city": "Assis",
        "state": "SP",
        "district": "Vila Cambuí",
        "street": "Rua Cambuí",
        "zipcode": "19804-180"
    },
    {
        "city": "Assis",
        "state": "SP",
        "district": "Vila Cambuí",
        "street": "Rua Caramuru",
        "zipcode": "19804-031"
    },
    {
        "city": "Assis",
        "state": "SP",
        "district": "Núcleo Habitacional Dirceu Gomes Cervilha",
        "street": "Rua Dionísio Fernandes dos Santos",
        "zipcode": "19804-760"
    },
    {
        "city": "Assis",
        "state": "SP",
        "district": "Vila Cambuí",
        "street": "Rua Doutor Geraldo Nogueira Leite",
        "zipcode": "19804-050"
    },
    {
        "city": "Assis",
        "state": "SP",
        "district": "Jardim Taquaral",
        "street": "Rua E",
        "zipcode": "19816-320"
    },
    {
        "city": "Assis",
        "state": "SP",
        "district": "Núcleo Habitacional Dirceu Gomes Cervilha",
        "street": "Rua Edilson Aparecido dos Santos",
        "zipcode": "19804-765"
    },
    {
        "city": "Assis",
        "state": "SP",
        "district": "Vila Operária",
        "street": "Rua Espírito Santo",
        "zipcode": "19804-170"
    },
    {
        "city": "Assis",
        "state": "SP",
        "district": "Vila São Benedito",
        "street": "Rua da Fortuna",
        "zipcode": "19804-589"
    },
    {
        "city": "Assis",
        "state": "SP",
        "district": "Vila Cambuí",
        "street": "Rua Guanabara",
        "zipcode": "19804-185"
    },
    {
        "city": "Assis",
        "state": "SP",
        "district": "Núcleo Habitacional Dirceu Gomes Cervilha",
        "street": "Rua Ivone Vanda Henning",
        "zipcode": "19804-742"
    },
    {
        "city": "Assis",
        "state": "SP",
        "district": "Vila Carvalho",
        "street": "Rua João Contruci",
        "zipcode": "19804-330"
    },
    {
        "city": "Assis",
        "state": "SP",
        "district": "Núcleo Habitacional Dirceu Gomes Cervilha",
        "street": "Rua João Vítor",
        "zipcode": "19804-768"
    },
    {
        "city": "Assis",
        "state": "SP",
        "district": "Vila Operária",
        "street": "Rua Joaquim Murtinho",
        "zipcode": "19804-120"
    },
    {
        "city": "Assis",
        "state": "SP",
        "district": "Vila Operária",
        "street": "Rua Padre Jorge Frezzini",
        "zipcode": "19804-100"
    },
    {
        "city": "Assis",
        "state": "SP",
        "district": "Núcleo Habitacional Dirceu Gomes Cervilha",
        "street": "Rua José Cassemiro dos Santos",
        "zipcode": "19804-752"
    },
    {
        "city": "Assis",
        "state": "SP",
        "district": "Núcleo Habitacional Dirceu Gomes Cervilha",
        "street": "Rua José Pereira",
        "zipcode": "19804-735"
    },
    {
        "city": "Assis",
        "state": "SP",
        "district": "Conjunto Habitacional Assis IV",
        "street": "Rua José Gomes de Araújo",
        "zipcode": "19804-737"
    },
    {
        "city": "Assis",
        "state": "SP",
        "district": "Vila Marialves",
        "street": "Rua José Torres",
        "zipcode": "19804-620"
    },
    {
        "city": "Assis",
        "state": "SP",
        "district": "Vila Carvalho",
        "street": "Rua Marcos S. Garcia",
        "zipcode": "19804-230"
    },
    {
        "city": "Assis",
        "state": "SP",
        "district": "Núcleo Habitacional Dirceu Gomes Cervilha",
        "street": "Rua Maria de Lourdes Nascimento",
        "zipcode": "19804-710"
    },
    {
        "city": "Assis",
        "state": "SP",
        "district": "Vila São Benedito",
        "street": "Rua da Matriz",
        "zipcode": "19804-590"
    },
    {
        "city": "Assis",
        "state": "SP",
        "district": "Centro",
        "street": "Travessa Mauá",
        "zipcode": "19806-015"
    },
    {
        "city": "Assis",
        "state": "SP",
        "district": "Vila São Benedito",
        "street": "Rua dos Missionários",
        "zipcode": "19804-690"
    },
    {
        "city": "Assis",
        "state": "SP",
        "district": "Núcleo Habitacional Dirceu Gomes Cervilha",
        "street": "Rua Neide M. Cardoso",
        "zipcode": "19804-748"
    },
    {
        "city": "Assis",
        "state": "SP",
        "district": "Vila Operária",
        "street": "Rua Osvaldo Prata",
        "zipcode": "19804-155"
    },
    {
        "city": "Assis",
        "state": "SP",
        "district": "Vila Silvestre",
        "street": "Rua Paraná",
        "zipcode": "19804-430"
    },
    {
        "city": "Assis",
        "state": "SP",
        "district": "Vila Maria Izabel",
        "street": "Rua da Penha",
        "zipcode": "19804-540"
    },
    {
        "city": "Assis",
        "state": "SP",
        "district": "Vila Maria Izabel",
        "street": "Rua Portugal",
        "zipcode": "19804-440"
    },
    {
        "city": "Assis",
        "state": "SP",
        "district": "Jardim Eldorado",
        "street": "Rua Rúbens Pinheiro da Silva",
        "zipcode": "19803-410"
    },
    {
        "city": "Assis",
        "state": "SP",
        "district": "Vila Maria Izabel",
        "street": "Rua Santo Amaro",
        "zipcode": "19804-480"
    },
    {
        "city": "Assis",
        "state": "SP",
        "district": "Vila Souza",
        "street": "Rua São Bento",
        "zipcode": "19804-360"
    },
    {
        "city": "Assis",
        "state": "SP",
        "district": "Vila Carvalho",
        "street": "Rua São João",
        "zipcode": "19804-220"
    },
    {
        "city": "Assis",
        "state": "SP",
        "district": "Vila Souza",
        "street": "Rua São José",
        "zipcode": "19804-355"
    },
    {
        "city": "Assis",
        "state": "SP",
        "district": "Vila Operária",
        "street": "Rua São Judas Tadeu",
        "zipcode": "19804-140"
    },
    {
        "city": "Assis",
        "state": "SP",
        "district": "Vila Carvalho",
        "street": "Rua São Pedro",
        "zipcode": "19804-240"
    },
    {
        "city": "Assis",
        "state": "SP",
        "district": "Vila Silvestre",
        "street": "Rua Sete",
        "zipcode": "19804-505"
    },
    {
        "city": "Assis",
        "state": "SP",
        "district": "Vila Operária",
        "street": "Rua Vicente Negri",
        "zipcode": "19804-150"
    },
    {
        "city": "Assis",
        "state": "SP",
        "district": "Vila Marialves",
        "street": "Rua Xavier de Vasconcelos",
        "zipcode": "19804-600"
    },
    {
        "city": "Assis",
        "state": "SP",
        "district": "Centro",
        "street": "Rua João Pessoa",
        "zipcode": "19806-000"
    },
    {
        "city": "Assis",
        "state": "SP",
        "district": "Park Residencial Colinas",
        "street": "Rua Manoel Gomes",
        "zipcode": "19803-514"
    },
    {
        "city": "Assis",
        "state": "SP",
        "district": "Vila Silvestre",
        "street": "Rua Santa Efigênia",
        "zipcode": "19804-510"
    },
    {
        "city": "Assis",
        "state": "SP",
        "district": "Vila Carvalho",
        "street": "Rua Vicente Mercadante",
        "zipcode": "19804-350"
    },
    {
        "city": "Assis",
        "state": "SP",
        "district": "Vila Maria Izabel",
        "street": "Rua Caxambu",
        "zipcode": "19804-460"
    },
    {
        "city": "Assis",
        "state": "SP",
        "district": "Núcleo Habitacional Dirceu Gomes Cervilha",
        "street": "Rua José Vítor",
        "zipcode": "19804-725"
    },
    {
        "city": "Assis",
        "state": "SP",
        "district": "Vila Maria Izabel",
        "street": "Rua Santa Izabel",
        "zipcode": "19804-530"
    },
    {
        "city": "Assis",
        "state": "SP",
        "district": "Centro",
        "street": "Praça Antonio Silva",
        "zipcode": "19806-145"
    },
    {
        "city": "Assis",
        "state": "SP",
        "district": "Vila Central",
        "street": "Rua André Perini",
        "zipcode": "19806-270"
    },
    {
        "city": "Assis",
        "state": "SP",
        "district": "Vila Prudenciana",
        "street": "Travessa Cecílio Cervilha Tarifa",
        "zipcode": "19803-237"
    },
    {
        "city": "Assis",
        "state": "SP",
        "district": "Parque Universitário",
        "street": "Rua Antônio Cinto",
        "zipcode": "19806-750"
    },
    {
        "city": "Assis",
        "state": "SP",
        "district": "Vila Orestes",
        "street": "Rua Antônio Negrizolo",
        "zipcode": "19806-310"
    },
    {
        "city": "Assis",
        "state": "SP",
        "district": "Parque Universitário",
        "street": "Rua Aparecido Lourenço",
        "zipcode": "19806-710"
    },
    {
        "city": "Assis",
        "state": "SP",
        "district": "Vila Tênis Clube",
        "street": "Rua Aurélio Cataldi",
        "zipcode": "19806-340"
    },
    {
        "city": "Assis",
        "state": "SP",
        "district": "Centro",
        "street": "Rua Benjamin Constant",
        "zipcode": "19806-130"
    },
    {
        "city": "Assis",
        "state": "SP",
        "district": "Vila Central",
        "street": "Travessa Santo Campo",
        "zipcode": "19806-199"
    },
    {
        "city": "Assis",
        "state": "SP",
        "district": "Vila Central",
        "street": "Rua Carlos Gomes",
        "zipcode": "19806-031"
    },
    {
        "city": "Assis",
        "state": "SP",
        "district": "Vl Glória",
        "street": "Rua Doutor Souza Costa",
        "zipcode": "19807-010"
    },
    {
        "city": "Assis",
        "state": "SP",
        "district": "Centro",
        "street": "Rua Duque de Caxias",
        "zipcode": "19806-110"
    },
    {
        "city": "Assis",
        "state": "SP",
        "district": "Vila Arlindo Luz",
        "street": "Rua Francisco Bueno",
        "zipcode": "19804-205"
    },
    {
        "city": "Assis",
        "state": "SP",
        "district": "Vila Tênis Clube",
        "street": "Rua Governador Garcês",
        "zipcode": "19806-360"
    },
    {
        "city": "Assis",
        "state": "SP",
        "district": "Parque Universitário",
        "street": "Rua João Dominiciano Rosa",
        "zipcode": "19806-745"
    },
    {
        "city": "Assis",
        "state": "SP",
        "district": "Parque Universitário",
        "street": "Rua João Longo",
        "zipcode": "19806-725"
    },
    {
        "city": "Assis",
        "state": "SP",
        "district": "Parque Universitário",
        "street": "Rua José Jorge Rodrigues",
        "zipcode": "19806-720"
    },
    {
        "city": "Assis",
        "state": "SP",
        "district": "Vila Santa Cecília",
        "street": "Rua Orozimbo Leão de Carvalho",
        "zipcode": "19806-042"
    },
    {
        "city": "Assis",
        "state": "SP",
        "district": "Vila Orestes",
        "street": "Rua Orozimbo Leão de Carvalho",
        "zipcode": "19806-043"
    },
    {
        "city": "Assis",
        "state": "SP",
        "district": "Centro",
        "street": "Rua Padre Gusmão",
        "zipcode": "19806-080"
    },
    {
        "city": "Assis",
        "state": "SP",
        "district": "Vila Orestes",
        "street": "Rua Padre Gusmão",
        "zipcode": "19806-082"
    },
    {
        "city": "Assis",
        "state": "SP",
        "district": "Vila Tênis Clube",
        "street": "Rua Padre Gusmão",
        "zipcode": "19806-083"
    },
    {
        "city": "Assis",
        "state": "SP",
        "district": "Park Residencial Colinas",
        "street": "Rua Geraldo Brizola",
        "zipcode": "19803-512"
    },
    {
        "city": "Assis",
        "state": "SP",
        "district": "Park Residencial Colinas",
        "street": "Rua Belmira Rosa de Souza",
        "zipcode": "19803-518"
    },
    {
        "city": "Assis",
        "state": "SP",
        "district": "Nova Assis",
        "street": "Rua Renato Luciano Gomes Tangerino",
        "zipcode": "19803-465"
    },
    {
        "city": "Assis",
        "state": "SP",
        "district": "Vila Central",
        "street": "Rua Platina",
        "zipcode": "19806-230"
    },
    {
        "city": "Assis",
        "state": "SP",
        "district": "Vila Tênis Clube",
        "street": "Rua Prado Kely",
        "zipcode": "19806-380"
    },
    {
        "city": "Assis",
        "state": "SP",
        "district": "Vila Tênis Clube",
        "street": "Rua Professora Dona Candinha",
        "zipcode": "19806-390"
    },
    {
        "city": "Assis",
        "state": "SP",
        "district": "Centro",
        "street": "Rua Prudente de Moraes",
        "zipcode": "19806-160"
    },
    {
        "city": "Assis",
        "state": "SP",
        "district": "Parque Universitário",
        "street": "Rua Reverendo João Batista Ribeiro Neto",
        "zipcode": "19806-705"
    },
    {
        "city": "Assis",
        "state": "SP",
        "district": "Centro",
        "street": "Rua Santa Cecília",
        "zipcode": "19806-050"
    },
    {
        "city": "Assis",
        "state": "SP",
        "district": "Vila Santa Cecília",
        "street": "Rua Santa Cecília",
        "zipcode": "19806-052"
    },
    {
        "city": "Assis",
        "state": "SP",
        "district": "Vila Orestes",
        "street": "Rua Santa Cecília",
        "zipcode": "19806-053"
    },
    {
        "city": "Assis",
        "state": "SP",
        "district": "Centro",
        "street": "Rua Santos Dumont",
        "zipcode": "19806-060"
    },
    {
        "city": "Assis",
        "state": "SP",
        "district": "Vila Orestes",
        "street": "Rua Santos Dumont",
        "zipcode": "19806-063"
    },
    {
        "city": "Assis",
        "state": "SP",
        "district": "Vila Central",
        "street": "Travessa Saudade",
        "zipcode": "19806-209"
    },
    {
        "city": "Assis",
        "state": "SP",
        "district": "Vila Orestes",
        "street": "Rua Sílvio Bombonati",
        "zipcode": "19806-280"
    },
    {
        "city": "Assis",
        "state": "SP",
        "district": "Centro",
        "street": "Rua Visconde do Rio Branco",
        "zipcode": "19806-070"
    },
    {
        "city": "Assis",
        "state": "SP",
        "district": "Vila Santa Cecília",
        "street": "Rua Visconde do Rio Branco",
        "zipcode": "19806-071"
    },
    {
        "city": "Assis",
        "state": "SP",
        "district": "Vila Orestes",
        "street": "Rua Visconde do Rio Branco",
        "zipcode": "19806-072"
    },
    {
        "city": "Assis",
        "state": "SP",
        "district": "Vila Central",
        "street": "Rua Professor Lourenço Carneiro",
        "zipcode": "19806-200"
    },
    {
        "city": "Assis",
        "state": "SP",
        "district": "Vl Glória",
        "street": "Rua Doutor Fernando Costa",
        "zipcode": "19807-000"
    },
    {
        "city": "Assis",
        "state": "SP",
        "district": "Vila Santa Cecília",
        "street": "Rua Martim Afonso",
        "zipcode": "19806-320"
    },
    {
        "city": "Assis",
        "state": "SP",
        "district": "Park Residencial Colinas",
        "street": "Rua Francisco Burali",
        "zipcode": "19803-534"
    },
    {
        "city": "Assis",
        "state": "SP",
        "district": "Park Residencial Colinas",
        "street": "Rua Grisanto Barchi",
        "zipcode": "19803-536"
    },
    {
        "city": "Assis",
        "state": "SP",
        "district": "Park Residencial Colinas",
        "street": "Rua Palmira Arruda Borrego",
        "zipcode": "19803-540"
    },
    {
        "city": "Assis",
        "state": "SP",
        "district": "Park Residencial Colinas",
        "street": "Rua Afonso da Silva Neto",
        "zipcode": "19803-548"
    },
    {
        "city": "Assis",
        "state": "SP",
        "district": "Vila Orestes",
        "street": "Rua Martim Afonso",
        "zipcode": "19806-321"
    },
    {
        "city": "Assis",
        "state": "SP",
        "district": "Vila Santa Cecília",
        "street": "Rua João Ramalho",
        "zipcode": "19806-180"
    },
    {
        "city": "Assis",
        "state": "SP",
        "district": "Centro",
        "street": "Rua Quintino Bocaiúva",
        "zipcode": "19806-150"
    },
    {
        "city": "Assis",
        "state": "SP",
        "district": "Vila Tênis Clube",
        "street": "Rua João Gambali",
        "zipcode": "19806-420"
    },
    {
        "city": "Assis",
        "state": "SP",
        "district": "Vila Lúcia Maria",
        "street": "Rua Antônio José dos Santos",
        "zipcode": "19807-050"
    },
    {
        "city": "Assis",
        "state": "SP",
        "district": "Jardim Paraná",
        "street": "Rua Apucarana",
        "zipcode": "19807-540"
    },
    {
        "city": "Assis",
        "state": "SP",
        "district": "Vila Progresso",
        "street": "Rua Araçatuba",
        "zipcode": "19807-620"
    },
    {
        "city": "Assis",
        "state": "SP",
        "district": "Vila Progresso",
        "street": "Rua Araraquara",
        "zipcode": "19807-570"
    },
    {
        "city": "Assis",
        "state": "SP",
        "district": "Vila Progresso",
        "street": "Rua Avaré",
        "zipcode": "19807-630"
    },
    {
        "city": "Assis",
        "state": "SP",
        "district": "Vila Progresso",
        "street": "Rua Bom Retiro",
        "zipcode": "19807-650"
    },
    {
        "city": "Assis",
        "state": "SP",
        "district": "Jardim Paraná",
        "street": "Rua Cambara",
        "zipcode": "19807-535"
    },
    {
        "city": "Assis",
        "state": "SP",
        "district": "Jardim Paraná",
        "street": "Rua Cambé",
        "zipcode": "19807-545"
    },
    {
        "city": "Assis",
        "state": "SP",
        "district": "Jardim Paraná",
        "street": "Rua Campo Mourão",
        "zipcode": "19807-355"
    },
    {
        "city": "Assis",
        "state": "SP",
        "district": "Jardim Paraná",
        "street": "Rua Castro",
        "zipcode": "19807-500"
    },
    {
        "city": "Assis",
        "state": "SP",
        "district": "Parque das Acácias",
        "street": "Rua Cinco",
        "zipcode": "19813-104"
    },
    {
        "city": "Assis",
        "state": "SP",
        "district": "Vl Glória",
        "street": "Rua Cônego Heriberto",
        "zipcode": "19807-150"
    },
    {
        "city": "Assis",
        "state": "SP",
        "district": "Vila Progresso",
        "street": "Rua Constantino Gini",
        "zipcode": "19807-638"
    },
    {
        "city": "Assis",
        "state": "SP",
        "district": "Vila Nova Santana",
        "street": "Rua Constantino Gini",
        "zipcode": "19807-070"
    },
    {
        "city": "Assis",
        "state": "SP",
        "district": "Jardim Paraná",
        "street": "Rua Cornélio Procópio",
        "zipcode": "19807-350"
    },
    {
        "city": "Assis",
        "state": "SP",
        "district": "Conjunto Habitacional Assis IV",
        "street": "Rua Domingo Gerolim",
        "zipcode": "19807-812"
    },
    {
        "city": "Assis",
        "state": "SP",
        "district": "Vl Glória",
        "street": "Rua Doutor Francisco de Campos",
        "zipcode": "19807-030"
    },
    {
        "city": "Assis",
        "state": "SP",
        "district": "Conjunto Habitacional Assis IV",
        "street": "Rua Durval Carpentieri",
        "zipcode": "19807-808"
    },
    {
        "city": "Assis",
        "state": "SP",
        "district": "Vila Rodrigues",
        "street": "Rua Elias Machado de Pádua",
        "zipcode": "19807-240"
    },
    {
        "city": "Assis",
        "state": "SP",
        "district": "CDA",
        "street": "Rua do Estanho",
        "zipcode": "19812-020"
    },
    {
        "city": "Assis",
        "state": "SP",
        "district": "Vila Progresso",
        "street": "Travessa Fema",
        "zipcode": "19807-634"
    },
    {
        "city": "Assis",
        "state": "SP",
        "district": "Conjunto Habitacional Assis IV",
        "street": "Rua J. G. Araújo",
        "zipcode": "19807-806"
    },
    {
        "city": "Assis",
        "state": "SP",
        "district": "Conjunto Habitacional Assis IV",
        "street": "Rua João Nobile",
        "zipcode": "19807-826"
    },
    {
        "city": "Assis",
        "state": "SP",
        "district": "Vila Rodrigues",
        "street": "Rua José Giorge",
        "zipcode": "19807-260"
    },
    {
        "city": "Assis",
        "state": "SP",
        "district": "Vila Progresso",
        "street": "Rua Limeira",
        "zipcode": "19807-560"
    },
    {
        "city": "Assis",
        "state": "SP",
        "district": "Jardim Paraná",
        "street": "Rua Londrina",
        "zipcode": "19807-505"
    },
    {
        "city": "Assis",
        "state": "SP",
        "district": "Vila Rodrigues",
        "street": "Rua Lopes Trovão",
        "zipcode": "19807-300"
    },
    {
        "city": "Assis",
        "state": "SP",
        "district": "Park Residencial Colinas",
        "street": "Rua Fábio Alves de Souza",
        "zipcode": "19803-544"
    },
    {
        "city": "Assis",
        "state": "SP",
        "district": "Vila Rodrigues",
        "street": "Rua Marconi",
        "zipcode": "19807-280"
    },
    {
        "city": "Assis",
        "state": "SP",
        "district": "CDA",
        "street": "Rua do Mogno",
        "zipcode": "19812-050"
    },
    {
        "city": "Assis",
        "state": "SP",
        "district": "Vila Nova Santana",
        "street": "Rua Monsenhor David",
        "zipcode": "19807-110"
    },
    {
        "city": "Assis",
        "state": "SP",
        "district": "Jardim Alvorada",
        "street": "Rua Monte Azul",
        "zipcode": "19807-595"
    },
    {
        "city": "Assis",
        "state": "SP",
        "district": "Vila Progresso",
        "street": "Rua Monte Mor",
        "zipcode": "19807-580"
    },
    {
        "city": "Assis",
        "state": "SP",
        "district": "Vila Rodrigues",
        "street": "Rua Monteiro Lobato",
        "zipcode": "19807-275"
    },
    {
        "city": "Assis",
        "state": "SP",
        "district": "Conjunto Habitacional Assis IV",
        "street": "Rua Orlando Melo",
        "zipcode": "19807-818"
    },
    {
        "city": "Assis",
        "state": "SP",
        "district": "Vila Nova Santana",
        "street": "Rua Paraíba",
        "zipcode": "19807-277"
    },
    {
        "city": "Assis",
        "state": "SP",
        "district": "Jardim Paraná",
        "street": "Rua Paranaguá",
        "zipcode": "19807-325"
    },
    {
        "city": "Assis",
        "state": "SP",
        "district": "Jardim Paraná",
        "street": "Rua Paranapanema",
        "zipcode": "19807-340"
    },
    {
        "city": "Assis",
        "state": "SP",
        "district": "Vila Santa Rita",
        "street": "Avenida Paschoal Santilli",
        "zipcode": "19807-221"
    },
    {
        "city": "Assis",
        "state": "SP",
        "district": "Aeroporto",
        "street": "Estrada da Pinga",
        "zipcode": "19808-020"
    },
    {
        "city": "Assis",
        "state": "SP",
        "district": "Vila Ebenezer",
        "street": "Rua Platina",
        "zipcode": "19807-190"
    },
    {
        "city": "Assis",
        "state": "SP",
        "district": "Jardim Paraná",
        "street": "Rua Ponta Grossa",
        "zipcode": "19807-330"
    },
    {
        "city": "Assis",
        "state": "SP",
        "district": "Parque das Acácias",
        "street": "Rua da Primavera",
        "zipcode": "19813-160"
    },
    {
        "city": "Assis",
        "state": "SP",
        "district": "Conjunto Habitacional Assis IV",
        "street": "Rua Robert Rammert",
        "zipcode": "19807-822"
    },
    {
        "city": "Assis",
        "state": "SP",
        "district": "Jardim Paraná",
        "street": "Rua Santa Mariana",
        "zipcode": "19807-550"
    },
    {
        "city": "Assis",
        "state": "SP",
        "district": "Jardim Faria",
        "street": "Rua Santa Terezinha",
        "zipcode": "19807-833"
    },
    {
        "city": "Assis",
        "state": "SP",
        "district": "Vila Progresso",
        "street": "Rua São Carlos",
        "zipcode": "19807-610"
    },
    {
        "city": "Assis",
        "state": "SP",
        "district": "Vl Glória",
        "street": "Rua Sebastião Mendes Santana",
        "zipcode": "19807-040"
    },
    {
        "city": "Assis",
        "state": "SP",
        "district": "Vila Rodrigues",
        "street": "Rua Sílvio Bombonati",
        "zipcode": "19807-255"
    },
    {
        "city": "Assis",
        "state": "SP",
        "district": "Vl Glória",
        "street": "Rua Cardoso de Melo",
        "zipcode": "19807-140"
    },
    {
        "city": "Assis",
        "state": "SP",
        "district": "CDA",
        "street": "Rua da Castanheira",
        "zipcode": "19812-060"
    },
    {
        "city": "Assis",
        "state": "SP",
        "district": "Conjunto Habitacional Assis IV",
        "street": "Rua Antônio Andrade",
        "zipcode": "19807-802"
    },
    {
        "city": "Assis",
        "state": "SP",
        "district": "Conjunto Habitacional Assis IV",
        "street": "Rua Ana Panzner Rammert",
        "zipcode": "19807-824"
    },
    {
        "city": "Assis",
        "state": "SP",
        "district": "Centro de Desenvolvimento de Assis",
        "street": "Rua Pedro de Souza",
        "zipcode": "19812-120"
    },
    {
        "city": "Assis",
        "state": "SP",
        "district": "Vila Santa Rita",
        "street": "Rua Carlópolis",
        "zipcode": "19807-250"
    },
    {
        "city": "Assis",
        "state": "SP",
        "district": "Vila Progresso",
        "street": "Travessa Vitor Bello",
        "zipcode": "19807-632"
    },
    {
        "city": "Assis",
        "state": "SP",
        "district": "Parque das Acácias",
        "street": "Rua Olympio de Mello",
        "zipcode": "19813-105"
    },
    {
        "city": "Assis",
        "state": "SP",
        "district": "Centro",
        "street": "Rua Barão do Rio Branco",
        "zipcode": "19814-020"
    },
    {
        "city": "Assis",
        "state": "SP",
        "district": "Centro",
        "street": "Rua Benedecto Spinardi",
        "zipcode": "19814-050"
    },
    {
        "city": "Assis",
        "state": "SP",
        "district": "Centro",
        "street": "Rua Castro Alves",
        "zipcode": "19814-060"
    },
    {
        "city": "Assis",
        "state": "SP",
        "district": "Jardim São Nicolau",
        "street": "Rua Comendador José Zillo",
        "zipcode": "19813-300"
    },
    {
        "city": "Assis",
        "state": "SP",
        "district": "Parque das Acácias",
        "street": "Rua José Teixeira Sobrinho",
        "zipcode": "19813-115"
    },
    {
        "city": "Assis",
        "state": "SP",
        "district": "Centro",
        "street": "Rua Dom Pedro I",
        "zipcode": "19814-070"
    },
    {
        "city": "Assis",
        "state": "SP",
        "district": "Parque das Acácias",
        "street": "Rua E",
        "zipcode": "19813-120"
    },
    {
        "city": "Assis",
        "state": "SP",
        "district": "Parque das Acácias",
        "street": "Rua Gildo dos Santos Granjeia",
        "zipcode": "19813-140"
    },
    {
        "city": "Assis",
        "state": "SP",
        "district": "Conjunto Habitacional Nelson Marcondes",
        "street": "Rua Joana H. Carricondo",
        "zipcode": "19813-565"
    },
    {
        "city": "Assis",
        "state": "SP",
        "district": "Conjunto Habitacional Nelson Marcondes",
        "street": "Rua José Conceição",
        "zipcode": "19813-515"
    },
    {
        "city": "Assis",
        "state": "SP",
        "district": "Conjunto Habitacional Nelson Marcondes",
        "street": "Rua José Tucunduva Neto",
        "zipcode": "19813-520"
    },
    {
        "city": "Assis",
        "state": "SP",
        "district": "Conjunto Habitacional Nelson Marcondes",
        "street": "Rua Laurindo Scavassa",
        "zipcode": "19813-575"
    },
    {
        "city": "Assis",
        "state": "SP",
        "district": "Parque das Flores",
        "street": "Rua Luís Santos Sismeiro",
        "zipcode": "19813-327"
    },
    {
        "city": "Assis",
        "state": "SP",
        "district": "Parque das Flores",
        "street": "Rua Mário Pereira Damásio",
        "zipcode": "19813-368"
    },
    {
        "city": "Assis",
        "state": "SP",
        "district": "Parque das Flores",
        "street": "Rua Mário Ticianeli",
        "zipcode": "19813-330"
    },
    {
        "city": "Assis",
        "state": "SP",
        "district": "Parque das Acácias",
        "street": "Rua das Orquídeas",
        "zipcode": "19813-145"
    },
    {
        "city": "Assis",
        "state": "SP",
        "district": "Jardim São Nicolau",
        "street": "Rua Osvaldo Júlio",
        "zipcode": "19813-345"
    },
    {
        "city": "Assis",
        "state": "SP",
        "district": "Parque das Flores",
        "street": "Rua Pedro Rossi",
        "zipcode": "19813-349"
    },
    {
        "city": "Assis",
        "state": "SP",
        "district": "Parque das Acácias",
        "street": "Rua Silvino Luiz da Rosa",
        "zipcode": "19813-130"
    },
    {
        "city": "Assis",
        "state": "SP",
        "district": "Centro",
        "street": "Rua Smith Vasconcelos",
        "zipcode": "19814-010"
    },
    {
        "city": "Assis",
        "state": "SP",
        "district": "Parque das Flores",
        "street": "Viela Três",
        "zipcode": "19813-366"
    },
    {
        "city": "Assis",
        "state": "SP",
        "district": "Conjunto Habitacional Nelson Marcondes",
        "street": "Rua Yossef Salim",
        "zipcode": "19813-555"
    },
    {
        "city": "Assis",
        "state": "SP",
        "district": "Parque das Acácias",
        "street": "Rua dos Crisântemos",
        "zipcode": "19813-155"
    },
    {
        "city": "Assis",
        "state": "SP",
        "district": "Parque das Flores",
        "street": "Rua Arttur Crepaldi",
        "zipcode": "19813-355"
    },
    {
        "city": "Assis",
        "state": "SP",
        "district": "Jardim São Nicolau",
        "street": "Rua Minas Gerais",
        "zipcode": "19813-360"
    },
    {
        "city": "Assis",
        "state": "SP",
        "district": "Parque das Flores",
        "street": "Rua Três",
        "zipcode": "19813-335"
    },
    {
        "city": "Assis",
        "state": "SP",
        "district": "Conjunto Habitacional Nelson Marcondes",
        "street": "Rua Antônio Rocha",
        "zipcode": "19813-535"
    },
    {
        "city": "Assis",
        "state": "SP",
        "district": "Jardim São Nicolau",
        "street": "Rua Belém",
        "zipcode": "19813-310"
    },
    {
        "city": "Assis",
        "state": "SP",
        "district": "Jardim São Nicolau",
        "street": "Rua Mato Grosso",
        "zipcode": "19813-325"
    },
    {
        "city": "Assis",
        "state": "SP",
        "district": "Parque das Flores",
        "street": "Rua Vereador Nazário Antônio de Oliveira",
        "zipcode": "19813-370"
    },
    {
        "city": "Assis",
        "state": "SP",
        "district": "Conjunto Habitacional Nelson Marcondes",
        "street": "Rua Valter Domingues",
        "zipcode": "19813-527"
    },
    {
        "city": "Assis",
        "state": "SP",
        "district": "Cdhu",
        "street": "Rua Dois",
        "zipcode": "19813-373"
    },
    {
        "city": "Assis",
        "state": "SP",
        "district": "Cdhu",
        "street": "Rua Ivoneu Funari",
        "zipcode": "19813-371"
    },
    {
        "city": "Assis",
        "state": "SP",
        "district": "Cdhu",
        "street": "Rua Três",
        "zipcode": "19813-375"
    },
    {
        "city": "Assis",
        "state": "SP",
        "district": "Cdhu",
        "street": "Rua Um",
        "zipcode": "19813-374"
    },
    {
        "city": "Assis",
        "state": "SP",
        "district": "Parque das Flores",
        "street": "Rua Pedro Rossi Contrucci",
        "zipcode": "19813-321"
    },
    {
        "city": "Assis",
        "state": "SP",
        "district": "Centro de Desenvolvimento de Assis",
        "street": "Avenida Raja Jabur",
        "zipcode": "19812-125"
    },
    {
        "city": "Assis",
        "state": "SP",
        "district": "Jardim Aeroporto",
        "street": "Rua Vinte e Dois",
        "zipcode": "19813-208"
    },
    {
        "city": "Assis",
        "state": "SP",
        "district": "Centro",
        "street": "Rua Ângelo Bertoncini",
        "zipcode": "19814-330"
    },
    {
        "city": "Assis",
        "state": "SP",
        "district": "Jardim São Nicolau",
        "street": "Rua Antônio Frederico Ozanan",
        "zipcode": "19813-305"
    },
    {
        "city": "Assis",
        "state": "SP",
        "district": "Centro",
        "street": "Rua Antônio Vieira Dias",
        "zipcode": "19814-380"
    },
    {
        "city": "Assis",
        "state": "SP",
        "district": "Centro",
        "street": "Rua Antônio Vieira Dias",
        "zipcode": "19814-381"
    },
    {
        "city": "Assis",
        "state": "SP",
        "district": "Centro",
        "street": "Avenida Armando Salles de Oliveira",
        "zipcode": "19802-080"
    },
    {
        "city": "Assis",
        "state": "SP",
        "district": "Jardim Paulista",
        "street": "Rua da Assembléia",
        "zipcode": "19815-045"
    },
    {
        "city": "Assis",
        "state": "SP",
        "district": "Vila Fiuza",
        "street": "Travessa Brasil",
        "zipcode": "19814-240"
    },
    {
        "city": "Assis",
        "state": "SP",
        "district": "Vila Jardim Aeroporto",
        "street": "Rua C",
        "zipcode": "19814-109"
    },
    {
        "city": "Assis",
        "state": "SP",
        "district": "Centro",
        "street": "Rua Capitão Francisco Rodrigues Garcia",
        "zipcode": "19814-310"
    },
    {
        "city": "Assis",
        "state": "SP",
        "district": "Vila Rosangela",
        "street": "Rua Carlos Lacerda",
        "zipcode": "19814-200"
    },
    {
        "city": "Assis",
        "state": "SP",
        "district": "Jardim Paulista",
        "street": "Rua da Constituição",
        "zipcode": "19815-040"
    },
    {
        "city": "Assis",
        "state": "SP",
        "district": "Vila Fiuza",
        "street": "Rua Coronel Fiuza",
        "zipcode": "19814-220"
    },
    {
        "city": "Assis",
        "state": "SP",
        "district": "Vila Fiuza",
        "street": "Rua Dona Palmira",
        "zipcode": "19814-530"
    },
    {
        "city": "Assis",
        "state": "SP",
        "district": "Vila Jardim Aeroporto",
        "street": "Rua Dona Tina Mercadante",
        "zipcode": "19814-120"
    },
    {
        "city": "Assis",
        "state": "SP",
        "district": "Jardim Paulista",
        "street": "Avenida Doutor Dória",
        "zipcode": "19815-050"
    },
    {
        "city": "Assis",
        "state": "SP",
        "district": "Conjunto Habitacional Nelson Marcondes",
        "street": "Rua Doutor João Maldonado Júnior",
        "zipcode": "19813-543"
    },
    {
        "city": "Assis",
        "state": "SP",
        "district": "Parque Acácias",
        "street": "Rua Salvino Luis da Rosa",
        "zipcode": "19813-090"
    },
    {
        "city": "Assis",
        "state": "SP",
        "district": "Residencial Esmeralda Park",
        "street": "Rua dos Topázios",
        "zipcode": "19808-066"
    },
    {
        "city": "Assis",
        "state": "SP",
        "district": "Chácara Alvorada",
        "street": "Avenida Walter Busnelo",
        "zipcode": "19811-200"
    },
    {
        "city": "Assis",
        "state": "SP",
        "district": "Residencial Esmeralda Park",
        "street": "Rua das Safiras",
        "zipcode": "19808-058"
    },
    {
        "city": "Assis",
        "state": "SP",
        "district": "Residencial Esmeralda Park",
        "street": "Rua dos Diamantes",
        "zipcode": "19808-062"
    },
    {
        "city": "Assis",
        "state": "SP",
        "district": "Residencial Esmeralda Park",
        "street": "Rua das Águas Marinhas",
        "zipcode": "19808-052"
    },
    {
        "city": "Assis",
        "state": "SP",
        "district": "Residencial Esmeralda Park",
        "street": "Rua dos Rubis",
        "zipcode": "19808-078"
    },
    {
        "city": "Assis",
        "state": "SP",
        "district": "Jardim Europa",
        "street": "Rua Doutor Licurgo Castro Santos",
        "zipcode": "19814-600"
    },
    {
        "city": "Assis",
        "state": "SP",
        "district": "Centro",
        "street": "Rua Doutor Luiz Pizza",
        "zipcode": "19814-351"
    },
    {
        "city": "Assis",
        "state": "SP",
        "district": "Jardim Europa",
        "street": "Rua Ezequiel Correia",
        "zipcode": "19814-650"
    },
    {
        "city": "Assis",
        "state": "SP",
        "district": "Centro",
        "street": "Rua Fernão Dias",
        "zipcode": "19814-411"
    },
    {
        "city": "Assis",
        "state": "SP",
        "district": "Jardim Paulista",
        "street": "Rua Flauzina Liberata de Jesus",
        "zipcode": "19815-020"
    },
    {
        "city": "Assis",
        "state": "SP",
        "district": "Jardim Paulista",
        "street": "Rua Flauzina Liberata de Jesus",
        "zipcode": "19815-021"
    },
    {
        "city": "Assis",
        "state": "SP",
        "district": "Jardim Europa",
        "street": "Rua Francisco de O. Castro",
        "zipcode": "19814-690"
    },
    {
        "city": "Assis",
        "state": "SP",
        "district": "Vila Adileta",
        "street": "Rua Gonçalves Ledo",
        "zipcode": "19814-260"
    },
    {
        "city": "Assis",
        "state": "SP",
        "district": "Jardim Europa",
        "street": "Rua João Cabianca",
        "zipcode": "19814-640"
    },
    {
        "city": "Assis",
        "state": "SP",
        "district": "Vila Fiuza",
        "street": "Rua João Fiuza",
        "zipcode": "19814-520"
    },
    {
        "city": "Assis",
        "state": "SP",
        "district": "Vila Jardim Aeroporto",
        "street": "Avenida João Pasquarelli",
        "zipcode": "19814-115"
    },
    {
        "city": "Assis",
        "state": "SP",
        "district": "Vila Maria",
        "street": "Rua Jorge Quintino Freitas",
        "zipcode": "19814-150"
    },
    {
        "city": "Assis",
        "state": "SP",
        "district": "Centro",
        "street": "Rua José Nogueira Marmontel",
        "zipcode": "19814-360"
    },
    {
        "city": "Assis",
        "state": "SP",
        "district": "Centro",
        "street": "Rua José Vieira da Cunha e Silva",
        "zipcode": "19814-320"
    },
    {
        "city": "Assis",
        "state": "SP",
        "district": "Residencial Esmeralda Park",
        "street": "Rua das Pérolas",
        "zipcode": "19808-070"
    },
    {
        "city": "Assis",
        "state": "SP",
        "district": "Centro de Desenvolvimento de Assis",
        "street": "Rua Benedito Jose Kume",
        "zipcode": "19812-115"
    },
    {
        "city": "Assis",
        "state": "SP",
        "district": "Residencial Esmeralda Park",
        "street": "Rua das Opalas",
        "zipcode": "19808-072"
    },
    {
        "city": "Assis",
        "state": "SP",
        "district": "Residencial Esmeralda Park",
        "street": "Rua dos Brilhantes",
        "zipcode": "19808-050"
    },
    {
        "city": "Assis",
        "state": "SP",
        "district": "Residencial Esmeralda Park",
        "street": "Rua das Granadas",
        "zipcode": "19808-060"
    },
    {
        "city": "Assis",
        "state": "SP",
        "district": "Jardim Europa",
        "street": "Rua Júlio P. Albuquerque",
        "zipcode": "19814-700"
    },
    {
        "city": "Assis",
        "state": "SP",
        "district": "Vila Zulmira",
        "street": "Rua Manoel Lopes Campos",
        "zipcode": "19814-130"
    },
    {
        "city": "Assis",
        "state": "SP",
        "district": "Vila Brasileira",
        "street": "Rua Marechal Rondon",
        "zipcode": "19802-470"
    },
    {
        "city": "Assis",
        "state": "SP",
        "district": "Jardim Europa",
        "street": "Rua Nagila Jubran",
        "zipcode": "19814-570"
    },
    {
        "city": "Assis",
        "state": "SP",
        "district": "Jardim Paulista",
        "street": "Avenida Otto Ribeiro",
        "zipcode": "19814-470"
    },
    {
        "city": "Assis",
        "state": "SP",
        "district": "Vila Rosangela",
        "street": "Rua Professora Neise R. C. Nogueira",
        "zipcode": "19814-190"
    },
    {
        "city": "Assis",
        "state": "SP",
        "district": "Jardim Europa",
        "street": "Rua Raimundo Recco",
        "zipcode": "19814-620"
    },
    {
        "city": "Assis",
        "state": "SP",
        "district": "Vila dos Comerciários",
        "street": "Rua Reinaldo Pires",
        "zipcode": "19813-541"
    },
    {
        "city": "Assis",
        "state": "SP",
        "district": "Centro",
        "street": "Rua Roberto Castela",
        "zipcode": "19814-460"
    },
    {
        "city": "Assis",
        "state": "SP",
        "district": "Jardim Paulista",
        "street": "Avenida Rui Barbosa",
        "zipcode": "19815-000"
    },
    {
        "city": "Assis",
        "state": "SP",
        "district": "Centro",
        "street": "Rua Santa Rosa",
        "zipcode": "19814-440"
    },
    {
        "city": "Assis",
        "state": "SP",
        "district": "Jardim Paulista",
        "street": "Rua Santa Rosa",
        "zipcode": "19815-011"
    },
    {
        "city": "Assis",
        "state": "SP",
        "district": "Vila Maria",
        "street": "Rua da Saudade",
        "zipcode": "19814-210"
    },
    {
        "city": "Assis",
        "state": "SP",
        "district": "Vila Rosangela",
        "street": "Rua Sebastião da Silva Leite",
        "zipcode": "19814-370"
    },
    {
        "city": "Assis",
        "state": "SP",
        "district": "Centro",
        "street": "Rua Sete de Setembro",
        "zipcode": "19814-400"
    },
    {
        "city": "Assis",
        "state": "SP",
        "district": "Vila Operária",
        "street": "Avenida Siqueira Campos",
        "zipcode": "19804-011"
    },
    {
        "city": "Assis",
        "state": "SP",
        "district": "Jardim Europa",
        "street": "Rua Victor C. Romano",
        "zipcode": "19814-560"
    },
    {
        "city": "Assis",
        "state": "SP",
        "district": "Jardim Europa",
        "street": "Rua Vinte e Três",
        "zipcode": "19814-505"
    },
    {
        "city": "Assis",
        "state": "SP",
        "district": "Vila Ribeiro",
        "street": "Rua Vivaldo Teixeira Carvalho",
        "zipcode": "19803-015"
    },
    {
        "city": "Assis",
        "state": "SP",
        "district": "Nova Assis",
        "street": "Rua José Rodrigues Leme",
        "zipcode": "19803-440"
    },
    {
        "city": "Assis",
        "state": "SP",
        "district": "Conjunto Habitacional Irmã Catarina",
        "street": "Rua Doutor Carlos H. Andriolo",
        "zipcode": "19813-775"
    },
    {
        "city": "Assis",
        "state": "SP",
        "district": "Conjunto Habitacional Irmã Catarina",
        "street": "Rua Lions Clube de Assis",
        "zipcode": "19813-755"
    },
    {
        "city": "Assis",
        "state": "SP",
        "district": "Jardim Europa",
        "street": "Rua Alcides Bechelli",
        "zipcode": "19815-170"
    },
    {
        "city": "Assis",
        "state": "SP",
        "district": "Vila Ebenezer",
        "street": "Rua Amador Bueno",
        "zipcode": "19807-170"
    },
    {
        "city": "Assis",
        "state": "SP",
        "district": "Vila Claudia",
        "street": "Rua Ana A. R. de Andrade",
        "zipcode": "19815-335"
    },
    {
        "city": "Assis",
        "state": "SP",
        "district": "Vila Santo Antônio",
        "street": "Rua Ângelo Bertoncini",
        "zipcode": "19800-151"
    },
    {
        "city": "Assis",
        "state": "SP",
        "district": "Jardim Europa",
        "street": "Rua Antônio Bermejo",
        "zipcode": "19815-190"
    },
    {
        "city": "Assis",
        "state": "SP",
        "district": "Jardim Paulista",
        "street": "Rua Antônio da Silva Cunha Bueno",
        "zipcode": "19815-080"
    },
    {
        "city": "Assis",
        "state": "SP",
        "district": "Jardim Europa",
        "street": "Rua Antônio Holmo",
        "zipcode": "19815-230"
    },
    {
        "city": "Assis",
        "state": "SP",
        "district": "Vila Marialves",
        "street": "Rua Antônio R. M. de Barros",
        "zipcode": "19804-610"
    },
    {
        "city": "Assis",
        "state": "SP",
        "district": "Jardim Europa",
        "street": "Rua Armando do Amaral",
        "zipcode": "19815-120"
    },
    {
        "city": "Assis",
        "state": "SP",
        "district": "Jardim Europa",
        "street": "Rua Benedecto Spinardi",
        "zipcode": "19815-110"
    },
    {
        "city": "Assis",
        "state": "SP",
        "district": "Vila Funari",
        "street": "Rua Brasil",
        "zipcode": "19800-101"
    },
    {
        "city": "Assis",
        "state": "SP",
        "district": "Centro",
        "street": "Rua Capitão Assis",
        "zipcode": "19800-061"
    },
    {
        "city": "Assis",
        "state": "SP",
        "district": "Vila Ouro Verde",
        "street": "Rua Capitão Assis",
        "zipcode": "19816-030"
    },
    {
        "city": "Assis",
        "state": "SP",
        "district": "Jardim Europa",
        "street": "Rua Cupertino de Castro",
        "zipcode": "19815-135"
    },
    {
        "city": "Assis",
        "state": "SP",
        "district": "Jardim Paulista",
        "street": "Rua Diamantino Félix",
        "zipcode": "19815-077"
    },
    {
        "city": "Assis",
        "state": "SP",
        "district": "Vl Glória",
        "street": "Avenida Dom Antônio",
        "zipcode": "19806-170"
    },
    {
        "city": "Assis",
        "state": "SP",
        "district": "Jardim Europa",
        "street": "Rua Durval Morelli",
        "zipcode": "19815-215"
    },
    {
        "city": "Assis",
        "state": "SP",
        "district": "Jardim Paraná",
        "street": "Rua Jaguaraiva",
        "zipcode": "19807-365"
    },
    {
        "city": "Assis",
        "state": "SP",
        "district": "Parque Universitário",
        "street": "Rua João Firmino do Vale",
        "zipcode": "19806-730"
    },
    {
        "city": "Assis",
        "state": "SP",
        "district": "Jardim Europa",
        "street": "Rua João Jardim A. Pereira",
        "zipcode": "19815-165"
    },
    {
        "city": "Assis",
        "state": "SP",
        "district": "Vila Claudia",
        "street": "Rua João Pazinato",
        "zipcode": "19815-315"
    },
    {
        "city": "Assis",
        "state": "SP",
        "district": "Vila Ouro Verde",
        "street": "Rua José Antônio Ferreira",
        "zipcode": "19816-070"
    },
    {
        "city": "Assis",
        "state": "SP",
        "district": "Vila Ouro Verde",
        "street": "Rua José Bonifácio",
        "zipcode": "19816-040"
    },
    {
        "city": "Assis",
        "state": "SP",
        "district": "Jardim Europa",
        "street": "Rua José Cabianca",
        "zipcode": "19815-225"
    },
    {
        "city": "Assis",
        "state": "SP",
        "district": "Jardim Europa",
        "street": "Rua Joshey Leão",
        "zipcode": "19815-205"
    },
    {
        "city": "Assis",
        "state": "SP",
        "district": "Jardim Europa",
        "street": "Rua Luiz Leandro",
        "zipcode": "19815-245"
    },
    {
        "city": "Assis",
        "state": "SP",
        "district": "Centro",
        "street": "Rua Onze de Junho",
        "zipcode": "19800-050"
    },
    {
        "city": "Assis",
        "state": "SP",
        "district": "Vila Ouro Verde",
        "street": "Rua Osvaldo Cruz",
        "zipcode": "19816-050"
    },
    {
        "city": "Assis",
        "state": "SP",
        "district": "Vila Ouro Verde",
        "street": "Rua Padre David",
        "zipcode": "19816-010"
    },
    {
        "city": "Assis",
        "state": "SP",
        "district": "Jardim América",
        "street": "Rua Paraguai",
        "zipcode": "19815-086"
    },
    {
        "city": "Assis",
        "state": "SP",
        "district": "Parque das Flores",
        "street": "Rua Oliveiro Ramalho",
        "zipcode": "19813-352"
    },
    {
        "city": "Assis",
        "state": "SP",
        "district": "Vila Progresso",
        "street": "Rua Apparício A. Cordeiro",
        "zipcode": "19807-587"
    },
    {
        "city": "Assis",
        "state": "SP",
        "district": "Jardim Nova Olinda",
        "street": "Rua Nelson Reis",
        "zipcode": "19813-705"
    },
    {
        "city": "Assis",
        "state": "SP",
        "district": "Jardim Santa Amélia",
        "street": "Rua das Rosas",
        "zipcode": "19816-080"
    },
    {
        "city": "Assis",
        "state": "SP",
        "district": "Jardim Paulista",
        "street": "Rua Santa Rosa",
        "zipcode": "19815-090"
    },
    {
        "city": "Assis",
        "state": "SP",
        "district": "Jardim Europa",
        "street": "Rua Sebastião Mendes de Brito",
        "zipcode": "19815-140"
    },
    {
        "city": "Assis",
        "state": "SP",
        "district": "Jardim Europa",
        "street": "Rua Sebastião Nogueira Leite",
        "zipcode": "19815-130"
    },
    {
        "city": "Assis",
        "state": "SP",
        "district": "Vila Claudia",
        "street": "Rua Sete",
        "zipcode": "19815-314"
    },
    {
        "city": "Assis",
        "state": "SP",
        "district": "Vila Souza",
        "street": "Avenida Vereador David Passarinho",
        "zipcode": "19804-400"
    },
    {
        "city": "Assis",
        "state": "SP",
        "district": "Vila Claudia",
        "street": "Avenida Walter Antonio Fontana",
        "zipcode": "19815-340"
    },
    {
        "city": "Assis",
        "state": "SP",
        "district": "Jardim Amaury",
        "street": "Travessa Oito de Maio",
        "zipcode": "19816-250"
    },
    {
        "city": "Assis",
        "state": "SP",
        "district": "Jardim América",
        "street": "Rua Paraná",
        "zipcode": "19815-084"
    },
    {
        "city": "Assis",
        "state": "SP",
        "district": "Centro",
        "street": "Rua Osvaldo Cruz",
        "zipcode": "19800-081"
    },
    {
        "city": "Assis",
        "state": "SP",
        "district": "Jardim Monte Carlo",
        "street": "Rua Elpidio Guilherme",
        "zipcode": "19815-405"
    },
    {
        "city": "Assis",
        "state": "SP",
        "district": "Jardim Monte Carlo",
        "street": "Rua Jair Mariano Barbosa",
        "zipcode": "19815-365"
    },
    {
        "city": "Assis",
        "state": "SP",
        "district": "Jardim Monte Carlo",
        "street": "Rua Maria Gonçalves Barbon",
        "zipcode": "19815-370"
    },
    {
        "city": "Assis",
        "state": "SP",
        "district": "Jardim Morumbi",
        "street": "Rua Antonio Zimerman",
        "zipcode": "19815-560"
    },
    {
        "city": "Assis",
        "state": "SP",
        "district": "Jardim Morumbi",
        "street": "Rua João Ferreira",
        "zipcode": "19815-535"
    },
    {
        "city": "Assis",
        "state": "SP",
        "district": "Jardim Morumbi",
        "street": "Rua Moacir Alves de Moraes",
        "zipcode": "19815-545"
    },
    {
        "city": "Assis",
        "state": "SP",
        "district": "Jardim Morumbi",
        "street": "Avenida Professor José Bolfarini",
        "zipcode": "19815-530"
    },
    {
        "city": "Assis",
        "state": "SP",
        "district": "Centro",
        "street": "Avenida Rui Barbosa",
        "zipcode": "19800-903"
    },
    {
        "city": "Assis",
        "state": "SP",
        "district": "Centro",
        "street": "Avenida Rui Barbosa",
        "zipcode": "19800-904"
    },
    {
        "city": "Assis",
        "state": "SP",
        "district": "Centro",
        "street": "Avenida Rui Barbosa",
        "zipcode": "19800-902"
    },
    {
        "city": "Assis",
        "state": "SP",
        "district": "Centro",
        "street": "Rua Doutor Clibas Pinto Ferraz",
        "zipcode": "19800-901"
    },
    {
        "city": "Assis",
        "state": "SP",
        "district": "Centro",
        "street": "Rua Onze de Junho",
        "zipcode": "19800-900"
    },
    {
        "city": "Assis",
        "state": "SP",
        "district": "Vila Ouro Verde",
        "street": "Rua Aldeny",
        "zipcode": "19816-200"
    },
    {
        "city": "Assis",
        "state": "SP",
        "district": "Jardim América",
        "street": "Rua Álvaro Constantino",
        "zipcode": "19816-270"
    },
    {
        "city": "Assis",
        "state": "SP",
        "district": "Vila Nova Florínea",
        "street": "Rua Andira",
        "zipcode": "19803-305"
    },
    {
        "city": "Assis",
        "state": "SP",
        "district": "Jardim Canadá",
        "street": "Rua Ângelo Bertoncini",
        "zipcode": "19801-130"
    },
    {
        "city": "Assis",
        "state": "SP",
        "district": "Jardim Canadá",
        "street": "Rua Angelo Foganhole",
        "zipcode": "19801-020"
    },
    {
        "city": "Assis",
        "state": "SP",
        "district": "Vila Prudenciana",
        "street": "Rua Anhumas",
        "zipcode": "19803-210"
    },
    {
        "city": "Assis",
        "state": "SP",
        "district": "Vila Clementina",
        "street": "Rua Antônio José Ribeiro",
        "zipcode": "19802-400"
    },
    {
        "city": "Assis",
        "state": "SP",
        "district": "Vila Ouro Verde",
        "street": "Rua da Assembléia",
        "zipcode": "19816-225"
    },
    {
        "city": "Assis",
        "state": "SP",
        "district": "Vila Brasileira",
        "street": "Rua Bartira",
        "zipcode": "19802-440"
    },
    {
        "city": "Assis",
        "state": "SP",
        "district": "Vila Ribeiro",
        "street": "Rua Campos Novos",
        "zipcode": "19802-469"
    },
    {
        "city": "Assis",
        "state": "SP",
        "district": "Vila Nova Florínea",
        "street": "Rua Capivari",
        "zipcode": "19803-140"
    },
    {
        "city": "Assis",
        "state": "SP",
        "district": "Vila Ouro Verde",
        "street": "Rua da Constituição",
        "zipcode": "19816-220"
    },
    {
        "city": "Assis",
        "state": "SP",
        "district": "Vila Ouro Verde",
        "street": "Avenida Doutor Dória",
        "zipcode": "19816-230"
    },
    {
        "city": "Assis",
        "state": "SP",
        "district": "Vila Xavier",
        "street": "Rua Emílio de Menezes",
        "zipcode": "19802-100"
    },
    {
        "city": "Assis",
        "state": "SP",
        "district": "Vila Soubhie",
        "street": "Rua Euclides da Cunha",
        "zipcode": "19802-142"
    },
    {
        "city": "Assis",
        "state": "SP",
        "district": "Vila Funari",
        "street": "Rua Gerônimo Pio Barbosa",
        "zipcode": "19800-350"
    },
    {
        "city": "Assis",
        "state": "SP",
        "district": "Vila Santa Rita",
        "street": "Rua Guaíra",
        "zipcode": "19807-320"
    },
    {
        "city": "Assis",
        "state": "SP",
        "district": "Jardim 3 Américas I",
        "street": "Rua Hermógenes Barduzzi",
        "zipcode": "19802-540"
    },
    {
        "city": "Assis",
        "state": "SP",
        "district": "Jardim Santa Amélia",
        "street": "Rua dos Jasmins",
        "zipcode": "19816-095"
    },
    {
        "city": "Assis",
        "state": "SP",
        "district": "Vila São Cristóvão",
        "street": "Rua João Hipólito",
        "zipcode": "19801-190"
    },
    {
        "city": "Assis",
        "state": "SP",
        "district": "Jardim Canadá",
        "street": "Rua José Carlos Cavina",
        "zipcode": "19801-100"
    },
    {
        "city": "Assis",
        "state": "SP",
        "district": "Vila Xavier",
        "street": "Rua José de Alencar",
        "zipcode": "19802-010"
    },
    {
        "city": "Assis",
        "state": "SP",
        "district": "Jardim Eldorado",
        "street": "Rua Natal Travaglia",
        "zipcode": "19803-100"
    },
    {
        "city": "Assis",
        "state": "SP",
        "district": "Jardim América",
        "street": "Rua Panamá",
        "zipcode": "19816-287"
    },
    {
        "city": "Assis",
        "state": "SP",
        "district": "Jardim América",
        "street": "Rua Peru",
        "zipcode": "19816-290"
    },
    {
        "city": "Assis",
        "state": "SP",
        "district": "Jardim Eldorado",
        "street": "Rua Poeta Osvaldo Dias",
        "zipcode": "19803-317"
    },
    {
        "city": "Assis",
        "state": "SP",
        "district": "Jardim Amaury",
        "street": "Rua Primeiro de Fevereiro",
        "zipcode": "19816-260"
    },
    {
        "city": "Assis",
        "state": "SP",
        "district": "Jardim Amaury",
        "street": "Rua Quatorze de Julho",
        "zipcode": "19816-257"
    },
    {
        "city": "Assis",
        "state": "SP",
        "district": "Centro",
        "street": "Rua São Paulo",
        "zipcode": "19802-001"
    },
    {
        "city": "Assis",
        "state": "SP",
        "district": "Jardim 3 Américas I",
        "street": "Rua Seis",
        "zipcode": "19802-505"
    },
    {
        "city": "Assis",
        "state": "SP",
        "district": "Jardim Amaury",
        "street": "Rua do Seminário",
        "zipcode": "19816-237"
    },
    {
        "city": "Assis",
        "state": "SP",
        "district": "Jardim Amaury",
        "street": "Rua Sete de Fevereiro",
        "zipcode": "19816-263"
    },
    {
        "city": "Assis",
        "state": "SP",
        "district": "Centro",
        "street": "Rua Sete de Setembro",
        "zipcode": "19800-250"
    },
    {
        "city": "Assis",
        "state": "SP",
        "district": "Jardim Amaury",
        "street": "Rua Vinte e Cinco de Setembro",
        "zipcode": "19816-245"
    },
    {
        "city": "Assis",
        "state": "SP",
        "district": "Vila Ribeiro",
        "street": "Rua Viriato Corrêa",
        "zipcode": "19802-161"
    },
    {
        "city": "Assis",
        "state": "SP",
        "district": "Jardim 3 Américas I",
        "street": "Rua Ângelo Benatati",
        "zipcode": "19802-525"
    },
    {
        "city": "Assis",
        "state": "SP",
        "district": "Centro",
        "street": "Rua Josino de Andrade",
        "zipcode": "19800-290"
    },
    {
        "city": "Assis",
        "state": "SP",
        "district": "Parque das Flores",
        "street": "Rua América Cândida Dias de Almeida",
        "zipcode": "19813-346"
    },
    {
        "city": "Assis",
        "state": "SP",
        "district": "Jardim Taquaral",
        "street": "Rua B",
        "zipcode": "19816-315"
    },
    {
        "city": "Assis",
        "state": "SP",
        "district": "Jardim Eldorado",
        "street": "Rua E",
        "zipcode": "19803-350"
    },
    {
        "city": "Assis",
        "state": "SP",
        "district": "Jardim América",
        "street": "Rua Paraná",
        "zipcode": "19816-275"
    },
    {
        "city": "Assis",
        "state": "SP",
        "district": "Vila Xavier",
        "street": "Rua Senhor do Bonfim",
        "zipcode": "19802-130"
    },
    {
        "city": "Assis",
        "state": "SP",
        "district": "Vila Xavier",
        "street": "Rua Cruz e Souza",
        "zipcode": "19802-111"
    },
    {
        "city": "Assis",
        "state": "SP",
        "district": "Jardim Morumbi",
        "street": "Rua Capitão Antonio Demarchi Cruz",
        "zipcode": "19815-510"
    },
    {
        "city": "Assis",
        "state": "SP",
        "district": "Nova Assis",
        "street": "Rua Nelson Brevis dos Santos Júnior",
        "zipcode": "19803-425"
    },
    {
        "city": "Assis",
        "state": "SP",
        "district": "Residencial Park Bambu",
        "street": "Rua Erineu Carricondo",
        "zipcode": "19801-263"
    },
    {
        "city": "Assis",
        "state": "SP",
        "district": "Residencial Park Bambu",
        "street": "Rua Maria Rita Silva Sampaio",
        "zipcode": "19801-266"
    },
    {
        "city": "Assis",
        "state": "SP",
        "district": "Núcleo Habitacional Dirceu Gomes Cervilha",
        "street": "Rua José Reinaldo Amâncio",
        "zipcode": "19804-730"
    },
    {
        "city": "Assis",
        "state": "SP",
        "district": "Jardim Santa Clara",
        "street": "Rua José Reinaldo Amâncio",
        "zipcode": "19804-800"
    },
    {
        "city": "Assis",
        "state": "SP",
        "district": "Jardim Santa Clara",
        "street": "Rua Maria Rosa F. do Nascimento",
        "zipcode": "19804-802"
    },
    {
        "city": "Assis",
        "state": "SP",
        "district": "Centro",
        "street": "Avenida Armando Salles de Oliveira",
        "zipcode": "19802-900"
    },
    {
        "city": "Assis",
        "state": "SP",
        "district": "Vila Central",
        "street": "Rua Campos Novos",
        "zipcode": "19806-210"
    },
    {
        "city": "Assis",
        "state": "SP",
        "district": "Vila Operária",
        "street": "Rua Campos Sales",
        "zipcode": "19804-105"
    },
    {
        "city": "Assis",
        "state": "SP",
        "district": "Vila Carvalho",
        "street": "Rua Capitão Altino",
        "zipcode": "19804-340"
    },
    {
        "city": "Assis",
        "state": "SP",
        "district": "Vila Operária",
        "street": "Rua Caramuru",
        "zipcode": "19804-030"
    },
    {
        "city": "Assis",
        "state": "SP",
        "district": "Jardim Europa",
        "street": "Rua Carlos Elanda",
        "zipcode": "19815-235"
    },
    {
        "city": "Assis",
        "state": "SP",
        "district": "Vila Progresso",
        "street": "Rua Circular",
        "zipcode": "19807-640"
    },
    {
        "city": "Assis",
        "state": "SP",
        "district": "Jardim América",
        "street": "Rua Doutora Marlene Bondi",
        "zipcode": "19816-295"
    },
    {
        "city": "Assis",
        "state": "SP",
        "district": "Vila Orestes",
        "street": "Rua Elias Machado de Pádua",
        "zipcode": "19806-300"
    },
    {
        "city": "Assis",
        "state": "SP",
        "district": "Vila Carvalho",
        "street": "Rua dos Expedicionários",
        "zipcode": "19804-310"
    },
    {
        "city": "Assis",
        "state": "SP",
        "district": "Jardim Europa",
        "street": "Rua Francisco Longhini",
        "zipcode": "19814-710"
    },
    {
        "city": "Assis",
        "state": "SP",
        "district": "Vila Boa Vista",
        "street": "Rua Hermes Rodrigues da Fonseca",
        "zipcode": "19806-220"
    },
    {
        "city": "Assis",
        "state": "SP",
        "district": "Núcleo Habitacional Dirceu Gomes Cervilha",
        "street": "Rua Ivanildo G. Ferreira",
        "zipcode": "19804-744"
    },
    {
        "city": "Assis",
        "state": "SP",
        "district": "Jardim América",
        "street": "Rua Luciana Leandro C. Bondi",
        "zipcode": "19816-285"
    },
    {
        "city": "Assis",
        "state": "SP",
        "district": "Vila Tênis Clube",
        "street": "Rua Luiz Carlos da Silveira",
        "zipcode": "19806-370"
    },
    {
        "city": "Assis",
        "state": "SP",
        "district": "Vila Carvalho",
        "street": "Rua Luiz Nobile",
        "zipcode": "19804-210"
    },
    {
        "city": "Assis",
        "state": "SP",
        "district": "Centro",
        "street": "Avenida Marechal Deodoro",
        "zipcode": "19806-140"
    },
    {
        "city": "Assis",
        "state": "SP",
        "district": "Vila Maria Izabel",
        "street": "Rua Maria Alice de Carvalho",
        "zipcode": "19804-560"
    },
    {
        "city": "Assis",
        "state": "SP",
        "district": "Núcleo Habitacional Dirceu Gomes Cervilha",
        "street": "Rua Maria Celma Medina",
        "zipcode": "19804-715"
    },
    {
        "city": "Assis",
        "state": "SP",
        "district": "Jardim Taquaral",
        "street": "Rua Isabel Peres Noronha",
        "zipcode": "19816-330"
    },
    {
        "city": "Assis",
        "state": "SP",
        "district": "Núcleo Habitacional Dirceu Gomes Cervilha",
        "street": "Rua Maura Ribeiro de Azevedo",
        "zipcode": "19804-754"
    },
    {
        "city": "Assis",
        "state": "SP",
        "district": "Vila Marialves",
        "street": "Rua Nicolau Bermejo",
        "zipcode": "19804-680"
    },
    {
        "city": "Assis",
        "state": "SP",
        "district": "Centro",
        "street": "Rua Orozimbo Leão de Carvalho",
        "zipcode": "19806-040"
    },
    {
        "city": "Assis",
        "state": "SP",
        "district": "Jardim Europa",
        "street": "Rua Professora Aniceta de Mendonça",
        "zipcode": "19815-155"
    },
    {
        "city": "Assis",
        "state": "SP",
        "district": "Centro",
        "street": "Rua Rangel Pestana",
        "zipcode": "19806-120"
    },
    {
        "city": "Assis",
        "state": "SP",
        "district": "Vila Silvestre",
        "street": "Rua Rio Grande do Sul",
        "zipcode": "19804-420"
    },
    {
        "city": "Assis",
        "state": "SP",
        "district": "Vila Adileta",
        "street": "Rua Santa Luzia",
        "zipcode": "19814-250"
    },
    {
        "city": "Assis",
        "state": "SP",
        "district": "Vila Santa Cecília",
        "street": "Rua Santos Dumont",
        "zipcode": "19806-062"
    },
    {
        "city": "Assis",
        "state": "SP",
        "district": "Jardim Amaury",
        "street": "Rua Vinte de Maio",
        "zipcode": "19816-255"
    },
    {
        "city": "Assis",
        "state": "SP",
        "district": "Vila Orestes",
        "street": "Rua Visconde do Rio Branco",
        "zipcode": "19806-073"
    },
    {
        "city": "Assis",
        "state": "SP",
        "district": "Vila Marialves",
        "street": "Rua Isaura Nascimento Rodrigues",
        "zipcode": "19804-630"
    },
    {
        "city": "Assis",
        "state": "SP",
        "district": "Vila São Benedito",
        "street": "Rua São Benedito",
        "zipcode": "19804-593"
    },
    {
        "city": "Assis",
        "state": "SP",
        "district": "Cdhu",
        "street": "Rua Armando Galli",
        "zipcode": "19813-372"
    },
    {
        "city": "Assis",
        "state": "SP",
        "district": "Nova Assis",
        "street": "Rua Benedito Moreira da Silva",
        "zipcode": "19803-460"
    },
    {
        "city": "Assis",
        "state": "SP",
        "district": "Alto dos Ipês",
        "street": "Rua Isabela Andrade Bussinati",
        "zipcode": "19816-106"
    },
    {
        "city": "Assis",
        "state": "SP",
        "district": "Portal de São Francisco",
        "street": "Rua Rodolfo Jaschke",
        "zipcode": "19807-480"
    },
    {
        "city": "Assis",
        "state": "SP",
        "district": "Nova Assis",
        "street": "Travessa Manoel Messías do Nascimento",
        "zipcode": "19803-443"
    },
    {
        "city": "Assis",
        "state": "SP",
        "district": "Jardim Santa Clara",
        "street": "Rua Arminda Nery Servilha",
        "zipcode": "19804-776"
    },
    {
        "city": "Assis",
        "state": "SP",
        "district": "Jardim Santa Clara",
        "street": "Rua Paulo Silas Pinto",
        "zipcode": "19804-778"
    },
    {
        "city": "Assis",
        "state": "SP",
        "district": "Residencial Park Bambu",
        "street": "Rua Wafic Badr Rafih",
        "zipcode": "19801-281"
    },
    {
        "city": "Assis",
        "state": "SP",
        "district": "Jardim Santa Clara",
        "street": "Rua Duarte Carlos Aparecido Rodrigues",
        "zipcode": "19804-784"
    },
    {
        "city": "Assis",
        "state": "SP",
        "district": "Jardim Santa Clara",
        "street": "Rua Paulo Sérgio dos Santos",
        "zipcode": "19804-786"
    },
    {
        "city": "Assis",
        "state": "SP",
        "district": "Jardim Santa Clara",
        "street": "Rua Joelma Domingues Dionizio",
        "zipcode": "19804-790"
    },
    {
        "city": "Assis",
        "state": "SP",
        "district": "Residencial Park Bambu",
        "street": "Rua Ivo Carbonieri",
        "zipcode": "19801-278"
    },
    {
        "city": "Assis",
        "state": "SP",
        "district": "Residencial Park Bambu",
        "street": "Rua Sotero Luz",
        "zipcode": "19801-287"
    },
    {
        "city": "Assis",
        "state": "SP",
        "district": "Jardim Santa Clara",
        "street": "Rua Atanázio Medeiros",
        "zipcode": "19804-804"
    },
    {
        "city": "Assis",
        "state": "SP",
        "district": "Parque Universitário",
        "street": "Avenida Dom Antônio",
        "zipcode": "19806-900"
    },
    {
        "city": "Assis",
        "state": "SP",
        "district": "Parque das Acácias",
        "street": "Rua das Azaléias",
        "zipcode": "19813-150"
    },
    {
        "city": "Assis",
        "state": "SP",
        "district": "Conjunto Habitacional Assis IV",
        "street": "Rua C",
        "zipcode": "19807-337"
    },
    {
        "city": "Assis",
        "state": "SP",
        "district": "Vila Rodrigues",
        "street": "Rua Cândido Mota",
        "zipcode": "19807-200"
    },
    {
        "city": "Assis",
        "state": "SP",
        "district": "Parque das Flores",
        "street": "Rua Carmino Amêndola",
        "zipcode": "19813-347"
    },
    {
        "city": "Assis",
        "state": "SP",
        "district": "Conjunto Habitacional Assis IV",
        "street": "Rua D",
        "zipcode": "19807-331"
    },
    {
        "city": "Assis",
        "state": "SP",
        "district": "CDA",
        "street": "Travessa Dois",
        "zipcode": "19812-058"
    },
    {
        "city": "Assis",
        "state": "SP",
        "district": "Jardim São Nicolau",
        "street": "Rua Doutor Rúbens Beliuzo Brando",
        "zipcode": "19813-365"
    },
    {
        "city": "Assis",
        "state": "SP",
        "district": "Vila Nova Santana",
        "street": "Avenida Getúlio Vargas",
        "zipcode": "19807-130"
    },
    {
        "city": "Assis",
        "state": "SP",
        "district": "CDA",
        "street": "Rua da Hematita",
        "zipcode": "19812-029"
    },
    {
        "city": "Assis",
        "state": "SP",
        "district": "Parque Universitário",
        "street": "Rua João Antônio Carneiro",
        "zipcode": "19806-740"
    },
    {
        "city": "Assis",
        "state": "SP",
        "district": "BNH",
        "street": "Rua João Binato",
        "zipcode": "19807-543"
    },
    {
        "city": "Assis",
        "state": "SP",
        "district": "Vila Progresso",
        "street": "Rua Joaquim Cruz",
        "zipcode": "19807-593"
    },
    {
        "city": "Assis",
        "state": "SP",
        "district": "Vila Santa Rita",
        "street": "Rua José Coelho Barbosa",
        "zipcode": "19807-230"
    },
    {
        "city": "Assis",
        "state": "SP",
        "district": "Vila Nova Santana",
        "street": "Rua José Floriano Pereira",
        "zipcode": "19807-060"
    },
    {
        "city": "Assis",
        "state": "SP",
        "district": "Parque das Flores",
        "street": "Rua José Gonçalves",
        "zipcode": "19813-353"
    },
    {
        "city": "Assis",
        "state": "SP",
        "district": "Parque das Acácias",
        "street": "Rua Jovis Gonçalves de Souza",
        "zipcode": "19813-125"
    },
    {
        "city": "Assis",
        "state": "SP",
        "district": "Vila Jardim Aeroporto",
        "street": "Rua Major Colatino N. Cunha",
        "zipcode": "19814-129"
    },
    {
        "city": "Assis",
        "state": "SP",
        "district": "Conjunto Habitacional Assis IV",
        "street": "Rua Oito",
        "zipcode": "19807-820"
    },
    {
        "city": "Assis",
        "state": "SP",
        "district": "Jardim Paraná",
        "street": "Rua Paranagi",
        "zipcode": "19807-360"
    },
    {
        "city": "Assis",
        "state": "SP",
        "district": "Vila Progresso",
        "street": "Rua Pompéia",
        "zipcode": "19807-625"
    },
    {
        "city": "Assis",
        "state": "SP",
        "district": "Água do Pavão",
        "street": "Rodovia Raposo Tavares",
        "zipcode": "19812-010"
    },
    {
        "city": "Assis",
        "state": "SP",
        "district": "Vila Rodrigues",
        "street": "Rua Rodrigues",
        "zipcode": "19807-270"
    },
    {
        "city": "Assis",
        "state": "SP",
        "district": "Parque Universitário",
        "street": "Rua Rubem Ribeiro de Moraes",
        "zipcode": "19806-715"
    },
    {
        "city": "Assis",
        "state": "SP",
        "district": "Vila Triângulo",
        "street": "Avenida São Cristóvão",
        "zipcode": "19807-555"
    },
    {
        "city": "Assis",
        "state": "SP",
        "district": "Conjunto Habitacional Danusa",
        "street": "Rua João Corinthiano",
        "zipcode": "19804-488"
    },
    {
        "city": "Assis",
        "state": "SP",
        "district": "Posto Modelo",
        "street": "Rodovia Raposo Tavares",
        "zipcode": "19811-000"
    },
    {
        "city": "Assis",
        "state": "SP",
        "district": "Jardim Taquaral",
        "street": "Rua Sebastiana C. S. Bertolucci",
        "zipcode": "19816-310"
    },
    {
        "city": "Assis",
        "state": "SP",
        "district": "Jardim São Nicolau",
        "street": "Rua Sergipe",
        "zipcode": "19813-315"
    },
    {
        "city": "Assis",
        "state": "SP",
        "district": "Vila Progresso",
        "street": "Rua Valparaíso",
        "zipcode": "19807-575"
    },
    {
        "city": "Assis",
        "state": "SP",
        "district": "Parque das Acácias",
        "street": "Rua Modesto Tirolli",
        "zipcode": "19813-110"
    },
    {
        "city": "Assis",
        "state": "SP",
        "district": "Jardim Aeroporto",
        "street": "Rua Riccieri Meneghetti",
        "zipcode": "19813-175"
    },
    {
        "city": "Assis",
        "state": "SP",
        "district": "Centro",
        "street": "Praça Dom Pedro II",
        "zipcode": "19814-012"
    },
    {
        "city": "Assis",
        "state": "SP",
        "district": "Vila Ribeiro",
        "street": "Rua Antônio Bizzoto",
        "zipcode": "19802-045"
    },
    {
        "city": "Assis",
        "state": "SP",
        "district": "Vila Maria Izabel",
        "street": "Rua Benedito Luís Franco",
        "zipcode": "19804-525"
    },
    {
        "city": "Assis",
        "state": "SP",
        "district": "Residencial Park Bambu",
        "street": "Rua Youssef Saliba Sabeh",
        "zipcode": "19801-284"
    },
    {
        "city": "Assis",
        "state": "SP",
        "district": "Residencial Park Bambu",
        "street": "Rua Ofélia Pimentel",
        "zipcode": "19801-275"
    },
    {
        "city": "Assis",
        "state": "SP",
        "district": "Portal de São Francisco",
        "street": "Rua Doutor Laurindo de Gênova",
        "zipcode": "19807-458"
    },
    {
        "city": "Assis",
        "state": "SP",
        "district": "Jardim Santa Amélia",
        "street": "Praça do Cedro",
        "zipcode": "19816-083"
    },
    {
        "city": "Assis",
        "state": "SP",
        "district": "Conjunto Habitacional Danusa",
        "street": "Rua José Zimermann",
        "zipcode": "19804-486"
    },
    {
        "city": "Assis",
        "state": "SP",
        "district": "Jardim Santa Clara",
        "street": "Rua Cecílio Amarília",
        "zipcode": "19804-792"
    },
    {
        "city": "Assis",
        "state": "SP",
        "district": "Jardim Santa Clara",
        "street": "Rua Pedro Toni",
        "zipcode": "19804-794"
    },
    {
        "city": "Assis",
        "state": "SP",
        "district": "Jardim Santa Clara",
        "street": "Rua Benedita Flaulines Smarsi",
        "zipcode": "19804-796"
    },
    {
        "city": "Assis",
        "state": "SP",
        "district": "Centro",
        "street": "Rua José Nogueira Marmontel",
        "zipcode": "19814-970"
    },
    {
        "city": "Assis",
        "state": "SP",
        "district": "Centro",
        "street": "Avenida Rui Barbosa",
        "zipcode": "19814-902"
    },
    {
        "city": "Assis",
        "state": "SP",
        "district": "Centro",
        "street": "Avenida Rui Barbosa",
        "zipcode": "19814-900"
    },
    {
        "city": "Assis",
        "state": "SP",
        "district": "Centro",
        "street": "Avenida Rui Barbosa",
        "zipcode": "19814-901"
    },
    {
        "city": "Assis",
        "state": "SP",
        "district": "Jardim Europa",
        "street": "Rua Anastácio Rocha",
        "zipcode": "19815-150"
    },
    {
        "city": "Assis",
        "state": "SP",
        "district": "Conjunto Habitacional Nelson Marcondes",
        "street": "Rua Benedicto A. Ferreira",
        "zipcode": "19813-505"
    },
    {
        "city": "Assis",
        "state": "SP",
        "district": "Jardim Europa",
        "street": "Rua Carlos Bompani",
        "zipcode": "19814-630"
    },
    {
        "city": "Assis",
        "state": "SP",
        "district": "Jardim Paulista",
        "street": "Rua dos Comerciários",
        "zipcode": "19815-035"
    },
    {
        "city": "Assis",
        "state": "SP",
        "district": "Jardim Santa Amélia",
        "street": "Rua dos Cravos",
        "zipcode": "19816-099"
    },
    {
        "city": "Assis",
        "state": "SP",
        "district": "Centro",
        "street": "Rua Dom José Lázaro Neves",
        "zipcode": "19814-390"
    },
    {
        "city": "Assis",
        "state": "SP",
        "district": "Centro",
        "street": "Rua Doutora Ana Barbosa",
        "zipcode": "19814-030"
    },
    {
        "city": "Assis",
        "state": "SP",
        "district": "Jardim Paulista",
        "street": "Rua Doutora Ana Barbosa",
        "zipcode": "19815-100"
    },
    {
        "city": "Assis",
        "state": "SP",
        "district": "Jardim Amaury",
        "street": "Rua Doze de Julho",
        "zipcode": "19816-265"
    },
    {
        "city": "Assis",
        "state": "SP",
        "district": "Jardim Europa",
        "street": "Rua Jacinto Funari",
        "zipcode": "19814-550"
    },
    {
        "city": "Assis",
        "state": "SP",
        "district": "Jardim Europa",
        "street": "Rua Jacinto Longhini",
        "zipcode": "19815-220"
    },
    {
        "city": "Assis",
        "state": "SP",
        "district": "Vila Jardim Aeroporto",
        "street": "Rua João José Perini",
        "zipcode": "19814-110"
    },
    {
        "city": "Assis",
        "state": "SP",
        "district": "Centro",
        "street": "Rua José Nogueira Marmontel",
        "zipcode": "19814-361"
    },
    {
        "city": "Assis",
        "state": "SP",
        "district": "Vila Fiuza",
        "street": "Rua José Severino dos Santos",
        "zipcode": "19814-500"
    },
    {
        "city": "Assis",
        "state": "SP",
        "district": "Jardim Santa Amélia",
        "street": "Rua dos Lírios",
        "zipcode": "19816-085"
    },
    {
        "city": "Assis",
        "state": "SP",
        "district": "Vila Fiuza",
        "street": "Rua Marechal Hermes",
        "zipcode": "19814-510"
    },
    {
        "city": "Assis",
        "state": "SP",
        "district": "Conjunto Habitacional Nelson Marcondes",
        "street": "Rua Maria Patriarca Ribeiro",
        "zipcode": "19813-540"
    },
    {
        "city": "Assis",
        "state": "SP",
        "district": "Vila Fiuza",
        "street": "Rua Montes Claros",
        "zipcode": "19814-230"
    },
    {
        "city": "Assis",
        "state": "SP",
        "district": "Jardim Europa",
        "street": "Rua Quarenta e Um",
        "zipcode": "19814-715"
    },
    {
        "city": "Assis",
        "state": "SP",
        "district": "Centro",
        "street": "Rua Quinze de Novembro",
        "zipcode": "19814-340"
    },
    {
        "city": "Assis",
        "state": "SP",
        "district": "Jardim Europa",
        "street": "Rua Romério de Abreu Pinto",
        "zipcode": "19815-200"
    },
    {
        "city": "Assis",
        "state": "SP",
        "district": "Jardim Paulista",
        "street": "Rua Santa Rosa",
        "zipcode": "19815-010"
    },
    {
        "city": "Assis",
        "state": "SP",
        "district": "Centro",
        "street": "Rua Sebastião Leite do Canto",
        "zipcode": "19814-300"
    },
    {
        "city": "Assis",
        "state": "SP",
        "district": "Jardim Paraná",
        "street": "Rodovia SP",
        "zipcode": "19808-000"
    },
    {
        "city": "Assis",
        "state": "SP",
        "district": "Vila Zulmira",
        "street": "Rua Tamandaré",
        "zipcode": "19814-080"
    },
    {
        "city": "Assis",
        "state": "SP",
        "district": "Vila Ouro Verde",
        "street": "Rua Tiradentes",
        "zipcode": "19816-060"
    },
    {
        "city": "Assis",
        "state": "SP",
        "district": "Vila Claudia",
        "street": "Rua Vicente Bagnoli",
        "zipcode": "19815-310"
    },
    {
        "city": "Assis",
        "state": "SP",
        "district": "Conjunto Habitacional Nelson Marcondes",
        "street": "Rua Helena Doreto Spera",
        "zipcode": "19813-525"
    },
    {
        "city": "Assis",
        "state": "SP",
        "district": "Centro",
        "street": "Rua Josino de Andrade",
        "zipcode": "19814-431"
    },
    {
        "city": "Assis",
        "state": "SP",
        "district": "Vila Jardim Aeroporto",
        "street": "Rua Nicolau M. Teixeira",
        "zipcode": "19814-180"
    },
    {
        "city": "Assis",
        "state": "SP",
        "district": "Residencial Esmeralda Park",
        "street": "Rua dos Ônix",
        "zipcode": "19808-056"
    },
    {
        "city": "Assis",
        "state": "SP",
        "district": "Portal de São Francisco",
        "street": "Rua Emília Castela Coelho",
        "zipcode": "19807-460"
    },
    {
        "city": "Assis",
        "state": "SP",
        "district": "Residencial Esmeralda Park",
        "street": "Rua das Turquesas",
        "zipcode": "19808-074"
    },
    {
        "city": "Assis",
        "state": "SP",
        "district": "Portal de São Francisco",
        "street": "Rua Antônia de Oliveira Gonçalves",
        "zipcode": "19807-464"
    },
    {
        "city": "Assis",
        "state": "SP",
        "district": "Portal de São Francisco",
        "street": "Rua Pedro Hernandes",
        "zipcode": "19807-478"
    },
    {
        "city": "Assis",
        "state": "SP",
        "district": "Portal de São Francisco",
        "street": "Rua Ida Baggio Decleva",
        "zipcode": "19807-476"
    },
    {
        "city": "Assis",
        "state": "SP",
        "district": "Portal de São Francisco",
        "street": "Rua José Boquembuzo",
        "zipcode": "19807-462"
    },
    {
        "city": "Assis",
        "state": "SP",
        "district": "Jardim Europa",
        "street": "Rua Quarenta e Três",
        "zipcode": "19814-670"
    },
    {
        "city": "Assis",
        "state": "SP",
        "district": "Jardim Monte Carlo",
        "street": "Rua Angelo Nóbile",
        "zipcode": "19815-395"
    },
    {
        "city": "Assis",
        "state": "SP",
        "district": "Jardim Monte Carlo",
        "street": "Rua Ernesto Nóbile",
        "zipcode": "19815-360"
    },
    {
        "city": "Assis",
        "state": "SP",
        "district": "Jardim Morumbi",
        "street": "Rua Fortunato Bornea",
        "zipcode": "19815-505"
    },
    {
        "city": "Assis",
        "state": "SP",
        "district": "Jardim Morumbi",
        "street": "Rua Gracinda de Jesus Gomes",
        "zipcode": "19815-525"
    },
    {
        "city": "Assis",
        "state": "SP",
        "district": "Jardim Aeroporto",
        "street": "Rua Maria Helena Santana",
        "zipcode": "19813-183"
    },
    {
        "city": "Assis",
        "state": "SP",
        "district": "Jardim Aeroporto",
        "street": "Rua Jornalista Jairo Motta",
        "zipcode": "19813-190"
    },
    {
        "city": "Assis",
        "state": "SP",
        "district": "Centro",
        "street": "Rua Senador Luiz Carlos Prestes",
        "zipcode": "19800-245"
    },
    {
        "city": "Assis",
        "state": "SP",
        "district": "Portal de São Francisco",
        "street": "Rua Isabel de Oliveira Binato",
        "zipcode": "19807-488"
    },
    {
        "city": "Assis",
        "state": "SP",
        "district": "Portal de São Francisco",
        "street": "Rua Ferrúcio Ciciliato",
        "zipcode": "19807-457"
    },
    {
        "city": "Assis",
        "state": "SP",
        "district": "Portal de São Francisco",
        "street": "Rua Pastor Valmir Machado Ribeiro",
        "zipcode": "19807-468"
    },
    {
        "city": "Assis",
        "state": "SP",
        "district": "Portal de São Francisco",
        "street": "Rua Feliciano Barbosa de Carvalho",
        "zipcode": "19807-482"
    },
    {
        "city": "Assis",
        "state": "SP",
        "district": "Portal de São Francisco",
        "street": "Rua Mauri Torreti",
        "zipcode": "19807-466"
    },
    {
        "city": "Assis",
        "state": "SP",
        "district": "Portal de São Francisco",
        "street": "Rua Edurcilia Ferreira de Almeida",
        "zipcode": "19807-470"
    },
    {
        "city": "Assis",
        "state": "SP",
        "district": "Park Residencial Colinas",
        "street": "Rua Edison Aparecido Del Massa",
        "zipcode": "19803-506"
    },
    {
        "city": "Assis",
        "state": "SP",
        "district": "Park Residencial Colinas",
        "street": "Rua Ademitte Dias Payão",
        "zipcode": "19803-520"
    },
    {
        "city": "Assis",
        "state": "SP",
        "district": "Park Residencial Colinas",
        "street": "Rua Manoel David",
        "zipcode": "19803-550"
    },
    {
        "city": "Assis",
        "state": "SP",
        "district": "Residencial Vale Verde",
        "street": "Rua A",
        "zipcode": "19816-335"
    },
    {
        "city": "Assis",
        "state": "SP",
        "district": "Residencial Vale Verde",
        "street": "Rua B",
        "zipcode": "19816-337"
    },
    {
        "city": "Assis",
        "state": "SP",
        "district": "Residencial Vale Verde",
        "street": "Rua C",
        "zipcode": "19816-340"
    },
    {
        "city": "Assis",
        "state": "SP",
        "district": "Jardim Aeroporto",
        "street": "Rua Osvaldo Joaquim",
        "zipcode": "19813-172"
    },
    {
        "city": "Assis",
        "state": "SP",
        "district": "Água do Pavão",
        "street": "Rodovia Assis Platina",
        "zipcode": "19812-900"
    },
    {
        "city": "Assis",
        "state": "SP",
        "district": "San Fernando Valley",
        "street": "Rua Antônio Pedro Longo",
        "zipcode": "19800-415"
    },
    {
        "city": "Assis",
        "state": "SP",
        "district": "Água do Pavão",
        "street": "Rodovia Assis Platina",
        "zipcode": "19812-000"
    },
    {
        "city": "Assis",
        "state": "SP",
        "district": "Centro",
        "street": "Praça Dom Antônio José dos Santos",
        "zipcode": "19800-180"
    },
    {
        "city": "Assis",
        "state": "SP",
        "district": "Vila dos Comerciários",
        "street": "Rua João Pinhata",
        "zipcode": "19813-542"
    },
    {
        "city": "Assis",
        "state": "SP",
        "district": "Jardim América",
        "street": "Avenida Lourival Servilha",
        "zipcode": "19816-305"
    },
    {
        "city": "Assis",
        "state": "SP",
        "district": "Jardim Canadá",
        "street": "Rua Luiz Valverde",
        "zipcode": "19801-005"
    },
    {
        "city": "Assis",
        "state": "SP",
        "district": "Jardim Canadá",
        "street": "Rua Messias Rosa Barbosa",
        "zipcode": "19801-017"
    },
    {
        "city": "Assis",
        "state": "SP",
        "district": "Jardim América",
        "street": "Rua Paraguai",
        "zipcode": "19816-280"
    },
    {
        "city": "Assis",
        "state": "SP",
        "district": "Jardim Eldorado",
        "street": "Rua Raimundo Rocha dos Santos",
        "zipcode": "19803-380"
    },
    {
        "city": "Assis",
        "state": "SP",
        "district": "Vila Santana",
        "street": "Rua Reverendo Abel Amaral Camargo",
        "zipcode": "19807-800"
    },
    {
        "city": "Assis",
        "state": "SP",
        "district": "Vila Arlindo Luz",
        "street": "Rua São Sebastião",
        "zipcode": "19804-200"
    },
    {
        "city": "Assis",
        "state": "SP",
        "district": "CDA 3",
        "street": "Rodovia SP",
        "zipcode": "19805-000"
    },
    {
        "city": "Assis",
        "state": "SP",
        "district": "Parque Universitário",
        "street": "Rodovia SP",
        "zipcode": "19806-760"
    },
    {
        "city": "Assis",
        "state": "SP",
        "district": "Jardim Paraná",
        "street": "Rodovia SP",
        "zipcode": "19807-670"
    },
    {
        "city": "Assis",
        "state": "SP",
        "district": "Vila Clementina",
        "street": "Rua Três de Maio",
        "zipcode": "19802-360"
    },
    {
        "city": "Assis",
        "state": "SP",
        "district": "Jardim Amaury",
        "street": "Rua Vinte e Dois de Novembro",
        "zipcode": "19816-247"
    },
    {
        "city": "Assis",
        "state": "SP",
        "district": "Jardim Eldorado",
        "street": "Rua Antônio G. Penessor",
        "zipcode": "19803-405"
    },
    {
        "city": "Assis",
        "state": "SP",
        "district": "Núcleo Habitacional Dirceu Gomes Cervilha",
        "street": "Rua Cirillo Camargo",
        "zipcode": "19804-750"
    },
    {
        "city": "Assis",
        "state": "SP",
        "district": "CDA",
        "street": "Avenida Luiz Kobal",
        "zipcode": "19812-059"
    },
    {
        "city": "Assis",
        "state": "SP",
        "district": "Jardim Monte Carlo",
        "street": "Rua Geraldo Alves Noronha",
        "zipcode": "19815-385"
    },
    {
        "city": "Assis",
        "state": "SP",
        "district": "Jardim Monte Carlo",
        "street": "Rua Otávio Torreti",
        "zipcode": "19815-380"
    },
    {
        "city": "Assis",
        "state": "SP",
        "district": "Jardim Morumbi",
        "street": "Rua Erasmo Cardoso",
        "zipcode": "19815-515"
    },
    {
        "city": "Assis",
        "state": "SP",
        "district": "Jardim Morumbi",
        "street": "Rua Rubens Araújo Tucunduva",
        "zipcode": "19815-550"
    },
    {
        "city": "Assis",
        "state": "SP",
        "district": "Nova Assis",
        "street": "Rua Francisco Negri",
        "zipcode": "19803-430"
    },
    {
        "city": "Assis",
        "state": "SP",
        "district": "Nova Assis",
        "street": "Rua Enio Marchesini",
        "zipcode": "19803-435"
    },
    {
        "city": "Assis",
        "state": "SP",
        "district": "Jardim Aeroporto",
        "street": "Rua Deonice Geovani Arruda",
        "zipcode": "19813-185"
    },
    {
        "city": "Assis",
        "state": "SP",
        "district": "Jardim Aeroporto",
        "street": "Rua Biaggio de Filippo",
        "zipcode": "19813-173"
    },
    {
        "city": "Assis",
        "state": "SP",
        "district": "Alto dos Ipês",
        "street": "Rua Seis",
        "zipcode": "19816-110"
    },
    {
        "city": "Assis",
        "state": "SP",
        "district": "Jardim Santa Clara",
        "street": "Rua Oliveiros Soares Batista",
        "zipcode": "19804-782"
    },
    {
        "city": "Assis",
        "state": "SP",
        "district": "Portal de São Francisco",
        "street": "Rua Francisco Holmo",
        "zipcode": "19807-484"
    },
    {
        "city": "Assis",
        "state": "SP",
        "district": "Alto dos Ipês",
        "street": "Rua Jacy Teixeira de Souza",
        "zipcode": "19816-102"
    },
    {
        "city": "Assis",
        "state": "SP",
        "district": "Jardim 3 Américas I",
        "street": "Rua Arlindo de Gênova",
        "zipcode": "19802-580"
    },
    {
        "city": "Assis",
        "state": "SP",
        "district": "Portal de São Francisco",
        "street": "Rua Isabel de Souza Diniz",
        "zipcode": "19807-474"
    },
    {
        "city": "Assis",
        "state": "SP",
        "district": "Alto dos Ipês",
        "street": "Rua Irene de Souza Spera",
        "zipcode": "19816-104"
    },
    {
        "city": "Assis",
        "state": "SP",
        "district": "Park Residencial Colinas",
        "street": "Rua Maria de Goes Bermejo",
        "zipcode": "19803-530"
    },
    {
        "city": "Assis",
        "state": "SP",
        "district": "Portal de São Francisco",
        "street": "Rua Doutor Ary Moreira Ribeiro",
        "zipcode": "19807-486"
    },
    {
        "city": "Assis",
        "state": "SP",
        "district": "San Fernando Valley",
        "street": "Rua Lindonor Pimentel Breda",
        "zipcode": "19800-417"
    },
    {
        "city": "Assis",
        "state": "SP",
        "district": "Vila Clementina",
        "street": "Rua Doutor Lycio Brandão de Camargo",
        "zipcode": "19802-970"
    },
    {
        "city": "Assis",
        "state": "SP",
        "district": "Quinta dos Flamboyants",
        "street": "Rodovia Raposo Tavares",
        "zipcode": "19810-900"
    },
    {
        "city": "Assis",
        "state": "SP",
        "district": "Alto dos Ipês",
        "street": "Rua Anésio Ferreira da Silva",
        "zipcode": "19816-108"
    },
    {
        "city": "Assis",
        "state": "SP",
        "district": "Alto dos Ipês",
        "street": "Rua Angela Teixeira de Carvalho",
        "zipcode": "19816-100"
    },
    {
        "city": "Assis",
        "state": "SP",
        "district": "Vila Central",
        "street": "Praça José Josino de Andrade",
        "zipcode": "19806-195"
    },
    {
        "city": "Assis",
        "state": "SP",
        "district": "Park Residencial Colinas",
        "street": "Rua Oswaldo Doracio Mendes",
        "zipcode": "19803-528"
    },
    {
        "city": "Assis",
        "state": "SP",
        "district": "Residencial Esmeralda Park",
        "street": "Rua das Turmalinas",
        "zipcode": "19808-054"
    },
    {
        "city": "Assis",
        "state": "SP",
        "district": "Jardim Eldorado",
        "street": "Rua Silvina Costa Miguel",
        "zipcode": "19803-375"
    },
    {
        "city": "Assis",
        "state": "SP",
        "district": "Centro",
        "street": "Travessa Sorocabana",
        "zipcode": "19800-019"
    },
    {
        "city": "Assis",
        "state": "SP",
        "district": "Vila Progresso",
        "street": "Rua Sorocaba",
        "zipcode": "19807-565"
    },
    {
        "city": "Assis",
        "state": "SP",
        "district": "Vila Central",
        "street": "Rua General Osório",
        "zipcode": "19806-021"
    },
    {
        "city": "Assis",
        "state": "SP",
        "district": "Vila Central",
        "street": "Rua General Glicério",
        "zipcode": "19806-240"
    },
    {
        "city": "Assis",
        "state": "SP",
        "district": "Conjunto Habitacional Irmã Catarina",
        "street": "Rua João Batista de Freitas",
        "zipcode": "19813-708"
    },
    {
        "city": "Assis",
        "state": "SP",
        "district": "Conjunto Habitacional Irmã Catarina",
        "street": "Rua Gabriel Marcondes de Paula",
        "zipcode": "19813-730"
    },
    {
        "city": "Assis",
        "state": "SP",
        "district": "Conjunto Habitacional Irmã Catarina",
        "street": "Rua Nelson Marcondes",
        "zipcode": "19813-750"
    },
    {
        "city": "Assis",
        "state": "SP",
        "district": "Conjunto Habitacional Irmã Catarina",
        "street": "Rua José Rossini",
        "zipcode": "19813-735"
    },
    {
        "city": "Assis",
        "state": "SP",
        "district": "BNH",
        "street": "Rua B",
        "zipcode": "19807-333"
    },
    {
        "city": "Assis",
        "state": "SP",
        "district": "Centro",
        "street": "Rua Capitão Francisco Rodrigues Garcia",
        "zipcode": "19800-130"
    },
    {
        "city": "Assis",
        "state": "SP",
        "district": "Centro",
        "street": "Rua Carlos Gomes",
        "zipcode": "19806-030"
    },
    {
        "city": "Assis",
        "state": "SP",
        "district": "Conjunto Habitacional Nelson Marcondes",
        "street": "Rua Cono de Filippo",
        "zipcode": "19813-570"
    },
    {
        "city": "Assis",
        "state": "SP",
        "district": "Centro",
        "street": "Rua Doutor Clibas Pinto Ferraz",
        "zipcode": "19800-040"
    },
    {
        "city": "Assis",
        "state": "SP",
        "district": "Centro",
        "street": "Rua Floriano Peixoto",
        "zipcode": "19800-011"
    },
    {
        "city": "Assis",
        "state": "SP",
        "district": "Centro",
        "street": "Rua José Bonifácio",
        "zipcode": "19800-071"
    },
    {
        "city": "Assis",
        "state": "SP",
        "district": "Jardim Faria",
        "street": "Rua Mayre",
        "zipcode": "19807-155"
    },
    {
        "city": "Assis",
        "state": "SP",
        "district": "Vila Ouro Verde",
        "street": "Rua Oswaldo Rodrigues",
        "zipcode": "19816-205"
    },
    {
        "city": "Assis",
        "state": "SP",
        "district": "Centro",
        "street": "Rua Padre David",
        "zipcode": "19800-220"
    },
    {
        "city": "Assis",
        "state": "SP",
        "district": "Jardim Europa",
        "street": "Rua Paulo Pedro Longo",
        "zipcode": "19815-250"
    },
    {
        "city": "Assis",
        "state": "SP",
        "district": "Vila Santo Antônio",
        "street": "Rua Quinze de Novembro",
        "zipcode": "19800-161"
    },
    {
        "city": "Assis",
        "state": "SP",
        "district": "Água do Pavão",
        "street": "Rodovia Raposo Tavares",
        "zipcode": "19815-350"
    },
    {
        "city": "Assis",
        "state": "SP",
        "district": "Centro",
        "street": "Avenida Rui Barbosa",
        "zipcode": "19800-002"
    },
    {
        "city": "Assis",
        "state": "SP",
        "district": "Jardim Europa",
        "street": "Rua Salvador H. Esteves",
        "zipcode": "19814-610"
    },
    {
        "city": "Assis",
        "state": "SP",
        "district": "San Fernando Valley",
        "street": "Rua Sebastião Leite do Canto",
        "zipcode": "19800-121"
    },
    {
        "city": "Assis",
        "state": "SP",
        "district": "Centro",
        "street": "Rua Tiradentes",
        "zipcode": "19800-090"
    },
    {
        "city": "Assis",
        "state": "SP",
        "district": "BNH",
        "street": "Rua E",
        "zipcode": "19807-334"
    },
    {
        "city": "Assis",
        "state": "SP",
        "district": "Jardim Monte Carlo",
        "street": "Rua Romeu de Maio",
        "zipcode": "19815-390"
    },
    {
        "city": "Assis",
        "state": "SP",
        "district": "Nova Assis",
        "street": "Rua Dois",
        "zipcode": "19803-422"
    },
    {
        "city": "Assis",
        "state": "SP",
        "district": "Jardim Paraná",
        "street": "Rua União da Vitória",
        "zipcode": "19807-345"
    },
    {
        "city": "Assis",
        "state": "SP",
        "district": "Vila Santa Cecília",
        "street": "Rua André Perini",
        "zipcode": "19806-271"
    },
    {
        "city": "Assis",
        "state": "SP",
        "district": "Vila Ribeiro",
        "street": "Rua Jeribatiba",
        "zipcode": "19802-340"
    },
    {
        "city": "Assis",
        "state": "SP",
        "district": "Vila São Jorge",
        "street": "Rua José Vieira da Cunha e Silva",
        "zipcode": "19801-140"
    },
    {
        "city": "Assis",
        "state": "SP",
        "district": "Jardim Eldorado",
        "street": "Rua Judith Silva Carvalho",
        "zipcode": "19803-360"
    },
    {
        "city": "Assis",
        "state": "SP",
        "district": "Jardim Canadá",
        "street": "Rua Ernesto Moreli",
        "zipcode": "19801-015"
    },
    {
        "city": "Assis",
        "state": "SP",
        "district": "Vila Independência",
        "street": "Rua Pedro Carricondo",
        "zipcode": "19802-201"
    },
    {
        "city": "Assis",
        "state": "SP",
        "district": "Park Residencial Colinas",
        "street": "Rua Pedro Santilli",
        "zipcode": "19803-526"
    },
    {
        "city": "Assis",
        "state": "SP",
        "district": "Park Residencial Colinas",
        "street": "Rua José Maurício Nucci",
        "zipcode": "19803-504"
    },
    {
        "city": "Assis",
        "state": "SP",
        "district": "Centro",
        "street": "Rua Brasil",
        "zipcode": "19800-971"
    },
    {
        "city": "Assis",
        "state": "SP",
        "district": "Jardim 3 Américas I",
        "street": "Rua Pedro Modotti",
        "zipcode": "19802-520"
    },
    {
        "city": "Assis",
        "state": "SP",
        "district": "Vila Maria Izabel",
        "street": "Rua Sebastião Daniel Teodoro",
        "zipcode": "19804-550"
    },
    {
        "city": "Assis",
        "state": "SP",
        "district": "Vila Operária",
        "street": "Rua Manoel Bernardo da Silva",
        "zipcode": "19804-160"
    },
    {
        "city": "Assis",
        "state": "SP",
        "district": "Jardim Faria",
        "street": "Rua Dirce",
        "zipcode": "19807-159"
    },
    {
        "city": "Assis",
        "state": "SP",
        "district": "Vila Marialves",
        "street": "Rua José Spinosa Torres",
        "zipcode": "19804-743"
    },
    {
        "city": "Assis",
        "state": "SP",
        "district": "Vila Nova Florínea",
        "street": "Rua Euclides N. Barros",
        "zipcode": "19803-290"
    },
    {
        "city": "Assis",
        "state": "SP",
        "district": "Vila Maria Izabel",
        "street": "Rua Sebastião Benedito",
        "zipcode": "19804-703"
    },
    {
        "city": "Assis",
        "state": "SP",
        "district": "Vila Silvestre",
        "street": "Rua Ida Minatti Ferreira",
        "zipcode": "19804-502"
    },
    {
        "city": "Assis",
        "state": "SP",
        "district": "Centro",
        "street": "Travessa Erasmo Mercadante",
        "zipcode": "19814-011"
    },
    {
        "city": "Assis",
        "state": "SP",
        "district": "DVille Residencial",
        "street": "Alameda Lyon",
        "zipcode": "19815-608"
    },
    {
        "city": "Assis",
        "state": "SP",
        "district": "Conjunto Habitacional Nelson Marcondes",
        "street": "Avenida Zuma",
        "zipcode": "19813-544"
    },
    {
        "city": "Assis",
        "state": "SP",
        "district": "Residencial Aquarius",
        "street": "Rua Marceneiro Delfino Domingues",
        "zipcode": "19806-761"
    },
    {
        "city": "Assis",
        "state": "SP",
        "district": "Residencial Village Damha Assis",
        "street": "Rua José Augusto Ribeiro",
        "zipcode": "19816-357"
    },
    {
        "city": "Assis",
        "state": "SP",
        "district": "Residencial Aquarius",
        "street": "Rua Emílio Piccolo",
        "zipcode": "19806-764"
    },
    {
        "city": "Assis",
        "state": "SP",
        "district": "Residencial Village Damha Assis",
        "street": "Rua Pedro Henrique De Oliveira",
        "zipcode": "19816-362"
    },
    {
        "city": "Assis",
        "state": "SP",
        "district": "Residencial Aquarius",
        "street": "Rua Izabel de Souza Paes",
        "zipcode": "19806-766"
    },
    {
        "city": "Assis",
        "state": "SP",
        "district": "Residencial Village Damha Assis",
        "street": "Rua Ângelo Zanotti",
        "zipcode": "19816-360"
    },
    {
        "city": "Assis",
        "state": "SP",
        "district": "Residencial Casablanca",
        "street": "Alameda Doutora Marlene Passarelli Cortez",
        "zipcode": "19815-804"
    },
    {
        "city": "Assis",
        "state": "SP",
        "district": "Residencial Casablanca",
        "street": "Alameda Doutor Antonio Loureiro Sobral",
        "zipcode": "19815-832"
    },
    {
        "city": "Assis",
        "state": "SP",
        "district": "Residencial Casablanca",
        "street": "Alameda Doutor Ariovaldo Silveira Junior",
        "zipcode": "19815-816"
    },
    {
        "city": "Assis",
        "state": "SP",
        "district": "Renascence Residencial",
        "street": "Rua Van Gogh",
        "zipcode": "19815-714"
    },
    {
        "city": "Assis",
        "state": "SP",
        "district": "Renascence Residencial",
        "street": "Rua Giuseppe Verdi",
        "zipcode": "19815-723"
    },
    {
        "city": "Assis",
        "state": "SP",
        "district": "Renascence Residencial",
        "street": "Rua Bernardo Rosselino",
        "zipcode": "19815-704"
    },
    {
        "city": "Assis",
        "state": "SP",
        "district": "Residencial Casablanca",
        "street": "Praça Doutor Harly Trench Junior",
        "zipcode": "19815-836"
    },
    {
        "city": "Assis",
        "state": "SP",
        "district": "Residencial Village Damha Assis",
        "street": "Rua José Pelizzon",
        "zipcode": "19816-351"
    },
    {
        "city": "Assis",
        "state": "SP",
        "district": "Residencial Village Damha Assis",
        "street": "Rua Paulo Francisco de Rezende Barbosa",
        "zipcode": "19816-358"
    },
    {
        "city": "Assis",
        "state": "SP",
        "district": "Residencial Casablanca",
        "street": "Alameda Doutor Rubens Sebastião Spinardi",
        "zipcode": "19815-800"
    },
    {
        "city": "Assis",
        "state": "SP",
        "district": "Renascence Residencial",
        "street": "Rua Fra Angélico",
        "zipcode": "19815-711"
    },
    {
        "city": "Assis",
        "state": "SP",
        "district": "Renascence Residencial",
        "street": "Rua Leonardo da Vinci",
        "zipcode": "19815-708"
    },
    {
        "city": "Assis",
        "state": "SP",
        "district": "Renascence Residencial",
        "street": "Rua Ludwig Van Beethoven",
        "zipcode": "19815-718"
    },
    {
        "city": "Assis",
        "state": "SP",
        "district": "Renascence Residencial",
        "street": "Rua Rembrandt",
        "zipcode": "19815-721"
    },
    {
        "city": "Assis",
        "state": "SP",
        "district": "Residencial Casablanca",
        "street": "Alameda Doutor Arthur Sérgio Gonzalez Martins Garcia",
        "zipcode": "19815-812"
    },
    {
        "city": "Assis",
        "state": "SP",
        "district": "Residencial Village Damha Assis",
        "street": "Rua Carlos Henrique Torreti",
        "zipcode": "19816-352"
    },
    {
        "city": "Assis",
        "state": "SP",
        "district": "Residencial Casablanca",
        "street": "Alameda Doutor Salim José Homse",
        "zipcode": "19815-806"
    },
    {
        "city": "Assis",
        "state": "SP",
        "district": "Renascence Residencial",
        "street": "Rua Gerard David",
        "zipcode": "19815-719"
    },
    {
        "city": "Assis",
        "state": "SP",
        "district": "Residencial Aquarius",
        "street": "Rua Emilio Roberto Cavina",
        "zipcode": "19806-765"
    },
    {
        "city": "Assis",
        "state": "SP",
        "district": "Residencial Casablanca",
        "street": "Alameda Doutor Emanuel Gustavo Bertoldi",
        "zipcode": "19815-810"
    },
    {
        "city": "Assis",
        "state": "SP",
        "district": "Residencial Aquarius",
        "street": "Rua Doutor Paulo Souza Felix",
        "zipcode": "19806-763"
    },
    {
        "city": "Assis",
        "state": "SP",
        "district": "Residencial Village Damha Assis",
        "street": "Rua José Tozzoni",
        "zipcode": "19816-353"
    },
    {
        "city": "Assis",
        "state": "SP",
        "district": "Residencial Casablanca",
        "street": "Alameda Doutor Wilson Baleotti",
        "zipcode": "19815-818"
    },
    {
        "city": "Assis",
        "state": "SP",
        "district": "Residencial Village Damha Assis",
        "street": "Rua Antônio Francisco De Oliveira",
        "zipcode": "19816-365"
    },
    {
        "city": "Assis",
        "state": "SP",
        "district": "Conjunto Habitacional São Judas Tadeu",
        "street": "Rua Belmiro Rodrigues",
        "zipcode": "19802-587"
    },
    {
        "city": "Assis",
        "state": "SP",
        "district": "Residencial Aquarius",
        "street": "Rua C",
        "zipcode": "19806-768"
    },
    {
        "city": "Assis",
        "state": "SP",
        "district": "Renascence Residencial",
        "street": "Rua Joseph Maurice Ravel",
        "zipcode": "19815-709"
    },
    {
        "city": "Assis",
        "state": "SP",
        "district": "Residencial Casablanca",
        "street": "Alameda Doutor Benedito Ayrton Monteiro",
        "zipcode": "19815-830"
    },
    {
        "city": "Assis",
        "state": "SP",
        "district": "Renascence Residencial",
        "street": "Rua Sandro Botticelli",
        "zipcode": "19815-710"
    },
    {
        "city": "Assis",
        "state": "SP",
        "district": "Chácara das Rosas",
        "street": "Rua das Constelações",
        "zipcode": "19808-001"
    },
    {
        "city": "Assis",
        "state": "SP",
        "district": "Residencial Village Damha Assis",
        "street": "Rua Adhemar Ribeiro",
        "zipcode": "19816-355"
    },
    {
        "city": "Assis",
        "state": "SP",
        "district": "Renascence Residencial",
        "street": "Rua Willian Shakespeare",
        "zipcode": "19815-715"
    },
    {
        "city": "Assis",
        "state": "SP",
        "district": "Renascence Residencial",
        "street": "Rua Monze Lourenzo",
        "zipcode": "19815-702"
    },
    {
        "city": "Assis",
        "state": "SP",
        "district": "Nova Assis",
        "street": "Rua Major João Fogaça",
        "zipcode": "19803-450"
    },
    {
        "city": "Assis",
        "state": "SP",
        "district": "Renascence Residencial",
        "street": "Rua Miguel de Cervantes",
        "zipcode": "19815-703"
    },
    {
        "city": "Assis",
        "state": "SP",
        "district": "Residencial Casablanca",
        "street": "Alameda Doutora Eliane Mussi",
        "zipcode": "19815-828"
    },
    {
        "city": "Assis",
        "state": "SP",
        "district": "Residencial Village Damha Assis",
        "street": "Rua Márcio Augusto da Silva Guttho",
        "zipcode": "19816-366"
    },
    {
        "city": "Assis",
        "state": "SP",
        "district": "Patrimônio Bispado",
        "street": "Travessa Eduardo de Camargo",
        "zipcode": "19800-102"
    },
    {
        "city": "Assis",
        "state": "SP",
        "district": "Renascence Residencial",
        "street": "Rua Claude Monet",
        "zipcode": "19815-713"
    },
    {
        "city": "Assis",
        "state": "SP",
        "district": "Residencial Casablanca",
        "street": "Alameda Doutor Waldemar Guedes Gonçalves",
        "zipcode": "19815-808"
    },
    {
        "city": "Assis",
        "state": "SP",
        "district": "Renascence Residencial",
        "street": "Rua Luis de Camões",
        "zipcode": "19815-705"
    },
    {
        "city": "Assis",
        "state": "SP",
        "district": "Residencial Village Damha Assis",
        "street": "Rua Ana Amélia Morelli De Carvalho",
        "zipcode": "19816-361"
    },
    {
        "city": "Assis",
        "state": "SP",
        "district": "Residencial Casablanca",
        "street": "Alameda Doutor Newton Nogueira Brando",
        "zipcode": "19815-820"
    },
    {
        "city": "Assis",
        "state": "SP",
        "district": "Conjunto Habitacional São Judas Tadeu",
        "street": "Rua C",
        "zipcode": "19802-585"
    },
    {
        "city": "Assis",
        "state": "SP",
        "district": "Residencial Casablanca",
        "street": "Alameda Doutor Paulo de Souza Cardoso",
        "zipcode": "19815-822"
    },
    {
        "city": "Assis",
        "state": "SP",
        "district": "Residencial Casablanca",
        "street": "Alameda Doutor Celso Vada dos Santos",
        "zipcode": "19815-824"
    },
    {
        "city": "Assis",
        "state": "SP",
        "district": "Renascence Residencial",
        "street": "Rua Dante Alighieri",
        "zipcode": "19815-716"
    },
    {
        "city": "Assis",
        "state": "SP",
        "district": "Residencial Village Damha Assis",
        "street": "Avenida Arthur Longhini",
        "zipcode": "19816-363"
    },
    {
        "city": "Assis",
        "state": "SP",
        "district": "Renascence Residencial",
        "street": "Rua Johan Strauss",
        "zipcode": "19815-720"
    },
    {
        "city": "Assis",
        "state": "SP",
        "district": "Residencial Village Damha Assis",
        "street": "Rua Guerino Pedro Longo",
        "zipcode": "19816-359"
    },
    {
        "city": "Assis",
        "state": "SP",
        "district": "Renascence Residencial",
        "street": "Rua Wolfgang Amadeus Mozart",
        "zipcode": "19815-724"
    },
    {
        "city": "Assis",
        "state": "SP",
        "district": "Renascence Residencial",
        "street": "Rua Antonio Vivaldi",
        "zipcode": "19815-706"
    },
    {
        "city": "Assis",
        "state": "SP",
        "district": "Centro",
        "street": "Rua Josino De Andrade",
        "zipcode": "19814-430"
    },
    {
        "city": "Assis",
        "state": "SP",
        "district": "Conjunto Habitacional Assis IV",
        "street": "Rua A",
        "zipcode": "19807-830"
    },
    {
        "city": "Assis",
        "state": "SP",
        "district": "Parque das Acácias",
        "street": "Rua A",
        "zipcode": "19813-100"
    },
    {
        "city": "Assis",
        "state": "SP",
        "district": "Vila Soubhie",
        "street": "Rua Abla Soubhie",
        "zipcode": "19802-495"
    },
    {
        "city": "Assis",
        "state": "SP",
        "district": "Vila Nova Santana",
        "street": "Rua Ademar de Barros",
        "zipcode": "19807-120"
    },
    {
        "city": "Assis",
        "state": "SP",
        "district": "Vila Brasileira",
        "street": "Rua Adib Jamal Soubhie",
        "zipcode": "19802-460"
    },
    {
        "city": "Assis",
        "state": "SP",
        "district": "Jardim Europa",
        "street": "Rua Agostinho de Almeida",
        "zipcode": "19815-210"
    },
    {
        "city": "Assis",
        "state": "SP",
        "district": "Vila Claudia",
        "street": "Rua Alcebíades José Nogueira",
        "zipcode": "19815-330"
    },
    {
        "city": "Assis",
        "state": "SP",
        "district": "Vila Tênis Clube",
        "street": "Rua Alípio Corrêa Neto",
        "zipcode": "19806-330"
    },
    {
        "city": "Assis",
        "state": "SP",
        "district": "Centro",
        "street": "Rua Almirante Barroso",
        "zipcode": "19814-421"
    },
    {
        "city": "Assis",
        "state": "SP",
        "district": "Jardim América",
        "street": "Rua Álvaro Constantino",
        "zipcode": "19815-082"
    },
    {
        "city": "Assis",
        "state": "SP",
        "district": "Parque Universitário",
        "street": "Rua Amadeu Grotti",
        "zipcode": "19806-755"
    },
    {
        "city": "Assis",
        "state": "SP",
        "district": "Vila Central",
        "street": "Rua Amador Bueno",
        "zipcode": "19806-190"
    },
    {
        "city": "Assis",
        "state": "SP",
        "district": "Jardim São Nicolau",
        "street": "Rua Amazonas",
        "zipcode": "19813-340"
    },
    {
        "city": "Assis",
        "state": "SP",
        "district": "Vila Brasileira",
        "street": "Rua América",
        "zipcode": "19802-445"
    },
    {
        "city": "Assis",
        "state": "SP",
        "district": "Jardim Canadá",
        "street": "Rua Américo Brasiliense Bartholomei",
        "zipcode": "19801-110"
    },
    {
        "city": "Assis",
        "state": "SP",
        "district": "Núcleo Habitacional Dirceu Gomes Cervilha",
        "street": "Rua Anízio Luiz Ribeiro",
        "zipcode": "19804-740"
    },
    {
        "city": "Assis",
        "state": "SP",
        "district": "Vila Santa Rita",
        "street": "Rua Anita Garibaldi",
        "zipcode": "19807-290"
    },
    {
        "city": "Assis",
        "state": "SP",
        "district": "Centro",
        "street": "Praça Arlindo Luz",
        "zipcode": "19800-018"
    },
    {
        "city": "Assis",
        "state": "SP",
        "district": "Vila Mercedes",
        "street": "Avenida Armando Salles de Oliveira",
        "zipcode": "19802-081"
    },
    {
        "city": "Assis",
        "state": "SP",
        "district": "Vila Moraes Pinto",
        "street": "Avenida Armando Salles de Oliveira",
        "zipcode": "19802-082"
    },
    {
        "city": "Assis",
        "state": "SP",
        "district": "Centro",
        "street": "Rua Borba Gato",
        "zipcode": "19806-090"
    },
    {
        "city": "Assis",
        "state": "SP",
        "district": "Centro",
        "street": "Rua Capitão Assis",
        "zipcode": "19800-060"
    },
    {
        "city": "Assis",
        "state": "SP",
        "district": "Vila Tênis Clube",
        "street": "Rua Capitão Azarias Ribeiro",
        "zipcode": "19806-410"
    },
    {
        "city": "Assis",
        "state": "SP",
        "district": "Núcleo Habitacional Dirceu Gomes Cervilha",
        "street": "Rua Conceição Aparecida Claro Soares",
        "zipcode": "19804-756"
    },
    {
        "city": "Assis",
        "state": "SP",
        "district": "Centro",
        "street": "Rua Flauzina Liberata de Jesus",
        "zipcode": "19814-450"
    },
    {
        "city": "Assis",
        "state": "SP",
        "district": "Vila Ebenezer",
        "street": "Rua Hermes Rodrigues da Fonseca",
        "zipcode": "19807-180"
    },
    {
        "city": "Assis",
        "state": "SP",
        "district": "Vila Fabiano",
        "street": "Rua João Ribeiro",
        "zipcode": "19802-171"
    },
    {
        "city": "Assis",
        "state": "SP",
        "district": "Vila Orestes",
        "street": "Rua José Coelho Barbosa",
        "zipcode": "19806-290"
    },
    {
        "city": "Assis",
        "state": "SP",
        "district": "Vila Ribeiro",
        "street": "Rua Leonor",
        "zipcode": "19802-190"
    },
    {
        "city": "Assis",
        "state": "SP",
        "district": "Jardim Santa Amélia",
        "street": "Rua das Margaridas",
        "zipcode": "19816-098"
    },
    {
        "city": "Assis",
        "state": "SP",
        "district": "Parque Universitário",
        "street": "Avenida Mário de Vito",
        "zipcode": "19806-700"
    },
    {
        "city": "Assis",
        "state": "SP",
        "district": "Jardim Europa",
        "street": "Rua Professor Charles Fraga Moreira",
        "zipcode": "19815-180"
    },
    {
        "city": "Assis",
        "state": "SP",
        "district": "Vila Progresso",
        "street": "Rodovia Raposo Tavares",
        "zipcode": "19807-660"
    },
    {
        "city": "Assis",
        "state": "SP",
        "district": "Centro",
        "street": "Avenida Rui Barbosa",
        "zipcode": "19800-001"
    },
    {
        "city": "Assis",
        "state": "SP",
        "district": "Centro",
        "street": "Avenida Rui Barbosa",
        "zipcode": "19814-000"
    },
    {
        "city": "Assis",
        "state": "SP",
        "district": "Vila Ribeiro",
        "street": "Rua Vicente Fernandes Figueiredo",
        "zipcode": "19803-035"
    },
    {
        "city": "Assis",
        "state": "SP",
        "district": "Jardim 3 Américas I",
        "street": "Rua Oscar Lúcio da Silva",
        "zipcode": "19802-560"
    },
    {
        "city": "Assis",
        "state": "SP",
        "district": "Vila Marialves",
        "street": "Rua Osmar Francisco Alves",
        "zipcode": "19804-640"
    },
    {
        "city": "Assis",
        "state": "SP",
        "district": "Vila Santa Cecília",
        "street": "Rua João Ramalho",
        "zipcode": "19806-181"
    },
    {
        "city": "Assis",
        "state": "SP",
        "district": "Vila Ribeiro",
        "street": "Rua Senhor do Bonfim",
        "zipcode": "19802-131"
    },
    {
        "city": "Assis",
        "state": "SP",
        "district": "Vila Adileta",
        "street": "Rua Fernão Dias",
        "zipcode": "19814-253"
    },
    {
        "city": "Assis",
        "state": "SP",
        "district": "Centro",
        "street": "Praça Doutor Symphronio Alves dos Santos",
        "zipcode": "19814-015"
    },
    {
        "city": "Assis",
        "state": "SP",
        "district": "Nova Assis",
        "street": "Rua José Neres da Anunciação",
        "zipcode": "19803-470"
    },
    {
        "city": "Assis",
        "state": "SP",
        "district": "Jardim Europa",
        "street": "Rua Achille Dal Poz",
        "zipcode": "19815-175"
    },
    {
        "city": "Assis",
        "state": "SP",
        "district": "Área Rural de Assis",
        "street": "Área Rural",
        "zipcode": "19819-899"
    },
    {
        "city": "Assis",
        "state": "SP",
        "district": "Jardim Paulista",
        "street": "Rua Balneária",
        "zipcode": "19815-030"
    },
    {
        "city": "Assis",
        "state": "SP",
        "district": "Centro",
        "street": "Rua Fernao Dias",
        "zipcode": "19814-410"
    },
    {
        "city": "Assis",
        "state": "SP",
        "district": "Jardim Paulista",
        "street": "Rua Ângela Rabazi de Andrade",
        "zipcode": "19815-070"
    },
    {
        "city": "Assis",
        "state": "SP",
        "district": "Jardim Amaury",
        "street": "Rua Ângela Rabazi de Andrade",
        "zipcode": "19816-240"
    },
    {
        "city": "Assis",
        "state": "SP",
        "district": "Conjunto Habitacional Nelson Marcondes",
        "street": "Rua Alice Franco Pereira Rosa",
        "zipcode": "19813-510"
    },
    {
        "city": "Assis",
        "state": "SP",
        "district": "Vila São João",
        "street": "Rua São Jorge",
        "zipcode": "19801-165"
    },
    {
        "city": "Assis",
        "state": "SP",
        "district": "Jardim Aeroporto",
        "street": "Rua Osmar Luchini",
        "zipcode": "19813-178"
    },
    {
        "city": "Assis",
        "state": "SP",
        "district": "Jardim Aeroporto",
        "street": "Rua Durvalino Binato",
        "zipcode": "19813-170"
    },
    {
        "city": "Assis",
        "state": "SP",
        "district": "Vila Progresso",
        "street": "Rua Amparo",
        "zipcode": "19807-597"
    },
    {
        "city": "Assis",
        "state": "SP",
        "district": "Centro de Desenvolvimento de Assis",
        "street": "Rua Hugo Mossini",
        "zipcode": "19812-110"
    },
    {
        "city": "Assis",
        "state": "SP",
        "district": "Park Residencial Colinas",
        "street": "Rua Maria da Glória Botteon Logar",
        "zipcode": "19803-516"
    },
    {
        "city": "Assis",
        "state": "SP",
        "district": "Park Residencial Colinas",
        "street": "Rua Orlando Pedro Longo",
        "zipcode": "19803-532"
    },
    {
        "city": "Assis",
        "state": "SP",
        "district": "Park Residencial Colinas",
        "street": "Rua Agenor Antonio Chiqueto",
        "zipcode": "19803-538"
    },
    {
        "city": "Assis",
        "state": "SP",
        "district": "Residencial Park Bambu",
        "street": "Rua Onofre Meira Lima",
        "zipcode": "19801-269"
    },
    {
        "city": "Assis",
        "state": "SP",
        "district": "Núcleo Habitacional Dirceu Gomes Cervilha",
        "street": "Rua Joaquim Vítor",
        "zipcode": "19804-770"
    },
    {
        "city": "Assis",
        "state": "SP",
        "district": "Jardim Santa Clara",
        "street": "Rua Joaquim Vítor",
        "zipcode": "19804-798"
    },
    {
        "city": "Assis",
        "state": "SP",
        "district": "Vila Maria Izabel",
        "street": "Rua Atanázio Medeiros",
        "zipcode": "19804-700"
    },
    {
        "city": "Assis",
        "state": "SP",
        "district": "Núcleo Habitacional Dirceu Gomes Cervilha",
        "street": "Rua Maria Rosa F. do Nascimento",
        "zipcode": "19804-705"
    },
    {
        "city": "Assis",
        "state": "SP",
        "district": "Vila Souza",
        "street": "Avenida Vereador David Passarinho",
        "zipcode": "19804-970"
    },
    {
        "city": "Assis",
        "state": "SP",
        "district": "Conjunto Habitacional Irmã Catarina",
        "street": "Avenida Félix de Castro",
        "zipcode": "19813-700"
    },
    {
        "city": "Assis",
        "state": "SP",
        "district": "Centro",
        "street": "Rua Almirante Barroso",
        "zipcode": "19814-420"
    },
    {
        "city": "Assis",
        "state": "SP",
        "district": "Residencial Esmeralda Park",
        "street": "Rua dos Cristais",
        "zipcode": "19808-068"
    },
    {
        "city": "Assis",
        "state": "SP",
        "district": "Residencial Casablanca",
        "street": "Alameda Doutor Joelson Leal Lisboa",
        "zipcode": "19815-826"
    },
    {
        "city": "Assis",
        "state": "SP",
        "district": "Renascence Residencial",
        "street": "Rua Mariotto Albertinelli",
        "zipcode": "19815-701"
    },
    {
        "city": "Assis",
        "state": "SP",
        "district": "Renascence Residencial",
        "street": "Rua Guido Cavalcante",
        "zipcode": "19815-712"
    },
    {
        "city": "Assis",
        "state": "SP",
        "district": "Residencial Aquarius",
        "street": "Rua Pamela Tamires Dias Meira",
        "zipcode": "19806-767"
    },
    {
        "city": "Assis",
        "state": "SP",
        "district": "Park Residencial Colinas",
        "street": "Rua Escritor Leoni Ferreira Silva",
        "zipcode": "19803-508"
    },
    {
        "city": "Assis",
        "state": "SP",
        "district": "Renascence Residencial",
        "street": "Rua Giovani Bellini",
        "zipcode": "19815-717"
    },
    {
        "city": "Assis",
        "state": "SP",
        "district": "Vila Rodrigues",
        "street": "Rua Piratininga",
        "zipcode": "19807-210"
    },
    {
        "city": "Assis",
        "state": "SP",
        "district": "Renascence Residencial",
        "street": "Rua Auguste Rodin",
        "zipcode": "19815-722"
    },
    {
        "city": "Assis",
        "state": "SP",
        "district": "Residencial Village Damha Assis",
        "street": "Rua Miguel Império Scardueli",
        "zipcode": "19816-354"
    },
    {
        "city": "Assis",
        "state": "SP",
        "district": "Renascence Residencial",
        "street": "Rua El Greco",
        "zipcode": "19815-707"
    },
    {
        "city": "Assis",
        "state": "SP",
        "district": "Residencial Casablanca",
        "street": "Alameda Doutor José Augusto Sampaio",
        "zipcode": "19815-802"
    },
    {
        "city": "Assis",
        "state": "SP",
        "district": "Residencial Casablanca",
        "street": "Praça Comendador Doutor Antônio Marcos Zibordi de Almeida",
        "zipcode": "19815-834"
    },
    {
        "city": "Assis",
        "state": "SP",
        "district": "Vila Santa Cecília",
        "street": "Rua Piratininga",
        "zipcode": "19806-261"
    },
    {
        "city": "Assis",
        "state": "SP",
        "district": "Vila Claudia",
        "street": "Praça Geraldo Alves Negrão",
        "zipcode": "19815-303"
    },
    {
        "city": "Assis",
        "state": "SP",
        "district": "Residencial Casablanca",
        "street": "Alameda Doutor Valdemir Sanchez Morais",
        "zipcode": "19815-814"
    },
    {
        "city": "Assis",
        "state": "SP",
        "district": "Vila Central",
        "street": "Rua Piratininga",
        "zipcode": "19806-260"
    },
    {
        "city": "Assis",
        "state": "SP",
        "district": "Conjunto Habitacional Nelson Marcondes",
        "street": "Rua José Cury",
        "zipcode": "19813-500"
    },
    {
        "city": "Assis",
        "state": "SP",
        "district": "Park Residencial Colinas",
        "street": "Rua Priscila Nascimento Vezzoni",
        "zipcode": "19803-510"
    },
    {
        "city": "Assis",
        "state": "SP",
        "district": "BNH",
        "street": "Praça Hermínio Guilherme Bordim",
        "zipcode": "19807-324"
    },
    {
        "city": "Assis",
        "state": "SP",
        "district": "Jardim Paulista",
        "street": "Travessa Portuguesa",
        "zipcode": "19815-075"
    },
    {
        "city": "Assis",
        "state": "SP",
        "district": "Renascence Residencial",
        "street": "Avenida Antonioni Michelangelo",
        "zipcode": "19815-700"
    },
    {
        "city": "Assis",
        "state": "SP",
        "district": "Conjunto Habitacional Assis IV",
        "street": "Rua Benedito Marcos Musa",
        "zipcode": "19804-775"
    },
    {
        "city": "Assis",
        "state": "SP",
        "district": "Residencial Esmeralda Park",
        "street": "Rua das Ametistas",
        "zipcode": "19808-076"
    },
    {
        "city": "Assis",
        "state": "SP",
        "district": "Vila Prudenciana",
        "street": "Rua Cecílio Cervilha Tarifa",
        "zipcode": "19803-235"
    },
    {
        "city": "Assis",
        "state": "SP",
        "district": "Conjunto Habitacional Danusa",
        "street": "Rua Vereador Amilton Meirelles de Almeida",
        "zipcode": "19804-484"
    },
    {
        "city": "Assis",
        "state": "SP",
        "district": "Portal de São Francisco",
        "street": "Rua Maria Alves de Souza",
        "zipcode": "19807-456"
    },
    {
        "city": "Assis",
        "state": "SP",
        "district": "DVille Residencial",
        "street": "Avenida Marginal",
        "zipcode": "19815-600"
    },
    {
        "city": "Assis",
        "state": "SP",
        "district": "Conjunto Habitacional Assis IV",
        "street": "Rua José Tusto",
        "zipcode": "19807-828"
    },
    {
        "city": "Assis",
        "state": "SP",
        "district": "Jardim 3 Américas I",
        "street": "Rua Aparecido Portes Silva",
        "zipcode": "19802-570"
    },
    {
        "city": "Assis",
        "state": "SP",
        "district": "Residencial Village Damha Assis",
        "street": "Rua Doutor Neuton Ferdinando Deluis Carrijo",
        "zipcode": "19816-356"
    },
    {
        "city": "Assis",
        "state": "SP",
        "district": "Vila Maria",
        "street": "Rua Antônio Domene",
        "zipcode": "19814-160"
    },
    {
        "city": "Assis",
        "state": "SP",
        "district": "Chácara das Rosas",
        "street": "Rodovia Raposo Tavares",
        "zipcode": "19808-010"
    },
    {
        "city": "Assis",
        "state": "SP",
        "district": "Park Residencial Colinas",
        "street": "Rua Cabo",
        "zipcode": "19803-546"
    },
    {
        "city": "Assis",
        "state": "SP",
        "district": "Portal de São Francisco",
        "street": "Rua Helenira Rezende de Souza Nazareth",
        "zipcode": "19807-472"
    },
    {
        "city": "Assis",
        "state": "SP",
        "district": "Conjunto Habitacional São Judas Tadeu",
        "street": "Rua Hildo Biondo",
        "zipcode": "19802-581"
    },
    {
        "city": "Assis",
        "state": "SP",
        "district": "Residencial Village Damha Assis",
        "street": "Rua Professor Jerson de Castro Santanna",
        "zipcode": "19816-367"
    },
    {
        "city": "Assis",
        "state": "SP",
        "district": "Quinta dos Flamboyants",
        "street": "Rua Três",
        "zipcode": "19810-840"
    },
    {
        "city": "Assis",
        "state": "SP",
        "district": "Chácara das Rosas",
        "street": "Rodovia Raposo Tavares",
        "zipcode": "19809-000"
    },
    {
        "city": "Assis",
        "state": "SP",
        "district": "Conjunto Habitacional São Judas Tadeu",
        "street": "Rua A",
        "zipcode": "19802-583"
    },
    {
        "city": "Assis",
        "state": "SP",
        "district": "Quinta dos Flamboyants",
        "street": "Avenida José Vicente",
        "zipcode": "19810-010"
    },
    {
        "city": "Assis",
        "state": "SP",
        "district": "Residencial Esmeralda Park",
        "street": "Rua dos Citrinos",
        "zipcode": "19808-064"
    },
    {
        "city": "Assis",
        "state": "SP",
        "district": "Jardim Nova Olinda",
        "street": "Rua Maria Teixeira de Carvalho Marcondes",
        "zipcode": "19813-701"
    },
    {
        "city": "Assis",
        "state": "SP",
        "district": "Quinta dos Flamboyants",
        "street": "Rodovia Raposo Tavares",
        "zipcode": "19810-000"
    },
    {
        "city": "Assis",
        "state": "SP",
        "district": "Conjunto Habitacional Nelson Marcondes",
        "street": "Rua Dirceu Chiqueto",
        "zipcode": "19813-580"
    },
    {
        "city": "Assis",
        "state": "SP",
        "district": "Jardim Morumbi",
        "street": "Rua Sérgio Espéria",
        "zipcode": "19815-540"
    },
    {
        "city": "Assis",
        "state": "SP",
        "district": "Jardim Amaury",
        "street": "Rua Venezuela",
        "zipcode": "19816-243"
    },
    {
        "city": "Assis",
        "state": "SP",
        "district": "Residencial Park Bambu",
        "street": "Rua Amélia Burali Moreli",
        "zipcode": "19801-272"
    },
    {
        "city": "Assis",
        "state": "SP",
        "district": "Residencial Aquarius",
        "street": "Rua Antonio Baptistella",
        "zipcode": "19806-762"
    },
    {
        "city": "Assis",
        "state": "SP",
        "district": "Posto Modelo",
        "street": "Rodovia Raposo Tavares",
        "zipcode": "19813-380"
    },
    {
        "city": "Assis",
        "state": "SP",
        "district": "Residencial Village Damha Assis",
        "street": "Avenida Irene Meneghetti Longhini",
        "zipcode": "19816-364"
    },
    {
        "city": "Assis",
        "state": "SP",
        "district": "Residencial Park Bambu",
        "street": "Rua Onze",
        "zipcode": "19801-290"
    },
    {
        "city": "Assis",
        "state": "SP",
        "district": "Park Residencial Colinas",
        "street": "Rua Armelinda Casitela Alves",
        "zipcode": "19803-542"
    },
    {
        "city": "Assis",
        "state": "SP",
        "district": "Jardim Monte Carlo",
        "street": "Rua Dionisio Gomes",
        "zipcode": "19815-375"
    },
    {
        "city": "Assis",
        "state": "SP",
        "district": "Quinta dos Flamboyants",
        "street": "Rua Dois",
        "zipcode": "19810-830"
    },
    {
        "city": "Assis",
        "state": "SP",
        "district": "Parque das Flores",
        "street": "Rua Raimundo Pereira de Brito",
        "zipcode": "19813-323"
    }
]