[
    {
        "city": "Avare",
        "state": "SP",
        "district": "Braz",
        "street": "Praça Juarez Tavora",
        "zipcode": "18701-130"
    },
    {
        "city": "Avare",
        "state": "SP",
        "district": "Vila Martins",
        "street": "Rua Presidente Costa E Silva",
        "zipcode": "18702-260"
    },
    {
        "city": "Avare",
        "state": "SP",
        "district": "Sao Pedro",
        "street": "Rua Ludovico Lopes De Medeiros",
        "zipcode": "18702-450"
    },
    {
        "city": "Avare",
        "state": "SP",
        "district": "Agua Branca",
        "street": "Travessa Benjamim Araujo Novaes",
        "zipcode": "18700-460"
    },
    {
        "city": "Avare",
        "state": "SP",
        "district": "Centro",
        "street": "Praça Coronel Edmundo Trench",
        "zipcode": "18701-783"
    },
    {
        "city": "Avare",
        "state": "SP",
        "district": "Vila Martins",
        "street": "Rua Muza",
        "zipcode": "18701-770"
    },
    {
        "city": "Avare",
        "state": "SP",
        "district": "Jardim Paineiras",
        "street": "Avenida Nova Avare",
        "zipcode": "18705-001"
    },
    {
        "city": "Avare",
        "state": "SP",
        "district": "Parque Santa Elizabeth",
        "street": "Rua Anhanguera",
        "zipcode": "18702-580"
    },
    {
        "city": "Avare",
        "state": "SP",
        "district": "Parque Santa Elizabeth",
        "street": "Rua Antonio Prata",
        "zipcode": "18702-630"
    },
    {
        "city": "Avare",
        "state": "SP",
        "district": "Jardim America",
        "street": "Alameda Mario Salles De Oliveira",
        "zipcode": "18705-003"
    },
    {
        "city": "Avare",
        "state": "SP",
        "district": "Parque Residencial Gilberto Filgueiras",
        "street": "Rua Antonio Camilo De Souza",
        "zipcode": "18703-700"
    },
    {
        "city": "Avare",
        "state": "SP",
        "district": "Parque Residencial Gilberto Filgueiras",
        "street": "Rua Dr Cazen Chaddad",
        "zipcode": "18703-680"
    },
    {
        "city": "Avare",
        "state": "SP",
        "district": "Residencial Armando Paula Assis",
        "street": "Rua Pedro Furigo",
        "zipcode": "18700-270"
    },
    {
        "city": "Avare",
        "state": "SP",
        "district": "Colina Verde",
        "street": "Avenida Nacoes Unidas",
        "zipcode": "18706-540"
    },
    {
        "city": "Avare",
        "state": "SP",
        "district": "Jardim Europa",
        "street": "Avenida Espanha",
        "zipcode": "18708-670"
    },
    {
        "city": "Avare",
        "state": "SP",
        "district": "Parque Residencial Gilberto Filgueiras",
        "street": "Praça Luiz De Paschoal",
        "zipcode": "18703-003"
    },
    {
        "city": "Avare",
        "state": "SP",
        "district": "Vila Rio Novo",
        "street": "Rua Anacleto Guartuci",
        "zipcode": "18703-010"
    },
    {
        "city": "Avare",
        "state": "SP",
        "district": "Parque Sao Jorge",
        "street": "Travessa Araponga",
        "zipcode": "18704-510"
    },
    {
        "city": "Avare",
        "state": "SP",
        "district": "Parque Sao Jorge",
        "street": "Rodovia Joao Melao",
        "zipcode": "18704-500"
    },
    {
        "city": "Avare",
        "state": "SP",
        "district": "Centro",
        "street": "Praça Juca Novaes",
        "zipcode": "18705-740"
    },
    {
        "city": "Avare",
        "state": "SP",
        "district": "Jardim Sao Paulo",
        "street": "Rua Cerqueira Cesar",
        "zipcode": "18705-361"
    },
    {
        "city": "Avare",
        "state": "SP",
        "district": "Jardim Primavera",
        "street": "Avenida Giovani Begnozzi",
        "zipcode": "18707-740"
    },
    {
        "city": "Avare",
        "state": "SP",
        "district": "Jardim Paineiras",
        "street": "Rua Deolinda De Almeida Correa",
        "zipcode": "18705-590"
    },
    {
        "city": "Avare",
        "state": "SP",
        "district": "Parque Santa Elizabeth",
        "street": "Rua Luiz Zanella",
        "zipcode": "18702-620"
    },
    {
        "city": "Avare",
        "state": "SP",
        "district": "Jardim Pinheiros",
        "street": "Rua Jango Pires",
        "zipcode": "18700-360"
    },
    {
        "city": "Avare",
        "state": "SP",
        "district": "Jardim Paineiras",
        "street": "Rua Antonio Jacinto Barbosa",
        "zipcode": "18705-735"
    },
    {
        "city": "Avare",
        "state": "SP",
        "district": "Jardim Primavera",
        "street": "Rua Vergilio De Araujo Valim",
        "zipcode": "18707-750"
    },
    {
        "city": "Avare",
        "state": "SP",
        "district": "Vila Timoteo",
        "street": "Beco Domingos Horacio",
        "zipcode": "18701-780"
    },
    {
        "city": "Avare",
        "state": "SP",
        "district": "Jardim Brasil",
        "street": "Rua Fernando De Noronha",
        "zipcode": "18702-650"
    },
    {
        "city": "Avare",
        "state": "SP",
        "district": "Jardim Vera Cruz",
        "street": "Praça Padre Paulo Goecke",
        "zipcode": "18708-673"
    },
    {
        "city": "Avare",
        "state": "SP",
        "district": "Parque Residencial Gilberto Filgueiras",
        "street": "Rua Pedro Camillo De Souza",
        "zipcode": "18703-690"
    },
    {
        "city": "Avare",
        "state": "SP",
        "district": "Vila Sao Judas Tadeu",
        "street": "Avenida Maria Jose Pinheiro Machado",
        "zipcode": "18705-330"
    },
    {
        "city": "Avare",
        "state": "SP",
        "district": "Parque Sao Jorge",
        "street": "Rua Patativa",
        "zipcode": "18704-550"
    },
    {
        "city": "Avare",
        "state": "SP",
        "district": "Chacara Tinoco",
        "street": "Rua Maria Joaquina Fonseca Pereira",
        "zipcode": "18706-560"
    },
    {
        "city": "Avare",
        "state": "SP",
        "district": "Vila Martins",
        "street": "Rua Sebastiao Esteves",
        "zipcode": "18702-460"
    },
    {
        "city": "Avare",
        "state": "SP",
        "district": "Parque Sao Jorge",
        "street": "Travessa Perdiz",
        "zipcode": "18704-530"
    },
    {
        "city": "Avare",
        "state": "SP",
        "district": "Parque Sao Jorge",
        "street": "Travessa Irere",
        "zipcode": "18704-520"
    },
    {
        "city": "Avare",
        "state": "SP",
        "district": "Conj Residencial Doutor Cecilio Jorge Neto",
        "street": "Rua Waldomiro Dias De Camargo",
        "zipcode": "18703-770"
    },
    {
        "city": "Avare",
        "state": "SP",
        "district": "Parque Sao Jorge",
        "street": "Rua Do Serrado",
        "zipcode": "18704-540"
    },
    {
        "city": "Avare",
        "state": "SP",
        "district": "Chacara Barrocao",
        "street": "Rua Deolindo Pereira",
        "zipcode": "18702-610"
    }
]