[
    {
        "city": "Cajamar",
        "state": "SP",
        "district": "Centro",
        "street": "Rua Antonio Motta Gonçalves",
        "zipcode": "07750-825"
    },
    {
        "city": "Cajamar",
        "state": "SP",
        "district": "Empresarial Colina",
        "street": "Avenida Doutor Antonio João Abdalla",
        "zipcode": "07750-020"
    },
    {
        "city": "Cajamar",
        "state": "SP",
        "district": "Paraíso (Polvilho)",
        "street": "Rua São José dos Campos",
        "zipcode": "07794-375"
    },
    {
        "city": "Cajamar",
        "state": "SP",
        "district": "Altos de Jordanésia (Jordanésia)",
        "street": "Rua Lins (Jd S João)",
        "zipcode": "07786-560"
    },
    {
        "city": "Cajamar",
        "state": "SP",
        "district": "Vau Novo",
        "street": "Rua Areiópolis (Rec Corizo)",
        "zipcode": "07762-220"
    },
    {
        "city": "Cajamar",
        "state": "SP",
        "district": "Vau Novo",
        "street": "Rua Ana Procópio de Moraes",
        "zipcode": "07762-020"
    },
    {
        "city": "Cajamar",
        "state": "SP",
        "district": "Portais (Polvilho)",
        "street": "Rua das Pavônias (P Ipês III)",
        "zipcode": "07791-125"
    },
    {
        "city": "Cajamar",
        "state": "SP",
        "district": "Paraíso (Polvilho)",
        "street": "Rua Cosmorama (Prq Paraíso)",
        "zipcode": "07794-070"
    },
    {
        "city": "Cajamar",
        "state": "SP",
        "district": "Água Fria",
        "street": "Estrada Gato Preto",
        "zipcode": "07752-030"
    },
    {
        "city": "Cajamar",
        "state": "SP",
        "district": "Jardins (Polvilho)",
        "street": "Rua Atibaia (Vl Tavares)",
        "zipcode": "07793-210"
    },
    {
        "city": "Cajamar",
        "state": "SP",
        "district": "Ponunduva",
        "street": "Rua Mirassol (V Danúbio)",
        "zipcode": "07767-670"
    },
    {
        "city": "Cajamar",
        "state": "SP",
        "district": "Ponunduva",
        "street": "Rua Rio Claro (Vle Nascentes)",
        "zipcode": "07769-025"
    },
    {
        "city": "Cajamar",
        "state": "SP",
        "district": "Ponunduva",
        "street": "Rua Mogi das Cruzes (V Danúbio)",
        "zipcode": "07767-680"
    },
    {
        "city": "Cajamar",
        "state": "SP",
        "district": "Jordanésia (Jordanésia)",
        "street": "Rua Um (Vl Mariotti)",
        "zipcode": "07776-240"
    },
    {
        "city": "Cajamar",
        "state": "SP",
        "district": "Guaturinho",
        "street": "Rua Barra do Turvo",
        "zipcode": "07756-610"
    },
    {
        "city": "Cajamar",
        "state": "SP",
        "district": "Guaturinho",
        "street": "Rua Barrinha",
        "zipcode": "07756-630"
    },
    {
        "city": "Cajamar",
        "state": "SP",
        "district": "Altos de Jordanésia (Jordanésia)",
        "street": "Avenida Joaquim Janus Penteado (Jd Penteado)",
        "zipcode": "07786-520"
    },
    {
        "city": "Cajamar",
        "state": "SP",
        "district": "Altos de Jordanésia (Jordanésia)",
        "street": "Rua Pompéia (Jd S João)",
        "zipcode": "07786-575"
    },
    {
        "city": "Cajamar",
        "state": "SP",
        "district": "São Luiz (Polvilho)",
        "street": "Rua Pedreira (Vl Planalto)",
        "zipcode": "07793-470"
    },
    {
        "city": "Cajamar",
        "state": "SP",
        "district": "São Luiz (Polvilho)",
        "street": "Rua São José dos Campos",
        "zipcode": "07793-340"
    },
    {
        "city": "Cajamar",
        "state": "SP",
        "district": "Ponunduva",
        "street": "Rua Itapetininga (Ch Rodeio)",
        "zipcode": "07767-040"
    },
    {
        "city": "Cajamar",
        "state": "SP",
        "district": "Empresarial Paoletti (Jordanésia)",
        "street": "Via de Acesso Norte Km 41.400 (Rod Anhanguera)",
        "zipcode": "07785-285"
    },
    {
        "city": "Cajamar",
        "state": "SP",
        "district": "Empresarial Paoletti (Jordanésia)",
        "street": "Via de Acesso Norte Km 40.500 (Rod Anhanguera)",
        "zipcode": "07785-325"
    },
    {
        "city": "Cajamar",
        "state": "SP",
        "district": "Empresarial Gato Preto (Jordanésia)",
        "street": "Via de Acesso Norte Km 38 (Rod Anhanguera)",
        "zipcode": "07789-100"
    },
    {
        "city": "Cajamar",
        "state": "SP",
        "district": "Polvilho (Polvilho)",
        "street": "Rua Professor Max Zendron (Jd Sta Rtia)",
        "zipcode": "07790-510"
    },
    {
        "city": "Cajamar",
        "state": "SP",
        "district": "Altos de Jordanésia (Jordanésia)",
        "street": "Rua Mococa (Jd Sta Alice)",
        "zipcode": "07786-760"
    },
    {
        "city": "Cajamar",
        "state": "SP",
        "district": "Santa Terezinha (Jordanésia)",
        "street": "Rua Joventino Batista dos Santos (Vl Vitória)",
        "zipcode": "07786-000"
    },
    {
        "city": "Cajamar",
        "state": "SP",
        "district": "Altos de Jordanésia (Jordanésia)",
        "street": "Rua Santos (M Pitoresca)",
        "zipcode": "07786-745"
    },
    {
        "city": "Cajamar",
        "state": "SP",
        "district": "Polvilho (Polvilho)",
        "street": "Rua Barbara Cristina dos Santos Borba (Jd S Pedro)",
        "zipcode": "07790-670"
    },
    {
        "city": "Cajamar",
        "state": "SP",
        "district": "Polvilho (Polvilho)",
        "street": "Rua Emilicio Jorge Porcino dos Santos (Jd B Vista II)",
        "zipcode": "07790-565"
    },
    {
        "city": "Cajamar",
        "state": "SP",
        "district": "Serra dos Lagos (Jordanésia)",
        "street": "Avenida Mônaco (C Ville IV)",
        "zipcode": "07781-080"
    },
    {
        "city": "Cajamar",
        "state": "SP",
        "district": "Torres (Jordanésia)",
        "street": "Rua dos Coqueiros",
        "zipcode": "07779-700"
    },
    {
        "city": "Cajamar",
        "state": "SP",
        "district": "Empresarial Colina",
        "street": "Avenida Doutor Antonio João Abdalla",
        "zipcode": "07750-978"
    },
    {
        "city": "Cajamar",
        "state": "SP",
        "district": "Guaturinho",
        "street": "Estrada Servidão",
        "zipcode": "07755-750"
    },
    {
        "city": "Cajamar",
        "state": "SP",
        "district": "Guaturinho",
        "street": "Rua Giovanna Sampogna Minichillo",
        "zipcode": "07756-655"
    },
    {
        "city": "Cajamar",
        "state": "SP",
        "district": "Centro",
        "street": "Rua dos Cajueiros (Cimiga I)",
        "zipcode": "07750-625"
    },
    {
        "city": "Cajamar",
        "state": "SP",
        "district": "Centro",
        "street": "Avenida Dois (Cimiga I)",
        "zipcode": "07750-635"
    },
    {
        "city": "Cajamar",
        "state": "SP",
        "district": "Centro",
        "street": "Rua Bento Chagas (Cimiga II)",
        "zipcode": "07750-680"
    },
    {
        "city": "Cajamar",
        "state": "SP",
        "district": "Ponunduva",
        "street": "Rua Urupês (Vle Nascentes)",
        "zipcode": "07769-000"
    },
    {
        "city": "Cajamar",
        "state": "SP",
        "district": "Panorama (Polvilho)",
        "street": "Rua Zoaldo Campos Pedroso (Prq Panorama I)",
        "zipcode": "07792-350"
    },
    {
        "city": "Cajamar",
        "state": "SP",
        "district": "Portais (Polvilho)",
        "street": "Estrada José Marques Ribeiro",
        "zipcode": "07791-335"
    },
    {
        "city": "Cajamar",
        "state": "SP",
        "district": "Ponunduva",
        "street": "Rua Itapevi (Ch Aurora)",
        "zipcode": "07768-355"
    },
    {
        "city": "Cajamar",
        "state": "SP",
        "district": "Ponunduva",
        "street": "Rua Joaquim Rodrigues Pontes (Prq Bandeirantes)",
        "zipcode": "07768-485"
    },
    {
        "city": "Cajamar",
        "state": "SP",
        "district": "São Roberto (Jordanésia)",
        "street": "Rua Itajobi (Prq S Roberto II)",
        "zipcode": "07787-115"
    },
    {
        "city": "Cajamar",
        "state": "SP",
        "district": "Centro",
        "street": "Praça Benedito Martins da Cruz",
        "zipcode": "07750-750"
    },
    {
        "city": "Cajamar",
        "state": "SP",
        "district": "Altos de Jordanésia (Jordanésia)",
        "street": "Rua Durval Ferreira de Araújo (Jd Penteado)",
        "zipcode": "07786-485"
    },
    {
        "city": "Cajamar",
        "state": "SP",
        "district": "Ponunduva",
        "street": "Rua Itupeva (Ch Aurora)",
        "zipcode": "07768-345"
    },
    {
        "city": "Cajamar",
        "state": "SP",
        "district": "Ponunduva",
        "street": "Rua Ribeirão Pires (Ch Aurora)",
        "zipcode": "07768-350"
    },
    {
        "city": "Cajamar",
        "state": "SP",
        "district": "São Benedito (Jordanésia)",
        "street": "Rua Hum",
        "zipcode": "07778-775"
    },
    {
        "city": "Cajamar",
        "state": "SP",
        "district": "Ponunduva",
        "street": "Rua dos Mandarins (Prq Alvorada II)",
        "zipcode": "07768-220"
    },
    {
        "city": "Cajamar",
        "state": "SP",
        "district": "São Benedito (Jordanésia)",
        "street": "Rua Bela Vista",
        "zipcode": "07778-795"
    },
    {
        "city": "Cajamar",
        "state": "SP",
        "district": "Altos de Jordanésia (Jordanésia)",
        "street": "Rua Valinhos (Jd Holanda)",
        "zipcode": "07786-820"
    },
    {
        "city": "Cajamar",
        "state": "SP",
        "district": "Altos de Jordanésia (Jordanésia)",
        "street": "Rua Gonçalo Horácio da Fonseca (D. E. R. Jordanésia)",
        "zipcode": "07786-850"
    },
    {
        "city": "Cajamar",
        "state": "SP",
        "district": "Empresarial Gato Preto (Jordanésia)",
        "street": "Rua do Urne (D.E.R Gato Preto)",
        "zipcode": "07789-385"
    },
    {
        "city": "Cajamar",
        "state": "SP",
        "district": "Santa Terezinha (Jordanésia)",
        "street": "Estrada Vulcão (Sta Cruz)",
        "zipcode": "07786-215"
    },
    {
        "city": "Cajamar",
        "state": "SP",
        "district": "Santa Terezinha (Jordanésia)",
        "street": "Rua Gianpaulo Giusti (R Giusti)",
        "zipcode": "07786-280"
    },
    {
        "city": "Cajamar",
        "state": "SP",
        "district": "Guaturinho",
        "street": "Estrada José Marques Ribeiro",
        "zipcode": "07756-640"
    },
    {
        "city": "Cajamar",
        "state": "SP",
        "district": "Portais (Polvilho)",
        "street": "Avenida Tenente Marques",
        "zipcode": "07790-740"
    },
    {
        "city": "Cajamar",
        "state": "SP",
        "district": "Portais (Polvilho)",
        "street": "Avenida Tenente Marques",
        "zipcode": "07790-845"
    },
    {
        "city": "Cajamar",
        "state": "SP",
        "district": "Paraíso (Polvilho)",
        "street": "Rua Charqueada (Prq Paraíso)",
        "zipcode": "07794-110"
    },
    {
        "city": "Cajamar",
        "state": "SP",
        "district": "Jordanésia (Jordanésia)",
        "street": "Rua Pará (Vl Américas)",
        "zipcode": "07776-215"
    },
    {
        "city": "Cajamar",
        "state": "SP",
        "district": "Centro",
        "street": "Avenida Doutor Antonio João Abdalla",
        "zipcode": "07750-620"
    },
    {
        "city": "Cajamar",
        "state": "SP",
        "district": "Colina Maria Luíza (Jordanésia)",
        "street": "Avenida Buri (Prq Res Jordanésia)",
        "zipcode": "07787-300"
    },
    {
        "city": "Cajamar",
        "state": "SP",
        "district": "Colina Maria Luíza (Jordanésia)",
        "street": "Rua Cajati (Prq Res Jordanésia)",
        "zipcode": "07787-380"
    },
    {
        "city": "Cajamar",
        "state": "SP",
        "district": "Guaturinho",
        "street": "Rua Barão de Antonina",
        "zipcode": "07756-620"
    },
    {
        "city": "Cajamar",
        "state": "SP",
        "district": "Ponunduva",
        "street": "Rua Mogi Mirim (Vle Nascentes)",
        "zipcode": "07769-035"
    },
    {
        "city": "Cajamar",
        "state": "SP",
        "district": "Paraíso (Polvilho)",
        "street": "Rua São José do Rio Preto (Rec S Jerônimo)",
        "zipcode": "07794-370"
    },
    {
        "city": "Cajamar",
        "state": "SP",
        "district": "Altos de Jordanésia (Jordanésia)",
        "street": "Via de Acesso Oeste Km 39 (Rod Edgard M Zambotto)",
        "zipcode": "07786-650"
    },
    {
        "city": "Cajamar",
        "state": "SP",
        "district": "Paraíso (Polvilho)",
        "street": "Rua Caçapava (Rec S Jerônimo)",
        "zipcode": "07794-390"
    },
    {
        "city": "Cajamar",
        "state": "SP",
        "district": "Centro",
        "street": "Rua Waldomiro dos Santos",
        "zipcode": "07750-820"
    },
    {
        "city": "Cajamar",
        "state": "SP",
        "district": "Água Fria",
        "street": "Viela Dois (Vl Progresso)",
        "zipcode": "07752-180"
    },
    {
        "city": "Cajamar",
        "state": "SP",
        "district": "Água Fria",
        "street": "Rua Adriana Garcia da Silva (Vl Nova)",
        "zipcode": "07752-310"
    },
    {
        "city": "Cajamar",
        "state": "SP",
        "district": "Empresarial Anhanguera",
        "street": "Avenida Projetada (A Prq Empresarial)",
        "zipcode": "07753-700"
    },
    {
        "city": "Cajamar",
        "state": "SP",
        "district": "Torres (Jordanésia)",
        "street": "Rua Lago dos Patos",
        "zipcode": "07779-715"
    },
    {
        "city": "Cajamar",
        "state": "SP",
        "district": "Área Rural de Cajamar",
        "street": "Área Rural",
        "zipcode": "07799-899"
    },
    {
        "city": "Cajamar",
        "state": "SP",
        "district": "Altos de Jordanésia (Jordanésia)",
        "street": "Rua Jales (Jd S João)",
        "zipcode": "07786-545"
    },
    {
        "city": "Cajamar",
        "state": "SP",
        "district": "Jordanésia (Jordanésia)",
        "street": "Rua Três (Vl Mariotti)",
        "zipcode": "07776-260"
    },
    {
        "city": "Cajamar",
        "state": "SP",
        "district": "Ponunduva",
        "street": "Rua Santa Margarida (Prq Alvorada)",
        "zipcode": "07768-370"
    },
    {
        "city": "Cajamar",
        "state": "SP",
        "district": "Panorama (Polvilho)",
        "street": "Rua Gilberto de Carvalho",
        "zipcode": "07792-390"
    },
    {
        "city": "Cajamar",
        "state": "SP",
        "district": "Ipês (Polvilho)",
        "street": "Rua Jean Anastace Kovelis",
        "zipcode": "07791-842"
    },
    {
        "city": "Cajamar",
        "state": "SP",
        "district": "Centro",
        "street": "Avenida Independência (Cimiga I)",
        "zipcode": "07750-660"
    },
    {
        "city": "Cajamar",
        "state": "SP",
        "district": "Centro",
        "street": "Rua Benedita Leme da Silva (Vl Branca)",
        "zipcode": "07750-710"
    },
    {
        "city": "Cajamar",
        "state": "SP",
        "district": "Serra dos Lagos (Jordanésia)",
        "street": "Rua Berilo (S Cristais)",
        "zipcode": "07781-205"
    },
    {
        "city": "Cajamar",
        "state": "SP",
        "district": "Ponunduva",
        "street": "Rua Santa Inês (Prq Alvorada)",
        "zipcode": "07768-385"
    },
    {
        "city": "Cajamar",
        "state": "SP",
        "district": "Empresarial Gato Preto (Jordanésia)",
        "street": "Rua C (D.E.R Gato Preto)",
        "zipcode": "07789-365"
    },
    {
        "city": "Cajamar",
        "state": "SP",
        "district": "São Luiz (Polvilho)",
        "street": "Rua José Roberto da Silva (Jd São Luiz)",
        "zipcode": "07793-430"
    },
    {
        "city": "Cajamar",
        "state": "SP",
        "district": "Ipês (Polvilho)",
        "street": "Rua Cerquilho (Prq Panorama II)",
        "zipcode": "07791-830"
    },
    {
        "city": "Cajamar",
        "state": "SP",
        "district": "Empresarial Gato Preto (Jordanésia)",
        "street": "Rua A (D.E.R Gato Preto)",
        "zipcode": "07789-375"
    },
    {
        "city": "Cajamar",
        "state": "SP",
        "district": "Portais (Polvilho)",
        "street": "Avenida dos Manacás (P Ipês III)",
        "zipcode": "07791-145"
    },
    {
        "city": "Cajamar",
        "state": "SP",
        "district": "Ponunduva",
        "street": "Rua Nova Floresta (Prq Alvorada)",
        "zipcode": "07768-395"
    },
    {
        "city": "Cajamar",
        "state": "SP",
        "district": "Ponunduva",
        "street": "Rua Patrocínio Paulista (Vle Nascentes)",
        "zipcode": "07769-020"
    },
    {
        "city": "Cajamar",
        "state": "SP",
        "district": "Empresarial Itaim (Polvilho)",
        "street": "Via de Acesso Norte Km 30.5 (Rod Anhanguera)",
        "zipcode": "07790-190"
    },
    {
        "city": "Cajamar",
        "state": "SP",
        "district": "Ipês (Polvilho)",
        "street": "Rua das Azaléias (Prq Res Cajamar)",
        "zipcode": "07791-795"
    },
    {
        "city": "Cajamar",
        "state": "SP",
        "district": "Serra dos Lagos (Jordanésia)",
        "street": "Rua Vitória (C Ville III)",
        "zipcode": "07781-395"
    },
    {
        "city": "Cajamar",
        "state": "SP",
        "district": "Paraíso (Polvilho)",
        "street": "Rua Conchas (Prq Paraíso)",
        "zipcode": "07794-095"
    },
    {
        "city": "Cajamar",
        "state": "SP",
        "district": "Portais (Polvilho)",
        "street": "Rua Tereza Ribeiro Meira (P Ipês II)",
        "zipcode": "07790-810"
    },
    {
        "city": "Cajamar",
        "state": "SP",
        "district": "Centro",
        "street": "Rua Francisca Gomes Ribeiro de Sousa (Cimiga II)",
        "zipcode": "07750-675"
    },
    {
        "city": "Cajamar",
        "state": "SP",
        "district": "Ponunduva",
        "street": "Rua Mauá (Ch Aurora)",
        "zipcode": "07768-340"
    },
    {
        "city": "Cajamar",
        "state": "SP",
        "district": "Água Fria",
        "street": "Rua do Meio",
        "zipcode": "07752-050"
    },
    {
        "city": "Cajamar",
        "state": "SP",
        "district": "Alpes dos Araçás (Jordanésia)",
        "street": "Rua Chipre (V Scorpios I)",
        "zipcode": "07787-780"
    },
    {
        "city": "Cajamar",
        "state": "SP",
        "district": "Água Fria",
        "street": "Estrada Flávio Beneducce",
        "zipcode": "07752-065"
    },
    {
        "city": "Cajamar",
        "state": "SP",
        "district": "Centro",
        "street": "Rua das Macieiras (Cimiga I)",
        "zipcode": "07750-655"
    },
    {
        "city": "Cajamar",
        "state": "SP",
        "district": "Ponunduva",
        "street": "Rua do Tuim (Prq Alvorada II)",
        "zipcode": "07768-270"
    },
    {
        "city": "Cajamar",
        "state": "SP",
        "district": "Ponunduva",
        "street": "Rua Santa Fé (Prq Alvorada)",
        "zipcode": "07768-380"
    },
    {
        "city": "Cajamar",
        "state": "SP",
        "district": "Ponunduva",
        "street": "Rua Paulínia (Prq Bandeirantes)",
        "zipcode": "07768-435"
    },
    {
        "city": "Cajamar",
        "state": "SP",
        "district": "Portais (Polvilho)",
        "street": "Rua das Amazonas (P Ipês II)",
        "zipcode": "07790-850"
    },
    {
        "city": "Cajamar",
        "state": "SP",
        "district": "São Benedito (Jordanésia)",
        "street": "Rua Vinícius de Moraes",
        "zipcode": "07778-815"
    },
    {
        "city": "Cajamar",
        "state": "SP",
        "district": "Paraíso (Polvilho)",
        "street": "Rua Cachoeira Paulista (Rec S Jerônimo)",
        "zipcode": "07794-400"
    },
    {
        "city": "Cajamar",
        "state": "SP",
        "district": "Colina Maria Luíza (Jordanésia)",
        "street": "Rua Vitória Régia (Vle Flores)",
        "zipcode": "07787-455"
    },
    {
        "city": "Cajamar",
        "state": "SP",
        "district": "Panorama (Polvilho)",
        "street": "Rua Campos Novos Paulista (Jd Maringá)",
        "zipcode": "07792-845"
    },
    {
        "city": "Cajamar",
        "state": "SP",
        "district": "Água Fria",
        "street": "Travessa do Sesi",
        "zipcode": "07752-045"
    },
    {
        "city": "Cajamar",
        "state": "SP",
        "district": "Água Fria",
        "street": "Rua Carlos de Campos",
        "zipcode": "07752-055"
    },
    {
        "city": "Cajamar",
        "state": "SP",
        "district": "Paraíso (Polvilho)",
        "street": "Rua Vereador José Rangel de Mesquita",
        "zipcode": "07793-660"
    },
    {
        "city": "Cajamar",
        "state": "SP",
        "district": "Santa Terezinha (Jordanésia)",
        "street": "Avenida Pedro Celestino Leite Penteado",
        "zipcode": "07786-425"
    },
    {
        "city": "Cajamar",
        "state": "SP",
        "district": "Panorama (Polvilho)",
        "street": "Rua Três Fronteiras (Jd Adelaide)",
        "zipcode": "07792-735"
    },
    {
        "city": "Cajamar",
        "state": "SP",
        "district": "Portais (Polvilho)",
        "street": "Avenida das Palmeiras (P Ipês II)",
        "zipcode": "07790-890"
    },
    {
        "city": "Cajamar",
        "state": "SP",
        "district": "Guaturinho",
        "street": "Rua Pietrantonio Minichilo",
        "zipcode": "07756-590"
    },
    {
        "city": "Cajamar",
        "state": "SP",
        "district": "São Luiz (Polvilho)",
        "street": "Rua Nercílio José dos Santos (Jd São Luiz)",
        "zipcode": "07793-445"
    },
    {
        "city": "Cajamar",
        "state": "SP",
        "district": "Centro",
        "street": "Rua Bento Correia Rocha (Vl Branca)",
        "zipcode": "07750-720"
    },
    {
        "city": "Cajamar",
        "state": "SP",
        "district": "Centro",
        "street": "Rua Lazaro Dalcin",
        "zipcode": "07750-780"
    },
    {
        "city": "Cajamar",
        "state": "SP",
        "district": "Centro",
        "street": "Rua Afonso Caramigo",
        "zipcode": "07750-790"
    },
    {
        "city": "Cajamar",
        "state": "SP",
        "district": "Centro",
        "street": "Rua Antonio Pereira de Lima",
        "zipcode": "07750-795"
    },
    {
        "city": "Cajamar",
        "state": "SP",
        "district": "Centro",
        "street": "Rua Luiz Gustavo Borges de Guimaraes",
        "zipcode": "07750-800"
    },
    {
        "city": "Cajamar",
        "state": "SP",
        "district": "Centro",
        "street": "Rua Maximino Lento",
        "zipcode": "07750-815"
    },
    {
        "city": "Cajamar",
        "state": "SP",
        "district": "Centro",
        "street": "Rua Pedro Domingues",
        "zipcode": "07750-830"
    },
    {
        "city": "Cajamar",
        "state": "SP",
        "district": "Altos de Jordanésia (Jordanésia)",
        "street": "Rua Águas de São Pedro (M Pitoresca)",
        "zipcode": "07786-725"
    },
    {
        "city": "Cajamar",
        "state": "SP",
        "district": "Jardins (Polvilho)",
        "street": "Rua Guaratinguetá (Jd Carolina)",
        "zipcode": "07793-160"
    },
    {
        "city": "Cajamar",
        "state": "SP",
        "district": "Ipês (Polvilho)",
        "street": "Rua Cedral",
        "zipcode": "07791-857"
    },
    {
        "city": "Cajamar",
        "state": "SP",
        "district": "Aldeia do Sol (Polvilho)",
        "street": "Rua Potira (Jd Jurupari)",
        "zipcode": "07792-005"
    },
    {
        "city": "Cajamar",
        "state": "SP",
        "district": "Água Fria",
        "street": "Rua Armando Gomes da Silva (Jd Florim)",
        "zipcode": "07752-140"
    },
    {
        "city": "Cajamar",
        "state": "SP",
        "district": "Santa Terezinha (Jordanésia)",
        "street": "Via de Circulação Um (Cond Res Renascer II)",
        "zipcode": "07786-320"
    },
    {
        "city": "Cajamar",
        "state": "SP",
        "district": "Serra dos Lagos (Jordanésia)",
        "street": "Rua Salvador (C Ville III)",
        "zipcode": "07781-415"
    },
    {
        "city": "Cajamar",
        "state": "SP",
        "district": "Serra dos Lagos (Jordanésia)",
        "street": "Rua Campo Grande (C Ville III)",
        "zipcode": "07781-445"
    },
    {
        "city": "Cajamar",
        "state": "SP",
        "district": "Jordanésia (Jordanésia)",
        "street": "Avenida Jordano Mendes",
        "zipcode": "07776-400"
    },
    {
        "city": "Cajamar",
        "state": "SP",
        "district": "Panorama (Polvilho)",
        "street": "Rua Biritiba Mirim (Prq Jaraguá)",
        "zipcode": "07793-035"
    },
    {
        "city": "Cajamar",
        "state": "SP",
        "district": "Ponunduva",
        "street": "Rua Ilha Bela (Ch Rodeio)",
        "zipcode": "07767-070"
    },
    {
        "city": "Cajamar",
        "state": "SP",
        "district": "Aldeia do Sol (Polvilho)",
        "street": "Rua Anhanguera (Jd Jurupari)",
        "zipcode": "07792-035"
    },
    {
        "city": "Cajamar",
        "state": "SP",
        "district": "Centro",
        "street": "Rua dos Araçás (Cimiga I)",
        "zipcode": "07750-645"
    },
    {
        "city": "Cajamar",
        "state": "SP",
        "district": "Água Fria",
        "street": "Rua Antonio Lemos de Souza (Jd Florim)",
        "zipcode": "07752-135"
    },
    {
        "city": "Cajamar",
        "state": "SP",
        "district": "Serra dos Lagos (Jordanésia)",
        "street": "Rua Manaus (C Ville II)",
        "zipcode": "07782-195"
    },
    {
        "city": "Cajamar",
        "state": "SP",
        "district": "São Roberto (Jordanésia)",
        "street": "Rua Antonio Rebolho Nunes Júnior (Prq S Roberto II)",
        "zipcode": "07787-140"
    },
    {
        "city": "Cajamar",
        "state": "SP",
        "district": "Água Fria",
        "street": "Rua Sebastiana Félix Ribeiro",
        "zipcode": "07752-010"
    },
    {
        "city": "Cajamar",
        "state": "SP",
        "district": "Água Fria",
        "street": "Rua Cinco (Vl Nova)",
        "zipcode": "07752-300"
    },
    {
        "city": "Cajamar",
        "state": "SP",
        "district": "Colina Maria Luíza (Jordanésia)",
        "street": "Rua Iacri (Prq Res Jordanésia)",
        "zipcode": "07787-315"
    },
    {
        "city": "Cajamar",
        "state": "SP",
        "district": "Ponunduva",
        "street": "Rua das Cacatuas (Prq Alvorada II)",
        "zipcode": "07768-230"
    },
    {
        "city": "Cajamar",
        "state": "SP",
        "district": "Ponunduva",
        "street": "Rua Três (Ch Cpo Grande)",
        "zipcode": "07765-640"
    },
    {
        "city": "Cajamar",
        "state": "SP",
        "district": "Ponunduva",
        "street": "Rua Lucianópolis (Rec Primaveras)",
        "zipcode": "07767-400"
    },
    {
        "city": "Cajamar",
        "state": "SP",
        "district": "Ponunduva",
        "street": "Rua Utinga (Prq N Lar)",
        "zipcode": "07768-010"
    },
    {
        "city": "Cajamar",
        "state": "SP",
        "district": "Paraíso (Polvilho)",
        "street": "Rua Coroados (Prq Paraíso)",
        "zipcode": "07794-090"
    },
    {
        "city": "Cajamar",
        "state": "SP",
        "district": "Paraíso (Polvilho)",
        "street": "Rua Echaporã (Jd Santana)",
        "zipcode": "07793-585"
    },
    {
        "city": "Cajamar",
        "state": "SP",
        "district": "Centro",
        "street": "Rua dos Jambeiros (Cimiga I)",
        "zipcode": "07750-640"
    },
    {
        "city": "Cajamar",
        "state": "SP",
        "district": "Ponunduva",
        "street": "Rua Ibiúna (Prq Bandeirantes)",
        "zipcode": "07768-480"
    },
    {
        "city": "Cajamar",
        "state": "SP",
        "district": "Empresarial Paineira (Jordanésia)",
        "street": "Avenida Ribeirão dos Cristais",
        "zipcode": "07775-900"
    },
    {
        "city": "Cajamar",
        "state": "SP",
        "district": "Água Fria",
        "street": "Rua Três (Jd Florim)",
        "zipcode": "07752-145"
    },
    {
        "city": "Cajamar",
        "state": "SP",
        "district": "Centro",
        "street": "Rua das Goiabeiras (Cimiga I)",
        "zipcode": "07750-630"
    },
    {
        "city": "Cajamar",
        "state": "SP",
        "district": "Água Fria",
        "street": "Rua Juraci Feliciana do Carmo",
        "zipcode": "07752-020"
    },
    {
        "city": "Cajamar",
        "state": "SP",
        "district": "Vau Novo",
        "street": "Rua Paraguaçú Paulista (Lg Azul)",
        "zipcode": "07762-380"
    },
    {
        "city": "Cajamar",
        "state": "SP",
        "district": "Ponunduva",
        "street": "Rua Bom Jesus dos Perdões (Ch Rodeio)",
        "zipcode": "07767-020"
    },
    {
        "city": "Cajamar",
        "state": "SP",
        "district": "Ponunduva",
        "street": "Rua Pederneiras (Prq Bandeirantes)",
        "zipcode": "07768-545"
    },
    {
        "city": "Cajamar",
        "state": "SP",
        "district": "Água Fria",
        "street": "Avenida Professor Walter Ribas de Andrade",
        "zipcode": "07752-000"
    },
    {
        "city": "Cajamar",
        "state": "SP",
        "district": "Água Fria",
        "street": "Rua Quatro (Jd Florim)",
        "zipcode": "07752-130"
    },
    {
        "city": "Cajamar",
        "state": "SP",
        "district": "Portais (Polvilho)",
        "street": "Rua dos Cedros (P Ipês III)",
        "zipcode": "07791-130"
    },
    {
        "city": "Cajamar",
        "state": "SP",
        "district": "Ponunduva",
        "street": "Rua dos Tucanos (Prq Alvorada II)",
        "zipcode": "07768-240"
    },
    {
        "city": "Cajamar",
        "state": "SP",
        "district": "Vau Novo",
        "street": "Rua Araçoiaba da Serra (Rec Corizo)",
        "zipcode": "07762-230"
    },
    {
        "city": "Cajamar",
        "state": "SP",
        "district": "Ponunduva",
        "street": "Rua do Sanhaço (Prq Alvorada II)",
        "zipcode": "07768-260"
    },
    {
        "city": "Cajamar",
        "state": "SP",
        "district": "Água Fria",
        "street": "Rua Olivio José Brasil (Vl Nova)",
        "zipcode": "07752-295"
    },
    {
        "city": "Cajamar",
        "state": "SP",
        "district": "Polvilho (Polvilho)",
        "street": "Rua Américo Brasiliense (Jd Sta Clara)",
        "zipcode": "07790-630"
    },
    {
        "city": "Cajamar",
        "state": "SP",
        "district": "Colina Maria Luíza (Jordanésia)",
        "street": "Rua Madalena Gilouski (Prq Res Jordanésia)",
        "zipcode": "07787-335"
    },
    {
        "city": "Cajamar",
        "state": "SP",
        "district": "Guaturinho",
        "street": "Rua Baldinos",
        "zipcode": "07756-580"
    },
    {
        "city": "Cajamar",
        "state": "SP",
        "district": "Guaturinho",
        "street": "Rua Avaré",
        "zipcode": "07756-585"
    },
    {
        "city": "Cajamar",
        "state": "SP",
        "district": "Guaturinho",
        "street": "Rua Barra Bonita",
        "zipcode": "07756-605"
    },
    {
        "city": "Cajamar",
        "state": "SP",
        "district": "Guaturinho",
        "street": "Rua Bastos",
        "zipcode": "07756-635"
    },
    {
        "city": "Cajamar",
        "state": "SP",
        "district": "Guaturinho",
        "street": "Rua Avanhandava",
        "zipcode": "07756-650"
    },
    {
        "city": "Cajamar",
        "state": "SP",
        "district": "Ponunduva",
        "street": "Rua Jandira (Prq Bandeirantes)",
        "zipcode": "07768-475"
    },
    {
        "city": "Cajamar",
        "state": "SP",
        "district": "São Roberto (Jordanésia)",
        "street": "Avenida Doutor José Luis Leme Maciel",
        "zipcode": "07787-000"
    },
    {
        "city": "Cajamar",
        "state": "SP",
        "district": "Ponunduva",
        "street": "Rua Lençóis Paulista (Rec Primaveras)",
        "zipcode": "07767-430"
    },
    {
        "city": "Cajamar",
        "state": "SP",
        "district": "Ponunduva",
        "street": "Estrada Francisco Missé",
        "zipcode": "07767-010"
    },
    {
        "city": "Cajamar",
        "state": "SP",
        "district": "Guaturinho",
        "street": "Rua Auriflama",
        "zipcode": "07756-570"
    },
    {
        "city": "Cajamar",
        "state": "SP",
        "district": "Guaturinho",
        "street": "Rua Benedita Ribeiro de Souza",
        "zipcode": "07756-575"
    },
    {
        "city": "Cajamar",
        "state": "SP",
        "district": "Guaturinho",
        "street": "Rua Vereador Eurípedes Rama Pardal",
        "zipcode": "07756-595"
    },
    {
        "city": "Cajamar",
        "state": "SP",
        "district": "Guaturinho",
        "street": "Rua Maria Luiza Pinto",
        "zipcode": "07756-600"
    },
    {
        "city": "Cajamar",
        "state": "SP",
        "district": "São Luiz (Polvilho)",
        "street": "Rua Dirce Gonçalves Antonio (Jd São Luiz)",
        "zipcode": "07793-435"
    },
    {
        "city": "Cajamar",
        "state": "SP",
        "district": "Empresarial dos Eucaliptos",
        "street": "Rua dos Flamingos (Olaria)",
        "zipcode": "07764-350"
    },
    {
        "city": "Cajamar",
        "state": "SP",
        "district": "Paraíso (Polvilho)",
        "street": "Rua dos Tangarás (Prq Pinheiros)",
        "zipcode": "07793-555"
    },
    {
        "city": "Cajamar",
        "state": "SP",
        "district": "Vau Novo",
        "street": "Avenida Artur Nogueira (Rec Corizo)",
        "zipcode": "07762-225"
    },
    {
        "city": "Cajamar",
        "state": "SP",
        "district": "Ponunduva",
        "street": "Rua Ilha Solteira (Ch Rodeio)",
        "zipcode": "07767-060"
    },
    {
        "city": "Cajamar",
        "state": "SP",
        "district": "Ponunduva",
        "street": "Rua Igarapava (Ch Rodeio)",
        "zipcode": "07767-075"
    },
    {
        "city": "Cajamar",
        "state": "SP",
        "district": "Paraíso (Polvilho)",
        "street": "Rua Manoel Gregorio Sobrinho (Jd Santana)",
        "zipcode": "07793-600"
    },
    {
        "city": "Cajamar",
        "state": "SP",
        "district": "Ponunduva",
        "street": "Rua Iguape (Ch Rodeio)",
        "zipcode": "07767-065"
    },
    {
        "city": "Cajamar",
        "state": "SP",
        "district": "Ponunduva",
        "street": "Rua Joaquim Missé (Ch Cpo Grande)",
        "zipcode": "07765-650"
    },
    {
        "city": "Cajamar",
        "state": "SP",
        "district": "Portais (Polvilho)",
        "street": "Rua dos Lírios (P Ipês II)",
        "zipcode": "07790-805"
    },
    {
        "city": "Cajamar",
        "state": "SP",
        "district": "Água Fria",
        "street": "Rua Romeu Caramigo (Vl Nova)",
        "zipcode": "07752-290"
    },
    {
        "city": "Cajamar",
        "state": "SP",
        "district": "Ponunduva",
        "street": "Rua Iracemápolis (Ch Rodeio)",
        "zipcode": "07767-055"
    },
    {
        "city": "Cajamar",
        "state": "SP",
        "district": "Água Fria",
        "street": "Rua Florença (Vl Progresso)",
        "zipcode": "07752-175"
    },
    {
        "city": "Cajamar",
        "state": "SP",
        "district": "Ponunduva",
        "street": "Rua Buritama (Ch Rodeio)",
        "zipcode": "07767-035"
    },
    {
        "city": "Cajamar",
        "state": "SP",
        "district": "Água Fria",
        "street": "Rua Ariovaldo Eufrázio Rezaghi (Vl Nova)",
        "zipcode": "07752-280"
    },
    {
        "city": "Cajamar",
        "state": "SP",
        "district": "Empresarial Anhanguera",
        "street": "Travessa Osasco (A Prq Empresarial)",
        "zipcode": "07753-100"
    },
    {
        "city": "Cajamar",
        "state": "SP",
        "district": "Empresarial dos Eucaliptos",
        "street": "Estrada do Gamelão",
        "zipcode": "07764-000"
    },
    {
        "city": "Cajamar",
        "state": "SP",
        "district": "Água Fria",
        "street": "Rua Glauco Silva Basílio (Vl Nova)",
        "zipcode": "07752-285"
    },
    {
        "city": "Cajamar",
        "state": "SP",
        "district": "Alpes dos Araçás (Jordanésia)",
        "street": "Estrada das Nascentes (Ch Rosário)",
        "zipcode": "07787-825"
    },
    {
        "city": "Cajamar",
        "state": "SP",
        "district": "Ponunduva",
        "street": "Rua Guzolândia (Ch Rodeio)",
        "zipcode": "07767-085"
    },
    {
        "city": "Cajamar",
        "state": "SP",
        "district": "Empresarial Anhanguera",
        "street": "Rua Tabapuã (A Prq Empresarial)",
        "zipcode": "07753-020"
    },
    {
        "city": "Cajamar",
        "state": "SP",
        "district": "Alpes dos Araçás (Jordanésia)",
        "street": "Rua Delos (V Scorpios II)",
        "zipcode": "07788-030"
    },
    {
        "city": "Cajamar",
        "state": "SP",
        "district": "Lavra Velha",
        "street": "Avenida Doutor Antonio João Abdalla",
        "zipcode": "07764-410"
    },
    {
        "city": "Cajamar",
        "state": "SP",
        "district": "Portais (Polvilho)",
        "street": "Avenida dos Ingás (P Ipês III)",
        "zipcode": "07791-280"
    },
    {
        "city": "Cajamar",
        "state": "SP",
        "district": "Empresarial dos Eucaliptos",
        "street": "Rua dos Colibris (Olaria)",
        "zipcode": "07764-375"
    },
    {
        "city": "Cajamar",
        "state": "SP",
        "district": "Ponunduva",
        "street": "Rua Itanhaém (Ch Rodeio)",
        "zipcode": "07767-045"
    },
    {
        "city": "Cajamar",
        "state": "SP",
        "district": "Empresarial dos Eucaliptos",
        "street": "Rua das Gaivotas (Olaria)",
        "zipcode": "07764-345"
    },
    {
        "city": "Cajamar",
        "state": "SP",
        "district": "Água Fria",
        "street": "Rua Cinco (Jd Florim)",
        "zipcode": "07752-150"
    },
    {
        "city": "Cajamar",
        "state": "SP",
        "district": "Ponunduva",
        "street": "Rua Cabrália Paulista (Ch Rodeio)",
        "zipcode": "07767-015"
    },
    {
        "city": "Cajamar",
        "state": "SP",
        "district": "Portais (Polvilho)",
        "street": "Rua das Espirradeiras (P Ipês III)",
        "zipcode": "07791-140"
    },
    {
        "city": "Cajamar",
        "state": "SP",
        "district": "Guaturinho",
        "street": "Rua Antonio da Luz",
        "zipcode": "07756-645"
    },
    {
        "city": "Cajamar",
        "state": "SP",
        "district": "Jardins (Polvilho)",
        "street": "Via de Circulação Dois (F Ville)",
        "zipcode": "07793-110"
    },
    {
        "city": "Cajamar",
        "state": "SP",
        "district": "Água Fria",
        "street": "Rua Benedito Cardoso de Barros (Vl Progresso)",
        "zipcode": "07752-170"
    },
    {
        "city": "Cajamar",
        "state": "SP",
        "district": "Empresarial dos Eucaliptos",
        "street": "Rua dos Faisões (Olaria)",
        "zipcode": "07764-340"
    },
    {
        "city": "Cajamar",
        "state": "SP",
        "district": "Altos de Jordanésia (Jordanésia)",
        "street": "Rua Águas de Lindóia (Vl Abrão)",
        "zipcode": "07786-790"
    },
    {
        "city": "Cajamar",
        "state": "SP",
        "district": "Portais (Polvilho)",
        "street": "Rua das Paineiras Vermelhas (P Ipês III)",
        "zipcode": "07791-270"
    },
    {
        "city": "Cajamar",
        "state": "SP",
        "district": "Empresarial Paoletti (Jordanésia)",
        "street": "Rua Eugênia Soares da Silva (Sit S Luiz)",
        "zipcode": "07785-070"
    },
    {
        "city": "Cajamar",
        "state": "SP",
        "district": "Aldeia do Sol (Polvilho)",
        "street": "Rua Macunaíma (Jd Jurupari)",
        "zipcode": "07792-045"
    },
    {
        "city": "Cajamar",
        "state": "SP",
        "district": "Guaturinho",
        "street": "Rua Barretos",
        "zipcode": "07756-615"
    },
    {
        "city": "Cajamar",
        "state": "SP",
        "district": "São Benedito (Jordanésia)",
        "street": "Rua Dois",
        "zipcode": "07778-770"
    },
    {
        "city": "Cajamar",
        "state": "SP",
        "district": "Jordanésia (Jordanésia)",
        "street": "Rua Benedito Artur Lopes (Vl Américas)",
        "zipcode": "07776-200"
    },
    {
        "city": "Cajamar",
        "state": "SP",
        "district": "Jordanésia (Jordanésia)",
        "street": "Rua Mário Bigardi (Vl Américas)",
        "zipcode": "07776-210"
    },
    {
        "city": "Cajamar",
        "state": "SP",
        "district": "Jordanésia (Jordanésia)",
        "street": "Avenida Antonio Cândido Machado",
        "zipcode": "07776-415"
    },
    {
        "city": "Cajamar",
        "state": "SP",
        "district": "Ponunduva",
        "street": "Rua Urânia (Vle Nascentes)",
        "zipcode": "07769-005"
    },
    {
        "city": "Cajamar",
        "state": "SP",
        "district": "Vau Novo",
        "street": "Rua Pacaembú (Lg Azul)",
        "zipcode": "07762-360"
    },
    {
        "city": "Cajamar",
        "state": "SP",
        "district": "Vau Novo",
        "street": "Rua Peruíbe (Lg Azul)",
        "zipcode": "07762-410"
    },
    {
        "city": "Cajamar",
        "state": "SP",
        "district": "Ponunduva",
        "street": "Rua Cuiabá Paulista (Ch Rodeio)",
        "zipcode": "07767-100"
    },
    {
        "city": "Cajamar",
        "state": "SP",
        "district": "Vau Novo",
        "street": "Rua Arealva (Rec Corizo)",
        "zipcode": "07762-260"
    },
    {
        "city": "Cajamar",
        "state": "SP",
        "district": "Ponunduva",
        "street": "Rua Panorama (Vle Nascentes)",
        "zipcode": "07769-050"
    },
    {
        "city": "Cajamar",
        "state": "SP",
        "district": "Empresarial dos Eucaliptos",
        "street": "Rua dos Pintassilgos (Olaria)",
        "zipcode": "07764-305"
    },
    {
        "city": "Cajamar",
        "state": "SP",
        "district": "Ponunduva",
        "street": "Rua Caraguatatuba (Ch Rodeio)",
        "zipcode": "07767-105"
    },
    {
        "city": "Cajamar",
        "state": "SP",
        "district": "Ponunduva",
        "street": "Rua Lucélia (Rec Primaveras)",
        "zipcode": "07767-415"
    },
    {
        "city": "Cajamar",
        "state": "SP",
        "district": "Ponunduva",
        "street": "Rua Piedade (Prq Bandeirantes)",
        "zipcode": "07768-445"
    },
    {
        "city": "Cajamar",
        "state": "SP",
        "district": "Ponunduva",
        "street": "Rua Guarujá (Ch Rodeio)",
        "zipcode": "07767-090"
    },
    {
        "city": "Cajamar",
        "state": "SP",
        "district": "Ponunduva",
        "street": "Rua Pinhalzinho (Prq Bandeirantes)",
        "zipcode": "07768-500"
    },
    {
        "city": "Cajamar",
        "state": "SP",
        "district": "Empresarial Paineira (Jordanésia)",
        "street": "Estrada da Copase (G Preto)",
        "zipcode": "07775-500"
    },
    {
        "city": "Cajamar",
        "state": "SP",
        "district": "Ponunduva",
        "street": "Rua Guararapes (Ch Rodeio)",
        "zipcode": "07767-095"
    },
    {
        "city": "Cajamar",
        "state": "SP",
        "district": "Vau Novo",
        "street": "Rua Palmeira DOeste (Lg Azul)",
        "zipcode": "07762-350"
    },
    {
        "city": "Cajamar",
        "state": "SP",
        "district": "Ponunduva",
        "street": "Rua Nazaré Paulista (Vle Nascentes)",
        "zipcode": "07769-065"
    },
    {
        "city": "Cajamar",
        "state": "SP",
        "district": "Vau Novo",
        "street": "Rua Areias (Rec Corizo)",
        "zipcode": "07762-265"
    },
    {
        "city": "Cajamar",
        "state": "SP",
        "district": "Ponunduva",
        "street": "Rua Uchoa (Vle Nascentes)",
        "zipcode": "07769-010"
    },
    {
        "city": "Cajamar",
        "state": "SP",
        "district": "Ponunduva",
        "street": "Rua Morungaba (Vle Nascentes)",
        "zipcode": "07769-060"
    },
    {
        "city": "Cajamar",
        "state": "SP",
        "district": "Ponunduva",
        "street": "Rua Nova Olinda (Prq Alvorada)",
        "zipcode": "07768-410"
    },
    {
        "city": "Cajamar",
        "state": "SP",
        "district": "Ponunduva",
        "street": "Rua Dois Córregos (Ch Rodeio)",
        "zipcode": "07767-110"
    },
    {
        "city": "Cajamar",
        "state": "SP",
        "district": "Ponunduva",
        "street": "Rua Caconde (Ch Rodeio)",
        "zipcode": "07767-170"
    },
    {
        "city": "Cajamar",
        "state": "SP",
        "district": "Ponunduva",
        "street": "Rua Guaraçaí (Ch Rodeio)",
        "zipcode": "07767-120"
    },
    {
        "city": "Cajamar",
        "state": "SP",
        "district": "Ponunduva",
        "street": "Rua Pedro de Toledo (Prq Bandeirantes)",
        "zipcode": "07768-550"
    },
    {
        "city": "Cajamar",
        "state": "SP",
        "district": "Ponunduva",
        "street": "Rua Estrela DOeste (Ch Rodeio)",
        "zipcode": "07767-115"
    },
    {
        "city": "Cajamar",
        "state": "SP",
        "district": "Ponunduva",
        "street": "Rua Luzitânia (Rec Primaveras)",
        "zipcode": "07767-410"
    },
    {
        "city": "Cajamar",
        "state": "SP",
        "district": "Ponunduva",
        "street": "Rua Paranapanema (Prq Bandeirantes)",
        "zipcode": "07768-455"
    },
    {
        "city": "Cajamar",
        "state": "SP",
        "district": "Ponunduva",
        "street": "Rua Guarantã (Ch Rodeio)",
        "zipcode": "07767-125"
    },
    {
        "city": "Cajamar",
        "state": "SP",
        "district": "Ponunduva",
        "street": "Rua Louveira (Rec Primaveras)",
        "zipcode": "07767-420"
    },
    {
        "city": "Cajamar",
        "state": "SP",
        "district": "Ponunduva",
        "street": "Rua Paulicéia (Prq Bandeirantes)",
        "zipcode": "07768-460"
    },
    {
        "city": "Cajamar",
        "state": "SP",
        "district": "Vau Novo",
        "street": "Rua Paraibuna (Lg Azul)",
        "zipcode": "07762-390"
    },
    {
        "city": "Cajamar",
        "state": "SP",
        "district": "Ponunduva",
        "street": "Rua Peruíbe (Prq Bandeirantes)",
        "zipcode": "07768-535"
    },
    {
        "city": "Cajamar",
        "state": "SP",
        "district": "Empresarial dos Eucaliptos",
        "street": "Rua das Águias (Olaria)",
        "zipcode": "07764-330"
    },
    {
        "city": "Cajamar",
        "state": "SP",
        "district": "Empresarial dos Eucaliptos",
        "street": "Rua dos Cisnes (Olaria)",
        "zipcode": "07764-310"
    },
    {
        "city": "Cajamar",
        "state": "SP",
        "district": "Vau Novo",
        "street": "Rua Arandu (Rec Corizo)",
        "zipcode": "07762-240"
    },
    {
        "city": "Cajamar",
        "state": "SP",
        "district": "Ponunduva",
        "street": "Rua Pirapora do Bom Jesus (Prq Bandeirantes)",
        "zipcode": "07768-510"
    },
    {
        "city": "Cajamar",
        "state": "SP",
        "district": "Ponunduva",
        "street": "Rua São Vicente (Vle Nascentes)",
        "zipcode": "07769-070"
    },
    {
        "city": "Cajamar",
        "state": "SP",
        "district": "Empresarial Paineira (Jordanésia)",
        "street": "Rua Guapiara (M Dist Industrial)",
        "zipcode": "07776-000"
    },
    {
        "city": "Cajamar",
        "state": "SP",
        "district": "Ponunduva",
        "street": "Rua Laranjal Paulista (Rec Primaveras)",
        "zipcode": "07767-435"
    },
    {
        "city": "Cajamar",
        "state": "SP",
        "district": "Ponunduva",
        "street": "Rua Demétrio Rodrigues Pontes (Prq Bandeirantes)",
        "zipcode": "07768-470"
    },
    {
        "city": "Cajamar",
        "state": "SP",
        "district": "Ponunduva",
        "street": "Rua Lindóia (Rec Primaveras)",
        "zipcode": "07767-405"
    },
    {
        "city": "Cajamar",
        "state": "SP",
        "district": "Vau Novo",
        "street": "Rua Pindorama (Lg Azul)",
        "zipcode": "07762-400"
    },
    {
        "city": "Cajamar",
        "state": "SP",
        "district": "Vau Novo",
        "street": "Rua Parapuã (Lg Azul)",
        "zipcode": "07762-420"
    },
    {
        "city": "Cajamar",
        "state": "SP",
        "district": "Vau Novo",
        "street": "Rua Palestina (Lg Azul)",
        "zipcode": "07762-370"
    },
    {
        "city": "Cajamar",
        "state": "SP",
        "district": "Ponunduva",
        "street": "Rua Pirassununga (Prq Bandeirantes)",
        "zipcode": "07768-520"
    },
    {
        "city": "Cajamar",
        "state": "SP",
        "district": "Ponunduva",
        "street": "Rua Palmital (Prq Bandeirantes)",
        "zipcode": "07768-450"
    },
    {
        "city": "Cajamar",
        "state": "SP",
        "district": "Ponunduva",
        "street": "Rua Nova Palmeiras (Prq Alvorada)",
        "zipcode": "07768-400"
    },
    {
        "city": "Cajamar",
        "state": "SP",
        "district": "Ponunduva",
        "street": "Rua José Rodrigues Pontes (Prq Bandeirantes)",
        "zipcode": "07768-490"
    },
    {
        "city": "Cajamar",
        "state": "SP",
        "district": "Vau Novo",
        "street": "Rua Pirajú (Lg Azul)",
        "zipcode": "07762-440"
    },
    {
        "city": "Cajamar",
        "state": "SP",
        "district": "Empresarial dos Eucaliptos",
        "street": "Rua dos Pelicanos (Olaria)",
        "zipcode": "07764-325"
    },
    {
        "city": "Cajamar",
        "state": "SP",
        "district": "Ponunduva",
        "street": "Rua Pindamonhangaba (Clna Coqueirais)",
        "zipcode": "07768-895"
    },
    {
        "city": "Cajamar",
        "state": "SP",
        "district": "Ponunduva",
        "street": "Rua Bragança Paulista (Ch Rodeio)",
        "zipcode": "07767-030"
    },
    {
        "city": "Cajamar",
        "state": "SP",
        "district": "Ponunduva",
        "street": "Rua Mogi Guaçú (Vle Nascentes)",
        "zipcode": "07769-040"
    },
    {
        "city": "Cajamar",
        "state": "SP",
        "district": "Jordanésia (Jordanésia)",
        "street": "Rua Cinco (Vl Mariotti)",
        "zipcode": "07776-250"
    },
    {
        "city": "Cajamar",
        "state": "SP",
        "district": "Jordanésia (Jordanésia)",
        "street": "Rua Quatro (Vl Mariotti)",
        "zipcode": "07776-255"
    },
    {
        "city": "Cajamar",
        "state": "SP",
        "district": "Jordanésia (Jordanésia)",
        "street": "Rua Dois (Vl Mariotti)",
        "zipcode": "07776-265"
    },
    {
        "city": "Cajamar",
        "state": "SP",
        "district": "Jordanésia (Jordanésia)",
        "street": "Rua Mário Trevizan (Jd N Jordanésia)",
        "zipcode": "07776-380"
    },
    {
        "city": "Cajamar",
        "state": "SP",
        "district": "Jordanésia (Jordanésia)",
        "street": "Rua Rubens Barbosa (Jd N Jordanésia)",
        "zipcode": "07776-390"
    },
    {
        "city": "Cajamar",
        "state": "SP",
        "district": "Jordanésia (Jordanésia)",
        "street": "Rua Oswaldo de Lorenzi (Cond Penteado)",
        "zipcode": "07776-420"
    },
    {
        "city": "Cajamar",
        "state": "SP",
        "district": "Jordanésia (Jordanésia)",
        "street": "Avenida Deovair Cruz de Oliveira (Cond Penteado)",
        "zipcode": "07776-435"
    },
    {
        "city": "Cajamar",
        "state": "SP",
        "district": "Jordanésia (Jordanésia)",
        "street": "Rua Vereador Joaquim Soares de Araújo (Cond Penteado)",
        "zipcode": "07776-440"
    },
    {
        "city": "Cajamar",
        "state": "SP",
        "district": "Jordanésia (Jordanésia)",
        "street": "Avenida Vereador Joaquim Pereira Barbosa (Cond Penteado)",
        "zipcode": "07776-450"
    },
    {
        "city": "Cajamar",
        "state": "SP",
        "district": "Jordanésia (Jordanésia)",
        "street": "Rua Avelino Toledo de Lima (Cond Penteado)",
        "zipcode": "07776-455"
    },
    {
        "city": "Cajamar",
        "state": "SP",
        "district": "Jordanésia (Jordanésia)",
        "street": "Rua Vereador José Mendes (Cond Penteado)",
        "zipcode": "07776-460"
    },
    {
        "city": "Cajamar",
        "state": "SP",
        "district": "Jordanésia (Jordanésia)",
        "street": "Rua Antonio Pedro Magalhães (Cond Penteado)",
        "zipcode": "07776-465"
    },
    {
        "city": "Cajamar",
        "state": "SP",
        "district": "São Benedito (Jordanésia)",
        "street": "Avenida das Nascentes",
        "zipcode": "07778-750"
    },
    {
        "city": "Cajamar",
        "state": "SP",
        "district": "Ponunduva",
        "street": "Rua Monte Mor (V Danúbio)",
        "zipcode": "07767-690"
    },
    {
        "city": "Cajamar",
        "state": "SP",
        "district": "São Benedito (Jordanésia)",
        "street": "Rua Benedito Silva Frasão",
        "zipcode": "07778-765"
    },
    {
        "city": "Cajamar",
        "state": "SP",
        "district": "Ponunduva",
        "street": "Rua Um (Ch Shangrila)",
        "zipcode": "07767-550"
    },
    {
        "city": "Cajamar",
        "state": "SP",
        "district": "Serra dos Lagos (Jordanésia)",
        "street": "Rua Quartzo (S Cristais)",
        "zipcode": "07781-200"
    },
    {
        "city": "Cajamar",
        "state": "SP",
        "district": "Jordanésia (Jordanésia)",
        "street": "Rua Alfredo DelVigna (Jd N Jordanésia)",
        "zipcode": "07776-395"
    },
    {
        "city": "Cajamar",
        "state": "SP",
        "district": "São Benedito (Jordanésia)",
        "street": "Rua Boa Vista",
        "zipcode": "07778-800"
    },
    {
        "city": "Cajamar",
        "state": "SP",
        "district": "Ponunduva",
        "street": "Rua Martinópolis (V Danúbio)",
        "zipcode": "07767-655"
    },
    {
        "city": "Cajamar",
        "state": "SP",
        "district": "Ponunduva",
        "street": "Rua Mirandópolis (V Danúbio)",
        "zipcode": "07767-665"
    },
    {
        "city": "Cajamar",
        "state": "SP",
        "district": "Ponunduva",
        "street": "Rua Araçatuba (Prq N Lar)",
        "zipcode": "07768-020"
    },
    {
        "city": "Cajamar",
        "state": "SP",
        "district": "Ponunduva",
        "street": "Rua Seis (Ch Shangrila)",
        "zipcode": "07767-575"
    },
    {
        "city": "Cajamar",
        "state": "SP",
        "district": "Serra dos Lagos (Jordanésia)",
        "street": "Rua Alexandrita (S Cristais)",
        "zipcode": "07781-195"
    },
    {
        "city": "Cajamar",
        "state": "SP",
        "district": "Ponunduva",
        "street": "Rua Monte Alegre do Sul (V Danúbio)",
        "zipcode": "07767-705"
    },
    {
        "city": "Cajamar",
        "state": "SP",
        "district": "Serra dos Lagos (Jordanésia)",
        "street": "Rua Teresina (C Ville III)",
        "zipcode": "07781-375"
    },
    {
        "city": "Cajamar",
        "state": "SP",
        "district": "Serra dos Lagos (Jordanésia)",
        "street": "Rua Fortaleza (C Ville III)",
        "zipcode": "07781-380"
    },
    {
        "city": "Cajamar",
        "state": "SP",
        "district": "Ponunduva",
        "street": "Rua Sete (Ch Shangrila)",
        "zipcode": "07767-555"
    },
    {
        "city": "Cajamar",
        "state": "SP",
        "district": "Ponunduva",
        "street": "Rua Embú (Prq N Lar)",
        "zipcode": "07768-050"
    },
    {
        "city": "Cajamar",
        "state": "SP",
        "district": "Ponunduva",
        "street": "Rua Três (Ch Shangrila)",
        "zipcode": "07767-560"
    },
    {
        "city": "Cajamar",
        "state": "SP",
        "district": "Serra dos Lagos (Jordanésia)",
        "street": "Rua Rubi (S Cristais)",
        "zipcode": "07781-190"
    },
    {
        "city": "Cajamar",
        "state": "SP",
        "district": "Ponunduva",
        "street": "Rua das Garças (Prq Alvorada II)",
        "zipcode": "07768-200"
    },
    {
        "city": "Cajamar",
        "state": "SP",
        "district": "São Benedito (Jordanésia)",
        "street": "Rua Boa Esperança",
        "zipcode": "07778-810"
    },
    {
        "city": "Cajamar",
        "state": "SP",
        "district": "São Benedito (Jordanésia)",
        "street": "Rua Alto da Serra",
        "zipcode": "07778-785"
    },
    {
        "city": "Cajamar",
        "state": "SP",
        "district": "Ponunduva",
        "street": "Rua Cinco (Ch Shangrila)",
        "zipcode": "07767-570"
    },
    {
        "city": "Cajamar",
        "state": "SP",
        "district": "Jordanésia (Jordanésia)",
        "street": "Rua Pedro Binatto (Cond Penteado)",
        "zipcode": "07776-470"
    },
    {
        "city": "Cajamar",
        "state": "SP",
        "district": "Serra dos Lagos (Jordanésia)",
        "street": "Rua Recife (C Ville III)",
        "zipcode": "07781-400"
    },
    {
        "city": "Cajamar",
        "state": "SP",
        "district": "Jordanésia (Jordanésia)",
        "street": "Rua Benedito Pereira de Mesquita (Cond Penteado)",
        "zipcode": "07776-475"
    },
    {
        "city": "Cajamar",
        "state": "SP",
        "district": "São Benedito (Jordanésia)",
        "street": "Rua José Barbosa",
        "zipcode": "07778-760"
    },
    {
        "city": "Cajamar",
        "state": "SP",
        "district": "Ponunduva",
        "street": "Rua Dois (Ch Shangrila)",
        "zipcode": "07767-580"
    },
    {
        "city": "Cajamar",
        "state": "SP",
        "district": "Ponunduva",
        "street": "Rua do Curió (Prq Alvorada II)",
        "zipcode": "07768-210"
    },
    {
        "city": "Cajamar",
        "state": "SP",
        "district": "São Benedito (Jordanésia)",
        "street": "Rua Julio Neves",
        "zipcode": "07778-805"
    },
    {
        "city": "Cajamar",
        "state": "SP",
        "district": "Ponunduva",
        "street": "Rua Monte Aprazível (V Danúbio)",
        "zipcode": "07767-675"
    },
    {
        "city": "Cajamar",
        "state": "SP",
        "district": "Ponunduva",
        "street": "Rua Jaú (Prq N Lar)",
        "zipcode": "07768-000"
    },
    {
        "city": "Cajamar",
        "state": "SP",
        "district": "Ponunduva",
        "street": "Rua Monte Alto (V Danúbio)",
        "zipcode": "07767-695"
    },
    {
        "city": "Cajamar",
        "state": "SP",
        "district": "Jordanésia (Jordanésia)",
        "street": "Rua Vereador Mário Marcolongo (Cond Penteado)",
        "zipcode": "07776-430"
    },
    {
        "city": "Cajamar",
        "state": "SP",
        "district": "Jordanésia (Jordanésia)",
        "street": "Praça Anna Maria de Aró (Cond Penteado)",
        "zipcode": "07776-445"
    },
    {
        "city": "Cajamar",
        "state": "SP",
        "district": "São Benedito (Jordanésia)",
        "street": "Rua das Torres",
        "zipcode": "07778-780"
    },
    {
        "city": "Cajamar",
        "state": "SP",
        "district": "Ponunduva",
        "street": "Rua Mongaguá (V Danúbio)",
        "zipcode": "07767-685"
    },
    {
        "city": "Cajamar",
        "state": "SP",
        "district": "Jordanésia (Jordanésia)",
        "street": "Rua Elisa Marques Lourenço (Vl Américas)",
        "zipcode": "07776-185"
    },
    {
        "city": "Cajamar",
        "state": "SP",
        "district": "Jordanésia (Jordanésia)",
        "street": "Rua Maria Anunciada de Moura (Vl Américas)",
        "zipcode": "07776-205"
    },
    {
        "city": "Cajamar",
        "state": "SP",
        "district": "Empresarial Paineira (Jordanésia)",
        "street": "Avenida Jordano Mendes",
        "zipcode": "07776-015"
    },
    {
        "city": "Cajamar",
        "state": "SP",
        "district": "Jordanésia (Jordanésia)",
        "street": "Avenida Alfonso Leopoldo Vogel",
        "zipcode": "07776-237"
    },
    {
        "city": "Cajamar",
        "state": "SP",
        "district": "Jordanésia (Jordanésia)",
        "street": "Rua Promáx (Vl Américas)",
        "zipcode": "07776-225"
    },
    {
        "city": "Cajamar",
        "state": "SP",
        "district": "Santa Terezinha (Jordanésia)",
        "street": "Avenida Doutor José Luis Leme Maciel",
        "zipcode": "07786-450"
    },
    {
        "city": "Cajamar",
        "state": "SP",
        "district": "São Roberto (Jordanésia)",
        "street": "Rua das Cisalpinas (Prq S Roberto I)",
        "zipcode": "07787-005"
    },
    {
        "city": "Cajamar",
        "state": "SP",
        "district": "São Roberto (Jordanésia)",
        "street": "Rua das Mangabeiras (Prq S Roberto I)",
        "zipcode": "07787-020"
    },
    {
        "city": "Cajamar",
        "state": "SP",
        "district": "São Roberto (Jordanésia)",
        "street": "Rua das Espatódeas (Prq S Roberto I)",
        "zipcode": "07787-025"
    },
    {
        "city": "Cajamar",
        "state": "SP",
        "district": "São Roberto (Jordanésia)",
        "street": "Rua das Tipuanas (Prq S Roberto I)",
        "zipcode": "07787-030"
    },
    {
        "city": "Cajamar",
        "state": "SP",
        "district": "Santa Terezinha (Jordanésia)",
        "street": "Rua Eldorado",
        "zipcode": "07786-440"
    },
    {
        "city": "Cajamar",
        "state": "SP",
        "district": "Santa Terezinha (Jordanésia)",
        "street": "Rua Eldorado",
        "zipcode": "07786-435"
    },
    {
        "city": "Cajamar",
        "state": "SP",
        "district": "Santa Terezinha (Jordanésia)",
        "street": "Avenida Pedro Celestino Leite Penteado",
        "zipcode": "07786-055"
    },
    {
        "city": "Cajamar",
        "state": "SP",
        "district": "Serra dos Lagos (Jordanésia)",
        "street": "Rua Florianópolis (C Ville III)",
        "zipcode": "07781-425"
    },
    {
        "city": "Cajamar",
        "state": "SP",
        "district": "Serra dos Lagos (Jordanésia)",
        "street": "Rua Cuiabá (C Ville III)",
        "zipcode": "07781-440"
    },
    {
        "city": "Cajamar",
        "state": "SP",
        "district": "Serra dos Lagos (Jordanésia)",
        "street": "Rua Porto Feliz (C Ville I)",
        "zipcode": "07781-765"
    },
    {
        "city": "Cajamar",
        "state": "SP",
        "district": "Portais (Polvilho)",
        "street": "Rua das Zineas (P Ipês III)",
        "zipcode": "07791-020"
    },
    {
        "city": "Cajamar",
        "state": "SP",
        "district": "Santa Terezinha (Jordanésia)",
        "street": "Via de Circulação Três (Cond Res Renascer II)",
        "zipcode": "07786-315"
    },
    {
        "city": "Cajamar",
        "state": "SP",
        "district": "Serra dos Lagos (Jordanésia)",
        "street": "Rua Palmas (C Ville II)",
        "zipcode": "07782-205"
    },
    {
        "city": "Cajamar",
        "state": "SP",
        "district": "Jordanésia (Jordanésia)",
        "street": "Rua Júlio Galeotti (Vl Américas)",
        "zipcode": "07776-190"
    },
    {
        "city": "Cajamar",
        "state": "SP",
        "district": "Empresarial Paoletti (Jordanésia)",
        "street": "Rua Alvorada (Sit Mte Alto)",
        "zipcode": "07784-845"
    },
    {
        "city": "Cajamar",
        "state": "SP",
        "district": "Serra dos Lagos (Jordanésia)",
        "street": "Rua Pontal (C Ville I)",
        "zipcode": "07781-760"
    },
    {
        "city": "Cajamar",
        "state": "SP",
        "district": "Jordanésia (Jordanésia)",
        "street": "Avenida Jordano Mendes",
        "zipcode": "07776-480"
    },
    {
        "city": "Cajamar",
        "state": "SP",
        "district": "Serra dos Lagos (Jordanésia)",
        "street": "Rua Curitiba (C Ville III)",
        "zipcode": "07781-420"
    },
    {
        "city": "Cajamar",
        "state": "SP",
        "district": "Jordanésia (Jordanésia)",
        "street": "Avenida Doutor Antonio João Abdalla",
        "zipcode": "07776-180"
    },
    {
        "city": "Cajamar",
        "state": "SP",
        "district": "Serra dos Lagos (Jordanésia)",
        "street": "Rua Pirangi (C Ville I)",
        "zipcode": "07781-725"
    },
    {
        "city": "Cajamar",
        "state": "SP",
        "district": "Serra dos Lagos (Jordanésia)",
        "street": "Rua Rio Branco (C Ville II)",
        "zipcode": "07782-210"
    },
    {
        "city": "Cajamar",
        "state": "SP",
        "district": "Serra dos Lagos (Jordanésia)",
        "street": "Rua Promissão (C Ville I)",
        "zipcode": "07781-740"
    },
    {
        "city": "Cajamar",
        "state": "SP",
        "district": "Empresarial Paineira (Jordanésia)",
        "street": "Rua Guaiçara (M Dist Industrial)",
        "zipcode": "07776-010"
    },
    {
        "city": "Cajamar",
        "state": "SP",
        "district": "Serra dos Lagos (Jordanésia)",
        "street": "Rua Boa Vista (C Ville II)",
        "zipcode": "07782-200"
    },
    {
        "city": "Cajamar",
        "state": "SP",
        "district": "Serra dos Lagos (Jordanésia)",
        "street": "Rua Pirajuí (C Ville I)",
        "zipcode": "07781-730"
    },
    {
        "city": "Cajamar",
        "state": "SP",
        "district": "Santa Terezinha (Jordanésia)",
        "street": "Rua Sonia Regina de Moraes (C Parque)",
        "zipcode": "07786-050"
    },
    {
        "city": "Cajamar",
        "state": "SP",
        "district": "Serra dos Lagos (Jordanésia)",
        "street": "Rua Pirapozinho (C Ville I)",
        "zipcode": "07781-745"
    },
    {
        "city": "Cajamar",
        "state": "SP",
        "district": "Serra dos Lagos (Jordanésia)",
        "street": "Rua Belém (C Ville II)",
        "zipcode": "07782-190"
    },
    {
        "city": "Cajamar",
        "state": "SP",
        "district": "Santa Terezinha (Jordanésia)",
        "street": "Rua dos Cristais (Sta Cruz)",
        "zipcode": "07786-190"
    },
    {
        "city": "Cajamar",
        "state": "SP",
        "district": "Santa Terezinha (Jordanésia)",
        "street": "Rua Dois (Cond Res Renascer I)",
        "zipcode": "07786-330"
    },
    {
        "city": "Cajamar",
        "state": "SP",
        "district": "Serra dos Lagos (Jordanésia)",
        "street": "Rua Maceió (C Ville III)",
        "zipcode": "07781-405"
    },
    {
        "city": "Cajamar",
        "state": "SP",
        "district": "Serra dos Lagos (Jordanésia)",
        "street": "Rua Pitangueiras (C Ville I)",
        "zipcode": "07781-770"
    },
    {
        "city": "Cajamar",
        "state": "SP",
        "district": "Empresarial Paineira (Jordanésia)",
        "street": "Rua Guaira (M Dist Industrial)",
        "zipcode": "07776-040"
    },
    {
        "city": "Cajamar",
        "state": "SP",
        "district": "Serra dos Lagos (Jordanésia)",
        "street": "Rua Belo Horizonte (C Ville III)",
        "zipcode": "07781-430"
    },
    {
        "city": "Cajamar",
        "state": "SP",
        "district": "Serra dos Lagos (Jordanésia)",
        "street": "Rua Turquesa (S Cristais)",
        "zipcode": "07781-215"
    },
    {
        "city": "Cajamar",
        "state": "SP",
        "district": "Serra dos Lagos (Jordanésia)",
        "street": "Rua Platina (C Ville I)",
        "zipcode": "07781-715"
    },
    {
        "city": "Cajamar",
        "state": "SP",
        "district": "Santa Terezinha (Jordanésia)",
        "street": "Via de Circulação Dois (Cond Res Renascer II)",
        "zipcode": "07786-325"
    },
    {
        "city": "Cajamar",
        "state": "SP",
        "district": "Serra dos Lagos (Jordanésia)",
        "street": "Rua Água Marinha (S Cristais)",
        "zipcode": "07781-210"
    },
    {
        "city": "Cajamar",
        "state": "SP",
        "district": "Empresarial Paoletti (Jordanésia)",
        "street": "Rua José Fernandes (Sit Mte Alto)",
        "zipcode": "07784-840"
    },
    {
        "city": "Cajamar",
        "state": "SP",
        "district": "Ipês (Polvilho)",
        "street": "Rua das Papoulas (P Ipês I)",
        "zipcode": "07791-610"
    },
    {
        "city": "Cajamar",
        "state": "SP",
        "district": "Jordanésia (Jordanésia)",
        "street": "Avenida Luiz Alli Fayrdin (Vl Américas)",
        "zipcode": "07776-235"
    },
    {
        "city": "Cajamar",
        "state": "SP",
        "district": "São Jorge (Jordanésia)",
        "street": "Estrada Fazenda São Jorge",
        "zipcode": "07782-480"
    },
    {
        "city": "Cajamar",
        "state": "SP",
        "district": "Serra dos Lagos (Jordanésia)",
        "street": "Rua Aracaju (C Ville III)",
        "zipcode": "07781-410"
    },
    {
        "city": "Cajamar",
        "state": "SP",
        "district": "Empresarial Paoletti (Jordanésia)",
        "street": "Via de Acesso Norte Km 41.850 (Rod Anhanguera)",
        "zipcode": "07785-050"
    },
    {
        "city": "Cajamar",
        "state": "SP",
        "district": "Serra dos Lagos (Jordanésia)",
        "street": "Rua Piracicaba (C Ville I)",
        "zipcode": "07781-775"
    },
    {
        "city": "Cajamar",
        "state": "SP",
        "district": "Empresarial Paoletti (Jordanésia)",
        "street": "Via de Acesso Norte Km 42.100 (Rod Anhanguera)",
        "zipcode": "07785-040"
    },
    {
        "city": "Cajamar",
        "state": "SP",
        "district": "Empresarial Paoletti (Jordanésia)",
        "street": "Via de Acesso Norte Km 41.600 (Rod Anhanguera)",
        "zipcode": "07785-085"
    },
    {
        "city": "Cajamar",
        "state": "SP",
        "district": "São Roberto (Jordanésia)",
        "street": "Rua das Quaresmeiras (Prq S Roberto I)",
        "zipcode": "07787-010"
    },
    {
        "city": "Cajamar",
        "state": "SP",
        "district": "São Roberto (Jordanésia)",
        "street": "Rua Louveira (Prq S Roberto II)",
        "zipcode": "07787-095"
    },
    {
        "city": "Cajamar",
        "state": "SP",
        "district": "São Roberto (Jordanésia)",
        "street": "Rua José Marques Ferreira (Prq S Roberto II)",
        "zipcode": "07787-100"
    },
    {
        "city": "Cajamar",
        "state": "SP",
        "district": "São Roberto (Jordanésia)",
        "street": "Rua Oriente (Prq S Roberto II)",
        "zipcode": "07787-120"
    },
    {
        "city": "Cajamar",
        "state": "SP",
        "district": "São Roberto (Jordanésia)",
        "street": "Rua Itaberá (Prq S Roberto II)",
        "zipcode": "07787-135"
    },
    {
        "city": "Cajamar",
        "state": "SP",
        "district": "Altos de Jordanésia (Jordanésia)",
        "street": "Avenida Domingo Alonso Lopez (Jd Penteado)",
        "zipcode": "07786-495"
    },
    {
        "city": "Cajamar",
        "state": "SP",
        "district": "Altos de Jordanésia (Jordanésia)",
        "street": "Rua Etelvino Inocêncio da Silva (Jd Penteado)",
        "zipcode": "07786-505"
    },
    {
        "city": "Cajamar",
        "state": "SP",
        "district": "Altos de Jordanésia (Jordanésia)",
        "street": "Rua Jarinú (Jd S João)",
        "zipcode": "07786-550"
    },
    {
        "city": "Cajamar",
        "state": "SP",
        "district": "Altos de Jordanésia (Jordanésia)",
        "street": "Rua Jaú (Jd S João)",
        "zipcode": "07786-555"
    },
    {
        "city": "Cajamar",
        "state": "SP",
        "district": "Altos de Jordanésia (Jordanésia)",
        "street": "Rua Leme (Jd S João)",
        "zipcode": "07786-570"
    },
    {
        "city": "Cajamar",
        "state": "SP",
        "district": "Altos de Jordanésia (Jordanésia)",
        "street": "Rua São Carlos (M Pitoresca)",
        "zipcode": "07786-730"
    },
    {
        "city": "Cajamar",
        "state": "SP",
        "district": "Altos de Jordanésia (Jordanésia)",
        "street": "Rua Queluz (M Pitoresca)",
        "zipcode": "07786-750"
    },
    {
        "city": "Cajamar",
        "state": "SP",
        "district": "Altos de Jordanésia (Jordanésia)",
        "street": "Rua Vicente Paulo da Costa (Vl Abrão)",
        "zipcode": "07786-775"
    },
    {
        "city": "Cajamar",
        "state": "SP",
        "district": "Colina Maria Luíza (Jordanésia)",
        "street": "Rua Alumínio (Cina Verde)",
        "zipcode": "07787-485"
    },
    {
        "city": "Cajamar",
        "state": "SP",
        "district": "Altos de Jordanésia (Jordanésia)",
        "street": "Rua Antonio de Barros",
        "zipcode": "07786-740"
    },
    {
        "city": "Cajamar",
        "state": "SP",
        "district": "Altos de Jordanésia (Jordanésia)",
        "street": "Rua Antonio de Barros",
        "zipcode": "07786-880"
    },
    {
        "city": "Cajamar",
        "state": "SP",
        "district": "Altos de Jordanésia (Jordanésia)",
        "street": "Avenida Arnaldo Rojek",
        "zipcode": "07786-525"
    },
    {
        "city": "Cajamar",
        "state": "SP",
        "district": "Colina Maria Luíza (Jordanésia)",
        "street": "Rua Indiana (Prq Res Jordanésia)",
        "zipcode": "07787-330"
    },
    {
        "city": "Cajamar",
        "state": "SP",
        "district": "Colina Maria Luíza (Jordanésia)",
        "street": "Rua Dumont (Prq Res Jordanésia)",
        "zipcode": "07787-355"
    },
    {
        "city": "Cajamar",
        "state": "SP",
        "district": "Colina Maria Luíza (Jordanésia)",
        "street": "Rua Dolcinópolis (Prq Res Jordanésia)",
        "zipcode": "07787-370"
    },
    {
        "city": "Cajamar",
        "state": "SP",
        "district": "São Roberto (Jordanésia)",
        "street": "Rua Poá (Prq S Roberto II)",
        "zipcode": "07787-130"
    },
    {
        "city": "Cajamar",
        "state": "SP",
        "district": "Empresarial Paoletti (Jordanésia)",
        "street": "Rua Antenor das Dores (Sit S Luiz)",
        "zipcode": "07785-080"
    },
    {
        "city": "Cajamar",
        "state": "SP",
        "district": "Altos de Jordanésia (Jordanésia)",
        "street": "Rua Maria Munhoz Missé (Jd S João)",
        "zipcode": "07786-565"
    },
    {
        "city": "Cajamar",
        "state": "SP",
        "district": "Colina Maria Luíza (Jordanésia)",
        "street": "Rua Ibirá (Prq Res Jordanésia)",
        "zipcode": "07787-305"
    },
    {
        "city": "Cajamar",
        "state": "SP",
        "district": "Portais (Polvilho)",
        "street": "Rua Waldemar Meira (P Ipês II)",
        "zipcode": "07790-795"
    },
    {
        "city": "Cajamar",
        "state": "SP",
        "district": "Altos de Jordanésia (Jordanésia)",
        "street": "Rua Adolfo (Vl Abrão)",
        "zipcode": "07786-780"
    },
    {
        "city": "Cajamar",
        "state": "SP",
        "district": "Colina Maria Luíza (Jordanésia)",
        "street": "Rua Ibate (Prq Res Jordanésia)",
        "zipcode": "07787-310"
    },
    {
        "city": "Cajamar",
        "state": "SP",
        "district": "Altos de Jordanésia (Jordanésia)",
        "street": "Rua Professora Odir Garcia Araújo (Jd Penteado)",
        "zipcode": "07786-510"
    },
    {
        "city": "Cajamar",
        "state": "SP",
        "district": "Empresarial Paoletti (Jordanésia)",
        "street": "Rua Saturnino Alves (Sit S Luiz)",
        "zipcode": "07785-065"
    },
    {
        "city": "Cajamar",
        "state": "SP",
        "district": "Altos de Jordanésia (Jordanésia)",
        "street": "Rua Alfredo Marcondes (Vl Abrão)",
        "zipcode": "07786-770"
    },
    {
        "city": "Cajamar",
        "state": "SP",
        "district": "Empresarial Paoletti (Jordanésia)",
        "street": "Rua Abílio Bueno da Silva (Sit S Luiz)",
        "zipcode": "07785-030"
    },
    {
        "city": "Cajamar",
        "state": "SP",
        "district": "Empresarial Paoletti (Jordanésia)",
        "street": "Rua Taquaral (Sit Mte Alto)",
        "zipcode": "07784-850"
    },
    {
        "city": "Cajamar",
        "state": "SP",
        "district": "Altos de Jordanésia (Jordanésia)",
        "street": "Rua Santa Izabel (M Pitoresca)",
        "zipcode": "07786-720"
    },
    {
        "city": "Cajamar",
        "state": "SP",
        "district": "Empresarial Paoletti (Jordanésia)",
        "street": "Rua José Marques (Sit S Luiz)",
        "zipcode": "07785-025"
    },
    {
        "city": "Cajamar",
        "state": "SP",
        "district": "Altos de Jordanésia (Jordanésia)",
        "street": "Rua Várzea Paulista (Jd N Recanto)",
        "zipcode": "07786-870"
    },
    {
        "city": "Cajamar",
        "state": "SP",
        "district": "Altos de Jordanésia (Jordanésia)",
        "street": "Rua Antonio Gomez Alvarez (Jd Penteado)",
        "zipcode": "07786-500"
    },
    {
        "city": "Cajamar",
        "state": "SP",
        "district": "São Roberto (Jordanésia)",
        "street": "Rua Dom Roberto Pinarello de Almeida (Prq S Roberto II)",
        "zipcode": "07787-090"
    },
    {
        "city": "Cajamar",
        "state": "SP",
        "district": "Altos de Jordanésia (Jordanésia)",
        "street": "Rua Santo André (M Pitoresca)",
        "zipcode": "07786-735"
    },
    {
        "city": "Cajamar",
        "state": "SP",
        "district": "Colina Maria Luíza (Jordanésia)",
        "street": "Rua José de Abreu Oliveira (Prq Res Jordanésia)",
        "zipcode": "07787-360"
    },
    {
        "city": "Cajamar",
        "state": "SP",
        "district": "Santa Terezinha (Jordanésia)",
        "street": "Rua Um (Cond Res Renascer I)",
        "zipcode": "07786-335"
    },
    {
        "city": "Cajamar",
        "state": "SP",
        "district": "Colina Maria Luíza (Jordanésia)",
        "street": "Rua Fartura (Prq Res Jordanésia)",
        "zipcode": "07787-345"
    },
    {
        "city": "Cajamar",
        "state": "SP",
        "district": "Colina Maria Luíza (Jordanésia)",
        "street": "Rua Cristais Paulista (Prq Res Jordanésia)",
        "zipcode": "07787-375"
    },
    {
        "city": "Cajamar",
        "state": "SP",
        "district": "Altos de Jordanésia (Jordanésia)",
        "street": "Rua José de Almeida (Vl Abrão)",
        "zipcode": "07786-785"
    },
    {
        "city": "Cajamar",
        "state": "SP",
        "district": "Altos de Jordanésia (Jordanésia)",
        "street": "Avenida Arnaldo Rojek",
        "zipcode": "07786-900"
    },
    {
        "city": "Cajamar",
        "state": "SP",
        "district": "Polvilho (Polvilho)",
        "street": "Avenida Tenente Marques",
        "zipcode": "07790-500"
    },
    {
        "city": "Cajamar",
        "state": "SP",
        "district": "Polvilho (Polvilho)",
        "street": "Rua Domingos Marques da Silva (Jd Sta Rtia)",
        "zipcode": "07790-505"
    },
    {
        "city": "Cajamar",
        "state": "SP",
        "district": "Polvilho (Polvilho)",
        "street": "Rua Rita Maria de Jesus (Jd Sta Rtia)",
        "zipcode": "07790-515"
    },
    {
        "city": "Cajamar",
        "state": "SP",
        "district": "Polvilho (Polvilho)",
        "street": "Rua José Joaquim Seixas (Jd Sta Rtia)",
        "zipcode": "07790-520"
    },
    {
        "city": "Cajamar",
        "state": "SP",
        "district": "Polvilho (Polvilho)",
        "street": "Rua Aparecida (Jd B Vista I)",
        "zipcode": "07790-590"
    },
    {
        "city": "Cajamar",
        "state": "SP",
        "district": "Polvilho (Polvilho)",
        "street": "Rua Álvaro de Carvalho (Jd B Vista I)",
        "zipcode": "07790-595"
    },
    {
        "city": "Cajamar",
        "state": "SP",
        "district": "Polvilho (Polvilho)",
        "street": "Rua Sonia Aparecida Souza Porto (Jd Sta Clara)",
        "zipcode": "07790-610"
    },
    {
        "city": "Cajamar",
        "state": "SP",
        "district": "Polvilho (Polvilho)",
        "street": "Rua Cravinhos (Jd S Pedro)",
        "zipcode": "07790-675"
    },
    {
        "city": "Cajamar",
        "state": "SP",
        "district": "Colina Maria Luíza (Jordanésia)",
        "street": "Rua Aracariguama (Cina Verde)",
        "zipcode": "07787-490"
    },
    {
        "city": "Cajamar",
        "state": "SP",
        "district": "Colina Maria Luíza (Jordanésia)",
        "street": "Avenida Arujá (Cj Hab Jd M Luiza)",
        "zipcode": "07787-530"
    },
    {
        "city": "Cajamar",
        "state": "SP",
        "district": "Colina Maria Luíza (Jordanésia)",
        "street": "Rua Arapeí (Cina Verde)",
        "zipcode": "07787-515"
    },
    {
        "city": "Cajamar",
        "state": "SP",
        "district": "Colina Maria Luíza (Jordanésia)",
        "street": "Rua Ádamo Zambelli (Vle Flores)",
        "zipcode": "07787-460"
    },
    {
        "city": "Cajamar",
        "state": "SP",
        "district": "Colina Maria Luíza (Jordanésia)",
        "street": "Rua Alambari (Cina Verde)",
        "zipcode": "07787-495"
    },
    {
        "city": "Cajamar",
        "state": "SP",
        "district": "Empresarial Gato Preto (Jordanésia)",
        "street": "Rua Bocaina (D.E.R Gato Preto)",
        "zipcode": "07789-485"
    },
    {
        "city": "Cajamar",
        "state": "SP",
        "district": "Altos de Jordanésia (Jordanésia)",
        "street": "Rua Adamantina (Vl Abrão)",
        "zipcode": "07786-795"
    },
    {
        "city": "Cajamar",
        "state": "SP",
        "district": "Alpes dos Araçás (Jordanésia)",
        "street": "Estrada do Retorno (Ch Rosário)",
        "zipcode": "07787-830"
    },
    {
        "city": "Cajamar",
        "state": "SP",
        "district": "Empresarial Gato Preto (Jordanésia)",
        "street": "Rua Boa Vista (D.E.R Gato Preto)",
        "zipcode": "07789-435"
    },
    {
        "city": "Cajamar",
        "state": "SP",
        "district": "Colina Maria Luíza (Jordanésia)",
        "street": "Rua Flamboiã (Vle Flores)",
        "zipcode": "07787-450"
    },
    {
        "city": "Cajamar",
        "state": "SP",
        "district": "Empresarial Mirante de Cajamar (Polvilho)",
        "street": "Avenida Tenente Marques",
        "zipcode": "07790-260"
    },
    {
        "city": "Cajamar",
        "state": "SP",
        "district": "Colina Maria Luíza (Jordanésia)",
        "street": "Rua Alvilândia (Cina Verde)",
        "zipcode": "07787-510"
    },
    {
        "city": "Cajamar",
        "state": "SP",
        "district": "Alpes dos Araçás (Jordanésia)",
        "street": "Estrada Santo Antonio (Ch Rosário)",
        "zipcode": "07787-850"
    },
    {
        "city": "Cajamar",
        "state": "SP",
        "district": "Alpes dos Araçás (Jordanésia)",
        "street": "Rua Cunha (Ch Rosário)",
        "zipcode": "07787-820"
    },
    {
        "city": "Cajamar",
        "state": "SP",
        "district": "Colina Maria Luíza (Jordanésia)",
        "street": "Rua Águas de Santa Bárbara (Cina Verde)",
        "zipcode": "07787-480"
    },
    {
        "city": "Cajamar",
        "state": "SP",
        "district": "Polvilho (Polvilho)",
        "street": "Rua Antonio Rizardi (Jd Sta Rtia)",
        "zipcode": "07790-525"
    },
    {
        "city": "Cajamar",
        "state": "SP",
        "district": "Portais (Polvilho)",
        "street": "Rua dos Antúrios (P Ipês II)",
        "zipcode": "07790-800"
    },
    {
        "city": "Cajamar",
        "state": "SP",
        "district": "Colina Maria Luíza (Jordanésia)",
        "street": "Rua Anhumas (Cina Verde)",
        "zipcode": "07787-520"
    },
    {
        "city": "Cajamar",
        "state": "SP",
        "district": "Empresarial Mirante de Cajamar (Polvilho)",
        "street": "Rua Antonio Carvalho Salgado (Vl Granipavi)",
        "zipcode": "07790-480"
    },
    {
        "city": "Cajamar",
        "state": "SP",
        "district": "Alpes dos Araçás (Jordanésia)",
        "street": "Rua Fernando Manuel Proença Coelho (Ch Rosário)",
        "zipcode": "07787-835"
    },
    {
        "city": "Cajamar",
        "state": "SP",
        "district": "Colina Maria Luíza (Jordanésia)",
        "street": "Rua Samambaia (Vle Flores)",
        "zipcode": "07787-465"
    },
    {
        "city": "Cajamar",
        "state": "SP",
        "district": "Alpes dos Araçás (Jordanésia)",
        "street": "Avenida Bom Sucesso",
        "zipcode": "07787-700"
    },
    {
        "city": "Cajamar",
        "state": "SP",
        "district": "Empresarial Mirante de Cajamar (Polvilho)",
        "street": "Viela Vieira (Vl Granipavi)",
        "zipcode": "07790-490"
    },
    {
        "city": "Cajamar",
        "state": "SP",
        "district": "Colina Maria Luíza (Jordanésia)",
        "street": "Rua Aspásia (Cina Verde)",
        "zipcode": "07787-500"
    },
    {
        "city": "Cajamar",
        "state": "SP",
        "district": "Colina Maria Luíza (Jordanésia)",
        "street": "Rua Anabela (Cj Hab Jd M Luiza)",
        "zipcode": "07787-545"
    },
    {
        "city": "Cajamar",
        "state": "SP",
        "district": "Alpes dos Araçás (Jordanésia)",
        "street": "Estrada da Colina (Ch Rosário)",
        "zipcode": "07787-855"
    },
    {
        "city": "Cajamar",
        "state": "SP",
        "district": "Polvilho (Polvilho)",
        "street": "Rua Fernão Dias (Jd B Vista II)",
        "zipcode": "07790-560"
    },
    {
        "city": "Cajamar",
        "state": "SP",
        "district": "Alpes dos Araçás (Jordanésia)",
        "street": "Rua Creta (V Scorpios II)",
        "zipcode": "07788-010"
    },
    {
        "city": "Cajamar",
        "state": "SP",
        "district": "Alpes dos Araçás (Jordanésia)",
        "street": "Estrada do Lago (Ch Rosário)",
        "zipcode": "07787-860"
    },
    {
        "city": "Cajamar",
        "state": "SP",
        "district": "Empresarial Mirante de Cajamar (Polvilho)",
        "street": "Avenida das Pitangueiras",
        "zipcode": "07790-370"
    },
    {
        "city": "Cajamar",
        "state": "SP",
        "district": "Colina Maria Luíza (Jordanésia)",
        "street": "Rua Arco Íris (Cina Verde)",
        "zipcode": "07787-505"
    },
    {
        "city": "Cajamar",
        "state": "SP",
        "district": "Alpes dos Araçás (Jordanésia)",
        "street": "Rua Chipre (Vl Verde)",
        "zipcode": "07787-670"
    },
    {
        "city": "Cajamar",
        "state": "SP",
        "district": "Empresarial Gato Preto (Jordanésia)",
        "street": "Rua B (D.E.R Gato Preto)",
        "zipcode": "07789-370"
    },
    {
        "city": "Cajamar",
        "state": "SP",
        "district": "Portais (Polvilho)",
        "street": "Rua dos Alecrins (P Ipês III)",
        "zipcode": "07791-000"
    },
    {
        "city": "Cajamar",
        "state": "SP",
        "district": "Alpes dos Araçás (Jordanésia)",
        "street": "Estrada do Pavone (Ch Rosário)",
        "zipcode": "07787-845"
    },
    {
        "city": "Cajamar",
        "state": "SP",
        "district": "Empresarial Mirante de Cajamar (Polvilho)",
        "street": "Rua Claudina Procópio (Vl Granipavi)",
        "zipcode": "07790-475"
    },
    {
        "city": "Cajamar",
        "state": "SP",
        "district": "Ipês (Polvilho)",
        "street": "Rua das Dálias (P Ipês I)",
        "zipcode": "07791-670"
    },
    {
        "city": "Cajamar",
        "state": "SP",
        "district": "Empresarial Gato Preto (Jordanésia)",
        "street": "Rua D (D.E.R Gato Preto)",
        "zipcode": "07789-360"
    },
    {
        "city": "Cajamar",
        "state": "SP",
        "district": "Altos de Jordanésia (Jordanésia)",
        "street": "Rua Salto (Jd Holanda)",
        "zipcode": "07786-830"
    },
    {
        "city": "Cajamar",
        "state": "SP",
        "district": "Altos de Jordanésia (Jordanésia)",
        "street": "Rua São Roque",
        "zipcode": "07786-840"
    },
    {
        "city": "Cajamar",
        "state": "SP",
        "district": "Polvilho (Polvilho)",
        "street": "Rua Angatuba (Jd Sta Clara)",
        "zipcode": "07790-620"
    },
    {
        "city": "Cajamar",
        "state": "SP",
        "district": "Polvilho (Polvilho)",
        "street": "Rua Anhembi (Jd Sta Clara)",
        "zipcode": "07790-645"
    },
    {
        "city": "Cajamar",
        "state": "SP",
        "district": "Portais (Polvilho)",
        "street": "Rua dos Gerânios (P Ipês II)",
        "zipcode": "07790-870"
    },
    {
        "city": "Cajamar",
        "state": "SP",
        "district": "Portais (Polvilho)",
        "street": "Rua dos Amores",
        "zipcode": "07790-855"
    },
    {
        "city": "Cajamar",
        "state": "SP",
        "district": "Portais (Polvilho)",
        "street": "Rua das Alpinias (P Ipês III)",
        "zipcode": "07791-180"
    },
    {
        "city": "Cajamar",
        "state": "SP",
        "district": "Portais (Polvilho)",
        "street": "Rua das Flores do Campo (P Ipês II)",
        "zipcode": "07790-760"
    },
    {
        "city": "Cajamar",
        "state": "SP",
        "district": "Portais (Polvilho)",
        "street": "Avenida das Pitangueiras",
        "zipcode": "07790-765"
    },
    {
        "city": "Cajamar",
        "state": "SP",
        "district": "Portais (Polvilho)",
        "street": "Avenida Resedá (P Ipês III)",
        "zipcode": "07791-045"
    },
    {
        "city": "Cajamar",
        "state": "SP",
        "district": "Portais (Polvilho)",
        "street": "Rua das Sálvias (P Ipês III)",
        "zipcode": "07791-160"
    },
    {
        "city": "Cajamar",
        "state": "SP",
        "district": "Polvilho (Polvilho)",
        "street": "Rua Rita José da Silva (Jd Sta Clara)",
        "zipcode": "07790-640"
    },
    {
        "city": "Cajamar",
        "state": "SP",
        "district": "Portais (Polvilho)",
        "street": "Rua das Flores de Liz (P Ipês II)",
        "zipcode": "07790-865"
    },
    {
        "city": "Cajamar",
        "state": "SP",
        "district": "Portais (Polvilho)",
        "street": "Rua das Jacubinas (P Ipês III)",
        "zipcode": "07791-085"
    },
    {
        "city": "Cajamar",
        "state": "SP",
        "district": "Portais (Polvilho)",
        "street": "Rua Delfim (P Ipês III)",
        "zipcode": "07791-110"
    },
    {
        "city": "Cajamar",
        "state": "SP",
        "district": "Portais (Polvilho)",
        "street": "Rua Narciso (P Ipês III)",
        "zipcode": "07791-175"
    },
    {
        "city": "Cajamar",
        "state": "SP",
        "district": "Portais (Polvilho)",
        "street": "Rua das Prímulas (P Ipês III)",
        "zipcode": "07791-075"
    },
    {
        "city": "Cajamar",
        "state": "SP",
        "district": "Portais (Polvilho)",
        "street": "Rua das Figueiras (P Ipês III)",
        "zipcode": "07791-095"
    },
    {
        "city": "Cajamar",
        "state": "SP",
        "district": "Portais (Polvilho)",
        "street": "Rua Baronesa (P Ipês III)",
        "zipcode": "07791-165"
    },
    {
        "city": "Cajamar",
        "state": "SP",
        "district": "Portais (Polvilho)",
        "street": "Avenida das Açucenas (P Ipês II)",
        "zipcode": "07790-820"
    },
    {
        "city": "Cajamar",
        "state": "SP",
        "district": "Portais (Polvilho)",
        "street": "Rua Camarão Vermelho (P Ipês III)",
        "zipcode": "07791-120"
    },
    {
        "city": "Cajamar",
        "state": "SP",
        "district": "Portais (Polvilho)",
        "street": "Rua dos Lótus (P Ipês III)",
        "zipcode": "07791-050"
    },
    {
        "city": "Cajamar",
        "state": "SP",
        "district": "Portais (Polvilho)",
        "street": "Rua das Lavandas (P Ipês III)",
        "zipcode": "07791-035"
    },
    {
        "city": "Cajamar",
        "state": "SP",
        "district": "Panorama (Polvilho)",
        "street": "Rua Bocaina (Prq Jaraguá)",
        "zipcode": "07793-085"
    },
    {
        "city": "Cajamar",
        "state": "SP",
        "district": "Portais (Polvilho)",
        "street": "Avenida dos Pinheiros (P Ipês II)",
        "zipcode": "07790-885"
    },
    {
        "city": "Cajamar",
        "state": "SP",
        "district": "Portais (Polvilho)",
        "street": "Rua Licianto (P Ipês III)",
        "zipcode": "07791-170"
    },
    {
        "city": "Cajamar",
        "state": "SP",
        "district": "Portais (Polvilho)",
        "street": "Rua dos Marmelos (P Ipês III)",
        "zipcode": "07791-155"
    },
    {
        "city": "Cajamar",
        "state": "SP",
        "district": "Portais (Polvilho)",
        "street": "Avenida Jabuticabeira (P Ipês III)",
        "zipcode": "07791-150"
    },
    {
        "city": "Cajamar",
        "state": "SP",
        "district": "Portais (Polvilho)",
        "street": "Rua das Calêndulas (P Ipês II)",
        "zipcode": "07790-825"
    },
    {
        "city": "Cajamar",
        "state": "SP",
        "district": "Portais (Polvilho)",
        "street": "Rua das Garapas (P Ipês III)",
        "zipcode": "07791-100"
    },
    {
        "city": "Cajamar",
        "state": "SP",
        "district": "Portais (Polvilho)",
        "street": "Rua das Onze Horas (P Ipês III)",
        "zipcode": "07791-185"
    },
    {
        "city": "Cajamar",
        "state": "SP",
        "district": "Portais (Polvilho)",
        "street": "Avenida dos Bambus (P Ipês II)",
        "zipcode": "07790-835"
    },
    {
        "city": "Cajamar",
        "state": "SP",
        "district": "Portais (Polvilho)",
        "street": "Rua das Amarílis (P Ipês II)",
        "zipcode": "07790-830"
    },
    {
        "city": "Cajamar",
        "state": "SP",
        "district": "Alpes dos Araçás (Jordanésia)",
        "street": "Rua Katakolon (V Scorpios II)",
        "zipcode": "07788-045"
    },
    {
        "city": "Cajamar",
        "state": "SP",
        "district": "Ipês (Polvilho)",
        "street": "Rua das Rosas (P Ipês I)",
        "zipcode": "07791-615"
    },
    {
        "city": "Cajamar",
        "state": "SP",
        "district": "Portais (Polvilho)",
        "street": "Rua das Plumas (P Ipês III)",
        "zipcode": "07791-195"
    },
    {
        "city": "Cajamar",
        "state": "SP",
        "district": "Portais (Polvilho)",
        "street": "Rua Samambaias (P Ipês III)",
        "zipcode": "07791-065"
    },
    {
        "city": "Cajamar",
        "state": "SP",
        "district": "Portais (Polvilho)",
        "street": "Rua Sabina (P Ipês III)",
        "zipcode": "07791-115"
    },
    {
        "city": "Cajamar",
        "state": "SP",
        "district": "Portais (Polvilho)",
        "street": "Rua Peroba Rosa (P Ipês III)",
        "zipcode": "07791-010"
    },
    {
        "city": "Cajamar",
        "state": "SP",
        "district": "Portais (Polvilho)",
        "street": "Rua das Agaveas (P Ipês III)",
        "zipcode": "07791-135"
    },
    {
        "city": "Cajamar",
        "state": "SP",
        "district": "Portais (Polvilho)",
        "street": "Rua dos Eucaliptos (P Ipês III)",
        "zipcode": "07791-025"
    },
    {
        "city": "Cajamar",
        "state": "SP",
        "district": "Portais (Polvilho)",
        "street": "Rua das Acalifas (P Ipês III)",
        "zipcode": "07791-090"
    },
    {
        "city": "Cajamar",
        "state": "SP",
        "district": "Portais (Polvilho)",
        "street": "Rua Gloriosa (P Ipês III)",
        "zipcode": "07791-055"
    },
    {
        "city": "Cajamar",
        "state": "SP",
        "district": "Portais (Polvilho)",
        "street": "Rua das Violetas (P Ipês II)",
        "zipcode": "07790-875"
    },
    {
        "city": "Cajamar",
        "state": "SP",
        "district": "Portais (Polvilho)",
        "street": "Rua dos Cravos (P Ipês II)",
        "zipcode": "07790-880"
    },
    {
        "city": "Cajamar",
        "state": "SP",
        "district": "Alpes dos Araçás (Jordanésia)",
        "street": "Rua Mykonos (V Scorpios II)",
        "zipcode": "07788-040"
    },
    {
        "city": "Cajamar",
        "state": "SP",
        "district": "Portais (Polvilho)",
        "street": "Rua dos Lisiantos (P Ipês III)",
        "zipcode": "07791-040"
    },
    {
        "city": "Cajamar",
        "state": "SP",
        "district": "Portais (Polvilho)",
        "street": "Rua das Camélias (P Ipês II)",
        "zipcode": "07790-755"
    },
    {
        "city": "Cajamar",
        "state": "SP",
        "district": "Portais (Polvilho)",
        "street": "Rua das Citronelas (P Ipês III)",
        "zipcode": "07791-105"
    },
    {
        "city": "Cajamar",
        "state": "SP",
        "district": "Polvilho (Polvilho)",
        "street": "Rua José Roberto Pereira (Jd Sta Clara)",
        "zipcode": "07790-635"
    },
    {
        "city": "Cajamar",
        "state": "SP",
        "district": "Portais (Polvilho)",
        "street": "Rua das Gérberas (P Ipês II)",
        "zipcode": "07790-790"
    },
    {
        "city": "Cajamar",
        "state": "SP",
        "district": "Portais (Polvilho)",
        "street": "Rua das Orquídeas (P Ipês II)",
        "zipcode": "07790-815"
    },
    {
        "city": "Cajamar",
        "state": "SP",
        "district": "Alpes dos Araçás (Jordanésia)",
        "street": "Rua Esparta (V Scorpios II)",
        "zipcode": "07788-035"
    },
    {
        "city": "Cajamar",
        "state": "SP",
        "district": "Portais (Polvilho)",
        "street": "Rua das Moréias (P Ipês III)",
        "zipcode": "07791-015"
    },
    {
        "city": "Cajamar",
        "state": "SP",
        "district": "Panorama (Polvilho)",
        "street": "Rua Gilberto de Carvalho",
        "zipcode": "07792-355"
    },
    {
        "city": "Cajamar",
        "state": "SP",
        "district": "Ipês (Polvilho)",
        "street": "Rua Jean Anastace Kovelis",
        "zipcode": "07791-803"
    },
    {
        "city": "Cajamar",
        "state": "SP",
        "district": "Ipês (Polvilho)",
        "street": "Rua Takaharu Urano",
        "zipcode": "07791-695"
    },
    {
        "city": "Cajamar",
        "state": "SP",
        "district": "Panorama (Polvilho)",
        "street": "Rua Teodoro Sampaio (Jd Adelaide)",
        "zipcode": "07792-710"
    },
    {
        "city": "Cajamar",
        "state": "SP",
        "district": "Ipês (Polvilho)",
        "street": "Rua Cedral",
        "zipcode": "07791-884"
    },
    {
        "city": "Cajamar",
        "state": "SP",
        "district": "Ipês (Polvilho)",
        "street": "Rua Cedral",
        "zipcode": "07791-893"
    },
    {
        "city": "Cajamar",
        "state": "SP",
        "district": "Panorama (Polvilho)",
        "street": "Rua Flórida Paulista",
        "zipcode": "07792-420"
    },
    {
        "city": "Cajamar",
        "state": "SP",
        "district": "Panorama (Polvilho)",
        "street": "Rua Flórida Paulista",
        "zipcode": "07792-435"
    },
    {
        "city": "Cajamar",
        "state": "SP",
        "district": "Portais (Polvilho)",
        "street": "Rua dos Flox",
        "zipcode": "07791-030"
    },
    {
        "city": "Cajamar",
        "state": "SP",
        "district": "Aldeia do Sol (Polvilho)",
        "street": "Rua Cedral",
        "zipcode": "07792-000"
    },
    {
        "city": "Cajamar",
        "state": "SP",
        "district": "Aldeia do Sol (Polvilho)",
        "street": "Rua Caramuru (Jd Jurupari)",
        "zipcode": "07792-010"
    },
    {
        "city": "Cajamar",
        "state": "SP",
        "district": "Portais (Polvilho)",
        "street": "Rua das Vincas (P Ipês III)",
        "zipcode": "07791-245"
    },
    {
        "city": "Cajamar",
        "state": "SP",
        "district": "Aldeia do Sol (Polvilho)",
        "street": "Rua Corina Gianini (Bsq Sol)",
        "zipcode": "07792-215"
    },
    {
        "city": "Cajamar",
        "state": "SP",
        "district": "Portais (Polvilho)",
        "street": "Rua das Malvas (P Ipês III)",
        "zipcode": "07791-240"
    },
    {
        "city": "Cajamar",
        "state": "SP",
        "district": "Panorama (Polvilho)",
        "street": "Rua Josué Lemes de Lima (Prq Panorama I)",
        "zipcode": "07792-340"
    },
    {
        "city": "Cajamar",
        "state": "SP",
        "district": "Aldeia do Sol (Polvilho)",
        "street": "Rua Guarani (Jd Jurupari)",
        "zipcode": "07792-060"
    },
    {
        "city": "Cajamar",
        "state": "SP",
        "district": "Portais (Polvilho)",
        "street": "Rua das Caliandras (P Ipês III)",
        "zipcode": "07791-200"
    },
    {
        "city": "Cajamar",
        "state": "SP",
        "district": "Ipês (Polvilho)",
        "street": "Rua das Margaridas (Prq Res Cajamar)",
        "zipcode": "07791-790"
    },
    {
        "city": "Cajamar",
        "state": "SP",
        "district": "Portais (Polvilho)",
        "street": "Rua Sapucáia (P Ipês III)",
        "zipcode": "07791-205"
    },
    {
        "city": "Cajamar",
        "state": "SP",
        "district": "Aldeia do Sol (Polvilho)",
        "street": "Rua Ubirajara (Jd Jurupari)",
        "zipcode": "07792-090"
    },
    {
        "city": "Cajamar",
        "state": "SP",
        "district": "Aldeia do Sol (Polvilho)",
        "street": "Rua Pajé (Jd Jurupari)",
        "zipcode": "07792-070"
    },
    {
        "city": "Cajamar",
        "state": "SP",
        "district": "São Luiz (Polvilho)",
        "street": "Rua Ipeúna (Jd Primavera I)",
        "zipcode": "07793-360"
    },
    {
        "city": "Cajamar",
        "state": "SP",
        "district": "Ipês (Polvilho)",
        "street": "Rua das Acácias (P Ipês I)",
        "zipcode": "07791-605"
    },
    {
        "city": "Cajamar",
        "state": "SP",
        "district": "Aldeia do Sol (Polvilho)",
        "street": "Rua Druzolina Amud (Bsq Sol)",
        "zipcode": "07792-250"
    },
    {
        "city": "Cajamar",
        "state": "SP",
        "district": "Ipês (Polvilho)",
        "street": "Rua dos Jasmins (P Ipês I)",
        "zipcode": "07791-635"
    },
    {
        "city": "Cajamar",
        "state": "SP",
        "district": "Ipês (Polvilho)",
        "street": "Rua das Gardênias (P Ipês I)",
        "zipcode": "07791-690"
    },
    {
        "city": "Cajamar",
        "state": "SP",
        "district": "Ipês (Polvilho)",
        "street": "Rua das Palmas (P Ipês I)",
        "zipcode": "07791-655"
    },
    {
        "city": "Cajamar",
        "state": "SP",
        "district": "Ipês (Polvilho)",
        "street": "Avenida Ayrton Senna (Prq Res Cajamar)",
        "zipcode": "07791-780"
    },
    {
        "city": "Cajamar",
        "state": "SP",
        "district": "Portais (Polvilho)",
        "street": "Rua das Cerejeiras (P Ipês III)",
        "zipcode": "07791-255"
    },
    {
        "city": "Cajamar",
        "state": "SP",
        "district": "Ipês (Polvilho)",
        "street": "Rua das Íris (P Ipês I)",
        "zipcode": "07791-630"
    },
    {
        "city": "Cajamar",
        "state": "SP",
        "district": "Portais (Polvilho)",
        "street": "Rua das Estrelícias (P Ipês III)",
        "zipcode": "07791-275"
    },
    {
        "city": "Cajamar",
        "state": "SP",
        "district": "Aldeia do Sol (Polvilho)",
        "street": "Rua Ângela Poleto (Bsq Sol)",
        "zipcode": "07792-230"
    },
    {
        "city": "Cajamar",
        "state": "SP",
        "district": "Portais (Polvilho)",
        "street": "Rua dos Jatobás (P Ipês III)",
        "zipcode": "07791-215"
    },
    {
        "city": "Cajamar",
        "state": "SP",
        "district": "Aldeia do Sol (Polvilho)",
        "street": "Rua Luiz Magri (Bsq Sol)",
        "zipcode": "07792-225"
    },
    {
        "city": "Cajamar",
        "state": "SP",
        "district": "Ipês (Polvilho)",
        "street": "Rua das Magnólias (P Ipês I)",
        "zipcode": "07791-685"
    },
    {
        "city": "Cajamar",
        "state": "SP",
        "district": "Aldeia do Sol (Polvilho)",
        "street": "Rua Tibiriça (Jd Jurupari)",
        "zipcode": "07792-040"
    },
    {
        "city": "Cajamar",
        "state": "SP",
        "district": "Panorama (Polvilho)",
        "street": "Rua Detulina (Prq Panorama I)",
        "zipcode": "07792-365"
    },
    {
        "city": "Cajamar",
        "state": "SP",
        "district": "Portais (Polvilho)",
        "street": "Rua das Nogueiras (P Ipês III)",
        "zipcode": "07791-210"
    },
    {
        "city": "Cajamar",
        "state": "SP",
        "district": "Aldeia do Sol (Polvilho)",
        "street": "Rua Atílio Poleto (Bsq Sol)",
        "zipcode": "07792-260"
    },
    {
        "city": "Cajamar",
        "state": "SP",
        "district": "Aldeia do Sol (Polvilho)",
        "street": "Rua Tupi (Jd Jurupari)",
        "zipcode": "07792-025"
    },
    {
        "city": "Cajamar",
        "state": "SP",
        "district": "Aldeia do Sol (Polvilho)",
        "street": "Rua Miguel Amud (Bsq Sol)",
        "zipcode": "07792-240"
    },
    {
        "city": "Cajamar",
        "state": "SP",
        "district": "Portais (Polvilho)",
        "street": "Rua dos Flox",
        "zipcode": "07791-060"
    },
    {
        "city": "Cajamar",
        "state": "SP",
        "district": "Ipês (Polvilho)",
        "street": "Rua das Tulipas (P Ipês I)",
        "zipcode": "07791-650"
    },
    {
        "city": "Cajamar",
        "state": "SP",
        "district": "Portais (Polvilho)",
        "street": "Rua das Aroeiras (P Ipês III)",
        "zipcode": "07791-220"
    },
    {
        "city": "Cajamar",
        "state": "SP",
        "district": "Ipês (Polvilho)",
        "street": "Rua dos Girassóis (P Ipês I)",
        "zipcode": "07791-620"
    },
    {
        "city": "Cajamar",
        "state": "SP",
        "district": "Ipês (Polvilho)",
        "street": "Rua Catiguá (Prq Panorama II)",
        "zipcode": "07791-866"
    },
    {
        "city": "Cajamar",
        "state": "SP",
        "district": "Panorama (Polvilho)",
        "street": "Rua Garça (Prq Panorama I)",
        "zipcode": "07792-370"
    },
    {
        "city": "Cajamar",
        "state": "SP",
        "district": "Aldeia do Sol (Polvilho)",
        "street": "Rua Emilia Magri (Bsq Sol)",
        "zipcode": "07792-210"
    },
    {
        "city": "Cajamar",
        "state": "SP",
        "district": "Aldeia do Sol (Polvilho)",
        "street": "Rua Curupira (Jd Jurupari)",
        "zipcode": "07792-050"
    },
    {
        "city": "Cajamar",
        "state": "SP",
        "district": "Aldeia do Sol (Polvilho)",
        "street": "Rua Tupã (Jd Jurupari)",
        "zipcode": "07792-015"
    },
    {
        "city": "Cajamar",
        "state": "SP",
        "district": "Ipês (Polvilho)",
        "street": "Rua Cezário Lage (Prq Panorama II)",
        "zipcode": "07791-875"
    },
    {
        "city": "Cajamar",
        "state": "SP",
        "district": "Aldeia do Sol (Polvilho)",
        "street": "Rua Cascavel (Jd Jurupari)",
        "zipcode": "07792-055"
    },
    {
        "city": "Cajamar",
        "state": "SP",
        "district": "Portais (Polvilho)",
        "street": "Rua das Imbaúbas (P Ipês III)",
        "zipcode": "07791-260"
    },
    {
        "city": "Cajamar",
        "state": "SP",
        "district": "Panorama (Polvilho)",
        "street": "Avenida Tenente Marques",
        "zipcode": "07792-820"
    },
    {
        "city": "Cajamar",
        "state": "SP",
        "district": "São Luiz (Polvilho)",
        "street": "Avenida Tenente Marques",
        "zipcode": "07793-450"
    },
    {
        "city": "Cajamar",
        "state": "SP",
        "district": "Panorama (Polvilho)",
        "street": "Rua Takaharu Urano",
        "zipcode": "07792-730"
    },
    {
        "city": "Cajamar",
        "state": "SP",
        "district": "Panorama (Polvilho)",
        "street": "Rua Taguaí (Jd Adelaide)",
        "zipcode": "07792-750"
    },
    {
        "city": "Cajamar",
        "state": "SP",
        "district": "Jardins (Polvilho)",
        "street": "Rua Guarulhos (Jd Carolina)",
        "zipcode": "07793-155"
    },
    {
        "city": "Cajamar",
        "state": "SP",
        "district": "Jardins (Polvilho)",
        "street": "Rua Iacanga (Jd Carolina)",
        "zipcode": "07793-170"
    },
    {
        "city": "Cajamar",
        "state": "SP",
        "district": "Jardins (Polvilho)",
        "street": "Rua Ibiúna (Jd Carolina)",
        "zipcode": "07793-175"
    },
    {
        "city": "Cajamar",
        "state": "SP",
        "district": "Jardins (Polvilho)",
        "street": "Rua Osvaldo Vallejo (Jd Carolina)",
        "zipcode": "07793-180"
    },
    {
        "city": "Cajamar",
        "state": "SP",
        "district": "Jardins (Polvilho)",
        "street": "Rua Sete Barras (Jd Mariana)",
        "zipcode": "07793-190"
    },
    {
        "city": "Cajamar",
        "state": "SP",
        "district": "Jardins (Polvilho)",
        "street": "Rua Socorro (Jd Mariana)",
        "zipcode": "07793-195"
    },
    {
        "city": "Cajamar",
        "state": "SP",
        "district": "Jardins (Polvilho)",
        "street": "Rua Tietê",
        "zipcode": "07793-270"
    },
    {
        "city": "Cajamar",
        "state": "SP",
        "district": "São Luiz (Polvilho)",
        "street": "Rua Belmiro Campos Cortez (Jd São Luiz)",
        "zipcode": "07793-425"
    },
    {
        "city": "Cajamar",
        "state": "SP",
        "district": "São Luiz (Polvilho)",
        "street": "Rua Engenheiro Sérgio Shigueru Harada (Vl Planalto)",
        "zipcode": "07793-455"
    },
    {
        "city": "Cajamar",
        "state": "SP",
        "district": "São Luiz (Polvilho)",
        "street": "Rua Novo Horizonte (Vl Planalto)",
        "zipcode": "07793-465"
    },
    {
        "city": "Cajamar",
        "state": "SP",
        "district": "São Luiz (Polvilho)",
        "street": "Rua Pedregulho (Vl Planalto)",
        "zipcode": "07793-480"
    },
    {
        "city": "Cajamar",
        "state": "SP",
        "district": "Jardins (Polvilho)",
        "street": "Rua Geferson Silva Sousa (Jd Carolina)",
        "zipcode": "07793-165"
    },
    {
        "city": "Cajamar",
        "state": "SP",
        "district": "Ipês (Polvilho)",
        "street": "Rua das Bromélias (P Ipês I)",
        "zipcode": "07791-625"
    },
    {
        "city": "Cajamar",
        "state": "SP",
        "district": "Ipês (Polvilho)",
        "street": "Rua das Petúnias (P Ipes I)",
        "zipcode": "07791-673"
    },
    {
        "city": "Cajamar",
        "state": "SP",
        "district": "Panorama (Polvilho)",
        "street": "Rua Boracéia (Prq Jaraguá)",
        "zipcode": "07793-075"
    },
    {
        "city": "Cajamar",
        "state": "SP",
        "district": "São Luiz (Polvilho)",
        "street": "Rua Itobi (Jd Primavera I)",
        "zipcode": "07793-400"
    },
    {
        "city": "Cajamar",
        "state": "SP",
        "district": "Jardins (Polvilho)",
        "street": "Rua Juquitiba (Vl Tavares)",
        "zipcode": "07793-230"
    },
    {
        "city": "Cajamar",
        "state": "SP",
        "district": "Panorama (Polvilho)",
        "street": "Rua Franca (Prq Panorama I)",
        "zipcode": "07792-425"
    },
    {
        "city": "Cajamar",
        "state": "SP",
        "district": "São Luiz (Polvilho)",
        "street": "Rua Irapuã (Jd Primavera I)",
        "zipcode": "07793-390"
    },
    {
        "city": "Cajamar",
        "state": "SP",
        "district": "São Luiz (Polvilho)",
        "street": "Rua Ipiguá (Jd Primavera I)",
        "zipcode": "07793-410"
    },
    {
        "city": "Cajamar",
        "state": "SP",
        "district": "Panorama (Polvilho)",
        "street": "Rua João Moraes Tavares (Jd Maringá)",
        "zipcode": "07792-830"
    },
    {
        "city": "Cajamar",
        "state": "SP",
        "district": "Ponunduva",
        "street": "Estrada José Francisco de Souza",
        "zipcode": "07766-350"
    },
    {
        "city": "Cajamar",
        "state": "SP",
        "district": "Panorama (Polvilho)",
        "street": "Rua Gastão Vidigal (Prq Panorama I)",
        "zipcode": "07792-395"
    },
    {
        "city": "Cajamar",
        "state": "SP",
        "district": "São Luiz (Polvilho)",
        "street": "Rua Itaóca (Jd Primavera I)",
        "zipcode": "07793-385"
    },
    {
        "city": "Cajamar",
        "state": "SP",
        "district": "Jardins (Polvilho)",
        "street": "Rua Mairinque (Vl Tavares)",
        "zipcode": "07793-225"
    },
    {
        "city": "Cajamar",
        "state": "SP",
        "district": "Panorama (Polvilho)",
        "street": "Rua Geraldo Martins Freitas (Prq Panorama I)",
        "zipcode": "07792-440"
    },
    {
        "city": "Cajamar",
        "state": "SP",
        "district": "Panorama (Polvilho)",
        "street": "Rua Cândido Rodrigues (Jd Maringá)",
        "zipcode": "07792-855"
    },
    {
        "city": "Cajamar",
        "state": "SP",
        "district": "São Luiz (Polvilho)",
        "street": "Rua Hayako Yamauchi (Jd São Luiz)",
        "zipcode": "07793-440"
    },
    {
        "city": "Cajamar",
        "state": "SP",
        "district": "Panorama (Polvilho)",
        "street": "Rua Milck Félix (Prq Panorama I)",
        "zipcode": "07792-430"
    },
    {
        "city": "Cajamar",
        "state": "SP",
        "district": "Jardins (Polvilho)",
        "street": "Via de Circulação Um (F Ville)",
        "zipcode": "07793-125"
    },
    {
        "city": "Cajamar",
        "state": "SP",
        "district": "Panorama (Polvilho)",
        "street": "Rua Gália (Prq Panorama I)",
        "zipcode": "07792-380"
    },
    {
        "city": "Cajamar",
        "state": "SP",
        "district": "Panorama (Polvilho)",
        "street": "Rua Boituva (Prq Jaraguá)",
        "zipcode": "07793-090"
    },
    {
        "city": "Cajamar",
        "state": "SP",
        "district": "Panorama (Polvilho)",
        "street": "Rua Borborema (Prq Jaraguá)",
        "zipcode": "07793-080"
    },
    {
        "city": "Cajamar",
        "state": "SP",
        "district": "Panorama (Polvilho)",
        "street": "Rua Bofete (Prq Jaraguá)",
        "zipcode": "07793-095"
    },
    {
        "city": "Cajamar",
        "state": "SP",
        "district": "Panorama (Polvilho)",
        "street": "Rua Bilac (Prq Jaraguá)",
        "zipcode": "07793-025"
    },
    {
        "city": "Cajamar",
        "state": "SP",
        "district": "São Luiz (Polvilho)",
        "street": "Rua Iperó (Jd Primavera I)",
        "zipcode": "07793-365"
    },
    {
        "city": "Cajamar",
        "state": "SP",
        "district": "Jardins (Polvilho)",
        "street": "Via de Circulação Três (F Ville)",
        "zipcode": "07793-135"
    },
    {
        "city": "Cajamar",
        "state": "SP",
        "district": "Jardins (Polvilho)",
        "street": "Rua Itapecerica da Serra (Vl Tavares)",
        "zipcode": "07793-220"
    },
    {
        "city": "Cajamar",
        "state": "SP",
        "district": "Panorama (Polvilho)",
        "street": "Rua Bernadino de Campos (Prq Jaraguá)",
        "zipcode": "07793-020"
    },
    {
        "city": "Cajamar",
        "state": "SP",
        "district": "Panorama (Polvilho)",
        "street": "Rua Cândido Mota (Jd Maringá)",
        "zipcode": "07792-850"
    },
    {
        "city": "Cajamar",
        "state": "SP",
        "district": "São Luiz (Polvilho)",
        "street": "Rua Itapuí (Jd Primavera I)",
        "zipcode": "07793-395"
    },
    {
        "city": "Cajamar",
        "state": "SP",
        "district": "Panorama (Polvilho)",
        "street": "Rua Borá (Prq Jaraguá)",
        "zipcode": "07793-070"
    },
    {
        "city": "Cajamar",
        "state": "SP",
        "district": "Panorama (Polvilho)",
        "street": "Rua Tejupá (Jd Adelaide)",
        "zipcode": "07792-745"
    },
    {
        "city": "Cajamar",
        "state": "SP",
        "district": "Panorama (Polvilho)",
        "street": "Rua Bento de Abreu (Prq Jaraguá)",
        "zipcode": "07793-010"
    },
    {
        "city": "Cajamar",
        "state": "SP",
        "district": "Panorama (Polvilho)",
        "street": "Rua Capão Bonito (Jd Maringá)",
        "zipcode": "07792-865"
    },
    {
        "city": "Cajamar",
        "state": "SP",
        "district": "São Luiz (Polvilho)",
        "street": "Rua Itajú (Jd Primavera I)",
        "zipcode": "07793-370"
    },
    {
        "city": "Cajamar",
        "state": "SP",
        "district": "Panorama (Polvilho)",
        "street": "Rua Bebedouro (Prq Jaraguá)",
        "zipcode": "07793-000"
    },
    {
        "city": "Cajamar",
        "state": "SP",
        "district": "Panorama (Polvilho)",
        "street": "Rua Getulina (Prq Panorama I)",
        "zipcode": "07792-410"
    },
    {
        "city": "Cajamar",
        "state": "SP",
        "district": "Panorama (Polvilho)",
        "street": "Rua Birigui (Prq Jaraguá)",
        "zipcode": "07793-030"
    },
    {
        "city": "Cajamar",
        "state": "SP",
        "district": "São Luiz (Polvilho)",
        "street": "Rua Irapurú (Jd Primavera I)",
        "zipcode": "07793-380"
    },
    {
        "city": "Cajamar",
        "state": "SP",
        "district": "Cristais (Jordanésia)",
        "street": "Avenida Doutor Antonio João Abdalla",
        "zipcode": "07776-900"
    },
    {
        "city": "Cajamar",
        "state": "SP",
        "district": "Torres (Jordanésia)",
        "street": "Rua Crispim",
        "zipcode": "07779-720"
    },
    {
        "city": "Cajamar",
        "state": "SP",
        "district": "Paraíso (Polvilho)",
        "street": "Rua Vereador José Rangel de Mesquita",
        "zipcode": "07793-835"
    },
    {
        "city": "Cajamar",
        "state": "SP",
        "district": "Paraíso (Polvilho)",
        "street": "Avenida Tenente Marques",
        "zipcode": "07793-620"
    },
    {
        "city": "Cajamar",
        "state": "SP",
        "district": "Jordanésia (Jordanésia)",
        "street": "Avenida Antonio Cândido Machado",
        "zipcode": "07776-195"
    },
    {
        "city": "Cajamar",
        "state": "SP",
        "district": "Ponunduva",
        "street": "Estrada Flávio Beneducce",
        "zipcode": "07766-300"
    },
    {
        "city": "Cajamar",
        "state": "SP",
        "district": "São Luiz (Polvilho)",
        "street": "Rua Alan Conceição da Hora (Vl Planalto)",
        "zipcode": "07793-475"
    },
    {
        "city": "Cajamar",
        "state": "SP",
        "district": "Paraíso (Polvilho)",
        "street": "Rua José Misael Hermínio da Silva (Jd Santana)",
        "zipcode": "07793-570"
    },
    {
        "city": "Cajamar",
        "state": "SP",
        "district": "Paraíso (Polvilho)",
        "street": "Rua Dracena (Jd Santana)",
        "zipcode": "07793-575"
    },
    {
        "city": "Cajamar",
        "state": "SP",
        "district": "Paraíso (Polvilho)",
        "street": "Rua Constantino Francisco de Almeida (Jd Santana)",
        "zipcode": "07793-580"
    },
    {
        "city": "Cajamar",
        "state": "SP",
        "district": "Paraíso (Polvilho)",
        "street": "Rua Gonçalinha Dantas de Oliveira (Ch N Cajamar)",
        "zipcode": "07793-630"
    },
    {
        "city": "Cajamar",
        "state": "SP",
        "district": "Paraíso (Polvilho)",
        "street": "Rua Irmã Daria Moreira (Ch N Cajamar)",
        "zipcode": "07793-645"
    },
    {
        "city": "Cajamar",
        "state": "SP",
        "district": "Paraíso (Polvilho)",
        "street": "Rua Carapicuiba (Jd Ten Marques)",
        "zipcode": "07793-695"
    },
    {
        "city": "Cajamar",
        "state": "SP",
        "district": "Paraíso (Polvilho)",
        "street": "Rua Cardoso (Jd Ten Marques)",
        "zipcode": "07793-700"
    },
    {
        "city": "Cajamar",
        "state": "SP",
        "district": "Paraíso (Polvilho)",
        "street": "Rua Capivari (Jd Ten Marques)",
        "zipcode": "07793-710"
    },
    {
        "city": "Cajamar",
        "state": "SP",
        "district": "Paraíso (Polvilho)",
        "street": "Rua Capela do Alto (Jd Ten Marques)",
        "zipcode": "07793-715"
    },
    {
        "city": "Cajamar",
        "state": "SP",
        "district": "Empresarial Colina",
        "street": "Avenida Doutor Antonio João Abdalla",
        "zipcode": "07750-973"
    },
    {
        "city": "Cajamar",
        "state": "SP",
        "district": "Água Fria",
        "street": "Viela Um (Vl Progresso)",
        "zipcode": "07752-185"
    },
    {
        "city": "Cajamar",
        "state": "SP",
        "district": "Empresarial Paineira (Jordanésia)",
        "street": "Avenida Ribeirão dos Cristais",
        "zipcode": "07775-901"
    },
    {
        "city": "Cajamar",
        "state": "SP",
        "district": "Serra dos Lagos (Jordanésia)",
        "street": "Rua Londres (C Ville IV)",
        "zipcode": "07781-050"
    },
    {
        "city": "Cajamar",
        "state": "SP",
        "district": "Paraíso (Polvilho)",
        "street": "Rua Caiva (Prq M Aparecida)",
        "zipcode": "07793-830"
    },
    {
        "city": "Cajamar",
        "state": "SP",
        "district": "Empresarial Paineira (Jordanésia)",
        "street": "Avenida Alfonso Leopoldo Vogel",
        "zipcode": "07776-035"
    },
    {
        "city": "Cajamar",
        "state": "SP",
        "district": "Paraíso (Polvilho)",
        "street": "Avenida das Juritis (Prq Pinheiros)",
        "zipcode": "07793-530"
    },
    {
        "city": "Cajamar",
        "state": "SP",
        "district": "Ponunduva",
        "street": "Rua dos Papagaios (Prq Alvorada II)",
        "zipcode": "07768-280"
    },
    {
        "city": "Cajamar",
        "state": "SP",
        "district": "São Luiz (Polvilho)",
        "street": "Rua Arthur Tomé Tavares (Vl Planalto)",
        "zipcode": "07793-460"
    },
    {
        "city": "Cajamar",
        "state": "SP",
        "district": "Paraíso (Polvilho)",
        "street": "Rua dos Sabiás (Prq Pinheiros)",
        "zipcode": "07793-545"
    },
    {
        "city": "Cajamar",
        "state": "SP",
        "district": "Altos de Jordanésia (Jordanésia)",
        "street": "Avenida Domingo Alonso Lopez",
        "zipcode": "07786-970"
    },
    {
        "city": "Cajamar",
        "state": "SP",
        "district": "Paraíso (Polvilho)",
        "street": "Rua Fernando Prestes (Prq Paraíso)",
        "zipcode": "07794-055"
    },
    {
        "city": "Cajamar",
        "state": "SP",
        "district": "Paraíso (Polvilho)",
        "street": "Rua Coronel Macedo (Prq Paraíso)",
        "zipcode": "07794-080"
    },
    {
        "city": "Cajamar",
        "state": "SP",
        "district": "Paraíso (Polvilho)",
        "street": "Rua Clementina (Prq Paraíso)",
        "zipcode": "07794-115"
    },
    {
        "city": "Cajamar",
        "state": "SP",
        "district": "Paraíso (Polvilho)",
        "street": "Rua das Andorinhas (Prq Pinheiros)",
        "zipcode": "07793-535"
    },
    {
        "city": "Cajamar",
        "state": "SP",
        "district": "Ponunduva",
        "street": "Rua Santa Helena (Prq Alvorada)",
        "zipcode": "07768-390"
    },
    {
        "city": "Cajamar",
        "state": "SP",
        "district": "Polvilho (Polvilho)",
        "street": "Rua Creusa Ferreira Lima de Souza Araújo",
        "zipcode": "07790-971"
    },
    {
        "city": "Cajamar",
        "state": "SP",
        "district": "Paraíso (Polvilho)",
        "street": "Rua Desdemona da Conceição de Morais (Prq M Aparecida)",
        "zipcode": "07793-845"
    },
    {
        "city": "Cajamar",
        "state": "SP",
        "district": "Paraíso (Polvilho)",
        "street": "Rua Campinas (Prq M Aparecida)",
        "zipcode": "07793-875"
    },
    {
        "city": "Cajamar",
        "state": "SP",
        "district": "Paraíso (Polvilho)",
        "street": "Rua Corumbataí (Prq Paraíso)",
        "zipcode": "07794-040"
    },
    {
        "city": "Cajamar",
        "state": "SP",
        "district": "Ponunduva",
        "street": "Rua Neves Paulista (Vle Nascentes)",
        "zipcode": "07769-045"
    },
    {
        "city": "Cajamar",
        "state": "SP",
        "district": "Paraíso (Polvilho)",
        "street": "Rua Estrela do Norte (Prq Paraíso)",
        "zipcode": "07794-085"
    },
    {
        "city": "Cajamar",
        "state": "SP",
        "district": "Serra dos Lagos (Jordanésia)",
        "street": "Rua Bruxelas (C Ville IV)",
        "zipcode": "07781-055"
    },
    {
        "city": "Cajamar",
        "state": "SP",
        "district": "Serra dos Lagos (Jordanésia)",
        "street": "Rua Madri (C Ville IV)",
        "zipcode": "07781-075"
    },
    {
        "city": "Cajamar",
        "state": "SP",
        "district": "Paraíso (Polvilho)",
        "street": "Rua Altinópolis (Ch N Cajamar)",
        "zipcode": "07793-655"
    },
    {
        "city": "Cajamar",
        "state": "SP",
        "district": "Paraíso (Polvilho)",
        "street": "Rua Diadema (Jd Santana)",
        "zipcode": "07793-590"
    },
    {
        "city": "Cajamar",
        "state": "SP",
        "district": "Ponunduva",
        "street": "Rua Quatro (Ch Shangrila)",
        "zipcode": "07767-565"
    },
    {
        "city": "Cajamar",
        "state": "SP",
        "district": "Paraíso (Polvilho)",
        "street": "Rua dos Canários (Prq Pinheiros)",
        "zipcode": "07793-550"
    },
    {
        "city": "Cajamar",
        "state": "SP",
        "district": "Paraíso (Polvilho)",
        "street": "Rua Rosemiro Guedes (Prq Pinheiros)",
        "zipcode": "07793-540"
    },
    {
        "city": "Cajamar",
        "state": "SP",
        "district": "Paraíso (Polvilho)",
        "street": "Rua Cordeirópolis (Prq Paraíso)",
        "zipcode": "07794-100"
    },
    {
        "city": "Cajamar",
        "state": "SP",
        "district": "Centro",
        "street": "Travessa Ana Maria Gomes de Paula (Cimiga II)",
        "zipcode": "07750-685"
    },
    {
        "city": "Cajamar",
        "state": "SP",
        "district": "Empresarial Mirante de Cajamar (Polvilho)",
        "street": "Rua Padre Luiz Chrispim (Vl Granipavi)",
        "zipcode": "07790-440"
    },
    {
        "city": "Cajamar",
        "state": "SP",
        "district": "Paraíso (Polvilho)",
        "street": "Rua Aparecida Delfino de Morais (Prq M Aparecida)",
        "zipcode": "07793-880"
    },
    {
        "city": "Cajamar",
        "state": "SP",
        "district": "Polvilho (Polvilho)",
        "street": "Rua Creusa Ferreira Lima de Souza Araújo",
        "zipcode": "07790-970"
    },
    {
        "city": "Cajamar",
        "state": "SP",
        "district": "Serra dos Lagos (Jordanésia)",
        "street": "Rua Lisboa (C Ville IV)",
        "zipcode": "07781-085"
    },
    {
        "city": "Cajamar",
        "state": "SP",
        "district": "Serra dos Lagos (Jordanésia)",
        "street": "Rua Paris (C Ville IV)",
        "zipcode": "07781-090"
    },
    {
        "city": "Cajamar",
        "state": "SP",
        "district": "Centro",
        "street": "Rua Maria de Campos Fernandes (Vl Branca)",
        "zipcode": "07750-715"
    },
    {
        "city": "Cajamar",
        "state": "SP",
        "district": "Centro",
        "street": "Rua Dorva Banharo Salgueiro",
        "zipcode": "07750-770"
    },
    {
        "city": "Cajamar",
        "state": "SP",
        "district": "Altos de Jordanésia (Jordanésia)",
        "street": "Avenida Antonieta Pasquarelli Penteado (Jd Penteado)",
        "zipcode": "07786-515"
    },
    {
        "city": "Cajamar",
        "state": "SP",
        "district": "Ipês (Polvilho)",
        "street": "Avenida Tenente Marques",
        "zipcode": "07791-600"
    },
    {
        "city": "Cajamar",
        "state": "SP",
        "district": "Ipês (Polvilho)",
        "street": "Avenida Tenente Marques",
        "zipcode": "07791-700"
    },
    {
        "city": "Cajamar",
        "state": "SP",
        "district": "Altos de Jordanésia (Jordanésia)",
        "street": "Avenida Pedro Celestino Leite Penteado",
        "zipcode": "07786-480"
    },
    {
        "city": "Cajamar",
        "state": "SP",
        "district": "Jardins (Polvilho)",
        "street": "Rua Tupã (Jd Carolina)",
        "zipcode": "07793-150"
    },
    {
        "city": "Cajamar",
        "state": "SP",
        "district": "Jordanésia (Jordanésia)",
        "street": "Rua Eliana Ramires de Lima (Vl Américas)",
        "zipcode": "07776-220"
    },
    {
        "city": "Cajamar",
        "state": "SP",
        "district": "Empresarial Paineira (Jordanésia)",
        "street": "Avenida Doutor Antonio João Abdalla",
        "zipcode": "07776-050"
    },
    {
        "city": "Cajamar",
        "state": "SP",
        "district": "Paraíso (Polvilho)",
        "street": "Rua Descalvado (Jd Santana)",
        "zipcode": "07793-595"
    },
    {
        "city": "Cajamar",
        "state": "SP",
        "district": "Altos de Jordanésia (Jordanésia)",
        "street": "Rua Altair (Vl Abrão)",
        "zipcode": "07786-805"
    },
    {
        "city": "Cajamar",
        "state": "SP",
        "district": "Centro",
        "street": "Rua Antonio da Silva Esparrinha",
        "zipcode": "07750-971"
    },
    {
        "city": "Cajamar",
        "state": "SP",
        "district": "Empresarial Paoletti (Jordanésia)",
        "street": "Via de Acesso Norte Km 42.260 (Rod Anhanguera)",
        "zipcode": "07785-020"
    },
    {
        "city": "Cajamar",
        "state": "SP",
        "district": "Centro",
        "street": "Rua Francisco José dos Santos Filho",
        "zipcode": "07750-775"
    },
    {
        "city": "Cajamar",
        "state": "SP",
        "district": "Água Fria",
        "street": "Rua Boa Vista",
        "zipcode": "07752-005"
    },
    {
        "city": "Cajamar",
        "state": "SP",
        "district": "Panorama (Polvilho)",
        "street": "Rua Boa Esperança do Sul (Prq Jaraguá)",
        "zipcode": "07793-065"
    },
    {
        "city": "Cajamar",
        "state": "SP",
        "district": "Empresarial dos Eucaliptos",
        "street": "Rua Vitalina Maria da Conceição (Olaria)",
        "zipcode": "07764-335"
    },
    {
        "city": "Cajamar",
        "state": "SP",
        "district": "Portais (Polvilho)",
        "street": "Avenida das Avencas (P Ipês III)",
        "zipcode": "07791-080"
    },
    {
        "city": "Cajamar",
        "state": "SP",
        "district": "Alpes dos Araçás (Jordanésia)",
        "street": "Rua Rhodes (V Scorpios II)",
        "zipcode": "07788-000"
    },
    {
        "city": "Cajamar",
        "state": "SP",
        "district": "Ponunduva",
        "street": "Rua Lorena (Rec Primaveras)",
        "zipcode": "07767-425"
    },
    {
        "city": "Cajamar",
        "state": "SP",
        "district": "Centro",
        "street": "Rua Rodrigues Alves",
        "zipcode": "07750-755"
    },
    {
        "city": "Cajamar",
        "state": "SP",
        "district": "Colina Maria Luíza (Jordanésia)",
        "street": "Rua Holambra (Prq Res Jordanésia)",
        "zipcode": "07787-340"
    },
    {
        "city": "Cajamar",
        "state": "SP",
        "district": "Paraíso (Polvilho)",
        "street": "Rua Brodosqui (Rec S Jerônimo)",
        "zipcode": "07794-440"
    },
    {
        "city": "Cajamar",
        "state": "SP",
        "district": "Serra dos Lagos (Jordanésia)",
        "street": "Rua Porto Alegre (C Ville III)",
        "zipcode": "07781-390"
    },
    {
        "city": "Cajamar",
        "state": "SP",
        "district": "Paraíso (Polvilho)",
        "street": "Rua Sumaré (Jd Muriano)",
        "zipcode": "07794-220"
    },
    {
        "city": "Cajamar",
        "state": "SP",
        "district": "Vau Novo",
        "street": "Estrada Cajamar",
        "zipcode": "07762-005"
    },
    {
        "city": "Cajamar",
        "state": "SP",
        "district": "Paraíso (Polvilho)",
        "street": "Rua Cafelândia (Rec S Jerônimo)",
        "zipcode": "07794-385"
    },
    {
        "city": "Cajamar",
        "state": "SP",
        "district": "Colina Maria Luíza (Jordanésia)",
        "street": "Rua Alto Porã (Cj Hab Jd M Luiza)",
        "zipcode": "07787-550"
    },
    {
        "city": "Cajamar",
        "state": "SP",
        "district": "Empresarial dos Eucaliptos",
        "street": "Rua dos Cardeais (Olaria)",
        "zipcode": "07764-380"
    },
    {
        "city": "Cajamar",
        "state": "SP",
        "district": "Paraíso (Polvilho)",
        "street": "Avenida Bento da Silva Bueno",
        "zipcode": "07794-190"
    },
    {
        "city": "Cajamar",
        "state": "SP",
        "district": "Ponunduva",
        "street": "Rua Guarapiranga (Ch Rodeio)",
        "zipcode": "07767-150"
    },
    {
        "city": "Cajamar",
        "state": "SP",
        "district": "Paraíso (Polvilho)",
        "street": "Rua Bariri (Rec S Jerônimo)",
        "zipcode": "07794-420"
    },
    {
        "city": "Cajamar",
        "state": "SP",
        "district": "São Benedito (Jordanésia)",
        "street": "Rua São Pedro",
        "zipcode": "07778-755"
    },
    {
        "city": "Cajamar",
        "state": "SP",
        "district": "Alpes dos Araçás (Jordanésia)",
        "street": "Rua Atenas (V Scorpios I)",
        "zipcode": "07787-785"
    },
    {
        "city": "Cajamar",
        "state": "SP",
        "district": "Empresarial dos Eucaliptos",
        "street": "Avenida Doutor Antonio João Abdalla",
        "zipcode": "07763-020"
    },
    {
        "city": "Cajamar",
        "state": "SP",
        "district": "Panorama (Polvilho)",
        "street": "Rua Timburi (Jd Adelaide)",
        "zipcode": "07792-725"
    },
    {
        "city": "Cajamar",
        "state": "SP",
        "district": "Paraíso (Polvilho)",
        "street": "Rua Castilho (Ch N Cajamar)",
        "zipcode": "07793-650"
    },
    {
        "city": "Cajamar",
        "state": "SP",
        "district": "Panorama (Polvilho)",
        "street": "Rua Tremembé (Jd Adelaide)",
        "zipcode": "07792-740"
    },
    {
        "city": "Cajamar",
        "state": "SP",
        "district": "Panorama (Polvilho)",
        "street": "Rua General Salgado (Prq Panorama I)",
        "zipcode": "07792-405"
    },
    {
        "city": "Cajamar",
        "state": "SP",
        "district": "São Roberto (Jordanésia)",
        "street": "Rua Ourinhos (Prq S Roberto II)",
        "zipcode": "07787-125"
    },
    {
        "city": "Cajamar",
        "state": "SP",
        "district": "Serra dos Lagos (Jordanésia)",
        "street": "Rua Ametista (S Cristais)",
        "zipcode": "07781-230"
    },
    {
        "city": "Cajamar",
        "state": "SP",
        "district": "Água Fria",
        "street": "Rua Benedito Ribeiro (Jd Florim)",
        "zipcode": "07752-155"
    },
    {
        "city": "Cajamar",
        "state": "SP",
        "district": "Portais (Polvilho)",
        "street": "Rua Chuva de Prata (P Ipês III)",
        "zipcode": "07791-250"
    },
    {
        "city": "Cajamar",
        "state": "SP",
        "district": "Centro",
        "street": "Rua Isaías Pedroso de Oliveira (Cimiga II)",
        "zipcode": "07750-670"
    },
    {
        "city": "Cajamar",
        "state": "SP",
        "district": "Paraíso (Polvilho)",
        "street": "Rua Apiaí (Rec S Jerônimo)",
        "zipcode": "07794-435"
    },
    {
        "city": "Cajamar",
        "state": "SP",
        "district": "Ponunduva",
        "street": "Rua Dois (Ch Cpo Grande)",
        "zipcode": "07765-660"
    },
    {
        "city": "Cajamar",
        "state": "SP",
        "district": "Ponunduva",
        "street": "Rua Pedra Bela (Prq Bandeirantes)",
        "zipcode": "07768-430"
    },
    {
        "city": "Cajamar",
        "state": "SP",
        "district": "Empresarial Paineira (Jordanésia)",
        "street": "Estrada Gato Preto",
        "zipcode": "07775-200"
    },
    {
        "city": "Cajamar",
        "state": "SP",
        "district": "Empresarial Paineira (Jordanésia)",
        "street": "Avenida Ribeirão dos Cristais (G Preto)",
        "zipcode": "07775-240"
    },
    {
        "city": "Cajamar",
        "state": "SP",
        "district": "Jardins (Polvilho)",
        "street": "Rua Hiago Cavalcante de Oliveira (Vl Tavares)",
        "zipcode": "07793-215"
    },
    {
        "city": "Cajamar",
        "state": "SP",
        "district": "Santa Terezinha (Jordanésia)",
        "street": "Rua Ana Maria Tenório (Jd Sta Catarina)",
        "zipcode": "07786-445"
    },
    {
        "city": "Cajamar",
        "state": "SP",
        "district": "Centro",
        "street": "Rua Antonio da Silva Esparrinha",
        "zipcode": "07750-765"
    },
    {
        "city": "Cajamar",
        "state": "SP",
        "district": "Ponunduva",
        "street": "Rua Penápolis (Vle Nascentes)",
        "zipcode": "07769-055"
    },
    {
        "city": "Cajamar",
        "state": "SP",
        "district": "Paraíso (Polvilho)",
        "street": "Rua São Bernardo do Campo (Rec S Jerônimo)",
        "zipcode": "07794-380"
    },
    {
        "city": "Cajamar",
        "state": "SP",
        "district": "Empresarial Paoletti (Jordanésia)",
        "street": "Via de Acesso Norte Km 43.420 (Rod Anhanguera)",
        "zipcode": "07784-775"
    },
    {
        "city": "Cajamar",
        "state": "SP",
        "district": "Empresarial Anhanguera",
        "street": "Via de Acesso Norte Km 32.5 (Rod Anhanguera)",
        "zipcode": "07753-580"
    },
    {
        "city": "Cajamar",
        "state": "SP",
        "district": "Paraíso (Polvilho)",
        "street": "Rua Tatuí (Jd Muriano)",
        "zipcode": "07794-215"
    },
    {
        "city": "Cajamar",
        "state": "SP",
        "district": "Empresarial Anhanguera",
        "street": "Rua Presidente Prudente (A Prq Empresarial)",
        "zipcode": "07753-080"
    },
    {
        "city": "Cajamar",
        "state": "SP",
        "district": "Paraíso (Polvilho)",
        "street": "Rua Cotia (Prq Paraíso)",
        "zipcode": "07794-060"
    },
    {
        "city": "Cajamar",
        "state": "SP",
        "district": "Ponunduva",
        "street": "Rua Matão (V Danúbio)",
        "zipcode": "07767-660"
    },
    {
        "city": "Cajamar",
        "state": "SP",
        "district": "Centro",
        "street": "Rua Jove Manoel dos Santos",
        "zipcode": "07750-810"
    },
    {
        "city": "Cajamar",
        "state": "SP",
        "district": "Pinheiros",
        "street": "Estrada Prefeito Juvenal Ferreira dos Santos",
        "zipcode": "07757-300"
    },
    {
        "city": "Cajamar",
        "state": "SP",
        "district": "Ponunduva",
        "street": "Rua Pindamonhangaba (Prq Bandeirantes)",
        "zipcode": "07768-495"
    },
    {
        "city": "Cajamar",
        "state": "SP",
        "district": "Roseira (Jordanésia)",
        "street": "Via de Acesso Sul Km 44 (Rod dos Bandeirantes)",
        "zipcode": "07783-440"
    },
    {
        "city": "Cajamar",
        "state": "SP",
        "district": "Guaturinho",
        "street": "Rua Barueri",
        "zipcode": "07756-625"
    },
    {
        "city": "Cajamar",
        "state": "SP",
        "district": "Ponunduva",
        "street": "Alameda Gurudeva",
        "zipcode": "07766-400"
    },
    {
        "city": "Cajamar",
        "state": "SP",
        "district": "Ponunduva",
        "street": "Rua Marília (V Danúbio)",
        "zipcode": "07767-700"
    },
    {
        "city": "Cajamar",
        "state": "SP",
        "district": "Empresarial Anhanguera",
        "street": "Via de Acesso Pedreira (Rod Anhanguera)",
        "zipcode": "07753-600"
    },
    {
        "city": "Cajamar",
        "state": "SP",
        "district": "Vau Novo",
        "street": "Rua Araras (Rec Corizo)",
        "zipcode": "07762-255"
    },
    {
        "city": "Cajamar",
        "state": "SP",
        "district": "Empresarial Paineira (Jordanésia)",
        "street": "Rua Lucinda Santos Oliveira (Vl União)",
        "zipcode": "07775-865"
    },
    {
        "city": "Cajamar",
        "state": "SP",
        "district": "Paraíso (Polvilho)",
        "street": "Rua Sorocaba (Jd Muriano)",
        "zipcode": "07794-195"
    },
    {
        "city": "Cajamar",
        "state": "SP",
        "district": "Paraíso (Polvilho)",
        "street": "Rua Cosmópolis (Prq Paraíso)",
        "zipcode": "07794-065"
    },
    {
        "city": "Cajamar",
        "state": "SP",
        "district": "Santa Terezinha (Jordanésia)",
        "street": "Rua Vereador Francisco Lopes da Silva (Jd Sta Catarina)",
        "zipcode": "07786-430"
    },
    {
        "city": "Cajamar",
        "state": "SP",
        "district": "Serra dos Lagos (Jordanésia)",
        "street": "Rua Praia Grande (C Ville I)",
        "zipcode": "07781-735"
    },
    {
        "city": "Cajamar",
        "state": "SP",
        "district": "Água Fria",
        "street": "Viela Três (Vl Nova)",
        "zipcode": "07752-305"
    },
    {
        "city": "Cajamar",
        "state": "SP",
        "district": "Empresarial Colina",
        "street": "Avenida Doutor Antonio João Abdalla",
        "zipcode": "07750-977"
    },
    {
        "city": "Cajamar",
        "state": "SP",
        "district": "Empresarial Colina",
        "street": "Avenida Doutor Antonio João Abdalla",
        "zipcode": "07750-972"
    },
    {
        "city": "Cajamar",
        "state": "SP",
        "district": "Empresarial Colina",
        "street": "Avenida Doutor Antonio João Abdalla",
        "zipcode": "07750-974"
    },
    {
        "city": "Cajamar",
        "state": "SP",
        "district": "Empresarial Colina",
        "street": "Avenida Doutor Antonio João Abdalla",
        "zipcode": "07750-976"
    },
    {
        "city": "Cajamar",
        "state": "SP",
        "district": "São Luiz (Polvilho)",
        "street": "Viela Piqueti",
        "zipcode": "07793-463"
    },
    {
        "city": "Cajamar",
        "state": "SP",
        "district": "Cristais (Jordanésia)",
        "street": "Avenida Doutor Antonio João Abdalla",
        "zipcode": "07776-700"
    },
    {
        "city": "Cajamar",
        "state": "SP",
        "district": "São Benedito (Jordanésia)",
        "street": "Rua Vila Nova",
        "zipcode": "07778-710"
    },
    {
        "city": "Cajamar",
        "state": "SP",
        "district": "Empresarial Colina",
        "street": "Avenida Doutor Antonio João Abdalla",
        "zipcode": "07750-975"
    },
    {
        "city": "Cajamar",
        "state": "SP",
        "district": "Serra dos Lagos (Jordanésia)",
        "street": "Rua Roma (C Ville IV)",
        "zipcode": "07781-070"
    },
    {
        "city": "Cajamar",
        "state": "SP",
        "district": "Alpes dos Araçás (Jordanésia)",
        "street": "Rua Santorini (V Scorpios II)",
        "zipcode": "07788-025"
    },
    {
        "city": "Cajamar",
        "state": "SP",
        "district": "Serra dos Lagos (Jordanésia)",
        "street": "Rua Esmeralda (S Cristais)",
        "zipcode": "07781-180"
    },
    {
        "city": "Cajamar",
        "state": "SP",
        "district": "Vau Novo",
        "street": "Rua Ariranha (Rec Corizo)",
        "zipcode": "07762-250"
    },
    {
        "city": "Cajamar",
        "state": "SP",
        "district": "Ponunduva",
        "street": "Rua Indaiatuba (Ch Rodeio)",
        "zipcode": "07767-050"
    },
    {
        "city": "Cajamar",
        "state": "SP",
        "district": "Vau Novo",
        "street": "Rua Araraquara (Rec Corizo)",
        "zipcode": "07762-245"
    },
    {
        "city": "Cajamar",
        "state": "SP",
        "district": "Paraíso (Polvilho)",
        "street": "Rua Taubaté (Jd Muriano)",
        "zipcode": "07794-210"
    },
    {
        "city": "Cajamar",
        "state": "SP",
        "district": "Paraíso (Polvilho)",
        "street": "Rua José Isidro de Oliveira (Prq M Aparecida)",
        "zipcode": "07793-840"
    },
    {
        "city": "Cajamar",
        "state": "SP",
        "district": "Colina Maria Luíza (Jordanésia)",
        "street": "Rua Hortolândia (Prq Res Jordanésia)",
        "zipcode": "07787-325"
    },
    {
        "city": "Cajamar",
        "state": "SP",
        "district": "Serra dos Lagos (Jordanésia)",
        "street": "Estrada Francisco Missé",
        "zipcode": "07781-235"
    },
    {
        "city": "Cajamar",
        "state": "SP",
        "district": "Ponunduva",
        "street": "Rua Limeira (Vle Nascentes)",
        "zipcode": "07769-030"
    },
    {
        "city": "Cajamar",
        "state": "SP",
        "district": "Torres (Jordanésia)",
        "street": "Rua do Alto",
        "zipcode": "07779-710"
    },
    {
        "city": "Cajamar",
        "state": "SP",
        "district": "Jardins (Polvilho)",
        "street": "Rua Vereador João Cardoso",
        "zipcode": "07793-240"
    },
    {
        "city": "Cajamar",
        "state": "SP",
        "district": "Centro",
        "street": "Rua Alexandrino Pinto da Silva",
        "zipcode": "07750-760"
    },
    {
        "city": "Cajamar",
        "state": "SP",
        "district": "Ponunduva",
        "street": "Rua Taquaritinga (Clna Coqueirais)",
        "zipcode": "07768-870"
    },
    {
        "city": "Cajamar",
        "state": "SP",
        "district": "Aldeia do Sol (Polvilho)",
        "street": "Rua Cacique (Jd Jurupari)",
        "zipcode": "07792-020"
    },
    {
        "city": "Cajamar",
        "state": "SP",
        "district": "Polvilho (Polvilho)",
        "street": "Rua Creusa Ferreira Lima de Souza Araújo (Jd B Vista I)",
        "zipcode": "07790-580"
    },
    {
        "city": "Cajamar",
        "state": "SP",
        "district": "Altos de Jordanésia (Jordanésia)",
        "street": "Rua Itatiba (Jd Holanda)",
        "zipcode": "07786-835"
    },
    {
        "city": "Cajamar",
        "state": "SP",
        "district": "São Roberto (Jordanésia)",
        "street": "Rua das Sibipirunas (Prq S Roberto I)",
        "zipcode": "07787-015"
    },
    {
        "city": "Cajamar",
        "state": "SP",
        "district": "São Roberto (Jordanésia)",
        "street": "Rua Joanópolis (Prq S Roberto II)",
        "zipcode": "07787-105"
    },
    {
        "city": "Cajamar",
        "state": "SP",
        "district": "Serra dos Lagos (Jordanésia)",
        "street": "Rua Hematita (S Cristais)",
        "zipcode": "07781-225"
    },
    {
        "city": "Cajamar",
        "state": "SP",
        "district": "Altos de Jordanésia (Jordanésia)",
        "street": "Rua Angico (Jd Penteado)",
        "zipcode": "07786-490"
    },
    {
        "city": "Cajamar",
        "state": "SP",
        "district": "Jordanésia (Jordanésia)",
        "street": "Rua Seis (Vl Mariotti)",
        "zipcode": "07776-245"
    },
    {
        "city": "Cajamar",
        "state": "SP",
        "district": "Jordanésia (Jordanésia)",
        "street": "Rua Manuel Antonio Gomes (Cond Penteado)",
        "zipcode": "07776-410"
    },
    {
        "city": "Cajamar",
        "state": "SP",
        "district": "Jordanésia (Jordanésia)",
        "street": "Rua Prefeito Antonio Garrido (Cond Penteado)",
        "zipcode": "07776-425"
    },
    {
        "city": "Cajamar",
        "state": "SP",
        "district": "Empresarial Paineira (Jordanésia)",
        "street": "Rua Francisco Caetano de Moraes (Vl União)",
        "zipcode": "07775-860"
    },
    {
        "city": "Cajamar",
        "state": "SP",
        "district": "Panorama (Polvilho)",
        "street": "Rua Gilberto de Carvalho",
        "zipcode": "07792-720"
    },
    {
        "city": "Cajamar",
        "state": "SP",
        "district": "Paraíso (Polvilho)",
        "street": "Rua Vereador José Rangel de Mesquita",
        "zipcode": "07793-720"
    },
    {
        "city": "Cajamar",
        "state": "SP",
        "district": "Polvilho (Polvilho)",
        "street": "Rua Flademir Roberto Lopes (Jd Sta Clara)",
        "zipcode": "07790-615"
    },
    {
        "city": "Cajamar",
        "state": "SP",
        "district": "Polvilho (Polvilho)",
        "street": "Rua Américo de Campos (Jd Sta Clara)",
        "zipcode": "07790-625"
    },
    {
        "city": "Cajamar",
        "state": "SP",
        "district": "Colina Maria Luíza (Jordanésia)",
        "street": "Rua Andes (Cj Hab Jd M Luiza)",
        "zipcode": "07787-535"
    },
    {
        "city": "Cajamar",
        "state": "SP",
        "district": "Altos de Jordanésia (Jordanésia)",
        "street": "Avenida Arnaldo Rojek",
        "zipcode": "07786-540"
    },
    {
        "city": "Cajamar",
        "state": "SP",
        "district": "São Luiz (Polvilho)",
        "street": "Rua Ipuã (Jd Primavera I)",
        "zipcode": "07793-405"
    },
    {
        "city": "Cajamar",
        "state": "SP",
        "district": "Ponunduva",
        "street": "Rua Jandira (Prq N Lar)",
        "zipcode": "07768-030"
    },
    {
        "city": "Cajamar",
        "state": "SP",
        "district": "Polvilho (Polvilho)",
        "street": "Rua Cruzeiro (Jd S Pedro)",
        "zipcode": "07790-665"
    },
    {
        "city": "Cajamar",
        "state": "SP",
        "district": "Serra dos Lagos (Jordanésia)",
        "street": "Rua Goiânia (C Ville III)",
        "zipcode": "07781-435"
    },
    {
        "city": "Cajamar",
        "state": "SP",
        "district": "Serra dos Lagos (Jordanésia)",
        "street": "Rua Topázio (S Cristais)",
        "zipcode": "07781-220"
    },
    {
        "city": "Cajamar",
        "state": "SP",
        "district": "Jordanésia (Jordanésia)",
        "street": "Rua Doutor Antonio Leme Nunes Galvão (Vl Américas)",
        "zipcode": "07776-230"
    },
    {
        "city": "Cajamar",
        "state": "SP",
        "district": "Panorama (Polvilho)",
        "street": "Rua Campos do Jordão (Jd Maringá)",
        "zipcode": "07792-835"
    },
    {
        "city": "Cajamar",
        "state": "SP",
        "district": "Empresarial Anhanguera",
        "street": "Rua Osasco (A Prq Empresarial)",
        "zipcode": "07753-040"
    },
    {
        "city": "Cajamar",
        "state": "SP",
        "district": "Altos de Jordanésia (Jordanésia)",
        "street": "Rua Agudos (Vl Abrão)",
        "zipcode": "07786-800"
    },
    {
        "city": "Cajamar",
        "state": "SP",
        "district": "Paraíso (Polvilho)",
        "street": "Avenida Bento da Silva Bueno",
        "zipcode": "07793-665"
    },
    {
        "city": "Cajamar",
        "state": "SP",
        "district": "Ipês (Polvilho)",
        "street": "Rua dos Crisântemos (Prq Res Cajamar)",
        "zipcode": "07791-785"
    },
    {
        "city": "Cajamar",
        "state": "SP",
        "district": "Paraíso (Polvilho)",
        "street": "Avenida Bento da Silva Bueno",
        "zipcode": "07794-105"
    },
    {
        "city": "Cajamar",
        "state": "SP",
        "district": "São Roberto (Jordanésia)",
        "street": "Rua Antonio Azevedo (Prq S Roberto II)",
        "zipcode": "07787-110"
    },
    {
        "city": "Cajamar",
        "state": "SP",
        "district": "Altos de Jordanésia (Jordanésia)",
        "street": "Rua dos Patriotas (D. E. R. Jordanésia)",
        "zipcode": "07786-855"
    },
    {
        "city": "Cajamar",
        "state": "SP",
        "district": "Portais (Polvilho)",
        "street": "Rua das Palmeiras Real (P Ipês III)",
        "zipcode": "07791-070"
    },
    {
        "city": "Cajamar",
        "state": "SP",
        "district": "Serra dos Lagos (Jordanésia)",
        "street": "Rua São Luiz (C Ville III)",
        "zipcode": "07781-370"
    },
    {
        "city": "Cajamar",
        "state": "SP",
        "district": "São Benedito (Jordanésia)",
        "street": "Rua América Dourada",
        "zipcode": "07778-790"
    },
    {
        "city": "Cajamar",
        "state": "SP",
        "district": "Ipês (Polvilho)",
        "street": "Rua das Angélicas (P Ipês I)",
        "zipcode": "07791-675"
    },
    {
        "city": "Cajamar",
        "state": "SP",
        "district": "Empresarial Mirante de Cajamar (Polvilho)",
        "street": "Rua Silvério Augusto Tavares (Vl Granipavi)",
        "zipcode": "07790-485"
    },
    {
        "city": "Cajamar",
        "state": "SP",
        "district": "Portais (Polvilho)",
        "street": "Rua das Cravinas (P Ipês III)",
        "zipcode": "07791-190"
    },
    {
        "city": "Cajamar",
        "state": "SP",
        "district": "Serra dos Lagos (Jordanésia)",
        "street": "Rua Pradópolis (C Ville I)",
        "zipcode": "07781-750"
    },
    {
        "city": "Cajamar",
        "state": "SP",
        "district": "Portais (Polvilho)",
        "street": "Rua das Flores do Guarujá (P Ipês III)",
        "zipcode": "07791-235"
    },
    {
        "city": "Cajamar",
        "state": "SP",
        "district": "Paraíso (Polvilho)",
        "street": "Rua Fernandópolis (Ch N Cajamar)",
        "zipcode": "07793-635"
    },
    {
        "city": "Cajamar",
        "state": "SP",
        "district": "Empresarial Paineira (Jordanésia)",
        "street": "Avenida Antonio Cândido Machado",
        "zipcode": "07776-037"
    },
    {
        "city": "Cajamar",
        "state": "SP",
        "district": "Ponunduva",
        "street": "Rua Bertioga (Ch Rodeio)",
        "zipcode": "07767-025"
    },
    {
        "city": "Cajamar",
        "state": "SP",
        "district": "Altos de Jordanésia (Jordanésia)",
        "street": "Rua Votuporanga (Jd N Recanto)",
        "zipcode": "07786-875"
    },
    {
        "city": "Cajamar",
        "state": "SP",
        "district": "Ponunduva",
        "street": "Estrada Monte Serrat",
        "zipcode": "07768-310"
    },
    {
        "city": "Cajamar",
        "state": "SP",
        "district": "Ponunduva",
        "street": "Rua Ibitinga (Ch Rodeio)",
        "zipcode": "07767-080"
    },
    {
        "city": "Cajamar",
        "state": "SP",
        "district": "São Luiz (Polvilho)",
        "street": "Rua Itaí (Jd Primavera I)",
        "zipcode": "07793-375"
    },
    {
        "city": "Cajamar",
        "state": "SP",
        "district": "Ipês (Polvilho)",
        "street": "Rua Cerqueira César (Prq Panorama II)",
        "zipcode": "07791-839"
    },
    {
        "city": "Cajamar",
        "state": "SP",
        "district": "Serra dos Lagos (Jordanésia)",
        "street": "Rua Piratininga (C Ville I)",
        "zipcode": "07781-720"
    },
    {
        "city": "Cajamar",
        "state": "SP",
        "district": "Ponunduva",
        "street": "Rua Nova Odessa (Prq Alvorada)",
        "zipcode": "07768-405"
    },
    {
        "city": "Cajamar",
        "state": "SP",
        "district": "Serra dos Lagos (Jordanésia)",
        "street": "Rua Porto Ferreira (C Ville I)",
        "zipcode": "07781-755"
    },
    {
        "city": "Cajamar",
        "state": "SP",
        "district": "Altos de Jordanésia (Jordanésia)",
        "street": "Rua Itú (Jd Holanda)",
        "zipcode": "07786-825"
    },
    {
        "city": "Cajamar",
        "state": "SP",
        "district": "Paraíso (Polvilho)",
        "street": "Rua Chavantes (Prq Paraíso)",
        "zipcode": "07794-050"
    },
    {
        "city": "Cajamar",
        "state": "SP",
        "district": "Centro",
        "street": "Rua das Laranjeiras (Cimiga I)",
        "zipcode": "07750-650"
    },
    {
        "city": "Cajamar",
        "state": "SP",
        "district": "Vau Novo",
        "street": "Rua Aramina (Rec Corizo)",
        "zipcode": "07762-235"
    },
    {
        "city": "Cajamar",
        "state": "SP",
        "district": "Água Fria",
        "street": "Rua do Sesi",
        "zipcode": "07752-040"
    },
    {
        "city": "Cajamar",
        "state": "SP",
        "district": "Serra dos Lagos (Jordanésia)",
        "street": "Rua Paulo de Faria (C Ville I)",
        "zipcode": "07781-710"
    },
    {
        "city": "Cajamar",
        "state": "SP",
        "district": "Panorama (Polvilho)",
        "street": "Rua Cananéia (Jd Maringá)",
        "zipcode": "07792-860"
    },
    {
        "city": "Cajamar",
        "state": "SP",
        "district": "Serra dos Lagos (Jordanésia)",
        "street": "Rua Natal (C Ville III)",
        "zipcode": "07781-385"
    },
    {
        "city": "Cajamar",
        "state": "SP",
        "district": "Empresarial dos Eucaliptos",
        "street": "Estrada João Félix Domingues (Olaria)",
        "zipcode": "07764-320"
    },
    {
        "city": "Cajamar",
        "state": "SP",
        "district": "Empresarial Paoletti (Jordanésia)",
        "street": "Rua Eldorado",
        "zipcode": "07785-530"
    },
    {
        "city": "Cajamar",
        "state": "SP",
        "district": "Portais (Polvilho)",
        "street": "Avenida das Amoreiras (P Ipês II)",
        "zipcode": "07790-750"
    },
    {
        "city": "Cajamar",
        "state": "SP",
        "district": "Panorama (Polvilho)",
        "street": "Rua Francisco Augusto Lopes (Jd Adelaide)",
        "zipcode": "07792-715"
    },
    {
        "city": "Cajamar",
        "state": "SP",
        "district": "Paraíso (Polvilho)",
        "street": "Avenida Ângelo Muriano (Jd Muriano)",
        "zipcode": "07794-200"
    },
    {
        "city": "Cajamar",
        "state": "SP",
        "district": "Colina Maria Luíza (Jordanésia)",
        "street": "Avenida Braúna (Prq Res Jordanésia)",
        "zipcode": "07787-320"
    },
    {
        "city": "Cajamar",
        "state": "SP",
        "district": "Serra dos Lagos (Jordanésia)",
        "street": "Rua Turmalina (S Cristais)",
        "zipcode": "07781-185"
    },
    {
        "city": "Cajamar",
        "state": "SP",
        "district": "Empresarial Paoletti (Jordanésia)",
        "street": "Avenida Pedro Celestino Leite Penteado",
        "zipcode": "07785-540"
    },
    {
        "city": "Cajamar",
        "state": "SP",
        "district": "Ipês (Polvilho)",
        "street": "Rua das Hortências (P Ipês I)",
        "zipcode": "07791-680"
    },
    {
        "city": "Cajamar",
        "state": "SP",
        "district": "Portais (Polvilho)",
        "street": "Rua das Flores",
        "zipcode": "07790-860"
    },
    {
        "city": "Cajamar",
        "state": "SP",
        "district": "Colina Maria Luíza (Jordanésia)",
        "street": "Rua Anápolis (Cj Hab Jd M Luiza)",
        "zipcode": "07787-540"
    },
    {
        "city": "Cajamar",
        "state": "SP",
        "district": "Polvilho (Polvilho)",
        "street": "Rua José Domiciano de Lima (Jd B Vista I)",
        "zipcode": "07790-585"
    },
    {
        "city": "Cajamar",
        "state": "SP",
        "district": "Paraíso (Polvilho)",
        "street": "Rua Antonio Carlos Paiva Camelo (Prq M Aparecida)",
        "zipcode": "07793-870"
    },
    {
        "city": "Cajamar",
        "state": "SP",
        "district": "Alpes dos Araçás (Jordanésia)",
        "street": "Rua Tebas (V Scorpios II)",
        "zipcode": "07788-020"
    },
    {
        "city": "Cajamar",
        "state": "SP",
        "district": "Portais (Polvilho)",
        "street": "Rua dos Hibiscos (P Ipês III)",
        "zipcode": "07791-265"
    },
    {
        "city": "Cajamar",
        "state": "SP",
        "district": "Ponunduva",
        "street": "Rua Onda Verde (Vle Nascentes)",
        "zipcode": "07769-015"
    },
    {
        "city": "Cajamar",
        "state": "SP",
        "district": "Empresarial dos Eucaliptos",
        "street": "Rua dos Pavões (Olaria)",
        "zipcode": "07764-300"
    },
    {
        "city": "Cajamar",
        "state": "SP",
        "district": "Portais (Polvilho)",
        "street": "Rua das Allamandas (P Ipês III)",
        "zipcode": "07791-005"
    },
    {
        "city": "Cajamar",
        "state": "SP",
        "district": "Empresarial Paineira (Jordanésia)",
        "street": "Rua Guaimbe (M Dist Industrial)",
        "zipcode": "07776-005"
    },
    {
        "city": "Cajamar",
        "state": "SP",
        "district": "Empresarial dos Eucaliptos",
        "street": "Rua dos Coleirinhas (Olaria)",
        "zipcode": "07764-385"
    },
    {
        "city": "Cajamar",
        "state": "SP",
        "district": "Ponunduva",
        "street": "Rua dos Pardais (Prq Alvorada II)",
        "zipcode": "07768-250"
    },
    {
        "city": "Cajamar",
        "state": "SP",
        "district": "Santa Terezinha (Jordanésia)",
        "street": "Rua Vinte e Sete de Julho (Vl Vitória)",
        "zipcode": "07786-005"
    },
    {
        "city": "Cajamar",
        "state": "SP",
        "district": "Paraíso (Polvilho)",
        "street": "Rua Colina (Prq Paraíso)",
        "zipcode": "07794-075"
    },
    {
        "city": "Cajamar",
        "state": "SP",
        "district": "Ponunduva",
        "street": "Rua Santa Lúcia (Prq Alvorada)",
        "zipcode": "07768-375"
    },
    {
        "city": "Cajamar",
        "state": "SP",
        "district": "Água Fria",
        "street": "Praça José Rodrigues do Nascimento",
        "zipcode": "07752-060"
    },
    {
        "city": "Cajamar",
        "state": "SP",
        "district": "São Luiz (Polvilho)",
        "street": "Viela José Arnaldo de Sousa Feitosa (Vl Planalto)",
        "zipcode": "07793-464"
    },
    {
        "city": "Cajamar",
        "state": "SP",
        "district": "Empresarial dos Eucaliptos",
        "street": "Rua dos Albatrozes (Olaria)",
        "zipcode": "07764-390"
    },
    {
        "city": "Cajamar",
        "state": "SP",
        "district": "Ponunduva",
        "street": "Rua Mairiporã (Prq N Lar)",
        "zipcode": "07768-040"
    },
    {
        "city": "Cajamar",
        "state": "SP",
        "district": "Alpes dos Araçás (Jordanésia)",
        "street": "Travessa Rhodes (Cond S Residence)",
        "zipcode": "07787-630"
    },
    {
        "city": "Cajamar",
        "state": "SP",
        "district": "Empresarial Paoletti (Jordanésia)",
        "street": "Rua Lurdes Bueno da Silva (Sit S Luiz)",
        "zipcode": "07785-035"
    },
    {
        "city": "Cajamar",
        "state": "SP",
        "district": "Ponunduva",
        "street": "Estrada Benedito Procópio Missé (Rec Primaveras)",
        "zipcode": "07767-440"
    },
    {
        "city": "Cajamar",
        "state": "SP",
        "district": "Empresarial Anhanguera",
        "street": "Rua Serra Negra (A Prq Empresarial)",
        "zipcode": "07753-060"
    },
    {
        "city": "Cajamar",
        "state": "SP",
        "district": "Panorama (Polvilho)",
        "street": "Rua Gabriel Monteiro (Prq Panorama I)",
        "zipcode": "07792-385"
    },
    {
        "city": "Cajamar",
        "state": "SP",
        "district": "Portais (Polvilho)",
        "street": "Avenida dos Ipês (P Ipês II)",
        "zipcode": "07790-840"
    },
    {
        "city": "Cajamar",
        "state": "SP",
        "district": "Ponunduva",
        "street": "Rua Agenor Miguel Pereira (Prq Bandeirantes)",
        "zipcode": "07768-465"
    },
    {
        "city": "Cajamar",
        "state": "SP",
        "district": "Santa Terezinha (Jordanésia)",
        "street": "Rua Antonio Francisco de Souza (Sta Cruz)",
        "zipcode": "07786-195"
    },
    {
        "city": "Cajamar",
        "state": "SP",
        "district": "Jordanésia (Jordanésia)",
        "street": "Rua Ana Balduíno Abreu (Jd N Jordanésia)",
        "zipcode": "07776-385"
    },
    {
        "city": "Cajamar",
        "state": "SP",
        "district": "Portais (Polvilho)",
        "street": "Rua das Sucupiras (P Ipês III)",
        "zipcode": "07791-230"
    },
    {
        "city": "Cajamar",
        "state": "SP",
        "district": "Paraíso (Polvilho)",
        "street": "Avenida Bento da Silva Bueno",
        "zipcode": "07793-690"
    }
]