[
    {
        "city": "Canitar",
        "state": "SP",
        "district": "",
        "street": "",
        "zipcode": "18990-000"
    },
    {
        "city": "Canitar",
        "state": "SP",
        "district": "Centro",
        "street": "Rua Pedro Gimenes",
        "zipcode": "18990-158"
    },
    {
        "city": "Canitar",
        "state": "SP",
        "district": "Jardim Primavera",
        "street": "Avenida Manoel Fenandes Cabete",
        "zipcode": "18990-410"
    },
    {
        "city": "Canitar",
        "state": "SP",
        "district": "Área Rural de Canitar",
        "street": "Área Rural",
        "zipcode": "18994-899"
    },
    {
        "city": "Canitar",
        "state": "SP",
        "district": "Jardim das Palmeiras",
        "street": "Rua Amélia Pontidura Totti",
        "zipcode": "18990-400"
    },
    {
        "city": "Canitar",
        "state": "SP",
        "district": "Parque Industrial I",
        "street": "Rodovia Raposo Tavares",
        "zipcode": "18990-001"
    },
    {
        "city": "Canitar",
        "state": "SP",
        "district": "Jardim Vitória",
        "street": "Rua Paulo Sergio Vieira da Silva",
        "zipcode": "18990-600"
    },
    {
        "city": "Canitar",
        "state": "SP",
        "district": "Centro de Expansão e Urbanização",
        "street": "Avenida Manoel Fenandes Cabete",
        "zipcode": "18990-420"
    },
    {
        "city": "Canitar",
        "state": "SP",
        "district": "Vila Manoel Cabete",
        "street": "Alameda Joaquim Feliciano",
        "zipcode": "18990-186"
    },
    {
        "city": "Canitar",
        "state": "SP",
        "district": "Conjunto Habitacional Canitar B",
        "street": "Rua Cândido Gomes Zandino",
        "zipcode": "18990-456"
    },
    {
        "city": "Canitar",
        "state": "SP",
        "district": "Jardim das Flores",
        "street": "Rua Angelo Gimenez",
        "zipcode": "18990-016"
    },
    {
        "city": "Canitar",
        "state": "SP",
        "district": "Jardim Alvorada",
        "street": "Rua Joaquim Silvério",
        "zipcode": "18990-441"
    },
    {
        "city": "Canitar",
        "state": "SP",
        "district": "Centro",
        "street": "Rua Joaquim Bernardo de Mendonça",
        "zipcode": "18990-150"
    },
    {
        "city": "Canitar",
        "state": "SP",
        "district": "Centro",
        "street": "Rua José Simão",
        "zipcode": "18990-160"
    },
    {
        "city": "Canitar",
        "state": "SP",
        "district": "Centro",
        "street": "Rua César Totti",
        "zipcode": "18990-168"
    },
    {
        "city": "Canitar",
        "state": "SP",
        "district": "Centro de Expansão e Urbanização",
        "street": "Rua Luiza Pinheiro Cabete",
        "zipcode": "18990-424"
    },
    {
        "city": "Canitar",
        "state": "SP",
        "district": "Centro",
        "street": "Rua Antonio Calisto de Oliveira",
        "zipcode": "18990-170"
    },
    {
        "city": "Canitar",
        "state": "SP",
        "district": "Parque Industrial I",
        "street": "Rua Antonio Carlos Gomes",
        "zipcode": "18990-005"
    },
    {
        "city": "Canitar",
        "state": "SP",
        "district": "Conjunto Habitacional Canitar B",
        "street": "Rua Ozório Paiva",
        "zipcode": "18990-454"
    },
    {
        "city": "Canitar",
        "state": "SP",
        "district": "Vila Manoel Cabete",
        "street": "Alameda Anibal Fonseca",
        "zipcode": "18990-184"
    },
    {
        "city": "Canitar",
        "state": "SP",
        "district": "Jardim Ypê",
        "street": "Rua Antônio Zandona",
        "zipcode": "18990-192"
    },
    {
        "city": "Canitar",
        "state": "SP",
        "district": "Jardim Antonio Bernardo",
        "street": "Rua Joaquim Bernardo de Mendonça",
        "zipcode": "18990-130"
    },
    {
        "city": "Canitar",
        "state": "SP",
        "district": "Jardim Vitória",
        "street": "Rua Delci Maria Viel Feliciano",
        "zipcode": "18990-604"
    },
    {
        "city": "Canitar",
        "state": "SP",
        "district": "Jardim Alvorada",
        "street": "Rua Antonio Trombini",
        "zipcode": "18990-446"
    },
    {
        "city": "Canitar",
        "state": "SP",
        "district": "Jardim das Flores",
        "street": "Rua Adolpho Theodoro",
        "zipcode": "18990-020"
    },
    {
        "city": "Canitar",
        "state": "SP",
        "district": "Jardim Antonio Bernardo",
        "street": "Rua Paulo Jacina",
        "zipcode": "18990-132"
    },
    {
        "city": "Canitar",
        "state": "SP",
        "district": "Jardim Alvorada",
        "street": "Rua Armando Piccoli",
        "zipcode": "18990-442"
    },
    {
        "city": "Canitar",
        "state": "SP",
        "district": "Centro",
        "street": "Rua Aristides Mendes da Silva",
        "zipcode": "18990-152"
    },
    {
        "city": "Canitar",
        "state": "SP",
        "district": "Jardim Alvorada",
        "street": "Rua Manoel Messias",
        "zipcode": "18990-444"
    },
    {
        "city": "Canitar",
        "state": "SP",
        "district": "Centro de Expansão e Urbanização",
        "street": "Rua Joaquim Venâncio",
        "zipcode": "18990-430"
    },
    {
        "city": "Canitar",
        "state": "SP",
        "district": "Jardim Alvorada",
        "street": "Rua Clementino Bernardo Mendonça",
        "zipcode": "18990-440"
    },
    {
        "city": "Canitar",
        "state": "SP",
        "district": "Centro de Expansão e Urbanização",
        "street": "Rua Manoel Ligeiro",
        "zipcode": "18990-426"
    },
    {
        "city": "Canitar",
        "state": "SP",
        "district": "Jardim Antonio Bernardo",
        "street": "Rua Joaquim Mendes Pereira",
        "zipcode": "18990-140"
    },
    {
        "city": "Canitar",
        "state": "SP",
        "district": "Centro",
        "street": "Rua Virgilio Furlaneto",
        "zipcode": "18990-156"
    },
    {
        "city": "Canitar",
        "state": "SP",
        "district": "Conjunto Habitacional Canitar B",
        "street": "Rua Benedito Souza",
        "zipcode": "18990-458"
    },
    {
        "city": "Canitar",
        "state": "SP",
        "district": "Jardim Vitória",
        "street": "Rua Cinco",
        "zipcode": "18990-608"
    },
    {
        "city": "Canitar",
        "state": "SP",
        "district": "Parque Industrial I",
        "street": "Rua Hélio Golveia de Melo",
        "zipcode": "18990-003"
    },
    {
        "city": "Canitar",
        "state": "SP",
        "district": "Conjunto Habitacional Canitar B",
        "street": "Rua Maria José Gimenes Giraldi",
        "zipcode": "18990-452"
    },
    {
        "city": "Canitar",
        "state": "SP",
        "district": "Centro",
        "street": "Rua Manoel Ligeiro",
        "zipcode": "18990-164"
    },
    {
        "city": "Canitar",
        "state": "SP",
        "district": "Centro de Expansão e Urbanização",
        "street": "Rua Ary Totti",
        "zipcode": "18990-428"
    },
    {
        "city": "Canitar",
        "state": "SP",
        "district": "Jardim Vitória",
        "street": "Rua José Cardoso de Oliveira",
        "zipcode": "18990-602"
    },
    {
        "city": "Canitar",
        "state": "SP",
        "district": "Jardim Antonio Bernardo",
        "street": "Rua José Claudio Evangelista",
        "zipcode": "18990-138"
    },
    {
        "city": "Canitar",
        "state": "SP",
        "district": "Centro",
        "street": "Rua Luiza Pinheiro Cabete",
        "zipcode": "18990-166"
    },
    {
        "city": "Canitar",
        "state": "SP",
        "district": "Jardim das Flores",
        "street": "Rua Olga Maria Gimenes",
        "zipcode": "18990-014"
    },
    {
        "city": "Canitar",
        "state": "SP",
        "district": "Jardim Antonio Bernardo",
        "street": "Rua Mathilde Ramires Delfino",
        "zipcode": "18990-136"
    },
    {
        "city": "Canitar",
        "state": "SP",
        "district": "Conjunto Habitacional Canitar B",
        "street": "Rua Ruth Maria Viel Feliciano",
        "zipcode": "18990-460"
    },
    {
        "city": "Canitar",
        "state": "SP",
        "district": "Jardim Ypê",
        "street": "Rua Domingos Totti",
        "zipcode": "18990-190"
    },
    {
        "city": "Canitar",
        "state": "SP",
        "district": "Jardim Antonio Bernardo",
        "street": "Rua Roberto Russo",
        "zipcode": "18990-134"
    },
    {
        "city": "Canitar",
        "state": "SP",
        "district": "Jardim Primavera",
        "street": "Rua Sebastião Tofaneli",
        "zipcode": "18990-416"
    },
    {
        "city": "Canitar",
        "state": "SP",
        "district": "Vila Manoel Cabete",
        "street": "Rua Vereador Pedro Macedo",
        "zipcode": "18990-180"
    },
    {
        "city": "Canitar",
        "state": "SP",
        "district": "Conjunto Habitacional Canitar B",
        "street": "Rua Rogério Tadeu Russo",
        "zipcode": "18990-462"
    },
    {
        "city": "Canitar",
        "state": "SP",
        "district": "Jardim Ypê",
        "street": "Rua Vereador Olindo Vido",
        "zipcode": "18990-194"
    },
    {
        "city": "Canitar",
        "state": "SP",
        "district": "Centro",
        "street": "Rua Vereador Pedro Macedo",
        "zipcode": "18990-154"
    },
    {
        "city": "Canitar",
        "state": "SP",
        "district": "Jardim Vitória",
        "street": "Rua Quatro",
        "zipcode": "18990-606"
    },
    {
        "city": "Canitar",
        "state": "SP",
        "district": "Jardim das Flores",
        "street": "Rua Ormelindo Batista",
        "zipcode": "18990-018"
    },
    {
        "city": "Canitar",
        "state": "SP",
        "district": "Jardim Alvorada",
        "street": "Rua Pedro Gimenes",
        "zipcode": "18990-448"
    },
    {
        "city": "Canitar",
        "state": "SP",
        "district": "Jardim das Flores",
        "street": "Rua Alcinio Leite",
        "zipcode": "18990-012"
    },
    {
        "city": "Canitar",
        "state": "SP",
        "district": "Conjunto Habitacional Canitar B",
        "street": "Rua Valdemar Inácio",
        "zipcode": "18990-464"
    },
    {
        "city": "Canitar",
        "state": "SP",
        "district": "Jardim Primavera",
        "street": "Rua Antonio Calisto de Oliveira",
        "zipcode": "18990-412"
    },
    {
        "city": "Canitar",
        "state": "SP",
        "district": "Conjunto Habitacional Canitar B",
        "street": "Rua José Pereira",
        "zipcode": "18990-450"
    },
    {
        "city": "Canitar",
        "state": "SP",
        "district": "Centro",
        "street": "Rua Ary Totti",
        "zipcode": "18990-162"
    },
    {
        "city": "Canitar",
        "state": "SP",
        "district": "Centro de Expansão e Urbanização",
        "street": "Rua César Totti",
        "zipcode": "18990-422"
    },
    {
        "city": "Canitar",
        "state": "SP",
        "district": "Centro",
        "street": "Rua Manoel Ligeiro",
        "zipcode": "18990-970"
    },
    {
        "city": "Canitar",
        "state": "SP",
        "district": "Jardim das Flores",
        "street": "Rua Joaquim Bernardo de Mendonça",
        "zipcode": "18990-010"
    },
    {
        "city": "Canitar",
        "state": "SP",
        "district": "Jardim Primavera",
        "street": "Rua Renato Cândido de Oliveira",
        "zipcode": "18990-418"
    },
    {
        "city": "Canitar",
        "state": "SP",
        "district": "Vila Manoel Cabete",
        "street": "Alameda José Rodrigues Filho",
        "zipcode": "18990-182"
    },
    {
        "city": "Canitar",
        "state": "SP",
        "district": "Jardim Primavera",
        "street": "Rua Dercilio José Feliciano",
        "zipcode": "18990-414"
    },
    {
        "city": "Canitar",
        "state": "SP",
        "district": "Centro de Expansão e Urbanização",
        "street": "Rua Clementino Bernardo Mendonça",
        "zipcode": "18990-432"
    },
    {
        "city": "Canitar",
        "state": "SP",
        "district": "Jardim das Palmeiras",
        "street": "Avenida Manoel Fenandes Cabete",
        "zipcode": "18990-402"
    }
]