[
    {
        "city": "Capão Bonito",
        "state": "SP",
        "district": "Centro",
        "street": "Praça Doutor Thomaz Eurico Gomes",
        "zipcode": "18300-315"
    },
    {
        "city": "Capão Bonito",
        "state": "SP",
        "district": "Querência do Turvo",
        "street": "Rua das Éricas",
        "zipcode": "18304-797"
    },
    {
        "city": "Capão Bonito",
        "state": "SP",
        "district": "Querência do Turvo",
        "street": "Rua das Camélias",
        "zipcode": "18304-780"
    },
    {
        "city": "Capão Bonito",
        "state": "SP",
        "district": "Querência do Turvo",
        "street": "Rua Hortências",
        "zipcode": "18304-766"
    },
    {
        "city": "Capão Bonito",
        "state": "SP",
        "district": "Querência do Turvo",
        "street": "Rua das Papoulas",
        "zipcode": "18304-786"
    },
    {
        "city": "Capão Bonito",
        "state": "SP",
        "district": "Querência do Turvo",
        "street": "Rua Flor de Ipê",
        "zipcode": "18304-819"
    },
    {
        "city": "Capão Bonito",
        "state": "SP",
        "district": "Querência do Turvo",
        "street": "Rua das Impatiens",
        "zipcode": "18304-794"
    },
    {
        "city": "Capão Bonito",
        "state": "SP",
        "district": "Parque das Nações",
        "street": "Rua Portugal",
        "zipcode": "18307-570"
    },
    {
        "city": "Capão Bonito",
        "state": "SP",
        "district": "Vila Bela Vista",
        "street": "Praça Rio de Janeiro",
        "zipcode": "18301-115"
    },
    {
        "city": "Capão Bonito",
        "state": "SP",
        "district": "Vila Santa Isabel",
        "street": "Rua Nelsi Camargo",
        "zipcode": "18306-210"
    },
    {
        "city": "Capão Bonito",
        "state": "SP",
        "district": "Vila São Paulo",
        "street": "Rua Angatuba",
        "zipcode": "18302-330"
    },
    {
        "city": "Capão Bonito",
        "state": "SP",
        "district": "Vila São Judas Thadeu",
        "street": "Rua Antônio Messias de Freitas",
        "zipcode": "18301-035"
    },
    {
        "city": "Capão Bonito",
        "state": "SP",
        "district": "Vila Bela Vista",
        "street": "Rua Artulívia Mendes Venturelli",
        "zipcode": "18301-165"
    },
    {
        "city": "Capão Bonito",
        "state": "SP",
        "district": "Centro",
        "street": "Rua Capitão Brasílio Nunes",
        "zipcode": "18300-420"
    },
    {
        "city": "Capão Bonito",
        "state": "SP",
        "district": "Vila Bela Vista",
        "street": "Rua Cassiano de Barros Galvão",
        "zipcode": "18301-065"
    },
    {
        "city": "Capão Bonito",
        "state": "SP",
        "district": "Vila Guanabara",
        "street": "Rua Cornélio Diniz de Camargo",
        "zipcode": "18300-700"
    },
    {
        "city": "Capão Bonito",
        "state": "SP",
        "district": "Centro",
        "street": "Rua Domingos Lírio",
        "zipcode": "18300-151"
    },
    {
        "city": "Capão Bonito",
        "state": "SP",
        "district": "Vila Bela Vista",
        "street": "Rua Sem Nome",
        "zipcode": "18301-230"
    },
    {
        "city": "Capão Bonito",
        "state": "SP",
        "district": "Vila Santa Isabel",
        "street": "Rua Seimei Sato",
        "zipcode": "18306-190"
    },
    {
        "city": "Capão Bonito",
        "state": "SP",
        "district": "Terras do Embiruçu",
        "street": "Rua dos Eucaliptos",
        "zipcode": "18304-650"
    },
    {
        "city": "Capão Bonito",
        "state": "SP",
        "district": "Querência do Turvo",
        "street": "Rua Flor de Lis",
        "zipcode": "18304-806"
    },
    {
        "city": "Capão Bonito",
        "state": "SP",
        "district": "Querência do Turvo",
        "street": "Rua das Rosas",
        "zipcode": "18304-787"
    },
    {
        "city": "Capão Bonito",
        "state": "SP",
        "district": "Centro",
        "street": "Rua Dona Auta de Camargo Lírio",
        "zipcode": "18300-230"
    },
    {
        "city": "Capão Bonito",
        "state": "SP",
        "district": "Vila Nova Capão Bonito",
        "street": "Rua Doutor Theodoro Rosa de Siqueira",
        "zipcode": "18304-030"
    },
    {
        "city": "Capão Bonito",
        "state": "SP",
        "district": "Vila São Paulo",
        "street": "Rua Eldorado",
        "zipcode": "18302-270"
    },
    {
        "city": "Capão Bonito",
        "state": "SP",
        "district": "Centro",
        "street": "Rua Eliezer Gonçalves de Almeida",
        "zipcode": "18300-370"
    },
    {
        "city": "Capão Bonito",
        "state": "SP",
        "district": "Vila Aparecida",
        "street": "Rua Emílio Fernandes Sanches",
        "zipcode": "18303-170"
    },
    {
        "city": "Capão Bonito",
        "state": "SP",
        "district": "Jardim Vale Verde",
        "street": "Avenida Francisco de Assis Brizola",
        "zipcode": "18301-590"
    },
    {
        "city": "Capão Bonito",
        "state": "SP",
        "district": "Vila São Judas Thadeu",
        "street": "Rua Frei Ponciano",
        "zipcode": "18301-220"
    },
    {
        "city": "Capão Bonito",
        "state": "SP",
        "district": "Vila Aparecida",
        "street": "Rua Getúlio Rodolfo",
        "zipcode": "18303-510"
    },
    {
        "city": "Capão Bonito",
        "state": "SP",
        "district": "Vila Aparecida",
        "street": "Rua João Baeza de Mendes",
        "zipcode": "18303-340"
    },
    {
        "city": "Capão Bonito",
        "state": "SP",
        "district": "Jardim Vale Verde",
        "street": "Rua Vereador João Batista de Vasconcellos",
        "zipcode": "18301-470"
    },
    {
        "city": "Capão Bonito",
        "state": "SP",
        "district": "Jardim Vale Verde",
        "street": "Rua João Cordeiro de Miranda",
        "zipcode": "18301-550"
    },
    {
        "city": "Capão Bonito",
        "state": "SP",
        "district": "Vila Aparecida",
        "street": "Rua João Rui Dias",
        "zipcode": "18303-490"
    },
    {
        "city": "Capão Bonito",
        "state": "SP",
        "district": "Vila Aparecida",
        "street": "Rua Jorge Vaz da Cruz",
        "zipcode": "18303-420"
    },
    {
        "city": "Capão Bonito",
        "state": "SP",
        "district": "Vila São Francisco de Assis",
        "street": "Rua José Dias de Oliveira",
        "zipcode": "18302-420"
    },
    {
        "city": "Capão Bonito",
        "state": "SP",
        "district": "Vila Nova Capão Bonito",
        "street": "Rua José Fadino Rodolfo",
        "zipcode": "18304-100"
    },
    {
        "city": "Capão Bonito",
        "state": "SP",
        "district": "Vila Aparecida",
        "street": "Rua José Maria Lopes Teixeira",
        "zipcode": "18303-270"
    },
    {
        "city": "Capão Bonito",
        "state": "SP",
        "district": "Vila Aparecida",
        "street": "Rua Justiniano Soares de Andrade",
        "zipcode": "18303-120"
    },
    {
        "city": "Capão Bonito",
        "state": "SP",
        "district": "Vila Bela Vista",
        "street": "Rua Luiz Batista da Silveira",
        "zipcode": "18301-239"
    },
    {
        "city": "Capão Bonito",
        "state": "SP",
        "district": "Centro",
        "street": "Rua Manoel Placidino Nascimento",
        "zipcode": "18300-210"
    },
    {
        "city": "Capão Bonito",
        "state": "SP",
        "district": "Vila Aparecida",
        "street": "Rua Paschoal Tallarico",
        "zipcode": "18303-030"
    },
    {
        "city": "Capão Bonito",
        "state": "SP",
        "district": "Vila Bela Vista",
        "street": "Rua Piauí",
        "zipcode": "18301-080"
    },
    {
        "city": "Capão Bonito",
        "state": "SP",
        "district": "Vila Bela Vista",
        "street": "Rua Professora Luzia das Dores Barros Martin",
        "zipcode": "18301-229"
    },
    {
        "city": "Capão Bonito",
        "state": "SP",
        "district": "Vila São Paulo",
        "street": "Rua Ribeirão Branco",
        "zipcode": "18302-210"
    },
    {
        "city": "Capão Bonito",
        "state": "SP",
        "district": "Vila Bela Vista",
        "street": "Rua Rondônia",
        "zipcode": "18301-160"
    },
    {
        "city": "Capão Bonito",
        "state": "SP",
        "district": "Vila Aparecida",
        "street": "Rua Terezinha Conceição Martins",
        "zipcode": "18303-200"
    },
    {
        "city": "Capão Bonito",
        "state": "SP",
        "district": "Vila Nova Capão Bonito",
        "street": "Travessa Trinta e Dois",
        "zipcode": "18304-350"
    },
    {
        "city": "Capão Bonito",
        "state": "SP",
        "district": "Vila Nova Capão Bonito",
        "street": "Rua Trinta e Um",
        "zipcode": "18304-280"
    },
    {
        "city": "Capão Bonito",
        "state": "SP",
        "district": "Centro",
        "street": "Rua Vinte e Quatro de Fevereiro",
        "zipcode": "18300-360"
    },
    {
        "city": "Capão Bonito",
        "state": "SP",
        "district": "Centro",
        "street": "Praça João XXII",
        "zipcode": "18300-350"
    },
    {
        "city": "Capão Bonito",
        "state": "SP",
        "district": "Querência do Turvo",
        "street": "Rua das Quaresmeiras",
        "zipcode": "18304-825"
    },
    {
        "city": "Capão Bonito",
        "state": "SP",
        "district": "Querência do Turvo",
        "street": "Rua Flor de Maio",
        "zipcode": "18304-827"
    },
    {
        "city": "Capão Bonito",
        "state": "SP",
        "district": "Querência do Turvo",
        "street": "Rua dos Jasmins",
        "zipcode": "18304-812"
    },
    {
        "city": "Capão Bonito",
        "state": "SP",
        "district": "Querência do Turvo",
        "street": "Rua Flamboyant",
        "zipcode": "18304-823"
    },
    {
        "city": "Capão Bonito",
        "state": "SP",
        "district": "Querência do Turvo",
        "street": "Rua Flor do Campo",
        "zipcode": "18304-835"
    },
    {
        "city": "Capão Bonito",
        "state": "SP",
        "district": "Querência do Turvo",
        "street": "Rua dos Cactos",
        "zipcode": "18304-777"
    },
    {
        "city": "Capão Bonito",
        "state": "SP",
        "district": "Vila Santa Rosa",
        "street": "Rua da Liberdade",
        "zipcode": "18307-200"
    },
    {
        "city": "Capão Bonito",
        "state": "SP",
        "district": "Querência do Turvo",
        "street": "Rua dos Gerânios",
        "zipcode": "18304-778"
    },
    {
        "city": "Capão Bonito",
        "state": "SP",
        "district": "Querência do Turvo",
        "street": "Rua das Alfazemas",
        "zipcode": "18304-809"
    },
    {
        "city": "Capão Bonito",
        "state": "SP",
        "district": "Vila São Judas Thadeu",
        "street": "Rua A",
        "zipcode": "18301-260"
    },
    {
        "city": "Capão Bonito",
        "state": "SP",
        "district": "Vila Nova Capão Bonito",
        "street": "Rua Kantoko Iha",
        "zipcode": "18304-190"
    },
    {
        "city": "Capão Bonito",
        "state": "SP",
        "district": "Vila Boa Esperança",
        "street": "Rua Waldemar Dias Sobrinho",
        "zipcode": "18301-615"
    },
    {
        "city": "Capão Bonito",
        "state": "SP",
        "district": "Vila Aparecida",
        "street": "Rua Sérgio de Oliveira",
        "zipcode": "18303-460"
    },
    {
        "city": "Capão Bonito",
        "state": "SP",
        "district": "Centro",
        "street": "Rua João Gonçalves de Andrade",
        "zipcode": "18300-632"
    },
    {
        "city": "Capão Bonito",
        "state": "SP",
        "district": "Centro",
        "street": "Rua Coronel Ernestino",
        "zipcode": "18300-492"
    },
    {
        "city": "Capão Bonito",
        "state": "SP",
        "district": "Centro",
        "street": "Rua Pedro Mariano Filho",
        "zipcode": "18300-141"
    },
    {
        "city": "Capão Bonito",
        "state": "SP",
        "district": "Parque das Nações",
        "street": "Rua Alemanha",
        "zipcode": "18307-360"
    },
    {
        "city": "Capão Bonito",
        "state": "SP",
        "district": "Centro",
        "street": "Rua Altino Arantes",
        "zipcode": "18300-290"
    },
    {
        "city": "Capão Bonito",
        "state": "SP",
        "district": "Jardim Alvorada",
        "street": "Rua Antônio Dias de Siqueira",
        "zipcode": "18305-070"
    },
    {
        "city": "Capão Bonito",
        "state": "SP",
        "district": "Distrito Industrial",
        "street": "Rua Antônio Mariano Gomes",
        "zipcode": "18304-560"
    },
    {
        "city": "Capão Bonito",
        "state": "SP",
        "district": "Centro",
        "street": "Rua Bernardino de Campos",
        "zipcode": "18300-270"
    },
    {
        "city": "Capão Bonito",
        "state": "SP",
        "district": "Jardim Colonial",
        "street": "Alameda das Caravelas",
        "zipcode": "18305-290"
    },
    {
        "city": "Capão Bonito",
        "state": "SP",
        "district": "Querência do Turvo",
        "street": "Rua dos Gorassóis",
        "zipcode": "18304-765"
    },
    {
        "city": "Capão Bonito",
        "state": "SP",
        "district": "Vila Santa Isabel",
        "street": "Rua Cinqüenta",
        "zipcode": "18306-150"
    },
    {
        "city": "Capão Bonito",
        "state": "SP",
        "district": "Vila Santa Isabel",
        "street": "Rua Cinqüenta e Cinco",
        "zipcode": "18306-320"
    },
    {
        "city": "Capão Bonito",
        "state": "SP",
        "district": "Laranjeiras",
        "street": "Rua das Amoreiras",
        "zipcode": "18304-708"
    },
    {
        "city": "Capão Bonito",
        "state": "SP",
        "district": "Vila Santa Isabel",
        "street": "Rua Dezenove",
        "zipcode": "18306-170"
    },
    {
        "city": "Capão Bonito",
        "state": "SP",
        "district": "Centro",
        "street": "Rua Doutor Josino de Araújo",
        "zipcode": "18300-070"
    },
    {
        "city": "Capão Bonito",
        "state": "SP",
        "district": "Centro",
        "street": "Rua Duque de Caxias",
        "zipcode": "18300-310"
    },
    {
        "city": "Capão Bonito",
        "state": "SP",
        "district": "Parque das Nações",
        "street": "Rua Espanha",
        "zipcode": "18307-430"
    },
    {
        "city": "Capão Bonito",
        "state": "SP",
        "district": "Centro",
        "street": "Rua Etelvina Diniz",
        "zipcode": "18300-160"
    },
    {
        "city": "Capão Bonito",
        "state": "SP",
        "district": "Jardim Cruzeiro",
        "street": "Rua Gregôrio Luiz de Almeida",
        "zipcode": "18305-520"
    },
    {
        "city": "Capão Bonito",
        "state": "SP",
        "district": "Centro",
        "street": "Rua Gumercindo Diniz Branco",
        "zipcode": "18300-170"
    },
    {
        "city": "Capão Bonito",
        "state": "SP",
        "district": "Centro",
        "street": "Rua Gustavo Sampaio",
        "zipcode": "18300-130"
    },
    {
        "city": "Capão Bonito",
        "state": "SP",
        "district": "Centro",
        "street": "Rua João Leôncio Ferraz",
        "zipcode": "18300-080"
    },
    {
        "city": "Capão Bonito",
        "state": "SP",
        "district": "Jardim Cruzeiro",
        "street": "Rua Padre João Rodrigues da Silva",
        "zipcode": "18305-530"
    },
    {
        "city": "Capão Bonito",
        "state": "SP",
        "district": "Vila Santa Rosa",
        "street": "Rua Manoel Ferreira Rodolfo",
        "zipcode": "18307-100"
    },
    {
        "city": "Capão Bonito",
        "state": "SP",
        "district": "Centro",
        "street": "Rua Maria Joaquina de Medeiros",
        "zipcode": "18300-200"
    },
    {
        "city": "Capão Bonito",
        "state": "SP",
        "district": "Centro",
        "street": "Rua Maria Venturelli Cacciacarro",
        "zipcode": "18300-280"
    },
    {
        "city": "Capão Bonito",
        "state": "SP",
        "district": "Terras do Embiruçu",
        "street": "Rua Martha",
        "zipcode": "18304-735"
    },
    {
        "city": "Capão Bonito",
        "state": "SP",
        "district": "Vila Santa Rosa",
        "street": "Rua Ministro João de Deus Cardoso de Melo",
        "zipcode": "18307-065"
    },
    {
        "city": "Capão Bonito",
        "state": "SP",
        "district": "Jardim Alvorada",
        "street": "Rua Padre Arlindo Vieira",
        "zipcode": "18305-100"
    },
    {
        "city": "Capão Bonito",
        "state": "SP",
        "district": "Vila Santa Isabel",
        "street": "Avenida Plácido Batista da Silveira",
        "zipcode": "18306-000"
    },
    {
        "city": "Capão Bonito",
        "state": "SP",
        "district": "Parque das Nações",
        "street": "Rua Polônia",
        "zipcode": "18307-450"
    },
    {
        "city": "Capão Bonito",
        "state": "SP",
        "district": "Vila Santa Rosa",
        "street": "Rua Professor José Toledo Costa",
        "zipcode": "18307-150"
    },
    {
        "city": "Capão Bonito",
        "state": "SP",
        "district": "Vila Nova Capão Bonito",
        "street": "Rua Quarenta",
        "zipcode": "18304-370"
    },
    {
        "city": "Capão Bonito",
        "state": "SP",
        "district": "Vila Santa Isabel",
        "street": "Rua Quarenta e Oito",
        "zipcode": "18306-420"
    },
    {
        "city": "Capão Bonito",
        "state": "SP",
        "district": "Vila Nova Capão Bonito",
        "street": "Rua Quarenta e Quatro",
        "zipcode": "18304-430"
    },
    {
        "city": "Capão Bonito",
        "state": "SP",
        "district": "Centro",
        "street": "Praça Ruy Barbosa",
        "zipcode": "18300-120"
    },
    {
        "city": "Capão Bonito",
        "state": "SP",
        "district": "Vila Santa Isabel",
        "street": "Rua Sessenta e Seis",
        "zipcode": "18306-500"
    },
    {
        "city": "Capão Bonito",
        "state": "SP",
        "district": "Centro",
        "street": "Rua Vicente Lucas",
        "zipcode": "18300-180"
    },
    {
        "city": "Capão Bonito",
        "state": "SP",
        "district": "Vila Santa Isabel",
        "street": "Rua Vinte e Oito",
        "zipcode": "18306-250"
    },
    {
        "city": "Capão Bonito",
        "state": "SP",
        "district": "Centro",
        "street": "Rua Treze de Maio",
        "zipcode": "18300-330"
    },
    {
        "city": "Capão Bonito",
        "state": "SP",
        "district": "Centro",
        "street": "Rua Nove de Julho",
        "zipcode": "18300-050"
    },
    {
        "city": "Capão Bonito",
        "state": "SP",
        "district": "Jardim Colonial",
        "street": "Alameda dos Palmares",
        "zipcode": "18305-320"
    },
    {
        "city": "Capão Bonito",
        "state": "SP",
        "district": "Centro",
        "street": "Rua Silva Jardim",
        "zipcode": "18300-020"
    },
    {
        "city": "Capão Bonito",
        "state": "SP",
        "district": "Centro",
        "street": "Rua Silva Jardim",
        "zipcode": "18300-220"
    },
    {
        "city": "Capão Bonito",
        "state": "SP",
        "district": "Vila Nova Capão Bonito",
        "street": "Rua Quarenta e Três",
        "zipcode": "18304-450"
    },
    {
        "city": "Capão Bonito",
        "state": "SP",
        "district": "Vila Santa Isabel",
        "street": "Rua Dez",
        "zipcode": "18306-053"
    },
    {
        "city": "Capão Bonito",
        "state": "SP",
        "district": "Terras do Embiruçu",
        "street": "Avenida Doutor Péricles de Freitas",
        "zipcode": "18304-750"
    },
    {
        "city": "Capão Bonito",
        "state": "SP",
        "district": "Jardim Europa",
        "street": "Rua Áustria",
        "zipcode": "18307-630"
    },
    {
        "city": "Capão Bonito",
        "state": "SP",
        "district": "Vila Santa Isabel",
        "street": "Rua Cinqüenta e Dois",
        "zipcode": "18306-410"
    },
    {
        "city": "Capão Bonito",
        "state": "SP",
        "district": "Jardim Colonial",
        "street": "Rua da Marinha",
        "zipcode": "18305-260"
    },
    {
        "city": "Capão Bonito",
        "state": "SP",
        "district": "Centro",
        "street": "Rua Benjamin Constant",
        "zipcode": "18300-322"
    },
    {
        "city": "Capão Bonito",
        "state": "SP",
        "district": "Centro",
        "street": "Rua Benjamin Constant",
        "zipcode": "18300-323"
    },
    {
        "city": "Capão Bonito",
        "state": "SP",
        "district": "Vila Santa Isabel",
        "street": "Rua Trinta e Seis",
        "zipcode": "18306-395"
    },
    {
        "city": "Capão Bonito",
        "state": "SP",
        "district": "Vila Santa Isabel",
        "street": "Rua Quarenta e Quatro",
        "zipcode": "18306-525"
    },
    {
        "city": "Capão Bonito",
        "state": "SP",
        "district": "Vila Bela Vista",
        "street": "Rua Alagoas",
        "zipcode": "18301-120"
    },
    {
        "city": "Capão Bonito",
        "state": "SP",
        "district": "Jardim Europa",
        "street": "Rua Alemanha",
        "zipcode": "18307-640"
    },
    {
        "city": "Capão Bonito",
        "state": "SP",
        "district": "Vila Guanabara",
        "street": "Rua Antônio Bernardes Freitas",
        "zipcode": "18300-740"
    },
    {
        "city": "Capão Bonito",
        "state": "SP",
        "district": "Vila Bela Vista",
        "street": "Rua Bahia",
        "zipcode": "18301-030"
    },
    {
        "city": "Capão Bonito",
        "state": "SP",
        "district": "Centro",
        "street": "Rua Braz Lucas",
        "zipcode": "18300-630"
    },
    {
        "city": "Capão Bonito",
        "state": "SP",
        "district": "Centro",
        "street": "Rua Campos Salles",
        "zipcode": "18300-410"
    },
    {
        "city": "Capão Bonito",
        "state": "SP",
        "district": "Centro",
        "street": "Rua Coronel Frederico Martins",
        "zipcode": "18300-400"
    },
    {
        "city": "Capão Bonito",
        "state": "SP",
        "district": "Vila Nova Capão Bonito",
        "street": "Rua Benedito Dias de Oliveira",
        "zipcode": "18304-150"
    },
    {
        "city": "Capão Bonito",
        "state": "SP",
        "district": "Vila Bela Vista",
        "street": "Rua Dorival Venturelli",
        "zipcode": "18301-075"
    },
    {
        "city": "Capão Bonito",
        "state": "SP",
        "district": "Centro",
        "street": "Rua Doutor Josino de Araújo",
        "zipcode": "18300-460"
    },
    {
        "city": "Capão Bonito",
        "state": "SP",
        "district": "Vila Bela Vista",
        "street": "Rua Eliziário Rodrigues Proença",
        "zipcode": "18301-015"
    },
    {
        "city": "Capão Bonito",
        "state": "SP",
        "district": "Vila Bela Vista",
        "street": "Rua Espírito Santo",
        "zipcode": "18301-060"
    },
    {
        "city": "Capão Bonito",
        "state": "SP",
        "district": "Parque das Nações",
        "street": "Rua Finlândia",
        "zipcode": "18307-460"
    },
    {
        "city": "Capão Bonito",
        "state": "SP",
        "district": "Jardim Europa",
        "street": "Avenida Francisco Antônio Consolmagno",
        "zipcode": "18307-610"
    },
    {
        "city": "Capão Bonito",
        "state": "SP",
        "district": "Centro",
        "street": "Rua Geraldo Ferreira",
        "zipcode": "18300-411"
    },
    {
        "city": "Capão Bonito",
        "state": "SP",
        "district": "Vila Bela Vista",
        "street": "Rua Goiás",
        "zipcode": "18301-070"
    },
    {
        "city": "Capão Bonito",
        "state": "SP",
        "district": "Jardim Europa",
        "street": "Rua Itália",
        "zipcode": "18307-580"
    },
    {
        "city": "Capão Bonito",
        "state": "SP",
        "district": "Centro",
        "street": "Rua João Branco",
        "zipcode": "18300-440"
    },
    {
        "city": "Capão Bonito",
        "state": "SP",
        "district": "Vila Guanabara",
        "street": "Rua José Wenceslau Nunes",
        "zipcode": "18300-720"
    },
    {
        "city": "Capão Bonito",
        "state": "SP",
        "district": "Vila Guanabara",
        "street": "Rua Júlio Marchetti",
        "zipcode": "18300-760"
    },
    {
        "city": "Capão Bonito",
        "state": "SP",
        "district": "Centro",
        "street": "Rua Marechal Deodoro",
        "zipcode": "18300-335"
    },
    {
        "city": "Capão Bonito",
        "state": "SP",
        "district": "Vila Bela Vista",
        "street": "Rua Mato Grosso",
        "zipcode": "18301-050"
    },
    {
        "city": "Capão Bonito",
        "state": "SP",
        "district": "Vila Bela Vista",
        "street": "Rua Minas Gerais",
        "zipcode": "18301-000"
    },
    {
        "city": "Capão Bonito",
        "state": "SP",
        "district": "Vila Guanabara",
        "street": "Rua Noel de Freitas Gomes",
        "zipcode": "18300-730"
    },
    {
        "city": "Capão Bonito",
        "state": "SP",
        "district": "Vila Bela Vista",
        "street": "Rua Paraíba",
        "zipcode": "18301-110"
    },
    {
        "city": "Capão Bonito",
        "state": "SP",
        "district": "Vila Bela Vista",
        "street": "Rua Paraná",
        "zipcode": "18301-040"
    },
    {
        "city": "Capão Bonito",
        "state": "SP",
        "district": "Vila Bela Vista",
        "street": "Rua Pedro Alves Xavier",
        "zipcode": "18301-085"
    },
    {
        "city": "Capão Bonito",
        "state": "SP",
        "district": "Vila Bela Vista",
        "street": "Rua Pernambuco",
        "zipcode": "18301-020"
    },
    {
        "city": "Capão Bonito",
        "state": "SP",
        "district": "Centro",
        "street": "Rua Quintino Bocaiúva",
        "zipcode": "18300-610"
    },
    {
        "city": "Capão Bonito",
        "state": "SP",
        "district": "Vila Bela Vista",
        "street": "Rua Roraima",
        "zipcode": "18301-100"
    },
    {
        "city": "Capão Bonito",
        "state": "SP",
        "district": "Centro",
        "street": "Avenida Santos Dumont",
        "zipcode": "18300-530"
    },
    {
        "city": "Capão Bonito",
        "state": "SP",
        "district": "Vila Bela Vista",
        "street": "Rua Sergipe",
        "zipcode": "18301-125"
    },
    {
        "city": "Capão Bonito",
        "state": "SP",
        "district": "Centro",
        "street": "Rua Treze de Maio",
        "zipcode": "18300-520"
    },
    {
        "city": "Capão Bonito",
        "state": "SP",
        "district": "Centro",
        "street": "Rua Nove de Julho",
        "zipcode": "18300-385"
    },
    {
        "city": "Capão Bonito",
        "state": "SP",
        "district": "Vila Bela Vista",
        "street": "Rua Henrique Contieri",
        "zipcode": "18301-055"
    },
    {
        "city": "Capão Bonito",
        "state": "SP",
        "district": "Parque das Nações",
        "street": "Rua Paraguai",
        "zipcode": "18307-530"
    },
    {
        "city": "Capão Bonito",
        "state": "SP",
        "district": "Centro",
        "street": "Rua Coronel Ernestino",
        "zipcode": "18300-491"
    },
    {
        "city": "Capão Bonito",
        "state": "SP",
        "district": "Vila Bela Vista",
        "street": "Avenida Massaichi Kakihara",
        "zipcode": "18301-146"
    },
    {
        "city": "Capão Bonito",
        "state": "SP",
        "district": "Jardim da Amizade",
        "street": "Rua Paulo Roberto de Oliveira e Souza",
        "zipcode": "18303-660"
    },
    {
        "city": "Capão Bonito",
        "state": "SP",
        "district": "Vila Aparecida",
        "street": "Rua Pedro Vilarino Ferreira",
        "zipcode": "18303-570"
    },
    {
        "city": "Capão Bonito",
        "state": "SP",
        "district": "Querência do Turvo",
        "street": "Rua das Gérberas",
        "zipcode": "18304-802"
    },
    {
        "city": "Capão Bonito",
        "state": "SP",
        "district": "Centro",
        "street": "Praça Edmundo Cacciacarro",
        "zipcode": "18300-450"
    },
    {
        "city": "Capão Bonito",
        "state": "SP",
        "district": "Terras do Embiruçu",
        "street": "Rua João Grande",
        "zipcode": "18304-655"
    },
    {
        "city": "Capão Bonito",
        "state": "SP",
        "district": "Centro",
        "street": "Rua José Inácio",
        "zipcode": "18300-501"
    },
    {
        "city": "Capão Bonito",
        "state": "SP",
        "district": "Centro",
        "street": "Rua José Inácio",
        "zipcode": "18300-502"
    },
    {
        "city": "Capão Bonito",
        "state": "SP",
        "district": "Vila Bela Vista",
        "street": "Rua Alfredo Venturelli",
        "zipcode": "18301-200"
    },
    {
        "city": "Capão Bonito",
        "state": "SP",
        "district": "Vila Bela Vista",
        "street": "Rua Amantino de Oliveira Ramos",
        "zipcode": "18301-225"
    },
    {
        "city": "Capão Bonito",
        "state": "SP",
        "district": "Vila São Francisco de Assis",
        "street": "Rua Antônio Martins",
        "zipcode": "18302-380"
    },
    {
        "city": "Capão Bonito",
        "state": "SP",
        "district": "Vila São Paulo",
        "street": "Rua Apiaí",
        "zipcode": "18302-240"
    },
    {
        "city": "Capão Bonito",
        "state": "SP",
        "district": "Vila São Paulo",
        "street": "Rua Barra do Turvo",
        "zipcode": "18302-310"
    },
    {
        "city": "Capão Bonito",
        "state": "SP",
        "district": "Vila São Francisco de Assis",
        "street": "Rua Berta Gemignani",
        "zipcode": "18302-410"
    },
    {
        "city": "Capão Bonito",
        "state": "SP",
        "district": "Vila São Paulo",
        "street": "Rua Buri",
        "zipcode": "18302-280"
    },
    {
        "city": "Capão Bonito",
        "state": "SP",
        "district": "Vila São Judas Thadeu",
        "street": "Rua Casimiro Ferreira",
        "zipcode": "18301-313"
    },
    {
        "city": "Capão Bonito",
        "state": "SP",
        "district": "Jardim Vale Verde",
        "street": "Rua Cristalino Arcanjo Oliva",
        "zipcode": "18301-583"
    },
    {
        "city": "Capão Bonito",
        "state": "SP",
        "district": "Vila Boa Esperança",
        "street": "Rua Dez",
        "zipcode": "18301-640"
    },
    {
        "city": "Capão Bonito",
        "state": "SP",
        "district": "Vila Boa Esperança",
        "street": "Rua Simeão Zacarias Bernardo",
        "zipcode": "18301-600"
    },
    {
        "city": "Capão Bonito",
        "state": "SP",
        "district": "Vila Bela Vista",
        "street": "Rua Dorival Rosa de Oliveira",
        "zipcode": "18301-231"
    },
    {
        "city": "Capão Bonito",
        "state": "SP",
        "district": "Vila São Francisco de Assis",
        "street": "Rua Espósito Cosimo Damiano",
        "zipcode": "18302-370"
    },
    {
        "city": "Capão Bonito",
        "state": "SP",
        "district": "Vila São Francisco de Assis",
        "street": "Rua Isaltino Gonçalves de Almeida",
        "zipcode": "18302-340"
    },
    {
        "city": "Capão Bonito",
        "state": "SP",
        "district": "Querência do Turvo",
        "street": "Rua dos Hibiscos",
        "zipcode": "18304-839"
    },
    {
        "city": "Capão Bonito",
        "state": "SP",
        "district": "Querência do Turvo",
        "street": "Rua das Bromélias",
        "zipcode": "18304-770"
    },
    {
        "city": "Capão Bonito",
        "state": "SP",
        "district": "Jardim Vale Verde",
        "street": "Rua Gino Santini",
        "zipcode": "18301-480"
    },
    {
        "city": "Capão Bonito",
        "state": "SP",
        "district": "Vila São Paulo",
        "street": "Rua Guapiara",
        "zipcode": "18302-290"
    },
    {
        "city": "Capão Bonito",
        "state": "SP",
        "district": "Vila São Paulo",
        "street": "Rua Iporanga",
        "zipcode": "18302-250"
    },
    {
        "city": "Capão Bonito",
        "state": "SP",
        "district": "Vila São Paulo",
        "street": "Rua Itaberá",
        "zipcode": "18302-320"
    },
    {
        "city": "Capão Bonito",
        "state": "SP",
        "district": "Vila São Paulo",
        "street": "Rua Itapetininga",
        "zipcode": "18302-220"
    },
    {
        "city": "Capão Bonito",
        "state": "SP",
        "district": "Vila Aparecida",
        "street": "Rua João Aleixo Vaz",
        "zipcode": "18303-020"
    },
    {
        "city": "Capão Bonito",
        "state": "SP",
        "district": "Vila Bela Vista",
        "street": "Rua João Brasílio de Andrade",
        "zipcode": "18301-195"
    },
    {
        "city": "Capão Bonito",
        "state": "SP",
        "district": "Jardim Vale Verde",
        "street": "Rua João Marcelino Ferreira",
        "zipcode": "18301-585"
    },
    {
        "city": "Capão Bonito",
        "state": "SP",
        "district": "Vila São Paulo",
        "street": "Rua Esmeralda",
        "zipcode": "18302-208"
    },
    {
        "city": "Capão Bonito",
        "state": "SP",
        "district": "Vila São Francisco de Assis",
        "street": "Rua Joaquim Clarindo",
        "zipcode": "18302-430"
    },
    {
        "city": "Capão Bonito",
        "state": "SP",
        "district": "Vila Bela Vista",
        "street": "Rua José Ferraz Fiúza",
        "zipcode": "18301-185"
    },
    {
        "city": "Capão Bonito",
        "state": "SP",
        "district": "Vila Aparecida",
        "street": "Rua José Pereira",
        "zipcode": "18303-005"
    },
    {
        "city": "Capão Bonito",
        "state": "SP",
        "district": "Vila São Judas Thadeu",
        "street": "Rua José Soares de Quevedo Neto",
        "zipcode": "18301-290"
    },
    {
        "city": "Capão Bonito",
        "state": "SP",
        "district": "Jardim Vale Verde",
        "street": "Rua Leonildo Cacciacarro",
        "zipcode": "18301-500"
    },
    {
        "city": "Capão Bonito",
        "state": "SP",
        "district": "Vila Bela Vista",
        "street": "Rua Maranhão",
        "zipcode": "18301-170"
    },
    {
        "city": "Capão Bonito",
        "state": "SP",
        "district": "Vila São Francisco de Assis",
        "street": "Rua Maria de Lourdes Bloes Forti",
        "zipcode": "18302-390"
    },
    {
        "city": "Capão Bonito",
        "state": "SP",
        "district": "Vila Bela Vista",
        "street": "Rua Max Maria do Vale",
        "zipcode": "18301-210"
    },
    {
        "city": "Capão Bonito",
        "state": "SP",
        "district": "Vila São Judas Thadeu",
        "street": "Rua Nelson do Amaral Queiroz",
        "zipcode": "18301-270"
    },
    {
        "city": "Capão Bonito",
        "state": "SP",
        "district": "Jardim Vale Verde",
        "street": "Rua Nício Franca",
        "zipcode": "18301-520"
    },
    {
        "city": "Capão Bonito",
        "state": "SP",
        "district": "Vila Aparecida",
        "street": "Rua Oscar Kurtz Camargo",
        "zipcode": "18303-100"
    },
    {
        "city": "Capão Bonito",
        "state": "SP",
        "district": "Vila Bela Vista",
        "street": "Rua Pérola",
        "zipcode": "18301-238"
    },
    {
        "city": "Capão Bonito",
        "state": "SP",
        "district": "Vila São Paulo",
        "street": "Rua Pilar do Sul",
        "zipcode": "18302-200"
    },
    {
        "city": "Capão Bonito",
        "state": "SP",
        "district": "Jardim Vale Verde",
        "street": "Rua Professor Paulo Gemignani",
        "zipcode": "18301-570"
    },
    {
        "city": "Capão Bonito",
        "state": "SP",
        "district": "Vila São Paulo",
        "street": "Rua Ribeira",
        "zipcode": "18302-230"
    },
    {
        "city": "Capão Bonito",
        "state": "SP",
        "district": "Vila Boa Esperança",
        "street": "Rua da Amizade",
        "zipcode": "18301-620"
    },
    {
        "city": "Capão Bonito",
        "state": "SP",
        "district": "Vila Boa Esperança",
        "street": "Rua Acamar",
        "zipcode": "18301-605"
    },
    {
        "city": "Capão Bonito",
        "state": "SP",
        "district": "Jardim Vale Verde",
        "street": "Rua Tsutako Kakuda",
        "zipcode": "18301-510"
    },
    {
        "city": "Capão Bonito",
        "state": "SP",
        "district": "Vila Bela Vista",
        "street": "Rua Benedito Ferreira",
        "zipcode": "18301-236"
    },
    {
        "city": "Capão Bonito",
        "state": "SP",
        "district": "Vila Bela Vista",
        "street": "Rua João Lopes Machado",
        "zipcode": "18301-235"
    },
    {
        "city": "Capão Bonito",
        "state": "SP",
        "district": "Vila Boa Esperança",
        "street": "Rua Nove",
        "zipcode": "18301-635"
    },
    {
        "city": "Capão Bonito",
        "state": "SP",
        "district": "Vila Aparecida",
        "street": "Rua João Amâncio de Queiroz",
        "zipcode": "18303-070"
    },
    {
        "city": "Capão Bonito",
        "state": "SP",
        "district": "Vila Aparecida",
        "street": "Rua Paulo Mendes de Carvalho",
        "zipcode": "18303-090"
    },
    {
        "city": "Capão Bonito",
        "state": "SP",
        "district": "Vila São Paulo",
        "street": "Rua Itararé",
        "zipcode": "18302-215"
    },
    {
        "city": "Capão Bonito",
        "state": "SP",
        "district": "Vila Aparecida",
        "street": "Rua Abud Fakri",
        "zipcode": "18303-480"
    },
    {
        "city": "Capão Bonito",
        "state": "SP",
        "district": "Querência do Turvo",
        "street": "Rua dos Crisântemos",
        "zipcode": "18304-767"
    },
    {
        "city": "Capão Bonito",
        "state": "SP",
        "district": "Vila Aparecida",
        "street": "Rua Acib Ozi",
        "zipcode": "18303-150"
    },
    {
        "city": "Capão Bonito",
        "state": "SP",
        "district": "Vila Aparecida",
        "street": "Rua Airton Martins",
        "zipcode": "18303-190"
    },
    {
        "city": "Capão Bonito",
        "state": "SP",
        "district": "Vila Aparecida",
        "street": "Rua Antônio Bernardes Ribeiro",
        "zipcode": "18303-360"
    },
    {
        "city": "Capão Bonito",
        "state": "SP",
        "district": "Vila Aparecida",
        "street": "Rua Ataliba Mendes",
        "zipcode": "18303-320"
    },
    {
        "city": "Capão Bonito",
        "state": "SP",
        "district": "Jardim da Amizade",
        "street": "Rua Cássio Antônio José Lucas",
        "zipcode": "18303-590"
    },
    {
        "city": "Capão Bonito",
        "state": "SP",
        "district": "Vila Nova Capão Bonito",
        "street": "Rua Cinqüenta",
        "zipcode": "18304-310"
    },
    {
        "city": "Capão Bonito",
        "state": "SP",
        "district": "Vila Aparecida",
        "street": "Rua Domingos Nunes",
        "zipcode": "18303-210"
    },
    {
        "city": "Capão Bonito",
        "state": "SP",
        "district": "Vila Aparecida",
        "street": "Rua Eugênio Castanho de Almeida",
        "zipcode": "18303-140"
    },
    {
        "city": "Capão Bonito",
        "state": "SP",
        "district": "Vila Aparecida",
        "street": "Rua Fausto dos Santos",
        "zipcode": "18303-430"
    },
    {
        "city": "Capão Bonito",
        "state": "SP",
        "district": "Vila Aparecida",
        "street": "Rua Francisco Bloes",
        "zipcode": "18303-450"
    },
    {
        "city": "Capão Bonito",
        "state": "SP",
        "district": "Vila Aparecida",
        "street": "Rua Francisco Maldonado Costilhas",
        "zipcode": "18303-280"
    },
    {
        "city": "Capão Bonito",
        "state": "SP",
        "district": "Vila Nova Capão Bonito",
        "street": "Avenida João Antunes Rodrigues",
        "zipcode": "18304-000"
    },
    {
        "city": "Capão Bonito",
        "state": "SP",
        "district": "Vila Aparecida",
        "street": "Rua João Venturelli",
        "zipcode": "18303-230"
    },
    {
        "city": "Capão Bonito",
        "state": "SP",
        "district": "Vila Aparecida",
        "street": "Rua Joaquim Inácio da Silva",
        "zipcode": "18303-380"
    },
    {
        "city": "Capão Bonito",
        "state": "SP",
        "district": "Vila Aparecida",
        "street": "Rua José Bento Quevedo",
        "zipcode": "18303-400"
    },
    {
        "city": "Capão Bonito",
        "state": "SP",
        "district": "Vila Aparecida",
        "street": "Rua Júlio Dias Júnior",
        "zipcode": "18303-540"
    },
    {
        "city": "Capão Bonito",
        "state": "SP",
        "district": "Vila Bela Vista",
        "street": "Rua Juraci Castanho do Amaral",
        "zipcode": "18301-234"
    },
    {
        "city": "Capão Bonito",
        "state": "SP",
        "district": "Jardim Vale Verde",
        "street": "Rua Ibraim Adedo",
        "zipcode": "18301-460"
    },
    {
        "city": "Capão Bonito",
        "state": "SP",
        "district": "Vila Aparecida",
        "street": "Rua Komakite Ikeda",
        "zipcode": "18303-260"
    },
    {
        "city": "Capão Bonito",
        "state": "SP",
        "district": "Vila Nova Capão Bonito",
        "street": "Rua Laurindo João da Silva",
        "zipcode": "18304-080"
    },
    {
        "city": "Capão Bonito",
        "state": "SP",
        "district": "Vila Aparecida",
        "street": "Rua Luiz Antônio Oliveira",
        "zipcode": "18303-290"
    },
    {
        "city": "Capão Bonito",
        "state": "SP",
        "district": "Jardim da Amizade",
        "street": "Rua Márcio Batista da Silveira",
        "zipcode": "18303-610"
    },
    {
        "city": "Capão Bonito",
        "state": "SP",
        "district": "Vila Aparecida",
        "street": "Rua Mário Pinheiro Manoel",
        "zipcode": "18303-180"
    },
    {
        "city": "Capão Bonito",
        "state": "SP",
        "district": "Vila Aparecida",
        "street": "Rua Masato Takigawa",
        "zipcode": "18303-240"
    },
    {
        "city": "Capão Bonito",
        "state": "SP",
        "district": "Vila Nova Capão Bonito",
        "street": "Rua Jurandir Correa de Moraes",
        "zipcode": "18304-060"
    },
    {
        "city": "Capão Bonito",
        "state": "SP",
        "district": "Vila Nova Capão Bonito",
        "street": "Rua Milton de Oliveira",
        "zipcode": "18304-050"
    },
    {
        "city": "Capão Bonito",
        "state": "SP",
        "district": "Vila Aparecida",
        "street": "Rua Otávio Bloes",
        "zipcode": "18303-440"
    },
    {
        "city": "Capão Bonito",
        "state": "SP",
        "district": "Vila Aparecida",
        "street": "Rua Paulo Aparício Oliveira",
        "zipcode": "18303-390"
    },
    {
        "city": "Capão Bonito",
        "state": "SP",
        "district": "Vila Aparecida",
        "street": "Rua Pedro Gonçalves de Almeida",
        "zipcode": "18303-330"
    },
    {
        "city": "Capão Bonito",
        "state": "SP",
        "district": "Vila Aparecida",
        "street": "Rua Pedro Ramos",
        "zipcode": "18303-220"
    },
    {
        "city": "Capão Bonito",
        "state": "SP",
        "district": "Vila Nova Capão Bonito",
        "street": "Rua Péricles de Freitas",
        "zipcode": "18304-010"
    },
    {
        "city": "Capão Bonito",
        "state": "SP",
        "district": "Vila Aparecida",
        "street": "Rua Procópio Batista da Silveira",
        "zipcode": "18303-060"
    },
    {
        "city": "Capão Bonito",
        "state": "SP",
        "district": "Vila Nova Capão Bonito",
        "street": "Rua Quarenta e Oito",
        "zipcode": "18304-335"
    },
    {
        "city": "Capão Bonito",
        "state": "SP",
        "district": "Vila Nova Capão Bonito",
        "street": "Travessa Quarenta e Seis",
        "zipcode": "18304-330"
    },
    {
        "city": "Capão Bonito",
        "state": "SP",
        "district": "Vila Nova Capão Bonito",
        "street": "Rua Rafael Machado Neto",
        "zipcode": "18304-130"
    },
    {
        "city": "Capão Bonito",
        "state": "SP",
        "district": "Terras do Embiruçu",
        "street": "Rua Sandra",
        "zipcode": "18304-740"
    },
    {
        "city": "Capão Bonito",
        "state": "SP",
        "district": "Vila Aparecida",
        "street": "Rua Sueli Menin",
        "zipcode": "18303-500"
    },
    {
        "city": "Capão Bonito",
        "state": "SP",
        "district": "Vila Nova Capão Bonito",
        "street": "Travessa Trinta",
        "zipcode": "18304-270"
    },
    {
        "city": "Capão Bonito",
        "state": "SP",
        "district": "Vila Nova Capão Bonito",
        "street": "Rua Vinte e Cinco",
        "zipcode": "18304-210"
    },
    {
        "city": "Capão Bonito",
        "state": "SP",
        "district": "Vila Nova Capão Bonito",
        "street": "Rua Vinte e Dois",
        "zipcode": "18304-160"
    },
    {
        "city": "Capão Bonito",
        "state": "SP",
        "district": "Vila Nova Capão Bonito",
        "street": "Rua Vinte e Nove",
        "zipcode": "18304-260"
    },
    {
        "city": "Capão Bonito",
        "state": "SP",
        "district": "Vila Nova Capão Bonito",
        "street": "Rua Vinte e Quatro",
        "zipcode": "18304-180"
    },
    {
        "city": "Capão Bonito",
        "state": "SP",
        "district": "Vila Nova Capão Bonito",
        "street": "Rua Vinte e Três",
        "zipcode": "18304-170"
    },
    {
        "city": "Capão Bonito",
        "state": "SP",
        "district": "Vila Nova Capão Bonito",
        "street": "Rua Walter Jorge",
        "zipcode": "18304-120"
    },
    {
        "city": "Capão Bonito",
        "state": "SP",
        "district": "Vila Aparecida",
        "street": "Rua Salomão Isaac",
        "zipcode": "18303-470"
    },
    {
        "city": "Capão Bonito",
        "state": "SP",
        "district": "Vila Nova Capão Bonito",
        "street": "Rua Gomercindo Amador Ferreira",
        "zipcode": "18304-320"
    },
    {
        "city": "Capão Bonito",
        "state": "SP",
        "district": "Vila Aparecida",
        "street": "Rua Roberto Quirici",
        "zipcode": "18303-530"
    },
    {
        "city": "Capão Bonito",
        "state": "SP",
        "district": "Vila Nova Capão Bonito",
        "street": "Rua Vinte e Oito",
        "zipcode": "18304-240"
    },
    {
        "city": "Capão Bonito",
        "state": "SP",
        "district": "Vila Nova Capão Bonito",
        "street": "Avenida Capitão Calixto de Almeida",
        "zipcode": "18304-046"
    },
    {
        "city": "Capão Bonito",
        "state": "SP",
        "district": "Jardim Colonial",
        "street": "Rua Altemar Dutra de Oliveira",
        "zipcode": "18305-220"
    },
    {
        "city": "Capão Bonito",
        "state": "SP",
        "district": "Jardim Alvorada",
        "street": "Rua Benedito Gomes Vaz",
        "zipcode": "18305-040"
    },
    {
        "city": "Capão Bonito",
        "state": "SP",
        "district": "Jardim Colonial",
        "street": "Alameda das Candeias",
        "zipcode": "18305-270"
    },
    {
        "city": "Capão Bonito",
        "state": "SP",
        "district": "Terras do Embiruçu",
        "street": "Rua dos Buritis",
        "zipcode": "18304-695"
    },
    {
        "city": "Capão Bonito",
        "state": "SP",
        "district": "Jardim Colonial",
        "street": "Alameda Casa Branca",
        "zipcode": "18305-310"
    },
    {
        "city": "Capão Bonito",
        "state": "SP",
        "district": "Jardim Alvorada",
        "street": "Rua Célio Antônio de Almeida",
        "zipcode": "18305-080"
    },
    {
        "city": "Capão Bonito",
        "state": "SP",
        "district": "Vila Nova Capão Bonito",
        "street": "Avenida Doutor José Bloes Motta",
        "zipcode": "18304-400"
    },
    {
        "city": "Capão Bonito",
        "state": "SP",
        "district": "Terras do Embiruçu",
        "street": "Rua Elisa",
        "zipcode": "18304-725"
    },
    {
        "city": "Capão Bonito",
        "state": "SP",
        "district": "Jardim Alvorada",
        "street": "Rua Emídio Pucci Filho",
        "zipcode": "18305-090"
    },
    {
        "city": "Capão Bonito",
        "state": "SP",
        "district": "Jardim Colonial",
        "street": "Rua Frederico Heg",
        "zipcode": "18305-350"
    },
    {
        "city": "Capão Bonito",
        "state": "SP",
        "district": "Jardim Colonial",
        "street": "Rua da Imperatriz",
        "zipcode": "18305-230"
    },
    {
        "city": "Capão Bonito",
        "state": "SP",
        "district": "Terras do Embiruçu",
        "street": "Rua Juliana",
        "zipcode": "18304-720"
    },
    {
        "city": "Capão Bonito",
        "state": "SP",
        "district": "Jardim Alvorada",
        "street": "Rua Kalil Selem Safadi",
        "zipcode": "18305-120"
    },
    {
        "city": "Capão Bonito",
        "state": "SP",
        "district": "Jardim Colonial",
        "street": "Alameda Mãe Preta",
        "zipcode": "18305-300"
    },
    {
        "city": "Capão Bonito",
        "state": "SP",
        "district": "Terras do Embiruçu",
        "street": "Rua Mariana",
        "zipcode": "18304-730"
    },
    {
        "city": "Capão Bonito",
        "state": "SP",
        "district": "Vila Nova Capão Bonito",
        "street": "Rua Michel Ibrahim Saba",
        "zipcode": "18304-520"
    },
    {
        "city": "Capão Bonito",
        "state": "SP",
        "district": "Jardim Colonial",
        "street": "Rua Olinda",
        "zipcode": "18305-190"
    },
    {
        "city": "Capão Bonito",
        "state": "SP",
        "district": "Jardim Colonial",
        "street": "Alameda do Oratório",
        "zipcode": "18305-280"
    },
    {
        "city": "Capão Bonito",
        "state": "SP",
        "district": "Distrito Industrial",
        "street": "Rua Orlando Venturelli",
        "zipcode": "18304-570"
    },
    {
        "city": "Capão Bonito",
        "state": "SP",
        "district": "Terras do Embiruçu",
        "street": "Rua Maria Angelina Ramos",
        "zipcode": "18304-670"
    },
    {
        "city": "Capão Bonito",
        "state": "SP",
        "district": "Terras do Embiruçu",
        "street": "Praça Harmonia",
        "zipcode": "18304-665"
    },
    {
        "city": "Capão Bonito",
        "state": "SP",
        "district": "Jardim Colonial",
        "street": "Rua do Ouro",
        "zipcode": "18305-170"
    },
    {
        "city": "Capão Bonito",
        "state": "SP",
        "district": "Jardim Alvorada",
        "street": "Rua Paulo Henrique Pereira",
        "zipcode": "18305-060"
    },
    {
        "city": "Capão Bonito",
        "state": "SP",
        "district": "Jardim Alvorada",
        "street": "Rua Pedro Batista da Silveira",
        "zipcode": "18305-010"
    },
    {
        "city": "Capão Bonito",
        "state": "SP",
        "district": "Jardim Alvorada",
        "street": "Rua Pedro Lopes de Almeida Castro",
        "zipcode": "18305-050"
    },
    {
        "city": "Capão Bonito",
        "state": "SP",
        "district": "Vila Nova Capão Bonito",
        "street": "Rua Quarenta e Dois",
        "zipcode": "18304-410"
    },
    {
        "city": "Capão Bonito",
        "state": "SP",
        "district": "Vila Nova Capão Bonito",
        "street": "Rua Quarenta e Um",
        "zipcode": "18304-390"
    },
    {
        "city": "Capão Bonito",
        "state": "SP",
        "district": "Jardim Colonial",
        "street": "Rua da Realeza",
        "zipcode": "18305-180"
    },
    {
        "city": "Capão Bonito",
        "state": "SP",
        "district": "Distrito Industrial",
        "street": "Rua Seis",
        "zipcode": "18304-600"
    },
    {
        "city": "Capão Bonito",
        "state": "SP",
        "district": "Jardim Colonial",
        "street": "Rua Senzala",
        "zipcode": "18305-330"
    },
    {
        "city": "Capão Bonito",
        "state": "SP",
        "district": "Jardim Alvorada",
        "street": "Rua Doutor Tadeu Zaglobinski Venturelli",
        "zipcode": "18305-005"
    },
    {
        "city": "Capão Bonito",
        "state": "SP",
        "district": "Vila Nova Capão Bonito",
        "street": "Rua Trinta",
        "zipcode": "18304-480"
    },
    {
        "city": "Capão Bonito",
        "state": "SP",
        "district": "Vila Nova Capão Bonito",
        "street": "Rua Trinta e Quatro",
        "zipcode": "18304-500"
    },
    {
        "city": "Capão Bonito",
        "state": "SP",
        "district": "Vila Nova Capão Bonito",
        "street": "Travessa Trinta e Quatro",
        "zipcode": "18304-440"
    },
    {
        "city": "Capão Bonito",
        "state": "SP",
        "district": "Distrito Industrial",
        "street": "Rua Eiichi Kudo",
        "zipcode": "18304-530"
    },
    {
        "city": "Capão Bonito",
        "state": "SP",
        "district": "Vila Nova Capão Bonito",
        "street": "Rua Quarenta e Cinco",
        "zipcode": "18304-470"
    },
    {
        "city": "Capão Bonito",
        "state": "SP",
        "district": "Vila Santa Isabel",
        "street": "Rua Cinqüenta e Seis",
        "zipcode": "18306-230"
    },
    {
        "city": "Capão Bonito",
        "state": "SP",
        "district": "Vila Santa Isabel",
        "street": "Rua Cinqüenta e Sete",
        "zipcode": "18306-220"
    },
    {
        "city": "Capão Bonito",
        "state": "SP",
        "district": "Vila Santa Isabel",
        "street": "Rua Cinqüenta e Três",
        "zipcode": "18306-340"
    },
    {
        "city": "Capão Bonito",
        "state": "SP",
        "district": "Jardim Colonial",
        "street": "Travessa do Conselheiro",
        "zipcode": "18305-178"
    },
    {
        "city": "Capão Bonito",
        "state": "SP",
        "district": "Jardim Cruzeiro",
        "street": "Rua Dom José de Aguirre",
        "zipcode": "18305-480"
    },
    {
        "city": "Capão Bonito",
        "state": "SP",
        "district": "Terras do Embiruçu",
        "street": "Avenida Dona Nenê",
        "zipcode": "18304-758"
    },
    {
        "city": "Capão Bonito",
        "state": "SP",
        "district": "Vila Nova Capão Bonito",
        "street": "Rua Oscar Date",
        "zipcode": "18304-360"
    },
    {
        "city": "Capão Bonito",
        "state": "SP",
        "district": "Vila Nova Capão Bonito",
        "street": "Rua Maria Rodrigues Vieira",
        "zipcode": "18304-490"
    },
    {
        "city": "Capão Bonito",
        "state": "SP",
        "district": "Terras do Embiruçu",
        "street": "Rua Mangueira Velha",
        "zipcode": "18304-680"
    },
    {
        "city": "Capão Bonito",
        "state": "SP",
        "district": "Terras do Embiruçu",
        "street": "Rua dos Manacás",
        "zipcode": "18304-705"
    },
    {
        "city": "Capão Bonito",
        "state": "SP",
        "district": "Vila Nova Capão Bonito",
        "street": "Rua José Venturelli",
        "zipcode": "18304-140"
    },
    {
        "city": "Capão Bonito",
        "state": "SP",
        "district": "Vila Nova Capão Bonito",
        "street": "Estrada Municipal Capuava",
        "zipcode": "18304-518"
    },
    {
        "city": "Capão Bonito",
        "state": "SP",
        "district": "Distrito Industrial",
        "street": "Rua Virgílio Horácio Menin",
        "zipcode": "18304-580"
    },
    {
        "city": "Capão Bonito",
        "state": "SP",
        "district": "Terras do Embiruçu",
        "street": "Rua Paula",
        "zipcode": "18304-690"
    },
    {
        "city": "Capão Bonito",
        "state": "SP",
        "district": "Vila Nova Capão Bonito",
        "street": "Rua Marui Ferrari",
        "zipcode": "18304-070"
    },
    {
        "city": "Capão Bonito",
        "state": "SP",
        "district": "Vila Nova Capão Bonito",
        "street": "Rua João Quirici",
        "zipcode": "18304-290"
    },
    {
        "city": "Capão Bonito",
        "state": "SP",
        "district": "Vila Nova Capão Bonito",
        "street": "Rua Odorica Maria Vieira",
        "zipcode": "18304-446"
    },
    {
        "city": "Capão Bonito",
        "state": "SP",
        "district": "Jardim da Amizade",
        "street": "Rua Luiz Soares de Moraes",
        "zipcode": "18303-680"
    },
    {
        "city": "Capão Bonito",
        "state": "SP",
        "district": "Jardim Cruzeiro",
        "street": "Rua Jair Gomes",
        "zipcode": "18305-450"
    },
    {
        "city": "Capão Bonito",
        "state": "SP",
        "district": "Jardim Cruzeiro",
        "street": "Rua José Lucas",
        "zipcode": "18305-510"
    },
    {
        "city": "Capão Bonito",
        "state": "SP",
        "district": "Jardim Cruzeiro",
        "street": "Rua Júlio Prestes",
        "zipcode": "18305-460"
    },
    {
        "city": "Capão Bonito",
        "state": "SP",
        "district": "Vila Santa Isabel",
        "street": "Rua Mariano Prestes Ferraz",
        "zipcode": "18306-120"
    },
    {
        "city": "Capão Bonito",
        "state": "SP",
        "district": "Vila Santa Isabel",
        "street": "Rua João Firmino de Oliveira",
        "zipcode": "18306-040"
    },
    {
        "city": "Capão Bonito",
        "state": "SP",
        "district": "Jardim Cruzeiro",
        "street": "Rua Padre João Moderiano",
        "zipcode": "18305-500"
    },
    {
        "city": "Capão Bonito",
        "state": "SP",
        "district": "Jardim Cruzeiro",
        "street": "Avenida Plácido Batista da Silveira",
        "zipcode": "18305-475"
    },
    {
        "city": "Capão Bonito",
        "state": "SP",
        "district": "Vila Santa Isabel",
        "street": "Rua Quarenta e Cinco",
        "zipcode": "18306-460"
    },
    {
        "city": "Capão Bonito",
        "state": "SP",
        "district": "Vila Santa Isabel",
        "street": "Rua Quarenta e Três",
        "zipcode": "18306-450"
    },
    {
        "city": "Capão Bonito",
        "state": "SP",
        "district": "Vila Santa Isabel",
        "street": "Rua Quatorze",
        "zipcode": "18306-080"
    },
    {
        "city": "Capão Bonito",
        "state": "SP",
        "district": "Vila Bela Vista",
        "street": "Rua Rio Grande do Norte",
        "zipcode": "18301-130"
    },
    {
        "city": "Capão Bonito",
        "state": "SP",
        "district": "Vila Santa Isabel",
        "street": "Rua Sessenta e Dois",
        "zipcode": "18306-290"
    },
    {
        "city": "Capão Bonito",
        "state": "SP",
        "district": "Vila Santa Isabel",
        "street": "Rua Sessenta e Nove",
        "zipcode": "18306-400"
    },
    {
        "city": "Capão Bonito",
        "state": "SP",
        "district": "Vila Santa Isabel",
        "street": "Rua Sessenta e Um",
        "zipcode": "18306-130"
    },
    {
        "city": "Capão Bonito",
        "state": "SP",
        "district": "Vila Santa Isabel",
        "street": "Rua Treze",
        "zipcode": "18306-070"
    },
    {
        "city": "Capão Bonito",
        "state": "SP",
        "district": "Vila Santa Isabel",
        "street": "Rua Trinta e Dois",
        "zipcode": "18306-370"
    },
    {
        "city": "Capão Bonito",
        "state": "SP",
        "district": "Vila Santa Isabel",
        "street": "Rua Trinta e Nove",
        "zipcode": "18306-430"
    },
    {
        "city": "Capão Bonito",
        "state": "SP",
        "district": "Vila Santa Isabel",
        "street": "Rua Trinta e Oito",
        "zipcode": "18306-470"
    },
    {
        "city": "Capão Bonito",
        "state": "SP",
        "district": "Vila Santa Isabel",
        "street": "Rua Trinta e Quatro",
        "zipcode": "18306-390"
    },
    {
        "city": "Capão Bonito",
        "state": "SP",
        "district": "Vila Santa Isabel",
        "street": "Rua Domingos de Freitas Sobrinho",
        "zipcode": "18306-140"
    },
    {
        "city": "Capão Bonito",
        "state": "SP",
        "district": "Vila Santa Isabel",
        "street": "Rua Trinta e Três",
        "zipcode": "18306-380"
    },
    {
        "city": "Capão Bonito",
        "state": "SP",
        "district": "Vila Santa Isabel",
        "street": "Rua Vinte e Cinco",
        "zipcode": "18306-270"
    },
    {
        "city": "Capão Bonito",
        "state": "SP",
        "district": "Vila Santa Isabel",
        "street": "Rua Vinte e Nove",
        "zipcode": "18306-240"
    },
    {
        "city": "Capão Bonito",
        "state": "SP",
        "district": "Vila Santa Isabel",
        "street": "Rua Vinte e Quatro",
        "zipcode": "18306-310"
    },
    {
        "city": "Capão Bonito",
        "state": "SP",
        "district": "Vila Santa Isabel",
        "street": "Rua Vinte e Seis",
        "zipcode": "18306-280"
    },
    {
        "city": "Capão Bonito",
        "state": "SP",
        "district": "Vila Santa Isabel",
        "street": "Avenida Um",
        "zipcode": "18306-160"
    },
    {
        "city": "Capão Bonito",
        "state": "SP",
        "district": "Jardim Cruzeiro",
        "street": "Rua Yoiti Ikeda",
        "zipcode": "18305-485"
    },
    {
        "city": "Capão Bonito",
        "state": "SP",
        "district": "Vila Santa Isabel",
        "street": "Rua Cinquenta e Nove",
        "zipcode": "18306-415"
    },
    {
        "city": "Capão Bonito",
        "state": "SP",
        "district": "Vila Santa Isabel",
        "street": "Rua Dois",
        "zipcode": "18306-035"
    },
    {
        "city": "Capão Bonito",
        "state": "SP",
        "district": "Vila Santa Isabel",
        "street": "Rua Três",
        "zipcode": "18306-038"
    },
    {
        "city": "Capão Bonito",
        "state": "SP",
        "district": "Vila Santa Isabel",
        "street": "Rua Quatro",
        "zipcode": "18306-045"
    },
    {
        "city": "Capão Bonito",
        "state": "SP",
        "district": "Vila Santa Isabel",
        "street": "Rua Oito",
        "zipcode": "18306-048"
    },
    {
        "city": "Capão Bonito",
        "state": "SP",
        "district": "Vila Santa Isabel",
        "street": "Rua Cinquenta e Oito",
        "zipcode": "18306-413"
    },
    {
        "city": "Capão Bonito",
        "state": "SP",
        "district": "Vila Santa Isabel",
        "street": "Rua Trinta e Sete",
        "zipcode": "18306-397"
    },
    {
        "city": "Capão Bonito",
        "state": "SP",
        "district": "Parque das Nações",
        "street": "Rua Bolívia",
        "zipcode": "18307-510"
    },
    {
        "city": "Capão Bonito",
        "state": "SP",
        "district": "Vila Santa Rosa",
        "street": "Rua Bom Jesus dos Chaves",
        "zipcode": "18307-210"
    },
    {
        "city": "Capão Bonito",
        "state": "SP",
        "district": "Parque das Nações",
        "street": "Rua Bulgária",
        "zipcode": "18307-575"
    },
    {
        "city": "Capão Bonito",
        "state": "SP",
        "district": "Vila Santa Rosa",
        "street": "Rua Capitão Firmino Gonçalves de Almeida",
        "zipcode": "18307-140"
    },
    {
        "city": "Capão Bonito",
        "state": "SP",
        "district": "Vila Santa Rosa",
        "street": "Rua Carmo Isaac",
        "zipcode": "18307-130"
    },
    {
        "city": "Capão Bonito",
        "state": "SP",
        "district": "Parque das Nações",
        "street": "Avenida das Cerejeiras",
        "zipcode": "18307-565"
    },
    {
        "city": "Capão Bonito",
        "state": "SP",
        "district": "Parque das Nações",
        "street": "Rua Chile",
        "zipcode": "18307-370"
    },
    {
        "city": "Capão Bonito",
        "state": "SP",
        "district": "Vila Santa Isabel",
        "street": "Rua Cinqüenta e Um",
        "zipcode": "18306-510"
    },
    {
        "city": "Capão Bonito",
        "state": "SP",
        "district": "Vila Santa Rosa",
        "street": "Rua Cônego Luiz de Moraes",
        "zipcode": "18307-060"
    },
    {
        "city": "Capão Bonito",
        "state": "SP",
        "district": "Parque das Nações",
        "street": "Rua Dinamarca",
        "zipcode": "18307-490"
    },
    {
        "city": "Capão Bonito",
        "state": "SP",
        "district": "Querência do Turvo",
        "street": "Rua dos Cravos",
        "zipcode": "18304-761"
    },
    {
        "city": "Capão Bonito",
        "state": "SP",
        "district": "Querência do Turvo",
        "street": "Rua Maria das Dores Vieira",
        "zipcode": "18304-760"
    },
    {
        "city": "Capão Bonito",
        "state": "SP",
        "district": "Jardim Colonial",
        "street": "Travessa dos Inconfidentes",
        "zipcode": "18305-187"
    },
    {
        "city": "Capão Bonito",
        "state": "SP",
        "district": "Vila Santa Isabel",
        "street": "Rua Maria Aparecida da Silva",
        "zipcode": "18306-020"
    },
    {
        "city": "Capão Bonito",
        "state": "SP",
        "district": "Terras do Embiruçu",
        "street": "Rua José Cassettari",
        "zipcode": "18304-757"
    },
    {
        "city": "Capão Bonito",
        "state": "SP",
        "district": "Querência do Turvo",
        "street": "Rua das Samambaias",
        "zipcode": "18304-836"
    },
    {
        "city": "Capão Bonito",
        "state": "SP",
        "district": "Querência do Turvo",
        "street": "Rua das Violetas",
        "zipcode": "18304-763"
    },
    {
        "city": "Capão Bonito",
        "state": "SP",
        "district": "Querência do Turvo",
        "street": "Rua das Palmas",
        "zipcode": "18304-768"
    },
    {
        "city": "Capão Bonito",
        "state": "SP",
        "district": "Centro",
        "street": "Rua Domingos Lírio",
        "zipcode": "18300-150"
    },
    {
        "city": "Capão Bonito",
        "state": "SP",
        "district": "Jardim Europa",
        "street": "Rua Espanha",
        "zipcode": "18307-680"
    },
    {
        "city": "Capão Bonito",
        "state": "SP",
        "district": "Jardim Europa",
        "street": "Avenida Europa",
        "zipcode": "18307-600"
    },
    {
        "city": "Capão Bonito",
        "state": "SP",
        "district": "Centro",
        "street": "Rua dos Expedicionários",
        "zipcode": "18300-470"
    },
    {
        "city": "Capão Bonito",
        "state": "SP",
        "district": "Vila Aparecida",
        "street": "Rua Faustino Cesarino Barreto",
        "zipcode": "18303-300"
    },
    {
        "city": "Capão Bonito",
        "state": "SP",
        "district": "Vila Santa Rosa",
        "street": "Rua da Felicidade",
        "zipcode": "18307-290"
    },
    {
        "city": "Capão Bonito",
        "state": "SP",
        "district": "Centro",
        "street": "Rua Floriano Peixoto",
        "zipcode": "18300-250"
    },
    {
        "city": "Capão Bonito",
        "state": "SP",
        "district": "Jardim Europa",
        "street": "Rua França",
        "zipcode": "18307-590"
    },
    {
        "city": "Capão Bonito",
        "state": "SP",
        "district": "Parque das Nações",
        "street": "Rua Grécia",
        "zipcode": "18307-400"
    },
    {
        "city": "Capão Bonito",
        "state": "SP",
        "district": "Vila Santa Rosa",
        "street": "Rua Henrique Silveira",
        "zipcode": "18307-240"
    },
    {
        "city": "Capão Bonito",
        "state": "SP",
        "district": "Jardim Europa",
        "street": "Rua Holanda",
        "zipcode": "18307-670"
    },
    {
        "city": "Capão Bonito",
        "state": "SP",
        "district": "Parque das Nações",
        "street": "Rua Índia",
        "zipcode": "18307-410"
    },
    {
        "city": "Capão Bonito",
        "state": "SP",
        "district": "Parque das Nações",
        "street": "Avenida Itália",
        "zipcode": "18307-470"
    },
    {
        "city": "Capão Bonito",
        "state": "SP",
        "district": "Vila Santa Rosa",
        "street": "Rua João da Silva Prestes",
        "zipcode": "18307-080"
    },
    {
        "city": "Capão Bonito",
        "state": "SP",
        "district": "Vila Santa Rosa",
        "street": "Rua Jonas de Oliveira",
        "zipcode": "18307-190"
    },
    {
        "city": "Capão Bonito",
        "state": "SP",
        "district": "Vila Santa Rosa",
        "street": "Rua José Henrique da Silveira",
        "zipcode": "18307-270"
    },
    {
        "city": "Capão Bonito",
        "state": "SP",
        "district": "Vila Bela Vista",
        "street": "Rua Luiz Bugni",
        "zipcode": "18301-005"
    },
    {
        "city": "Capão Bonito",
        "state": "SP",
        "district": "Vila Santa Rosa",
        "street": "Rua Mário Milani",
        "zipcode": "18307-245"
    },
    {
        "city": "Capão Bonito",
        "state": "SP",
        "district": "Parque das Nações",
        "street": "Rua México",
        "zipcode": "18307-350"
    },
    {
        "city": "Capão Bonito",
        "state": "SP",
        "district": "Vila Santa Isabel",
        "street": "Rua Onze",
        "zipcode": "18306-050"
    },
    {
        "city": "Capão Bonito",
        "state": "SP",
        "district": "Jardim da Amizade",
        "street": "Rua Joaquim Bueno Filho",
        "zipcode": "18303-620"
    },
    {
        "city": "Capão Bonito",
        "state": "SP",
        "district": "Vila Santa Isabel",
        "street": "Rua Manuel Antônio Marrão Filho",
        "zipcode": "18306-180"
    },
    {
        "city": "Capão Bonito",
        "state": "SP",
        "district": "Parque das Nações",
        "street": "Rua Peru",
        "zipcode": "18307-500"
    },
    {
        "city": "Capão Bonito",
        "state": "SP",
        "district": "Vila Santa Isabel",
        "street": "Rua Quarenta e Um",
        "zipcode": "18306-520"
    },
    {
        "city": "Capão Bonito",
        "state": "SP",
        "district": "Centro",
        "street": "Rua Quintino Bocaiúva",
        "zipcode": "18300-390"
    },
    {
        "city": "Capão Bonito",
        "state": "SP",
        "district": "Vila Bela Vista",
        "street": "Rua Rio Grande do Sul",
        "zipcode": "18301-140"
    },
    {
        "city": "Capão Bonito",
        "state": "SP",
        "district": "Vila Santa Isabel",
        "street": "Rua Sessenta e Quatro",
        "zipcode": "18306-490"
    },
    {
        "city": "Capão Bonito",
        "state": "SP",
        "district": "Parque das Nações",
        "street": "Rua Suíça",
        "zipcode": "18307-345"
    },
    {
        "city": "Capão Bonito",
        "state": "SP",
        "district": "Vila Santa Isabel",
        "street": "Rua Trinta e Um",
        "zipcode": "18306-360"
    },
    {
        "city": "Capão Bonito",
        "state": "SP",
        "district": "Parque das Nações",
        "street": "Rua Turquia",
        "zipcode": "18307-390"
    },
    {
        "city": "Capão Bonito",
        "state": "SP",
        "district": "Vila Santa Rosa",
        "street": "Rua Um",
        "zipcode": "18307-280"
    },
    {
        "city": "Capão Bonito",
        "state": "SP",
        "district": "Parque das Nações",
        "street": "Rua Argentina",
        "zipcode": "18307-540"
    },
    {
        "city": "Capão Bonito",
        "state": "SP",
        "district": "Jardim Europa",
        "street": "Rua Portugal",
        "zipcode": "18307-690"
    },
    {
        "city": "Capão Bonito",
        "state": "SP",
        "district": "Vila Santa Rosa",
        "street": "Rua Seis",
        "zipcode": "18307-283"
    },
    {
        "city": "Capão Bonito",
        "state": "SP",
        "district": "Vila Santa Rosa",
        "street": "Rua Luiz de Maria",
        "zipcode": "18307-090"
    },
    {
        "city": "Capão Bonito",
        "state": "SP",
        "district": "Jardim Europa",
        "street": "Rua Maurício Piovezan Peceguini",
        "zipcode": "18307-585"
    },
    {
        "city": "Capão Bonito",
        "state": "SP",
        "district": "Centro",
        "street": "Rua Francisco Barreto",
        "zipcode": "18300-431"
    },
    {
        "city": "Capão Bonito",
        "state": "SP",
        "district": "Vila São Paulo",
        "street": "Avenida Massaichi Kakihara",
        "zipcode": "18302-285"
    },
    {
        "city": "Capão Bonito",
        "state": "SP",
        "district": "Centro",
        "street": "Rua Nove de Julho",
        "zipcode": "18300-295"
    },
    {
        "city": "Capão Bonito",
        "state": "SP",
        "district": "Vila Santa Isabel",
        "street": "Rua Sessenta e Sete",
        "zipcode": "18306-503"
    },
    {
        "city": "Capão Bonito",
        "state": "SP",
        "district": "Vila Santa Isabel",
        "street": "Rua Quarenta",
        "zipcode": "18306-518"
    },
    {
        "city": "Capão Bonito",
        "state": "SP",
        "district": "Vila Santa Isabel",
        "street": "Rua Quarenta e Nove",
        "zipcode": "18306-533"
    },
    {
        "city": "Capão Bonito",
        "state": "SP",
        "district": "Jardim Vale Verde",
        "street": "Rua Atílio José Stori",
        "zipcode": "18301-560"
    },
    {
        "city": "Capão Bonito",
        "state": "SP",
        "district": "Parque das Nações",
        "street": "Rua Austrália",
        "zipcode": "18307-420"
    },
    {
        "city": "Capão Bonito",
        "state": "SP",
        "district": "Vila Aparecida",
        "street": "Rua Darci Ferreira Mainardes",
        "zipcode": "18303-215"
    },
    {
        "city": "Capão Bonito",
        "state": "SP",
        "district": "Jardim Vale Verde",
        "street": "Rua Eurípedes de Oliveira Lima",
        "zipcode": "18301-490"
    },
    {
        "city": "Capão Bonito",
        "state": "SP",
        "district": "Vila Aparecida",
        "street": "Rua Henrique Balsevicius",
        "zipcode": "18303-310"
    },
    {
        "city": "Capão Bonito",
        "state": "SP",
        "district": "Distrito Industrial",
        "street": "Avenida Industrial",
        "zipcode": "18304-610"
    },
    {
        "city": "Capão Bonito",
        "state": "SP",
        "district": "Vila São Paulo",
        "street": "Avenida Itapeva",
        "zipcode": "18302-205"
    },
    {
        "city": "Capão Bonito",
        "state": "SP",
        "district": "Vila São Francisco de Assis",
        "street": "Rua João Gemignani",
        "zipcode": "18302-400"
    },
    {
        "city": "Capão Bonito",
        "state": "SP",
        "district": "Vila Nova Capão Bonito",
        "street": "Rua João Oliva do Amaral",
        "zipcode": "18304-200"
    },
    {
        "city": "Capão Bonito",
        "state": "SP",
        "district": "Distrito Industrial",
        "street": "Rua José Franco Perea",
        "zipcode": "18304-550"
    },
    {
        "city": "Capão Bonito",
        "state": "SP",
        "district": "Vila Aparecida",
        "street": "Rua Luiz Scuoteguazza",
        "zipcode": "18303-250"
    },
    {
        "city": "Capão Bonito",
        "state": "SP",
        "district": "Jardim Vale Verde",
        "street": "Rua Malvina Oliva do Amaral",
        "zipcode": "18301-580"
    },
    {
        "city": "Capão Bonito",
        "state": "SP",
        "district": "Vila Aparecida",
        "street": "Rua Manoel Cordeiro Miranda",
        "zipcode": "18303-350"
    },
    {
        "city": "Capão Bonito",
        "state": "SP",
        "district": "Vila Aparecida",
        "street": "Rua Maria Aliaga Perez",
        "zipcode": "18303-370"
    },
    {
        "city": "Capão Bonito",
        "state": "SP",
        "district": "Vila Aparecida",
        "street": "Rua Natalio Enei",
        "zipcode": "18303-130"
    },
    {
        "city": "Capão Bonito",
        "state": "SP",
        "district": "Vila São Judas Thadeu",
        "street": "Rua Padre Artur do Amaral Camargo",
        "zipcode": "18301-280"
    },
    {
        "city": "Capão Bonito",
        "state": "SP",
        "district": "Distrito Industrial",
        "street": "Rua Pedro Aliagla Perez",
        "zipcode": "18304-540"
    },
    {
        "city": "Capão Bonito",
        "state": "SP",
        "district": "Vila Aparecida",
        "street": "Rua Pedro Augusto Queiroz",
        "zipcode": "18303-040"
    },
    {
        "city": "Capão Bonito",
        "state": "SP",
        "district": "Vila Santa Rosa",
        "street": "Rua Professor Mário Gemignani",
        "zipcode": "18307-220"
    },
    {
        "city": "Capão Bonito",
        "state": "SP",
        "district": "Vila Bela Vista",
        "street": "Rua Professora Irene Aparecida S. Monteiro",
        "zipcode": "18301-175"
    },
    {
        "city": "Capão Bonito",
        "state": "SP",
        "district": "Vila Nova Capão Bonito",
        "street": "Rua Quarenta e Nove",
        "zipcode": "18304-336"
    },
    {
        "city": "Capão Bonito",
        "state": "SP",
        "district": "Vila São Paulo",
        "street": "Rua São Miguel Arcanjo",
        "zipcode": "18302-300"
    },
    {
        "city": "Capão Bonito",
        "state": "SP",
        "district": "Vila São Paulo",
        "street": "Rua Sete Barras",
        "zipcode": "18302-260"
    },
    {
        "city": "Capão Bonito",
        "state": "SP",
        "district": "Vila Aparecida",
        "street": "Rua Sílvio Gonçalves de Almeida",
        "zipcode": "18303-080"
    },
    {
        "city": "Capão Bonito",
        "state": "SP",
        "district": "Vila Bela Vista",
        "street": "Rua Tomihico Kacuta",
        "zipcode": "18301-025"
    },
    {
        "city": "Capão Bonito",
        "state": "SP",
        "district": "Vila Nova Capão Bonito",
        "street": "Rua Trinta e Cinco",
        "zipcode": "18304-510"
    },
    {
        "city": "Capão Bonito",
        "state": "SP",
        "district": "Vila Nova Capão Bonito",
        "street": "Rua Trinta e Nove",
        "zipcode": "18304-380"
    },
    {
        "city": "Capão Bonito",
        "state": "SP",
        "district": "Centro",
        "street": "Rua Vinte e Quatro de Fevereiro",
        "zipcode": "18300-999"
    },
    {
        "city": "Capão Bonito",
        "state": "SP",
        "district": "Vila Bela Vista",
        "street": "Rua Virgílio Lírio de Almeida",
        "zipcode": "18301-215"
    },
    {
        "city": "Capão Bonito",
        "state": "SP",
        "district": "Vila Bela Vista",
        "street": "Rua Wilson Alves Benjamin",
        "zipcode": "18301-155"
    },
    {
        "city": "Capão Bonito",
        "state": "SP",
        "district": "Terras do Embiruçu",
        "street": "Rua Nossa Senhora da Conceição",
        "zipcode": "18304-745"
    },
    {
        "city": "Capão Bonito",
        "state": "SP",
        "district": "Distrito Industrial",
        "street": "Rua Joaquim Mendes Machado",
        "zipcode": "18304-590"
    },
    {
        "city": "Capão Bonito",
        "state": "SP",
        "district": "Jardim da Amizade",
        "street": "Rua Zenith Maria Aparecida",
        "zipcode": "18303-630"
    },
    {
        "city": "Capão Bonito",
        "state": "SP",
        "district": "Vila Aparecida",
        "street": "Rua Braz Lucas Neto",
        "zipcode": "18303-410"
    },
    {
        "city": "Capão Bonito",
        "state": "SP",
        "district": "Vila Bela Vista",
        "street": "Rua Acre",
        "zipcode": "18301-135"
    },
    {
        "city": "Capão Bonito",
        "state": "SP",
        "district": "Vila Aparecida",
        "street": "Rua Ananias Aleixo de Freitas",
        "zipcode": "18303-550"
    },
    {
        "city": "Capão Bonito",
        "state": "SP",
        "district": "Vila Boa Esperança",
        "street": "Rua Eulália de Oliveira Ferreira",
        "zipcode": "18301-595"
    },
    {
        "city": "Capão Bonito",
        "state": "SP",
        "district": "Vila Nova Capão Bonito",
        "street": "Rua Eugênio Bento Chaves",
        "zipcode": "18304-250"
    },
    {
        "city": "Capão Bonito",
        "state": "SP",
        "district": "Vila São Paulo",
        "street": "Rua Itararé",
        "zipcode": "18302-216"
    },
    {
        "city": "Capão Bonito",
        "state": "SP",
        "district": "Vila Santa Isabel",
        "street": "Rua Quarenta e Dois",
        "zipcode": "18306-523"
    },
    {
        "city": "Capão Bonito",
        "state": "SP",
        "district": "Centro",
        "street": "Rua Bernardino de Campos",
        "zipcode": "18300-040"
    },
    {
        "city": "Capão Bonito",
        "state": "SP",
        "district": "Jardim Alvorada",
        "street": "Rua Brasílio Paiva",
        "zipcode": "18305-030"
    },
    {
        "city": "Capão Bonito",
        "state": "SP",
        "district": "Centro",
        "street": "Rua Campos Salles",
        "zipcode": "18300-090"
    },
    {
        "city": "Capão Bonito",
        "state": "SP",
        "district": "Parque das Nações",
        "street": "Rua Canadá",
        "zipcode": "18307-380"
    },
    {
        "city": "Capão Bonito",
        "state": "SP",
        "district": "Vila Guanabara",
        "street": "Rua Coronel Fidêncio Rodrigues de Carvalho",
        "zipcode": "18300-710"
    },
    {
        "city": "Capão Bonito",
        "state": "SP",
        "district": "Jardim Europa",
        "street": "Rua Escócia",
        "zipcode": "18307-596"
    },
    {
        "city": "Capão Bonito",
        "state": "SP",
        "district": "Centro",
        "street": "Rua Floriano Peixoto",
        "zipcode": "18300-005"
    },
    {
        "city": "Capão Bonito",
        "state": "SP",
        "district": "Parque das Nações",
        "street": "Rua Franca",
        "zipcode": "18307-576"
    },
    {
        "city": "Capão Bonito",
        "state": "SP",
        "district": "Jardim Alvorada",
        "street": "Rua Francisco Antunes dos Santos",
        "zipcode": "18305-110"
    },
    {
        "city": "Capão Bonito",
        "state": "SP",
        "district": "Jardim Cruzeiro",
        "street": "Avenida Governador Lucas Nogueira Garcez",
        "zipcode": "18305-505"
    },
    {
        "city": "Capão Bonito",
        "state": "SP",
        "district": "Vila Santa Rosa",
        "street": "Rua Jacira de Freitas Lucas",
        "zipcode": "18307-230"
    },
    {
        "city": "Capão Bonito",
        "state": "SP",
        "district": "Vila Santa Rosa",
        "street": "Rua Jacob Rodolpho",
        "zipcode": "18307-170"
    },
    {
        "city": "Capão Bonito",
        "state": "SP",
        "district": "Parque das Nações",
        "street": "Avenida Japão",
        "zipcode": "18307-340"
    },
    {
        "city": "Capão Bonito",
        "state": "SP",
        "district": "Vila São Judas Thadeu",
        "street": "Rua Juraci Gemignani",
        "zipcode": "18301-300"
    },
    {
        "city": "Capão Bonito",
        "state": "SP",
        "district": "Jardim Alvorada",
        "street": "Rua Isaltino Gonçalves de Almeida",
        "zipcode": "18305-150"
    },
    {
        "city": "Capão Bonito",
        "state": "SP",
        "district": "Parque das Nações",
        "street": "Rua Uruguai",
        "zipcode": "18307-535"
    },
    {
        "city": "Capão Bonito",
        "state": "SP",
        "district": "Querência do Turvo",
        "street": "Rua dos Amores Perfeitos",
        "zipcode": "18304-830"
    },
    {
        "city": "Capão Bonito",
        "state": "SP",
        "district": "Querência do Turvo",
        "street": "Rua das Avencas",
        "zipcode": "18304-800"
    },
    {
        "city": "Capão Bonito",
        "state": "SP",
        "district": "Vila Santa Rosa",
        "street": "Rua Ângelo Matarazzo",
        "zipcode": "18307-255"
    },
    {
        "city": "Capão Bonito",
        "state": "SP",
        "district": "Parque das Nações",
        "street": "Rua Panamá",
        "zipcode": "18307-550"
    },
    {
        "city": "Capão Bonito",
        "state": "SP",
        "district": "Jardim da Amizade",
        "street": "Rua João Quiliano Schmitz",
        "zipcode": "18303-670"
    },
    {
        "city": "Capão Bonito",
        "state": "SP",
        "district": "Terras do Embiruçu",
        "street": "Rua Denise",
        "zipcode": "18304-700"
    },
    {
        "city": "Capão Bonito",
        "state": "SP",
        "district": "Laranjeiras",
        "street": "Rua das Pitangueiras",
        "zipcode": "18304-718"
    },
    {
        "city": "Capão Bonito",
        "state": "SP",
        "district": "Vila Santa Rosa",
        "street": "Rua Profeta Batista da Silveira",
        "zipcode": "18307-120"
    },
    {
        "city": "Capão Bonito",
        "state": "SP",
        "district": "Vila Santa Isabel",
        "street": "Rua Quarenta e Seis",
        "zipcode": "18306-530"
    },
    {
        "city": "Capão Bonito",
        "state": "SP",
        "district": "Vila Santa Isabel",
        "street": "Rua Quarenta e Sete",
        "zipcode": "18306-440"
    },
    {
        "city": "Capão Bonito",
        "state": "SP",
        "district": "Vila Bela Vista",
        "street": "Avenida Santos Dumont",
        "zipcode": "18301-010"
    },
    {
        "city": "Capão Bonito",
        "state": "SP",
        "district": "Parque das Nações",
        "street": "Rua Scandinávia",
        "zipcode": "18307-480"
    },
    {
        "city": "Capão Bonito",
        "state": "SP",
        "district": "Jardim Colonial",
        "street": "Rua Sesquicentenário",
        "zipcode": "18305-200"
    },
    {
        "city": "Capão Bonito",
        "state": "SP",
        "district": "Vila Santa Isabel",
        "street": "Rua Sessenta e Cinco",
        "zipcode": "18306-480"
    },
    {
        "city": "Capão Bonito",
        "state": "SP",
        "district": "Vila Santa Isabel",
        "street": "Rua Sessenta e Três",
        "zipcode": "18306-300"
    },
    {
        "city": "Capão Bonito",
        "state": "SP",
        "district": "Parque das Nações",
        "street": "Rua Venezuela",
        "zipcode": "18307-520"
    },
    {
        "city": "Capão Bonito",
        "state": "SP",
        "district": "Jardim Alvorada",
        "street": "Rua Vereador Fauzi Aboarrage",
        "zipcode": "18305-140"
    },
    {
        "city": "Capão Bonito",
        "state": "SP",
        "district": "Centro",
        "street": "Rua Vinte e Quatro de Fevereiro",
        "zipcode": "18300-510"
    },
    {
        "city": "Capão Bonito",
        "state": "SP",
        "district": "Centro",
        "street": "Rua Sete de Setembro",
        "zipcode": "18300-010"
    },
    {
        "city": "Capão Bonito",
        "state": "SP",
        "district": "Centro",
        "street": "Rua Sete de Setembro",
        "zipcode": "18300-240"
    },
    {
        "city": "Capão Bonito",
        "state": "SP",
        "district": "Jardim Colonial",
        "street": "Rua da Concórdia",
        "zipcode": "18305-250"
    },
    {
        "city": "Capão Bonito",
        "state": "SP",
        "district": "Vila Boa Esperança",
        "street": "Rua Laurindo de Oliveira",
        "zipcode": "18301-610"
    },
    {
        "city": "Capão Bonito",
        "state": "SP",
        "district": "Querência do Turvo",
        "street": "Rua dos Miosótis",
        "zipcode": "18304-804"
    },
    {
        "city": "Capão Bonito",
        "state": "SP",
        "district": "Vila Nova Capão Bonito",
        "street": "Rua Miguel Hussar",
        "zipcode": "18304-445"
    },
    {
        "city": "Capão Bonito",
        "state": "SP",
        "district": "Querência do Turvo",
        "street": "Rua das Margaridas",
        "zipcode": "18304-810"
    },
    {
        "city": "Capão Bonito",
        "state": "SP",
        "district": "Querência do Turvo",
        "street": "Rua das Petúnias",
        "zipcode": "18304-817"
    },
    {
        "city": "Capão Bonito",
        "state": "SP",
        "district": "Terras do Embiruçu",
        "street": "Rua Gameleiros",
        "zipcode": "18304-685"
    },
    {
        "city": "Capão Bonito",
        "state": "SP",
        "district": "Terras do Embiruçu",
        "street": "Rua Severino Miguel de Barros",
        "zipcode": "18304-756"
    },
    {
        "city": "Capão Bonito",
        "state": "SP",
        "district": "Vila São Francisco de Assis",
        "street": "Praça Camilo Batista Alves",
        "zipcode": "18302-460"
    },
    {
        "city": "Capão Bonito",
        "state": "SP",
        "district": "Vila Santa Isabel",
        "street": "Rua Trinta",
        "zipcode": "18306-350"
    },
    {
        "city": "Capão Bonito",
        "state": "SP",
        "district": "Centro",
        "street": "Rua Benjamin Constant",
        "zipcode": "18300-321"
    },
    {
        "city": "Capão Bonito",
        "state": "SP",
        "district": "Jardim Europa",
        "street": "Rua Pedro Mariano Filho",
        "zipcode": "18307-615"
    },
    {
        "city": "Capão Bonito",
        "state": "SP",
        "district": "Vila Santa Isabel",
        "street": "Rua Cinco",
        "zipcode": "18306-043"
    },
    {
        "city": "Capão Bonito",
        "state": "SP",
        "district": "Vila Santa Isabel",
        "street": "Rua Trinta e Cinco",
        "zipcode": "18306-393"
    },
    {
        "city": "Capão Bonito",
        "state": "SP",
        "district": "Vila Santa Isabel",
        "street": "Rua Sessenta e Oito",
        "zipcode": "18306-505"
    },
    {
        "city": "Capão Bonito",
        "state": "SP",
        "district": "Jardim Colonial",
        "street": "Travessa dos Alferes",
        "zipcode": "18305-185"
    },
    {
        "city": "Capão Bonito",
        "state": "SP",
        "district": "Vila Santa Rosa",
        "street": "Rua Ambrosina Oliva Amaral Marchetti",
        "zipcode": "18307-160"
    },
    {
        "city": "Capão Bonito",
        "state": "SP",
        "district": "Vila Santa Isabel",
        "street": "Rua Chieko Tamura",
        "zipcode": "18306-060"
    },
    {
        "city": "Capão Bonito",
        "state": "SP",
        "district": "Vila Santa Isabel",
        "street": "Rua Francisco Lino Rodrigues",
        "zipcode": "18306-110"
    },
    {
        "city": "Capão Bonito",
        "state": "SP",
        "district": "Vila São Francisco de Assis",
        "street": "Rua Doutor Mário Antunes",
        "zipcode": "18302-350"
    },
    {
        "city": "Capão Bonito",
        "state": "SP",
        "district": "Vila São Francisco de Assis",
        "street": "Rua João Ferreira de Almeida",
        "zipcode": "18302-360"
    },
    {
        "city": "Capão Bonito",
        "state": "SP",
        "district": "Vila Aparecida",
        "street": "Rua Jonas de Oliveria Afonso",
        "zipcode": "18303-010"
    },
    {
        "city": "Capão Bonito",
        "state": "SP",
        "district": "Vila Aparecida",
        "street": "Rua Júlio de Souza Galvão",
        "zipcode": "18303-160"
    },
    {
        "city": "Capão Bonito",
        "state": "SP",
        "district": "Jardim Colonial",
        "street": "Alameda do Lago",
        "zipcode": "18305-340"
    },
    {
        "city": "Capão Bonito",
        "state": "SP",
        "district": "Jardim da Amizade",
        "street": "Rua Daniel Luiz de Salles",
        "zipcode": "18303-650"
    },
    {
        "city": "Capão Bonito",
        "state": "SP",
        "district": "Vila São Francisco de Assis",
        "street": "Praça Doutor Cid de Melo Almada",
        "zipcode": "18302-440"
    },
    {
        "city": "Capão Bonito",
        "state": "SP",
        "district": "Terras do Embiruçu",
        "street": "Rua Christina",
        "zipcode": "18304-710"
    },
    {
        "city": "Capão Bonito",
        "state": "SP",
        "district": "Querência do Turvo",
        "street": "Rua das Alamandas",
        "zipcode": "18304-807"
    },
    {
        "city": "Capão Bonito",
        "state": "SP",
        "district": "Jardim da Amizade",
        "street": "Rua Ercília Rosa Patrocínio de Oliveira",
        "zipcode": "18303-640"
    },
    {
        "city": "Capão Bonito",
        "state": "SP",
        "district": "Querência do Turvo",
        "street": "Rua das Magnólias",
        "zipcode": "18304-792"
    },
    {
        "city": "Capão Bonito",
        "state": "SP",
        "district": "Centro",
        "street": "Praça Deputado Antônio Sylvio Cunha Bueno",
        "zipcode": "18300-300"
    },
    {
        "city": "Capão Bonito",
        "state": "SP",
        "district": "Terras do Embiruçu",
        "street": "Praça Sagrada Família",
        "zipcode": "18304-660"
    },
    {
        "city": "Capão Bonito",
        "state": "SP",
        "district": "Parque das Nações",
        "street": "Rua Hungria",
        "zipcode": "18307-560"
    },
    {
        "city": "Capão Bonito",
        "state": "SP",
        "district": "Vila Nova Capão Bonito",
        "street": "Rua Elza Aparecida Morita",
        "zipcode": "18304-230"
    },
    {
        "city": "Capão Bonito",
        "state": "SP",
        "district": "Jardim Cruzeiro",
        "street": "Praça Luiza Kurtz Camargo",
        "zipcode": "18305-455"
    },
    {
        "city": "Capão Bonito",
        "state": "SP",
        "district": "Vila Brasil",
        "street": "Rua Arnaldo José de Almeida",
        "zipcode": "18304-640"
    },
    {
        "city": "Capão Bonito",
        "state": "SP",
        "district": "Recanto do Pescador",
        "street": "Rua Atílio Prodossimo",
        "zipcode": "18304-840"
    },
    {
        "city": "Capão Bonito",
        "state": "SP",
        "district": "Vila Nova Capão Bonito",
        "street": "Rua Sebastião Rodrigues da Silva",
        "zipcode": "18304-460"
    },
    {
        "city": "Capão Bonito",
        "state": "SP",
        "district": "Vila Boa Esperança",
        "street": "Rua Oito",
        "zipcode": "18301-630"
    },
    {
        "city": "Capão Bonito",
        "state": "SP",
        "district": "Centro",
        "street": "Rua Saldanha Marinho",
        "zipcode": "18300-110"
    },
    {
        "city": "Capão Bonito",
        "state": "SP",
        "district": "Vila Santa Rosa",
        "street": "Rua Salvador Nicácio Mendes",
        "zipcode": "18307-180"
    },
    {
        "city": "Capão Bonito",
        "state": "SP",
        "district": "Jardim Alvorada",
        "street": "Rua Tenente Nelson Ricardo de Proença",
        "zipcode": "18305-020"
    },
    {
        "city": "Capão Bonito",
        "state": "SP",
        "district": "Vila Aparecida",
        "street": "Avenida Elias Jorge Daniel",
        "zipcode": "18303-970"
    },
    {
        "city": "Capão Bonito",
        "state": "SP",
        "district": "Vila Bela Vista",
        "street": "Praça Blumenau",
        "zipcode": "18301-105"
    },
    {
        "city": "Capão Bonito",
        "state": "SP",
        "district": "Vila Santa Isabel",
        "street": "Rua Vinte e Sete",
        "zipcode": "18306-260"
    },
    {
        "city": "Capão Bonito",
        "state": "SP",
        "district": "Jardim Colonial",
        "street": "Rua Zulmira Batista Silveira",
        "zipcode": "18305-210"
    },
    {
        "city": "Capão Bonito",
        "state": "SP",
        "district": "Vila Nova Capão Bonito",
        "street": "Avenida Capitão Calixto de Almeida",
        "zipcode": "18304-047"
    },
    {
        "city": "Capão Bonito",
        "state": "SP",
        "district": "Vila São Judas Thadeu",
        "street": "Rua Prudente Gomes de Lima",
        "zipcode": "18301-318"
    },
    {
        "city": "Capão Bonito",
        "state": "SP",
        "district": "Vila Nova Capão Bonito",
        "street": "Rua Quinze",
        "zipcode": "18304-420"
    },
    {
        "city": "Capão Bonito",
        "state": "SP",
        "district": "Vila Nova Capão Bonito",
        "street": "Avenida Professor Laudelino de Lima Rolim",
        "zipcode": "18304-090"
    },
    {
        "city": "Capão Bonito",
        "state": "SP",
        "district": "Centro",
        "street": "Rua General Carneiro",
        "zipcode": "18300-030"
    },
    {
        "city": "Capão Bonito",
        "state": "SP",
        "district": "Vila Bela Vista",
        "street": "Rua Salvador Pereira de Barros",
        "zipcode": "18301-108"
    },
    {
        "city": "Capão Bonito",
        "state": "SP",
        "district": "Vila Bela Vista",
        "street": "Rua Maria Irene Venturelli",
        "zipcode": "18301-190"
    },
    {
        "city": "Capão Bonito",
        "state": "SP",
        "district": "Vila Santa Isabel",
        "street": "Avenida Marinho Ferreira Mendes",
        "zipcode": "18306-025"
    },
    {
        "city": "Capão Bonito",
        "state": "SP",
        "district": "Querência do Turvo",
        "street": "Rua das Azaléias",
        "zipcode": "18304-783"
    },
    {
        "city": "Capão Bonito",
        "state": "SP",
        "district": "Vila Santa Rosa",
        "street": "Rua João Teodoro de Lima",
        "zipcode": "18307-260"
    },
    {
        "city": "Capão Bonito",
        "state": "SP",
        "district": "Vila São Judas Thadeu",
        "street": "Rua Maria Euzébia do Espírito Santo",
        "zipcode": "18301-310"
    },
    {
        "city": "Capão Bonito",
        "state": "SP",
        "district": "Querência do Turvo",
        "street": "Rua das Amaralis",
        "zipcode": "18304-832"
    },
    {
        "city": "Capão Bonito",
        "state": "SP",
        "district": "Querência do Turvo",
        "street": "Rua Vitória Régia",
        "zipcode": "18304-771"
    },
    {
        "city": "Capão Bonito",
        "state": "SP",
        "district": "Jardim Colonial",
        "street": "Travessa do Comércio",
        "zipcode": "18305-175"
    },
    {
        "city": "Capão Bonito",
        "state": "SP",
        "district": "Centro",
        "street": "Rua Nove de Julho",
        "zipcode": "18300-970"
    },
    {
        "city": "Capão Bonito",
        "state": "SP",
        "district": "Querência do Turvo",
        "street": "Rua dos Jacarandás",
        "zipcode": "18304-795"
    },
    {
        "city": "Capão Bonito",
        "state": "SP",
        "district": "Vila Bela Vista",
        "street": "Rua Santa Catarina",
        "zipcode": "18301-090"
    },
    {
        "city": "Capão Bonito",
        "state": "SP",
        "district": "Jardim Europa",
        "street": "Rua Inglaterra",
        "zipcode": "18307-597"
    },
    {
        "city": "Capão Bonito",
        "state": "SP",
        "district": "Vila Nova Capão Bonito",
        "street": "Rua Carmelo Lima Fim",
        "zipcode": "18304-300"
    },
    {
        "city": "Capão Bonito",
        "state": "SP",
        "district": "Vila Bela Vista",
        "street": "Rua Ceará",
        "zipcode": "18301-150"
    },
    {
        "city": "Capão Bonito",
        "state": "SP",
        "district": "Terras do Embiruçu",
        "street": "Rua Thais",
        "zipcode": "18304-693"
    },
    {
        "city": "Capão Bonito",
        "state": "SP",
        "district": "Vila Nova Capão Bonito",
        "street": "Praça Governador Mario Covas Junior",
        "zipcode": "18304-135"
    },
    {
        "city": "Capão Bonito",
        "state": "SP",
        "district": "Vila Boa Esperança",
        "street": "Avenida José Miguel Ferreira",
        "zipcode": "18301-608"
    },
    {
        "city": "Capão Bonito",
        "state": "SP",
        "district": "Vila Santa Isabel",
        "street": "Rua Vereador Pedro Amâncio Mendes",
        "zipcode": "18306-090"
    },
    {
        "city": "Capão Bonito",
        "state": "SP",
        "district": null,
        "street": "Avenida Januário R. Siqueira",
        "zipcode": "18300-990"
    },
    {
        "city": "Capão Bonito",
        "state": "SP",
        "district": "Jardim Alvorada",
        "street": "Rua Tenente Francisco Antonio de Oliveira",
        "zipcode": "18305-142"
    },
    {
        "city": "Capão Bonito",
        "state": "SP",
        "district": "Centro",
        "street": "Rua José de Souza Galvão Sobrinho",
        "zipcode": "18300-081"
    },
    {
        "city": "Capão Bonito",
        "state": "SP",
        "district": "Jardim Colonial",
        "street": "Praça Placedino Batista da Silveira",
        "zipcode": "18305-345"
    },
    {
        "city": "Capão Bonito",
        "state": "SP",
        "district": "Vila Santa Rosa",
        "street": "Rua Leonardo de Lima Guimarães",
        "zipcode": "18307-185"
    },
    {
        "city": "Capão Bonito",
        "state": "SP",
        "district": "Vila Santa Isabel",
        "street": "Rua Avelina Contiéri de Almeida",
        "zipcode": "18306-200"
    },
    {
        "city": "Capão Bonito",
        "state": "SP",
        "district": "Jardim Colonial",
        "street": "Rua Seresta",
        "zipcode": "18305-240"
    },
    {
        "city": "Capão Bonito",
        "state": "SP",
        "district": "Vila Santa Isabel",
        "street": "Rua Vereador Cornélio Batista da Silveira",
        "zipcode": "18306-015"
    },
    {
        "city": "Capão Bonito",
        "state": "SP",
        "district": "Vila Bela Vista",
        "street": "Rua Neiva Borges Figueiredo",
        "zipcode": "18301-232"
    },
    {
        "city": "Capão Bonito",
        "state": "SP",
        "district": "Vila Aparecida",
        "street": "Rua Abílio Mendes",
        "zipcode": "18303-110"
    },
    {
        "city": "Capão Bonito",
        "state": "SP",
        "district": "Vila Santa Rosa",
        "street": "Avenida Adhemar de Barros",
        "zipcode": "18307-070"
    },
    {
        "city": "Capão Bonito",
        "state": "SP",
        "district": "Jardim Cruzeiro",
        "street": "Avenida Adhemar de Barros",
        "zipcode": "18305-470"
    },
    {
        "city": "Capão Bonito",
        "state": "SP",
        "district": "Vila Guanabara",
        "street": "Rua Adones Rossini Cacciacarro",
        "zipcode": "18300-750"
    },
    {
        "city": "Capão Bonito",
        "state": "SP",
        "district": "Jardim Alvorada",
        "street": "Rua Affonso de Camargo",
        "zipcode": "18305-105"
    },
    {
        "city": "Capão Bonito",
        "state": "SP",
        "district": "Vila Aparecida",
        "street": "Rua Afonso de Camargo Júnior",
        "zipcode": "18303-050"
    },
    {
        "city": "Capão Bonito",
        "state": "SP",
        "district": "Jardim Cruzeiro",
        "street": "Rua Aladino Fim",
        "zipcode": "18305-490"
    },
    {
        "city": "Capão Bonito",
        "state": "SP",
        "district": "Vila Aparecida",
        "street": "Rua Alberto de Carvalho",
        "zipcode": "18303-560"
    },
    {
        "city": "Capão Bonito",
        "state": "SP",
        "district": "Vila Bela Vista",
        "street": "Avenida Amazonas",
        "zipcode": "18301-095"
    },
    {
        "city": "Capão Bonito",
        "state": "SP",
        "district": "Jardim Vale Verde",
        "street": "Rua Adão Fabiano de Almeida",
        "zipcode": "18301-540"
    },
    {
        "city": "Capão Bonito",
        "state": "SP",
        "district": "Área Rural de Capão Bonito",
        "street": "Área Rural",
        "zipcode": "18308-899"
    },
    {
        "city": "Capão Bonito",
        "state": "SP",
        "district": "Centro",
        "street": "Praça da Bandeira",
        "zipcode": "18300-340"
    },
    {
        "city": "Capão Bonito",
        "state": "SP",
        "district": "Vila Aparecida",
        "street": "Rua Antônio Castanho de Almeida",
        "zipcode": "18303-520"
    },
    {
        "city": "Capão Bonito",
        "state": "SP",
        "district": "Vila Nova Capão Bonito",
        "street": "Rua Antônio de Souza Lopes",
        "zipcode": "18304-040"
    },
    {
        "city": "Capão Bonito",
        "state": "SP",
        "district": "Vila Guanabara",
        "street": "Rua Antônio Joaquim de Souza Guimarães",
        "zipcode": "18300-780"
    },
    {
        "city": "Capão Bonito",
        "state": "SP",
        "district": "Vila Nova Capão Bonito",
        "street": "Rua Aroldo Crepaldi",
        "zipcode": "18304-110"
    },
    {
        "city": "Capão Bonito",
        "state": "SP",
        "district": "Vila Bela Vista",
        "street": "Rua Aurélio Monticelli",
        "zipcode": "18301-045"
    },
    {
        "city": "Capão Bonito",
        "state": "SP",
        "district": "Vila Santa Isabel",
        "street": "Rua Cinqüenta e Quatro",
        "zipcode": "18306-330"
    },
    {
        "city": "Capão Bonito",
        "state": "SP",
        "district": "Vila Aparecida",
        "street": "Avenida Elias Jorge Daniel",
        "zipcode": "18303-000"
    },
    {
        "city": "Capão Bonito",
        "state": "SP",
        "district": "Centro",
        "street": "Rua dos Expedicionários",
        "zipcode": "18300-060"
    },
    {
        "city": "Capão Bonito",
        "state": "SP",
        "district": "Centro",
        "street": "Avenida Ovídio Tristão de Lima Júnior",
        "zipcode": "18300-190"
    },
    {
        "city": "Capão Bonito",
        "state": "SP",
        "district": "Jardim Colonial",
        "street": "Avenida do Patriarca",
        "zipcode": "18305-160"
    },
    {
        "city": "Capão Bonito",
        "state": "SP",
        "district": "Terras do Embiruçu",
        "street": "Rua Boulevard",
        "zipcode": "18304-715"
    },
    {
        "city": "Capão Bonito",
        "state": "SP",
        "district": "Vila Nova Capão Bonito",
        "street": "Rua Vinte e Seis",
        "zipcode": "18304-220"
    },
    {
        "city": "Capão Bonito",
        "state": "SP",
        "district": "Jardim da Amizade",
        "street": "Rua Wilson Luiz Rodrigues",
        "zipcode": "18303-600"
    },
    {
        "city": "Capão Bonito",
        "state": "SP",
        "district": "Vila Santa Rosa",
        "street": "Rua Eugênio Augusto de Medeiros",
        "zipcode": "18307-250"
    },
    {
        "city": "Capão Bonito",
        "state": "SP",
        "district": "Distrito Industrial",
        "street": "Rua Domingos Francisco Ribeiro",
        "zipcode": "18304-620"
    },
    {
        "city": "Capão Bonito",
        "state": "SP",
        "district": "Centro",
        "street": "Rua Francisco Barreto",
        "zipcode": "18300-432"
    },
    {
        "city": "Capão Bonito",
        "state": "SP",
        "district": "Vila Santa Rosa",
        "street": "Rua Célia Pinto de Oliveira",
        "zipcode": "18307-085"
    },
    {
        "city": "Capão Bonito",
        "state": "SP",
        "district": "Centro",
        "street": "Rua General Carneiro",
        "zipcode": "18300-260"
    },
    {
        "city": "Capão Bonito",
        "state": "SP",
        "district": "Centro",
        "street": "Rua Nove de Julho",
        "zipcode": "18300-900"
    },
    {
        "city": "Capão Bonito",
        "state": "SP",
        "district": "Jardim Cruzeiro",
        "street": "Rua Dom José de Aguirre",
        "zipcode": "18305-900"
    },
    {
        "city": "Capão Bonito",
        "state": "SP",
        "district": "Vila Nova Capão Bonito",
        "street": "Rua Mário Florêncio dos Santos",
        "zipcode": "18304-205"
    },
    {
        "city": "Capão Bonito",
        "state": "SP",
        "district": "Querência do Turvo",
        "street": "Rua das Prímulas",
        "zipcode": "18304-779"
    },
    {
        "city": "Capão Bonito",
        "state": "SP",
        "district": "Terras do Embiruçu",
        "street": "Rua Armantino Oliveira Ramos",
        "zipcode": "18304-755"
    },
    {
        "city": "Capão Bonito",
        "state": "SP",
        "district": "Querência do Turvo",
        "street": "Rua das Lantanas",
        "zipcode": "18304-815"
    },
    {
        "city": "Capão Bonito",
        "state": "SP",
        "district": "Querência do Turvo",
        "street": "Rua das Orquídeas",
        "zipcode": "18304-762"
    },
    {
        "city": "Capão Bonito",
        "state": "SP",
        "district": "Querência do Turvo",
        "street": "Rua das Onze Horas",
        "zipcode": "18304-821"
    },
    {
        "city": "Capão Bonito",
        "state": "SP",
        "district": "Querência do Turvo",
        "street": "Rua das Tulipas",
        "zipcode": "18304-829"
    },
    {
        "city": "Capão Bonito",
        "state": "SP",
        "district": "Querência do Turvo",
        "street": "Rua Flor de Lótus",
        "zipcode": "18304-837"
    },
    {
        "city": "Capão Bonito",
        "state": "SP",
        "district": "Querência do Turvo",
        "street": "Rua dos Lírios",
        "zipcode": "18304-833"
    },
    {
        "city": "Capão Bonito",
        "state": "SP",
        "district": "Querência do Turvo",
        "street": "Rua Madressilvas",
        "zipcode": "18304-816"
    },
    {
        "city": "Capão Bonito",
        "state": "SP",
        "district": "Querência do Turvo",
        "street": "Rua dos Antúrios",
        "zipcode": "18304-822"
    },
    {
        "city": "Capão Bonito",
        "state": "SP",
        "district": "Centro",
        "street": "Rua Cerqueira César",
        "zipcode": "18300-100"
    },
    {
        "city": "Capão Bonito",
        "state": "SP",
        "district": "Terras do Embiruçu",
        "street": "Rua Paineiras",
        "zipcode": "18304-675"
    },
    {
        "city": "Capão Bonito",
        "state": "SP",
        "district": "Vila Santa Isabel",
        "street": "Rua Arnoldo Schütt",
        "zipcode": "18306-030"
    },
    {
        "city": "Capão Bonito",
        "state": "SP",
        "district": "Querência do Turvo",
        "street": "Rua dos Manacás",
        "zipcode": "18304-814"
    },
    {
        "city": "Capão Bonito",
        "state": "SP",
        "district": "Vila Nova Capão Bonito",
        "street": "Rua José Leonardo de Barros Guimarães",
        "zipcode": "18304-340"
    },
    {
        "city": "Capão Bonito",
        "state": "SP",
        "district": "Querência do Turvo",
        "street": "Rua dos Copos de Leite",
        "zipcode": "18304-774"
    },
    {
        "city": "Capão Bonito",
        "state": "SP",
        "district": "Vila Santa Rosa",
        "street": "Rua Shizue Titae Yao",
        "zipcode": "18307-110"
    },
    {
        "city": "Capão Bonito",
        "state": "SP",
        "district": "Vila São Francisco de Assis",
        "street": "Praça Juraci Vieira",
        "zipcode": "18302-450"
    },
    {
        "city": "Capão Bonito",
        "state": "SP",
        "district": "Jardim Cruzeiro",
        "street": "Rua Maria Batista da Silveira",
        "zipcode": "18305-495"
    },
    {
        "city": "Capão Bonito",
        "state": "SP",
        "district": "Vila São Judas Thadeu",
        "street": "Estrada Vicinal Vitor Gomes de Macedo",
        "zipcode": "18301-265"
    },
    {
        "city": "Capão Bonito",
        "state": "SP",
        "district": "Vila Nova Capão Bonito",
        "street": "Estrada Municipal Campinas",
        "zipcode": "18304-519"
    },
    {
        "city": "Capão Bonito",
        "state": "SP",
        "district": "Vila Bela Vista",
        "street": "Praça Vereador Manoel Gonçalves Faia",
        "zipcode": "18301-107"
    },
    {
        "city": "Capão Bonito",
        "state": "SP",
        "district": "Vila São Judas Thadeu",
        "street": "Rua Eduardo Martins",
        "zipcode": "18301-315"
    },
    {
        "city": "Capão Bonito",
        "state": "SP",
        "district": "Querência do Turvo",
        "street": "Rua Primavera",
        "zipcode": "18304-764"
    },
    {
        "city": "Capão Bonito",
        "state": "SP",
        "district": "Querência do Turvo",
        "street": "Rua das Begônias",
        "zipcode": "18304-790"
    },
    {
        "city": "Capão Bonito",
        "state": "SP",
        "district": "Jardim Alvorada",
        "street": "Rua Florival Augusto Pereira",
        "zipcode": "18305-145"
    },
    {
        "city": "Capão Bonito",
        "state": "SP",
        "district": "Vila Nova Capão Bonito",
        "street": "Rua Matheus Siano",
        "zipcode": "18304-020"
    },
    {
        "city": "Capão Bonito",
        "state": "SP",
        "district": "Querência do Turvo",
        "street": "Rua Gardenias",
        "zipcode": "18304-776"
    },
    {
        "city": "Capão Bonito",
        "state": "SP",
        "district": "Jardim da Amizade",
        "street": "Avenida Vanessa Vaz Galvão",
        "zipcode": "18303-580"
    },
    {
        "city": "Capão Bonito",
        "state": "SP",
        "district": "Jardim Europa",
        "street": "Rua Grécia",
        "zipcode": "18307-620"
    },
    {
        "city": "Capão Bonito",
        "state": "SP",
        "district": "Jardim Alvorada",
        "street": "Rua Heikichi Yao",
        "zipcode": "18305-130"
    },
    {
        "city": "Capão Bonito",
        "state": "SP",
        "district": "Vila Boa Esperança",
        "street": "Rua da Esperança",
        "zipcode": "18301-625"
    },
    {
        "city": "Capão Bonito",
        "state": "SP",
        "district": "Jardim da Amizade",
        "street": "Rua Nelson Augusto Dobrochinski",
        "zipcode": "18303-690"
    },
    {
        "city": "Capão Bonito",
        "state": "SP",
        "district": "Querência do Turvo",
        "street": "Rua das Dálias",
        "zipcode": "18304-824"
    },
    {
        "city": "Capão Bonito",
        "state": "SP",
        "district": "Vila Santa Isabel",
        "street": "Rua Fidélis Citandini",
        "zipcode": "18306-100"
    },
    {
        "city": "Capão Bonito",
        "state": "SP",
        "district": "Jardim Colonial",
        "street": "Travessa dos Colibris",
        "zipcode": "18305-186"
    },
    {
        "city": "Capão Bonito",
        "state": "SP",
        "district": "Vila Maria",
        "street": "Rua Antônio Carlos Negrão Júnior",
        "zipcode": "18301-320"
    }
]