[
    {
        "city": "Carapicuiba",
        "state": "SP",
        "district": "Jardim Santa Tereza",
        "street": "Rua Catagua",
        "zipcode": "06324-000"
    },
    {
        "city": "Carapicuiba",
        "state": "SP",
        "district": "Vila Caldas",
        "street": "Viaduto Jorge Julian",
        "zipcode": "06310-520"
    },
    {
        "city": "Carapicuiba",
        "state": "SP",
        "district": "Jardim Santa Tereza",
        "street": "Rua Marconi",
        "zipcode": "06324-020"
    },
    {
        "city": "Carapicuiba",
        "state": "SP",
        "district": "Jardim Guapouva",
        "street": "Estrada Gabiroba",
        "zipcode": "06323-055"
    },
    {
        "city": "Carapicuiba",
        "state": "SP",
        "district": "Parque Jandaia",
        "street": "Rua Benedita Rosa",
        "zipcode": "06323-180"
    },
    {
        "city": "Carapicuiba",
        "state": "SP",
        "district": "Vila Marcondes",
        "street": "Rua Roncador",
        "zipcode": "06323-220"
    },
    {
        "city": "Carapicuiba",
        "state": "SP",
        "district": "Parque Jandaia",
        "street": "Viela Racemapolis",
        "zipcode": "06323-750"
    },
    {
        "city": "Carapicuiba",
        "state": "SP",
        "district": "Vila Da Oportunidade",
        "street": "Rua Chapeco",
        "zipcode": "06323-110"
    },
    {
        "city": "Carapicuiba",
        "state": "SP",
        "district": "Vila Ester",
        "street": "Rua Sao Lucas",
        "zipcode": "06323-640"
    },
    {
        "city": "Carapicuiba",
        "state": "SP",
        "district": "Jardim Rosa Maria",
        "street": "Rua Ype",
        "zipcode": "06323-080"
    },
    {
        "city": "Carapicuiba",
        "state": "SP",
        "district": "Jardim Santo Stevao",
        "street": "Rua Rio Azul",
        "zipcode": "06323-240"
    },
    {
        "city": "Carapicuiba",
        "state": "SP",
        "district": "Jardim Maria Rita",
        "street": "Estrada Gabiroba",
        "zipcode": "06323-050"
    },
    {
        "city": "Carapicuiba",
        "state": "SP",
        "district": "Parque Jose Alexandre",
        "street": "Rua Dr Carlos De Barros Monteiro",
        "zipcode": "06321-350"
    },
    {
        "city": "Carapicuiba",
        "state": "SP",
        "district": "Parque Jandaia",
        "street": "Viela Taquarivai",
        "zipcode": "06323-770"
    },
    {
        "city": "Carapicuiba",
        "state": "SP",
        "district": "Vila Veloso",
        "street": "Rua Cambara",
        "zipcode": "06324-040"
    },
    {
        "city": "Carapicuiba",
        "state": "SP",
        "district": "Parque Jandaia",
        "street": "Avenida Marginal",
        "zipcode": "06323-170"
    },
    {
        "city": "Carapicuiba",
        "state": "SP",
        "district": "Vila Santa Terezinha",
        "street": "Praça Concordia",
        "zipcode": "06311-040"
    },
    {
        "city": "Carapicuiba",
        "state": "SP",
        "district": "Vila Ester",
        "street": "Rua Sao Simao",
        "zipcode": "06323-030"
    },
    {
        "city": "Carapicuiba",
        "state": "SP",
        "district": "Vila Bela",
        "street": "Rua Tibagi",
        "zipcode": "06323-000"
    },
    {
        "city": "Carapicuiba",
        "state": "SP",
        "district": "Jardim Guapouva",
        "street": "Viela Sao Valentim",
        "zipcode": "06321-640"
    },
    {
        "city": "Carapicuiba",
        "state": "SP",
        "district": "Vila Margarida",
        "street": "Rua Ivaipora",
        "zipcode": "06323-830"
    },
    {
        "city": "Carapicuiba",
        "state": "SP",
        "district": "Vila Margarida",
        "street": "Rua Sao Mac",
        "zipcode": "06323-200"
    },
    {
        "city": "Carapicuiba",
        "state": "SP",
        "district": "Jardim Guapouva",
        "street": "Rua Toledo",
        "zipcode": "06323-800"
    },
    {
        "city": "Carapicuiba",
        "state": "SP",
        "district": "Vila Leopoldo",
        "street": "Rua Presidente Epitacio",
        "zipcode": "06324-110"
    },
    {
        "city": "Carapicuiba",
        "state": "SP",
        "district": "Jardim Guapouva",
        "street": "Rua Catanduvas",
        "zipcode": "06323-160"
    },
    {
        "city": "Carapicuiba",
        "state": "SP",
        "district": "Jardim Ster",
        "street": "Rua Capitao Americo",
        "zipcode": "06323-260"
    },
    {
        "city": "Carapicuiba",
        "state": "SP",
        "district": "Vila Leopoldo",
        "street": "Rua Cachoeira",
        "zipcode": "06324-120"
    },
    {
        "city": "Carapicuiba",
        "state": "SP",
        "district": "Jardim Santa Tereza",
        "street": "Rua Angico",
        "zipcode": "06324-070"
    },
    {
        "city": "Carapicuiba",
        "state": "SP",
        "district": "Jardim Guapouva",
        "street": "Rua Butia",
        "zipcode": "06323-780"
    },
    {
        "city": "Carapicuiba",
        "state": "SP",
        "district": "Jardim Ster",
        "street": "Rua Arnould Gomes De Campos",
        "zipcode": "06323-060"
    },
    {
        "city": "Carapicuiba",
        "state": "SP",
        "district": "Vila Ester",
        "street": "Rua Sao Felipe",
        "zipcode": "06323-020"
    },
    {
        "city": "Carapicuiba",
        "state": "SP",
        "district": "Parque Jandaia",
        "street": "Viela Brasopolis",
        "zipcode": "06323-690"
    },
    {
        "city": "Carapicuiba",
        "state": "SP",
        "district": "Parque Jandaia",
        "street": "Viela Paraisopolis",
        "zipcode": "06323-740"
    },
    {
        "city": "Carapicuiba",
        "state": "SP",
        "district": "Parque Jandaia",
        "street": "Rua Jose Soares De Andrade",
        "zipcode": "06323-720"
    },
    {
        "city": "Carapicuiba",
        "state": "SP",
        "district": "Vila Margarida",
        "street": "Rua Leopolis",
        "zipcode": "06323-300"
    },
    {
        "city": "Carapicuiba",
        "state": "SP",
        "district": "Jardim Santa Tereza",
        "street": "Rua Sao Jose",
        "zipcode": "06324-140"
    },
    {
        "city": "Carapicuiba",
        "state": "SP",
        "district": "Jardim Herminia",
        "street": "Rua Nicola Delbon",
        "zipcode": "06323-070"
    },
    {
        "city": "Carapicuiba",
        "state": "SP",
        "district": "Jardim Guapouva",
        "street": "Rua Capinzal",
        "zipcode": "06323-140"
    },
    {
        "city": "Carapicuiba",
        "state": "SP",
        "district": "Vila Terezinha",
        "street": "Praça Conde Deu",
        "zipcode": "06311-045"
    },
    {
        "city": "Carapicuiba",
        "state": "SP",
        "district": "Vila Martins",
        "street": "Rua Miguel Antonio",
        "zipcode": "06317-420"
    },
    {
        "city": "Carapicuiba",
        "state": "SP",
        "district": "Vila Margarida",
        "street": "Rua Planalto",
        "zipcode": "06323-610"
    },
    {
        "city": "Carapicuiba",
        "state": "SP",
        "district": "Parque Jandaia",
        "street": "Viela Lupianopolis",
        "zipcode": "06323-730"
    },
    {
        "city": "Carapicuiba",
        "state": "SP",
        "district": "Vila Jussara",
        "street": "Praça Londrina",
        "zipcode": "06321-180"
    },
    {
        "city": "Carapicuiba",
        "state": "SP",
        "district": "Vila Margarida",
        "street": "Rua Paranavai",
        "zipcode": "06323-310"
    },
    {
        "city": "Carapicuiba",
        "state": "SP",
        "district": "Parque Jandaia",
        "street": "Viela Andrelandia",
        "zipcode": "06323-810"
    },
    {
        "city": "Carapicuiba",
        "state": "SP",
        "district": "Vila Veloso",
        "street": "Rua Cedro",
        "zipcode": "06324-050"
    },
    {
        "city": "Carapicuiba",
        "state": "SP",
        "district": "Vila Ester",
        "street": "Rua Sao Tome",
        "zipcode": "06323-840"
    },
    {
        "city": "Carapicuiba",
        "state": "SP",
        "district": "Jardim Santo Stevao",
        "street": "Rua Renascenca",
        "zipcode": "06323-270"
    },
    {
        "city": "Carapicuiba",
        "state": "SP",
        "district": "Vila Balog",
        "street": "Rua Tenente Portela",
        "zipcode": "06323-670"
    },
    {
        "city": "Carapicuiba",
        "state": "SP",
        "district": "Jardim Cibele",
        "street": "Rua Venancio Costa",
        "zipcode": "06323-320"
    },
    {
        "city": "Carapicuiba",
        "state": "SP",
        "district": "Vila Veloso",
        "street": "Rua Guarita",
        "zipcode": "06324-150"
    },
    {
        "city": "Carapicuiba",
        "state": "SP",
        "district": "Vila Da Oportunidade",
        "street": "Estrada Joaquim Gomes Rodrigues",
        "zipcode": "06323-120"
    },
    {
        "city": "Carapicuiba",
        "state": "SP",
        "district": "Jardim Santo Stevao",
        "street": "Estrada Gabiroba",
        "zipcode": "06323-045"
    },
    {
        "city": "Carapicuiba",
        "state": "SP",
        "district": "Vila Margarida",
        "street": "Rua Agudenses",
        "zipcode": "06323-210"
    },
    {
        "city": "Carapicuiba",
        "state": "SP",
        "district": "Jardim Maria Rita",
        "street": "Rua Presidente Alves",
        "zipcode": "06323-620"
    },
    {
        "city": "Carapicuiba",
        "state": "SP",
        "district": "Vila Margarida",
        "street": "Viela Telha",
        "zipcode": "06323-660"
    },
    {
        "city": "Carapicuiba",
        "state": "SP",
        "district": "Vila Veloso",
        "street": "Rua Cangerana",
        "zipcode": "06324-090"
    },
    {
        "city": "Carapicuiba",
        "state": "SP",
        "district": "Parque Jandaia",
        "street": "Rua Maria Luiza De Campos",
        "zipcode": "06323-390"
    },
    {
        "city": "Carapicuiba",
        "state": "SP",
        "district": "Parque Jandaia",
        "street": "Rua Geraldo Soares Xavier",
        "zipcode": "06323-410"
    },
    {
        "city": "Carapicuiba",
        "state": "SP",
        "district": "Parque Jandaia",
        "street": "Rua Benedita Dionizia",
        "zipcode": "06323-430"
    },
    {
        "city": "Carapicuiba",
        "state": "SP",
        "district": "Parque Jandaia",
        "street": "Rua Olival Pereira Dos Santos",
        "zipcode": "06323-440"
    },
    {
        "city": "Carapicuiba",
        "state": "SP",
        "district": "Parque Jandaia",
        "street": "Rua Lindolfo Ferreira De Morais",
        "zipcode": "06323-470"
    },
    {
        "city": "Carapicuiba",
        "state": "SP",
        "district": "Parque Jandaia",
        "street": "Rua Tertulina De Souza",
        "zipcode": "06323-480"
    },
    {
        "city": "Carapicuiba",
        "state": "SP",
        "district": "Parque Jandaia",
        "street": "Viela Ararapira",
        "zipcode": "06323-680"
    },
    {
        "city": "Carapicuiba",
        "state": "SP",
        "district": "Jardim Bom Sucesso",
        "street": "Rua Botucatu",
        "zipcode": "06324-380"
    },
    {
        "city": "Carapicuiba",
        "state": "SP",
        "district": "Jardim Bom Sucesso",
        "street": "Rua Santos",
        "zipcode": "06324-520"
    },
    {
        "city": "Carapicuiba",
        "state": "SP",
        "district": "Parque Jandaia",
        "street": "Viela Ritapolis",
        "zipcode": "06330-470"
    },
    {
        "city": "Carapicuiba",
        "state": "SP",
        "district": "Jardim Das Pedras",
        "street": "Rua Nova Alianca",
        "zipcode": "06324-610"
    },
    {
        "city": "Carapicuiba",
        "state": "SP",
        "district": "Vila Veloso",
        "street": "Rua Guarubei",
        "zipcode": "06324-590"
    },
    {
        "city": "Carapicuiba",
        "state": "SP",
        "district": "Conj Habit Presidente Castelo Branco",
        "street": "Rua Abaete",
        "zipcode": "06329-010"
    },
    {
        "city": "Carapicuiba",
        "state": "SP",
        "district": "Vila Ester",
        "street": "Rua Gregorio Tomachevski",
        "zipcode": "06323-560"
    },
    {
        "city": "Carapicuiba",
        "state": "SP",
        "district": "Vila Ester",
        "street": "Rua Lauro Pedro Nunes",
        "zipcode": "06323-580"
    },
    {
        "city": "Carapicuiba",
        "state": "SP",
        "district": "Jardim Santa Tereza",
        "street": "Rua Faveiro",
        "zipcode": "06324-320"
    },
    {
        "city": "Carapicuiba",
        "state": "SP",
        "district": "Jardim Guiomar",
        "street": "Rua Pinhalzinho",
        "zipcode": "06333-000"
    },
    {
        "city": "Carapicuiba",
        "state": "SP",
        "district": "Jardim Alice",
        "street": "Rua Sao Jose",
        "zipcode": "06324-660"
    },
    {
        "city": "Carapicuiba",
        "state": "SP",
        "district": "Parque Santa Teresa",
        "street": "Viela Taboca",
        "zipcode": "06341-060"
    },
    {
        "city": "Carapicuiba",
        "state": "SP",
        "district": "Parque Santa Teresa",
        "street": "Rua Rodolfo Dufner",
        "zipcode": "06340-670"
    },
    {
        "city": "Carapicuiba",
        "state": "SP",
        "district": "Jardim Maria Rita",
        "street": "Rua Presidente Bernardes",
        "zipcode": "06323-350"
    },
    {
        "city": "Carapicuiba",
        "state": "SP",
        "district": "Vila Teresa",
        "street": "Rua Pongai",
        "zipcode": "06324-210"
    },
    {
        "city": "Carapicuiba",
        "state": "SP",
        "district": "Jardim Colonial",
        "street": "Rua Vicenzia",
        "zipcode": "06345-160"
    },
    {
        "city": "Carapicuiba",
        "state": "SP",
        "district": "Jardim Maria Rita",
        "street": "Rua Realeza",
        "zipcode": "06323-340"
    },
    {
        "city": "Carapicuiba",
        "state": "SP",
        "district": "Vila Sao Jose",
        "street": "Rua Porongaba",
        "zipcode": "06323-370"
    },
    {
        "city": "Carapicuiba",
        "state": "SP",
        "district": "Jardim Alice",
        "street": "Rua Parque Da Fonte",
        "zipcode": "06324-480"
    },
    {
        "city": "Carapicuiba",
        "state": "SP",
        "district": "Vila Veloso",
        "street": "Rua Caviuna",
        "zipcode": "06324-230"
    },
    {
        "city": "Carapicuiba",
        "state": "SP",
        "district": "Vila Veloso",
        "street": "Rua Joao Texeira Lacerda",
        "zipcode": "06324-670"
    },
    {
        "city": "Carapicuiba",
        "state": "SP",
        "district": "Jardim Santa Tereza",
        "street": "Rua Peroba",
        "zipcode": "06324-060"
    },
    {
        "city": "Carapicuiba",
        "state": "SP",
        "district": "Vila Sao Jose",
        "street": "Vila Porto Ferreira",
        "zipcode": "06323-360"
    },
    {
        "city": "Carapicuiba",
        "state": "SP",
        "district": "Jardim Das Pedras",
        "street": "Rua Natal",
        "zipcode": "06324-450"
    },
    {
        "city": "Carapicuiba",
        "state": "SP",
        "district": "Jardim Colonial",
        "street": "Viela Jurua",
        "zipcode": "06345-150"
    },
    {
        "city": "Carapicuiba",
        "state": "SP",
        "district": "Vila Margarida",
        "street": "Rua Colombo",
        "zipcode": "06323-540"
    },
    {
        "city": "Carapicuiba",
        "state": "SP",
        "district": "Jardim Das Pedras",
        "street": "Viela Pedro De Toledo",
        "zipcode": "06324-440"
    },
    {
        "city": "Carapicuiba",
        "state": "SP",
        "district": "Jardim Santa Tereza",
        "street": "Rua Aroeira",
        "zipcode": "06324-260"
    },
    {
        "city": "Carapicuiba",
        "state": "SP",
        "district": "Vila Veloso",
        "street": "Rua Buritu",
        "zipcode": "06324-550"
    },
    {
        "city": "Carapicuiba",
        "state": "SP",
        "district": "Parque Jandaia",
        "street": "Viela Piranguinho",
        "zipcode": "06330-800"
    },
    {
        "city": "Carapicuiba",
        "state": "SP",
        "district": "Jardim Bom Sucesso",
        "street": "Rua Pedranopolis",
        "zipcode": "06324-420"
    },
    {
        "city": "Carapicuiba",
        "state": "SP",
        "district": "Jardim Santa Tereza",
        "street": "Rua Guaperuvu",
        "zipcode": "06324-310"
    },
    {
        "city": "Carapicuiba",
        "state": "SP",
        "district": "Parque Jandaia",
        "street": "Rua Do Vereador",
        "zipcode": "06323-490"
    },
    {
        "city": "Carapicuiba",
        "state": "SP",
        "district": "Chacara De La Rocca",
        "street": "Rua Porto Rico",
        "zipcode": "06363-270"
    },
    {
        "city": "Carapicuiba",
        "state": "SP",
        "district": "Vila Olivina",
        "street": "Rua Joacaba",
        "zipcode": "06365-640"
    },
    {
        "city": "Carapicuiba",
        "state": "SP",
        "district": "Jardim Planalto",
        "street": "Rua Serra Dos Orgaos",
        "zipcode": "06380-320"
    },
    {
        "city": "Carapicuiba",
        "state": "SP",
        "district": "Jardim Planalto",
        "street": "Praça Caiapo",
        "zipcode": "06362-100"
    },
    {
        "city": "Carapicuiba",
        "state": "SP",
        "district": "Vila Veloso",
        "street": "Rua Antonio Teixeira Lacerda",
        "zipcode": "06324-580"
    },
    {
        "city": "Carapicuiba",
        "state": "SP",
        "district": "Vila Veloso",
        "street": "Rua Candeia",
        "zipcode": "06324-270"
    },
    {
        "city": "Carapicuiba",
        "state": "SP",
        "district": "Jardim Bom Sucesso",
        "street": "Rua Pedro Luiz Mendez",
        "zipcode": "06324-400"
    },
    {
        "city": "Carapicuiba",
        "state": "SP",
        "district": "Vila Olivina",
        "street": "Rua Verdy",
        "zipcode": "06365-420"
    },
    {
        "city": "Carapicuiba",
        "state": "SP",
        "district": "Vila Margarida",
        "street": "Viela Malta",
        "zipcode": "06323-590"
    },
    {
        "city": "Carapicuiba",
        "state": "SP",
        "district": "Vila Veloso",
        "street": "Avenida Dois De Novembro",
        "zipcode": "06324-220"
    },
    {
        "city": "Carapicuiba",
        "state": "SP",
        "district": "Vila Ester",
        "street": "Rua Benedita Izaura Braga",
        "zipcode": "06323-520"
    },
    {
        "city": "Carapicuiba",
        "state": "SP",
        "district": "Jardim Helena",
        "street": "Rua Colombia",
        "zipcode": "06341-070"
    },
    {
        "city": "Carapicuiba",
        "state": "SP",
        "district": "Vila Ester",
        "street": "Rua Cesar Brinatti",
        "zipcode": "06323-530"
    },
    {
        "city": "Carapicuiba",
        "state": "SP",
        "district": "Vila Veloso",
        "street": "Rua Sucupira",
        "zipcode": "06324-615"
    },
    {
        "city": "Carapicuiba",
        "state": "SP",
        "district": "Vila Leopoldo",
        "street": "Rua Edson",
        "zipcode": "06324-570"
    },
    {
        "city": "Carapicuiba",
        "state": "SP",
        "district": "Vila Olivina",
        "street": "Rua Molina Amaral",
        "zipcode": "06365-590"
    },
    {
        "city": "Carapicuiba",
        "state": "SP",
        "district": "Jardim Das Pedras",
        "street": "Rua Pederneiras",
        "zipcode": "06324-430"
    },
    {
        "city": "Carapicuiba",
        "state": "SP",
        "district": "Vila Teresa",
        "street": "Vila Uru",
        "zipcode": "06324-530"
    },
    {
        "city": "Carapicuiba",
        "state": "SP",
        "district": "Parque Jandaia",
        "street": "Rua Peter Zahotei",
        "zipcode": "06323-460"
    },
    {
        "city": "Carapicuiba",
        "state": "SP",
        "district": "Vila Silvania",
        "street": "Rua Santana",
        "zipcode": "06361-340"
    },
    {
        "city": "Carapicuiba",
        "state": "SP",
        "district": "Vila Veloso",
        "street": "Rua Canela",
        "zipcode": "06324-170"
    },
    {
        "city": "Carapicuiba",
        "state": "SP",
        "district": "Jardim Yaya",
        "street": "Rua Pirassununga",
        "zipcode": "06324-350"
    },
    {
        "city": "Carapicuiba",
        "state": "SP",
        "district": "Jardim Ampermag",
        "street": "Viela Do Povo",
        "zipcode": "06381-350"
    },
    {
        "city": "Carapicuiba",
        "state": "SP",
        "district": "Jardim Dos Manacas",
        "street": "Rua Maria Fausta Martins",
        "zipcode": "06381-190"
    },
    {
        "city": "Carapicuiba",
        "state": "SP",
        "district": "Jardim Roseli",
        "street": "Viela Canelinha",
        "zipcode": "06365-680"
    },
    {
        "city": "Carapicuiba",
        "state": "SP",
        "district": "Jardim Yaya",
        "street": "Rua Bandeirantes",
        "zipcode": "06324-460"
    },
    {
        "city": "Carapicuiba",
        "state": "SP",
        "district": "Vila Olivina",
        "street": "Rua Sapeacu",
        "zipcode": "06365-400"
    },
    {
        "city": "Carapicuiba",
        "state": "SP",
        "district": "Jardim Tonato",
        "street": "Rua Agrolandia",
        "zipcode": "06365-520"
    },
    {
        "city": "Carapicuiba",
        "state": "SP",
        "district": "Vila Clara",
        "street": "Praça Treze De Dezembro",
        "zipcode": "06386-410"
    },
    {
        "city": "Carapicuiba",
        "state": "SP",
        "district": "Jardim Santa Rita",
        "street": "Praça Santa Rita",
        "zipcode": "06397-530"
    },
    {
        "city": "Carapicuiba",
        "state": "SP",
        "district": "Jardim Ampermag",
        "street": "Rua Argeu De Almeida E Souza",
        "zipcode": "06381-240"
    },
    {
        "city": "Carapicuiba",
        "state": "SP",
        "district": "Vila Lisboa",
        "street": "Avenida Dos Ortiz",
        "zipcode": "06364-530"
    },
    {
        "city": "Carapicuiba",
        "state": "SP",
        "district": "Vila Lisboa",
        "street": "Rua Alfenas",
        "zipcode": "06364-520"
    },
    {
        "city": "Carapicuiba",
        "state": "SP",
        "district": "Jardim Planalto",
        "street": "Rua Serra Azul",
        "zipcode": "06382-320"
    },
    {
        "city": "Carapicuiba",
        "state": "SP",
        "district": "Jardim Ampermag",
        "street": "Rua Moncoes",
        "zipcode": "06381-460"
    },
    {
        "city": "Carapicuiba",
        "state": "SP",
        "district": "Jardim Ampermag",
        "street": "Rua Martinopolis",
        "zipcode": "06381-390"
    },
    {
        "city": "Carapicuiba",
        "state": "SP",
        "district": "Jardim Yaya",
        "street": "Rua Mirassol",
        "zipcode": "06324-330"
    },
    {
        "city": "Carapicuiba",
        "state": "SP",
        "district": "Chacara Das Flores",
        "street": "Rua Autazes",
        "zipcode": "06381-510"
    },
    {
        "city": "Carapicuiba",
        "state": "SP",
        "district": "Jardim Dangelo",
        "street": "Rua Santo Antonio",
        "zipcode": "06381-410"
    },
    {
        "city": "Carapicuiba",
        "state": "SP",
        "district": "Vila Olivina",
        "street": "Rua Belini",
        "zipcode": "06365-410"
    },
    {
        "city": "Carapicuiba",
        "state": "SP",
        "district": "Parque Santa Teresa",
        "street": "Rua Genesio De Oliveira",
        "zipcode": "06340-310"
    },
    {
        "city": "Carapicuiba",
        "state": "SP",
        "district": "Vila Olivina",
        "street": "Rua Oiticica",
        "zipcode": "06365-390"
    },
    {
        "city": "Carapicuiba",
        "state": "SP",
        "district": "Vila Lourdes",
        "street": "Praça Nobres",
        "zipcode": "06397-220"
    },
    {
        "city": "Carapicuiba",
        "state": "SP",
        "district": "Altos Da Santa Lucia",
        "street": "Rua Das Araucarias",
        "zipcode": "06365-020"
    },
    {
        "city": "Carapicuiba",
        "state": "SP",
        "district": "Jardim Ampermag",
        "street": "Rua Manoel Goncalves De Aguiar",
        "zipcode": "06381-380"
    },
    {
        "city": "Carapicuiba",
        "state": "SP",
        "district": "Jardim Ampermag",
        "street": "Rua Jequitiba",
        "zipcode": "06381-430"
    },
    {
        "city": "Carapicuiba",
        "state": "SP",
        "district": "Jardim Planalto",
        "street": "Rua Serra Da Cantareira",
        "zipcode": "06380-330"
    },
    {
        "city": "Carapicuiba",
        "state": "SP",
        "district": "Vila Silviania",
        "street": "Rua Gelmiro Smaniotto",
        "zipcode": "06382-200"
    },
    {
        "city": "Carapicuiba",
        "state": "SP",
        "district": "Jardim Ampermag",
        "street": "Rua Mirassolandia",
        "zipcode": "06381-280"
    },
    {
        "city": "Carapicuiba",
        "state": "SP",
        "district": "Jardim Ercy",
        "street": "Praça Tres De Dezembro",
        "zipcode": "06386-240"
    },
    {
        "city": "Carapicuiba",
        "state": "SP",
        "district": "Vila Quintino",
        "street": "Rua Pontal",
        "zipcode": "06324-200"
    },
    {
        "city": "Carapicuiba",
        "state": "SP",
        "district": "Jardim Planalto",
        "street": "Viela Indianopolis",
        "zipcode": "06382-290"
    },
    {
        "city": "Carapicuiba",
        "state": "SP",
        "district": "Jardim Dangelo",
        "street": "Rua Ismar",
        "zipcode": "06381-420"
    },
    {
        "city": "Carapicuiba",
        "state": "SP",
        "district": "Jardim Ampermag",
        "street": "Rua Luis Vaz De Camoes",
        "zipcode": "06381-360"
    },
    {
        "city": "Carapicuiba",
        "state": "SP",
        "district": "Vila Lourdes",
        "street": "Rua Rubens Val Dias",
        "zipcode": "06397-610"
    },
    {
        "city": "Carapicuiba",
        "state": "SP",
        "district": "Jardim Planalto",
        "street": "Rua Passagem Dos Castelitos",
        "zipcode": "06382-310"
    },
    {
        "city": "Carapicuiba",
        "state": "SP",
        "district": "Jardim Ampermag",
        "street": "Rua Lavinia",
        "zipcode": "06381-440"
    },
    {
        "city": "Carapicuiba",
        "state": "SP",
        "district": "Parque Jandaia",
        "street": "Rua Catarina Alves Da Silva",
        "zipcode": "06323-700"
    },
    {
        "city": "Carapicuiba",
        "state": "SP",
        "district": "Jardim Bom Sucesso",
        "street": "Rua Bauru",
        "zipcode": "06324-410"
    },
    {
        "city": "Carapicuiba",
        "state": "SP",
        "district": "Jardim Ana Estela",
        "street": "Rua Porto Rico",
        "zipcode": "06363-260"
    },
    {
        "city": "Carapicuiba",
        "state": "SP",
        "district": "Parque Jandaia",
        "street": "Rua Manoel Da Costa Pacheco",
        "zipcode": "06323-190"
    },
    {
        "city": "Carapicuiba",
        "state": "SP",
        "district": "Vila Marcondes",
        "street": "Rua Carlos Marcos Calsolari",
        "zipcode": "06323-230"
    },
    {
        "city": "Carapicuiba",
        "state": "SP",
        "district": "Parque Jandaia",
        "street": "Rua Lazaro Da Silva",
        "zipcode": "06323-420"
    },
    {
        "city": "Carapicuiba",
        "state": "SP",
        "district": "Parque Jandaia",
        "street": "Rua Job Caires",
        "zipcode": "06323-790"
    },
    {
        "city": "Carapicuiba",
        "state": "SP",
        "district": "Jardim Santo Stevao",
        "street": "Rua Santa Fe",
        "zipcode": "06323-630"
    },
    {
        "city": "Carapicuiba",
        "state": "SP",
        "district": "Jardim Guapouva",
        "street": "Avenida Do Corrego",
        "zipcode": "06323-150"
    },
    {
        "city": "Carapicuiba",
        "state": "SP",
        "district": "Jardim Bom Sucesso",
        "street": "Estrada Douglas Washington Gomes De Araujo",
        "zipcode": "06324-600"
    },
    {
        "city": "Carapicuiba",
        "state": "SP",
        "district": "Vila Quintino",
        "street": "Rua Buenos Aires",
        "zipcode": "06324-500"
    },
    {
        "city": "Carapicuiba",
        "state": "SP",
        "district": "Jardim Bom Sucesso",
        "street": "Rua Cotia",
        "zipcode": "06324-360"
    },
    {
        "city": "Carapicuiba",
        "state": "SP",
        "district": "Parque Jandaia",
        "street": "Rua Aparecido Euzebio De Souza",
        "zipcode": "06323-450"
    },
    {
        "city": "Carapicuiba",
        "state": "SP",
        "district": "Chacara Adriana Aparecida",
        "street": "Caminho Campo Limpo",
        "zipcode": "06365-670"
    },
    {
        "city": "Carapicuiba",
        "state": "SP",
        "district": "Jardim Primavera",
        "street": "Rua Benedita Modesto Pereira Da Silva",
        "zipcode": "06323-040"
    },
    {
        "city": "Carapicuiba",
        "state": "SP",
        "district": "Parque Jandaia",
        "street": "Rua Aparicio Rodrigues",
        "zipcode": "06323-380"
    },
    {
        "city": "Carapicuiba",
        "state": "SP",
        "district": "Jardim Ampermag",
        "street": "Rua Mococa",
        "zipcode": "06381-450"
    },
    {
        "city": "Carapicuiba",
        "state": "SP",
        "district": "Vila Ester",
        "street": "Rua Homero De Medeiros",
        "zipcode": "06323-820"
    },
    {
        "city": "Carapicuiba",
        "state": "SP",
        "district": "Vila Veloso",
        "street": "Rua Imbuia",
        "zipcode": "06324-300"
    },
    {
        "city": "Carapicuiba",
        "state": "SP",
        "district": "Parque Florida",
        "street": "Rua Los Angeles",
        "zipcode": "06365-250"
    },
    {
        "city": "Carapicuiba",
        "state": "SP",
        "district": "Conj Habit Presidente Castelo Branco",
        "street": "Rua Araxa",
        "zipcode": "06327-150"
    },
    {
        "city": "Carapicuiba",
        "state": "SP",
        "district": "Vila Ester",
        "street": "Rua Derval Ferreira Rosa Aquino",
        "zipcode": "06323-550"
    },
    {
        "city": "Carapicuiba",
        "state": "SP",
        "district": "Jardim Ana Maria",
        "street": "Praça Irapua",
        "zipcode": "06386-510"
    },
    {
        "city": "Carapicuiba",
        "state": "SP",
        "district": "Vila Veloso",
        "street": "Rua Pau Brasil",
        "zipcode": "06324-240"
    },
    {
        "city": "Carapicuiba",
        "state": "SP",
        "district": "Jardim Santa Tereza",
        "street": "Rua Comendador Manoel Kerlakian",
        "zipcode": "06324-100"
    },
    {
        "city": "Carapicuiba",
        "state": "SP",
        "district": "Vila Silvania",
        "street": "Vila Atalaia",
        "zipcode": "06323-510"
    },
    {
        "city": "Carapicuiba",
        "state": "SP",
        "district": "Vila Terezinha",
        "street": "Praça Santa Terezinha",
        "zipcode": "06311-200"
    },
    {
        "city": "Carapicuiba",
        "state": "SP",
        "district": "Jardim Guapouva",
        "street": "Rua Siriri",
        "zipcode": "06323-760"
    },
    {
        "city": "Carapicuiba",
        "state": "SP",
        "district": "Jardim Dangelo",
        "street": "Rua Dona Leonor",
        "zipcode": "06381-400"
    },
    {
        "city": "Carapicuiba",
        "state": "SP",
        "district": "Vila Veloso",
        "street": "Praça Coluna",
        "zipcode": "06324-560"
    },
    {
        "city": "Carapicuiba",
        "state": "SP",
        "district": "Vila Silviania",
        "street": "Rua Antonio Trivinho",
        "zipcode": "06381-060"
    },
    {
        "city": "Carapicuiba",
        "state": "SP",
        "district": "Jardim Cibele",
        "street": "Rua Reboucas",
        "zipcode": "06323-330"
    },
    {
        "city": "Carapicuiba",
        "state": "SP",
        "district": "Vila Teresa",
        "street": "Rua Ervalia",
        "zipcode": "06324-190"
    },
    {
        "city": "Carapicuiba",
        "state": "SP",
        "district": "Jardim Elzinha",
        "street": "Rua Pardinho",
        "zipcode": "06382-300"
    },
    {
        "city": "Carapicuiba",
        "state": "SP",
        "district": "Jardim Rosa Maria",
        "street": "Rua Alvorada",
        "zipcode": "06323-090"
    },
    {
        "city": "Carapicuiba",
        "state": "SP",
        "district": "Parque Jandaia",
        "street": "Viela Paraisolandia",
        "zipcode": "06333-440"
    },
    {
        "city": "Carapicuiba",
        "state": "SP",
        "district": "Vila Ester",
        "street": "Rua Sao Mateus",
        "zipcode": "06323-010"
    },
    {
        "city": "Carapicuiba",
        "state": "SP",
        "district": "Parque Santa Teresa",
        "street": "Rua Princesa Isabel",
        "zipcode": "06342-100"
    },
    {
        "city": "Carapicuiba",
        "state": "SP",
        "district": "Vila Veloso",
        "street": "Rua Antonio Teixeira Lacerda",
        "zipcode": "06324-030"
    },
    {
        "city": "Carapicuiba",
        "state": "SP",
        "district": "Vila Olivina",
        "street": "Rua Villa Lobos",
        "zipcode": "06365-430"
    },
    {
        "city": "Carapicuiba",
        "state": "SP",
        "district": "Vila Veloso",
        "street": "Rua Maria Candida Ferreira Lacerda",
        "zipcode": "06324-160"
    },
    {
        "city": "Carapicuiba",
        "state": "SP",
        "district": "Jardim Maria Beatriz",
        "street": "Rua Santa Cruz",
        "zipcode": "06365-690"
    },
    {
        "city": "Carapicuiba",
        "state": "SP",
        "district": "Jardim Guapouva",
        "street": "Rua Ubata",
        "zipcode": "06323-130"
    },
    {
        "city": "Carapicuiba",
        "state": "SP",
        "district": "Vila Veloso",
        "street": "Rua Guaranta",
        "zipcode": "06324-250"
    },
    {
        "city": "Carapicuiba",
        "state": "SP",
        "district": "Parque Jandaia",
        "street": "Rua Sidnei Soares De Andrade",
        "zipcode": "06323-400"
    },
    {
        "city": "Carapicuiba",
        "state": "SP",
        "district": "Jardim Maria Beatriz",
        "street": "Rua Lodovina Cruz Cintra",
        "zipcode": "06365-540"
    },
    {
        "city": "Carapicuiba",
        "state": "SP",
        "district": "Jardim Cibele",
        "street": "Viela Nago",
        "zipcode": "06323-600"
    },
    {
        "city": "Carapicuiba",
        "state": "SP",
        "district": "Vila Lisboa",
        "street": "Avenida Dos Alecrins",
        "zipcode": "06364-510"
    },
    {
        "city": "Carapicuiba",
        "state": "SP",
        "district": "Parque Jandaia",
        "street": "Viela Guaraquecaba",
        "zipcode": "06323-710"
    },
    {
        "city": "Carapicuiba",
        "state": "SP",
        "district": "Jardim Rosa Maria",
        "street": "Rua Simpliciano Dos Santos",
        "zipcode": "06323-100"
    },
    {
        "city": "Carapicuiba",
        "state": "SP",
        "district": "Jardim Ana Estela",
        "street": "Praça Galileia",
        "zipcode": "06364-710"
    },
    {
        "city": "Carapicuiba",
        "state": "SP",
        "district": "Jardim Yaya",
        "street": "Rua Ofelia Alves Ferreira",
        "zipcode": "06324-595"
    },
    {
        "city": "Carapicuiba",
        "state": "SP",
        "district": "Jardim Yaya",
        "street": "Rua Neves Paulista",
        "zipcode": "06324-340"
    }
]