[
    {
        "city": "Cerqueira César",
        "state": "SP",
        "district": "",
        "street": "",
        "zipcode": "18760-000"
    },
    {
        "city": "Cerqueira César",
        "state": "SP",
        "district": "Jardim Primavera",
        "street": "Alameda das Tipuanas",
        "zipcode": "18764-284"
    },
    {
        "city": "Cerqueira César",
        "state": "SP",
        "district": "Jardim São Lucas",
        "street": "Avenida Guerino Cacciolari",
        "zipcode": "18767-056"
    },
    {
        "city": "Cerqueira César",
        "state": "SP",
        "district": "Área Rural de Cerqueira César",
        "street": "Área Rural",
        "zipcode": "18769-899"
    },
    {
        "city": "Cerqueira César",
        "state": "SP",
        "district": "Chácara Moura Leite",
        "street": "Alameda das Hortências",
        "zipcode": "18764-208"
    },
    {
        "city": "Cerqueira César",
        "state": "SP",
        "district": "Chácara Cacciolari",
        "street": "Alameda Cidebal Gardim",
        "zipcode": "18767-194"
    },
    {
        "city": "Cerqueira César",
        "state": "SP",
        "district": "Jardim Bela Vista",
        "street": "Alameda das Hortências",
        "zipcode": "18764-242"
    },
    {
        "city": "Cerqueira César",
        "state": "SP",
        "district": "Nova Cerqueira",
        "street": "Avenida Salvador Firace",
        "zipcode": "18762-076"
    },
    {
        "city": "Cerqueira César",
        "state": "SP",
        "district": "Jardim Santa Ignês",
        "street": "Praça Manoel Cortez Ruiz",
        "zipcode": "18760-406"
    },
    {
        "city": "Cerqueira César",
        "state": "SP",
        "district": "Centro",
        "street": "Avenida Ângelo Gerdullo",
        "zipcode": "18760-061"
    },
    {
        "city": "Cerqueira César",
        "state": "SP",
        "district": "Centro",
        "street": "Rua Adolfo Mazza Júnior",
        "zipcode": "18760-027"
    },
    {
        "city": "Cerqueira César",
        "state": "SP",
        "district": "Jardim Santa Ignês",
        "street": "Praça Ataliba Aires Pereira",
        "zipcode": "18760-396"
    },
    {
        "city": "Cerqueira César",
        "state": "SP",
        "district": "Jardim Esmeralda",
        "street": "Rua Amâncio Machado",
        "zipcode": "18764-052"
    },
    {
        "city": "Cerqueira César",
        "state": "SP",
        "district": "Vila Angélica",
        "street": "Rua Adolfo Mazza",
        "zipcode": "18760-380"
    },
    {
        "city": "Cerqueira César",
        "state": "SP",
        "district": "Jardim São Lucas",
        "street": "Rua Amazonas",
        "zipcode": "18767-042"
    },
    {
        "city": "Cerqueira César",
        "state": "SP",
        "district": "Vila Almeida",
        "street": "Praça Brasílio Vidal",
        "zipcode": "18764-010"
    },
    {
        "city": "Cerqueira César",
        "state": "SP",
        "district": "Conjunto Habitacional Recanto dos Pássaros",
        "street": "Avenida Andorinhas",
        "zipcode": "18764-430"
    },
    {
        "city": "Cerqueira César",
        "state": "SP",
        "district": "Jardim São Lucas",
        "street": "Avenida São Paulo",
        "zipcode": "18767-024"
    },
    {
        "city": "Cerqueira César",
        "state": "SP",
        "district": "Vila Nova",
        "street": "Avenida Rio de Janeiro",
        "zipcode": "18767-000"
    },
    {
        "city": "Cerqueira César",
        "state": "SP",
        "district": "Jardim Tropical",
        "street": "Avenida Guerino Cacciolari",
        "zipcode": "18767-072"
    },
    {
        "city": "Cerqueira César",
        "state": "SP",
        "district": "Nova Cerqueira",
        "street": "Rua Antonio Cardoso de Oliveira",
        "zipcode": "18762-112"
    },
    {
        "city": "Cerqueira César",
        "state": "SP",
        "district": "Jardim dos Ipês",
        "street": "Alameda das Hortências",
        "zipcode": "18764-250"
    },
    {
        "city": "Cerqueira César",
        "state": "SP",
        "district": "Centro",
        "street": "Praça Irmãos Ferreira",
        "zipcode": "18760-025"
    },
    {
        "city": "Cerqueira César",
        "state": "SP",
        "district": "Jardim Três Ranchos IV",
        "street": "Avenida Rouxinol",
        "zipcode": "18764-416"
    },
    {
        "city": "Cerqueira César",
        "state": "SP",
        "district": "Vila Almeida",
        "street": "Rua Alcides da Paixão",
        "zipcode": "18764-008"
    },
    {
        "city": "Cerqueira César",
        "state": "SP",
        "district": "Conjunto Habitacional Recanto dos Pássaros",
        "street": "Avenida Rouxinol",
        "zipcode": "18764-420"
    },
    {
        "city": "Cerqueira César",
        "state": "SP",
        "district": "Distrito Industrial",
        "street": "Avenida Tino Vitto",
        "zipcode": "18767-216"
    },
    {
        "city": "Cerqueira César",
        "state": "SP",
        "district": "Nova Cerqueira",
        "street": "Rua Anna Mariguetti Sassi",
        "zipcode": "18762-082"
    },
    {
        "city": "Cerqueira César",
        "state": "SP",
        "district": "Jardim Primavera",
        "street": "Alameda das Tulipas",
        "zipcode": "18764-270"
    },
    {
        "city": "Cerqueira César",
        "state": "SP",
        "district": "Parque Nove de Julho",
        "street": "Rua Antonio Caldeira",
        "zipcode": "18760-298"
    },
    {
        "city": "Cerqueira César",
        "state": "SP",
        "district": "Jardim São Lucas",
        "street": "Avenida Rio de Janeiro",
        "zipcode": "18767-022"
    },
    {
        "city": "Cerqueira César",
        "state": "SP",
        "district": "Parque Nove de Julho",
        "street": "Avenida Sotero Machado",
        "zipcode": "18760-346"
    },
    {
        "city": "Cerqueira César",
        "state": "SP",
        "district": "Conjunto Habitacional Recanto dos Pássaros",
        "street": "Avenida Beija Flor",
        "zipcode": "18764-442"
    },
    {
        "city": "Cerqueira César",
        "state": "SP",
        "district": "Distrito Industrial",
        "street": "Rua Antonio Reis Poso",
        "zipcode": "18767-210"
    },
    {
        "city": "Cerqueira César",
        "state": "SP",
        "district": "Jardim Bela Vista",
        "street": "Rua das Acácias",
        "zipcode": "18764-226"
    },
    {
        "city": "Cerqueira César",
        "state": "SP",
        "district": "Jardim São Lucas",
        "street": "Rua Acre",
        "zipcode": "18767-052"
    },
    {
        "city": "Cerqueira César",
        "state": "SP",
        "district": "Chácara Moura Leite",
        "street": "Rua das Itaúbas",
        "zipcode": "18764-182"
    },
    {
        "city": "Cerqueira César",
        "state": "SP",
        "district": "Parque Nove de Julho",
        "street": "Rua Capitão Manoel Augusto Mendes",
        "zipcode": "18760-290"
    },
    {
        "city": "Cerqueira César",
        "state": "SP",
        "district": "Nova Cerqueira",
        "street": "Estrada Geraldo Paulin",
        "zipcode": "18762-114"
    },
    {
        "city": "Cerqueira César",
        "state": "SP",
        "district": "Jardim São Lucas II",
        "street": "Avenida Joaquim Pedro Ribeiro",
        "zipcode": "18767-066"
    },
    {
        "city": "Cerqueira César",
        "state": "SP",
        "district": "Nova Cerqueira",
        "street": "Rua Aurélio Ferreira",
        "zipcode": "18762-102"
    },
    {
        "city": "Cerqueira César",
        "state": "SP",
        "district": "Jardim Tropical",
        "street": "Rua das Carambolas",
        "zipcode": "18767-082"
    },
    {
        "city": "Cerqueira César",
        "state": "SP",
        "district": "Jardim Primavera",
        "street": "Rua das Jussaras",
        "zipcode": "18764-266"
    },
    {
        "city": "Cerqueira César",
        "state": "SP",
        "district": "Jardim Esmeralda",
        "street": "Rua Ceará",
        "zipcode": "18764-068"
    },
    {
        "city": "Cerqueira César",
        "state": "SP",
        "district": "Vila Nossa Senhora de Fátima",
        "street": "Rua Antonio Salomão Farah",
        "zipcode": "18762-062"
    },
    {
        "city": "Cerqueira César",
        "state": "SP",
        "district": "Chácara Moura Leite",
        "street": "Rua das Aroeiras",
        "zipcode": "18764-198"
    },
    {
        "city": "Cerqueira César",
        "state": "SP",
        "district": "Vila Almeida",
        "street": "Rua Antonio Máximo da Silva",
        "zipcode": "18764-002"
    },
    {
        "city": "Cerqueira César",
        "state": "SP",
        "district": "Chácara Moura Leite",
        "street": "Rua das Canelas",
        "zipcode": "18764-204"
    },
    {
        "city": "Cerqueira César",
        "state": "SP",
        "district": "Parque Nove de Julho",
        "street": "Rua Antônio Rosseto",
        "zipcode": "18760-348"
    },
    {
        "city": "Cerqueira César",
        "state": "SP",
        "district": "Jardim Tropical",
        "street": "Avenida Joaquim Pedro Ribeiro",
        "zipcode": "18767-070"
    },
    {
        "city": "Cerqueira César",
        "state": "SP",
        "district": "Jardim São Lucas II",
        "street": "Rua Curitiba",
        "zipcode": "18767-064"
    },
    {
        "city": "Cerqueira César",
        "state": "SP",
        "district": "Jardim Santa Ignês",
        "street": "Praça Luiz Geraldo Damin",
        "zipcode": "18760-414"
    },
    {
        "city": "Cerqueira César",
        "state": "SP",
        "district": "Santa Cecília",
        "street": "Rodovia Osni Mateus",
        "zipcode": "18762-172"
    },
    {
        "city": "Cerqueira César",
        "state": "SP",
        "district": "Santa Cecília",
        "street": "Avenida Oscar Bodelão",
        "zipcode": "18762-170"
    },
    {
        "city": "Cerqueira César",
        "state": "SP",
        "district": "Parque Nove de Julho",
        "street": "Rua Augusto Silva",
        "zipcode": "18760-308"
    },
    {
        "city": "Cerqueira César",
        "state": "SP",
        "district": "Centro",
        "street": "Rua Castro Maia",
        "zipcode": "18760-065"
    },
    {
        "city": "Cerqueira César",
        "state": "SP",
        "district": "Conjunto Habitacional Recanto dos Pássaros",
        "street": "Rua Bem",
        "zipcode": "18764-436"
    },
    {
        "city": "Cerqueira César",
        "state": "SP",
        "district": "Jardim Primavera III",
        "street": "Rua das Figueiras",
        "zipcode": "18764-294"
    },
    {
        "city": "Cerqueira César",
        "state": "SP",
        "district": "Jardim Primavera",
        "street": "Rua das Jaqueiras",
        "zipcode": "18764-282"
    },
    {
        "city": "Cerqueira César",
        "state": "SP",
        "district": "Jardim Tropical",
        "street": "Rua das Amoras",
        "zipcode": "18767-080"
    },
    {
        "city": "Cerqueira César",
        "state": "SP",
        "district": "Jardim Primavera",
        "street": "Rua das Dálias",
        "zipcode": "18764-268"
    },
    {
        "city": "Cerqueira César",
        "state": "SP",
        "district": "Jardim São Lucas",
        "street": "Rua Benerio Bagagli",
        "zipcode": "18767-050"
    },
    {
        "city": "Cerqueira César",
        "state": "SP",
        "district": "Jardim Três Ranchos I",
        "street": "Rua Celso Mazza",
        "zipcode": "18764-214"
    },
    {
        "city": "Cerqueira César",
        "state": "SP",
        "district": "Novo Horizonte",
        "street": "Rua das Cerejeiras",
        "zipcode": "18764-318"
    },
    {
        "city": "Cerqueira César",
        "state": "SP",
        "district": "Jardim Primavera",
        "street": "Rua das Bromélias",
        "zipcode": "18764-264"
    },
    {
        "city": "Cerqueira César",
        "state": "SP",
        "district": "Chácara Cacciolari",
        "street": "Rua Antonio Reis Poso",
        "zipcode": "18767-202"
    },
    {
        "city": "Cerqueira César",
        "state": "SP",
        "district": "Novo Horizonte",
        "street": "Rua das Amarílis",
        "zipcode": "18764-314"
    },
    {
        "city": "Cerqueira César",
        "state": "SP",
        "district": "Centro",
        "street": "Rua Clóvis Cardoso de Oliveira",
        "zipcode": "18760-033"
    },
    {
        "city": "Cerqueira César",
        "state": "SP",
        "district": "Chácara Moura Leite",
        "street": "Rua das Copaíbas",
        "zipcode": "18764-192"
    },
    {
        "city": "Cerqueira César",
        "state": "SP",
        "district": "Conjunto Habitacional Recanto dos Pássaros",
        "street": "Rua Arara",
        "zipcode": "18764-440"
    },
    {
        "city": "Cerqueira César",
        "state": "SP",
        "district": "Vila Almeida",
        "street": "Rua Benedita Brizola de Almeida",
        "zipcode": "18764-018"
    },
    {
        "city": "Cerqueira César",
        "state": "SP",
        "district": "Parque Nove de Julho",
        "street": "Rua Cyro Elias",
        "zipcode": "18760-310"
    },
    {
        "city": "Cerqueira César",
        "state": "SP",
        "district": "Jardim Bela Vista",
        "street": "Rua das Azaléias",
        "zipcode": "18764-220"
    },
    {
        "city": "Cerqueira César",
        "state": "SP",
        "district": "Centro",
        "street": "Rua Conceição Ribeiro Rossetto",
        "zipcode": "18760-013"
    },
    {
        "city": "Cerqueira César",
        "state": "SP",
        "district": "Vila Nossa Senhora de Fátima",
        "street": "Rua Ciro Milton de Abreu",
        "zipcode": "18762-058"
    },
    {
        "city": "Cerqueira César",
        "state": "SP",
        "district": "Vila Almeida",
        "street": "Rua Ceará",
        "zipcode": "18764-014"
    },
    {
        "city": "Cerqueira César",
        "state": "SP",
        "district": "Parque Nove de Julho",
        "street": "Rua Augusto Rolim Dias Arruda",
        "zipcode": "18760-334"
    },
    {
        "city": "Cerqueira César",
        "state": "SP",
        "district": "Jardim Primavera III",
        "street": "Rua das Candeias",
        "zipcode": "18764-296"
    },
    {
        "city": "Cerqueira César",
        "state": "SP",
        "district": "Parque Nove de Julho",
        "street": "Rua Brasilino de Freitas Negrão",
        "zipcode": "18760-340"
    },
    {
        "city": "Cerqueira César",
        "state": "SP",
        "district": "Jardim Três Ranchos IV",
        "street": "Rua das Guaiuviras",
        "zipcode": "18764-414"
    },
    {
        "city": "Cerqueira César",
        "state": "SP",
        "district": "Vila Almeida",
        "street": "Rua Capitão Moura Leite",
        "zipcode": "18764-000"
    },
    {
        "city": "Cerqueira César",
        "state": "SP",
        "district": "Nova Cerqueira",
        "street": "Rua Arlindo Castagnaro",
        "zipcode": "18762-104"
    },
    {
        "city": "Cerqueira César",
        "state": "SP",
        "district": "Parque Nove de Julho",
        "street": "Rua Dadício de Oliveira",
        "zipcode": "18760-338"
    },
    {
        "city": "Cerqueira César",
        "state": "SP",
        "district": "Nova Cerqueira",
        "street": "Rua Antonio Luiz da Costa",
        "zipcode": "18762-086"
    },
    {
        "city": "Cerqueira César",
        "state": "SP",
        "district": "Jardim Primavera III",
        "street": "Rua das Palmeiras",
        "zipcode": "18764-292"
    },
    {
        "city": "Cerqueira César",
        "state": "SP",
        "district": "Novo Horizonte",
        "street": "Rua das Alfazemas",
        "zipcode": "18764-310"
    },
    {
        "city": "Cerqueira César",
        "state": "SP",
        "district": "Jardim Três Ranchos I",
        "street": "Rua das Azaléias",
        "zipcode": "18764-218"
    },
    {
        "city": "Cerqueira César",
        "state": "SP",
        "district": "Jardim Tropical",
        "street": "Rua das Jabuticabas",
        "zipcode": "18767-084"
    },
    {
        "city": "Cerqueira César",
        "state": "SP",
        "district": "Conjunto Habitacional Recanto dos Pássaros",
        "street": "Rua Curió",
        "zipcode": "18764-424"
    },
    {
        "city": "Cerqueira César",
        "state": "SP",
        "district": "Vila Nova",
        "street": "Rua Goiás",
        "zipcode": "18767-012"
    },
    {
        "city": "Cerqueira César",
        "state": "SP",
        "district": "Vila Izabel",
        "street": "Rua João Mantovani",
        "zipcode": "18764-170"
    },
    {
        "city": "Cerqueira César",
        "state": "SP",
        "district": "Jardim Bela Vista",
        "street": "Rua das Violetas",
        "zipcode": "18764-228"
    },
    {
        "city": "Cerqueira César",
        "state": "SP",
        "district": "Jardim Bela Vista",
        "street": "Rua dos Jasmins",
        "zipcode": "18764-222"
    },
    {
        "city": "Cerqueira César",
        "state": "SP",
        "district": "Jardim Bela Vista",
        "street": "Rua das Orquídeas",
        "zipcode": "18764-224"
    },
    {
        "city": "Cerqueira César",
        "state": "SP",
        "district": "Jardim Primavera",
        "street": "Rua das Quaresmeiras",
        "zipcode": "18764-262"
    },
    {
        "city": "Cerqueira César",
        "state": "SP",
        "district": "Jardim Esmeralda",
        "street": "Rua Drumond",
        "zipcode": "18764-056"
    },
    {
        "city": "Cerqueira César",
        "state": "SP",
        "district": "Nova Cerqueira",
        "street": "Rua Estefano Apolônio",
        "zipcode": "18762-096"
    },
    {
        "city": "Cerqueira César",
        "state": "SP",
        "district": "Jardim Primavera",
        "street": "Rua das Primaveras",
        "zipcode": "18764-276"
    },
    {
        "city": "Cerqueira César",
        "state": "SP",
        "district": "Jardim Santa Ignês",
        "street": "Rua Fernando Lanças",
        "zipcode": "18760-412"
    },
    {
        "city": "Cerqueira César",
        "state": "SP",
        "district": "Chácara Moura Leite",
        "street": "Rua dos Cedros",
        "zipcode": "18764-186"
    },
    {
        "city": "Cerqueira César",
        "state": "SP",
        "district": "Jardim Primavera",
        "street": "Rua dos Buritis",
        "zipcode": "18764-260"
    },
    {
        "city": "Cerqueira César",
        "state": "SP",
        "district": "Chácara Moura Leite",
        "street": "Rua dos Jatobás",
        "zipcode": "18764-190"
    },
    {
        "city": "Cerqueira César",
        "state": "SP",
        "district": "Jardim Tropical",
        "street": "Rua das Pitangas",
        "zipcode": "18767-078"
    },
    {
        "city": "Cerqueira César",
        "state": "SP",
        "district": "Chácara Moura Leite",
        "street": "Rua dos Ipês",
        "zipcode": "18764-200"
    },
    {
        "city": "Cerqueira César",
        "state": "SP",
        "district": "Centro",
        "street": "Rua Djalma Dutra",
        "zipcode": "18760-057"
    },
    {
        "city": "Cerqueira César",
        "state": "SP",
        "district": "Jardim Esmeralda",
        "street": "Rua Jader de Souza",
        "zipcode": "18764-054"
    },
    {
        "city": "Cerqueira César",
        "state": "SP",
        "district": "Parque Nove de Julho",
        "street": "Rua Eduardo Garcia",
        "zipcode": "18760-294"
    },
    {
        "city": "Cerqueira César",
        "state": "SP",
        "district": "Chácara Moura Leite",
        "street": "Rua dos Pinheiros",
        "zipcode": "18764-196"
    },
    {
        "city": "Cerqueira César",
        "state": "SP",
        "district": "Vila Nova",
        "street": "Rua Espírito Santo",
        "zipcode": "18767-008"
    },
    {
        "city": "Cerqueira César",
        "state": "SP",
        "district": "Centro",
        "street": "Rua Hermenegildo Lopes Martins",
        "zipcode": "18760-005"
    },
    {
        "city": "Cerqueira César",
        "state": "SP",
        "district": "Centro",
        "street": "Rua João Moreira Silva",
        "zipcode": "18760-011"
    },
    {
        "city": "Cerqueira César",
        "state": "SP",
        "district": "Chácara Moura Leite",
        "street": "Rua das Sucupiras",
        "zipcode": "18764-194"
    },
    {
        "city": "Cerqueira César",
        "state": "SP",
        "district": "Jardim São Lucas",
        "street": "Rua Fidéliz Torralbo",
        "zipcode": "18767-038"
    },
    {
        "city": "Cerqueira César",
        "state": "SP",
        "district": "Jardim Santa Ignês",
        "street": "Rua Ignêz de Almeida Pires",
        "zipcode": "18760-390"
    },
    {
        "city": "Cerqueira César",
        "state": "SP",
        "district": "Jardim Primavera III",
        "street": "Rua dos Hibiscos",
        "zipcode": "18764-304"
    },
    {
        "city": "Cerqueira César",
        "state": "SP",
        "district": "Parque Nove de Julho",
        "street": "Rua Doutor Paulo Mazza",
        "zipcode": "18760-324"
    },
    {
        "city": "Cerqueira César",
        "state": "SP",
        "district": "Jardim dos Ipês",
        "street": "Rua das Primaveras",
        "zipcode": "18764-252"
    },
    {
        "city": "Cerqueira César",
        "state": "SP",
        "district": "Jardim Bela Vista",
        "street": "Rua dos Lírios",
        "zipcode": "18764-234"
    },
    {
        "city": "Cerqueira César",
        "state": "SP",
        "district": "Vila Almeida",
        "street": "Rua Francisco de Almeida",
        "zipcode": "18764-016"
    },
    {
        "city": "Cerqueira César",
        "state": "SP",
        "district": "Jardim Tropical",
        "street": "Rua das Seriguelas",
        "zipcode": "18767-076"
    },
    {
        "city": "Cerqueira César",
        "state": "SP",
        "district": "Jardim dos Ipês",
        "street": "Rua dos Jaborandis",
        "zipcode": "18764-254"
    },
    {
        "city": "Cerqueira César",
        "state": "SP",
        "district": "Chácara Cacciolari",
        "street": "Rua João Batista Damin",
        "zipcode": "18767-192"
    },
    {
        "city": "Cerqueira César",
        "state": "SP",
        "district": "Vila Almeida",
        "street": "Rua Drumond",
        "zipcode": "18764-006"
    },
    {
        "city": "Cerqueira César",
        "state": "SP",
        "district": "Vila Manoel Fernandes",
        "street": "Rua Guilherme Bolher",
        "zipcode": "18764-034"
    },
    {
        "city": "Cerqueira César",
        "state": "SP",
        "district": "Jardim São Lucas II",
        "street": "Rua Florianópolis",
        "zipcode": "18767-060"
    },
    {
        "city": "Cerqueira César",
        "state": "SP",
        "district": "Nova Cerqueira",
        "street": "Rua Emílio Rossetto",
        "zipcode": "18762-106"
    },
    {
        "city": "Cerqueira César",
        "state": "SP",
        "district": "Jardim Bela Vista",
        "street": "Rua dos Manacás",
        "zipcode": "18764-244"
    },
    {
        "city": "Cerqueira César",
        "state": "SP",
        "district": "Jardim São Lucas",
        "street": "Rua Espírito Santo",
        "zipcode": "18767-028"
    },
    {
        "city": "Cerqueira César",
        "state": "SP",
        "district": "Jardim Santa Ignês",
        "street": "Rua Honório Gregório de Oliveira",
        "zipcode": "18760-404"
    },
    {
        "city": "Cerqueira César",
        "state": "SP",
        "district": "Vila Manoel Fernandes",
        "street": "Rua Elias Antunes Pereira",
        "zipcode": "18764-042"
    },
    {
        "city": "Cerqueira César",
        "state": "SP",
        "district": "Nova Cerqueira",
        "street": "Rua Esther de Camargo Silva",
        "zipcode": "18762-094"
    },
    {
        "city": "Cerqueira César",
        "state": "SP",
        "district": "Jardim Bela Vista",
        "street": "Rua das Rosas",
        "zipcode": "18764-240"
    },
    {
        "city": "Cerqueira César",
        "state": "SP",
        "district": "Jardim Bela Vista",
        "street": "Rua dos Crisântemos",
        "zipcode": "18764-230"
    },
    {
        "city": "Cerqueira César",
        "state": "SP",
        "district": "Novo Horizonte",
        "street": "Rua dos Oitis",
        "zipcode": "18764-312"
    },
    {
        "city": "Cerqueira César",
        "state": "SP",
        "district": "Jardim Bela Vista",
        "street": "Rua dos Girassóis",
        "zipcode": "18764-232"
    },
    {
        "city": "Cerqueira César",
        "state": "SP",
        "district": "Jardim Primavera III",
        "street": "Rua das Perobas",
        "zipcode": "18764-298"
    },
    {
        "city": "Cerqueira César",
        "state": "SP",
        "district": "Jardim Primavera",
        "street": "Rua dos Hibiscos",
        "zipcode": "18764-272"
    },
    {
        "city": "Cerqueira César",
        "state": "SP",
        "district": "Jardim Primavera",
        "street": "Rua dos Oitis",
        "zipcode": "18764-274"
    },
    {
        "city": "Cerqueira César",
        "state": "SP",
        "district": "Vila Manoel Fernandes",
        "street": "Rua Francisco Reis",
        "zipcode": "18764-030"
    },
    {
        "city": "Cerqueira César",
        "state": "SP",
        "district": "Chácara Moura Leite",
        "street": "Rua dos Jequitibás",
        "zipcode": "18764-206"
    },
    {
        "city": "Cerqueira César",
        "state": "SP",
        "district": "Novo Horizonte",
        "street": "Rua Flor de Lís",
        "zipcode": "18764-316"
    },
    {
        "city": "Cerqueira César",
        "state": "SP",
        "district": "Vila Angélica",
        "street": "Rua Osvaldo Drumond",
        "zipcode": "18760-368"
    },
    {
        "city": "Cerqueira César",
        "state": "SP",
        "district": "Parque Nove de Julho",
        "street": "Rua João Venerando Barbosa",
        "zipcode": "18760-292"
    },
    {
        "city": "Cerqueira César",
        "state": "SP",
        "district": "Centro",
        "street": "Rua Olímpio Pavan",
        "zipcode": "18760-015"
    },
    {
        "city": "Cerqueira César",
        "state": "SP",
        "district": "Jardim Esmeralda",
        "street": "Rua Joaquim Soares",
        "zipcode": "18764-060"
    },
    {
        "city": "Cerqueira César",
        "state": "SP",
        "district": "Parque Nove de Julho",
        "street": "Rua Robson da Silva",
        "zipcode": "18760-304"
    },
    {
        "city": "Cerqueira César",
        "state": "SP",
        "district": "Centro",
        "street": "Rua Porfírio Dias",
        "zipcode": "18760-055"
    },
    {
        "city": "Cerqueira César",
        "state": "SP",
        "district": "Centro",
        "street": "Rua Padre José Julianeti",
        "zipcode": "18760-069"
    },
    {
        "city": "Cerqueira César",
        "state": "SP",
        "district": "Jardim Santa Ignês",
        "street": "Rua João de Almeida Pires",
        "zipcode": "18760-392"
    },
    {
        "city": "Cerqueira César",
        "state": "SP",
        "district": "Jardim Três Ranchos I",
        "street": "Rua José Antonio Leal",
        "zipcode": "18764-216"
    },
    {
        "city": "Cerqueira César",
        "state": "SP",
        "district": "Jardim Santa Ignês",
        "street": "Rua Onofre Rossetto",
        "zipcode": "18760-402"
    },
    {
        "city": "Cerqueira César",
        "state": "SP",
        "district": "Vila Angélica",
        "street": "Rua Murilo de Campos",
        "zipcode": "18760-360"
    },
    {
        "city": "Cerqueira César",
        "state": "SP",
        "district": "Vila Angélica",
        "street": "Rua José Estevam",
        "zipcode": "18760-378"
    },
    {
        "city": "Cerqueira César",
        "state": "SP",
        "district": "Vila Nossa Senhora de Fátima",
        "street": "Rua Olímpio Oville",
        "zipcode": "18762-056"
    },
    {
        "city": "Cerqueira César",
        "state": "SP",
        "district": "Centro",
        "street": "Rua Maria Zeni Petito",
        "zipcode": "18760-035"
    },
    {
        "city": "Cerqueira César",
        "state": "SP",
        "district": "Centro",
        "street": "Rua Major Arthur Esteves",
        "zipcode": "18760-009"
    },
    {
        "city": "Cerqueira César",
        "state": "SP",
        "district": "Jardim São Lucas",
        "street": "Rua José de Lima",
        "zipcode": "18767-032"
    },
    {
        "city": "Cerqueira César",
        "state": "SP",
        "district": "Centro",
        "street": "Rua Marcos Zaloti",
        "zipcode": "18760-003"
    },
    {
        "city": "Cerqueira César",
        "state": "SP",
        "district": "Distrito Industrial",
        "street": "Rua Mario de Vecchi",
        "zipcode": "18767-212"
    },
    {
        "city": "Cerqueira César",
        "state": "SP",
        "district": "Jardim São Lucas",
        "street": "Rua Pará",
        "zipcode": "18767-046"
    },
    {
        "city": "Cerqueira César",
        "state": "SP",
        "district": "Jardim São Lucas",
        "street": "Rua João Bruzarrosco",
        "zipcode": "18767-054"
    },
    {
        "city": "Cerqueira César",
        "state": "SP",
        "district": "Vila Nossa Senhora de Fátima",
        "street": "Rua Otaviano Pires",
        "zipcode": "18762-052"
    },
    {
        "city": "Cerqueira César",
        "state": "SP",
        "district": "Jardim São Lucas",
        "street": "Rua Rondônia",
        "zipcode": "18767-040"
    },
    {
        "city": "Cerqueira César",
        "state": "SP",
        "district": "Vila Nossa Senhora de Fátima",
        "street": "Rua Juvenal Lucio de Camargo",
        "zipcode": "18762-050"
    },
    {
        "city": "Cerqueira César",
        "state": "SP",
        "district": "Centro",
        "street": "Rua Riachuelo",
        "zipcode": "18760-049"
    },
    {
        "city": "Cerqueira César",
        "state": "SP",
        "district": "Nova Cerqueira",
        "street": "Rua Orlando Borges",
        "zipcode": "18762-084"
    },
    {
        "city": "Cerqueira César",
        "state": "SP",
        "district": "Nova Cerqueira",
        "street": "Rua Lourenço Convento",
        "zipcode": "18762-098"
    },
    {
        "city": "Cerqueira César",
        "state": "SP",
        "district": "Parque Nove de Julho",
        "street": "Rua Pedro Nespeca",
        "zipcode": "18760-320"
    },
    {
        "city": "Cerqueira César",
        "state": "SP",
        "district": "Jardim São Lucas",
        "street": "Rua Piauí",
        "zipcode": "18767-044"
    },
    {
        "city": "Cerqueira César",
        "state": "SP",
        "district": "Nova Cerqueira",
        "street": "Rua Joaquim de Toledo",
        "zipcode": "18762-090"
    },
    {
        "city": "Cerqueira César",
        "state": "SP",
        "district": "Centro",
        "street": "Rua Professora Hilda Cunha",
        "zipcode": "18760-021"
    },
    {
        "city": "Cerqueira César",
        "state": "SP",
        "district": "Centro",
        "street": "Rua Professor Solano de Abreu",
        "zipcode": "18760-041"
    },
    {
        "city": "Cerqueira César",
        "state": "SP",
        "district": "Vila Nova",
        "street": "Rua Mato Grosso",
        "zipcode": "18767-010"
    },
    {
        "city": "Cerqueira César",
        "state": "SP",
        "district": "Nova Cerqueira",
        "street": "Rua Misael Marques Filho",
        "zipcode": "18762-070"
    },
    {
        "city": "Cerqueira César",
        "state": "SP",
        "district": "Jardim Esmeralda",
        "street": "Rua José Miano",
        "zipcode": "18764-058"
    },
    {
        "city": "Cerqueira César",
        "state": "SP",
        "district": "Parque Nove de Julho",
        "street": "Rua José Lopes Sobrinho",
        "zipcode": "18760-336"
    },
    {
        "city": "Cerqueira César",
        "state": "SP",
        "district": "Vila Izabel",
        "street": "Rua Mário Torres",
        "zipcode": "18764-172"
    },
    {
        "city": "Cerqueira César",
        "state": "SP",
        "district": "Parque Nove de Julho",
        "street": "Rua Olinda Alves da Rocha",
        "zipcode": "18760-306"
    },
    {
        "city": "Cerqueira César",
        "state": "SP",
        "district": "Centro",
        "street": "Rua José Joaquim de Moraes Sarmento",
        "zipcode": "18760-019"
    },
    {
        "city": "Cerqueira César",
        "state": "SP",
        "district": "Jardim São Lucas II",
        "street": "Rua Porto Alegre",
        "zipcode": "18767-062"
    },
    {
        "city": "Cerqueira César",
        "state": "SP",
        "district": "Parque Nove de Julho",
        "street": "Rua Marcos Damin",
        "zipcode": "18760-342"
    },
    {
        "city": "Cerqueira César",
        "state": "SP",
        "district": "Centro",
        "street": "Rua Joaquim Inácio",
        "zipcode": "18760-059"
    },
    {
        "city": "Cerqueira César",
        "state": "SP",
        "district": "Vila Nossa Senhora de Fátima",
        "street": "Rua Rafael Dias Martinez",
        "zipcode": "18762-054"
    },
    {
        "city": "Cerqueira César",
        "state": "SP",
        "district": "Jardim Santa Ignês",
        "street": "Rua José Herculano Pires",
        "zipcode": "18760-394"
    },
    {
        "city": "Cerqueira César",
        "state": "SP",
        "district": "Nova Cerqueira",
        "street": "Rua José Marques do Valle",
        "zipcode": "18762-092"
    },
    {
        "city": "Cerqueira César",
        "state": "SP",
        "district": "Jardim Santa Ignês",
        "street": "Rua Luiz Pavan",
        "zipcode": "18760-410"
    },
    {
        "city": "Cerqueira César",
        "state": "SP",
        "district": "Nova Cerqueira",
        "street": "Rua José Apolônio Filho",
        "zipcode": "18762-100"
    },
    {
        "city": "Cerqueira César",
        "state": "SP",
        "district": "Vila Manoel Fernandes",
        "street": "Rua Joaquim Minetto",
        "zipcode": "18764-038"
    },
    {
        "city": "Cerqueira César",
        "state": "SP",
        "district": "Centro",
        "street": "Rua José Joaquim Esteves",
        "zipcode": "18760-031"
    },
    {
        "city": "Cerqueira César",
        "state": "SP",
        "district": "Vila Cardoso",
        "street": "Rua Padre José Julianeti",
        "zipcode": "18760-080"
    },
    {
        "city": "Cerqueira César",
        "state": "SP",
        "district": "Jardim Primavera",
        "street": "Rua Margaridas",
        "zipcode": "18764-278"
    },
    {
        "city": "Cerqueira César",
        "state": "SP",
        "district": "Jardim São Lucas",
        "street": "Rua Marcílio Lemos de Moura Leite",
        "zipcode": "18767-036"
    },
    {
        "city": "Cerqueira César",
        "state": "SP",
        "district": "Vila Manoel Fernandes",
        "street": "Rua Nagib Anderaus",
        "zipcode": "18764-040"
    },
    {
        "city": "Cerqueira César",
        "state": "SP",
        "district": "Conjunto Habitacional Santos Neves",
        "street": "Rua Paulo César de Almeida",
        "zipcode": "18764-452"
    },
    {
        "city": "Cerqueira César",
        "state": "SP",
        "district": "Vila Nossa Senhora de Fátima",
        "street": "Rua Plinio Gerdullo",
        "zipcode": "18762-060"
    },
    {
        "city": "Cerqueira César",
        "state": "SP",
        "district": "Vila Angélica",
        "street": "Rua São Judas Tadeu",
        "zipcode": "18760-364"
    },
    {
        "city": "Cerqueira César",
        "state": "SP",
        "district": "Jardim Esmeralda",
        "street": "Rua Sebastião Alves",
        "zipcode": "18764-064"
    },
    {
        "city": "Cerqueira César",
        "state": "SP",
        "district": "Vila Angélica",
        "street": "Rua Saldanha Marinho",
        "zipcode": "18760-376"
    },
    {
        "city": "Cerqueira César",
        "state": "SP",
        "district": "Nova Cerqueira",
        "street": "Rua Walter Menequini",
        "zipcode": "18762-088"
    },
    {
        "city": "Cerqueira César",
        "state": "SP",
        "district": "Distrito Industrial",
        "street": "Rua 4",
        "zipcode": "18767-220"
    },
    {
        "city": "Cerqueira César",
        "state": "SP",
        "district": "Chácara Cacciolari",
        "street": "Rua 2",
        "zipcode": "18767-198"
    },
    {
        "city": "Cerqueira César",
        "state": "SP",
        "district": "Vila Angélica",
        "street": "Rua São Rafael Arcanjo",
        "zipcode": "18760-372"
    },
    {
        "city": "Cerqueira César",
        "state": "SP",
        "district": "Nova Cerqueira",
        "street": "Rua Wady Neif Nami",
        "zipcode": "18762-110"
    },
    {
        "city": "Cerqueira César",
        "state": "SP",
        "district": "Chácara Cacciolari",
        "street": "Rua 4",
        "zipcode": "18767-196"
    },
    {
        "city": "Cerqueira César",
        "state": "SP",
        "district": "Nova Cerqueira",
        "street": "Rua 24",
        "zipcode": "18762-108"
    },
    {
        "city": "Cerqueira César",
        "state": "SP",
        "district": "Centro",
        "street": "Rua 13 de Maio",
        "zipcode": "18760-047"
    },
    {
        "city": "Cerqueira César",
        "state": "SP",
        "district": "Chácara Cacciolari",
        "street": "Rua 3",
        "zipcode": "18767-190"
    },
    {
        "city": "Cerqueira César",
        "state": "SP",
        "district": "Parque Nove de Julho",
        "street": "Rua 28",
        "zipcode": "18760-302"
    },
    {
        "city": "Cerqueira César",
        "state": "SP",
        "district": "Vila Angélica",
        "street": "Rua São Benedito",
        "zipcode": "18760-362"
    },
    {
        "city": "Cerqueira César",
        "state": "SP",
        "district": "Jardim São Lucas",
        "street": "Rua Roraima",
        "zipcode": "18767-048"
    },
    {
        "city": "Cerqueira César",
        "state": "SP",
        "district": "Vila Nova",
        "street": "Rua Salustiano de Lima",
        "zipcode": "18767-004"
    },
    {
        "city": "Cerqueira César",
        "state": "SP",
        "district": "Vila Manoel Fernandes",
        "street": "Rua Yokio Murakami",
        "zipcode": "18764-024"
    },
    {
        "city": "Cerqueira César",
        "state": "SP",
        "district": "Distrito Industrial",
        "street": "Rua 3",
        "zipcode": "18767-218"
    },
    {
        "city": "Cerqueira César",
        "state": "SP",
        "district": "Conjunto Habitacional Recanto dos Pássaros",
        "street": "Rua Tico Tico",
        "zipcode": "18764-432"
    },
    {
        "city": "Cerqueira César",
        "state": "SP",
        "district": "Centro",
        "street": "Travessa Dirceu de Almeida",
        "zipcode": "18760-029"
    },
    {
        "city": "Cerqueira César",
        "state": "SP",
        "district": "Conjunto Habitacional Santos Neves",
        "street": "Rua 7",
        "zipcode": "18764-460"
    },
    {
        "city": "Cerqueira César",
        "state": "SP",
        "district": "Distrito Industrial",
        "street": "Rua 2",
        "zipcode": "18767-214"
    },
    {
        "city": "Cerqueira César",
        "state": "SP",
        "district": "Jardim Santa Ignês",
        "street": "Rua Tenco Pires",
        "zipcode": "18760-400"
    },
    {
        "city": "Cerqueira César",
        "state": "SP",
        "district": "Vila Almeida",
        "street": "Rua Três Ranchos",
        "zipcode": "18764-012"
    },
    {
        "city": "Cerqueira César",
        "state": "SP",
        "district": "Centro",
        "street": "Rua Sete de Setembro",
        "zipcode": "18760-037"
    },
    {
        "city": "Cerqueira César",
        "state": "SP",
        "district": "Parque Nove de Julho",
        "street": "Rua Valdemar Conceição Ribeiro",
        "zipcode": "18760-344"
    },
    {
        "city": "Cerqueira César",
        "state": "SP",
        "district": "Centro",
        "street": "Rua Santa Terezinha",
        "zipcode": "18760-001"
    },
    {
        "city": "Cerqueira César",
        "state": "SP",
        "district": "Conjunto Habitacional Santos Neves",
        "street": "Rua 8",
        "zipcode": "18764-462"
    },
    {
        "city": "Cerqueira César",
        "state": "SP",
        "district": "Jardim Três Ranchos I",
        "street": "Rua Vereador Aldivan de Mello",
        "zipcode": "18764-212"
    },
    {
        "city": "Cerqueira César",
        "state": "SP",
        "district": "Centro",
        "street": "Rua Santos Dumont",
        "zipcode": "18760-023"
    },
    {
        "city": "Cerqueira César",
        "state": "SP",
        "district": "Vila Manoel Fernandes",
        "street": "Rua 11",
        "zipcode": "18764-036"
    },
    {
        "city": "Cerqueira César",
        "state": "SP",
        "district": "Centro",
        "street": "Rua Saldanha Marinho",
        "zipcode": "18760-007"
    },
    {
        "city": "Cerqueira César",
        "state": "SP",
        "district": "Jardim Esmeralda",
        "street": "Rua Thomaz Paulitsch",
        "zipcode": "18764-062"
    },
    {
        "city": "Cerqueira César",
        "state": "SP",
        "district": "Vila Manoel Fernandes",
        "street": "Rua 9",
        "zipcode": "18764-028"
    },
    {
        "city": "Cerqueira César",
        "state": "SP",
        "district": "Vila Nova",
        "street": "Rua Santa Catarina",
        "zipcode": "18767-006"
    },
    {
        "city": "Cerqueira César",
        "state": "SP",
        "district": "Vila Manoel Fernandes",
        "street": "Rua Sebastião de Oliveira",
        "zipcode": "18764-022"
    },
    {
        "city": "Cerqueira César",
        "state": "SP",
        "district": "Parque Nove de Julho",
        "street": "Rua 18",
        "zipcode": "18760-318"
    },
    {
        "city": "Cerqueira César",
        "state": "SP",
        "district": "Vila Almeida",
        "street": "Rua Sergipe",
        "zipcode": "18764-004"
    },
    {
        "city": "Cerqueira César",
        "state": "SP",
        "district": "Vila Angélica",
        "street": "Rua Vicente Augusto Gerdullo",
        "zipcode": "18760-366"
    },
    {
        "city": "Cerqueira César",
        "state": "SP",
        "district": "Parque Nove de Julho",
        "street": "Rua 27",
        "zipcode": "18760-300"
    },
    {
        "city": "Cerqueira César",
        "state": "SP",
        "district": "Vila Nova",
        "street": "Rua José Basílio de Moura Leite",
        "zipcode": "18767-002"
    },
    {
        "city": "Cerqueira César",
        "state": "SP",
        "district": "Nova Cerqueira",
        "street": "Rua Antonio Cortez Garcia",
        "zipcode": "18762-078"
    },
    {
        "city": "Cerqueira César",
        "state": "SP",
        "district": "Jardim Primavera III",
        "street": "Alameda das Tulipas",
        "zipcode": "18764-290"
    },
    {
        "city": "Cerqueira César",
        "state": "SP",
        "district": "Conjunto Habitacional Recanto dos Pássaros",
        "street": "Rua Sabiá",
        "zipcode": "18764-422"
    },
    {
        "city": "Cerqueira César",
        "state": "SP",
        "district": "Conjunto Habitacional Santos Neves",
        "street": "Rua Teodoro Sanches",
        "zipcode": "18764-456"
    },
    {
        "city": "Cerqueira César",
        "state": "SP",
        "district": "Jardim Esmeralda",
        "street": "Rua Capitão Moura Leite",
        "zipcode": "18764-050"
    },
    {
        "city": "Cerqueira César",
        "state": "SP",
        "district": "Centro",
        "street": "Rua Joaquim Avelar de Campos",
        "zipcode": "18760-051"
    },
    {
        "city": "Cerqueira César",
        "state": "SP",
        "district": "Centro",
        "street": "Rua Nossa Senhora da Conceição Aparecida",
        "zipcode": "18760-053"
    },
    {
        "city": "Cerqueira César",
        "state": "SP",
        "district": "Jardim Bela Vista",
        "street": "Rua das Papoulas",
        "zipcode": "18764-236"
    },
    {
        "city": "Cerqueira César",
        "state": "SP",
        "district": "Jardim São Lucas",
        "street": "Rua Goiás",
        "zipcode": "18767-020"
    },
    {
        "city": "Cerqueira César",
        "state": "SP",
        "district": "Conjunto Habitacional Santos Neves",
        "street": "Rua Antonio Brasilisio Vaccaro",
        "zipcode": "18764-454"
    },
    {
        "city": "Cerqueira César",
        "state": "SP",
        "district": "Jardim dos Ipês",
        "street": "Rua dos Buritis",
        "zipcode": "18764-256"
    },
    {
        "city": "Cerqueira César",
        "state": "SP",
        "district": "Centro",
        "street": "Rua José Joaquim de Moraes Sarmento",
        "zipcode": "18760-970"
    },
    {
        "city": "Cerqueira César",
        "state": "SP",
        "district": "Parque Nove de Julho",
        "street": "Rua Baldisera Eduardo Castagnaro",
        "zipcode": "18760-322"
    },
    {
        "city": "Cerqueira César",
        "state": "SP",
        "district": "Jardim Três Ranchos IV",
        "street": "Alameda das Tipuanas",
        "zipcode": "18764-410"
    },
    {
        "city": "Cerqueira César",
        "state": "SP",
        "district": "Conjunto Habitacional Recanto dos Pássaros",
        "street": "Avenida Uirapuru",
        "zipcode": "18764-434"
    },
    {
        "city": "Cerqueira César",
        "state": "SP",
        "district": "Jardim São Lucas",
        "street": "Rua Antonio Ferreira",
        "zipcode": "18767-026"
    },
    {
        "city": "Cerqueira César",
        "state": "SP",
        "district": "Chácara Moura Leite",
        "street": "Rua das Cabreúvas",
        "zipcode": "18764-184"
    },
    {
        "city": "Cerqueira César",
        "state": "SP",
        "district": "Chácara Moura Leite",
        "street": "Rua dos Jacarandás",
        "zipcode": "18764-202"
    },
    {
        "city": "Cerqueira César",
        "state": "SP",
        "district": "Vila Nossa Senhora de Fátima",
        "street": "Rua Eduardo Grillo",
        "zipcode": "18762-064"
    },
    {
        "city": "Cerqueira César",
        "state": "SP",
        "district": "Jardim Tropical",
        "street": "Rua das Guabirobas",
        "zipcode": "18767-086"
    },
    {
        "city": "Cerqueira César",
        "state": "SP",
        "district": "Jardim Primavera III",
        "street": "Rua dos Oitis",
        "zipcode": "18764-302"
    },
    {
        "city": "Cerqueira César",
        "state": "SP",
        "district": "Chácara Moura Leite",
        "street": "Rua das Amburanas",
        "zipcode": "18764-188"
    },
    {
        "city": "Cerqueira César",
        "state": "SP",
        "district": "Vila Manoel Fernandes",
        "street": "Rua Afonsina Ferreira de Oliveira",
        "zipcode": "18764-026"
    },
    {
        "city": "Cerqueira César",
        "state": "SP",
        "district": "Vila Manoel Fernandes",
        "street": "Rua Capitão Moura Leite",
        "zipcode": "18764-020"
    },
    {
        "city": "Cerqueira César",
        "state": "SP",
        "district": "Jardim Bela Vista",
        "street": "Rua dos Cravos",
        "zipcode": "18764-238"
    },
    {
        "city": "Cerqueira César",
        "state": "SP",
        "district": "Parque Nove de Julho",
        "street": "Rua Antonio Israel Rosa",
        "zipcode": "18760-326"
    },
    {
        "city": "Cerqueira César",
        "state": "SP",
        "district": "Centro",
        "street": "Rua Atílio Daglio",
        "zipcode": "18760-045"
    },
    {
        "city": "Cerqueira César",
        "state": "SP",
        "district": "Vila Angélica",
        "street": "Praça São Martinho de Lima",
        "zipcode": "18760-374"
    },
    {
        "city": "Cerqueira César",
        "state": "SP",
        "district": "Vila Angélica",
        "street": "Rua Major Arthur Esteves",
        "zipcode": "18760-370"
    },
    {
        "city": "Cerqueira César",
        "state": "SP",
        "district": "Nova Cerqueira",
        "street": "Rua Osório Garcia Cortez",
        "zipcode": "18762-080"
    },
    {
        "city": "Cerqueira César",
        "state": "SP",
        "district": "Nova Cerqueira",
        "street": "Rua Neif Nami",
        "zipcode": "18762-072"
    },
    {
        "city": "Cerqueira César",
        "state": "SP",
        "district": "Jardim Santa Ignês",
        "street": "Rua João Paulo Caputo",
        "zipcode": "18760-398"
    },
    {
        "city": "Cerqueira César",
        "state": "SP",
        "district": "Conjunto Habitacional Recanto dos Pássaros",
        "street": "Avenida Arapongas",
        "zipcode": "18764-438"
    },
    {
        "city": "Cerqueira César",
        "state": "SP",
        "district": "Jardim Santa Ignês",
        "street": "Rua Fernando Bataglini",
        "zipcode": "18760-408"
    },
    {
        "city": "Cerqueira César",
        "state": "SP",
        "district": "Vila Manoel Fernandes",
        "street": "Rua Maria Zeni Petito",
        "zipcode": "18764-032"
    },
    {
        "city": "Cerqueira César",
        "state": "SP",
        "district": "Jardim Primavera",
        "street": "Rua das Magnólias",
        "zipcode": "18764-280"
    },
    {
        "city": "Cerqueira César",
        "state": "SP",
        "district": "Conjunto Habitacional Recanto dos Pássaros",
        "street": "Avenida Pintassilgo",
        "zipcode": "18764-428"
    },
    {
        "city": "Cerqueira César",
        "state": "SP",
        "district": "Jardim Santa Ignês",
        "street": "Rua Jamil Elias Simon",
        "zipcode": "18760-416"
    },
    {
        "city": "Cerqueira César",
        "state": "SP",
        "district": "Parque Nove de Julho",
        "street": "Rua Geraldo Castagnaro",
        "zipcode": "18760-316"
    },
    {
        "city": "Cerqueira César",
        "state": "SP",
        "district": "Parque Nove de Julho",
        "street": "Rua Antonio Ribeiro",
        "zipcode": "18760-332"
    },
    {
        "city": "Cerqueira César",
        "state": "SP",
        "district": "Parque Nove de Julho",
        "street": "Rua 25",
        "zipcode": "18760-296"
    },
    {
        "city": "Cerqueira César",
        "state": "SP",
        "district": "Parque Nove de Julho",
        "street": "Rua Pedro Yoyart",
        "zipcode": "18760-312"
    },
    {
        "city": "Cerqueira César",
        "state": "SP",
        "district": "Conjunto Habitacional Santos Neves",
        "street": "Rua 1",
        "zipcode": "18764-464"
    },
    {
        "city": "Cerqueira César",
        "state": "SP",
        "district": "Conjunto Habitacional Santos Neves",
        "street": "Rua José Dias Moralli",
        "zipcode": "18764-458"
    },
    {
        "city": "Cerqueira César",
        "state": "SP",
        "district": "Jardim Três Ranchos I",
        "street": "Rua Três Ranchos",
        "zipcode": "18764-210"
    },
    {
        "city": "Cerqueira César",
        "state": "SP",
        "district": "Parque Nove de Julho",
        "street": "Rua Professora Neide Garcia Ferraz",
        "zipcode": "18760-328"
    },
    {
        "city": "Cerqueira César",
        "state": "SP",
        "district": "Centro",
        "street": "Rua Juvenal Coimbra",
        "zipcode": "18760-039"
    },
    {
        "city": "Cerqueira César",
        "state": "SP",
        "district": "Conjunto Habitacional Santos Neves",
        "street": "Rua Santina Breda Larini",
        "zipcode": "18764-450"
    },
    {
        "city": "Cerqueira César",
        "state": "SP",
        "district": "Jardim São Lucas",
        "street": "Rua Roberto Rolim de Moura",
        "zipcode": "18767-030"
    },
    {
        "city": "Cerqueira César",
        "state": "SP",
        "district": "Centro",
        "street": "Rua Domingos Firacce",
        "zipcode": "18760-043"
    },
    {
        "city": "Cerqueira César",
        "state": "SP",
        "district": "Centro",
        "street": "Rua Stélio Machado Loureiro",
        "zipcode": "18760-017"
    },
    {
        "city": "Cerqueira César",
        "state": "SP",
        "district": "Chácara Cacciolari",
        "street": "Rua 5",
        "zipcode": "18767-200"
    },
    {
        "city": "Cerqueira César",
        "state": "SP",
        "district": "Jardim Primavera III",
        "street": "Rua das Primaveras",
        "zipcode": "18764-300"
    },
    {
        "city": "Cerqueira César",
        "state": "SP",
        "district": "Jardim Tropical",
        "street": "Rua Marcílio Lemos de Moura Leite",
        "zipcode": "18767-074"
    },
    {
        "city": "Cerqueira César",
        "state": "SP",
        "district": "Jardim Esmeralda",
        "street": "Rua Benedita Brizola de Almeida",
        "zipcode": "18764-066"
    },
    {
        "city": "Cerqueira César",
        "state": "SP",
        "district": "Vila Manoel Fernandes",
        "street": "Rua Chaiben Zene",
        "zipcode": "18764-044"
    },
    {
        "city": "Cerqueira César",
        "state": "SP",
        "district": "Jardim Três Ranchos IV",
        "street": "Rua das Macaúbas",
        "zipcode": "18764-412"
    },
    {
        "city": "Cerqueira César",
        "state": "SP",
        "district": "Conjunto Habitacional Recanto dos Pássaros",
        "street": "Rua Colibrí",
        "zipcode": "18764-426"
    },
    {
        "city": "Cerqueira César",
        "state": "SP",
        "district": "Centro",
        "street": "Praça Manoel Soares Nogueira",
        "zipcode": "18760-067"
    },
    {
        "city": "Cerqueira César",
        "state": "SP",
        "district": "Nova Cerqueira",
        "street": "Rua Luciano de Lima",
        "zipcode": "18762-074"
    },
    {
        "city": "Cerqueira César",
        "state": "SP",
        "district": "Parque Nove de Julho",
        "street": "Avenida Benigno Cordeiro de Freitas",
        "zipcode": "18760-314"
    },
    {
        "city": "Cerqueira César",
        "state": "SP",
        "district": "Parque Nove de Julho",
        "street": "Rua João Marcílio Cano",
        "zipcode": "18760-330"
    },
    {
        "city": "Cerqueira César",
        "state": "SP",
        "district": "Residencial Albatroz",
        "street": "Rua Antônio Carlos de Oliveira",
        "zipcode": "18760-350"
    },
    {
        "city": "Cerqueira César",
        "state": "SP",
        "district": "Chácara Moura Leite",
        "street": "Rua Três Ranchos",
        "zipcode": "18764-180"
    },
    {
        "city": "Cerqueira César",
        "state": "SP",
        "district": "Centro",
        "street": "Avenida João Cardoso de Oliveira",
        "zipcode": "18760-063"
    },
    {
        "city": "Cerqueira César",
        "state": "SP",
        "district": "Jardim São Lucas",
        "street": "Rua Olivério Martinez",
        "zipcode": "18767-034"
    }
]