[
    {
        "city": "Chavantes",
        "state": "SP",
        "district": "",
        "street": "",
        "zipcode": "18970-000"
    },
    {
        "city": "Chavantes",
        "state": "SP",
        "district": "Área Rural de Chavantes",
        "street": "Área Rural",
        "zipcode": "18979-899"
    },
    {
        "city": "Chavantes",
        "state": "SP",
        "district": "Chavantes Novo",
        "street": "Rua Abilio Chequer",
        "zipcode": "18970-228"
    },
    {
        "city": "Chavantes",
        "state": "SP",
        "district": "Chavantes Novo",
        "street": "Avenida Doutor Arnaldo Ferreira da Silva",
        "zipcode": "18970-192"
    },
    {
        "city": "Chavantes",
        "state": "SP",
        "district": "Jardim das Paineiras",
        "street": "Avenida Perimetral",
        "zipcode": "18970-158"
    },
    {
        "city": "Chavantes",
        "state": "SP",
        "district": "Chavantes Novo",
        "street": "Avenida João Carneiro Filho",
        "zipcode": "18970-258"
    },
    {
        "city": "Chavantes",
        "state": "SP",
        "district": "Chavantes Novo",
        "street": "Avenida Governador Ademar Pereira de Barros",
        "zipcode": "18970-284"
    },
    {
        "city": "Chavantes",
        "state": "SP",
        "district": "Conjunto Habitacional José Henrique Martins",
        "street": "Alameda U",
        "zipcode": "18970-308"
    },
    {
        "city": "Chavantes",
        "state": "SP",
        "district": "Chavantes Novo",
        "street": "Avenida João Martins",
        "zipcode": "18970-276"
    },
    {
        "city": "Chavantes",
        "state": "SP",
        "district": "Parque Residencial Santa Rosa",
        "street": "Rua Alcyr Crivelenti",
        "zipcode": "18970-330"
    },
    {
        "city": "Chavantes",
        "state": "SP",
        "district": "Parque Residencial Santa Rosa",
        "street": "Avenida Julio Ribeiro",
        "zipcode": "18970-326"
    },
    {
        "city": "Chavantes",
        "state": "SP",
        "district": "Parque Residencial Santa Rosa",
        "street": "Rua Carlos Alberto de Oliveira Mansur",
        "zipcode": "18970-352"
    },
    {
        "city": "Chavantes",
        "state": "SP",
        "district": "Vila das Flores",
        "street": "Rua Altair de Almeida Engler",
        "zipcode": "18970-062"
    },
    {
        "city": "Chavantes",
        "state": "SP",
        "district": "Chavantes Novo",
        "street": "Alameda Izidoro de Lima",
        "zipcode": "18970-270"
    },
    {
        "city": "Chavantes",
        "state": "SP",
        "district": "Chavantes Novo",
        "street": "Rua Calil Bassit",
        "zipcode": "18970-204"
    },
    {
        "city": "Chavantes",
        "state": "SP",
        "district": "Conjunto Habitacional José Henrique Martins",
        "street": "Avenida João Carneiro Filho",
        "zipcode": "18970-300"
    },
    {
        "city": "Chavantes",
        "state": "SP",
        "district": "Centro",
        "street": "Praça Antonio Prado",
        "zipcode": "18970-020"
    },
    {
        "city": "Chavantes",
        "state": "SP",
        "district": "Chavantes Novo",
        "street": "Avenida Jacob Abdo",
        "zipcode": "18970-282"
    },
    {
        "city": "Chavantes",
        "state": "SP",
        "district": "Chavantes Novo",
        "street": "Avenida Antoninho Fontes",
        "zipcode": "18970-212"
    },
    {
        "city": "Chavantes",
        "state": "SP",
        "district": "Jardim Conceição",
        "street": "Avenida Conceição",
        "zipcode": "18970-184"
    },
    {
        "city": "Chavantes",
        "state": "SP",
        "district": "Chavantes Novo",
        "street": "Rua Antônio Gonçales Fernandes",
        "zipcode": "18970-218"
    },
    {
        "city": "Chavantes",
        "state": "SP",
        "district": "Chavantes Novo",
        "street": "Rua Ângelo Mariotto",
        "zipcode": "18970-200"
    },
    {
        "city": "Chavantes",
        "state": "SP",
        "district": "Chavantes Novo",
        "street": "Rua Benedito Gonçalves Machado",
        "zipcode": "18970-272"
    },
    {
        "city": "Chavantes",
        "state": "SP",
        "district": "Chavantes Novo",
        "street": "Rua Antonio Ricieri Mariotto",
        "zipcode": "18970-202"
    },
    {
        "city": "Chavantes",
        "state": "SP",
        "district": "Centro",
        "street": "Rua Azarias Bueno",
        "zipcode": "18970-019"
    },
    {
        "city": "Chavantes",
        "state": "SP",
        "district": "Jardim Nosso Lar",
        "street": "Rua Américo Luizon",
        "zipcode": "18972-008"
    },
    {
        "city": "Chavantes",
        "state": "SP",
        "district": "Centro",
        "street": "Rua Coronel Júlio Silva",
        "zipcode": "18970-011"
    },
    {
        "city": "Chavantes",
        "state": "SP",
        "district": "Jardim das Paineiras",
        "street": "Avenida Mario Ranzani Araújo",
        "zipcode": "18970-130"
    },
    {
        "city": "Chavantes",
        "state": "SP",
        "district": "Vila das Flores",
        "street": "Avenida Mario Ranzani Araújo",
        "zipcode": "18970-050"
    },
    {
        "city": "Chavantes",
        "state": "SP",
        "district": "Chavantes Novo",
        "street": "Rua Armando Cezário de Campos",
        "zipcode": "18970-268"
    },
    {
        "city": "Chavantes",
        "state": "SP",
        "district": "Jardim das Paineiras",
        "street": "Avenida João Martins",
        "zipcode": "18970-166"
    },
    {
        "city": "Chavantes",
        "state": "SP",
        "district": "Jardim das Paineiras",
        "street": "Rua Cerejeira",
        "zipcode": "18970-138"
    },
    {
        "city": "Chavantes",
        "state": "SP",
        "district": "Jardim das Paineiras",
        "street": "Rua Acácia",
        "zipcode": "18970-140"
    },
    {
        "city": "Chavantes",
        "state": "SP",
        "district": "Residencial Santa Fátima",
        "street": "Rua Calixto Pires da Silva",
        "zipcode": "18972-026"
    },
    {
        "city": "Chavantes",
        "state": "SP",
        "district": "Chavantes Novo",
        "street": "Rua Alcides Godoy",
        "zipcode": "18970-280"
    },
    {
        "city": "Chavantes",
        "state": "SP",
        "district": "Chavantes Novo",
        "street": "Avenida Conceição",
        "zipcode": "18970-190"
    },
    {
        "city": "Chavantes",
        "state": "SP",
        "district": "Orlando Quagliato",
        "street": "Rua Amando Pinto",
        "zipcode": "18972-064"
    },
    {
        "city": "Chavantes",
        "state": "SP",
        "district": "Parque Residencial Santa Rosa",
        "street": "Rua Antonio Ramos",
        "zipcode": "18970-336"
    },
    {
        "city": "Chavantes",
        "state": "SP",
        "district": "Orlando Quagliato",
        "street": "Rua Alberto Romualdo Garcia",
        "zipcode": "18972-052"
    },
    {
        "city": "Chavantes",
        "state": "SP",
        "district": "Parque Residencial Santa Rosa",
        "street": "Rua Antonio José da Fonseca",
        "zipcode": "18970-348"
    },
    {
        "city": "Chavantes",
        "state": "SP",
        "district": "Chavantes Novo",
        "street": "Praça dos Estudantes",
        "zipcode": "18970-191"
    },
    {
        "city": "Chavantes",
        "state": "SP",
        "district": "Conjunto Habitacional José Henrique Martins",
        "street": "Avenida José Lopes",
        "zipcode": "18970-304"
    },
    {
        "city": "Chavantes",
        "state": "SP",
        "district": "Jardim das Paineiras",
        "street": "Rua Coronel Manoel Ferreira",
        "zipcode": "18970-136"
    },
    {
        "city": "Chavantes",
        "state": "SP",
        "district": "Chavantes Novo",
        "street": "Rua Edgard Almeida Bueno",
        "zipcode": "18970-208"
    },
    {
        "city": "Chavantes",
        "state": "SP",
        "district": "Chavantes Novo",
        "street": "Rua Dona Rosinha",
        "zipcode": "18970-232"
    },
    {
        "city": "Chavantes",
        "state": "SP",
        "district": "Jardim das Paineiras",
        "street": "Rua Cravina",
        "zipcode": "18970-148"
    },
    {
        "city": "Chavantes",
        "state": "SP",
        "district": "Parque Residencial Santa Rosa",
        "street": "Rua Anselmo Marioto",
        "zipcode": "18970-344"
    },
    {
        "city": "Chavantes",
        "state": "SP",
        "district": "Chavantes Novo",
        "street": "Rua Calil Mery Mansur",
        "zipcode": "18970-266"
    },
    {
        "city": "Chavantes",
        "state": "SP",
        "district": "Conjunto Habitacional Doutor Leonel Pereira da Cunha",
        "street": "Rua Diamantino Costa",
        "zipcode": "18972-090"
    },
    {
        "city": "Chavantes",
        "state": "SP",
        "district": "Residencial Prefeito Same Cury(Irapé)",
        "street": "Rua Arnaldo Leal",
        "zipcode": "18980-030"
    },
    {
        "city": "Chavantes",
        "state": "SP",
        "district": "Centro",
        "street": "Rua Coronel Manoel Ferreira",
        "zipcode": "18970-003"
    },
    {
        "city": "Chavantes",
        "state": "SP",
        "district": "Residencial Prefeito Same Cury(Irapé)",
        "street": "Rua Donato Bergamo",
        "zipcode": "18980-036"
    },
    {
        "city": "Chavantes",
        "state": "SP",
        "district": "Centro",
        "street": "Rua Coronel Antonio Fontes",
        "zipcode": "18970-017"
    },
    {
        "city": "Chavantes",
        "state": "SP",
        "district": "Vila das Flores",
        "street": "Rua Arcângelo Polezer",
        "zipcode": "18970-056"
    },
    {
        "city": "Chavantes",
        "state": "SP",
        "district": "Jardim das Paineiras",
        "street": "Rua das Hortências",
        "zipcode": "18970-160"
    },
    {
        "city": "Chavantes",
        "state": "SP",
        "district": "Chavantes Novo",
        "street": "Rua Antonio Venega Uriel",
        "zipcode": "18970-230"
    },
    {
        "city": "Chavantes",
        "state": "SP",
        "district": "Chavantes Novo",
        "street": "Rua Antônio Nakagawa",
        "zipcode": "18970-248"
    },
    {
        "city": "Chavantes",
        "state": "SP",
        "district": "Jardim das Paineiras",
        "street": "Rua Crisântemo",
        "zipcode": "18970-146"
    },
    {
        "city": "Chavantes",
        "state": "SP",
        "district": "Centro (Irapé)",
        "street": "Rua Donato Bergamo",
        "zipcode": "18980-010"
    },
    {
        "city": "Chavantes",
        "state": "SP",
        "district": "Jardim das Paineiras",
        "street": "Rua dos Cravos",
        "zipcode": "18970-144"
    },
    {
        "city": "Chavantes",
        "state": "SP",
        "district": "Centro (Irapé)",
        "street": "Rua do Rosário",
        "zipcode": "18980-018"
    },
    {
        "city": "Chavantes",
        "state": "SP",
        "district": "Conjunto Habitacional Antonio Rúbio Medina",
        "street": "Rua Armando Negrizoli",
        "zipcode": "18970-292"
    },
    {
        "city": "Chavantes",
        "state": "SP",
        "district": "Jardim das Paineiras",
        "street": "Rua Amapola",
        "zipcode": "18970-132"
    },
    {
        "city": "Chavantes",
        "state": "SP",
        "district": "Centro (Irapé)",
        "street": "Rua Coronel Emidio Piedade Filho",
        "zipcode": "18980-006"
    },
    {
        "city": "Chavantes",
        "state": "SP",
        "district": "Jardim Conceição",
        "street": "Rua Coronel Manoel Ferreira",
        "zipcode": "18970-172"
    },
    {
        "city": "Chavantes",
        "state": "SP",
        "district": "Centro",
        "street": "Rua Altino Arantes",
        "zipcode": "18970-007"
    },
    {
        "city": "Chavantes",
        "state": "SP",
        "district": "Parque Residencial Santa Rosa",
        "street": "Rua Diaconiza Julia Silva",
        "zipcode": "18970-334"
    },
    {
        "city": "Chavantes",
        "state": "SP",
        "district": "Jardim das Paineiras",
        "street": "Rua dos Antúrios",
        "zipcode": "18970-154"
    },
    {
        "city": "Chavantes",
        "state": "SP",
        "district": "Conjunto Habitacional José Henrique Martins",
        "street": "Rua Inah Bueno da Cunha",
        "zipcode": "18970-302"
    },
    {
        "city": "Chavantes",
        "state": "SP",
        "district": "Chavantes Novo",
        "street": "Rua João Corazza",
        "zipcode": "18970-250"
    },
    {
        "city": "Chavantes",
        "state": "SP",
        "district": "Jardim Nosso Lar",
        "street": "Rua Francisco de Oliveira Fontes",
        "zipcode": "18972-002"
    },
    {
        "city": "Chavantes",
        "state": "SP",
        "district": "Centro",
        "street": "Rua João Geraldo",
        "zipcode": "18970-027"
    },
    {
        "city": "Chavantes",
        "state": "SP",
        "district": "Jardim das Paineiras",
        "street": "Rua das Rosas",
        "zipcode": "18970-156"
    },
    {
        "city": "Chavantes",
        "state": "SP",
        "district": "Centro (Irapé)",
        "street": "Rua do Comércio",
        "zipcode": "18980-022"
    },
    {
        "city": "Chavantes",
        "state": "SP",
        "district": "Residencial Prefeito Same Cury(Irapé)",
        "street": "Rua João Albano",
        "zipcode": "18980-032"
    },
    {
        "city": "Chavantes",
        "state": "SP",
        "district": "Vila das Flores",
        "street": "Rua Egidio Bachiega",
        "zipcode": "18970-064"
    },
    {
        "city": "Chavantes",
        "state": "SP",
        "district": "Conjunto Habitacional Doutor Leonel Pereira da Cunha",
        "street": "Rua Farid Bassit",
        "zipcode": "18972-084"
    },
    {
        "city": "Chavantes",
        "state": "SP",
        "district": "Chavantes Novo",
        "street": "Rua Hassib Mofarrej",
        "zipcode": "18970-224"
    },
    {
        "city": "Chavantes",
        "state": "SP",
        "district": "Centro (Irapé)",
        "street": "Rua João Bezerra",
        "zipcode": "18980-001"
    },
    {
        "city": "Chavantes",
        "state": "SP",
        "district": "Residencial Santa Fátima",
        "street": "Rua Franklin Rosa Neto",
        "zipcode": "18972-028"
    },
    {
        "city": "Chavantes",
        "state": "SP",
        "district": "Conjunto Habitacional Doutor Leonel Pereira da Cunha",
        "street": "Rua Humberto Silvestre",
        "zipcode": "18972-080"
    },
    {
        "city": "Chavantes",
        "state": "SP",
        "district": "Jardim Nosso Lar",
        "street": "Rua Felisberto Degani",
        "zipcode": "18972-004"
    },
    {
        "city": "Chavantes",
        "state": "SP",
        "district": "Residencial Santa Fátima",
        "street": "Rua Francisco Nabeiro",
        "zipcode": "18972-036"
    },
    {
        "city": "Chavantes",
        "state": "SP",
        "district": "Chavantes Novo",
        "street": "Rua Eugênio Donato",
        "zipcode": "18970-216"
    },
    {
        "city": "Chavantes",
        "state": "SP",
        "district": "Chavantes Novo",
        "street": "Rua Domingos Iori",
        "zipcode": "18970-244"
    },
    {
        "city": "Chavantes",
        "state": "SP",
        "district": "Chavantes Novo",
        "street": "Rua Deputado Antonio Sylvio da Cunha Bueno",
        "zipcode": "18970-277"
    },
    {
        "city": "Chavantes",
        "state": "SP",
        "district": "Centro (Irapé)",
        "street": "Rua Jorge Tibiriça",
        "zipcode": "18980-002"
    },
    {
        "city": "Chavantes",
        "state": "SP",
        "district": "Chavantes Novo",
        "street": "Rua José Doriguello",
        "zipcode": "18970-236"
    },
    {
        "city": "Chavantes",
        "state": "SP",
        "district": "Jardim das Paineiras",
        "street": "Rua José Antonio Polis",
        "zipcode": "18970-165"
    },
    {
        "city": "Chavantes",
        "state": "SP",
        "district": "Chavantes Novo",
        "street": "Rua Dinorah Bueno Pereira Silva",
        "zipcode": "18970-275"
    },
    {
        "city": "Chavantes",
        "state": "SP",
        "district": "Chavantes Novo",
        "street": "Rua José Diogo Pereira",
        "zipcode": "18970-220"
    },
    {
        "city": "Chavantes",
        "state": "SP",
        "district": "Centro",
        "street": "Rua Francisco Pereira Leite de Mello",
        "zipcode": "18970-031"
    },
    {
        "city": "Chavantes",
        "state": "SP",
        "district": "Residencial Santa Fátima",
        "street": "Rua João Carlos Ferrari",
        "zipcode": "18972-032"
    },
    {
        "city": "Chavantes",
        "state": "SP",
        "district": "Orlando Quagliato",
        "street": "Rua Francisco Geraldo Chagas",
        "zipcode": "18972-062"
    },
    {
        "city": "Chavantes",
        "state": "SP",
        "district": "Residencial Prefeito Same Cury(Irapé)",
        "street": "Rua João Batista Thomé",
        "zipcode": "18980-034"
    },
    {
        "city": "Chavantes",
        "state": "SP",
        "district": "Chavantes Novo",
        "street": "Rua Elías Tebet",
        "zipcode": "18970-256"
    },
    {
        "city": "Chavantes",
        "state": "SP",
        "district": "Chavantes Novo",
        "street": "Rua Miguel Mussa Saif",
        "zipcode": "18970-286"
    },
    {
        "city": "Chavantes",
        "state": "SP",
        "district": "Chavantes Novo",
        "street": "Rua José Rubio Medina",
        "zipcode": "18970-252"
    },
    {
        "city": "Chavantes",
        "state": "SP",
        "district": "Chavantes Novo",
        "street": "Rua Francelino José",
        "zipcode": "18970-222"
    },
    {
        "city": "Chavantes",
        "state": "SP",
        "district": "Chavantes Novo",
        "street": "Rua Henrique Ribeiro",
        "zipcode": "18970-274"
    },
    {
        "city": "Chavantes",
        "state": "SP",
        "district": "Orlando Quagliato",
        "street": "Rua Oscar Osvaldo de Paula",
        "zipcode": "18972-072"
    },
    {
        "city": "Chavantes",
        "state": "SP",
        "district": "Chavantes Novo",
        "street": "Rua Irmã Dina",
        "zipcode": "18970-254"
    },
    {
        "city": "Chavantes",
        "state": "SP",
        "district": "Vila das Flores",
        "street": "Rua Jaime José Cadamuro",
        "zipcode": "18970-060"
    },
    {
        "city": "Chavantes",
        "state": "SP",
        "district": "Vila das Flores",
        "street": "Rua Nelson Sabatine",
        "zipcode": "18970-072"
    },
    {
        "city": "Chavantes",
        "state": "SP",
        "district": "Vila Santa Tereza",
        "street": "Rua Rita Guimarães Fontes",
        "zipcode": "18970-044"
    },
    {
        "city": "Chavantes",
        "state": "SP",
        "district": "Parque Residencial Santa Rosa",
        "street": "Rua Rubens Peres",
        "zipcode": "18970-338"
    },
    {
        "city": "Chavantes",
        "state": "SP",
        "district": "Centro (Irapé)",
        "street": "Rua Elias Gabriel",
        "zipcode": "18980-008"
    },
    {
        "city": "Chavantes",
        "state": "SP",
        "district": "Parque Residencial Santa Rosa",
        "street": "Rua Francisco Marcelino de Carvalho",
        "zipcode": "18970-322"
    },
    {
        "city": "Chavantes",
        "state": "SP",
        "district": "Vila das Flores",
        "street": "Rua Mario Pazianoto",
        "zipcode": "18970-066"
    },
    {
        "city": "Chavantes",
        "state": "SP",
        "district": "Centro (Irapé)",
        "street": "Rua Santana",
        "zipcode": "18980-016"
    },
    {
        "city": "Chavantes",
        "state": "SP",
        "district": "Centro",
        "street": "Rua Senador Mello Peixoto",
        "zipcode": "18970-015"
    },
    {
        "city": "Chavantes",
        "state": "SP",
        "district": "Residencial Santa Fátima",
        "street": "Rua Luiz Antonio Polis",
        "zipcode": "18972-022"
    },
    {
        "city": "Chavantes",
        "state": "SP",
        "district": "Centro",
        "street": "Rua Marechal Deodoro da Fonseca",
        "zipcode": "18970-025"
    },
    {
        "city": "Chavantes",
        "state": "SP",
        "district": "Jardim das Paineiras",
        "street": "Rua Jasmim",
        "zipcode": "18970-162"
    },
    {
        "city": "Chavantes",
        "state": "SP",
        "district": "Parque Residencial Santa Rosa",
        "street": "Rua Manoel Domingues Morales",
        "zipcode": "18970-350"
    },
    {
        "city": "Chavantes",
        "state": "SP",
        "district": "Jardim das Paineiras",
        "street": "Rua Tulipa",
        "zipcode": "18970-134"
    },
    {
        "city": "Chavantes",
        "state": "SP",
        "district": "Centro (Irapé)",
        "street": "Rua Sebastião Gomes Soares",
        "zipcode": "18980-012"
    },
    {
        "city": "Chavantes",
        "state": "SP",
        "district": "Orlando Quagliato",
        "street": "Rua Geraldo Raimundo",
        "zipcode": "18972-054"
    },
    {
        "city": "Chavantes",
        "state": "SP",
        "district": "Chavantes Novo",
        "street": "Rua Osvaldo Barbosa",
        "zipcode": "18970-198"
    },
    {
        "city": "Chavantes",
        "state": "SP",
        "district": "Chavantes Novo",
        "street": "Rua Joaquim Alves Faria",
        "zipcode": "18970-226"
    },
    {
        "city": "Chavantes",
        "state": "SP",
        "district": "Orlando Quagliato",
        "street": "Rua Soldado Abílio Alves",
        "zipcode": "18972-058"
    },
    {
        "city": "Chavantes",
        "state": "SP",
        "district": "Centro",
        "street": "Rua Otilia Viana Marvulle",
        "zipcode": "18970-013"
    },
    {
        "city": "Chavantes",
        "state": "SP",
        "district": "Vila das Flores",
        "street": "Rua Sebastião Garbo",
        "zipcode": "18970-068"
    },
    {
        "city": "Chavantes",
        "state": "SP",
        "district": "Residencial Santa Fátima",
        "street": "Rua Nelson Nogueira Geraldo",
        "zipcode": "18972-030"
    },
    {
        "city": "Chavantes",
        "state": "SP",
        "district": "Jardim Conceição",
        "street": "Rua Maestro Sebastião Fonseca",
        "zipcode": "18970-176"
    },
    {
        "city": "Chavantes",
        "state": "SP",
        "district": "Residencial Santa Fátima",
        "street": "Rua José Sorzi",
        "zipcode": "18972-034"
    },
    {
        "city": "Chavantes",
        "state": "SP",
        "district": "Centro (Irapé)",
        "street": "Rua Vicente Paulo Bergamo",
        "zipcode": "18980-020"
    },
    {
        "city": "Chavantes",
        "state": "SP",
        "district": "Centro",
        "street": "Rua Rita Guimarães Fontes",
        "zipcode": "18970-035"
    },
    {
        "city": "Chavantes",
        "state": "SP",
        "district": "Chavantes Novo",
        "street": "Rua Sinhana Ventura",
        "zipcode": "18970-242"
    },
    {
        "city": "Chavantes",
        "state": "SP",
        "district": "Vila das Flores",
        "street": "Rua Luiz Antonio Honorato",
        "zipcode": "18970-070"
    },
    {
        "city": "Chavantes",
        "state": "SP",
        "district": "Orlando Quagliato",
        "street": "Rua José Roquejani",
        "zipcode": "18972-066"
    },
    {
        "city": "Chavantes",
        "state": "SP",
        "district": "Residencial Santa Fátima",
        "street": "Rua Pedro Rodrigues Borges Junior",
        "zipcode": "18972-020"
    },
    {
        "city": "Chavantes",
        "state": "SP",
        "district": "Parque Residencial Santa Rosa",
        "street": "Rua Thomaz Gallati",
        "zipcode": "18970-328"
    },
    {
        "city": "Chavantes",
        "state": "SP",
        "district": "Jardim Conceição",
        "street": "Rua Maestro Carlos Gomes",
        "zipcode": "18970-180"
    },
    {
        "city": "Chavantes",
        "state": "SP",
        "district": "Jardim Nosso Lar",
        "street": "Rua Marechal Deodoro da Fonseca",
        "zipcode": "18972-000"
    },
    {
        "city": "Chavantes",
        "state": "SP",
        "district": "Centro",
        "street": "Rua Padre Davi",
        "zipcode": "18970-021"
    },
    {
        "city": "Chavantes",
        "state": "SP",
        "district": "Chavantes Novo",
        "street": "Rua Vicente Bertoli",
        "zipcode": "18970-260"
    },
    {
        "city": "Chavantes",
        "state": "SP",
        "district": "Residencial Santa Fátima",
        "street": "Rua Vereador João Amancio de Moraes",
        "zipcode": "18972-040"
    },
    {
        "city": "Chavantes",
        "state": "SP",
        "district": "Centro",
        "street": "Rua Major Dias Grilo",
        "zipcode": "18970-005"
    },
    {
        "city": "Chavantes",
        "state": "SP",
        "district": "Vila Santa Tereza",
        "street": "Rua Marciano Vieira",
        "zipcode": "18970-040"
    },
    {
        "city": "Chavantes",
        "state": "SP",
        "district": "Vila das Flores",
        "street": "Rua Vereadora Fátima Fonseca",
        "zipcode": "18970-052"
    },
    {
        "city": "Chavantes",
        "state": "SP",
        "district": "Vila das Flores",
        "street": "Rua Odetino Pereira Moitinho",
        "zipcode": "18970-058"
    },
    {
        "city": "Chavantes",
        "state": "SP",
        "district": "Chavantes Novo",
        "street": "Rua Victor Abdala Macul",
        "zipcode": "18970-194"
    },
    {
        "city": "Chavantes",
        "state": "SP",
        "district": "Parque Residencial Santa Rosa",
        "street": "Rua Theodoro Gonçalves de Almeida",
        "zipcode": "18970-320"
    },
    {
        "city": "Chavantes",
        "state": "SP",
        "district": "Orlando Quagliato",
        "street": "Rua Luis Pauli",
        "zipcode": "18972-070"
    },
    {
        "city": "Chavantes",
        "state": "SP",
        "district": "Chavantes Novo",
        "street": "Rua Narciso João Vedovello",
        "zipcode": "18970-214"
    },
    {
        "city": "Chavantes",
        "state": "SP",
        "district": "Orlando Quagliato",
        "street": "Rua Walter Brandi",
        "zipcode": "18972-056"
    },
    {
        "city": "Chavantes",
        "state": "SP",
        "district": "Jardim das Paineiras",
        "street": "Rua Margarida",
        "zipcode": "18970-150"
    },
    {
        "city": "Chavantes",
        "state": "SP",
        "district": "Jardim Conceição",
        "street": "Rua Major Dias Grilo",
        "zipcode": "18970-178"
    },
    {
        "city": "Chavantes",
        "state": "SP",
        "district": "Parque Residencial Santa Rosa",
        "street": "Rua Maria Ramida",
        "zipcode": "18970-346"
    },
    {
        "city": "Chavantes",
        "state": "SP",
        "district": "Orlando Quagliato",
        "street": "Rua Vereador Tabet George Fakhouri",
        "zipcode": "18972-060"
    },
    {
        "city": "Chavantes",
        "state": "SP",
        "district": "Centro",
        "street": "Rua Maria Ferreira",
        "zipcode": "18970-029"
    },
    {
        "city": "Chavantes",
        "state": "SP",
        "district": "Centro (Irapé)",
        "street": "Rua Lázaro Júlio",
        "zipcode": "18980-024"
    },
    {
        "city": "Chavantes",
        "state": "SP",
        "district": "Jardim das Paineiras",
        "street": "Rua Primavera",
        "zipcode": "18970-152"
    },
    {
        "city": "Chavantes",
        "state": "SP",
        "district": "Chavantes Novo",
        "street": "Rua Melvin Jonnes",
        "zipcode": "18970-238"
    },
    {
        "city": "Chavantes",
        "state": "SP",
        "district": "Parque Residencial Santa Rosa",
        "street": "Rua Sargento José dos Reis",
        "zipcode": "18970-332"
    },
    {
        "city": "Chavantes",
        "state": "SP",
        "district": "Jardim Conceição",
        "street": "Rua 13 de Maio",
        "zipcode": "18970-170"
    },
    {
        "city": "Chavantes",
        "state": "SP",
        "district": "Chavantes Novo",
        "street": "Rua Valeriano Mortari",
        "zipcode": "18970-246"
    },
    {
        "city": "Chavantes",
        "state": "SP",
        "district": "Chavantes Novo",
        "street": "Rua Waldomiro Gimenez",
        "zipcode": "18970-196"
    },
    {
        "city": "Chavantes",
        "state": "SP",
        "district": "Centro",
        "street": "Rua 13 de Maio",
        "zipcode": "18970-009"
    },
    {
        "city": "Chavantes",
        "state": "SP",
        "district": "Residencial Prefeito Same Cury(Irapé)",
        "street": "Rua Washington Luiz de Oliveira",
        "zipcode": "18980-031"
    },
    {
        "city": "Chavantes",
        "state": "SP",
        "district": "Parque Residencial Santa Rosa",
        "street": "Rua Zaira Tebet Bassit",
        "zipcode": "18970-340"
    },
    {
        "city": "Chavantes",
        "state": "SP",
        "district": "Centro",
        "street": "Rua Zico Leite",
        "zipcode": "18970-033"
    },
    {
        "city": "Chavantes",
        "state": "SP",
        "district": "Centro",
        "street": "Rua Altino Arantes",
        "zipcode": "18970-970"
    },
    {
        "city": "Chavantes",
        "state": "SP",
        "district": "Área Rural de Irapé (Chavantes)",
        "street": "Área Rural",
        "zipcode": "18980-899"
    },
    {
        "city": "Chavantes",
        "state": "SP",
        "district": "Orlando Quagliato",
        "street": "Rua Armando Alves de Lara",
        "zipcode": "18972-050"
    },
    {
        "city": "Chavantes",
        "state": "SP",
        "district": "Conjunto Habitacional Elza Atanázio Alonso",
        "street": "Rua Acácio Gomes dos Reis",
        "zipcode": "18972-106"
    },
    {
        "city": "Chavantes",
        "state": "SP",
        "district": "Conjunto Habitacional Elza Atanázio Alonso",
        "street": "Rua Silvio Moacir Alvin Regala",
        "zipcode": "18972-100"
    },
    {
        "city": "Chavantes",
        "state": "SP",
        "district": "Centro",
        "street": "Rua Coronel Luiz Pereira Leite",
        "zipcode": "18970-001"
    },
    {
        "city": "Chavantes",
        "state": "SP",
        "district": "Conjunto Habitacional Elza Atanázio Alonso",
        "street": "Rua Diamantino Costa",
        "zipcode": "18972-102"
    },
    {
        "city": "Chavantes",
        "state": "SP",
        "district": "Vila das Flores",
        "street": "Rua Prefeito Roberto Cezário de Campos",
        "zipcode": "18970-054"
    },
    {
        "city": "Chavantes",
        "state": "SP",
        "district": "Centro",
        "street": "Rua Marciano Vieira",
        "zipcode": "18970-037"
    },
    {
        "city": "Chavantes",
        "state": "SP",
        "district": "Centro",
        "street": "Rua Anastácio Paschoal",
        "zipcode": "18970-023"
    },
    {
        "city": "Chavantes",
        "state": "SP",
        "district": "Vila Santa Tereza",
        "street": "Rua José de Souza Carvalho",
        "zipcode": "18970-042"
    },
    {
        "city": "Chavantes",
        "state": "SP",
        "district": "Chavantes Novo",
        "street": "Rua Benedito Baptista Bueno",
        "zipcode": "18970-240"
    },
    {
        "city": "Chavantes",
        "state": "SP",
        "district": "Chavantes Novo",
        "street": "Rua Françoa David",
        "zipcode": "18970-213"
    },
    {
        "city": "Chavantes",
        "state": "SP",
        "district": "Residencial Santa Fátima",
        "street": "Rua Alfredo Gomes Figueiredo",
        "zipcode": "18972-038"
    },
    {
        "city": "Chavantes",
        "state": "SP",
        "district": "Centro (Irapé)",
        "street": "Rua São Benedito",
        "zipcode": "18980-014"
    },
    {
        "city": "Chavantes",
        "state": "SP",
        "district": "Centro (Irapé)",
        "street": "Rua Vicente Paulo Bergamo",
        "zipcode": "18980-971"
    },
    {
        "city": "Chavantes",
        "state": "SP",
        "district": "Orlando Quagliato",
        "street": "Rua João Dálio",
        "zipcode": "18972-068"
    },
    {
        "city": "Chavantes",
        "state": "SP",
        "district": "Chavantes Novo",
        "street": "Rua Candido Pereira Leite de Mello",
        "zipcode": "18970-210"
    },
    {
        "city": "Chavantes",
        "state": "SP",
        "district": "Chavantes Novo",
        "street": "Rua Mario Pascoal Cadamuro",
        "zipcode": "18970-278"
    },
    {
        "city": "Chavantes",
        "state": "SP",
        "district": "Jardim Conceição",
        "street": "Rua Coronel Luiz Pereira Leite",
        "zipcode": "18970-182"
    },
    {
        "city": "Chavantes",
        "state": "SP",
        "district": "Chavantes Novo",
        "street": "Rua José Maria de Almeida",
        "zipcode": "18970-206"
    },
    {
        "city": "Chavantes",
        "state": "SP",
        "district": "Residencial Santa Fátima",
        "street": "Rua Zulmira Maria de Lima Valêncio",
        "zipcode": "18972-024"
    },
    {
        "city": "Chavantes",
        "state": "SP",
        "district": "Centro (Irapé)",
        "street": "Rua Doutor Mello Peixoto",
        "zipcode": "18980-004"
    },
    {
        "city": "Chavantes",
        "state": "SP",
        "district": "Conjunto Habitacional Doutor Leonel Pereira da Cunha",
        "street": "Rua Vereador Geraldo Domingos Parizotto",
        "zipcode": "18972-082"
    },
    {
        "city": "Chavantes",
        "state": "SP",
        "district": "Chavantes Novo",
        "street": "Avenida Olegario Bueno",
        "zipcode": "18970-234"
    },
    {
        "city": "Chavantes",
        "state": "SP",
        "district": "Conjunto Habitacional Antonio Rúbio Medina",
        "street": "Rua Helio Gouveia Mello",
        "zipcode": "18970-294"
    },
    {
        "city": "Chavantes",
        "state": "SP",
        "district": "Conjunto Habitacional José Henrique Martins",
        "street": "Avenida João Martins",
        "zipcode": "18970-310"
    },
    {
        "city": "Chavantes",
        "state": "SP",
        "district": "Conjunto Habitacional Antonio Rúbio Medina",
        "street": "Rua Jaime Luizon Garcia",
        "zipcode": "18970-296"
    },
    {
        "city": "Chavantes",
        "state": "SP",
        "district": "Parque Residencial Santa Rosa",
        "street": "Rua Elias Tebet Neto",
        "zipcode": "18970-342"
    },
    {
        "city": "Chavantes",
        "state": "SP",
        "district": "Jardim das Paineiras",
        "street": "Rua das Orquídeas",
        "zipcode": "18970-164"
    },
    {
        "city": "Chavantes",
        "state": "SP",
        "district": "Chavantes Novo",
        "street": "Rua Francisco Cezário de Campos",
        "zipcode": "18970-262"
    },
    {
        "city": "Chavantes",
        "state": "SP",
        "district": "Jardim das Paineiras",
        "street": "Rua Magnólia",
        "zipcode": "18970-142"
    },
    {
        "city": "Chavantes",
        "state": "SP",
        "district": "Chavantes Novo",
        "street": "Rua Otacílio Nogueira",
        "zipcode": "18970-264"
    },
    {
        "city": "Chavantes",
        "state": "SP",
        "district": "Vila das Flores",
        "street": "Rua José Martins",
        "zipcode": "18970-074"
    },
    {
        "city": "Chavantes",
        "state": "SP",
        "district": "Conjunto Habitacional Antonio Rúbio Medina",
        "street": "Rua José Ventura de Oliveira",
        "zipcode": "18970-290"
    },
    {
        "city": "Chavantes",
        "state": "SP",
        "district": "Jardim das Paineiras",
        "street": "Avenida Doutor Arnaldo Ferreira da Silva",
        "zipcode": "18970-168"
    },
    {
        "city": "Chavantes",
        "state": "SP",
        "district": "Residencial Prefeito Same Cury(Irapé)",
        "street": "Rua Antonio do Amaral",
        "zipcode": "18980-035"
    },
    {
        "city": "Chavantes",
        "state": "SP",
        "district": "Jardim Nosso Lar",
        "street": "Rua Coronel Luiz Pereira Leite",
        "zipcode": "18972-010"
    },
    {
        "city": "Chavantes",
        "state": "SP",
        "district": "Conjunto Habitacional Doutor Leonel Pereira da Cunha",
        "street": "Rua Silvio Moacir Alvin Regala",
        "zipcode": "18972-088"
    },
    {
        "city": "Chavantes",
        "state": "SP",
        "district": "Conjunto Habitacional Elza Atanázio Alonso",
        "street": "Rua Diamantino Costa",
        "zipcode": "18972-104"
    },
    {
        "city": "Chavantes",
        "state": "SP",
        "district": "Conjunto Habitacional José Henrique Martins",
        "street": "Rua Adelina Baeta Homem Torres",
        "zipcode": "18970-306"
    },
    {
        "city": "Chavantes",
        "state": "SP",
        "district": "Jardim Nosso Lar",
        "street": "Rua Dirceu Vedovello",
        "zipcode": "18972-012"
    },
    {
        "city": "Chavantes",
        "state": "SP",
        "district": "Parque Residencial Santa Rosa",
        "street": "Rua Gabriel Rodrigues",
        "zipcode": "18970-324"
    },
    {
        "city": "Chavantes",
        "state": "SP",
        "district": "Vila Santa Tereza",
        "street": "Rua Dona Tereza Garrigos Rubio",
        "zipcode": "18970-046"
    },
    {
        "city": "Chavantes",
        "state": "SP",
        "district": "Jardim Nosso Lar",
        "street": "Rua Natalino João Antonio Zanotti",
        "zipcode": "18972-006"
    },
    {
        "city": "Chavantes",
        "state": "SP",
        "district": "Jardim Conceição",
        "street": "Rua Altino Arantes",
        "zipcode": "18970-174"
    },
    {
        "city": "Chavantes",
        "state": "SP",
        "district": "Conjunto Habitacional Doutor Leonel Pereira da Cunha",
        "street": "Rua Silvio Moacir Alvin Regala",
        "zipcode": "18972-086"
    }
]