[
    {
        "city": "Embu-Guaçu",
        "state": "SP",
        "district": "Centro",
        "street": "Rua Boa Vista 1118",
        "zipcode": "06900-970"
    },
    {
        "city": "Embu-Guaçu",
        "state": "SP",
        "district": "Centro",
        "street": "Rua Inácio Pires de Moraes 120",
        "zipcode": "06900-972"
    },
    {
        "city": "Embu-Guaçu",
        "state": "SP",
        "district": "",
        "street": "Rua Benedito Jandira Soares",
        "zipcode": "06900-990"
    },
    {
        "city": "Embu-Guaçu",
        "state": "SP",
        "district": "",
        "street": "",
        "zipcode": "06900-000"
    },
    {
        "city": "Embu-Guaçu",
        "state": "SP",
        "district": null,
        "street": "Largo do Amancio",
        "zipcode": "06900-992"
    },
    {
        "city": "Embu-Guaçu",
        "state": "SP",
        "district": null,
        "street": "Estrada Antônio Gerassi",
        "zipcode": "06900-997"
    },
    {
        "city": "Embu-Guaçu",
        "state": "SP",
        "district": "Cipó",
        "street": "Rua Benedito Jandiro Soares",
        "zipcode": "06900-971"
    },
    {
        "city": "Embu-Guaçu",
        "state": "SP",
        "district": null,
        "street": "Estrada do Baygton",
        "zipcode": "06900-995"
    },
    {
        "city": "Embu-Guaçu",
        "state": "SP",
        "district": null,
        "street": "Rua Belmiro Silva",
        "zipcode": "06900-994"
    },
    {
        "city": "Embu-Guaçu",
        "state": "SP",
        "district": null,
        "street": "Avenida Dois",
        "zipcode": "06900-998"
    },
    {
        "city": "Embu-Guaçu",
        "state": "SP",
        "district": null,
        "street": "Estrada Municipal da Paulistinha",
        "zipcode": "06901-990"
    }
]