[
    {
        "city": "Engenheiro Coelho",
        "state": "SP",
        "district": "Centro",
        "street": "Rua Jair Roberto Mulla 156",
        "zipcode": "13165-970"
    },
    {
        "city": "Engenheiro Coelho",
        "state": "SP",
        "district": "",
        "street": "",
        "zipcode": "13165-000"
    },
    {
        "city": "Engenheiro Coelho",
        "state": "SP",
        "district": "Jardim Minas Gerais",
        "street": "Rua Alexandre Bonin",
        "zipcode": "13445-402"
    },
    {
        "city": "Engenheiro Coelho",
        "state": "SP",
        "district": "Jardim Luiz Fávero",
        "street": "Rua Alcides Francischetti",
        "zipcode": "13445-490"
    },
    {
        "city": "Engenheiro Coelho",
        "state": "SP",
        "district": "Jardim Angelo Forner",
        "street": "Avenida Pedro Forner",
        "zipcode": "13445-226"
    },
    {
        "city": "Engenheiro Coelho",
        "state": "SP",
        "district": "Jardim Luiz Fávero",
        "street": "Rua Alceu Caetano",
        "zipcode": "13445-488"
    },
    {
        "city": "Engenheiro Coelho",
        "state": "SP",
        "district": "Eldorado I",
        "street": "Rua Alcides Francischetti",
        "zipcode": "13445-520"
    },
    {
        "city": "Engenheiro Coelho",
        "state": "SP",
        "district": "Jardim do Sol",
        "street": "Rua Alexandre Bonin",
        "zipcode": "13445-450"
    },
    {
        "city": "Engenheiro Coelho",
        "state": "SP",
        "district": "Eldorado I",
        "street": "Rua Alexandre Bonin",
        "zipcode": "13445-526"
    },
    {
        "city": "Engenheiro Coelho",
        "state": "SP",
        "district": "Residencial João Favero",
        "street": "Rua Alexandre Bonin",
        "zipcode": "13445-572"
    },
    {
        "city": "Engenheiro Coelho",
        "state": "SP",
        "district": "Jardim Angelo Forner",
        "street": "Avenida Angelo Forner",
        "zipcode": "13445-220"
    },
    {
        "city": "Engenheiro Coelho",
        "state": "SP",
        "district": "Jardim do Lago",
        "street": "Avenida Pedro Forner",
        "zipcode": "13445-210"
    },
    {
        "city": "Engenheiro Coelho",
        "state": "SP",
        "district": "Nobreville",
        "street": "Rua Alexandre Bonin",
        "zipcode": "13445-512"
    },
    {
        "city": "Engenheiro Coelho",
        "state": "SP",
        "district": "Área Rural de Engenheiro Coelho",
        "street": "Área Rural",
        "zipcode": "13449-899"
    },
    {
        "city": "Engenheiro Coelho",
        "state": "SP",
        "district": "Nobreville",
        "street": "Rua Alcides Francischetti",
        "zipcode": "13445-500"
    },
    {
        "city": "Engenheiro Coelho",
        "state": "SP",
        "district": "Jardim São Paulo",
        "street": "Rua Alfredo Correia da Rocha",
        "zipcode": "13445-362"
    },
    {
        "city": "Engenheiro Coelho",
        "state": "SP",
        "district": "Residencial Forner II",
        "street": "Avenida Angelo Forner",
        "zipcode": "13445-070"
    },
    {
        "city": "Engenheiro Coelho",
        "state": "SP",
        "district": "Jardim das Acácias",
        "street": "Rua Alice Arten Welk",
        "zipcode": "13445-552"
    },
    {
        "city": "Engenheiro Coelho",
        "state": "SP",
        "district": "Jardim do Lago",
        "street": "Rua Dionisio Berton",
        "zipcode": "13445-204"
    },
    {
        "city": "Engenheiro Coelho",
        "state": "SP",
        "district": "Centro",
        "street": "Rua Helena Hereman",
        "zipcode": "13445-017"
    },
    {
        "city": "Engenheiro Coelho",
        "state": "SP",
        "district": "Residencial Forner II",
        "street": "Rua Emerson Barboza de Oliveira",
        "zipcode": "13445-080"
    },
    {
        "city": "Engenheiro Coelho",
        "state": "SP",
        "district": "Jardim Minas Gerais",
        "street": "Rua Antonio Batistela",
        "zipcode": "13445-406"
    },
    {
        "city": "Engenheiro Coelho",
        "state": "SP",
        "district": "Nobreville",
        "street": "Rua Amaro Franco de Oliveira",
        "zipcode": "13445-510"
    },
    {
        "city": "Engenheiro Coelho",
        "state": "SP",
        "district": "Jardim Brasil",
        "street": "Rua Antonio Batistela",
        "zipcode": "13445-380"
    },
    {
        "city": "Engenheiro Coelho",
        "state": "SP",
        "district": "Jardim América",
        "street": "Rua Amadeu Jorge Teresani",
        "zipcode": "13445-270"
    },
    {
        "city": "Engenheiro Coelho",
        "state": "SP",
        "district": "Residencial João Favero",
        "street": "Rua Benedito Cunha Guedes",
        "zipcode": "13445-568"
    },
    {
        "city": "Engenheiro Coelho",
        "state": "SP",
        "district": "Jardim Amália",
        "street": "Rua Amadeu Jorge Teresani",
        "zipcode": "13445-260"
    },
    {
        "city": "Engenheiro Coelho",
        "state": "SP",
        "district": "Jardim do Sol",
        "street": "Rua Benedito Cunha Guedes",
        "zipcode": "13445-448"
    },
    {
        "city": "Engenheiro Coelho",
        "state": "SP",
        "district": "Jardim São Pedro",
        "street": "Rua Catarina Scholl",
        "zipcode": "13445-298"
    },
    {
        "city": "Engenheiro Coelho",
        "state": "SP",
        "district": "Eldorado I",
        "street": "Rua Benedito Cunha Guedes",
        "zipcode": "13445-524"
    },
    {
        "city": "Engenheiro Coelho",
        "state": "SP",
        "district": "Jardim do Sol",
        "street": "Rua Celina Cavalheiro Francischetti",
        "zipcode": "13445-442"
    },
    {
        "city": "Engenheiro Coelho",
        "state": "SP",
        "district": "Jardim São Paulo",
        "street": "Rua Emílio Honhardt",
        "zipcode": "13445-364"
    },
    {
        "city": "Engenheiro Coelho",
        "state": "SP",
        "district": "Jardim Luiz Fávero",
        "street": "Rua Amalia Sia Favero",
        "zipcode": "13445-484"
    },
    {
        "city": "Engenheiro Coelho",
        "state": "SP",
        "district": "Jardim do Sol",
        "street": "Rua Benedita Neves de Oliveira",
        "zipcode": "13445-444"
    },
    {
        "city": "Engenheiro Coelho",
        "state": "SP",
        "district": "Jardim Minas Gerais",
        "street": "Rua Benedito Cunha Guedes",
        "zipcode": "13445-404"
    },
    {
        "city": "Engenheiro Coelho",
        "state": "SP",
        "district": "Residencial Forner",
        "street": "Rua Euzebio Batistela",
        "zipcode": "13445-050"
    },
    {
        "city": "Engenheiro Coelho",
        "state": "SP",
        "district": "Jardim São Pedro",
        "street": "Rua Diogo Martinez",
        "zipcode": "13445-294"
    },
    {
        "city": "Engenheiro Coelho",
        "state": "SP",
        "district": "Eldorado I",
        "street": "Rua Amaro Franco de Oliveira",
        "zipcode": "13445-528"
    },
    {
        "city": "Engenheiro Coelho",
        "state": "SP",
        "district": "Residencial João Favero",
        "street": "Rua Benedita Neves de Oliveira",
        "zipcode": "13445-564"
    },
    {
        "city": "Engenheiro Coelho",
        "state": "SP",
        "district": "Residencial João Favero",
        "street": "Rua Gumercindo Faveri",
        "zipcode": "13445-562"
    },
    {
        "city": "Engenheiro Coelho",
        "state": "SP",
        "district": "Jardim Mercedes Maria de Moraes",
        "street": "Rua Francisco da Cruz",
        "zipcode": "13445-432"
    },
    {
        "city": "Engenheiro Coelho",
        "state": "SP",
        "district": "Jardim Mercedes Maria de Moraes",
        "street": "Rua Gentil Cardoso",
        "zipcode": "13445-426"
    },
    {
        "city": "Engenheiro Coelho",
        "state": "SP",
        "district": "Jardim Amália",
        "street": "Rua Jair Roberto Mulla",
        "zipcode": "13445-970"
    },
    {
        "city": "Engenheiro Coelho",
        "state": "SP",
        "district": "Jardim Angelo Forner",
        "street": "Rua Antonio Benedicto",
        "zipcode": "13445-222"
    },
    {
        "city": "Engenheiro Coelho",
        "state": "SP",
        "district": "Jardim das Acácias",
        "street": "Rua Amaro Franco de Oliveira",
        "zipcode": "13445-544"
    },
    {
        "city": "Engenheiro Coelho",
        "state": "SP",
        "district": "Centro",
        "street": "Rua Antonio Alves Cavalheiro",
        "zipcode": "13445-009"
    },
    {
        "city": "Engenheiro Coelho",
        "state": "SP",
        "district": "Jardim América",
        "street": "Rua Francisco Antonio Soares",
        "zipcode": "13445-280"
    },
    {
        "city": "Engenheiro Coelho",
        "state": "SP",
        "district": "Jardim São Pedro",
        "street": "Rua Antonio Franco de Oliveira",
        "zipcode": "13445-290"
    },
    {
        "city": "Engenheiro Coelho",
        "state": "SP",
        "district": "Jardim Mercedes Maria de Moraes",
        "street": "Rua Christiano Barbosa de Oliveira",
        "zipcode": "13445-434"
    },
    {
        "city": "Engenheiro Coelho",
        "state": "SP",
        "district": "Residencial Forner",
        "street": "Rua Dionisio Berton",
        "zipcode": "13445-056"
    },
    {
        "city": "Engenheiro Coelho",
        "state": "SP",
        "district": "Jardim Luiz Fávero",
        "street": "Rua Eufrosino Gomes",
        "zipcode": "13445-474"
    },
    {
        "city": "Engenheiro Coelho",
        "state": "SP",
        "district": "Jardim das Acácias",
        "street": "Rua Benedita Neves de Oliveira",
        "zipcode": "13445-556"
    },
    {
        "city": "Engenheiro Coelho",
        "state": "SP",
        "district": "Centro",
        "street": "Rua João Berton",
        "zipcode": "13445-023"
    },
    {
        "city": "Engenheiro Coelho",
        "state": "SP",
        "district": "Jardim Amália",
        "street": "Rua Elvira Martinati Forner",
        "zipcode": "13445-254"
    },
    {
        "city": "Engenheiro Coelho",
        "state": "SP",
        "district": "Jardim do Lago",
        "street": "Rua Antonio Benedicto",
        "zipcode": "13445-208"
    },
    {
        "city": "Engenheiro Coelho",
        "state": "SP",
        "district": "Centro",
        "street": "Rua Domingos Franco de Oliveira",
        "zipcode": "13445-003"
    },
    {
        "city": "Engenheiro Coelho",
        "state": "SP",
        "district": "Residencial João Favero",
        "street": "Rua Amalia Sia Favero",
        "zipcode": "13445-570"
    },
    {
        "city": "Engenheiro Coelho",
        "state": "SP",
        "district": "Nobreville",
        "street": "Rua Amalia Sia Favero",
        "zipcode": "13445-504"
    },
    {
        "city": "Engenheiro Coelho",
        "state": "SP",
        "district": "Parque das Indústrias",
        "street": "Rua Euzebio Batistela",
        "zipcode": "13445-048"
    },
    {
        "city": "Engenheiro Coelho",
        "state": "SP",
        "district": "Jardim Amália",
        "street": "Rua Jair Roberto Mulla",
        "zipcode": "13445-256"
    },
    {
        "city": "Engenheiro Coelho",
        "state": "SP",
        "district": "Jardim São Pedro",
        "street": "Rua Eloy Nabarretti",
        "zipcode": "13445-296"
    },
    {
        "city": "Engenheiro Coelho",
        "state": "SP",
        "district": "Jardim Minas Gerais",
        "street": "Rua Catarina Favreto Caetano",
        "zipcode": "13445-400"
    },
    {
        "city": "Engenheiro Coelho",
        "state": "SP",
        "district": "Jardim Minas Gerais",
        "street": "Rua Benedita Neves de Oliveira",
        "zipcode": "13445-410"
    },
    {
        "city": "Engenheiro Coelho",
        "state": "SP",
        "district": "Nobreville",
        "street": "Rua Benedito Cunha Guedes",
        "zipcode": "13445-514"
    },
    {
        "city": "Engenheiro Coelho",
        "state": "SP",
        "district": "Parque das Indústrias",
        "street": "Rua Antonio Alves Cavalheiro",
        "zipcode": "13445-032"
    },
    {
        "city": "Engenheiro Coelho",
        "state": "SP",
        "district": "Jardim São Paulo",
        "street": "Rua Catarina Favreto Caetano",
        "zipcode": "13445-360"
    },
    {
        "city": "Engenheiro Coelho",
        "state": "SP",
        "district": "Residencial Forner",
        "street": "Rua Antonio Benedicto",
        "zipcode": "13445-062"
    },
    {
        "city": "Engenheiro Coelho",
        "state": "SP",
        "district": "Jardim São Paulo",
        "street": "Rua Eufrosino Gomes",
        "zipcode": "13445-376"
    },
    {
        "city": "Engenheiro Coelho",
        "state": "SP",
        "district": "Jardim do Sol",
        "street": "Rua Minas Gerais",
        "zipcode": "13445-458"
    },
    {
        "city": "Engenheiro Coelho",
        "state": "SP",
        "district": "Jardim Mercedes Maria de Moraes",
        "street": "Rua Natal Marrafão",
        "zipcode": "13445-424"
    },
    {
        "city": "Engenheiro Coelho",
        "state": "SP",
        "district": "Jardim do Sol",
        "street": "Rua José Pereira",
        "zipcode": "13445-452"
    },
    {
        "city": "Engenheiro Coelho",
        "state": "SP",
        "district": "Jardim Brasil",
        "street": "Rua José Pereira",
        "zipcode": "13445-384"
    },
    {
        "city": "Engenheiro Coelho",
        "state": "SP",
        "district": "Jardim das Acácias",
        "street": "Rua Reginaldo Ferreira Lima",
        "zipcode": "13445-546"
    },
    {
        "city": "Engenheiro Coelho",
        "state": "SP",
        "district": "Jardim Luiz Fávero",
        "street": "Rua Pedro Francisco Guimarães",
        "zipcode": "13445-478"
    },
    {
        "city": "Engenheiro Coelho",
        "state": "SP",
        "district": "Nobreville",
        "street": "Rua João Olivério de Moraes",
        "zipcode": "13445-508"
    },
    {
        "city": "Engenheiro Coelho",
        "state": "SP",
        "district": "Jardim do Sol",
        "street": "Rua João Olivério de Moraes",
        "zipcode": "13445-456"
    },
    {
        "city": "Engenheiro Coelho",
        "state": "SP",
        "district": "Jardim do Sol",
        "street": "Rua Sebastião Lopes Primo",
        "zipcode": "13445-460"
    },
    {
        "city": "Engenheiro Coelho",
        "state": "SP",
        "district": "Loteamento Jordina Oliveiro",
        "street": "Rua José Correia de Oliveira",
        "zipcode": "13445-390"
    },
    {
        "city": "Engenheiro Coelho",
        "state": "SP",
        "district": "Jardim Luiz Fávero",
        "street": "Rua José Antonio Batistela",
        "zipcode": "13445-486"
    },
    {
        "city": "Engenheiro Coelho",
        "state": "SP",
        "district": "Vila São Pedro",
        "street": "Rua Teophilo Haeck",
        "zipcode": "13445-232"
    },
    {
        "city": "Engenheiro Coelho",
        "state": "SP",
        "district": "Centro",
        "street": "Rua Odecio Forner",
        "zipcode": "13445-021"
    },
    {
        "city": "Engenheiro Coelho",
        "state": "SP",
        "district": "Jardim São Paulo",
        "street": "Rua Moacyr Pinheiro",
        "zipcode": "13445-374"
    },
    {
        "city": "Engenheiro Coelho",
        "state": "SP",
        "district": "Jardim do Lago",
        "street": "Rua José de Lima",
        "zipcode": "13445-200"
    },
    {
        "city": "Engenheiro Coelho",
        "state": "SP",
        "district": "Jardim das Acácias",
        "street": "Rua Ronipeterson Rodrigues",
        "zipcode": "13445-554"
    },
    {
        "city": "Engenheiro Coelho",
        "state": "SP",
        "district": "Jardim do Sol",
        "street": "Rua Juvenal Rosa da Silva",
        "zipcode": "13445-446"
    },
    {
        "city": "Engenheiro Coelho",
        "state": "SP",
        "district": "Jardim Brasil",
        "street": "Rua Minas Gerais",
        "zipcode": "13445-386"
    },
    {
        "city": "Engenheiro Coelho",
        "state": "SP",
        "district": "Jardim Amália",
        "street": "Rua Luiz Favero",
        "zipcode": "13445-250"
    },
    {
        "city": "Engenheiro Coelho",
        "state": "SP",
        "district": "Jardim Luiz Fávero",
        "street": "Rua Silvano Franco de Oliveira",
        "zipcode": "13445-476"
    },
    {
        "city": "Engenheiro Coelho",
        "state": "SP",
        "district": "Jardim do Lago",
        "street": "Rua José Gazotto Sobrinho",
        "zipcode": "13445-206"
    },
    {
        "city": "Engenheiro Coelho",
        "state": "SP",
        "district": "Parque das Indústrias",
        "street": "Rua Júlio Cardoso de Moraes",
        "zipcode": "13445-030"
    },
    {
        "city": "Engenheiro Coelho",
        "state": "SP",
        "district": "Vila São Pedro",
        "street": "Rua Luiz Favero",
        "zipcode": "13445-240"
    },
    {
        "city": "Engenheiro Coelho",
        "state": "SP",
        "district": "Jardim Minas Gerais",
        "street": "Rua Juvenal Rosa da Silva",
        "zipcode": "13445-408"
    },
    {
        "city": "Engenheiro Coelho",
        "state": "SP",
        "district": "Jardim do Sol",
        "street": "Rua Luiz Favero",
        "zipcode": "13445-440"
    },
    {
        "city": "Engenheiro Coelho",
        "state": "SP",
        "district": "Nobreville",
        "street": "Rua Sebastião Lopes Primo",
        "zipcode": "13445-502"
    },
    {
        "city": "Engenheiro Coelho",
        "state": "SP",
        "district": "Parque das Indústrias",
        "street": "Rua Sete de Setembro",
        "zipcode": "13445-036"
    },
    {
        "city": "Engenheiro Coelho",
        "state": "SP",
        "district": "Residencial Forner",
        "street": "Rua José Gazotto Sobrinho",
        "zipcode": "13445-058"
    },
    {
        "city": "Engenheiro Coelho",
        "state": "SP",
        "district": "Centro",
        "street": "Rua Luiz Favero",
        "zipcode": "13445-001"
    },
    {
        "city": "Engenheiro Coelho",
        "state": "SP",
        "district": "Residencial Forner",
        "street": "Rua Osmar da Cruz",
        "zipcode": "13445-054"
    },
    {
        "city": "Engenheiro Coelho",
        "state": "SP",
        "district": "Jardim das Acácias",
        "street": "Rua João Olivério de Moraes",
        "zipcode": "13445-542"
    },
    {
        "city": "Engenheiro Coelho",
        "state": "SP",
        "district": "Jardim Minas Gerais",
        "street": "Rua Luiz Favero",
        "zipcode": "13445-412"
    },
    {
        "city": "Engenheiro Coelho",
        "state": "SP",
        "district": "Residencial João Favero",
        "street": "Rua José Benedito Rangel",
        "zipcode": "13445-566"
    },
    {
        "city": "Engenheiro Coelho",
        "state": "SP",
        "district": "Residencial Forner II",
        "street": "Rua Narciso Forner",
        "zipcode": "13445-074"
    },
    {
        "city": "Engenheiro Coelho",
        "state": "SP",
        "district": "Nobreville",
        "street": "Rua Minas Gerais",
        "zipcode": "13445-506"
    },
    {
        "city": "Engenheiro Coelho",
        "state": "SP",
        "district": "Jardim América",
        "street": "Rua Rosa Bonin Forner",
        "zipcode": "13445-274"
    },
    {
        "city": "Engenheiro Coelho",
        "state": "SP",
        "district": "Jardim do Lago",
        "street": "Rua Osmar da Cruz",
        "zipcode": "13445-202"
    },
    {
        "city": "Engenheiro Coelho",
        "state": "SP",
        "district": "Jardim Brasil",
        "street": "Rua João Olivério de Moraes",
        "zipcode": "13445-388"
    },
    {
        "city": "Engenheiro Coelho",
        "state": "SP",
        "district": "Jardim do Lago II",
        "street": "Rua Marginal",
        "zipcode": "13445-190"
    },
    {
        "city": "Engenheiro Coelho",
        "state": "SP",
        "district": "Centro",
        "street": "Rua Pedro Hereman",
        "zipcode": "13445-011"
    },
    {
        "city": "Engenheiro Coelho",
        "state": "SP",
        "district": "Eldorado I",
        "street": "Rua Minas Gerais",
        "zipcode": "13445-532"
    },
    {
        "city": "Engenheiro Coelho",
        "state": "SP",
        "district": "Vila São Pedro",
        "street": "Rua João Berton",
        "zipcode": "13445-230"
    },
    {
        "city": "Engenheiro Coelho",
        "state": "SP",
        "district": "Jardim Amália",
        "street": "Rua Rosa Bonin Forner",
        "zipcode": "13445-258"
    },
    {
        "city": "Engenheiro Coelho",
        "state": "SP",
        "district": "Jardim América",
        "street": "Rua Vereador Adolfo Nimtz",
        "zipcode": "13445-276"
    },
    {
        "city": "Engenheiro Coelho",
        "state": "SP",
        "district": "Eldorado I",
        "street": "Rua João Olivério de Moraes",
        "zipcode": "13445-530"
    },
    {
        "city": "Engenheiro Coelho",
        "state": "SP",
        "district": "Jardim São Paulo",
        "street": "Rua Pedro Francisco Guimarães",
        "zipcode": "13445-370"
    },
    {
        "city": "Engenheiro Coelho",
        "state": "SP",
        "district": "Jardim Mercedes Maria de Moraes",
        "street": "Rua Lino Rodrigues da Silva",
        "zipcode": "13445-430"
    },
    {
        "city": "Engenheiro Coelho",
        "state": "SP",
        "district": "Nobreville",
        "street": "Rua Luiz Favero",
        "zipcode": "13445-516"
    },
    {
        "city": "Engenheiro Coelho",
        "state": "SP",
        "district": "Jardim Luiz Fávero",
        "street": "Rua José Bueno de Oliveira",
        "zipcode": "13445-482"
    },
    {
        "city": "Engenheiro Coelho",
        "state": "SP",
        "district": "Residencial Forner II",
        "street": "Rua Lázaro Egídio de Almeida",
        "zipcode": "13445-078"
    },
    {
        "city": "Engenheiro Coelho",
        "state": "SP",
        "district": "Centro",
        "street": "Rua Sete de Setembro",
        "zipcode": "13445-013"
    },
    {
        "city": "Engenheiro Coelho",
        "state": "SP",
        "district": "Parque das Indústrias",
        "street": "Rua Zacarias Barbosa de Oliveira",
        "zipcode": "13445-046"
    },
    {
        "city": "Engenheiro Coelho",
        "state": "SP",
        "district": "Centro",
        "street": "Rua 15 de Novembro",
        "zipcode": "13445-007"
    },
    {
        "city": "Engenheiro Coelho",
        "state": "SP",
        "district": "Centro",
        "street": "Rua Victor Hereman",
        "zipcode": "13445-005"
    },
    {
        "city": "Engenheiro Coelho",
        "state": "SP",
        "district": "Centro",
        "street": "Rua 13 de Maio",
        "zipcode": "13445-015"
    },
    {
        "city": "Engenheiro Coelho",
        "state": "SP",
        "district": "Jardim América",
        "street": "Rua Victor Hereman",
        "zipcode": "13445-278"
    },
    {
        "city": "Engenheiro Coelho",
        "state": "SP",
        "district": "Residencial Forner II",
        "street": "Rua Zacarias Barbosa de Oliveira",
        "zipcode": "13445-072"
    },
    {
        "city": "Engenheiro Coelho",
        "state": "SP",
        "district": "Jardim São Paulo",
        "street": "Rua Vitório Haeck",
        "zipcode": "13445-366"
    },
    {
        "city": "Engenheiro Coelho",
        "state": "SP",
        "district": "Vila São Pedro",
        "street": "Rua João de Lima",
        "zipcode": "13445-238"
    },
    {
        "city": "Engenheiro Coelho",
        "state": "SP",
        "district": "Jardim São Paulo",
        "street": "Rua Antonio Batistela",
        "zipcode": "13445-372"
    },
    {
        "city": "Engenheiro Coelho",
        "state": "SP",
        "district": "Parque das Indústrias",
        "street": "Rua Rene Antonio Victor Hereman",
        "zipcode": "13445-034"
    },
    {
        "city": "Engenheiro Coelho",
        "state": "SP",
        "district": "Centro",
        "street": "Rua Júlio Cardoso de Moraes",
        "zipcode": "13445-025"
    },
    {
        "city": "Engenheiro Coelho",
        "state": "SP",
        "district": "Residencial Forner",
        "street": "Rua Narciso Forner",
        "zipcode": "13445-060"
    },
    {
        "city": "Engenheiro Coelho",
        "state": "SP",
        "district": "Parque das Indústrias",
        "street": "Rua Osmar da Cruz",
        "zipcode": "13445-044"
    },
    {
        "city": "Engenheiro Coelho",
        "state": "SP",
        "district": "Residencial Forner II",
        "street": "Rua Euzebio Batistela",
        "zipcode": "13445-076"
    },
    {
        "city": "Engenheiro Coelho",
        "state": "SP",
        "district": "Residencial João Favero",
        "street": "Rua Guilhermina Machado Carvalho",
        "zipcode": "13445-560"
    },
    {
        "city": "Engenheiro Coelho",
        "state": "SP",
        "district": "Jardim Mercedes Maria de Moraes",
        "street": "Rua Lauro Barbosa de Oliveira",
        "zipcode": "13445-428"
    },
    {
        "city": "Engenheiro Coelho",
        "state": "SP",
        "district": "Vila São Pedro",
        "street": "Rua José Francisco Guimarães",
        "zipcode": "13445-234"
    },
    {
        "city": "Engenheiro Coelho",
        "state": "SP",
        "district": "Residencial Forner",
        "street": "Rua Zacarias Barbosa de Oliveira",
        "zipcode": "13445-052"
    },
    {
        "city": "Engenheiro Coelho",
        "state": "SP",
        "district": "Jardim das Acácias",
        "street": "Rua Alexandre Bonin",
        "zipcode": "13445-548"
    },
    {
        "city": "Engenheiro Coelho",
        "state": "SP",
        "district": "Jardim Amália",
        "street": "Rua Erico Gustavo Nimtz",
        "zipcode": "13445-252"
    },
    {
        "city": "Engenheiro Coelho",
        "state": "SP",
        "district": "Jardim do Sol",
        "street": "Rua Amaro Franco de Oliveira",
        "zipcode": "13445-454"
    },
    {
        "city": "Engenheiro Coelho",
        "state": "SP",
        "district": "Jardim São Pedro",
        "street": "Rua João Scholl",
        "zipcode": "13445-300"
    },
    {
        "city": "Engenheiro Coelho",
        "state": "SP",
        "district": "Jardim São Pedro",
        "street": "Rua Abelardo Millares",
        "zipcode": "13445-292"
    },
    {
        "city": "Engenheiro Coelho",
        "state": "SP",
        "district": "Parque das Indústrias",
        "street": "Rua Domingos Franco de Oliveira",
        "zipcode": "13445-040"
    },
    {
        "city": "Engenheiro Coelho",
        "state": "SP",
        "district": "Jardim Mercedes Maria de Moraes",
        "street": "Rua Alice Benedito Hornhardt",
        "zipcode": "13445-436"
    },
    {
        "city": "Engenheiro Coelho",
        "state": "SP",
        "district": "Jardim Mercedes Maria de Moraes",
        "street": "Rua Armindo Longo",
        "zipcode": "13445-422"
    },
    {
        "city": "Engenheiro Coelho",
        "state": "SP",
        "district": "Jardim Mercedes Maria de Moraes",
        "street": "Rua Luiz Favero",
        "zipcode": "13445-420"
    },
    {
        "city": "Engenheiro Coelho",
        "state": "SP",
        "district": "Jardim Angelo Forner",
        "street": "Rua João Berton",
        "zipcode": "13445-228"
    },
    {
        "city": "Engenheiro Coelho",
        "state": "SP",
        "district": "Jardim das Acácias",
        "street": "Rua Benedito Cunha Guedes",
        "zipcode": "13445-550"
    },
    {
        "city": "Engenheiro Coelho",
        "state": "SP",
        "district": "Residencial Forner",
        "street": "Avenida Angelo Forner",
        "zipcode": "13445-064"
    },
    {
        "city": "Engenheiro Coelho",
        "state": "SP",
        "district": "Vila São Pedro",
        "street": "Rua Secundino Guidotti",
        "zipcode": "13445-236"
    },
    {
        "city": "Engenheiro Coelho",
        "state": "SP",
        "district": "Jardim das Acácias",
        "street": "Rua Amalia Sia Favero",
        "zipcode": "13445-540"
    },
    {
        "city": "Engenheiro Coelho",
        "state": "SP",
        "district": "Jardim Luiz Fávero",
        "street": "Rua Alfredo Correia da Rocha",
        "zipcode": "13445-472"
    },
    {
        "city": "Engenheiro Coelho",
        "state": "SP",
        "district": "Jardim América",
        "street": "Rua Minas Gerais",
        "zipcode": "13445-272"
    },
    {
        "city": "Engenheiro Coelho",
        "state": "SP",
        "district": "Jardim Luiz Fávero",
        "street": "Rua Cândido Mulla Arnaldo",
        "zipcode": "13445-480"
    },
    {
        "city": "Engenheiro Coelho",
        "state": "SP",
        "district": "Jardim São Paulo",
        "street": "Rua Silvano Franco de Oliveira",
        "zipcode": "13445-368"
    },
    {
        "city": "Engenheiro Coelho",
        "state": "SP",
        "district": "Jardim Luiz Fávero",
        "street": "Rua Celina Cavalheiro Francischetti",
        "zipcode": "13445-470"
    },
    {
        "city": "Engenheiro Coelho",
        "state": "SP",
        "district": "Parque das Indústrias",
        "street": "Rua Dionisio Berton",
        "zipcode": "13445-042"
    },
    {
        "city": "Engenheiro Coelho",
        "state": "SP",
        "district": "Jardim Angelo Forner",
        "street": "Rua Júlio Cardoso de Moraes",
        "zipcode": "13445-224"
    },
    {
        "city": "Engenheiro Coelho",
        "state": "SP",
        "district": "Parque das Indústrias",
        "street": "Rua José Gazotto Sobrinho",
        "zipcode": "13445-038"
    },
    {
        "city": "Engenheiro Coelho",
        "state": "SP",
        "district": "Eldorado I",
        "street": "Rua Benedita Neves de Oliveira",
        "zipcode": "13445-522"
    },
    {
        "city": "Engenheiro Coelho",
        "state": "SP",
        "district": "Jardim Brasil",
        "street": "Rua Sebastião Lopes Primo",
        "zipcode": "13445-382"
    },
    {
        "city": "Engenheiro Coelho",
        "state": "SP",
        "district": "Centro",
        "street": "Avenida Pedro Forner",
        "zipcode": "13445-019"
    },
    {
        "city": "Engenheiro Coelho",
        "state": "SP",
        "district": "Jardim das Acácias",
        "street": "Rua Guilhermina Machado Carvalho",
        "zipcode": "13445-558"
    }
]