[
    {
        "city": "Espírito Santo do Turvo",
        "state": "SP",
        "district": "",
        "street": "",
        "zipcode": "18935-000"
    },
    {
        "city": "Espírito Santo do Turvo",
        "state": "SP",
        "district": "Centro",
        "street": "Rua Eli Fonsaca",
        "zipcode": "18935-011"
    },
    {
        "city": "Espírito Santo do Turvo",
        "state": "SP",
        "district": "Jardim Zanata",
        "street": "Rua José Gonçalves",
        "zipcode": "18935-050"
    },
    {
        "city": "Espírito Santo do Turvo",
        "state": "SP",
        "district": "Centro",
        "street": "Rua Francisco Jose Martins",
        "zipcode": "18935-025"
    },
    {
        "city": "Espírito Santo do Turvo",
        "state": "SP",
        "district": "Jardim Canaã",
        "street": "Rua Doutor Nelson Lourenço Camolesi",
        "zipcode": "18937-004"
    },
    {
        "city": "Espírito Santo do Turvo",
        "state": "SP",
        "district": "Jardim Canaã",
        "street": "Rua João Caetano Pacheco",
        "zipcode": "18937-014"
    },
    {
        "city": "Espírito Santo do Turvo",
        "state": "SP",
        "district": "Jardim Canaã",
        "street": "Rua Francisco Martins Lopes",
        "zipcode": "18937-010"
    },
    {
        "city": "Espírito Santo do Turvo",
        "state": "SP",
        "district": "Centro",
        "street": "Rua João Eugênio",
        "zipcode": "18935-039"
    },
    {
        "city": "Espírito Santo do Turvo",
        "state": "SP",
        "district": "Jardim Vitória",
        "street": "Rua Lauro Prado Nascimento",
        "zipcode": "18935-104"
    },
    {
        "city": "Espírito Santo do Turvo",
        "state": "SP",
        "district": "Jardim Vitória",
        "street": "Rua João Eugênio",
        "zipcode": "18935-110"
    },
    {
        "city": "Espírito Santo do Turvo",
        "state": "SP",
        "district": "Jardim Nova Esperança",
        "street": "Rua Henrique Corumbaba",
        "zipcode": "18935-080"
    },
    {
        "city": "Espírito Santo do Turvo",
        "state": "SP",
        "district": "Jardim Zanata",
        "street": "Rua João Eugênio",
        "zipcode": "18935-062"
    },
    {
        "city": "Espírito Santo do Turvo",
        "state": "SP",
        "district": "Centro",
        "street": "Rua José Gonçalves",
        "zipcode": "18935-029"
    },
    {
        "city": "Espírito Santo do Turvo",
        "state": "SP",
        "district": "Centro",
        "street": "Rua José Afonso do Nascimento",
        "zipcode": "18935-015"
    },
    {
        "city": "Espírito Santo do Turvo",
        "state": "SP",
        "district": "Centro",
        "street": "Rua João XXIII",
        "zipcode": "18935-033"
    },
    {
        "city": "Espírito Santo do Turvo",
        "state": "SP",
        "district": "Jardim Zanata",
        "street": "Rua João Zanata",
        "zipcode": "18935-058"
    },
    {
        "city": "Espírito Santo do Turvo",
        "state": "SP",
        "district": "Centro",
        "street": "Rua João Gonçalves",
        "zipcode": "18935-041"
    },
    {
        "city": "Espírito Santo do Turvo",
        "state": "SP",
        "district": "Jardim Canaã",
        "street": "Rua Lino dos Santos",
        "zipcode": "18937-000"
    },
    {
        "city": "Espírito Santo do Turvo",
        "state": "SP",
        "district": "Jardim Nova Esperança",
        "street": "Rua João Zanata",
        "zipcode": "18935-088"
    },
    {
        "city": "Espírito Santo do Turvo",
        "state": "SP",
        "district": "Centro",
        "street": "Rua Dante Manfrim",
        "zipcode": "18935-003"
    },
    {
        "city": "Espírito Santo do Turvo",
        "state": "SP",
        "district": "Jardim Vitória",
        "street": "Rua José Pereira",
        "zipcode": "18935-106"
    },
    {
        "city": "Espírito Santo do Turvo",
        "state": "SP",
        "district": "Área Rural de Espírito Santo do Turvo",
        "street": "Área Rural",
        "zipcode": "18939-899"
    },
    {
        "city": "Espírito Santo do Turvo",
        "state": "SP",
        "district": "Centro",
        "street": "Rua Acácio Trindade de Mello",
        "zipcode": "18935-017"
    },
    {
        "city": "Espírito Santo do Turvo",
        "state": "SP",
        "district": "Jardim Zanata",
        "street": "Rua Francisco José Martins",
        "zipcode": "18935-066"
    },
    {
        "city": "Espírito Santo do Turvo",
        "state": "SP",
        "district": "Jardim Canaã",
        "street": "Rua André Luciano Retz",
        "zipcode": "18937-008"
    },
    {
        "city": "Espírito Santo do Turvo",
        "state": "SP",
        "district": "Centro",
        "street": "Rua Antonio Martins",
        "zipcode": "18935-023"
    },
    {
        "city": "Espírito Santo do Turvo",
        "state": "SP",
        "district": "Jardim Nova Esperança",
        "street": "Rua Aureliano Marques",
        "zipcode": "18935-086"
    },
    {
        "city": "Espírito Santo do Turvo",
        "state": "SP",
        "district": "Jardim Vitória",
        "street": "Rua João Zanata",
        "zipcode": "18935-102"
    },
    {
        "city": "Espírito Santo do Turvo",
        "state": "SP",
        "district": "Jardim Canaã",
        "street": "Rua Dante Manfrim",
        "zipcode": "18937-006"
    },
    {
        "city": "Espírito Santo do Turvo",
        "state": "SP",
        "district": "Centro",
        "street": "Rua Virgilio Gonçalves",
        "zipcode": "18935-007"
    },
    {
        "city": "Espírito Santo do Turvo",
        "state": "SP",
        "district": "Jardim Zanata",
        "street": "Rua Lauro Prado Nascimento",
        "zipcode": "18935-060"
    },
    {
        "city": "Espírito Santo do Turvo",
        "state": "SP",
        "district": "Jardim Zanata",
        "street": "Rua Henrique Corumbaba",
        "zipcode": "18935-054"
    },
    {
        "city": "Espírito Santo do Turvo",
        "state": "SP",
        "district": "Jardim Zanata",
        "street": "Rua Afonso Nascimento",
        "zipcode": "18935-070"
    },
    {
        "city": "Espírito Santo do Turvo",
        "state": "SP",
        "district": "Centro",
        "street": "Avenida João Dias Junior",
        "zipcode": "18935-009"
    },
    {
        "city": "Espírito Santo do Turvo",
        "state": "SP",
        "district": "Jardim Canaã",
        "street": "Rua Ayrton Senna",
        "zipcode": "18937-016"
    },
    {
        "city": "Espírito Santo do Turvo",
        "state": "SP",
        "district": "Jardim Nova Esperança",
        "street": "Rua José Pereira",
        "zipcode": "18935-082"
    },
    {
        "city": "Espírito Santo do Turvo",
        "state": "SP",
        "district": "Jardim Vitória",
        "street": "Rua Aureliano Marques",
        "zipcode": "18935-100"
    },
    {
        "city": "Espírito Santo do Turvo",
        "state": "SP",
        "district": "Jardim Zanata",
        "street": "Rua Luis Bertolino",
        "zipcode": "18935-052"
    },
    {
        "city": "Espírito Santo do Turvo",
        "state": "SP",
        "district": "Jardim Canaã",
        "street": "Rua Carlos Libero Sasso",
        "zipcode": "18937-024"
    },
    {
        "city": "Espírito Santo do Turvo",
        "state": "SP",
        "district": "Centro",
        "street": "Rua Orlando Manfrim",
        "zipcode": "18935-027"
    },
    {
        "city": "Espírito Santo do Turvo",
        "state": "SP",
        "district": "Jardim Canaã",
        "street": "Rua Waldemar Zanatta",
        "zipcode": "18937-018"
    },
    {
        "city": "Espírito Santo do Turvo",
        "state": "SP",
        "district": "Jardim Canaã",
        "street": "Rua Sebastiana Rodrigues Santos Molitor",
        "zipcode": "18937-002"
    },
    {
        "city": "Espírito Santo do Turvo",
        "state": "SP",
        "district": "Centro",
        "street": "Rua Paraná",
        "zipcode": "18935-035"
    },
    {
        "city": "Espírito Santo do Turvo",
        "state": "SP",
        "district": "Centro",
        "street": "Rua Rui Barbosa",
        "zipcode": "18935-019"
    },
    {
        "city": "Espírito Santo do Turvo",
        "state": "SP",
        "district": "Centro",
        "street": "Rua São Paulo",
        "zipcode": "18935-037"
    },
    {
        "city": "Espírito Santo do Turvo",
        "state": "SP",
        "district": "Jardim Vitória",
        "street": "Rua Pedro Assunção Nascimento Duarte",
        "zipcode": "18935-108"
    },
    {
        "city": "Espírito Santo do Turvo",
        "state": "SP",
        "district": "Centro",
        "street": "Rua 1° de Abril",
        "zipcode": "18935-013"
    },
    {
        "city": "Espírito Santo do Turvo",
        "state": "SP",
        "district": "Jardim Zanata",
        "street": "Rua Sonia Regina Nascimento",
        "zipcode": "18935-056"
    },
    {
        "city": "Espírito Santo do Turvo",
        "state": "SP",
        "district": "Centro",
        "street": "Rua Santa Catarina",
        "zipcode": "18935-043"
    },
    {
        "city": "Espírito Santo do Turvo",
        "state": "SP",
        "district": "Jardim Vitória",
        "street": "Rua Ana Geralda de Oliveira Carneiro",
        "zipcode": "18935-112"
    },
    {
        "city": "Espírito Santo do Turvo",
        "state": "SP",
        "district": "Jardim Zanata",
        "street": "Rua Benedito Quirino da Silva",
        "zipcode": "18935-064"
    },
    {
        "city": "Espírito Santo do Turvo",
        "state": "SP",
        "district": "Jardim Canaã",
        "street": "Rua Francisca Bigaratto",
        "zipcode": "18937-012"
    },
    {
        "city": "Espírito Santo do Turvo",
        "state": "SP",
        "district": "Jardim Canaã",
        "street": "Rua Joaquim dos Santos",
        "zipcode": "18937-022"
    },
    {
        "city": "Espírito Santo do Turvo",
        "state": "SP",
        "district": "Jardim Canaã",
        "street": "Rua Pedro Estanislau Malanche",
        "zipcode": "18937-020"
    },
    {
        "city": "Espírito Santo do Turvo",
        "state": "SP",
        "district": "Jardim Nova Esperança",
        "street": "Rua Sonia Regina Nascimento",
        "zipcode": "18935-084"
    },
    {
        "city": "Espírito Santo do Turvo",
        "state": "SP",
        "district": "Centro",
        "street": "Rua Idarilho Gonçalves Nascimento",
        "zipcode": "18935-001"
    },
    {
        "city": "Espírito Santo do Turvo",
        "state": "SP",
        "district": "Centro",
        "street": "Rua João XXII",
        "zipcode": "18935-031"
    },
    {
        "city": "Espírito Santo do Turvo",
        "state": "SP",
        "district": "Centro",
        "street": "Rua Maria Perpétua Piedade Gonçalves",
        "zipcode": "18935-970"
    },
    {
        "city": "Espírito Santo do Turvo",
        "state": "SP",
        "district": "Jardim Nova Esperança",
        "street": "Rua Lauro Prado Nascimento",
        "zipcode": "18935-090"
    },
    {
        "city": "Espírito Santo do Turvo",
        "state": "SP",
        "district": "Centro",
        "street": "Rua Sete de Setembro",
        "zipcode": "18935-005"
    },
    {
        "city": "Espírito Santo do Turvo",
        "state": "SP",
        "district": "Jardim Zanata",
        "street": "Rua Ana Geralda de Oliveira Carneiro",
        "zipcode": "18935-068"
    },
    {
        "city": "Espírito Santo do Turvo",
        "state": "SP",
        "district": "Centro",
        "street": "Rua Maria Perpétua Piedade Gonçalves",
        "zipcode": "18935-021"
    }
]