[
    {
        "city": "Ferraz De Vasconcelos",
        "state": "SP",
        "district": "Vila Santo Antonio",
        "street": "Rua Aimores",
        "zipcode": "08535-220"
    },
    {
        "city": "Ferraz De Vasconcelos",
        "state": "SP",
        "district": "Vila Santo Antonio",
        "street": "Rua Guarandi",
        "zipcode": "08535-230"
    },
    {
        "city": "Ferraz De Vasconcelos",
        "state": "SP",
        "district": "Jardim Metropole",
        "street": "Rua Sao Jorge",
        "zipcode": "08503-350"
    },
    {
        "city": "Ferraz De Vasconcelos",
        "state": "SP",
        "district": "Vila Ana Maria",
        "street": "Rua Walt Disney",
        "zipcode": "08527-070"
    },
    {
        "city": "Ferraz De Vasconcelos",
        "state": "SP",
        "district": "Parque Imperial",
        "street": "Rua Benedito Cardoso Filho",
        "zipcode": "08506-225"
    },
    {
        "city": "Ferraz De Vasconcelos",
        "state": "SP",
        "district": "Jardim Temporim",
        "street": "Rua Tito Temporim",
        "zipcode": "08544-700"
    },
    {
        "city": "Ferraz De Vasconcelos",
        "state": "SP",
        "district": "Jardim Sao Joao",
        "street": "Rua Vitoria Behati",
        "zipcode": "08535-240"
    },
    {
        "city": "Ferraz De Vasconcelos",
        "state": "SP",
        "district": "Vila Pery",
        "street": "Rua Francisco Saturnino De Andrade",
        "zipcode": "08534-310"
    },
    {
        "city": "Ferraz De Vasconcelos",
        "state": "SP",
        "district": "Parque Dourado",
        "street": "Rua Banze",
        "zipcode": "08510-130"
    },
    {
        "city": "Ferraz De Vasconcelos",
        "state": "SP",
        "district": "Jardim Fanganiello",
        "street": "Rua Oito",
        "zipcode": "08535-320"
    },
    {
        "city": "Ferraz De Vasconcelos",
        "state": "SP",
        "district": "Jardim Sol Nascente",
        "street": "Rua Marechal Arthur Costa E Silva",
        "zipcode": "08502-130"
    },
    {
        "city": "Ferraz De Vasconcelos",
        "state": "SP",
        "district": "Nucleo Itaim",
        "street": "Rua Antonio Ruvolo",
        "zipcode": "08539-300"
    },
    {
        "city": "Ferraz De Vasconcelos",
        "state": "SP",
        "district": "Vila Bianchi",
        "street": "Rua Brasilina Rodrigues Da Silva",
        "zipcode": "08504-230"
    },
    {
        "city": "Ferraz De Vasconcelos",
        "state": "SP",
        "district": "Jardim Anchieta",
        "street": "Rua Xingu",
        "zipcode": "08535-245"
    },
    {
        "city": "Ferraz De Vasconcelos",
        "state": "SP",
        "district": "Vila Sao Joao",
        "street": "Rua Francisca Antonia Leite",
        "zipcode": "08545-060"
    },
    {
        "city": "Ferraz De Vasconcelos",
        "state": "SP",
        "district": "Jardim San Giovani",
        "street": "Rua Japao",
        "zipcode": "08500-065"
    },
    {
        "city": "Ferraz De Vasconcelos",
        "state": "SP",
        "district": "Jardim Do Papai",
        "street": "Rua Particular",
        "zipcode": "08505-360"
    },
    {
        "city": "Ferraz De Vasconcelos",
        "state": "SP",
        "district": "Jardim Brigida",
        "street": "Rua Nove",
        "zipcode": "08536-030"
    },
    {
        "city": "Ferraz De Vasconcelos",
        "state": "SP",
        "district": "Jardim Melilo",
        "street": "Rua Peru",
        "zipcode": "08505-370"
    },
    {
        "city": "Ferraz De Vasconcelos",
        "state": "SP",
        "district": "Vila Sao Paulo",
        "street": "Rua Benedito Paulino",
        "zipcode": "08505-140"
    },
    {
        "city": "Ferraz De Vasconcelos",
        "state": "SP",
        "district": "Jardim Nove De Julho",
        "street": "Rua Euclides Da Cunha",
        "zipcode": "08500-155"
    },
    {
        "city": "Ferraz De Vasconcelos",
        "state": "SP",
        "district": "Jardim Fanganiello",
        "street": "Avenida Da Abolicao",
        "zipcode": "08535-330"
    },
    {
        "city": "Ferraz De Vasconcelos",
        "state": "SP",
        "district": "Jardim Planalto Bancario",
        "street": "Rua Elis Regina",
        "zipcode": "08532-360"
    },
    {
        "city": "Ferraz De Vasconcelos",
        "state": "SP",
        "district": "Vila Godinho",
        "street": "Rua Abilio Godinho",
        "zipcode": "08503-120"
    }
]