[
    {
        "city": "Franco Da Rocha",
        "state": "SP",
        "district": "Jardim Uniao",
        "street": "Avenida Diadema",
        "zipcode": "07842-230"
    },
    {
        "city": "Franco Da Rocha",
        "state": "SP",
        "district": "Jardim Luciana",
        "street": "Rua Gralha",
        "zipcode": "07810-450"
    },
    {
        "city": "Franco Da Rocha",
        "state": "SP",
        "district": "Jardim Luciana",
        "street": "Rua Bem",
        "zipcode": "07810-460"
    },
    {
        "city": "Franco Da Rocha",
        "state": "SP",
        "district": "Vila Bazu",
        "street": "Rua Rangel Pestana",
        "zipcode": "07840-060"
    },
    {
        "city": "Franco Da Rocha",
        "state": "SP",
        "district": "Vila Zanela",
        "street": "Rua Jose Francisco Teixeira",
        "zipcode": "07850-030"
    },
    {
        "city": "Franco Da Rocha",
        "state": "SP",
        "district": "Jardim Uniao",
        "street": "Avenida Jose Alves Cerqueira Cesar",
        "zipcode": "07842-220"
    },
    {
        "city": "Franco Da Rocha",
        "state": "SP",
        "district": "Jardim Cruzeiro",
        "street": "Rua Heitor Rodrigues Santos",
        "zipcode": "07807-230"
    },
    {
        "city": "Franco Da Rocha",
        "state": "SP",
        "district": "Jardim Uniao",
        "street": "Avenida Ceci",
        "zipcode": "07842-270"
    },
    {
        "city": "Franco Da Rocha",
        "state": "SP",
        "district": "Companhia Fazenda Belem",
        "street": "Vila Oito B",
        "zipcode": "07803-150"
    },
    {
        "city": "Franco Da Rocha",
        "state": "SP",
        "district": "Jardim Luciana",
        "street": "Rua Pintassilgo",
        "zipcode": "07810-440"
    },
    {
        "city": "Franco Da Rocha",
        "state": "SP",
        "district": "Jardim Luciana",
        "street": "Rua Flamingo",
        "zipcode": "07810-490"
    },
    {
        "city": "Franco Da Rocha",
        "state": "SP",
        "district": "Vila Ramos",
        "street": "Estrada Do Governo",
        "zipcode": "07858-600"
    },
    {
        "city": "Franco Da Rocha",
        "state": "SP",
        "district": "Companhia Fazenda Belem",
        "street": "Vila Sete",
        "zipcode": "07803-170"
    },
    {
        "city": "Franco Da Rocha",
        "state": "SP",
        "district": "Jardim Dos Bandeirantes",
        "street": "Rua Dos Ibiscos",
        "zipcode": "07830-260"
    },
    {
        "city": "Franco Da Rocha",
        "state": "SP",
        "district": "Jardim Uniao",
        "street": "Rua Placida",
        "zipcode": "07842-250"
    },
    {
        "city": "Franco Da Rocha",
        "state": "SP",
        "district": "Jardim Dos Bandeirantes",
        "street": "Rua Ipes",
        "zipcode": "07830-040"
    },
    {
        "city": "Franco Da Rocha",
        "state": "SP",
        "district": "Jardim Uniao",
        "street": "Avenida Aparecido Rodrigues Silva",
        "zipcode": "07842-200"
    }
]