[
    {
        "city": "Guaratingueta",
        "state": "SP",
        "district": "Rocinha",
        "street": "Praça A",
        "zipcode": "12503-190"
    },
    {
        "city": "Guaratingueta",
        "state": "SP",
        "district": "Rocinha",
        "street": "Rua Seis",
        "zipcode": "12503-210"
    },
    {
        "city": "Guaratingueta",
        "state": "SP",
        "district": "Rocinha",
        "street": "Rua Dois",
        "zipcode": "12503-200"
    },
    {
        "city": "Guaratingueta",
        "state": "SP",
        "district": "Parque Das Arvores",
        "street": "Rua Alexandre Fleming",
        "zipcode": "12509-010"
    },
    {
        "city": "Guaratingueta",
        "state": "SP",
        "district": "Rocinha",
        "street": "Rua Um",
        "zipcode": "12503-230"
    },
    {
        "city": "Guaratingueta",
        "state": "SP",
        "district": "Rocinha",
        "street": "Estrada Municipal",
        "zipcode": "12503-170"
    },
    {
        "city": "Guaratingueta",
        "state": "SP",
        "district": "Jardim Residencial Alvorada",
        "street": "Rua Dois",
        "zipcode": "12508-390"
    },
    {
        "city": "Guaratingueta",
        "state": "SP",
        "district": "Altos De Sao Joao",
        "street": "Rua Dos Radialistas",
        "zipcode": "12503-150"
    },
    {
        "city": "Guaratingueta",
        "state": "SP",
        "district": "Rocinha",
        "street": "Rua Tres",
        "zipcode": "12503-220"
    },
    {
        "city": "Guaratingueta",
        "state": "SP",
        "district": "Rocinha",
        "street": "Rodovia Estadual Paulo Virgilio",
        "zipcode": "12503-180"
    },
    {
        "city": "Guaratingueta",
        "state": "SP",
        "district": "Residencial Olimpio",
        "street": "Rua Quintino Bocaiuva",
        "zipcode": "12516-560"
    },
    {
        "city": "Guaratingueta",
        "state": "SP",
        "district": "Jardim Perola",
        "street": "Rua B",
        "zipcode": "12516-080"
    },
    {
        "city": "Guaratingueta",
        "state": "SP",
        "district": "Jardim Coelho Neto",
        "street": "Rua Guaicurus",
        "zipcode": "12514-120"
    },
    {
        "city": "Guaratingueta",
        "state": "SP",
        "district": "Residencial Olimpio",
        "street": "Rua Riachuelo",
        "zipcode": "12516-620"
    },
    {
        "city": "Guaratingueta",
        "state": "SP",
        "district": "Jardim Independencia",
        "street": "Travessa Oswaldo Cavalca",
        "zipcode": "12514-240"
    },
    {
        "city": "Guaratingueta",
        "state": "SP",
        "district": "Residencial Olimpio",
        "street": "Rua Humaita",
        "zipcode": "12516-600"
    },
    {
        "city": "Guaratingueta",
        "state": "SP",
        "district": "Residencial Olimpio",
        "street": "Rua Dom Joao Vi",
        "zipcode": "12516-570"
    },
    {
        "city": "Guaratingueta",
        "state": "SP",
        "district": "Residencial Olimpio",
        "street": "Rua Aristides Lobo",
        "zipcode": "12516-540"
    },
    {
        "city": "Guaratingueta",
        "state": "SP",
        "district": "Altos De Sao Joao",
        "street": "Rua Carlos Caneiu",
        "zipcode": "12503-140"
    },
    {
        "city": "Guaratingueta",
        "state": "SP",
        "district": "Pedregulho",
        "street": "Rua Oizumi",
        "zipcode": "12514-190"
    },
    {
        "city": "Guaratingueta",
        "state": "SP",
        "district": "Parque Das Arvores",
        "street": "Rua Deolinda Da Costa",
        "zipcode": "12509-040"
    },
    {
        "city": "Guaratingueta",
        "state": "SP",
        "district": "Pedregulho",
        "street": "Rua Caramurus",
        "zipcode": "12514-140"
    },
    {
        "city": "Guaratingueta",
        "state": "SP",
        "district": "Parque Das Arvores",
        "street": "Rua Carlos Motta",
        "zipcode": "12509-020"
    },
    {
        "city": "Guaratingueta",
        "state": "SP",
        "district": "Residencial Olimpio",
        "street": "Rua Jose Do Patrocinio",
        "zipcode": "12516-550"
    },
    {
        "city": "Guaratingueta",
        "state": "SP",
        "district": "Jardim Perola",
        "street": "Rua A",
        "zipcode": "12516-060"
    },
    {
        "city": "Guaratingueta",
        "state": "SP",
        "district": "Residencial Olimpio",
        "street": "Rua Teofilo Ottoni",
        "zipcode": "12516-520"
    },
    {
        "city": "Guaratingueta",
        "state": "SP",
        "district": "Residencial Olimpio",
        "street": "Rua Dom Pedro I",
        "zipcode": "12516-580"
    },
    {
        "city": "Guaratingueta",
        "state": "SP",
        "district": "Engenheiro Neiva",
        "street": "Avenida Isopor",
        "zipcode": "12521-150"
    },
    {
        "city": "Guaratingueta",
        "state": "SP",
        "district": "Jardim Perola",
        "street": "Rua F",
        "zipcode": "12516-040"
    },
    {
        "city": "Guaratingueta",
        "state": "SP",
        "district": "Pedregulho",
        "street": "Rua Leide",
        "zipcode": "12514-150"
    },
    {
        "city": "Guaratingueta",
        "state": "SP",
        "district": "Pedregulho",
        "street": "Praça Treze De Maio",
        "zipcode": "12515-740"
    },
    {
        "city": "Guaratingueta",
        "state": "SP",
        "district": "Residencial Olimpio",
        "street": "Rua Guararapes",
        "zipcode": "12516-610"
    },
    {
        "city": "Guaratingueta",
        "state": "SP",
        "district": "Cecap (Pedregulho)",
        "street": "Rua Frei Pedro Crisologo Maceno",
        "zipcode": "12514-670"
    },
    {
        "city": "Guaratingueta",
        "state": "SP",
        "district": "Altos De Sao Joao",
        "street": "Rua Pires Do Rio",
        "zipcode": "12503-100"
    },
    {
        "city": "Guaratingueta",
        "state": "SP",
        "district": "Altos De Sao Joao",
        "street": "Rua Prof. Anisio Novaes",
        "zipcode": "12503-130"
    },
    {
        "city": "Guaratingueta",
        "state": "SP",
        "district": "Residencial Olimpio",
        "street": "Rua Tuiuti",
        "zipcode": "12516-590"
    },
    {
        "city": "Guaratingueta",
        "state": "SP",
        "district": "Residencial Olimpio",
        "street": "Rua Imperatriz Leopoldina",
        "zipcode": "12516-530"
    },
    {
        "city": "Guaratingueta",
        "state": "SP",
        "district": "Parque Das Arvores",
        "street": "Rua Agostinho Simoes De Campos",
        "zipcode": "12509-050"
    },
    {
        "city": "Guaratingueta",
        "state": "SP",
        "district": "Vila Paraiba",
        "street": "Rua Antonio Ribeiro Da Cunha",
        "zipcode": "12515-600"
    },
    {
        "city": "Guaratingueta",
        "state": "SP",
        "district": "Loteamento Residencial Augusto Felippo",
        "street": "Rua Comandante Salgado",
        "zipcode": "12504-050"
    },
    {
        "city": "Guaratingueta",
        "state": "SP",
        "district": "Jardim Perola",
        "street": "Rua C",
        "zipcode": "12516-020"
    },
    {
        "city": "Guaratingueta",
        "state": "SP",
        "district": "Pedregulho",
        "street": "Praça Nossa Senhora Da Gloria",
        "zipcode": "12515-750"
    },
    {
        "city": "Guaratingueta",
        "state": "SP",
        "district": "Jardim Santa Edwirges",
        "street": "Rua Tres",
        "zipcode": "12512-430"
    },
    {
        "city": "Guaratingueta",
        "state": "SP",
        "district": "Parque Das Arvores",
        "street": "Rua Irma Maria Benigna Do Divino Coracao",
        "zipcode": "12509-030"
    },
    {
        "city": "Guaratingueta",
        "state": "SP",
        "district": "Nova Guara",
        "street": "Rua Princesa Izabel",
        "zipcode": "12516-500"
    }
]