[
    {
        "city": "Hortolandia",
        "state": "SP",
        "district": "Vila Real",
        "street": "Rua I",
        "zipcode": "13183-262"
    },
    {
        "city": "Hortolandia",
        "state": "SP",
        "district": "Vila Sao Pedro",
        "street": "Rua Cinco",
        "zipcode": "13183-032"
    },
    {
        "city": "Hortolandia",
        "state": "SP",
        "district": "Vila Sao Pedro",
        "street": "Rua Candido Figueiredo Breda",
        "zipcode": "13183-081"
    },
    {
        "city": "Hortolandia",
        "state": "SP",
        "district": "Jardim Santa Izabel",
        "street": "Rua Circular Um",
        "zipcode": "13185-291"
    },
    {
        "city": "Hortolandia",
        "state": "SP",
        "district": "Jardim Nossa Senhora Auxiliadora",
        "street": "Rua Trinta E Quatro",
        "zipcode": "13183-552"
    },
    {
        "city": "Hortolandia",
        "state": "SP",
        "district": "Chacara Recreio Alvorada",
        "street": "Rua L",
        "zipcode": "13183-753"
    },
    {
        "city": "Hortolandia",
        "state": "SP",
        "district": "Vila Real",
        "street": "Rua Vinte E Tres",
        "zipcode": "13183-253"
    },
    {
        "city": "Hortolandia",
        "state": "SP",
        "district": "Jardim Nossa Senhora Auxiliadora",
        "street": "Rua Quarenta",
        "zipcode": "13183-570"
    },
    {
        "city": "Hortolandia",
        "state": "SP",
        "district": "Vila Sao Pedro",
        "street": "Rua Seis",
        "zipcode": "13183-033"
    },
    {
        "city": "Hortolandia",
        "state": "SP",
        "district": "Jardim Nossa Senhora Auxiliadora",
        "street": "Rua Trinta E Cinco",
        "zipcode": "13183-560"
    },
    {
        "city": "Hortolandia",
        "state": "SP",
        "district": "Jardim Nossa Senhora Auxiliadora",
        "street": "Avenida Dezoito",
        "zipcode": "13183-511"
    },
    {
        "city": "Hortolandia",
        "state": "SP",
        "district": "Jardim Rosolem",
        "street": "Rua Seis",
        "zipcode": "13185-315"
    },
    {
        "city": "Hortolandia",
        "state": "SP",
        "district": "Jardim Sao Bento",
        "street": "Rua Trinta E Cinco",
        "zipcode": "13187-125"
    },
    {
        "city": "Hortolandia",
        "state": "SP",
        "district": "Jardim Amanda Ii",
        "street": "Rua Cinco",
        "zipcode": "13188-241"
    },
    {
        "city": "Hortolandia",
        "state": "SP",
        "district": "Parque Hortolandia",
        "street": "Rua Caetano Basso",
        "zipcode": "13184-240"
    },
    {
        "city": "Hortolandia",
        "state": "SP",
        "district": "Jardim Nossa Senhora Auxiliadora",
        "street": "Rua Trinta E Nove",
        "zipcode": "13183-564"
    },
    {
        "city": "Hortolandia",
        "state": "SP",
        "district": "Jardim Amanda I",
        "street": "Rua Trinta E Tres",
        "zipcode": "13188-102"
    },
    {
        "city": "Hortolandia",
        "state": "SP",
        "district": "Jardim Rosolem",
        "street": "Rua Dez",
        "zipcode": "13185-303"
    },
    {
        "city": "Hortolandia",
        "state": "SP",
        "district": "Jardim Santa Izabel",
        "street": "Rua Circular Dois",
        "zipcode": "13185-292"
    },
    {
        "city": "Hortolandia",
        "state": "SP",
        "district": "Jardim Sumarezinho",
        "street": "Rua P",
        "zipcode": "13185-032"
    },
    {
        "city": "Hortolandia",
        "state": "SP",
        "district": "Jardim Das Colinas",
        "street": "Rua Dois",
        "zipcode": "13183-071"
    },
    {
        "city": "Hortolandia",
        "state": "SP",
        "district": "Recanto Campineiro",
        "street": "Avenida Reboucas",
        "zipcode": "13184-400"
    },
    {
        "city": "Hortolandia",
        "state": "SP",
        "district": "Jardim Das Colinas",
        "street": "Rua Sete",
        "zipcode": "13183-076"
    },
    {
        "city": "Hortolandia",
        "state": "SP",
        "district": "Jardim Sao Bento",
        "street": "Rua Trinta E Um",
        "zipcode": "13187-121"
    },
    {
        "city": "Hortolandia",
        "state": "SP",
        "district": "Jardim Das Colinas",
        "street": "Rua Quatro",
        "zipcode": "13183-073"
    },
    {
        "city": "Hortolandia",
        "state": "SP",
        "district": "Recanto Campineiro",
        "street": "Rua Quatro",
        "zipcode": "13184-482"
    },
    {
        "city": "Hortolandia",
        "state": "SP",
        "district": "Jardim Das Colinas",
        "street": "Rua Cinco",
        "zipcode": "13183-074"
    },
    {
        "city": "Hortolandia",
        "state": "SP",
        "district": "Jardim Das Colinas",
        "street": "Rua Tres",
        "zipcode": "13183-072"
    },
    {
        "city": "Hortolandia",
        "state": "SP",
        "district": "Jardim Sao Bento",
        "street": "Rua Trinta E Dois",
        "zipcode": "13187-122"
    },
    {
        "city": "Hortolandia",
        "state": "SP",
        "district": "Vila Sao Pedro",
        "street": "Rua Quatro",
        "zipcode": "13183-031"
    },
    {
        "city": "Hortolandia",
        "state": "SP",
        "district": "Jardim Nossa Senhora Auxiliadora",
        "street": "Rua Quarenta E Dois",
        "zipcode": "13183-572"
    },
    {
        "city": "Hortolandia",
        "state": "SP",
        "district": "Jardim Das Colinas",
        "street": "Rua Um",
        "zipcode": "13183-070"
    },
    {
        "city": "Hortolandia",
        "state": "SP",
        "district": "Recanto Campineiro",
        "street": "Rua Jose Camargo",
        "zipcode": "13184-370"
    },
    {
        "city": "Hortolandia",
        "state": "SP",
        "district": "Jardim Sao Bento",
        "street": "Rua Trinta E Tres",
        "zipcode": "13187-123"
    },
    {
        "city": "Hortolandia",
        "state": "SP",
        "district": "Vila Inena",
        "street": "Rua A",
        "zipcode": "13185-130"
    },
    {
        "city": "Hortolandia",
        "state": "SP",
        "district": "Jardim Nossa Senhora De Fatima",
        "street": "Rua Quinze",
        "zipcode": "13185-440"
    },
    {
        "city": "Hortolandia",
        "state": "SP",
        "district": "Jardim Do Bras",
        "street": "Rua Quatro",
        "zipcode": "13185-103"
    },
    {
        "city": "Hortolandia",
        "state": "SP",
        "district": "Jardim Sao Bento",
        "street": "Rua Trinta E Quatro",
        "zipcode": "13187-124"
    },
    {
        "city": "Hortolandia",
        "state": "SP",
        "district": "Jardim Sumarezinho",
        "street": "Rua O",
        "zipcode": "13185-031"
    },
    {
        "city": "Hortolandia",
        "state": "SP",
        "district": "Jardim Amanda Ii",
        "street": "Rua Setenta E Um",
        "zipcode": "13188-123"
    },
    {
        "city": "Hortolandia",
        "state": "SP",
        "district": "Parque Hortolandia",
        "street": "Rua Y",
        "zipcode": "13184-222"
    },
    {
        "city": "Hortolandia",
        "state": "SP",
        "district": "Jardim Nossa Senhora De Fatima",
        "street": "Rua Dezesseis",
        "zipcode": "13185-441"
    },
    {
        "city": "Hortolandia",
        "state": "SP",
        "district": "Jardim Nossa Senhora Auxiliadora",
        "street": "Rua Ilda Reis De Oliveira",
        "zipcode": "13183-430"
    },
    {
        "city": "Hortolandia",
        "state": "SP",
        "district": "Chacara Recreio Alvorada",
        "street": "Rua J",
        "zipcode": "13183-760"
    },
    {
        "city": "Hortolandia",
        "state": "SP",
        "district": "Jardim Santa Izabel",
        "street": "Estrada Municipal",
        "zipcode": "13185-293"
    },
    {
        "city": "Hortolandia",
        "state": "SP",
        "district": "Jardim Nossa Senhora Auxiliadora",
        "street": "Rua Trinta E Sete",
        "zipcode": "13183-562"
    },
    {
        "city": "Hortolandia",
        "state": "SP",
        "district": "Jardim Das Colinas",
        "street": "Rua Seis",
        "zipcode": "13183-075"
    },
    {
        "city": "Hortolandia",
        "state": "SP",
        "district": "Vila Sao Pedro",
        "street": "Avenida Thereza Ana Gecon Breda",
        "zipcode": "13183-060"
    },
    {
        "city": "Hortolandia",
        "state": "SP",
        "district": "Jardim Nossa Senhora Da Penha",
        "street": "Rua Sebastiao Lazaro Da Silva",
        "zipcode": "13185-494"
    },
    {
        "city": "Hortolandia",
        "state": "SP",
        "district": "Jardim Santa Izabel",
        "street": "Rua Vinte",
        "zipcode": "13185-290"
    },
    {
        "city": "Hortolandia",
        "state": "SP",
        "district": "Jardim Santa Izabel",
        "street": "Rua Miguel Gimenes Alves",
        "zipcode": "13185-372"
    },
    {
        "city": "Hortolandia",
        "state": "SP",
        "district": "Jardim Santa Izabel",
        "street": "Rua Cinco",
        "zipcode": "13185-212"
    },
    {
        "city": "Hortolandia",
        "state": "SP",
        "district": "Jardim Sao Bento",
        "street": "Rua Trinta",
        "zipcode": "13187-120"
    }
]