[
    {
        "city": "Ibitinga",
        "state": "SP",
        "district": "Centro",
        "street": "Rua Doutor Adail de Oliveira 725",
        "zipcode": "14940-970"
    },
    {
        "city": "Ibitinga",
        "state": "SP",
        "district": "Centro",
        "street": "Rua Prudente de Moraes 470",
        "zipcode": "14940-971"
    },
    {
        "city": "Ibitinga",
        "state": "SP",
        "district": "",
        "street": "",
        "zipcode": "14940-000"
    },
    {
        "city": "Ibitinga",
        "state": "SP",
        "district": "Parque Industrial",
        "street": "Rua Luiz Spósito",
        "zipcode": "14942-106"
    },
    {
        "city": "Ibitinga",
        "state": "SP",
        "district": "Village Vale Verde",
        "street": "Alameda dos Jacarandás",
        "zipcode": "14945-028"
    },
    {
        "city": "Ibitinga",
        "state": "SP",
        "district": "Jardim Romana",
        "street": "Avenida Antenor Simões Maia",
        "zipcode": "14947-020"
    },
    {
        "city": "Ibitinga",
        "state": "SP",
        "district": "Vila Maysa",
        "street": "Avenida Anchieta",
        "zipcode": "14947-006"
    },
    {
        "city": "Ibitinga",
        "state": "SP",
        "district": "Paulo de Biazi",
        "street": "Rua Benedito Spinelli",
        "zipcode": "14945-108"
    },
    {
        "city": "Ibitinga",
        "state": "SP",
        "district": "Village Vale Verde",
        "street": "Alameda das Palmeiras",
        "zipcode": "14945-026"
    },
    {
        "city": "Ibitinga",
        "state": "SP",
        "district": "Village Vale Verde",
        "street": "Alameda Sete",
        "zipcode": "14945-038"
    },
    {
        "city": "Ibitinga",
        "state": "SP",
        "district": "Área Rural de Ibitinga",
        "street": "Área Rural",
        "zipcode": "14949-899"
    },
    {
        "city": "Ibitinga",
        "state": "SP",
        "district": "Village Vale Verde",
        "street": "Alameda Oito",
        "zipcode": "14945-036"
    },
    {
        "city": "Ibitinga",
        "state": "SP",
        "district": "Village Vale Verde",
        "street": "Alameda das Cabreuvas",
        "zipcode": "14945-024"
    },
    {
        "city": "Ibitinga",
        "state": "SP",
        "district": "Terras de São Joaquim II",
        "street": "Avenida Agustin Juan Jose Alba Jimenez",
        "zipcode": "14948-432"
    },
    {
        "city": "Ibitinga",
        "state": "SP",
        "district": "Jardim Dona Almira",
        "street": "Avenida Álvaro da Silva",
        "zipcode": "14942-036"
    },
    {
        "city": "Ibitinga",
        "state": "SP",
        "district": "Parque das Águas Canaã",
        "street": "Alameda Rio Bonito",
        "zipcode": "14942-298"
    },
    {
        "city": "Ibitinga",
        "state": "SP",
        "district": "Village Vale Verde",
        "street": "Alameda dos Cedros",
        "zipcode": "14945-032"
    },
    {
        "city": "Ibitinga",
        "state": "SP",
        "district": "Jardim América",
        "street": "Avenida Alcides Ortelan",
        "zipcode": "14945-084"
    },
    {
        "city": "Ibitinga",
        "state": "SP",
        "district": "Centro",
        "street": "Avenida Anchieta",
        "zipcode": "14940-010"
    },
    {
        "city": "Ibitinga",
        "state": "SP",
        "district": "Jardim Rafaela II",
        "street": "Avenida Engenheiro Ivanil Francischini",
        "zipcode": "14945-058"
    },
    {
        "city": "Ibitinga",
        "state": "SP",
        "district": "Parque das Águas Canaã",
        "street": "Alameda Jari",
        "zipcode": "14942-294"
    },
    {
        "city": "Ibitinga",
        "state": "SP",
        "district": "Vila Maria",
        "street": "Avenida Albino de Baptista",
        "zipcode": "14948-352"
    },
    {
        "city": "Ibitinga",
        "state": "SP",
        "district": "Jardim Pacola",
        "street": "Avenida Engenheiro Ivanil Francischini",
        "zipcode": "14948-036"
    },
    {
        "city": "Ibitinga",
        "state": "SP",
        "district": "Jardim São José",
        "street": "Avenida Dom Pedro II",
        "zipcode": "14940-622"
    },
    {
        "city": "Ibitinga",
        "state": "SP",
        "district": "Centro",
        "street": "Avenida Doutor Victor Maida",
        "zipcode": "14940-097"
    },
    {
        "city": "Ibitinga",
        "state": "SP",
        "district": "Jardim América",
        "street": "Avenida Engenheiro Ivanil Francischini",
        "zipcode": "14945-060"
    },
    {
        "city": "Ibitinga",
        "state": "SP",
        "district": "Jardim dos Bordados",
        "street": "Avenida Engenheiro Ivanil Francischini",
        "zipcode": "14944-070"
    },
    {
        "city": "Ibitinga",
        "state": "SP",
        "district": "Jardim Izolina",
        "street": "Avenida Engenheiro Ivanil Francischini",
        "zipcode": "14943-464"
    },
    {
        "city": "Ibitinga",
        "state": "SP",
        "district": "Jardim São Jorge",
        "street": "Avenida Engenheiro Ivanil Francischini",
        "zipcode": "14943-000"
    },
    {
        "city": "Ibitinga",
        "state": "SP",
        "district": "Jardim Planalto",
        "street": "Avenida Antonio Pinto da Costa",
        "zipcode": "14942-022"
    },
    {
        "city": "Ibitinga",
        "state": "SP",
        "district": "Jardim Maria Helena I",
        "street": "Avenida Carolina Geretto DallAcqua",
        "zipcode": "14944-000"
    },
    {
        "city": "Ibitinga",
        "state": "SP",
        "district": "Chácara Alvorada",
        "street": "Avenida Engenheiro Ivanil Francischini",
        "zipcode": "14940-670"
    },
    {
        "city": "Ibitinga",
        "state": "SP",
        "district": "Jardim Tropical",
        "street": "Avenida Antonio Pinto da Costa",
        "zipcode": "14942-170"
    },
    {
        "city": "Ibitinga",
        "state": "SP",
        "district": "Jardim Bela Vista",
        "street": "Avenida Engenheiro Ivanil Francischini",
        "zipcode": "14948-000"
    },
    {
        "city": "Ibitinga",
        "state": "SP",
        "district": "Jardim São João",
        "street": "Avenida Engenheiro Ivanil Francischini",
        "zipcode": "14940-640"
    },
    {
        "city": "Ibitinga",
        "state": "SP",
        "district": "Saltinho",
        "street": "Avenida Benedito Orlando Titato",
        "zipcode": "14943-134"
    },
    {
        "city": "Ibitinga",
        "state": "SP",
        "district": "Jardim do Bosque",
        "street": "Avenida Carolina Geretto DallAcqua",
        "zipcode": "14945-001"
    },
    {
        "city": "Ibitinga",
        "state": "SP",
        "district": "Centro",
        "street": "Avenida Dom Pedro II",
        "zipcode": "14940-061"
    },
    {
        "city": "Ibitinga",
        "state": "SP",
        "district": "Centro",
        "street": "Avenida Carolina Geretto DallAcqua",
        "zipcode": "14940-160"
    },
    {
        "city": "Ibitinga",
        "state": "SP",
        "district": "Jardim Margarida",
        "street": "Avenida Engenheiro Ivanil Francischini",
        "zipcode": "14940-550"
    },
    {
        "city": "Ibitinga",
        "state": "SP",
        "district": "Jardim do Bosque",
        "street": "Avenida Engenheiro Ivanil Francischini",
        "zipcode": "14945-018"
    },
    {
        "city": "Ibitinga",
        "state": "SP",
        "district": "Centro",
        "street": "Avenida Doutor Victor Maida",
        "zipcode": "14940-019"
    },
    {
        "city": "Ibitinga",
        "state": "SP",
        "district": "Jardim Santo André",
        "street": "Avenida Engenheiro Ivanil Francischini",
        "zipcode": "14940-454"
    },
    {
        "city": "Ibitinga",
        "state": "SP",
        "district": "Jardim Dona Idalina",
        "street": "Avenida Antonio Pinto da Costa",
        "zipcode": "14942-098"
    },
    {
        "city": "Ibitinga",
        "state": "SP",
        "district": "Terras de São Joaquim II",
        "street": "Avenida Engenheiro Ivanil Francischini",
        "zipcode": "14948-420"
    },
    {
        "city": "Ibitinga",
        "state": "SP",
        "district": "Jardim Petrópolis",
        "street": "Avenida Engenheiro Ivanil Francischini",
        "zipcode": "14940-546"
    },
    {
        "city": "Ibitinga",
        "state": "SP",
        "district": "Jardim do Sol I",
        "street": "Avenida Engenheiro Ivanil Francischini",
        "zipcode": "14940-694"
    },
    {
        "city": "Ibitinga",
        "state": "SP",
        "district": "Centro",
        "street": "Avenida Dom Pedro II",
        "zipcode": "14940-124"
    },
    {
        "city": "Ibitinga",
        "state": "SP",
        "district": "Cidade Jardim Canaã",
        "street": "Avenida Cidade Jardim",
        "zipcode": "14942-358"
    },
    {
        "city": "Ibitinga",
        "state": "SP",
        "district": "Jardim Dona Almira",
        "street": "Avenida Antonio Pinto da Costa",
        "zipcode": "14942-046"
    },
    {
        "city": "Ibitinga",
        "state": "SP",
        "district": "Jardim dos Bordados",
        "street": "Avenida das Bordadeiras",
        "zipcode": "14944-074"
    },
    {
        "city": "Ibitinga",
        "state": "SP",
        "district": "Jardim Dona Idalina",
        "street": "Avenida Engenheiro Ivanil Francischini",
        "zipcode": "14942-080"
    },
    {
        "city": "Ibitinga",
        "state": "SP",
        "district": "Parque Industrial",
        "street": "Avenida Antonio Pinto da Costa",
        "zipcode": "14942-100"
    },
    {
        "city": "Ibitinga",
        "state": "SP",
        "district": "Jardim Paraíso",
        "street": "Avenida dos Pássaros",
        "zipcode": "14943-142"
    },
    {
        "city": "Ibitinga",
        "state": "SP",
        "district": "Jardim Três Irmãos",
        "street": "Avenida Engenheiro Ivanil Francischini",
        "zipcode": "14947-034"
    },
    {
        "city": "Ibitinga",
        "state": "SP",
        "district": "Jardim London Park",
        "street": "Avenida Antonio Pinto da Costa",
        "zipcode": "14942-050"
    },
    {
        "city": "Ibitinga",
        "state": "SP",
        "district": "Centro",
        "street": "Avenida Doutor Victor Maida",
        "zipcode": "14940-175"
    },
    {
        "city": "Ibitinga",
        "state": "SP",
        "district": "Village Vale Verde",
        "street": "Avenida Carolina Geretto DallAcqua",
        "zipcode": "14945-020"
    },
    {
        "city": "Ibitinga",
        "state": "SP",
        "district": "Jardim Terra Branca",
        "street": "Avenida Carolina Geretto DallAcqua",
        "zipcode": "14940-240"
    },
    {
        "city": "Ibitinga",
        "state": "SP",
        "district": "Jardim London Park",
        "street": "Avenida Carlos Russi",
        "zipcode": "14942-052"
    },
    {
        "city": "Ibitinga",
        "state": "SP",
        "district": "Cidade Jardim Canaã",
        "street": "Avenida Canaã",
        "zipcode": "14942-356"
    },
    {
        "city": "Ibitinga",
        "state": "SP",
        "district": "Jardim Romana",
        "street": "Avenida Engenheiro Ivanil Francischini",
        "zipcode": "14947-018"
    },
    {
        "city": "Ibitinga",
        "state": "SP",
        "district": "Parque Minzoni",
        "street": "Avenida Engenheiro Ivanil Francischini",
        "zipcode": "14940-830"
    },
    {
        "city": "Ibitinga",
        "state": "SP",
        "district": "Jardim das Paineiras",
        "street": "Avenida Engenheiro Ivanil Francischini",
        "zipcode": "14948-070"
    },
    {
        "city": "Ibitinga",
        "state": "SP",
        "district": "Jardim London Park",
        "street": "Avenida Engenheiro Ivanil Francischini",
        "zipcode": "14942-074"
    },
    {
        "city": "Ibitinga",
        "state": "SP",
        "district": "Vila Guarany",
        "street": "Avenida Engenheiro Ivanil Francischini",
        "zipcode": "14940-570"
    },
    {
        "city": "Ibitinga",
        "state": "SP",
        "district": "Jardim Centenário",
        "street": "Avenida Engenheiro Ivanil Francischini",
        "zipcode": "14940-460"
    },
    {
        "city": "Ibitinga",
        "state": "SP",
        "district": "Jardim das Paineiras II",
        "street": "Avenida Maria Alves Ponchio",
        "zipcode": "14948-048"
    },
    {
        "city": "Ibitinga",
        "state": "SP",
        "district": "Residencial São Benedito",
        "street": "Avenida Marginal Maicon Alex Somensi",
        "zipcode": "14947-402"
    },
    {
        "city": "Ibitinga",
        "state": "SP",
        "district": "Parque Industrial",
        "street": "Avenida Engenheiro Ivanil Francischini",
        "zipcode": "14942-118"
    },
    {
        "city": "Ibitinga",
        "state": "SP",
        "district": "Terras de São Joaquim",
        "street": "Avenida Engenheiro Ivanil Francischini",
        "zipcode": "14948-410"
    },
    {
        "city": "Ibitinga",
        "state": "SP",
        "district": "Jardim Taquaral",
        "street": "Avenida Engenheiro Ivanil Francischini",
        "zipcode": "14947-100"
    },
    {
        "city": "Ibitinga",
        "state": "SP",
        "district": "Jardim Eldorado",
        "street": "Avenida Itálico João Moreale",
        "zipcode": "14944-040"
    },
    {
        "city": "Ibitinga",
        "state": "SP",
        "district": "Jardim América",
        "street": "Avenida João Alves de Mira",
        "zipcode": "14945-066"
    },
    {
        "city": "Ibitinga",
        "state": "SP",
        "district": "Centro",
        "street": "Avenida Ferroviária",
        "zipcode": "14940-043"
    },
    {
        "city": "Ibitinga",
        "state": "SP",
        "district": "Alto dos Pinheiros",
        "street": "Avenida João Farah",
        "zipcode": "14943-180"
    },
    {
        "city": "Ibitinga",
        "state": "SP",
        "district": "Jardim Bela Vista Sul",
        "street": "Avenida João Farah",
        "zipcode": "14943-160"
    },
    {
        "city": "Ibitinga",
        "state": "SP",
        "district": "Saltinho",
        "street": "Avenida Engenheiro Ivanil Francischini",
        "zipcode": "14943-110"
    },
    {
        "city": "Ibitinga",
        "state": "SP",
        "district": "Saltinho",
        "street": "Avenida João Farah",
        "zipcode": "14943-118"
    },
    {
        "city": "Ibitinga",
        "state": "SP",
        "district": "Jardim Dona Almira",
        "street": "Avenida João Mioralli",
        "zipcode": "14942-038"
    },
    {
        "city": "Ibitinga",
        "state": "SP",
        "district": "Parque Rancho Alegre",
        "street": "Avenida Engenheiro Ivanil Francischini",
        "zipcode": "14947-064"
    },
    {
        "city": "Ibitinga",
        "state": "SP",
        "district": "Jardim Dona Almira",
        "street": "Avenida Eugênio Carpigiani",
        "zipcode": "14942-042"
    },
    {
        "city": "Ibitinga",
        "state": "SP",
        "district": "Jardim Natalia",
        "street": "Avenida João Farah",
        "zipcode": "14943-216"
    },
    {
        "city": "Ibitinga",
        "state": "SP",
        "district": "Jardim Natalia",
        "street": "Avenida Major Silvestre Rodrigues Teixeira",
        "zipcode": "14943-210"
    },
    {
        "city": "Ibitinga",
        "state": "SP",
        "district": "Jardim Centenário",
        "street": "Avenida Japão",
        "zipcode": "14940-464"
    },
    {
        "city": "Ibitinga",
        "state": "SP",
        "district": "Jardim Rafaela II",
        "street": "Avenida Euclides Coleone",
        "zipcode": "14945-056"
    },
    {
        "city": "Ibitinga",
        "state": "SP",
        "district": "Jardim Margarida",
        "street": "Avenida Guido Izidoro DallAcqua",
        "zipcode": "14940-556"
    },
    {
        "city": "Ibitinga",
        "state": "SP",
        "district": "Jardim Flamboyant",
        "street": "Avenida Jean Habib Machaalani",
        "zipcode": "14946-172"
    },
    {
        "city": "Ibitinga",
        "state": "SP",
        "district": "Saltinho",
        "street": "Avenida João Soares da Costa",
        "zipcode": "14943-116"
    },
    {
        "city": "Ibitinga",
        "state": "SP",
        "district": "Jardim América",
        "street": "Avenida José Antonio Marrone",
        "zipcode": "14945-072"
    },
    {
        "city": "Ibitinga",
        "state": "SP",
        "district": "Centro",
        "street": "Avenida Japão",
        "zipcode": "14940-202"
    },
    {
        "city": "Ibitinga",
        "state": "SP",
        "district": "Jardim Centenário",
        "street": "Avenida Guido Izidoro DallAcqua",
        "zipcode": "14940-494"
    },
    {
        "city": "Ibitinga",
        "state": "SP",
        "district": "Parque Rancho Alegre",
        "street": "Avenida Gabriel Correa",
        "zipcode": "14947-062"
    },
    {
        "city": "Ibitinga",
        "state": "SP",
        "district": "Jardim Bela Vista",
        "street": "Avenida João Silvestre Custódio",
        "zipcode": "14948-002"
    },
    {
        "city": "Ibitinga",
        "state": "SP",
        "district": "Parque Minzoni",
        "street": "Avenida Gildo Minzoni",
        "zipcode": "14940-832"
    },
    {
        "city": "Ibitinga",
        "state": "SP",
        "district": "Jardim Mirante",
        "street": "Praça Luiz Gonzaga",
        "zipcode": "14947-240"
    },
    {
        "city": "Ibitinga",
        "state": "SP",
        "district": "Residencial São Benedito",
        "street": "Avenida Marginal Walfrido Robert",
        "zipcode": "14947-398"
    },
    {
        "city": "Ibitinga",
        "state": "SP",
        "district": "Jardim América",
        "street": "Avenida Lourdes Vareschi",
        "zipcode": "14945-080"
    },
    {
        "city": "Ibitinga",
        "state": "SP",
        "district": "Centro",
        "street": "Avenida Maria Alves Ponchio",
        "zipcode": "14940-037"
    },
    {
        "city": "Ibitinga",
        "state": "SP",
        "district": "Jardim Santa Catarina",
        "street": "Avenida João Farah",
        "zipcode": "14943-250"
    },
    {
        "city": "Ibitinga",
        "state": "SP",
        "district": "Jardim Eldorado",
        "street": "Avenida João Alves de Mira",
        "zipcode": "14944-038"
    },
    {
        "city": "Ibitinga",
        "state": "SP",
        "district": "Centro",
        "street": "Avenida Japão",
        "zipcode": "14940-205"
    },
    {
        "city": "Ibitinga",
        "state": "SP",
        "district": "Jardim Taquaral",
        "street": "Avenida José de Souza Gomes",
        "zipcode": "14947-126"
    },
    {
        "city": "Ibitinga",
        "state": "SP",
        "district": "Jardim Centenário",
        "street": "Avenida José Zapatta",
        "zipcode": "14940-472"
    },
    {
        "city": "Ibitinga",
        "state": "SP",
        "district": "Jardim Roseira",
        "street": "Avenida Gildo Minzoni",
        "zipcode": "14940-852"
    },
    {
        "city": "Ibitinga",
        "state": "SP",
        "district": "Jardim Roseira",
        "street": "Avenida Joaquim Meira Silva",
        "zipcode": "14940-868"
    },
    {
        "city": "Ibitinga",
        "state": "SP",
        "district": "Residencial Vitoria I",
        "street": "Avenida Guido Izidoro DallAcqua",
        "zipcode": "14940-522"
    },
    {
        "city": "Ibitinga",
        "state": "SP",
        "district": "Jardim dos Bancários",
        "street": "Avenida Luiz Francischini",
        "zipcode": "14940-870"
    },
    {
        "city": "Ibitinga",
        "state": "SP",
        "district": "Jardim dos Bordados",
        "street": "Avenida Flores",
        "zipcode": "14944-076"
    },
    {
        "city": "Ibitinga",
        "state": "SP",
        "district": "Jardim Taquaral",
        "street": "Avenida Luiz Andreoni",
        "zipcode": "14947-124"
    },
    {
        "city": "Ibitinga",
        "state": "SP",
        "district": "Jardim Campo Belo",
        "street": "Avenida João Farah",
        "zipcode": "14943-190"
    },
    {
        "city": "Ibitinga",
        "state": "SP",
        "district": "Jardim Três Irmãos",
        "street": "Avenida Gabriel Correa",
        "zipcode": "14947-036"
    },
    {
        "city": "Ibitinga",
        "state": "SP",
        "district": "Residencial Vitoria II",
        "street": "Avenida Guido Izidoro DallAcqua",
        "zipcode": "14940-512"
    },
    {
        "city": "Ibitinga",
        "state": "SP",
        "district": "Jardim Paulista",
        "street": "Avenida Japão",
        "zipcode": "14940-420"
    },
    {
        "city": "Ibitinga",
        "state": "SP",
        "district": "Centro",
        "street": "Avenida João Silvestre Custódio",
        "zipcode": "14940-025"
    },
    {
        "city": "Ibitinga",
        "state": "SP",
        "district": "Residencial Parque Morumbi",
        "street": "Avenida Maria Antonia Siriani Maida",
        "zipcode": "14943-472"
    },
    {
        "city": "Ibitinga",
        "state": "SP",
        "district": "Jardim Santo André",
        "street": "Avenida Japão",
        "zipcode": "14940-452"
    },
    {
        "city": "Ibitinga",
        "state": "SP",
        "district": "Jardim Paraíso",
        "street": "Avenida Maria Antonia Siriani Maida",
        "zipcode": "14943-156"
    },
    {
        "city": "Ibitinga",
        "state": "SP",
        "district": "Jardim Campo Belo",
        "street": "Avenida Major Silvestre Rodrigues Teixeira",
        "zipcode": "14943-206"
    },
    {
        "city": "Ibitinga",
        "state": "SP",
        "district": "Village Vale Verde",
        "street": "Avenida Engenheiro Ivanil Francischini",
        "zipcode": "14945-040"
    },
    {
        "city": "Ibitinga",
        "state": "SP",
        "district": "Vila Maria",
        "street": "Praça José Montanari",
        "zipcode": "14948-374"
    },
    {
        "city": "Ibitinga",
        "state": "SP",
        "district": "Centro",
        "street": "Praça Cônego Eutímio Ticianelli",
        "zipcode": "14940-130"
    },
    {
        "city": "Ibitinga",
        "state": "SP",
        "district": "Jardim Filadélfia",
        "street": "Estrada Municipal Romão Fernando",
        "zipcode": "14946-154"
    },
    {
        "city": "Ibitinga",
        "state": "SP",
        "district": "Saltinho",
        "street": "Avenida Trieste Catalano",
        "zipcode": "14943-120"
    },
    {
        "city": "Ibitinga",
        "state": "SP",
        "district": "Jardim Aurora",
        "street": "Avenida Wilson Pinheiro",
        "zipcode": "14948-570"
    },
    {
        "city": "Ibitinga",
        "state": "SP",
        "district": "Jardim Adriana",
        "street": "Estrada Municipal Romão Fernando",
        "zipcode": "14946-190"
    },
    {
        "city": "Ibitinga",
        "state": "SP",
        "district": "Jardim Primavera",
        "street": "Avenida Wilson Pinheiro",
        "zipcode": "14948-564"
    },
    {
        "city": "Ibitinga",
        "state": "SP",
        "district": "Residencial Parque Morumbi",
        "street": "Avenida Maria Garcia Secanho",
        "zipcode": "14943-488"
    },
    {
        "city": "Ibitinga",
        "state": "SP",
        "district": "Jardim Izolina",
        "street": "Praça Climério Marcondes de Godoy",
        "zipcode": "14943-454"
    },
    {
        "city": "Ibitinga",
        "state": "SP",
        "district": "Jardim Três Irmãos",
        "street": "Avenida Nações Unidas",
        "zipcode": "14947-054"
    },
    {
        "city": "Ibitinga",
        "state": "SP",
        "district": "Jardim América",
        "street": "Praça Julio Silva",
        "zipcode": "14945-074"
    },
    {
        "city": "Ibitinga",
        "state": "SP",
        "district": "Jardim Dona Almira",
        "street": "Avenida Waldomiro Constantino",
        "zipcode": "14942-040"
    },
    {
        "city": "Ibitinga",
        "state": "SP",
        "district": "Jardim Terra Branca",
        "street": "Praça Iracema Silveira Carlos",
        "zipcode": "14940-256"
    },
    {
        "city": "Ibitinga",
        "state": "SP",
        "district": "Vila Maria",
        "street": "Praça Geraldo Pinheiro de Freitas",
        "zipcode": "14948-368"
    },
    {
        "city": "Ibitinga",
        "state": "SP",
        "district": "Vila Maria",
        "street": "Avenida Wilson Pinheiro",
        "zipcode": "14948-400"
    },
    {
        "city": "Ibitinga",
        "state": "SP",
        "district": "Jardim Alvorada",
        "street": "Avenida Walter Piffer",
        "zipcode": "14948-590"
    },
    {
        "city": "Ibitinga",
        "state": "SP",
        "district": "Jardim Três Irmãos",
        "street": "Praça Jorge Nunes Pinheiro",
        "zipcode": "14947-046"
    },
    {
        "city": "Ibitinga",
        "state": "SP",
        "district": "Terras de São Joaquim",
        "street": "Avenida Wilson Pinheiro",
        "zipcode": "14948-412"
    },
    {
        "city": "Ibitinga",
        "state": "SP",
        "district": "Cidade Jardim Canaã",
        "street": "Avenida Prefeito Alberto Alves Casemiro",
        "zipcode": "14942-362"
    },
    {
        "city": "Ibitinga",
        "state": "SP",
        "district": "Jardim Dona Idalina",
        "street": "Avenida Salem Saad",
        "zipcode": "14942-088"
    },
    {
        "city": "Ibitinga",
        "state": "SP",
        "district": "Parque Industrial",
        "street": "Avenida Salem Saad",
        "zipcode": "14942-108"
    },
    {
        "city": "Ibitinga",
        "state": "SP",
        "district": "Jardim Centenário",
        "street": "Praça João Abrão",
        "zipcode": "14940-470"
    },
    {
        "city": "Ibitinga",
        "state": "SP",
        "district": "Jardim Alzira",
        "street": "Estrada Municipal Romão Fernando",
        "zipcode": "14946-200"
    },
    {
        "city": "Ibitinga",
        "state": "SP",
        "district": "Capim Fino",
        "street": "Avenida Walter Piffer",
        "zipcode": "14948-550"
    },
    {
        "city": "Ibitinga",
        "state": "SP",
        "district": "Jardim das Paineiras",
        "street": "Praça Jesualdo Zapatta",
        "zipcode": "14948-082"
    },
    {
        "city": "Ibitinga",
        "state": "SP",
        "district": "Paulo de Biazi",
        "street": "Praça Luiz de Carvalho",
        "zipcode": "14945-102"
    },
    {
        "city": "Ibitinga",
        "state": "SP",
        "district": "Jardim Dona Almira",
        "street": "Avenida Silvia Staniscia Carrasco",
        "zipcode": "14942-044"
    },
    {
        "city": "Ibitinga",
        "state": "SP",
        "district": "Parque das Águas Canaã",
        "street": "Avenida Parque das Águas",
        "zipcode": "14942-290"
    },
    {
        "city": "Ibitinga",
        "state": "SP",
        "district": "Jardim Tropical II",
        "street": "Avenida Marilda Alves Lopes",
        "zipcode": "14942-138"
    },
    {
        "city": "Ibitinga",
        "state": "SP",
        "district": "Jardim São José",
        "street": "Praça Antoninho Scarpim",
        "zipcode": "14940-606"
    },
    {
        "city": "Ibitinga",
        "state": "SP",
        "district": "Jardim São Jorge",
        "street": "Avenida Prefeito Alberto Alves Casemiro",
        "zipcode": "14943-022"
    },
    {
        "city": "Ibitinga",
        "state": "SP",
        "district": "Vila Maria",
        "street": "Praça Carlos Levez",
        "zipcode": "14948-404"
    },
    {
        "city": "Ibitinga",
        "state": "SP",
        "district": "Chácara Aeroporto",
        "street": "Estrada Municipal Antenor Zanetti",
        "zipcode": "14943-322"
    },
    {
        "city": "Ibitinga",
        "state": "SP",
        "district": "Residencial Parque Morumbi",
        "street": "Avenida Maria Lúcia Gereto Caldas",
        "zipcode": "14943-490"
    },
    {
        "city": "Ibitinga",
        "state": "SP",
        "district": "Chácara Aeroporto",
        "street": "Estrada Municipal Carlos Augusto Zucco",
        "zipcode": "14943-320"
    },
    {
        "city": "Ibitinga",
        "state": "SP",
        "district": "Centro (Cambaratiba)",
        "street": "Praça Antonio Sergio Pizarro",
        "zipcode": "14949-010"
    },
    {
        "city": "Ibitinga",
        "state": "SP",
        "district": "Centro",
        "street": "Avenida 7 de Setembro",
        "zipcode": "14940-157"
    },
    {
        "city": "Ibitinga",
        "state": "SP",
        "district": "Santa Izaura",
        "street": "Avenida Walter Piffer",
        "zipcode": "14948-540"
    },
    {
        "city": "Ibitinga",
        "state": "SP",
        "district": "Jardim Planalto",
        "street": "Avenida Salem Saad",
        "zipcode": "14942-006"
    },
    {
        "city": "Ibitinga",
        "state": "SP",
        "district": "Jardim Primavera",
        "street": "Avenida Walter Piffer",
        "zipcode": "14948-560"
    },
    {
        "city": "Ibitinga",
        "state": "SP",
        "district": "Parque Rancho Alegre",
        "street": "Avenida Nações Unidas",
        "zipcode": "14947-060"
    },
    {
        "city": "Ibitinga",
        "state": "SP",
        "district": "Alvorada",
        "street": "Avenida Sebastião Roncada",
        "zipcode": "14940-700"
    },
    {
        "city": "Ibitinga",
        "state": "SP",
        "district": "Jardim Eldorado",
        "street": "Praça Augusto Cestari",
        "zipcode": "14944-060"
    },
    {
        "city": "Ibitinga",
        "state": "SP",
        "district": "Jardim do Sol II",
        "street": "Avenida Sebastião Roncada",
        "zipcode": "14940-680"
    },
    {
        "city": "Ibitinga",
        "state": "SP",
        "district": "Jardim das Paineiras",
        "street": "Avenida Walter Piffer",
        "zipcode": "14948-104"
    },
    {
        "city": "Ibitinga",
        "state": "SP",
        "district": "Vila Maria",
        "street": "Avenida Walter Piffer",
        "zipcode": "14948-340"
    },
    {
        "city": "Ibitinga",
        "state": "SP",
        "district": "Jardim London Park",
        "street": "Avenida Salem Saad",
        "zipcode": "14942-070"
    },
    {
        "city": "Ibitinga",
        "state": "SP",
        "district": "Parque Rancho Alegre",
        "street": "Avenida Presidente Kennedy",
        "zipcode": "14947-070"
    },
    {
        "city": "Ibitinga",
        "state": "SP",
        "district": "Jardim do Sol I",
        "street": "Avenida Sebastião Roncada",
        "zipcode": "14940-690"
    },
    {
        "city": "Ibitinga",
        "state": "SP",
        "district": "Jardim Tropical",
        "street": "Avenida Marilda Alves Lopes",
        "zipcode": "14942-164"
    },
    {
        "city": "Ibitinga",
        "state": "SP",
        "district": "São Salvador",
        "street": "Avenida Sebastião Roncada",
        "zipcode": "14940-710"
    },
    {
        "city": "Ibitinga",
        "state": "SP",
        "district": "Jardim Aurora",
        "street": "Avenida Walter Piffer",
        "zipcode": "14948-580"
    },
    {
        "city": "Ibitinga",
        "state": "SP",
        "district": "Centro",
        "street": "Rua Anna Maria Mendes Paez",
        "zipcode": "14940-193"
    },
    {
        "city": "Ibitinga",
        "state": "SP",
        "district": "Residencial Dona Branca",
        "street": "Rua Adail Stocco",
        "zipcode": "14944-102"
    },
    {
        "city": "Ibitinga",
        "state": "SP",
        "district": "Jardim Flamboyant",
        "street": "Rua Angelo Adail Jacomeli",
        "zipcode": "14946-168"
    },
    {
        "city": "Ibitinga",
        "state": "SP",
        "district": "Jardim Pacola",
        "street": "Rua Albino DallAcqua",
        "zipcode": "14948-022"
    },
    {
        "city": "Ibitinga",
        "state": "SP",
        "district": "Jardim Margarida",
        "street": "Rua Anália Maria de Lima Ramos",
        "zipcode": "14940-564"
    },
    {
        "city": "Ibitinga",
        "state": "SP",
        "district": "Jardim Santa Clara",
        "street": "Rua Antonio Campregher",
        "zipcode": "14945-196"
    },
    {
        "city": "Ibitinga",
        "state": "SP",
        "district": "Jardim Roseira",
        "street": "Rua Aderson Bezerro",
        "zipcode": "14940-844"
    },
    {
        "city": "Ibitinga",
        "state": "SP",
        "district": "Jardim Santa Catarina",
        "street": "Rua Antonio Calhado Garcia",
        "zipcode": "14943-252"
    },
    {
        "city": "Ibitinga",
        "state": "SP",
        "district": "Terras de São Joaquim II",
        "street": "Rua Amadio Constantino",
        "zipcode": "14948-438"
    },
    {
        "city": "Ibitinga",
        "state": "SP",
        "district": "Centro (Cambaratiba)",
        "street": "Rua Abade Independência",
        "zipcode": "14949-018"
    },
    {
        "city": "Ibitinga",
        "state": "SP",
        "district": "Parque das Águas Canaã",
        "street": "Rua Abaeté",
        "zipcode": "14942-300"
    },
    {
        "city": "Ibitinga",
        "state": "SP",
        "district": "Jardim Izolina",
        "street": "Rua Amélia Haddad",
        "zipcode": "14943-460"
    },
    {
        "city": "Ibitinga",
        "state": "SP",
        "district": "Distrito Industrial João Paulo Bocca (I)",
        "street": "Praça Orozimbo Santana",
        "zipcode": "14943-542"
    },
    {
        "city": "Ibitinga",
        "state": "SP",
        "district": "Jardim Bela Vista Sul",
        "street": "Rua Ana Mello Campos",
        "zipcode": "14943-170"
    },
    {
        "city": "Ibitinga",
        "state": "SP",
        "district": "Jardim Terra Branca",
        "street": "Rua Albino Quaresma",
        "zipcode": "14940-244"
    },
    {
        "city": "Ibitinga",
        "state": "SP",
        "district": "Residencial São Benedito",
        "street": "Rua Alfredo de Oliveira",
        "zipcode": "14947-394"
    },
    {
        "city": "Ibitinga",
        "state": "SP",
        "district": "Centro (Cambaratiba)",
        "street": "Rua Ademar de Barros",
        "zipcode": "14949-000"
    },
    {
        "city": "Ibitinga",
        "state": "SP",
        "district": "Jardim Petrópolis",
        "street": "Rua Antonio Casemiro",
        "zipcode": "14940-530"
    },
    {
        "city": "Ibitinga",
        "state": "SP",
        "district": "Jardim Rafaela II",
        "street": "Rua Antônio Bertolini",
        "zipcode": "14945-052"
    },
    {
        "city": "Ibitinga",
        "state": "SP",
        "district": "Parque das Águas Canaã",
        "street": "Rua Água Quente",
        "zipcode": "14942-326"
    },
    {
        "city": "Ibitinga",
        "state": "SP",
        "district": "Jardim Maria Luiza II",
        "street": "Rua Ângelo Parra",
        "zipcode": "14945-144"
    },
    {
        "city": "Ibitinga",
        "state": "SP",
        "district": "Vila Maria",
        "street": "Rua Alberto Janes",
        "zipcode": "14948-354"
    },
    {
        "city": "Ibitinga",
        "state": "SP",
        "district": "Jardim São Jorge",
        "street": "Rua Adalgisa Rosa Estábile",
        "zipcode": "14943-018"
    },
    {
        "city": "Ibitinga",
        "state": "SP",
        "district": "Terras de São Joaquim",
        "street": "Rua Alice Roncada Zeponi",
        "zipcode": "14948-414"
    },
    {
        "city": "Ibitinga",
        "state": "SP",
        "district": "Jardim Terra Branca",
        "street": "Rua Antenor Zinezzi",
        "zipcode": "14940-254"
    },
    {
        "city": "Ibitinga",
        "state": "SP",
        "district": "Residencial São Benedito",
        "street": "Rua Antônio Barbosa",
        "zipcode": "14947-400"
    },
    {
        "city": "Ibitinga",
        "state": "SP",
        "district": "Centro",
        "street": "Praça Pedro de Batista",
        "zipcode": "14940-217"
    },
    {
        "city": "Ibitinga",
        "state": "SP",
        "district": "Vila Santa Tereza",
        "street": "Rua América",
        "zipcode": "14940-384"
    },
    {
        "city": "Ibitinga",
        "state": "SP",
        "district": "Centro",
        "street": "Rua Albino Quaresma",
        "zipcode": "14940-142"
    },
    {
        "city": "Ibitinga",
        "state": "SP",
        "district": "Jardim Tropical",
        "street": "Rua Alfredo Abla",
        "zipcode": "14942-166"
    },
    {
        "city": "Ibitinga",
        "state": "SP",
        "district": "Jardim das Paineiras II",
        "street": "Rua Adriano Zapata Carroci",
        "zipcode": "14948-042"
    },
    {
        "city": "Ibitinga",
        "state": "SP",
        "district": "Parque Industrial",
        "street": "Rua Anália Maria de Lima Ramos",
        "zipcode": "14942-122"
    },
    {
        "city": "Ibitinga",
        "state": "SP",
        "district": "Jardim América",
        "street": "Praça Sahid Haddad",
        "zipcode": "14945-076"
    },
    {
        "city": "Ibitinga",
        "state": "SP",
        "district": "Jardim Aurora",
        "street": "Rua Adail Posca",
        "zipcode": "14948-576"
    },
    {
        "city": "Ibitinga",
        "state": "SP",
        "district": "Residencial Santo Expedito",
        "street": "Rua Afonso Marins Peixoto",
        "zipcode": "14947-424"
    },
    {
        "city": "Ibitinga",
        "state": "SP",
        "district": "Vila Santa Tereza",
        "street": "Rua Antonio Amancio de Moraes",
        "zipcode": "14940-390"
    },
    {
        "city": "Ibitinga",
        "state": "SP",
        "district": "Jardim Santa Catarina",
        "street": "Rua Amelia Marques Cosin",
        "zipcode": "14943-246"
    },
    {
        "city": "Ibitinga",
        "state": "SP",
        "district": "Residencial Vitoria III",
        "street": "Rua Anna Maria Mendes Paez",
        "zipcode": "14940-502"
    },
    {
        "city": "Ibitinga",
        "state": "SP",
        "district": "Jardim Taquaral",
        "street": "Rua Angelo Zeponi",
        "zipcode": "14947-110"
    },
    {
        "city": "Ibitinga",
        "state": "SP",
        "district": "Jardim Paulista",
        "street": "Rua Antonio Amancio de Moraes",
        "zipcode": "14940-400"
    },
    {
        "city": "Ibitinga",
        "state": "SP",
        "district": "Jardim Verona",
        "street": "Rua Abramo Manchini",
        "zipcode": "14945-222"
    },
    {
        "city": "Ibitinga",
        "state": "SP",
        "district": "Jardim Eldorado",
        "street": "Rua Alvaro Pereira de Souza",
        "zipcode": "14944-056"
    },
    {
        "city": "Ibitinga",
        "state": "SP",
        "district": "Jardim Mirante",
        "street": "Rua Alagoas",
        "zipcode": "14947-262"
    },
    {
        "city": "Ibitinga",
        "state": "SP",
        "district": "Vila Maria",
        "street": "Rua Adolfo Tagliatella",
        "zipcode": "14948-386"
    },
    {
        "city": "Ibitinga",
        "state": "SP",
        "district": "Jardim Tropical",
        "street": "Rua Anália Maria de Lima Ramos",
        "zipcode": "14942-172"
    },
    {
        "city": "Ibitinga",
        "state": "SP",
        "district": "Vila Maria",
        "street": "Rua Antonio Antonelli",
        "zipcode": "14948-346"
    },
    {
        "city": "Ibitinga",
        "state": "SP",
        "district": "Centro",
        "street": "Praça Ruy Barbosa",
        "zipcode": "14940-127"
    },
    {
        "city": "Ibitinga",
        "state": "SP",
        "district": "Jardim Tropical II",
        "street": "Rua Anália Maria de Lima Ramos",
        "zipcode": "14942-130"
    },
    {
        "city": "Ibitinga",
        "state": "SP",
        "district": "Jardim Centenário",
        "street": "Rua Ananias Rosa",
        "zipcode": "14940-476"
    },
    {
        "city": "Ibitinga",
        "state": "SP",
        "district": "Jardim Natalia",
        "street": "Rua Afrizia Martins Sanacato",
        "zipcode": "14943-226"
    },
    {
        "city": "Ibitinga",
        "state": "SP",
        "district": "Jardim Planalto",
        "street": "Rua Alberto Miorali",
        "zipcode": "14942-016"
    },
    {
        "city": "Ibitinga",
        "state": "SP",
        "district": "Jardim Tropical II",
        "street": "Rua Antonia Angeluci Turco",
        "zipcode": "14942-134"
    },
    {
        "city": "Ibitinga",
        "state": "SP",
        "district": "Jardim Flamboyant",
        "street": "Rua Alzira Alves Longhini",
        "zipcode": "14946-170"
    },
    {
        "city": "Ibitinga",
        "state": "SP",
        "district": "Jardim Pacola",
        "street": "Rua Angelo Pacola",
        "zipcode": "14948-026"
    },
    {
        "city": "Ibitinga",
        "state": "SP",
        "district": "Vila Maria",
        "street": "Rua Benedito José Custódio",
        "zipcode": "14948-358"
    },
    {
        "city": "Ibitinga",
        "state": "SP",
        "district": "Residencial Parque Morumbi",
        "street": "Rua Avenal Marques",
        "zipcode": "14943-496"
    },
    {
        "city": "Ibitinga",
        "state": "SP",
        "district": "Residencial São Domingos II",
        "street": "Rua Ary de Campos",
        "zipcode": "14948-110"
    },
    {
        "city": "Ibitinga",
        "state": "SP",
        "district": "Jardim Terra Branca",
        "street": "Rua Arildo Firmino de Toledo",
        "zipcode": "14940-258"
    },
    {
        "city": "Ibitinga",
        "state": "SP",
        "district": "Centro",
        "street": "Rua Antonio Garibaldi Bolochini de Paula (Pachola)",
        "zipcode": "14940-079"
    },
    {
        "city": "Ibitinga",
        "state": "SP",
        "district": "Jardim Santa Catarina",
        "street": "Rua Benedita Mercedes Giansanti Garcia",
        "zipcode": "14943-256"
    },
    {
        "city": "Ibitinga",
        "state": "SP",
        "district": "Jardim Eldorado",
        "street": "Rua Antonio Guedes dos Santos",
        "zipcode": "14944-050"
    },
    {
        "city": "Ibitinga",
        "state": "SP",
        "district": "Jardim Margarida",
        "street": "Rua Bento Custódio",
        "zipcode": "14940-554"
    },
    {
        "city": "Ibitinga",
        "state": "SP",
        "district": "Jardim Três Irmãos",
        "street": "Rua Brazilio Gereto",
        "zipcode": "14947-032"
    },
    {
        "city": "Ibitinga",
        "state": "SP",
        "district": "Cidade Jardim Canaã",
        "street": "Rua Azaléia",
        "zipcode": "14942-340"
    },
    {
        "city": "Ibitinga",
        "state": "SP",
        "district": "Jardim Maria Helena II",
        "street": "Rua Antonio Francisco dos Santos",
        "zipcode": "14944-010"
    },
    {
        "city": "Ibitinga",
        "state": "SP",
        "district": "Jardim Ternura",
        "street": "Rua Augusto José Zucco",
        "zipcode": "14943-036"
    },
    {
        "city": "Ibitinga",
        "state": "SP",
        "district": "Jardim Bela Vista",
        "street": "Rua Benedito Dercio Trizolio",
        "zipcode": "14948-004"
    },
    {
        "city": "Ibitinga",
        "state": "SP",
        "district": "Centro",
        "street": "Rua Bom Jesus",
        "zipcode": "14940-058"
    },
    {
        "city": "Ibitinga",
        "state": "SP",
        "district": "Jardim dos Bancários",
        "street": "Rua Bernardino Angelucci",
        "zipcode": "14940-884"
    },
    {
        "city": "Ibitinga",
        "state": "SP",
        "district": "Cidade Jardim Canaã",
        "street": "Rua Bromélia",
        "zipcode": "14942-334"
    },
    {
        "city": "Ibitinga",
        "state": "SP",
        "district": "Residencial Santo Expedito",
        "street": "Rua Antônio da Costa",
        "zipcode": "14947-418"
    },
    {
        "city": "Ibitinga",
        "state": "SP",
        "district": "Centro",
        "street": "Rua Bom Jesus",
        "zipcode": "14940-121"
    },
    {
        "city": "Ibitinga",
        "state": "SP",
        "district": "Jardim Pacola",
        "street": "Rua Benedito Dercio Trizolio",
        "zipcode": "14948-032"
    },
    {
        "city": "Ibitinga",
        "state": "SP",
        "district": "Jardim do Bosque",
        "street": "Rua Antonio Francisco dos Santos",
        "zipcode": "14945-002"
    },
    {
        "city": "Ibitinga",
        "state": "SP",
        "district": "Jardim Roseira",
        "street": "Rua Antônio de Giorgio",
        "zipcode": "14940-850"
    },
    {
        "city": "Ibitinga",
        "state": "SP",
        "district": "Jardim Eldorado",
        "street": "Rua Antonio Olenski",
        "zipcode": "14944-026"
    },
    {
        "city": "Ibitinga",
        "state": "SP",
        "district": "Jardim Tropical II",
        "street": "Rua Antônio Madaro",
        "zipcode": "14942-144"
    },
    {
        "city": "Ibitinga",
        "state": "SP",
        "district": "Jardim dos Bancários",
        "street": "Rua Antonio Sampaio",
        "zipcode": "14940-880"
    },
    {
        "city": "Ibitinga",
        "state": "SP",
        "district": "Jardim São João",
        "street": "Rua Azílio de Souza Horn",
        "zipcode": "14940-648"
    },
    {
        "city": "Ibitinga",
        "state": "SP",
        "district": "Jardim das Paineiras",
        "street": "Rua Benedito José Custódio",
        "zipcode": "14948-094"
    },
    {
        "city": "Ibitinga",
        "state": "SP",
        "district": "Jardim Izolina",
        "street": "Rua Augusto Henrique de Carvalho",
        "zipcode": "14943-456"
    },
    {
        "city": "Ibitinga",
        "state": "SP",
        "district": "Centro",
        "street": "Rua Benjamin Constant",
        "zipcode": "14940-076"
    },
    {
        "city": "Ibitinga",
        "state": "SP",
        "district": "Jardim Planalto",
        "street": "Rua Batista Miola",
        "zipcode": "14942-012"
    },
    {
        "city": "Ibitinga",
        "state": "SP",
        "district": "Residencial Parque Morumbi",
        "street": "Rua Antonio Sampaio Pires",
        "zipcode": "14943-498"
    },
    {
        "city": "Ibitinga",
        "state": "SP",
        "district": "Jardim Eldorado II",
        "street": "Rua Antonio Francisco dos Santos",
        "zipcode": "14944-122"
    },
    {
        "city": "Ibitinga",
        "state": "SP",
        "district": "Jardim Terra Branca",
        "street": "Rua Aristote Lula",
        "zipcode": "14940-252"
    },
    {
        "city": "Ibitinga",
        "state": "SP",
        "district": "Jardim Tropical",
        "street": "Rua Antônio Viviani",
        "zipcode": "14942-150"
    },
    {
        "city": "Ibitinga",
        "state": "SP",
        "district": "Jardim Taquaral",
        "street": "Rua Antonio Santesso",
        "zipcode": "14947-102"
    },
    {
        "city": "Ibitinga",
        "state": "SP",
        "district": "Vila Guarany",
        "street": "Rua Antonio Garibaldi Bolochini de Paula (Pachola)",
        "zipcode": "14940-586"
    },
    {
        "city": "Ibitinga",
        "state": "SP",
        "district": "Jardim Flamboyant",
        "street": "Rua Benedito Ferreira da Rocha",
        "zipcode": "14946-178"
    },
    {
        "city": "Ibitinga",
        "state": "SP",
        "district": "Centro (Cambaratiba)",
        "street": "Rua Cambará",
        "zipcode": "14949-004"
    },
    {
        "city": "Ibitinga",
        "state": "SP",
        "district": "Jardim Santo Antônio",
        "street": "Rua Antonio Tarcisio Portes",
        "zipcode": "14945-168"
    },
    {
        "city": "Ibitinga",
        "state": "SP",
        "district": "Jardim São Jorge",
        "street": "Rua Aurora",
        "zipcode": "14943-002"
    },
    {
        "city": "Ibitinga",
        "state": "SP",
        "district": "Jardim Alvorada",
        "street": "Rua C",
        "zipcode": "14948-592"
    },
    {
        "city": "Ibitinga",
        "state": "SP",
        "district": "Residencial São Domingos II",
        "street": "Rua Benedito Valentim de Moraes",
        "zipcode": "14948-112"
    },
    {
        "city": "Ibitinga",
        "state": "SP",
        "district": "Jardim América",
        "street": "Rua Antonio Francisco dos Santos",
        "zipcode": "14945-082"
    },
    {
        "city": "Ibitinga",
        "state": "SP",
        "district": "Jardim Paraíso",
        "street": "Rua Bem",
        "zipcode": "14943-154"
    },
    {
        "city": "Ibitinga",
        "state": "SP",
        "district": "Distrito Industrial João Paulo Bocca (I)",
        "street": "Rua Antonio Menegues",
        "zipcode": "14943-536"
    },
    {
        "city": "Ibitinga",
        "state": "SP",
        "district": "Residencial Santo Expedito",
        "street": "Rua Aridioneta Garcia Germano",
        "zipcode": "14947-436"
    },
    {
        "city": "Ibitinga",
        "state": "SP",
        "district": "Jardim Alvorada",
        "street": "Rua B",
        "zipcode": "14948-594"
    },
    {
        "city": "Ibitinga",
        "state": "SP",
        "district": "Centro",
        "street": "Rua Antonio de Vergilio",
        "zipcode": "14940-190"
    },
    {
        "city": "Ibitinga",
        "state": "SP",
        "district": "Residencial Parque Morumbi",
        "street": "Rua Antonio Menegues",
        "zipcode": "14943-492"
    },
    {
        "city": "Ibitinga",
        "state": "SP",
        "district": "Vila Guarany",
        "street": "Rua Capitão Felicio Salomão Racy",
        "zipcode": "14940-592"
    },
    {
        "city": "Ibitinga",
        "state": "SP",
        "district": "Jardim Santo Antônio",
        "street": "Rua Arthur Vergaças",
        "zipcode": "14945-166"
    },
    {
        "city": "Ibitinga",
        "state": "SP",
        "district": "Jardim Eldorado II",
        "street": "Rua Ariovaldo Darci Contente",
        "zipcode": "14944-114"
    },
    {
        "city": "Ibitinga",
        "state": "SP",
        "district": "Jardim Campo Belo",
        "street": "Rua Cinco",
        "zipcode": "14943-200"
    },
    {
        "city": "Ibitinga",
        "state": "SP",
        "district": "Jardim Santo Antônio",
        "street": "Rua Cecília Casemiro de Amorim",
        "zipcode": "14945-178"
    },
    {
        "city": "Ibitinga",
        "state": "SP",
        "district": "Parque das Águas Canaã",
        "street": "Rua Curuá",
        "zipcode": "14942-302"
    },
    {
        "city": "Ibitinga",
        "state": "SP",
        "district": "Jardim dos Bordados",
        "street": "Rua das Acácias",
        "zipcode": "14944-086"
    },
    {
        "city": "Ibitinga",
        "state": "SP",
        "district": "Residencial Dona Branca",
        "street": "Rua Carlos Levez",
        "zipcode": "14944-108"
    },
    {
        "city": "Ibitinga",
        "state": "SP",
        "district": "Jardim Petrópolis",
        "street": "Rua Carlos Camargo Abib",
        "zipcode": "14940-534"
    },
    {
        "city": "Ibitinga",
        "state": "SP",
        "district": "Jardim Santo André",
        "street": "Rua Capitão Miguel Haddad",
        "zipcode": "14940-448"
    },
    {
        "city": "Ibitinga",
        "state": "SP",
        "district": "Jardim Flamboyant",
        "street": "Rua Darcy Titato",
        "zipcode": "14946-180"
    },
    {
        "city": "Ibitinga",
        "state": "SP",
        "district": "Jardim Margarida",
        "street": "Rua David Kalil",
        "zipcode": "14940-552"
    },
    {
        "city": "Ibitinga",
        "state": "SP",
        "district": "Jardim das Paineiras II",
        "street": "Rua Celeste Roncada",
        "zipcode": "14948-056"
    },
    {
        "city": "Ibitinga",
        "state": "SP",
        "district": "Ibitinga III",
        "street": "Rua Dois",
        "zipcode": "14947-136"
    },
    {
        "city": "Ibitinga",
        "state": "SP",
        "district": "Parque das Águas Canaã",
        "street": "Rua Capivari",
        "zipcode": "14942-282"
    },
    {
        "city": "Ibitinga",
        "state": "SP",
        "district": "Jardim Maria Luiza II",
        "street": "Rua Cecília Casemiro de Amorim",
        "zipcode": "14945-142"
    },
    {
        "city": "Ibitinga",
        "state": "SP",
        "district": "Centro",
        "street": "Rua Capitão Felicio Salomão Racy",
        "zipcode": "14940-220"
    },
    {
        "city": "Ibitinga",
        "state": "SP",
        "district": "Jardim Centenário",
        "street": "Rua Capitão João Marques",
        "zipcode": "14940-484"
    },
    {
        "city": "Ibitinga",
        "state": "SP",
        "district": "Paulo de Biazi",
        "street": "Rua Cecília Casemiro de Amorim",
        "zipcode": "14945-098"
    },
    {
        "city": "Ibitinga",
        "state": "SP",
        "district": "Jardim dos Bordados",
        "street": "Rua das Violetas",
        "zipcode": "14944-084"
    },
    {
        "city": "Ibitinga",
        "state": "SP",
        "district": "Jardim London Park",
        "street": "Rua Dino Rossigali",
        "zipcode": "14942-062"
    },
    {
        "city": "Ibitinga",
        "state": "SP",
        "district": "Parque das Águas Canaã",
        "street": "Rua do Ribeirão",
        "zipcode": "14942-310"
    },
    {
        "city": "Ibitinga",
        "state": "SP",
        "district": "Jardim dos Bordados",
        "street": "Rua das Palmas",
        "zipcode": "14944-088"
    },
    {
        "city": "Ibitinga",
        "state": "SP",
        "district": "Centro",
        "street": "Rua Daniel de Freitas",
        "zipcode": "14940-145"
    },
    {
        "city": "Ibitinga",
        "state": "SP",
        "district": "Jardim Dona Idalina",
        "street": "Rua Clóvis Cicotti",
        "zipcode": "14942-090"
    },
    {
        "city": "Ibitinga",
        "state": "SP",
        "district": "Jardim dos Bordados",
        "street": "Rua das Rosas",
        "zipcode": "14944-078"
    },
    {
        "city": "Ibitinga",
        "state": "SP",
        "district": "Centro",
        "street": "Rua Coronel Geretto",
        "zipcode": "14940-094"
    },
    {
        "city": "Ibitinga",
        "state": "SP",
        "district": "Jardim Felicidade",
        "street": "Rua Cecília Casemiro de Amorim",
        "zipcode": "14945-262"
    },
    {
        "city": "Ibitinga",
        "state": "SP",
        "district": "Centro",
        "street": "Rua Capitão Felicio Salomão Racy",
        "zipcode": "14940-199"
    },
    {
        "city": "Ibitinga",
        "state": "SP",
        "district": "Residencial Vitoria II",
        "street": "Rua Carlos Camargo Abib",
        "zipcode": "14940-514"
    },
    {
        "city": "Ibitinga",
        "state": "SP",
        "district": "Vila Maria",
        "street": "Rua Dionizio Catalano",
        "zipcode": "14948-348"
    },
    {
        "city": "Ibitinga",
        "state": "SP",
        "district": "Vila Guarany",
        "street": "Rua Daniel de Freitas",
        "zipcode": "14940-588"
    },
    {
        "city": "Ibitinga",
        "state": "SP",
        "district": "Jardim London Park",
        "street": "Rua Carmela Carboni de Rosa",
        "zipcode": "14942-064"
    },
    {
        "city": "Ibitinga",
        "state": "SP",
        "district": "Jardim Taquaral",
        "street": "Rua Desidério Fratuchello Salva",
        "zipcode": "14947-114"
    },
    {
        "city": "Ibitinga",
        "state": "SP",
        "district": "Jardim Santo Antônio",
        "street": "Rua Carolina Jorge",
        "zipcode": "14945-174"
    },
    {
        "city": "Ibitinga",
        "state": "SP",
        "district": "Centro",
        "street": "Rua Daniel de Freitas",
        "zipcode": "14940-148"
    },
    {
        "city": "Ibitinga",
        "state": "SP",
        "district": "Jardim São João",
        "street": "Rua Daniel de Freitas",
        "zipcode": "14940-650"
    },
    {
        "city": "Ibitinga",
        "state": "SP",
        "district": "Centro",
        "street": "Rua Capitão Simões",
        "zipcode": "14940-109"
    },
    {
        "city": "Ibitinga",
        "state": "SP",
        "district": "Centro",
        "street": "Rua Coronel Geretto",
        "zipcode": "14940-178"
    },
    {
        "city": "Ibitinga",
        "state": "SP",
        "district": "Centro",
        "street": "Rua Capitão Felicio Salomão Racy",
        "zipcode": "14940-187"
    },
    {
        "city": "Ibitinga",
        "state": "SP",
        "district": "Jardim Planalto",
        "street": "Rua Cezarino Pinheiro",
        "zipcode": "14942-004"
    },
    {
        "city": "Ibitinga",
        "state": "SP",
        "district": "Jardim Dona Idalina",
        "street": "Rua Dino Rossigali",
        "zipcode": "14942-096"
    },
    {
        "city": "Ibitinga",
        "state": "SP",
        "district": "Residencial Parque Morumbi",
        "street": "Rua Carlos Vareschi",
        "zipcode": "14943-494"
    },
    {
        "city": "Ibitinga",
        "state": "SP",
        "district": "Jardim do Bosque",
        "street": "Rua Cecília Casemiro de Amorim",
        "zipcode": "14945-010"
    },
    {
        "city": "Ibitinga",
        "state": "SP",
        "district": "Jardim das Paineiras",
        "street": "Rua Dionizio Catalano",
        "zipcode": "14948-090"
    },
    {
        "city": "Ibitinga",
        "state": "SP",
        "district": "Jardim Alvorada",
        "street": "Rua D",
        "zipcode": "14948-598"
    },
    {
        "city": "Ibitinga",
        "state": "SP",
        "district": "Jardim dos Bordados",
        "street": "Rua das Orquídeas",
        "zipcode": "14944-082"
    },
    {
        "city": "Ibitinga",
        "state": "SP",
        "district": "Jardim Verona",
        "street": "Rua Dionísio Alves de Moraes",
        "zipcode": "14945-226"
    },
    {
        "city": "Ibitinga",
        "state": "SP",
        "district": "Jardim Paraíso",
        "street": "Rua das Arapongas",
        "zipcode": "14943-144"
    },
    {
        "city": "Ibitinga",
        "state": "SP",
        "district": "Jardim dos Bancários",
        "street": "Rua Carlos Pavan",
        "zipcode": "14940-882"
    },
    {
        "city": "Ibitinga",
        "state": "SP",
        "district": "Jardim Nações Unidas",
        "street": "Rua Danilo Guido",
        "zipcode": "14943-524"
    },
    {
        "city": "Ibitinga",
        "state": "SP",
        "district": "Jardim São Jorge",
        "street": "Rua Ciro Lopes da Silva",
        "zipcode": "14943-012"
    },
    {
        "city": "Ibitinga",
        "state": "SP",
        "district": "Jardim Izolina",
        "street": "Rua Coronel Joaquim de Arruda Camargo",
        "zipcode": "14943-462"
    },
    {
        "city": "Ibitinga",
        "state": "SP",
        "district": "Vila Santa Tereza",
        "street": "Rua Capitão Felicio Salomão Racy",
        "zipcode": "14940-376"
    },
    {
        "city": "Ibitinga",
        "state": "SP",
        "district": "Village Vale Verde",
        "street": "Rua dos Manacás",
        "zipcode": "14945-030"
    },
    {
        "city": "Ibitinga",
        "state": "SP",
        "district": "Jardim do Sol I",
        "street": "Rua Elias Kalil Haddad",
        "zipcode": "14940-692"
    },
    {
        "city": "Ibitinga",
        "state": "SP",
        "district": "Jardim dos Bordados",
        "street": "Rua dos Lírios",
        "zipcode": "14944-094"
    },
    {
        "city": "Ibitinga",
        "state": "SP",
        "district": "Jardim Tropical II",
        "street": "Rua Dulcinea Mello Costa",
        "zipcode": "14942-132"
    },
    {
        "city": "Ibitinga",
        "state": "SP",
        "district": "Jardim Paraíso",
        "street": "Rua dos Canários",
        "zipcode": "14943-148"
    },
    {
        "city": "Ibitinga",
        "state": "SP",
        "district": "Parque Rancho Alegre",
        "street": "Rua Emilio Somensi",
        "zipcode": "14947-068"
    },
    {
        "city": "Ibitinga",
        "state": "SP",
        "district": "Jardim London Park",
        "street": "Rua Dorival Farinelli",
        "zipcode": "14942-054"
    },
    {
        "city": "Ibitinga",
        "state": "SP",
        "district": "Jardim Maria Helena II",
        "street": "Rua Elvira de Souza Santos",
        "zipcode": "14944-018"
    },
    {
        "city": "Ibitinga",
        "state": "SP",
        "district": "Jardim Tropical",
        "street": "Rua Doutor Oswaldo Estiná Tonini",
        "zipcode": "14942-154"
    },
    {
        "city": "Ibitinga",
        "state": "SP",
        "district": "Vila Simões",
        "street": "Rua Domingos Povinelli",
        "zipcode": "14947-086"
    },
    {
        "city": "Ibitinga",
        "state": "SP",
        "district": "Jardim Paraíso",
        "street": "Rua dos Beija",
        "zipcode": "14943-152"
    },
    {
        "city": "Ibitinga",
        "state": "SP",
        "district": "Jardim dos Ipês IV",
        "street": "Rua Eiriberto Teixeira Godoy",
        "zipcode": "14945-270"
    },
    {
        "city": "Ibitinga",
        "state": "SP",
        "district": "Jardim Paulista",
        "street": "Rua Emílio Carlos",
        "zipcode": "14940-414"
    },
    {
        "city": "Ibitinga",
        "state": "SP",
        "district": "Jardim Primavera",
        "street": "Rua Ernesto Manzoni",
        "zipcode": "14948-562"
    },
    {
        "city": "Ibitinga",
        "state": "SP",
        "district": "Centro",
        "street": "Rua Domingos Robert",
        "zipcode": "14940-133"
    },
    {
        "city": "Ibitinga",
        "state": "SP",
        "district": "Centro",
        "street": "Rua Emílio Carlos",
        "zipcode": "14940-211"
    },
    {
        "city": "Ibitinga",
        "state": "SP",
        "district": "Vila Guarany",
        "street": "Rua Emidio Coradette",
        "zipcode": "14940-576"
    },
    {
        "city": "Ibitinga",
        "state": "SP",
        "district": "Jardim das Paineiras II",
        "street": "Rua Esperança",
        "zipcode": "14948-044"
    },
    {
        "city": "Ibitinga",
        "state": "SP",
        "district": "Jardim Bela Vista",
        "street": "Rua Doutor Barreto",
        "zipcode": "14948-006"
    },
    {
        "city": "Ibitinga",
        "state": "SP",
        "district": "Jardim Paraíso",
        "street": "Rua dos Juritis",
        "zipcode": "14943-150"
    },
    {
        "city": "Ibitinga",
        "state": "SP",
        "district": "Jardim dos Bordados",
        "street": "Rua dos Cravos",
        "zipcode": "14944-072"
    },
    {
        "city": "Ibitinga",
        "state": "SP",
        "district": "Jardim Taquaral",
        "street": "Rua Ernesto Salerno",
        "zipcode": "14947-108"
    },
    {
        "city": "Ibitinga",
        "state": "SP",
        "district": "Jardim das Paineiras",
        "street": "Rua Durval Marques Salles",
        "zipcode": "14948-074"
    },
    {
        "city": "Ibitinga",
        "state": "SP",
        "district": "Paulo de Biazi",
        "street": "Rua Doutor Cícero Haddad",
        "zipcode": "14945-100"
    },
    {
        "city": "Ibitinga",
        "state": "SP",
        "district": "Jardim do Bosque",
        "street": "Rua Domingos Quatroni",
        "zipcode": "14945-008"
    },
    {
        "city": "Ibitinga",
        "state": "SP",
        "district": "Centro",
        "street": "Rua Esperança",
        "zipcode": "14940-022"
    },
    {
        "city": "Ibitinga",
        "state": "SP",
        "district": "Vila Maria",
        "street": "Rua Elias Saad",
        "zipcode": "14948-396"
    },
    {
        "city": "Ibitinga",
        "state": "SP",
        "district": "Jardim Taquaral",
        "street": "Rua Domingos Povinelli",
        "zipcode": "14947-106"
    },
    {
        "city": "Ibitinga",
        "state": "SP",
        "district": "Jardim Felicidade",
        "street": "Rua Eiriberto Teixeira Godoy",
        "zipcode": "14945-264"
    },
    {
        "city": "Ibitinga",
        "state": "SP",
        "district": "Vila Santa Tereza",
        "street": "Rua Emílio Carlos",
        "zipcode": "14940-388"
    },
    {
        "city": "Ibitinga",
        "state": "SP",
        "district": "Jardim Eldorado III",
        "street": "Rua Elvira de Souza Santos",
        "zipcode": "14944-130"
    },
    {
        "city": "Ibitinga",
        "state": "SP",
        "district": "Centro",
        "street": "Rua Domingos Robert",
        "zipcode": "14940-064"
    },
    {
        "city": "Ibitinga",
        "state": "SP",
        "district": "Jardim Eldorado II",
        "street": "Rua Elvira de Souza Santos",
        "zipcode": "14944-120"
    },
    {
        "city": "Ibitinga",
        "state": "SP",
        "district": "Residencial São Domingos II",
        "street": "Rua Doutora Immaculada de Masi Tonini",
        "zipcode": "14948-128"
    },
    {
        "city": "Ibitinga",
        "state": "SP",
        "district": "Jardim Natalia",
        "street": "Rua Edna Maria Basílio Scarpim",
        "zipcode": "14943-232"
    },
    {
        "city": "Ibitinga",
        "state": "SP",
        "district": "Jardim dos Bordados",
        "street": "Rua dos Ipês",
        "zipcode": "14944-096"
    },
    {
        "city": "Ibitinga",
        "state": "SP",
        "district": "Jardim Três Irmãos",
        "street": "Rua Eduardo Camargo Abreu",
        "zipcode": "14947-038"
    },
    {
        "city": "Ibitinga",
        "state": "SP",
        "district": "Jardim Eldorado",
        "street": "Rua Elvira de Souza Santos",
        "zipcode": "14944-020"
    },
    {
        "city": "Ibitinga",
        "state": "SP",
        "district": "Centro",
        "street": "Rua Doutor Adail de Oliveira",
        "zipcode": "14940-151"
    },
    {
        "city": "Ibitinga",
        "state": "SP",
        "district": "Jardim dos Bordados",
        "street": "Rua dos Jasmins",
        "zipcode": "14944-098"
    },
    {
        "city": "Ibitinga",
        "state": "SP",
        "district": "Jardim Romana",
        "street": "Rua Eugenio Bocca",
        "zipcode": "14947-016"
    },
    {
        "city": "Ibitinga",
        "state": "SP",
        "district": "Jardim Tropical II",
        "street": "Rua Doutor Oswaldo Estiná Tonini",
        "zipcode": "14942-140"
    },
    {
        "city": "Ibitinga",
        "state": "SP",
        "district": "Jardim Eldorado",
        "street": "Rua Elisa Pecek Pinheiro",
        "zipcode": "14944-028"
    },
    {
        "city": "Ibitinga",
        "state": "SP",
        "district": "Centro",
        "street": "Rua Doutor Teixeira",
        "zipcode": "14940-052"
    },
    {
        "city": "Ibitinga",
        "state": "SP",
        "district": "Vila Maria",
        "street": "Rua Dona Maria Rosa de Jesus Casemiro",
        "zipcode": "14948-390"
    },
    {
        "city": "Ibitinga",
        "state": "SP",
        "district": "Jardim Santo André",
        "street": "Rua Emílio Carlos",
        "zipcode": "14940-444"
    },
    {
        "city": "Ibitinga",
        "state": "SP",
        "district": "Jardim Felicidade",
        "street": "Rua Eleonora Monari Burin",
        "zipcode": "14945-254"
    },
    {
        "city": "Ibitinga",
        "state": "SP",
        "district": "Jardim Santo Antônio",
        "street": "Rua Domingos Vilella (Tóta)",
        "zipcode": "14945-176"
    },
    {
        "city": "Ibitinga",
        "state": "SP",
        "district": "Jardim Santo André",
        "street": "Rua Erminda Mancini Prado",
        "zipcode": "14940-456"
    },
    {
        "city": "Ibitinga",
        "state": "SP",
        "district": "Jardim Santo Antônio",
        "street": "Rua Eliezer Somensi",
        "zipcode": "14945-162"
    },
    {
        "city": "Ibitinga",
        "state": "SP",
        "district": "Parque das Águas Canaã",
        "street": "Rua Dourados",
        "zipcode": "14942-314"
    },
    {
        "city": "Ibitinga",
        "state": "SP",
        "district": "Jardim Santa Catarina",
        "street": "Rua Edna Maria Basílio Scarpim",
        "zipcode": "14943-240"
    },
    {
        "city": "Ibitinga",
        "state": "SP",
        "district": "Jardim São José",
        "street": "Rua Domingos Robert",
        "zipcode": "14940-612"
    },
    {
        "city": "Ibitinga",
        "state": "SP",
        "district": "Jardim das Paineiras",
        "street": "Rua Francisco Supino",
        "zipcode": "14948-076"
    },
    {
        "city": "Ibitinga",
        "state": "SP",
        "district": "Cidade Jardim Canaã",
        "street": "Rua Flamboyant",
        "zipcode": "14942-344"
    },
    {
        "city": "Ibitinga",
        "state": "SP",
        "district": "Jardim Natalia",
        "street": "Rua Humberto Antonio Stanzani",
        "zipcode": "14943-212"
    },
    {
        "city": "Ibitinga",
        "state": "SP",
        "district": "Paulo de Biazi",
        "street": "Rua Guilherme Bersano",
        "zipcode": "14945-106"
    },
    {
        "city": "Ibitinga",
        "state": "SP",
        "district": "Jardim das Paineiras II",
        "street": "Rua Francisco Alexandre da Costa",
        "zipcode": "14948-060"
    },
    {
        "city": "Ibitinga",
        "state": "SP",
        "district": "Cidade Jardim Canaã",
        "street": "Rua Ipê Amarelo",
        "zipcode": "14942-336"
    },
    {
        "city": "Ibitinga",
        "state": "SP",
        "district": "Jardim Santo André",
        "street": "Rua Francisca Lopes",
        "zipcode": "14940-438"
    },
    {
        "city": "Ibitinga",
        "state": "SP",
        "district": "Jardim Santa Catarina",
        "street": "Rua Francisco Cosin",
        "zipcode": "14943-244"
    },
    {
        "city": "Ibitinga",
        "state": "SP",
        "district": "Jardim Nova Ibitinga",
        "street": "Rua Evaristo Nicola",
        "zipcode": "14945-242"
    },
    {
        "city": "Ibitinga",
        "state": "SP",
        "district": "Jardim Santo André",
        "street": "Rua Horizontino Negrão",
        "zipcode": "14940-440"
    },
    {
        "city": "Ibitinga",
        "state": "SP",
        "district": "Jardim Dona Idalina",
        "street": "Rua Genezio Flóis",
        "zipcode": "14942-092"
    },
    {
        "city": "Ibitinga",
        "state": "SP",
        "district": "Jardim Santa Clara",
        "street": "Rua Francisco de Arruda",
        "zipcode": "14945-192"
    },
    {
        "city": "Ibitinga",
        "state": "SP",
        "district": "Jardim Romana",
        "street": "Rua Henrique Bianchini",
        "zipcode": "14947-010"
    },
    {
        "city": "Ibitinga",
        "state": "SP",
        "district": "Jardim Dona Idalina",
        "street": "Rua Frederico Pereira",
        "zipcode": "14942-086"
    },
    {
        "city": "Ibitinga",
        "state": "SP",
        "district": "Vila Maria",
        "street": "Rua Gabriel Predolin",
        "zipcode": "14948-344"
    },
    {
        "city": "Ibitinga",
        "state": "SP",
        "district": "Cidade Jardim Canaã",
        "street": "Rua Ipê Roxo",
        "zipcode": "14942-354"
    },
    {
        "city": "Ibitinga",
        "state": "SP",
        "district": "Jardim São João",
        "street": "Rua Gama Cerqueira",
        "zipcode": "14940-656"
    },
    {
        "city": "Ibitinga",
        "state": "SP",
        "district": "Residencial São Benedito",
        "street": "Rua Giácomo Moreale",
        "zipcode": "14947-384"
    },
    {
        "city": "Ibitinga",
        "state": "SP",
        "district": "Residencial Santo Expedito",
        "street": "Rua Inês Soria Silva",
        "zipcode": "14947-414"
    },
    {
        "city": "Ibitinga",
        "state": "SP",
        "district": "Jardim Mirante",
        "street": "Rua Fortaleza",
        "zipcode": "14947-258"
    },
    {
        "city": "Ibitinga",
        "state": "SP",
        "district": "Jardim Bela Vista",
        "street": "Rua Idulia da Costa Villela",
        "zipcode": "14948-012"
    },
    {
        "city": "Ibitinga",
        "state": "SP",
        "district": "Vila Maria",
        "street": "Rua Ignácio Corrêa de Lacerda",
        "zipcode": "14948-360"
    },
    {
        "city": "Ibitinga",
        "state": "SP",
        "district": "Jardim Santa Catarina",
        "street": "Rua Guilherme Aparecido Biondo",
        "zipcode": "14943-254"
    },
    {
        "city": "Ibitinga",
        "state": "SP",
        "district": "Jardim Nova Ibitinga",
        "street": "Rua Filomena Forte",
        "zipcode": "14945-230"
    },
    {
        "city": "Ibitinga",
        "state": "SP",
        "district": "Residencial Santo Expedito",
        "street": "Rua Izabel Rubio Zuppolini",
        "zipcode": "14947-426"
    },
    {
        "city": "Ibitinga",
        "state": "SP",
        "district": "Jardim das Paineiras",
        "street": "Rua Gabriel Predolin",
        "zipcode": "14948-098"
    },
    {
        "city": "Ibitinga",
        "state": "SP",
        "district": "Jardim Paulista",
        "street": "Rua Horizontino Negrão",
        "zipcode": "14940-410"
    },
    {
        "city": "Ibitinga",
        "state": "SP",
        "district": "Jardim Romana",
        "street": "Rua Honório Lorusso",
        "zipcode": "14947-014"
    },
    {
        "city": "Ibitinga",
        "state": "SP",
        "district": "Vila Simões",
        "street": "Rua Honório Lorusso",
        "zipcode": "14947-084"
    },
    {
        "city": "Ibitinga",
        "state": "SP",
        "district": "Jardim das Paineiras",
        "street": "Rua Francisco Mateus de Oliveira",
        "zipcode": "14948-088"
    },
    {
        "city": "Ibitinga",
        "state": "SP",
        "district": "Jardim Santa Catarina",
        "street": "Rua Gabriel Giansant",
        "zipcode": "14943-248"
    },
    {
        "city": "Ibitinga",
        "state": "SP",
        "district": "Jardim Roseira",
        "street": "Rua Helizena Maria Longo Biondo",
        "zipcode": "14940-858"
    },
    {
        "city": "Ibitinga",
        "state": "SP",
        "district": "Jardim Natalia",
        "street": "Rua Guilherme Aparecido Biondo",
        "zipcode": "14943-228"
    },
    {
        "city": "Ibitinga",
        "state": "SP",
        "district": "Jardim Três Irmãos",
        "street": "Rua Graciano Gaion",
        "zipcode": "14947-040"
    },
    {
        "city": "Ibitinga",
        "state": "SP",
        "district": "Jardim das Paineiras",
        "street": "Rua Felipe Matioli",
        "zipcode": "14948-102"
    },
    {
        "city": "Ibitinga",
        "state": "SP",
        "district": "Jardim São José",
        "street": "Rua Francisco Castilho Marques",
        "zipcode": "14940-624"
    },
    {
        "city": "Ibitinga",
        "state": "SP",
        "district": "Vila Maria",
        "street": "Rua Expedicionário Kai Jenson",
        "zipcode": "14948-350"
    },
    {
        "city": "Ibitinga",
        "state": "SP",
        "district": "Jardim Taquaral",
        "street": "Rua Gilberto Timoteo Ocon Melro",
        "zipcode": "14947-118"
    },
    {
        "city": "Ibitinga",
        "state": "SP",
        "district": "Cidade Jardim Canaã",
        "street": "Rua Ipê Branco",
        "zipcode": "14942-338"
    },
    {
        "city": "Ibitinga",
        "state": "SP",
        "district": "Jardim Pacola",
        "street": "Rua Idulia da Costa Villela",
        "zipcode": "14948-024"
    },
    {
        "city": "Ibitinga",
        "state": "SP",
        "district": "Centro",
        "street": "Rua Floriano Peixoto",
        "zipcode": "14940-229"
    },
    {
        "city": "Ibitinga",
        "state": "SP",
        "district": "Jardim São João",
        "street": "Rua Francisco Castilho Marques",
        "zipcode": "14940-646"
    },
    {
        "city": "Ibitinga",
        "state": "SP",
        "district": "Jardim Roseira",
        "street": "Rua Gilberto Quaresma",
        "zipcode": "14940-842"
    },
    {
        "city": "Ibitinga",
        "state": "SP",
        "district": "Jardim Santa Clara",
        "street": "Rua Hermelindo Constantino",
        "zipcode": "14945-200"
    },
    {
        "city": "Ibitinga",
        "state": "SP",
        "district": "Centro",
        "street": "Rua Idulia da Costa Villela",
        "zipcode": "14940-031"
    },
    {
        "city": "Ibitinga",
        "state": "SP",
        "district": "Jardim Terra Branca",
        "street": "Rua Flávio Pinheiro",
        "zipcode": "14940-250"
    },
    {
        "city": "Ibitinga",
        "state": "SP",
        "district": "Centro",
        "street": "Rua Gama Cerqueira",
        "zipcode": "14940-070"
    },
    {
        "city": "Ibitinga",
        "state": "SP",
        "district": "Jardim Romana",
        "street": "Rua Francisco Correia do Prado",
        "zipcode": "14947-012"
    },
    {
        "city": "Ibitinga",
        "state": "SP",
        "district": "Residencial Santo Expedito",
        "street": "Rua Gabriel Vicenzo Delicato",
        "zipcode": "14947-416"
    },
    {
        "city": "Ibitinga",
        "state": "SP",
        "district": "Jardim London Park",
        "street": "Rua Italia Ricardi Russi",
        "zipcode": "14942-068"
    },
    {
        "city": "Ibitinga",
        "state": "SP",
        "district": "Vila Santa Tereza",
        "street": "Rua Horizontino Negrão",
        "zipcode": "14940-382"
    },
    {
        "city": "Ibitinga",
        "state": "SP",
        "district": "Jardim Dona Almira",
        "street": "Rua Felícia Bianchi Di Rienzo",
        "zipcode": "14942-034"
    },
    {
        "city": "Ibitinga",
        "state": "SP",
        "district": "Jardim das Paineiras",
        "street": "Rua José João Basílio",
        "zipcode": "14948-086"
    },
    {
        "city": "Ibitinga",
        "state": "SP",
        "district": "Jardim Santo Antônio",
        "street": "Rua Jesus Paschoal",
        "zipcode": "14945-170"
    },
    {
        "city": "Ibitinga",
        "state": "SP",
        "district": "Jardim Izolina",
        "street": "Rua José Alves Costa",
        "zipcode": "14943-444"
    },
    {
        "city": "Ibitinga",
        "state": "SP",
        "district": "Cidade Jardim Canaã",
        "street": "Rua Jerivá",
        "zipcode": "14942-352"
    },
    {
        "city": "Ibitinga",
        "state": "SP",
        "district": "Jardim Centenário",
        "street": "Rua João Soares Arantes",
        "zipcode": "14940-468"
    },
    {
        "city": "Ibitinga",
        "state": "SP",
        "district": "Distrito Industrial João Paulo Bocca (I)",
        "street": "Rua Joaquim Pereira de Souza",
        "zipcode": "14943-534"
    },
    {
        "city": "Ibitinga",
        "state": "SP",
        "district": "Jardim Felicidade",
        "street": "Rua José Augusto Massola",
        "zipcode": "14945-250"
    },
    {
        "city": "Ibitinga",
        "state": "SP",
        "district": "Jardim Flamboyant",
        "street": "Rua José Bonelli",
        "zipcode": "14946-164"
    },
    {
        "city": "Ibitinga",
        "state": "SP",
        "district": "Jardim Santa Catarina",
        "street": "Rua José Corrêa Lorusso",
        "zipcode": "14943-260"
    },
    {
        "city": "Ibitinga",
        "state": "SP",
        "district": "Jardim Ternura",
        "street": "Rua Joaquim Antonio Garcia",
        "zipcode": "14943-034"
    },
    {
        "city": "Ibitinga",
        "state": "SP",
        "district": "Ângelo de Rosa",
        "street": "Rua José Bonelli",
        "zipcode": "14946-140"
    },
    {
        "city": "Ibitinga",
        "state": "SP",
        "district": "Vila Guarany",
        "street": "Rua José Fernandes Villela",
        "zipcode": "14940-580"
    },
    {
        "city": "Ibitinga",
        "state": "SP",
        "district": "Jardim das Paineiras",
        "street": "Rua José Jacyntho de Amorim Gonçalves",
        "zipcode": "14948-084"
    },
    {
        "city": "Ibitinga",
        "state": "SP",
        "district": "Residencial São Domingos II",
        "street": "Rua José Carrozzi",
        "zipcode": "14948-118"
    },
    {
        "city": "Ibitinga",
        "state": "SP",
        "district": "Jardim London Park",
        "street": "Rua João da Fonseca",
        "zipcode": "14942-060"
    },
    {
        "city": "Ibitinga",
        "state": "SP",
        "district": "Jardim Planalto",
        "street": "Rua João Stabile",
        "zipcode": "14942-018"
    },
    {
        "city": "Ibitinga",
        "state": "SP",
        "district": "Jardim América",
        "street": "Rua José Augusto Massola",
        "zipcode": "14945-064"
    },
    {
        "city": "Ibitinga",
        "state": "SP",
        "district": "Jardim Natalia",
        "street": "Rua José Claudino",
        "zipcode": "14943-218"
    },
    {
        "city": "Ibitinga",
        "state": "SP",
        "district": "Centro",
        "street": "Rua Jonas Francisco de Lima",
        "zipcode": "14940-028"
    },
    {
        "city": "Ibitinga",
        "state": "SP",
        "district": "Jardim Maria Luiza II",
        "street": "Rua José Augusto Massola",
        "zipcode": "14945-140"
    },
    {
        "city": "Ibitinga",
        "state": "SP",
        "district": "Vila Guarany",
        "street": "Rua José Adolfo Musa",
        "zipcode": "14940-578"
    },
    {
        "city": "Ibitinga",
        "state": "SP",
        "district": "Jardim London Park",
        "street": "Rua José Carlos Tognoli",
        "zipcode": "14942-072"
    },
    {
        "city": "Ibitinga",
        "state": "SP",
        "district": "Vila Guarany",
        "street": "Rua José de Carvalho Filho",
        "zipcode": "14940-584"
    },
    {
        "city": "Ibitinga",
        "state": "SP",
        "district": "Jardim Maria Luiza II",
        "street": "Rua João Marotti",
        "zipcode": "14945-138"
    },
    {
        "city": "Ibitinga",
        "state": "SP",
        "district": "Centro",
        "street": "Rua José Custódio",
        "zipcode": "14940-172"
    },
    {
        "city": "Ibitinga",
        "state": "SP",
        "district": "Jardim Flamboyant",
        "street": "Rua João Storniolo",
        "zipcode": "14946-174"
    },
    {
        "city": "Ibitinga",
        "state": "SP",
        "district": "Parque Industrial",
        "street": "Rua José Jacomini",
        "zipcode": "14942-102"
    },
    {
        "city": "Ibitinga",
        "state": "SP",
        "district": "Jardim Maria Luiza II",
        "street": "Rua João Cancio de Toledo Piza",
        "zipcode": "14945-148"
    },
    {
        "city": "Ibitinga",
        "state": "SP",
        "district": "Jardim Eldorado II",
        "street": "Rua José de Paula Souza",
        "zipcode": "14944-112"
    },
    {
        "city": "Ibitinga",
        "state": "SP",
        "district": "Jardim Centenário",
        "street": "Rua João Gereto",
        "zipcode": "14940-488"
    },
    {
        "city": "Ibitinga",
        "state": "SP",
        "district": "Residencial Santo Expedito",
        "street": "Rua João de Oliveira Silva",
        "zipcode": "14947-428"
    },
    {
        "city": "Ibitinga",
        "state": "SP",
        "district": "Jardim Eldorado",
        "street": "Rua José de Paula Souza",
        "zipcode": "14944-058"
    },
    {
        "city": "Ibitinga",
        "state": "SP",
        "district": "Vila Maria",
        "street": "Rua José Longhini",
        "zipcode": "14948-380"
    },
    {
        "city": "Ibitinga",
        "state": "SP",
        "district": "Paulo de Biazi",
        "street": "Rua José Augusto Massola",
        "zipcode": "14945-094"
    },
    {
        "city": "Ibitinga",
        "state": "SP",
        "district": "Jardim Maria Luiza II",
        "street": "Rua José Biazi",
        "zipcode": "14945-132"
    },
    {
        "city": "Ibitinga",
        "state": "SP",
        "district": "Jardim Maria Luiza II",
        "street": "Rua João Batista de Oliveira",
        "zipcode": "14945-146"
    },
    {
        "city": "Ibitinga",
        "state": "SP",
        "district": "Vila Maria",
        "street": "Rua Joana Salia Salva",
        "zipcode": "14948-378"
    },
    {
        "city": "Ibitinga",
        "state": "SP",
        "district": "Paulo de Biazi",
        "street": "Rua João Marotti",
        "zipcode": "14945-090"
    },
    {
        "city": "Ibitinga",
        "state": "SP",
        "district": "Centro (Cambaratiba)",
        "street": "Rua José Amendola da Silva",
        "zipcode": "14949-012"
    },
    {
        "city": "Ibitinga",
        "state": "SP",
        "district": "Residencial São Benedito",
        "street": "Rua João Martins Vieira",
        "zipcode": "14947-390"
    },
    {
        "city": "Ibitinga",
        "state": "SP",
        "district": "Distrito Industrial João Paulo Bocca (I)",
        "street": "Rua João José Casado",
        "zipcode": "14943-532"
    },
    {
        "city": "Ibitinga",
        "state": "SP",
        "district": "Centro",
        "street": "Rua José Custódio",
        "zipcode": "14940-016"
    },
    {
        "city": "Ibitinga",
        "state": "SP",
        "district": "Jardim Tropical",
        "street": "Rua João Batista Scarpim",
        "zipcode": "14942-168"
    },
    {
        "city": "Ibitinga",
        "state": "SP",
        "district": "Jardim Pacola",
        "street": "Rua João Abrão",
        "zipcode": "14948-030"
    },
    {
        "city": "Ibitinga",
        "state": "SP",
        "district": "Jardim Aurora",
        "street": "Rua João Carlos Longuini",
        "zipcode": "14948-572"
    },
    {
        "city": "Ibitinga",
        "state": "SP",
        "district": "Jardim Nova Ibitinga",
        "street": "Rua João Nunes Pinheiro",
        "zipcode": "14945-240"
    },
    {
        "city": "Ibitinga",
        "state": "SP",
        "district": "Jardim São Paulo",
        "street": "Rua João Marotti",
        "zipcode": "14945-110"
    },
    {
        "city": "Ibitinga",
        "state": "SP",
        "district": "Jardim Natalia",
        "street": "Rua João Rosa Sobrinho",
        "zipcode": "14943-230"
    },
    {
        "city": "Ibitinga",
        "state": "SP",
        "district": "Parque Industrial",
        "street": "Rua Joaquim Pinheiro",
        "zipcode": "14942-112"
    },
    {
        "city": "Ibitinga",
        "state": "SP",
        "district": "Terras de São Joaquim II",
        "street": "Rua José Crispim de Freitas",
        "zipcode": "14948-428"
    },
    {
        "city": "Ibitinga",
        "state": "SP",
        "district": "Jardim Planalto",
        "street": "Rua João Milanezi",
        "zipcode": "14942-008"
    },
    {
        "city": "Ibitinga",
        "state": "SP",
        "district": "Residencial São Benedito",
        "street": "Rua Joaquim Mazzeto",
        "zipcode": "14947-392"
    },
    {
        "city": "Ibitinga",
        "state": "SP",
        "district": "Alto dos Pinheiros",
        "street": "Rua Lavinia Honorio Araujo",
        "zipcode": "14943-184"
    },
    {
        "city": "Ibitinga",
        "state": "SP",
        "district": "Parque das Águas Canaã",
        "street": "Rua Mambu",
        "zipcode": "14942-288"
    },
    {
        "city": "Ibitinga",
        "state": "SP",
        "district": "Jardim São Jorge",
        "street": "Rua Manoel de Morais",
        "zipcode": "14943-008"
    },
    {
        "city": "Ibitinga",
        "state": "SP",
        "district": "Jardim Rafaela II",
        "street": "Rua José Pinheiro de Freitas",
        "zipcode": "14945-054"
    },
    {
        "city": "Ibitinga",
        "state": "SP",
        "district": "Jardim Eldorado",
        "street": "Rua Luiza Hipolito Jacomini",
        "zipcode": "14944-030"
    },
    {
        "city": "Ibitinga",
        "state": "SP",
        "district": "Jardim Felicidade",
        "street": "Rua Luiz Furco",
        "zipcode": "14945-260"
    },
    {
        "city": "Ibitinga",
        "state": "SP",
        "district": "Jardim Bela Vista Sul",
        "street": "Rua José Rossigali",
        "zipcode": "14943-172"
    },
    {
        "city": "Ibitinga",
        "state": "SP",
        "district": "Jardim São Jorge",
        "street": "Rua Julieta",
        "zipcode": "14943-004"
    },
    {
        "city": "Ibitinga",
        "state": "SP",
        "district": "Jardim Flamboyant",
        "street": "Rua José Ribeiro Sobrinho",
        "zipcode": "14946-160"
    },
    {
        "city": "Ibitinga",
        "state": "SP",
        "district": "Residencial Dona Branca",
        "street": "Rua Luiz Galli",
        "zipcode": "14944-104"
    },
    {
        "city": "Ibitinga",
        "state": "SP",
        "district": "Jardim São Paulo",
        "street": "Rua José Tofik",
        "zipcode": "14945-112"
    },
    {
        "city": "Ibitinga",
        "state": "SP",
        "district": "Jardim São Jorge",
        "street": "Rua Maiká",
        "zipcode": "14943-006"
    },
    {
        "city": "Ibitinga",
        "state": "SP",
        "district": "Jardim London Park",
        "street": "Rua K",
        "zipcode": "14942-058"
    },
    {
        "city": "Ibitinga",
        "state": "SP",
        "district": "Jardim Verona",
        "street": "Rua Judith de Souza Pinheiro de Freitas",
        "zipcode": "14945-224"
    },
    {
        "city": "Ibitinga",
        "state": "SP",
        "district": "Distrito Industrial João Paulo Bocca (I)",
        "street": "Rua Julião de Souza Ribeiro",
        "zipcode": "14943-538"
    },
    {
        "city": "Ibitinga",
        "state": "SP",
        "district": "Jardim dos Bancários",
        "street": "Rua Lázaro Bernardo",
        "zipcode": "14940-886"
    },
    {
        "city": "Ibitinga",
        "state": "SP",
        "district": "Jardim Campo Belo",
        "street": "Rua José Rossigali",
        "zipcode": "14943-202"
    },
    {
        "city": "Ibitinga",
        "state": "SP",
        "district": "Jardim Petrópolis",
        "street": "Rua José Marcellino Neto",
        "zipcode": "14940-532"
    },
    {
        "city": "Ibitinga",
        "state": "SP",
        "district": "Jardim Dona Almira",
        "street": "Rua Lázaro Nunes Pinheiro",
        "zipcode": "14942-032"
    },
    {
        "city": "Ibitinga",
        "state": "SP",
        "district": "Chácara Alvorada",
        "street": "Rua José Pereira",
        "zipcode": "14940-672"
    },
    {
        "city": "Ibitinga",
        "state": "SP",
        "district": "Jardim Izolina",
        "street": "Rua José Martinelli Corrêa",
        "zipcode": "14943-452"
    },
    {
        "city": "Ibitinga",
        "state": "SP",
        "district": "Jardim Taquaral",
        "street": "Rua José Nelson Gabriel",
        "zipcode": "14947-128"
    },
    {
        "city": "Ibitinga",
        "state": "SP",
        "district": "Parque Industrial",
        "street": "Rua Luiz Rizzi",
        "zipcode": "14942-114"
    },
    {
        "city": "Ibitinga",
        "state": "SP",
        "district": "Jardim Santo André",
        "street": "Rua Manoel Joaquim Simões",
        "zipcode": "14940-434"
    },
    {
        "city": "Ibitinga",
        "state": "SP",
        "district": "Vila Maria",
        "street": "Rua José Pires de Oliveira",
        "zipcode": "14948-384"
    },
    {
        "city": "Ibitinga",
        "state": "SP",
        "district": "Jardim Ternura",
        "street": "Rua Lucindo Fernandes de Mello",
        "zipcode": "14943-032"
    },
    {
        "city": "Ibitinga",
        "state": "SP",
        "district": "Jardim São João",
        "street": "Rua Leopoldo Eugênio de Campos",
        "zipcode": "14940-652"
    },
    {
        "city": "Ibitinga",
        "state": "SP",
        "district": "Jardim Margarida",
        "street": "Rua Leontino de Oliveira Arantes",
        "zipcode": "14940-562"
    },
    {
        "city": "Ibitinga",
        "state": "SP",
        "district": "Residencial São Benedito",
        "street": "Rua Leandro de Morais",
        "zipcode": "14947-372"
    },
    {
        "city": "Ibitinga",
        "state": "SP",
        "district": "Jardim Bela Vista Sul",
        "street": "Rua Lázara Marques Geretto",
        "zipcode": "14943-166"
    },
    {
        "city": "Ibitinga",
        "state": "SP",
        "district": "Vila Maria",
        "street": "Rua José Nandes Costa",
        "zipcode": "14948-382"
    },
    {
        "city": "Ibitinga",
        "state": "SP",
        "district": "Vila Maria",
        "street": "Rua Luiz Zanetti",
        "zipcode": "14948-394"
    },
    {
        "city": "Ibitinga",
        "state": "SP",
        "district": "Jardim Campo Belo",
        "street": "Rua Luiz Henrique Adegas",
        "zipcode": "14943-204"
    },
    {
        "city": "Ibitinga",
        "state": "SP",
        "district": "Jardim São João",
        "street": "Rua Maestro Fernando Arantes Brasil",
        "zipcode": "14940-658"
    },
    {
        "city": "Ibitinga",
        "state": "SP",
        "district": "Jardim Santa Clara",
        "street": "Rua José Manoel Martins Lorenci",
        "zipcode": "14945-190"
    },
    {
        "city": "Ibitinga",
        "state": "SP",
        "district": "Jardim Três Irmãos",
        "street": "Rua José Nelson Gabriel",
        "zipcode": "14947-050"
    },
    {
        "city": "Ibitinga",
        "state": "SP",
        "district": "Cidade Jardim Canaã",
        "street": "Rua K",
        "zipcode": "14942-350"
    },
    {
        "city": "Ibitinga",
        "state": "SP",
        "district": "Jardim São José",
        "street": "Rua Leopoldo Eugênio de Campos",
        "zipcode": "14940-618"
    },
    {
        "city": "Ibitinga",
        "state": "SP",
        "district": "Residencial São Domingos II",
        "street": "Rua Juvenal Sitoni",
        "zipcode": "14948-114"
    },
    {
        "city": "Ibitinga",
        "state": "SP",
        "district": "Jardim Bela Vista Sul",
        "street": "Rua Luiz Henrique Adegas",
        "zipcode": "14943-164"
    },
    {
        "city": "Ibitinga",
        "state": "SP",
        "district": "Jardim São Paulo",
        "street": "Rua Kalil José Sawaia",
        "zipcode": "14945-114"
    },
    {
        "city": "Ibitinga",
        "state": "SP",
        "district": "Jardim Izolina",
        "street": "Rua Marcilio Diniz Corrêa (Barão)",
        "zipcode": "14943-448"
    },
    {
        "city": "Ibitinga",
        "state": "SP",
        "district": "Jardim Mirante",
        "street": "Rua Maceió",
        "zipcode": "14947-248"
    },
    {
        "city": "Ibitinga",
        "state": "SP",
        "district": "Jardim Nações Unidas",
        "street": "Rua Marcelino Tricai",
        "zipcode": "14943-514"
    },
    {
        "city": "Ibitinga",
        "state": "SP",
        "district": "Residencial Parque Morumbi",
        "street": "Rua Justo de Oliveira Sampaio",
        "zipcode": "14943-478"
    },
    {
        "city": "Ibitinga",
        "state": "SP",
        "district": "Alvorada",
        "street": "Rua José Pereira",
        "zipcode": "14940-702"
    },
    {
        "city": "Ibitinga",
        "state": "SP",
        "district": "Jardim São José",
        "street": "Rua José Scarpim",
        "zipcode": "14940-608"
    },
    {
        "city": "Ibitinga",
        "state": "SP",
        "district": "Jardim do Bosque",
        "street": "Rua Luiz Barella",
        "zipcode": "14945-004"
    },
    {
        "city": "Ibitinga",
        "state": "SP",
        "district": "Jardim Petrópolis",
        "street": "Rua Magdalena Tavares dos Santos",
        "zipcode": "14940-538"
    },
    {
        "city": "Ibitinga",
        "state": "SP",
        "district": "Jardim Flamboyant",
        "street": "Rua José Roldão de Oliveira",
        "zipcode": "14946-176"
    },
    {
        "city": "Ibitinga",
        "state": "SP",
        "district": "Vila Guarany",
        "street": "Rua Luiz Doro",
        "zipcode": "14940-574"
    },
    {
        "city": "Ibitinga",
        "state": "SP",
        "district": "Vila Simões",
        "street": "Rua José Nelson Gabriel",
        "zipcode": "14947-080"
    },
    {
        "city": "Ibitinga",
        "state": "SP",
        "district": "Jardim do Sol II",
        "street": "Rua José Pereira",
        "zipcode": "14940-682"
    },
    {
        "city": "Ibitinga",
        "state": "SP",
        "district": "Jardim Mirante",
        "street": "Rua Olinda",
        "zipcode": "14947-264"
    },
    {
        "city": "Ibitinga",
        "state": "SP",
        "district": "Jardim São Jorge",
        "street": "Rua Margarida Pilhalarme Lepera",
        "zipcode": "14943-010"
    },
    {
        "city": "Ibitinga",
        "state": "SP",
        "district": "Jardim Eldorado",
        "street": "Rua Orville Russi",
        "zipcode": "14944-052"
    },
    {
        "city": "Ibitinga",
        "state": "SP",
        "district": "Jardim Três Irmãos",
        "street": "Rua Niceu Stanzani",
        "zipcode": "14947-042"
    },
    {
        "city": "Ibitinga",
        "state": "SP",
        "district": "Centro (Cambaratiba)",
        "street": "Rua Marechal Deodoro",
        "zipcode": "14949-016"
    },
    {
        "city": "Ibitinga",
        "state": "SP",
        "district": "Jardim Paulista",
        "street": "Rua Oliveira Barros",
        "zipcode": "14940-406"
    },
    {
        "city": "Ibitinga",
        "state": "SP",
        "district": "Terras de São Joaquim II",
        "street": "Rua Maria Sampaio Ramos",
        "zipcode": "14948-430"
    },
    {
        "city": "Ibitinga",
        "state": "SP",
        "district": "Jardim Mirante",
        "street": "Rua Natal",
        "zipcode": "14947-266"
    },
    {
        "city": "Ibitinga",
        "state": "SP",
        "district": "Jardim Nações Unidas",
        "street": "Rua Paschoal Storniolo",
        "zipcode": "14943-516"
    },
    {
        "city": "Ibitinga",
        "state": "SP",
        "district": "Jardim São José",
        "street": "Rua Oscar de Carvalho",
        "zipcode": "14940-604"
    },
    {
        "city": "Ibitinga",
        "state": "SP",
        "district": "Residencial São Domingos II",
        "street": "Rua Orlando Luiz Miola",
        "zipcode": "14948-126"
    },
    {
        "city": "Ibitinga",
        "state": "SP",
        "district": "Jardim Margarida",
        "street": "Rua Nelson Rodrigues Freire",
        "zipcode": "14940-560"
    },
    {
        "city": "Ibitinga",
        "state": "SP",
        "district": "Centro",
        "street": "Rua Nunes Pinheiro",
        "zipcode": "14940-226"
    },
    {
        "city": "Ibitinga",
        "state": "SP",
        "district": "Jardim Roseira",
        "street": "Rua Mauro Sabione",
        "zipcode": "14940-854"
    },
    {
        "city": "Ibitinga",
        "state": "SP",
        "district": "Jardim São João",
        "street": "Rua Maria Geraldina da Motta",
        "zipcode": "14940-660"
    },
    {
        "city": "Ibitinga",
        "state": "SP",
        "district": "Vila Maria",
        "street": "Rua Paschoal Dentini",
        "zipcode": "14948-366"
    },
    {
        "city": "Ibitinga",
        "state": "SP",
        "district": "Vila Guarany",
        "street": "Rua Maria Geraldina da Motta",
        "zipcode": "14940-594"
    },
    {
        "city": "Ibitinga",
        "state": "SP",
        "district": "Jardim Adriana",
        "street": "Rua Nadalin Bazoni",
        "zipcode": "14946-196"
    },
    {
        "city": "Ibitinga",
        "state": "SP",
        "district": "Centro",
        "street": "Rua Marechal Deodoro",
        "zipcode": "14940-139"
    },
    {
        "city": "Ibitinga",
        "state": "SP",
        "district": "Centro",
        "street": "Rua Orlando Fracalossi",
        "zipcode": "14940-013"
    },
    {
        "city": "Ibitinga",
        "state": "SP",
        "district": "Vila Guarany",
        "street": "Rua Oscar de Carvalho",
        "zipcode": "14940-582"
    },
    {
        "city": "Ibitinga",
        "state": "SP",
        "district": "Jardim Eldorado",
        "street": "Rua Maria José de Paula Souza",
        "zipcode": "14944-024"
    },
    {
        "city": "Ibitinga",
        "state": "SP",
        "district": "Centro",
        "street": "Rua Miguel Landim",
        "zipcode": "14940-112"
    },
    {
        "city": "Ibitinga",
        "state": "SP",
        "district": "Jardim Planalto",
        "street": "Rua Naim José Sawaia",
        "zipcode": "14942-014"
    },
    {
        "city": "Ibitinga",
        "state": "SP",
        "district": "Jardim São Jorge",
        "street": "Rua Ovídio Braga",
        "zipcode": "14943-020"
    },
    {
        "city": "Ibitinga",
        "state": "SP",
        "district": "Jardim Centenário",
        "street": "Rua Nello Novelli",
        "zipcode": "14940-490"
    },
    {
        "city": "Ibitinga",
        "state": "SP",
        "district": "Residencial São Domingos II",
        "street": "Rua Nelson Salvador",
        "zipcode": "14948-116"
    },
    {
        "city": "Ibitinga",
        "state": "SP",
        "district": "Jardim Terra Branca",
        "street": "Rua Odilon Pagni Gelli",
        "zipcode": "14940-248"
    },
    {
        "city": "Ibitinga",
        "state": "SP",
        "district": "Chácara Alvorada",
        "street": "Rua Maria Geraldina da Motta",
        "zipcode": "14940-674"
    },
    {
        "city": "Ibitinga",
        "state": "SP",
        "district": "Santa Izaura",
        "street": "Rua Particular",
        "zipcode": "14948-542"
    },
    {
        "city": "Ibitinga",
        "state": "SP",
        "district": "Cidade Jardim Canaã",
        "street": "Rua Oiti",
        "zipcode": "14942-342"
    },
    {
        "city": "Ibitinga",
        "state": "SP",
        "district": "Centro",
        "street": "Rua Paulino Carlos",
        "zipcode": "14940-163"
    },
    {
        "city": "Ibitinga",
        "state": "SP",
        "district": "Jardim Izolina",
        "street": "Rua Paulo Augusto Tucci",
        "zipcode": "14943-440"
    },
    {
        "city": "Ibitinga",
        "state": "SP",
        "district": "Jardim Natalia",
        "street": "Rua Marinaldo de Oliveira Claudino",
        "zipcode": "14943-220"
    },
    {
        "city": "Ibitinga",
        "state": "SP",
        "district": "Jardim Roseira",
        "street": "Rua Maria Geraldina da Motta",
        "zipcode": "14940-840"
    },
    {
        "city": "Ibitinga",
        "state": "SP",
        "district": "Parque Industrial",
        "street": "Rua Paschoal Lepera",
        "zipcode": "14942-110"
    },
    {
        "city": "Ibitinga",
        "state": "SP",
        "district": "Alto dos Pinheiros",
        "street": "Rua Maria Barbara Guidi",
        "zipcode": "14943-186"
    },
    {
        "city": "Ibitinga",
        "state": "SP",
        "district": "Jardim Mirante",
        "street": "Rua Paraíba",
        "zipcode": "14947-254"
    },
    {
        "city": "Ibitinga",
        "state": "SP",
        "district": "Parque das Águas Canaã",
        "street": "Rua Pedra Branca",
        "zipcode": "14942-316"
    },
    {
        "city": "Ibitinga",
        "state": "SP",
        "district": "Jardim Terra Branca",
        "street": "Rua Marechal Deodoro",
        "zipcode": "14940-246"
    },
    {
        "city": "Ibitinga",
        "state": "SP",
        "district": "Jardim Planalto",
        "street": "Rua Oreste Russi",
        "zipcode": "14942-002"
    },
    {
        "city": "Ibitinga",
        "state": "SP",
        "district": "Jardim London Park",
        "street": "Rua Ovidio Di Pardi",
        "zipcode": "14942-056"
    },
    {
        "city": "Ibitinga",
        "state": "SP",
        "district": "Jardim Izolina",
        "street": "Rua Nagem Elias Ferreira",
        "zipcode": "14943-458"
    },
    {
        "city": "Ibitinga",
        "state": "SP",
        "district": "Jardim Natalia",
        "street": "Rua Pastor Silvio Criscolim",
        "zipcode": "14943-214"
    },
    {
        "city": "Ibitinga",
        "state": "SP",
        "district": "Vila Maria",
        "street": "Rua Maria Rosa Simões Fernandes",
        "zipcode": "14948-342"
    },
    {
        "city": "Ibitinga",
        "state": "SP",
        "district": "Jardim Tropical",
        "street": "Rua Paulo Augusto Sampaio",
        "zipcode": "14942-156"
    },
    {
        "city": "Ibitinga",
        "state": "SP",
        "district": "Jardim do Bosque",
        "street": "Rua Mário Paschoal Buzato",
        "zipcode": "14945-006"
    },
    {
        "city": "Ibitinga",
        "state": "SP",
        "district": "Jardim Eldorado",
        "street": "Rua Paschoal Pacola",
        "zipcode": "14944-044"
    },
    {
        "city": "Ibitinga",
        "state": "SP",
        "district": "Jardim Flamboyant",
        "street": "Rua Nivaldo Scarpim",
        "zipcode": "14946-182"
    },
    {
        "city": "Ibitinga",
        "state": "SP",
        "district": "Jardim Planalto",
        "street": "Rua Maximiano Ribeiro da Silva",
        "zipcode": "14942-010"
    },
    {
        "city": "Ibitinga",
        "state": "SP",
        "district": "Izilda",
        "street": "Rua Ovídio Braga",
        "zipcode": "14943-092"
    },
    {
        "city": "Ibitinga",
        "state": "SP",
        "district": "Capim Fino",
        "street": "Rua Pedro Ianni",
        "zipcode": "14948-552"
    },
    {
        "city": "Ibitinga",
        "state": "SP",
        "district": "Jardim Roseira",
        "street": "Rua Miguel Luiz Chiés",
        "zipcode": "14940-862"
    },
    {
        "city": "Ibitinga",
        "state": "SP",
        "district": "Jardim Margarida",
        "street": "Rua Nunila Fernandes Arantes",
        "zipcode": "14940-558"
    },
    {
        "city": "Ibitinga",
        "state": "SP",
        "district": "Jardim Eldorado II",
        "street": "Rua Pedro Ribeiro Fernando",
        "zipcode": "14944-116"
    },
    {
        "city": "Ibitinga",
        "state": "SP",
        "district": "Jardim das Paineiras",
        "street": "Rua Maria Rosa Simões Fernandes",
        "zipcode": "14948-100"
    },
    {
        "city": "Ibitinga",
        "state": "SP",
        "district": "Jardim das Paineiras",
        "street": "Rua Osório de Souza Caldas",
        "zipcode": "14948-072"
    },
    {
        "city": "Ibitinga",
        "state": "SP",
        "district": "Jardim das Paineiras II",
        "street": "Rua Plínio Alves Casemiro Júnior",
        "zipcode": "14948-050"
    },
    {
        "city": "Ibitinga",
        "state": "SP",
        "district": "Vila Maria",
        "street": "Rua Renato Cardoso Pimentel",
        "zipcode": "14948-392"
    },
    {
        "city": "Ibitinga",
        "state": "SP",
        "district": "Jardim do Bosque",
        "street": "Rua Raphael Alves Lopes",
        "zipcode": "14945-016"
    },
    {
        "city": "Ibitinga",
        "state": "SP",
        "district": "Jardim Aurora",
        "street": "Rua Quatro",
        "zipcode": "14948-578"
    },
    {
        "city": "Ibitinga",
        "state": "SP",
        "district": "Centro",
        "street": "Rua Pereira Landim",
        "zipcode": "14940-181"
    },
    {
        "city": "Ibitinga",
        "state": "SP",
        "district": "Jardim Bela Vista Sul",
        "street": "Rua Rocco Francischini",
        "zipcode": "14943-162"
    },
    {
        "city": "Ibitinga",
        "state": "SP",
        "district": "Centro",
        "street": "Rua Pereira Landim",
        "zipcode": "14940-091"
    },
    {
        "city": "Ibitinga",
        "state": "SP",
        "district": "Jardim Santo André",
        "street": "Rua Prudente de Moraes",
        "zipcode": "14940-436"
    },
    {
        "city": "Ibitinga",
        "state": "SP",
        "district": "Residencial Vitoria III",
        "street": "Rua Professor Ivanir Antonio de Rezende",
        "zipcode": "14940-504"
    },
    {
        "city": "Ibitinga",
        "state": "SP",
        "district": "Ibitinga III",
        "street": "Rua Quatro",
        "zipcode": "14947-130"
    },
    {
        "city": "Ibitinga",
        "state": "SP",
        "district": "Jardim Tropical",
        "street": "Rua Pedro Cicotti",
        "zipcode": "14942-162"
    },
    {
        "city": "Ibitinga",
        "state": "SP",
        "district": "Jardim Três Irmãos",
        "street": "Rua Pureza Simões Caldas",
        "zipcode": "14947-030"
    },
    {
        "city": "Ibitinga",
        "state": "SP",
        "district": "Jardim Natalia",
        "street": "Rua Pedro de Amorim Ramos",
        "zipcode": "14943-224"
    },
    {
        "city": "Ibitinga",
        "state": "SP",
        "district": "Centro",
        "street": "Rua Quintino Bocaiuva",
        "zipcode": "14940-085"
    },
    {
        "city": "Ibitinga",
        "state": "SP",
        "district": "Jardim Flamboyant",
        "street": "Rua Paulo Fernando Altarejo",
        "zipcode": "14946-166"
    },
    {
        "city": "Ibitinga",
        "state": "SP",
        "district": "Jardim São João",
        "street": "Rua Pedro Manchini",
        "zipcode": "14940-642"
    },
    {
        "city": "Ibitinga",
        "state": "SP",
        "district": "Jardim dos Bancários",
        "street": "Rua Primo Stanzani",
        "zipcode": "14940-878"
    },
    {
        "city": "Ibitinga",
        "state": "SP",
        "district": "Jardim Centenário",
        "street": "Rua Roque Raineri",
        "zipcode": "14940-486"
    },
    {
        "city": "Ibitinga",
        "state": "SP",
        "district": "Jardim Verona",
        "street": "Rua Rosa de Barros Reis",
        "zipcode": "14945-218"
    },
    {
        "city": "Ibitinga",
        "state": "SP",
        "district": "Jardim Verona",
        "street": "Rua Paulo de Souza",
        "zipcode": "14945-214"
    },
    {
        "city": "Ibitinga",
        "state": "SP",
        "district": "Jardim Maria Helena II",
        "street": "Rua Prefeito Orlando Carlos Ferraro",
        "zipcode": "14944-016"
    },
    {
        "city": "Ibitinga",
        "state": "SP",
        "district": "Jardim Petrópolis",
        "street": "Rua Professor Ivanir Antonio de Rezende",
        "zipcode": "14940-542"
    },
    {
        "city": "Ibitinga",
        "state": "SP",
        "district": "Jardim Eldorado",
        "street": "Rua Paulo Arantes Ferreira",
        "zipcode": "14944-022"
    },
    {
        "city": "Ibitinga",
        "state": "SP",
        "district": "Jardim dos Ipês IV",
        "street": "Rua Quatro",
        "zipcode": "14945-276"
    },
    {
        "city": "Ibitinga",
        "state": "SP",
        "district": "Jardim Nova Ibitinga",
        "street": "Rua Pedro Ferrari",
        "zipcode": "14945-234"
    },
    {
        "city": "Ibitinga",
        "state": "SP",
        "district": "Centro",
        "street": "Rua Prudente de Moraes",
        "zipcode": "14940-103"
    },
    {
        "city": "Ibitinga",
        "state": "SP",
        "district": "Jardim Três Irmãos",
        "street": "Rua Pedro Simões",
        "zipcode": "14947-044"
    },
    {
        "city": "Ibitinga",
        "state": "SP",
        "district": "Vila Santa Tereza",
        "street": "Rua Prudente de Moraes",
        "zipcode": "14940-378"
    },
    {
        "city": "Ibitinga",
        "state": "SP",
        "district": "Jardim Tropical II",
        "street": "Rua Professor Paulo Ghiraldelli",
        "zipcode": "14942-142"
    },
    {
        "city": "Ibitinga",
        "state": "SP",
        "district": "Jardim Três Irmãos",
        "street": "Rua Rosa Simões",
        "zipcode": "14947-052"
    },
    {
        "city": "Ibitinga",
        "state": "SP",
        "district": "Jardim Mirante",
        "street": "Rua Piauí",
        "zipcode": "14947-250"
    },
    {
        "city": "Ibitinga",
        "state": "SP",
        "district": "Parque das Águas Canaã",
        "street": "Rua Rio Grande",
        "zipcode": "14942-320"
    },
    {
        "city": "Ibitinga",
        "state": "SP",
        "district": "Parque das Águas Canaã",
        "street": "Rua Sapucaí",
        "zipcode": "14942-284"
    },
    {
        "city": "Ibitinga",
        "state": "SP",
        "district": "Jardim Santo André",
        "street": "Rua Rio Branco",
        "zipcode": "14940-442"
    },
    {
        "city": "Ibitinga",
        "state": "SP",
        "district": "Jardim Paulista",
        "street": "Rua Prudente de Moraes",
        "zipcode": "14940-408"
    },
    {
        "city": "Ibitinga",
        "state": "SP",
        "district": "Terras de São Joaquim II",
        "street": "Rua Romeu Barbosa Amarante",
        "zipcode": "14948-436"
    },
    {
        "city": "Ibitinga",
        "state": "SP",
        "district": "Jardim Santo Antônio",
        "street": "Rua Sebastião dos Santos",
        "zipcode": "14945-160"
    },
    {
        "city": "Ibitinga",
        "state": "SP",
        "district": "Jardim Mirante",
        "street": "Rua Recife",
        "zipcode": "14947-268"
    },
    {
        "city": "Ibitinga",
        "state": "SP",
        "district": "Jardim Tropical",
        "street": "Rua Professor Paulo Ghiraldelli",
        "zipcode": "14942-152"
    },
    {
        "city": "Ibitinga",
        "state": "SP",
        "district": "Jardim Santo André",
        "street": "Rua São Carlos",
        "zipcode": "14940-446"
    },
    {
        "city": "Ibitinga",
        "state": "SP",
        "district": "Cidade Jardim Canaã",
        "street": "Rua Primavera",
        "zipcode": "14942-330"
    },
    {
        "city": "Ibitinga",
        "state": "SP",
        "district": "Parque Rancho Alegre",
        "street": "Rua Rancho Alegre",
        "zipcode": "14947-066"
    },
    {
        "city": "Ibitinga",
        "state": "SP",
        "district": "Residencial São Benedito",
        "street": "Rua Santo Hernandez",
        "zipcode": "14947-380"
    },
    {
        "city": "Ibitinga",
        "state": "SP",
        "district": "Centro",
        "street": "Rua Santo Antonio",
        "zipcode": "14940-007"
    },
    {
        "city": "Ibitinga",
        "state": "SP",
        "district": "Vila Santa Tereza",
        "street": "Rua Rio Branco",
        "zipcode": "14940-386"
    },
    {
        "city": "Ibitinga",
        "state": "SP",
        "district": "Residencial São Benedito",
        "street": "Rua Rogério Minzoni",
        "zipcode": "14947-378"
    },
    {
        "city": "Ibitinga",
        "state": "SP",
        "district": "Centro",
        "street": "Rua Rosalbino Tucci",
        "zipcode": "14940-184"
    },
    {
        "city": "Ibitinga",
        "state": "SP",
        "district": "Vila Maria",
        "street": "Rua Pedro Rui da Silva",
        "zipcode": "14948-398"
    },
    {
        "city": "Ibitinga",
        "state": "SP",
        "district": "Centro",
        "street": "Rua Prudente de Moraes",
        "zipcode": "14940-169"
    },
    {
        "city": "Ibitinga",
        "state": "SP",
        "district": "Parque Rancho Alegre",
        "street": "Rua Pedro Simões",
        "zipcode": "14947-072"
    },
    {
        "city": "Ibitinga",
        "state": "SP",
        "district": "Jardim Adriana",
        "street": "Rua Quatro",
        "zipcode": "14946-198"
    },
    {
        "city": "Ibitinga",
        "state": "SP",
        "district": "Jardim Centenário",
        "street": "Rua Salin Sahão",
        "zipcode": "14940-480"
    },
    {
        "city": "Ibitinga",
        "state": "SP",
        "district": "Jardim Nações Unidas",
        "street": "Rua Ricieri Viviani",
        "zipcode": "14943-512"
    },
    {
        "city": "Ibitinga",
        "state": "SP",
        "district": "Vila Simões",
        "street": "Rua Pureza Simões Caldas",
        "zipcode": "14947-082"
    },
    {
        "city": "Ibitinga",
        "state": "SP",
        "district": "Jardim Filadélfia",
        "street": "Rua Sebastião Jacinto de Amorim Gonçalves",
        "zipcode": "14946-150"
    },
    {
        "city": "Ibitinga",
        "state": "SP",
        "district": "Jardim Verona",
        "street": "Rua Rosa Verderio Gaion",
        "zipcode": "14945-216"
    },
    {
        "city": "Ibitinga",
        "state": "SP",
        "district": "Jardim Roseira",
        "street": "Rua Racy Scarpim",
        "zipcode": "14940-848"
    },
    {
        "city": "Ibitinga",
        "state": "SP",
        "district": "Cidade Jardim Canaã",
        "street": "Rua Sibipiruna",
        "zipcode": "14942-346"
    },
    {
        "city": "Ibitinga",
        "state": "SP",
        "district": "Jardim Taquaral",
        "street": "Rua Siriaco Salerno",
        "zipcode": "14947-112"
    },
    {
        "city": "Ibitinga",
        "state": "SP",
        "district": "Jardim Centenário",
        "street": "Rua Salomão Abud",
        "zipcode": "14940-462"
    },
    {
        "city": "Ibitinga",
        "state": "SP",
        "district": "Jardim Natalia",
        "street": "Rua Salvador Rufino Neto",
        "zipcode": "14943-222"
    },
    {
        "city": "Ibitinga",
        "state": "SP",
        "district": "Jardim Nova Ibitinga",
        "street": "Rua Setímio Montanari",
        "zipcode": "14945-238"
    },
    {
        "city": "Ibitinga",
        "state": "SP",
        "district": "Parque das Águas Canaã",
        "street": "Rua Solimões",
        "zipcode": "14942-318"
    },
    {
        "city": "Ibitinga",
        "state": "SP",
        "district": "Paulo de Biazi",
        "street": "Rua Sargento Francisco José Zucco",
        "zipcode": "14945-092"
    },
    {
        "city": "Ibitinga",
        "state": "SP",
        "district": "Centro",
        "street": "Rua Rosalbino Tucci",
        "zipcode": "14940-088"
    },
    {
        "city": "Ibitinga",
        "state": "SP",
        "district": "Jardim Mirante",
        "street": "Rua São Luis",
        "zipcode": "14947-260"
    },
    {
        "city": "Ibitinga",
        "state": "SP",
        "district": "Centro",
        "street": "Rua Santo Agostinho",
        "zipcode": "14940-004"
    },
    {
        "city": "Ibitinga",
        "state": "SP",
        "district": "Vila Santa Tereza",
        "street": "Rua Santa Tereza",
        "zipcode": "14940-372"
    },
    {
        "city": "Ibitinga",
        "state": "SP",
        "district": "São Salvador",
        "street": "Rua Sebastião Moacir da Cunha",
        "zipcode": "14940-712"
    },
    {
        "city": "Ibitinga",
        "state": "SP",
        "district": "Jardim Maria Luiza II",
        "street": "Rua Setímio Montanari",
        "zipcode": "14945-130"
    },
    {
        "city": "Ibitinga",
        "state": "SP",
        "district": "Jardim América",
        "street": "Rua Setímio Montanari",
        "zipcode": "14945-062"
    },
    {
        "city": "Ibitinga",
        "state": "SP",
        "district": "Centro",
        "street": "Rua São Paulo",
        "zipcode": "14940-073"
    },
    {
        "city": "Ibitinga",
        "state": "SP",
        "district": "Jardim Maria Luiza II",
        "street": "Rua Stéfano Biava",
        "zipcode": "14945-136"
    },
    {
        "city": "Ibitinga",
        "state": "SP",
        "district": "Jardim Maria Luiza II",
        "street": "Rua Sejan Sahyun",
        "zipcode": "14945-134"
    },
    {
        "city": "Ibitinga",
        "state": "SP",
        "district": "Jardim Santa Clara",
        "street": "Rua Setímio Montanari",
        "zipcode": "14945-206"
    },
    {
        "city": "Ibitinga",
        "state": "SP",
        "district": "Vila Maysa",
        "street": "Rua São João",
        "zipcode": "14947-000"
    },
    {
        "city": "Ibitinga",
        "state": "SP",
        "district": "Jardim São Paulo",
        "street": "Rua Sejan Sahyun",
        "zipcode": "14945-116"
    },
    {
        "city": "Ibitinga",
        "state": "SP",
        "district": "Vila Maysa",
        "street": "Rua Santo Antonio",
        "zipcode": "14947-004"
    },
    {
        "city": "Ibitinga",
        "state": "SP",
        "district": "Jardim Izolina",
        "street": "Rua Sabino do Prado Biondo",
        "zipcode": "14943-450"
    },
    {
        "city": "Ibitinga",
        "state": "SP",
        "district": "Jardim São Judas",
        "street": "Rua Santa Luzia",
        "zipcode": "14943-102"
    },
    {
        "city": "Ibitinga",
        "state": "SP",
        "district": "Jardim Ibirapuera",
        "street": "Rua Setímio Montanari",
        "zipcode": "14945-126"
    },
    {
        "city": "Ibitinga",
        "state": "SP",
        "district": "Terras de São Joaquim",
        "street": "Rua Ruth Aparecisa Munerato Casado",
        "zipcode": "14948-416"
    },
    {
        "city": "Ibitinga",
        "state": "SP",
        "district": "Vila Maysa",
        "street": "Rua São Pedro",
        "zipcode": "14947-002"
    },
    {
        "city": "Ibitinga",
        "state": "SP",
        "district": "Jardim Terra Branca",
        "street": "Rua Treze de Maio",
        "zipcode": "14940-260"
    },
    {
        "city": "Ibitinga",
        "state": "SP",
        "district": "Parque das Águas Canaã",
        "street": "Rua Tapajós",
        "zipcode": "14942-312"
    },
    {
        "city": "Ibitinga",
        "state": "SP",
        "district": "Ibitinga III",
        "street": "Rua Três",
        "zipcode": "14947-132"
    },
    {
        "city": "Ibitinga",
        "state": "SP",
        "district": "Terras de São Joaquim II",
        "street": "Rua Yves Geretto",
        "zipcode": "14948-426"
    },
    {
        "city": "Ibitinga",
        "state": "SP",
        "district": "Centro",
        "street": "Rua Terra Branca",
        "zipcode": "14940-208"
    },
    {
        "city": "Ibitinga",
        "state": "SP",
        "district": "Jardim Santa Clara",
        "street": "Rua Stéfano Biava",
        "zipcode": "14945-194"
    },
    {
        "city": "Ibitinga",
        "state": "SP",
        "district": "Centro",
        "street": "Rua XV de Novembro",
        "zipcode": "14940-082"
    },
    {
        "city": "Ibitinga",
        "state": "SP",
        "district": "Alto dos Pinheiros",
        "street": "Rua Teresa Geraldina Celli",
        "zipcode": "14943-182"
    },
    {
        "city": "Ibitinga",
        "state": "SP",
        "district": "Paulo de Biazi",
        "street": "Rua Serafim Zapatta",
        "zipcode": "14945-104"
    },
    {
        "city": "Ibitinga",
        "state": "SP",
        "district": "Jardim Planalto",
        "street": "Rua Sinibaldo Cassino",
        "zipcode": "14942-020"
    },
    {
        "city": "Ibitinga",
        "state": "SP",
        "district": "Jardim Adriana",
        "street": "Rua Sérgio José Mascanhi",
        "zipcode": "14946-192"
    },
    {
        "city": "Ibitinga",
        "state": "SP",
        "district": "Jardim Europa",
        "street": "Rua 1",
        "zipcode": "14944-170"
    },
    {
        "city": "Ibitinga",
        "state": "SP",
        "district": "Jardim Eldorado",
        "street": "Rua Sebastião Sahão",
        "zipcode": "14944-032"
    },
    {
        "city": "Ibitinga",
        "state": "SP",
        "district": "Jardim Verona",
        "street": "Rua Setímio Montanari",
        "zipcode": "14945-210"
    },
    {
        "city": "Ibitinga",
        "state": "SP",
        "district": "Centro (Cambaratiba)",
        "street": "Rua XV de Novembro",
        "zipcode": "14949-002"
    },
    {
        "city": "Ibitinga",
        "state": "SP",
        "district": "Jardim Paulista",
        "street": "Rua Terra Branca",
        "zipcode": "14940-418"
    },
    {
        "city": "Ibitinga",
        "state": "SP",
        "district": "Jardim dos Ipês IV",
        "street": "Rua Três",
        "zipcode": "14945-274"
    },
    {
        "city": "Ibitinga",
        "state": "SP",
        "district": "Jardim São José",
        "street": "Rua Vargas",
        "zipcode": "14940-614"
    },
    {
        "city": "Ibitinga",
        "state": "SP",
        "district": "Jardim Alzira",
        "street": "Rua 1",
        "zipcode": "14946-208"
    },
    {
        "city": "Ibitinga",
        "state": "SP",
        "district": "Jardim Flamboyant",
        "street": "Rua Sebastião Jacinto de Amorim Gonçalves",
        "zipcode": "14946-162"
    },
    {
        "city": "Ibitinga",
        "state": "SP",
        "district": "Jardim Nova Ibitinga",
        "street": "Rua Taufik José Kalil",
        "zipcode": "14945-236"
    },
    {
        "city": "Ibitinga",
        "state": "SP",
        "district": "Jardim Paulista",
        "street": "Rua Treze de Maio",
        "zipcode": "14940-402"
    },
    {
        "city": "Ibitinga",
        "state": "SP",
        "district": "Jardim Felicidade",
        "street": "Rua Taufik José Kalil",
        "zipcode": "14945-256"
    },
    {
        "city": "Ibitinga",
        "state": "SP",
        "district": "Jardim Rafaela II",
        "street": "Rua Setímio Montanari",
        "zipcode": "14945-050"
    },
    {
        "city": "Ibitinga",
        "state": "SP",
        "district": "Centro",
        "street": "Rua Tiradentes",
        "zipcode": "14940-055"
    },
    {
        "city": "Ibitinga",
        "state": "SP",
        "district": "Jardim Mirante",
        "street": "Rua Teresina",
        "zipcode": "14947-246"
    },
    {
        "city": "Ibitinga",
        "state": "SP",
        "district": "Residencial São Domingos II",
        "street": "Rua Sílvio Aparecido Verdério",
        "zipcode": "14948-120"
    },
    {
        "city": "Ibitinga",
        "state": "SP",
        "district": "Jardim das Paineiras",
        "street": "Rua Waldir de Camargo",
        "zipcode": "14948-080"
    },
    {
        "city": "Ibitinga",
        "state": "SP",
        "district": "Jardim Mirante",
        "street": "Rua Sergipe",
        "zipcode": "14947-256"
    },
    {
        "city": "Ibitinga",
        "state": "SP",
        "district": "Jardim Nações Unidas",
        "street": "Rua Virginia Geretto Carlos",
        "zipcode": "14943-526"
    },
    {
        "city": "Ibitinga",
        "state": "SP",
        "district": "Jardim Petrópolis",
        "street": "Rua Valentim Geretto",
        "zipcode": "14940-536"
    },
    {
        "city": "Ibitinga",
        "state": "SP",
        "district": "Residencial Santo Expedito",
        "street": "Rua Thereza Rocha de Souza",
        "zipcode": "14947-434"
    },
    {
        "city": "Ibitinga",
        "state": "SP",
        "district": "Jardim Campo Belo",
        "street": "Rua Três",
        "zipcode": "14943-196"
    },
    {
        "city": "Ibitinga",
        "state": "SP",
        "district": "Jardim Eldorado III",
        "street": "Rua 8",
        "zipcode": "14944-160"
    },
    {
        "city": "Ibitinga",
        "state": "SP",
        "district": "Centro",
        "street": "Travessa João Barbosa",
        "zipcode": "14940-214"
    },
    {
        "city": "Ibitinga",
        "state": "SP",
        "district": "Cidade Jardim Canaã",
        "street": "Rua Yasmin",
        "zipcode": "14942-332"
    },
    {
        "city": "Ibitinga",
        "state": "SP",
        "district": "Jardim Campo Belo",
        "street": "Rua Um",
        "zipcode": "14943-192"
    },
    {
        "city": "Ibitinga",
        "state": "SP",
        "district": "Vila Maria",
        "street": "Rua Tofi Kalil Jacob",
        "zipcode": "14948-388"
    },
    {
        "city": "Ibitinga",
        "state": "SP",
        "district": "Jardim Europa",
        "street": "Rua 5",
        "zipcode": "14944-184"
    },
    {
        "city": "Ibitinga",
        "state": "SP",
        "district": "Jardim Eldorado III",
        "street": "Rua Vereador Doutor Walter Secanho",
        "zipcode": "14944-132"
    },
    {
        "city": "Ibitinga",
        "state": "SP",
        "district": "Jardim das Paineiras",
        "street": "Rua Vereador Waldomiro de Souza",
        "zipcode": "14948-092"
    },
    {
        "city": "Ibitinga",
        "state": "SP",
        "district": "Vila Maria",
        "street": "Rua Vereador Waldomiro de Souza",
        "zipcode": "14948-362"
    },
    {
        "city": "Ibitinga",
        "state": "SP",
        "district": "Jardim Europa",
        "street": "Rua 6",
        "zipcode": "14944-172"
    },
    {
        "city": "Ibitinga",
        "state": "SP",
        "district": "Parque das Águas Canaã",
        "street": "Rua Xingu",
        "zipcode": "14942-308"
    },
    {
        "city": "Ibitinga",
        "state": "SP",
        "district": "Centro",
        "street": "Rua Tiradentes",
        "zipcode": "14940-118"
    },
    {
        "city": "Ibitinga",
        "state": "SP",
        "district": "Jardim das Paineiras",
        "street": "Rua Ulisses de Souza Ramalho",
        "zipcode": "14948-078"
    },
    {
        "city": "Ibitinga",
        "state": "SP",
        "district": "Centro",
        "street": "Rua Treze de Maio",
        "zipcode": "14940-106"
    },
    {
        "city": "Ibitinga",
        "state": "SP",
        "district": "Izilda",
        "street": "Rua Treze de Maio",
        "zipcode": "14943-090"
    },
    {
        "city": "Ibitinga",
        "state": "SP",
        "district": "Parque Industrial",
        "street": "Rua William Kortas",
        "zipcode": "14942-124"
    },
    {
        "city": "Ibitinga",
        "state": "SP",
        "district": "Residencial Santo Expedito",
        "street": "Rua Wilson Ribeiro dos Santos",
        "zipcode": "14947-422"
    },
    {
        "city": "Ibitinga",
        "state": "SP",
        "district": "Ibitinga III",
        "street": "Rua Um",
        "zipcode": "14947-134"
    },
    {
        "city": "Ibitinga",
        "state": "SP",
        "district": "Jardim Europa",
        "street": "Rua 4",
        "zipcode": "14944-180"
    },
    {
        "city": "Ibitinga",
        "state": "SP",
        "district": "Jardim São Jorge",
        "street": "Rua Treze de Maio",
        "zipcode": "14943-014"
    },
    {
        "city": "Ibitinga",
        "state": "SP",
        "district": "Jardim Eldorado III",
        "street": "Rua 13",
        "zipcode": "14944-138"
    },
    {
        "city": "Ibitinga",
        "state": "SP",
        "district": "Jardim Eldorado III",
        "street": "Rua 7",
        "zipcode": "14944-158"
    },
    {
        "city": "Ibitinga",
        "state": "SP",
        "district": "Jardim Roseira",
        "street": "Rua Vilma José Roncada Fernandes",
        "zipcode": "14940-860"
    },
    {
        "city": "Ibitinga",
        "state": "SP",
        "district": "Residencial São Benedito",
        "street": "Rua Thomaz Bueno",
        "zipcode": "14947-388"
    },
    {
        "city": "Ibitinga",
        "state": "SP",
        "district": "Jardim Eldorado III",
        "street": "Rua 6",
        "zipcode": "14944-140"
    },
    {
        "city": "Ibitinga",
        "state": "SP",
        "district": "Jardim Roseira",
        "street": "Rua Vicente Borges",
        "zipcode": "14940-864"
    },
    {
        "city": "Ibitinga",
        "state": "SP",
        "district": "Vila Santa Tereza",
        "street": "Travessa 6 de Agosto",
        "zipcode": "14940-380"
    },
    {
        "city": "Ibitinga",
        "state": "SP",
        "district": "Centro",
        "street": "Rua Treze de Maio",
        "zipcode": "14940-166"
    },
    {
        "city": "Ibitinga",
        "state": "SP",
        "district": "Jardim Eldorado III",
        "street": "Rua 1",
        "zipcode": "14944-134"
    },
    {
        "city": "Ibitinga",
        "state": "SP",
        "district": "Jardim Alzira",
        "street": "Rua 3",
        "zipcode": "14946-204"
    },
    {
        "city": "Ibitinga",
        "state": "SP",
        "district": "Jardim Alzira",
        "street": "Rua 4",
        "zipcode": "14946-202"
    },
    {
        "city": "Ibitinga",
        "state": "SP",
        "district": "Jardim Europa",
        "street": "Rua 7",
        "zipcode": "14944-182"
    },
    {
        "city": "Ibitinga",
        "state": "SP",
        "district": "Jardim Eldorado III",
        "street": "Rua 5",
        "zipcode": "14944-156"
    },
    {
        "city": "Ibitinga",
        "state": "SP",
        "district": "Jardim Eldorado III",
        "street": "Rua 2",
        "zipcode": "14944-150"
    },
    {
        "city": "Ibitinga",
        "state": "SP",
        "district": "Jardim Eldorado III",
        "street": "Rua 12",
        "zipcode": "14944-152"
    },
    {
        "city": "Ibitinga",
        "state": "SP",
        "district": "Saltinho",
        "street": "Rua 140",
        "zipcode": "14943-132"
    },
    {
        "city": "Ibitinga",
        "state": "SP",
        "district": "Jardim Eldorado III",
        "street": "Rua 4",
        "zipcode": "14944-144"
    },
    {
        "city": "Ibitinga",
        "state": "SP",
        "district": "Jardim Eldorado III",
        "street": "Rua 11",
        "zipcode": "14944-146"
    },
    {
        "city": "Ibitinga",
        "state": "SP",
        "district": "Jardim Europa",
        "street": "Rua 3",
        "zipcode": "14944-176"
    },
    {
        "city": "Ibitinga",
        "state": "SP",
        "district": "Jardim Europa",
        "street": "Rua 8",
        "zipcode": "14944-178"
    },
    {
        "city": "Ibitinga",
        "state": "SP",
        "district": "Saltinho",
        "street": "Rua 180",
        "zipcode": "14943-130"
    },
    {
        "city": "Ibitinga",
        "state": "SP",
        "district": "Jardim Europa",
        "street": "Rua 2",
        "zipcode": "14944-174"
    },
    {
        "city": "Ibitinga",
        "state": "SP",
        "district": "Residencial Parque Morumbi",
        "street": "Avenida Alcides da Silveira Carlos",
        "zipcode": "14943-480"
    },
    {
        "city": "Ibitinga",
        "state": "SP",
        "district": "Vila Guarany",
        "street": "Rua Adelino Pinto da Costa",
        "zipcode": "14940-572"
    },
    {
        "city": "Ibitinga",
        "state": "SP",
        "district": "Jardim Planalto",
        "street": "Avenida Engenheiro Ivanil Francischini",
        "zipcode": "14942-000"
    },
    {
        "city": "Ibitinga",
        "state": "SP",
        "district": "Saltinho",
        "street": "Avenida Major Silvestre Rodrigues Teixeira",
        "zipcode": "14943-112"
    },
    {
        "city": "Ibitinga",
        "state": "SP",
        "district": "Parque Industrial",
        "street": "Avenida do Parque",
        "zipcode": "14942-104"
    },
    {
        "city": "Ibitinga",
        "state": "SP",
        "district": "Village Vale Verde",
        "street": "Alameda dos Jequitibás",
        "zipcode": "14945-034"
    },
    {
        "city": "Ibitinga",
        "state": "SP",
        "district": "Jardim Taquaral",
        "street": "Avenida Estanislau Zavitoski",
        "zipcode": "14947-120"
    },
    {
        "city": "Ibitinga",
        "state": "SP",
        "district": "Residencial Parque Morumbi",
        "street": "Avenida Engenheiro Ivanil Francischini",
        "zipcode": "14943-470"
    },
    {
        "city": "Ibitinga",
        "state": "SP",
        "district": "Saltinho",
        "street": "Avenida João Farah",
        "zipcode": "14943-136"
    },
    {
        "city": "Ibitinga",
        "state": "SP",
        "district": "Jardim Santo André",
        "street": "Avenida Japão",
        "zipcode": "14940-450"
    },
    {
        "city": "Ibitinga",
        "state": "SP",
        "district": "Residencial Parque Morumbi",
        "street": "Avenida Joaquim Flávio Pinheiro",
        "zipcode": "14943-474"
    },
    {
        "city": "Ibitinga",
        "state": "SP",
        "district": "Jardim São João",
        "street": "Praça Heitor Castro Aguiar",
        "zipcode": "14940-654"
    },
    {
        "city": "Ibitinga",
        "state": "SP",
        "district": "Jardim América",
        "street": "Avenida Itálico João Moreale",
        "zipcode": "14945-070"
    },
    {
        "city": "Ibitinga",
        "state": "SP",
        "district": "Jardim São José",
        "street": "Avenida Engenheiro Ivanil Francischini",
        "zipcode": "14940-632"
    },
    {
        "city": "Ibitinga",
        "state": "SP",
        "district": "Jardim Romana",
        "street": "Rua Abrão Baladi",
        "zipcode": "14947-024"
    },
    {
        "city": "Ibitinga",
        "state": "SP",
        "district": "Distrito Industrial João Paulo Bocca (I)",
        "street": "Avenida Maria Antonia Siriani Maida",
        "zipcode": "14943-530"
    },
    {
        "city": "Ibitinga",
        "state": "SP",
        "district": "Centro",
        "street": "Avenida Guido Izidoro DallAcqua",
        "zipcode": "14940-196"
    },
    {
        "city": "Ibitinga",
        "state": "SP",
        "district": "Residencial São Benedito",
        "street": "Avenida Presidente Kennedy",
        "zipcode": "14947-376"
    },
    {
        "city": "Ibitinga",
        "state": "SP",
        "district": "Vila Maria",
        "street": "Avenida Engenheiro Ivanil Francischini",
        "zipcode": "14948-402"
    },
    {
        "city": "Ibitinga",
        "state": "SP",
        "district": "Parque das Águas Canaã",
        "street": "Avenida Tietê",
        "zipcode": "14942-292"
    },
    {
        "city": "Ibitinga",
        "state": "SP",
        "district": "Jardim Izolina",
        "street": "Acesso Vereador Manoel Alves Lopes",
        "zipcode": "14943-432"
    },
    {
        "city": "Ibitinga",
        "state": "SP",
        "district": "Centro",
        "street": "Avenida Engenheiro Ivanil Francischini",
        "zipcode": "14940-034"
    },
    {
        "city": "Ibitinga",
        "state": "SP",
        "district": "Jardim Eldorado",
        "street": "Avenida Engenheiro Ivanil Francischini",
        "zipcode": "14944-036"
    },
    {
        "city": "Ibitinga",
        "state": "SP",
        "district": "Saltinho",
        "street": "Avenida Benedito Orlando Titato",
        "zipcode": "14943-128"
    },
    {
        "city": "Ibitinga",
        "state": "SP",
        "district": "Chácara Alvorada",
        "street": "Avenida Sebastião Roncada",
        "zipcode": "14940-676"
    },
    {
        "city": "Ibitinga",
        "state": "SP",
        "district": "Parque das Águas Canaã",
        "street": "Alameda Rio Vermelho",
        "zipcode": "14942-324"
    },
    {
        "city": "Ibitinga",
        "state": "SP",
        "district": "Saltinho",
        "street": "Avenida Maria Antonia Siriani Maida",
        "zipcode": "14943-122"
    },
    {
        "city": "Ibitinga",
        "state": "SP",
        "district": "Residencial São Benedito",
        "street": "Avenida Antenor Simões Maia",
        "zipcode": "14947-396"
    },
    {
        "city": "Ibitinga",
        "state": "SP",
        "district": "Centro",
        "street": "Avenida Wilson Pinheiro",
        "zipcode": "14940-040"
    },
    {
        "city": "Ibitinga",
        "state": "SP",
        "district": "Jardim Romana",
        "street": "Praça Braulina Pereira Haddad",
        "zipcode": "14947-022"
    },
    {
        "city": "Ibitinga",
        "state": "SP",
        "district": "Jardim Alvorada",
        "street": "Rua A",
        "zipcode": "14948-596"
    },
    {
        "city": "Ibitinga",
        "state": "SP",
        "district": "Jardim Nações Unidas",
        "street": "Avenida Maria Antonia Siriani Maida",
        "zipcode": "14943-528"
    },
    {
        "city": "Ibitinga",
        "state": "SP",
        "district": "Centro (Cambaratiba)",
        "street": "Rua Afonso Simões",
        "zipcode": "14949-006"
    },
    {
        "city": "Ibitinga",
        "state": "SP",
        "district": "Jardim Bela Vista",
        "street": "Avenida Walter Piffer",
        "zipcode": "14948-014"
    },
    {
        "city": "Ibitinga",
        "state": "SP",
        "district": "Jardim São José",
        "street": "Rua Bom Jesus",
        "zipcode": "14940-628"
    },
    {
        "city": "Ibitinga",
        "state": "SP",
        "district": "Jardim das Paineiras II",
        "street": "Praça Júlio Rubio",
        "zipcode": "14948-046"
    },
    {
        "city": "Ibitinga",
        "state": "SP",
        "district": "Terras de São Joaquim II",
        "street": "Avenida Wilson Pinheiro",
        "zipcode": "14948-422"
    },
    {
        "city": "Ibitinga",
        "state": "SP",
        "district": "Village Vale Verde",
        "street": "Avenida Laudelina de Paula Santos",
        "zipcode": "14945-022"
    },
    {
        "city": "Ibitinga",
        "state": "SP",
        "district": "Jardim Dona Idalina",
        "street": "Rua Antônio Bezerra de Souza",
        "zipcode": "14942-084"
    },
    {
        "city": "Ibitinga",
        "state": "SP",
        "district": "Jardim Izolina",
        "street": "Avenida Carolina Geretto DallAcqua",
        "zipcode": "14943-430"
    },
    {
        "city": "Ibitinga",
        "state": "SP",
        "district": "Jardim dos Bancários",
        "street": "Avenida dos Bancários",
        "zipcode": "14940-874"
    },
    {
        "city": "Ibitinga",
        "state": "SP",
        "district": "Jardim dos Bancários",
        "street": "Rua Arthur Gaion",
        "zipcode": "14940-890"
    },
    {
        "city": "Ibitinga",
        "state": "SP",
        "district": "Jardim das Paineiras II",
        "street": "Avenida Engenheiro Ivanil Francischini",
        "zipcode": "14948-040"
    },
    {
        "city": "Ibitinga",
        "state": "SP",
        "district": "Residencial Santo Expedito",
        "street": "Avenida Nicola de Batista Neto",
        "zipcode": "14947-410"
    },
    {
        "city": "Ibitinga",
        "state": "SP",
        "district": "Saltinho",
        "street": "Avenida João Farah",
        "zipcode": "14943-124"
    },
    {
        "city": "Ibitinga",
        "state": "SP",
        "district": "Residencial Santo Expedito",
        "street": "Rua Antônia Garcia da Silva",
        "zipcode": "14947-430"
    },
    {
        "city": "Ibitinga",
        "state": "SP",
        "district": "Residencial São Benedito",
        "street": "Rua Antônio Catalano (Nego)",
        "zipcode": "14947-386"
    },
    {
        "city": "Ibitinga",
        "state": "SP",
        "district": "Jardim São José",
        "street": "Avenida Ferroviária",
        "zipcode": "14940-630"
    },
    {
        "city": "Ibitinga",
        "state": "SP",
        "district": "Jardim Felicidade",
        "street": "Rua Alzira Dias Ticianeli",
        "zipcode": "14945-258"
    },
    {
        "city": "Ibitinga",
        "state": "SP",
        "district": "Jardim Eldorado",
        "street": "Rua Antonio Francisco dos Santos",
        "zipcode": "14944-034"
    },
    {
        "city": "Ibitinga",
        "state": "SP",
        "district": "Jardim Centenário",
        "street": "Rua Augusto Pinto da Costa",
        "zipcode": "14940-466"
    },
    {
        "city": "Ibitinga",
        "state": "SP",
        "district": "Vila Simões",
        "street": "Avenida Antenor Simões Maia",
        "zipcode": "14947-088"
    },
    {
        "city": "Ibitinga",
        "state": "SP",
        "district": "Centro",
        "street": "Rua Doutor Adail de Oliveira",
        "zipcode": "14940-154"
    },
    {
        "city": "Ibitinga",
        "state": "SP",
        "district": "Jardim Tropical II",
        "street": "Rua Alfredo Abla",
        "zipcode": "14942-136"
    },
    {
        "city": "Ibitinga",
        "state": "SP",
        "district": "Jardim dos Bancários",
        "street": "Rua Constante Giansante",
        "zipcode": "14940-872"
    },
    {
        "city": "Ibitinga",
        "state": "SP",
        "district": "Jardim Maria Helena I",
        "street": "Rua Francisco Baptista de Oliveira",
        "zipcode": "14944-004"
    },
    {
        "city": "Ibitinga",
        "state": "SP",
        "district": "Jardim Paulista",
        "street": "Rua Capitão Miguel Haddad",
        "zipcode": "14940-416"
    },
    {
        "city": "Ibitinga",
        "state": "SP",
        "district": "Jardim Dona Idalina",
        "street": "Rua Aparecida Conceição Silva Bueno",
        "zipcode": "14942-094"
    },
    {
        "city": "Ibitinga",
        "state": "SP",
        "district": "Jardim São José",
        "street": "Rua Azílio de Souza Horn",
        "zipcode": "14940-620"
    },
    {
        "city": "Ibitinga",
        "state": "SP",
        "district": "Centro",
        "street": "Rua Doutor Teixeira",
        "zipcode": "14940-115"
    },
    {
        "city": "Ibitinga",
        "state": "SP",
        "district": "Centro (Cambaratiba)",
        "street": "Rua Floriano Peixoto",
        "zipcode": "14949-020"
    },
    {
        "city": "Ibitinga",
        "state": "SP",
        "district": "Jardim Paraíso",
        "street": "Rua dos Sabiás",
        "zipcode": "14943-146"
    },
    {
        "city": "Ibitinga",
        "state": "SP",
        "district": "Jardim São José",
        "street": "Rua Gama Cerqueira",
        "zipcode": "14940-616"
    },
    {
        "city": "Ibitinga",
        "state": "SP",
        "district": "Residencial São Benedito",
        "street": "Rua Anésio Camargo",
        "zipcode": "14947-382"
    },
    {
        "city": "Ibitinga",
        "state": "SP",
        "district": "Jardim Maria Helena I",
        "street": "Rua Antonio Francisco dos Santos",
        "zipcode": "14944-002"
    },
    {
        "city": "Ibitinga",
        "state": "SP",
        "district": "Jardim Santa Catarina",
        "street": "Rua Emílio Coleone",
        "zipcode": "14943-242"
    },
    {
        "city": "Ibitinga",
        "state": "SP",
        "district": "Jardim das Paineiras",
        "street": "Rua Alberto Janes",
        "zipcode": "14948-096"
    },
    {
        "city": "Ibitinga",
        "state": "SP",
        "district": "Parque Industrial",
        "street": "Rua Benedito Alves de Oliveira",
        "zipcode": "14942-116"
    },
    {
        "city": "Ibitinga",
        "state": "SP",
        "district": "Jardim Três Irmãos",
        "street": "Rua Domingos Povinelli",
        "zipcode": "14947-048"
    },
    {
        "city": "Ibitinga",
        "state": "SP",
        "district": "Jardim Petrópolis",
        "street": "Rua Anna Maria Mendes Paez",
        "zipcode": "14940-544"
    },
    {
        "city": "Ibitinga",
        "state": "SP",
        "district": "Jardim dos Bordados",
        "street": "Rua das Samambaias",
        "zipcode": "14944-090"
    },
    {
        "city": "Ibitinga",
        "state": "SP",
        "district": "Vila Maria",
        "street": "Rua Domingos Angelucci",
        "zipcode": "14948-356"
    },
    {
        "city": "Ibitinga",
        "state": "SP",
        "district": "Jardim Nações Unidas",
        "street": "Rua Antonio Menegues",
        "zipcode": "14943-510"
    },
    {
        "city": "Ibitinga",
        "state": "SP",
        "district": "Jardim Izolina",
        "street": "Rua Elvira Luciani Aranaz",
        "zipcode": "14943-446"
    },
    {
        "city": "Ibitinga",
        "state": "SP",
        "district": "Residencial São Domingos II",
        "street": "Rua Durvalino Franceschini",
        "zipcode": "14948-122"
    },
    {
        "city": "Ibitinga",
        "state": "SP",
        "district": "Jardim Bela Vista Sul",
        "street": "Rua Benedito Marçal Lorena",
        "zipcode": "14943-168"
    },
    {
        "city": "Ibitinga",
        "state": "SP",
        "district": "Jardim Tropical",
        "street": "Rua Guiomar Barbosa",
        "zipcode": "14942-160"
    },
    {
        "city": "Ibitinga",
        "state": "SP",
        "district": "Jardim São José",
        "street": "Rua Capitão Felicio Salomão Racy",
        "zipcode": "14940-602"
    },
    {
        "city": "Ibitinga",
        "state": "SP",
        "district": "Jardim dos Bancários",
        "street": "Rua José Martinelli",
        "zipcode": "14940-888"
    },
    {
        "city": "Ibitinga",
        "state": "SP",
        "district": "Jardim Campo Belo",
        "street": "Rua Dois",
        "zipcode": "14943-194"
    },
    {
        "city": "Ibitinga",
        "state": "SP",
        "district": "Jardim Eldorado",
        "street": "Rua José Augusto Francisco dos Santos",
        "zipcode": "14944-054"
    },
    {
        "city": "Ibitinga",
        "state": "SP",
        "district": "Jardim Santo Antônio",
        "street": "Rua Izolina Martins da Costa",
        "zipcode": "14945-164"
    },
    {
        "city": "Ibitinga",
        "state": "SP",
        "district": "Centro",
        "street": "Rua Capitão Felicio Salomão Racy",
        "zipcode": "14940-067"
    },
    {
        "city": "Ibitinga",
        "state": "SP",
        "district": "Residencial Santo Expedito",
        "street": "Rua Catsumi Itao",
        "zipcode": "14947-420"
    },
    {
        "city": "Ibitinga",
        "state": "SP",
        "district": "Vila Maria",
        "street": "Rua Francisco Lorusso",
        "zipcode": "14948-370"
    },
    {
        "city": "Ibitinga",
        "state": "SP",
        "district": "Jardim Izolina",
        "street": "Rua João de Oliveira Custódio",
        "zipcode": "14943-438"
    },
    {
        "city": "Ibitinga",
        "state": "SP",
        "district": "Jardim Terra Branca",
        "street": "Rua Capitão Felicio Salomão Racy",
        "zipcode": "14940-242"
    },
    {
        "city": "Ibitinga",
        "state": "SP",
        "district": "Jardim São João",
        "street": "Rua Domingos Robert",
        "zipcode": "14940-644"
    },
    {
        "city": "Ibitinga",
        "state": "SP",
        "district": "Vila Simões",
        "street": "Rua Desidério Fratuchello Salva",
        "zipcode": "14947-090"
    },
    {
        "city": "Ibitinga",
        "state": "SP",
        "district": "Jardim Filadélfia",
        "street": "Rua José Ribeiro Sobrinho",
        "zipcode": "14946-156"
    },
    {
        "city": "Ibitinga",
        "state": "SP",
        "district": "Centro (Cambaratiba)",
        "street": "Rua da Bandeira",
        "zipcode": "14949-008"
    },
    {
        "city": "Ibitinga",
        "state": "SP",
        "district": "Jardim São Jorge",
        "street": "Rua Ernesto Stuqui",
        "zipcode": "14943-016"
    },
    {
        "city": "Ibitinga",
        "state": "SP",
        "district": "Jardim Nova Ibitinga",
        "street": "Rua Eiriberto Teixeira Godoy",
        "zipcode": "14945-232"
    },
    {
        "city": "Ibitinga",
        "state": "SP",
        "district": "Residencial Parque Morumbi",
        "street": "Rua Eloy Camas",
        "zipcode": "14943-486"
    },
    {
        "city": "Ibitinga",
        "state": "SP",
        "district": "Jardim Santa Catarina",
        "street": "Rua José Luiz de Pascule",
        "zipcode": "14943-258"
    },
    {
        "city": "Ibitinga",
        "state": "SP",
        "district": "Parque das Águas Canaã",
        "street": "Rua Guarapó",
        "zipcode": "14942-286"
    },
    {
        "city": "Ibitinga",
        "state": "SP",
        "district": "Jardim Santa Clara",
        "street": "Rua Isabel Batiston Vareschi",
        "zipcode": "14945-204"
    },
    {
        "city": "Ibitinga",
        "state": "SP",
        "district": "Jardim Centenário",
        "street": "Rua Gabriel Haddad",
        "zipcode": "14940-482"
    },
    {
        "city": "Ibitinga",
        "state": "SP",
        "district": "Jardim Santa Clara",
        "street": "Rua Felicio Ticianelli",
        "zipcode": "14945-198"
    },
    {
        "city": "Ibitinga",
        "state": "SP",
        "district": "Jardim Izolina",
        "street": "Rua Eugenio Colturato",
        "zipcode": "14943-436"
    },
    {
        "city": "Ibitinga",
        "state": "SP",
        "district": "Jardim América",
        "street": "Rua Cecília Casemiro de Amorim",
        "zipcode": "14945-068"
    },
    {
        "city": "Ibitinga",
        "state": "SP",
        "district": "Jardim Romana",
        "street": "Rua José Ianello",
        "zipcode": "14947-026"
    },
    {
        "city": "Ibitinga",
        "state": "SP",
        "district": "Jardim dos Bordados",
        "street": "Rua das Avencas",
        "zipcode": "14944-092"
    },
    {
        "city": "Ibitinga",
        "state": "SP",
        "district": "Residencial Vitoria I",
        "street": "Rua Carlos Camargo Abib",
        "zipcode": "14940-520"
    },
    {
        "city": "Ibitinga",
        "state": "SP",
        "district": "Jardim São José",
        "street": "Rua Daniel de Freitas",
        "zipcode": "14940-610"
    },
    {
        "city": "Ibitinga",
        "state": "SP",
        "district": "Cidade Jardim Canaã",
        "street": "Rua J",
        "zipcode": "14942-348"
    },
    {
        "city": "Ibitinga",
        "state": "SP",
        "district": "Jardim dos Ipês IV",
        "street": "Rua Dois",
        "zipcode": "14945-272"
    },
    {
        "city": "Ibitinga",
        "state": "SP",
        "district": "Centro",
        "street": "Rua José Custódio",
        "zipcode": "14940-100"
    },
    {
        "city": "Ibitinga",
        "state": "SP",
        "district": "Jardim Nações Unidas",
        "street": "Rua Paschoal Siriani",
        "zipcode": "14943-522"
    },
    {
        "city": "Ibitinga",
        "state": "SP",
        "district": "Jardim América",
        "street": "Rua João Marotti",
        "zipcode": "14945-086"
    },
    {
        "city": "Ibitinga",
        "state": "SP",
        "district": "Cidade Jardim Canaã",
        "street": "Rua Pau Brasil",
        "zipcode": "14942-360"
    },
    {
        "city": "Ibitinga",
        "state": "SP",
        "district": "Jardim São José",
        "street": "Rua Maria Geraldina da Motta",
        "zipcode": "14940-600"
    },
    {
        "city": "Ibitinga",
        "state": "SP",
        "district": "Jardim das Paineiras II",
        "street": "Rua Jair Barbosa",
        "zipcode": "14948-058"
    },
    {
        "city": "Ibitinga",
        "state": "SP",
        "district": "Jardim Nações Unidas",
        "street": "Rua Joaquim Pereira de Souza",
        "zipcode": "14943-520"
    },
    {
        "city": "Ibitinga",
        "state": "SP",
        "district": "Jardim Flamboyant",
        "street": "Rua Nair Romacho Crepaldi",
        "zipcode": "14946-184"
    },
    {
        "city": "Ibitinga",
        "state": "SP",
        "district": "Jardim Santo André",
        "street": "Rua Jacintho de Arruda Prado",
        "zipcode": "14940-458"
    },
    {
        "city": "Ibitinga",
        "state": "SP",
        "district": "Jardim do Bosque",
        "street": "Rua Paulo de Biazi",
        "zipcode": "14945-012"
    },
    {
        "city": "Ibitinga",
        "state": "SP",
        "district": "Jardim Mirante",
        "street": "Rua Ilhéus",
        "zipcode": "14947-242"
    },
    {
        "city": "Ibitinga",
        "state": "SP",
        "district": "Jardim Nova Ibitinga",
        "street": "Rua José Augusto Massola",
        "zipcode": "14945-244"
    },
    {
        "city": "Ibitinga",
        "state": "SP",
        "district": "Jardim Paulista",
        "street": "Rua Idilio Francisco dos Santos",
        "zipcode": "14940-404"
    },
    {
        "city": "Ibitinga",
        "state": "SP",
        "district": "Jardim São José",
        "street": "Rua Pedro Manchini",
        "zipcode": "14940-626"
    },
    {
        "city": "Ibitinga",
        "state": "SP",
        "district": "Jardim América",
        "street": "Rua Manoel Rodrigues Motta",
        "zipcode": "14945-078"
    },
    {
        "city": "Ibitinga",
        "state": "SP",
        "district": "Centro",
        "street": "Rua Miguel Landim",
        "zipcode": "14940-049"
    },
    {
        "city": "Ibitinga",
        "state": "SP",
        "district": "Jardim Pacola",
        "street": "Rua João Paschoal",
        "zipcode": "14948-020"
    },
    {
        "city": "Ibitinga",
        "state": "SP",
        "district": "Jardim Nações Unidas",
        "street": "Rua João Antonio Camas (Sordão)",
        "zipcode": "14943-518"
    },
    {
        "city": "Ibitinga",
        "state": "SP",
        "district": "Residencial Dona Branca",
        "street": "Rua Nicola Derissio",
        "zipcode": "14944-106"
    },
    {
        "city": "Ibitinga",
        "state": "SP",
        "district": "Paulo de Biazi",
        "street": "Rua Oswalter Colturato",
        "zipcode": "14945-096"
    },
    {
        "city": "Ibitinga",
        "state": "SP",
        "district": "Jardim Dona Idalina",
        "street": "Rua Marieta Olinda dos Santos Riccardi",
        "zipcode": "14942-082"
    },
    {
        "city": "Ibitinga",
        "state": "SP",
        "district": "Residencial São Benedito",
        "street": "Rua José Nelson Gabriel",
        "zipcode": "14947-370"
    },
    {
        "city": "Ibitinga",
        "state": "SP",
        "district": "Centro",
        "street": "Rua Paulino Carlos",
        "zipcode": "14940-136"
    },
    {
        "city": "Ibitinga",
        "state": "SP",
        "district": "Jardim Ibirapuera",
        "street": "Rua Kalil José Sawaia",
        "zipcode": "14945-124"
    },
    {
        "city": "Ibitinga",
        "state": "SP",
        "district": "Residencial Parque Morumbi",
        "street": "Rua João Tagliatela",
        "zipcode": "14943-500"
    },
    {
        "city": "Ibitinga",
        "state": "SP",
        "district": "Jardim das Paineiras II",
        "street": "Rua Hermindo Sampaio Pires",
        "zipcode": "14948-054"
    },
    {
        "city": "Ibitinga",
        "state": "SP",
        "district": "Jardim Ibirapuera",
        "street": "Rua José Tofik",
        "zipcode": "14945-122"
    },
    {
        "city": "Ibitinga",
        "state": "SP",
        "district": "Residencial Santo Expedito",
        "street": "Rua Marcelo Aparecido da Silva",
        "zipcode": "14947-432"
    },
    {
        "city": "Ibitinga",
        "state": "SP",
        "district": "Parque das Águas Canaã",
        "street": "Rua Jataí",
        "zipcode": "14942-296"
    },
    {
        "city": "Ibitinga",
        "state": "SP",
        "district": "Jardim Eldorado II",
        "street": "Rua José Castilho Marques",
        "zipcode": "14944-118"
    },
    {
        "city": "Ibitinga",
        "state": "SP",
        "district": "Jardim Taquaral",
        "street": "Rua Lazaro Rodrigues de Oliveira",
        "zipcode": "14947-122"
    },
    {
        "city": "Ibitinga",
        "state": "SP",
        "district": "Jardim Tropical",
        "street": "Rua José Luiz Secanho Pagni",
        "zipcode": "14942-158"
    },
    {
        "city": "Ibitinga",
        "state": "SP",
        "district": "Vila Santa Tereza",
        "street": "Rua 6 de Agosto",
        "zipcode": "14940-374"
    },
    {
        "city": "Ibitinga",
        "state": "SP",
        "district": "Jardim Santo Antônio",
        "street": "Rua Setímio Montanari",
        "zipcode": "14945-172"
    },
    {
        "city": "Ibitinga",
        "state": "SP",
        "district": "Jardim Centenário",
        "street": "Rua Manoel da Fonseca",
        "zipcode": "14940-478"
    },
    {
        "city": "Ibitinga",
        "state": "SP",
        "district": "Jardim Romana",
        "street": "Rua Pureza Simões Caldas",
        "zipcode": "14947-028"
    },
    {
        "city": "Ibitinga",
        "state": "SP",
        "district": "Parque das Águas Canaã",
        "street": "Rua Paranapanema",
        "zipcode": "14942-306"
    },
    {
        "city": "Ibitinga",
        "state": "SP",
        "district": "Parque Rancho Alegre",
        "street": "Rua Rosa Simões",
        "zipcode": "14947-074"
    },
    {
        "city": "Ibitinga",
        "state": "SP",
        "district": "Jardim Maria Luiza II",
        "street": "Rua Sebastião Flávio Pinheiro",
        "zipcode": "14945-150"
    },
    {
        "city": "Ibitinga",
        "state": "SP",
        "district": "Residencial Vitoria II",
        "street": "Rua Professor Ivanir Antonio de Rezende",
        "zipcode": "14940-510"
    },
    {
        "city": "Ibitinga",
        "state": "SP",
        "district": "Jardim Santo André",
        "street": "Rua Onésimo da Costa",
        "zipcode": "14940-430"
    },
    {
        "city": "Ibitinga",
        "state": "SP",
        "district": "Jardim dos Bancários",
        "street": "Rua Pedro Zeponi",
        "zipcode": "14940-876"
    },
    {
        "city": "Ibitinga",
        "state": "SP",
        "district": "Vila Santa Tereza",
        "street": "Rua Treze de Maio",
        "zipcode": "14940-370"
    },
    {
        "city": "Ibitinga",
        "state": "SP",
        "district": "Jardim Verona",
        "street": "Rua Taufik José Kalil",
        "zipcode": "14945-220"
    },
    {
        "city": "Ibitinga",
        "state": "SP",
        "district": "Vila Guarany",
        "street": "Rua XV de Novembro",
        "zipcode": "14940-590"
    },
    {
        "city": "Ibitinga",
        "state": "SP",
        "district": "Jardim Eldorado",
        "street": "Rua Maestro Antonio Pedro de Souza",
        "zipcode": "14944-048"
    },
    {
        "city": "Ibitinga",
        "state": "SP",
        "district": "Jardim Roseira",
        "street": "Rua Pedro Dametto",
        "zipcode": "14940-846"
    },
    {
        "city": "Ibitinga",
        "state": "SP",
        "district": "Jardim Centenário",
        "street": "Rua Julio Fernandes Vasques",
        "zipcode": "14940-474"
    },
    {
        "city": "Ibitinga",
        "state": "SP",
        "district": "Centro",
        "street": "Rua São João",
        "zipcode": "14940-001"
    },
    {
        "city": "Ibitinga",
        "state": "SP",
        "district": "Jardim Eldorado III",
        "street": "Rua 3",
        "zipcode": "14944-154"
    },
    {
        "city": "Ibitinga",
        "state": "SP",
        "district": "Jardim São Judas",
        "street": "Rua Treze de Maio",
        "zipcode": "14943-100"
    },
    {
        "city": "Ibitinga",
        "state": "SP",
        "district": "Jardim Filadélfia",
        "street": "Rua Lucila Santana Guidi",
        "zipcode": "14946-152"
    },
    {
        "city": "Ibitinga",
        "state": "SP",
        "district": "Parque das Águas Canaã",
        "street": "Rua Samburá",
        "zipcode": "14942-304"
    },
    {
        "city": "Ibitinga",
        "state": "SP",
        "district": "Residencial Santo Expedito",
        "street": "Rua Maria Amélia Roncada Teixeira",
        "zipcode": "14947-412"
    },
    {
        "city": "Ibitinga",
        "state": "SP",
        "district": "Jardim Felicidade",
        "street": "Rua Setímio Montanari",
        "zipcode": "14945-252"
    },
    {
        "city": "Ibitinga",
        "state": "SP",
        "district": "Jardim Bela Vista",
        "street": "Rua Tereza Alvina",
        "zipcode": "14948-010"
    },
    {
        "city": "Ibitinga",
        "state": "SP",
        "district": "Jardim Dona Almira",
        "street": "Rua Sinibaldo Cassino",
        "zipcode": "14942-030"
    },
    {
        "city": "Ibitinga",
        "state": "SP",
        "district": "Jardim Eldorado II",
        "street": "Rua Vereador Doutor Walter Secanho",
        "zipcode": "14944-110"
    },
    {
        "city": "Ibitinga",
        "state": "SP",
        "district": "Jardim Maria Helena II",
        "street": "Rua Raphael Alves Lopes",
        "zipcode": "14944-012"
    },
    {
        "city": "Ibitinga",
        "state": "SP",
        "district": "Jardim Adriana",
        "street": "Rua Três",
        "zipcode": "14946-194"
    },
    {
        "city": "Ibitinga",
        "state": "SP",
        "district": "Jardim Santa Clara",
        "street": "Rua Rafael Freitas",
        "zipcode": "14945-202"
    },
    {
        "city": "Ibitinga",
        "state": "SP",
        "district": "Residencial São Domingos II",
        "street": "Rua Rondes Antônio Cardoso",
        "zipcode": "14948-124"
    },
    {
        "city": "Ibitinga",
        "state": "SP",
        "district": "Jardim Mirante",
        "street": "Rua São Salvador",
        "zipcode": "14947-252"
    },
    {
        "city": "Ibitinga",
        "state": "SP",
        "district": "Parque das Águas Canaã",
        "street": "Rua Rio Verde",
        "zipcode": "14942-322"
    },
    {
        "city": "Ibitinga",
        "state": "SP",
        "district": "Jardim Alzira",
        "street": "Rua 2",
        "zipcode": "14946-206"
    },
    {
        "city": "Ibitinga",
        "state": "SP",
        "district": "Jardim Roseira",
        "street": "Rua Victória Paschoalino de Amorim",
        "zipcode": "14940-866"
    },
    {
        "city": "Ibitinga",
        "state": "SP",
        "district": "Jardim Eldorado III",
        "street": "Rua 9",
        "zipcode": "14944-136"
    },
    {
        "city": "Ibitinga",
        "state": "SP",
        "district": "Jardim Alzira",
        "street": "Rua 5",
        "zipcode": "14946-210"
    },
    {
        "city": "Ibitinga",
        "state": "SP",
        "district": "Residencial São Benedito",
        "street": "Rua Rosa Simões",
        "zipcode": "14947-374"
    },
    {
        "city": "Ibitinga",
        "state": "SP",
        "district": "Jardim Taquaral",
        "street": "Rua Roseli Aparecida Constantino",
        "zipcode": "14947-104"
    },
    {
        "city": "Ibitinga",
        "state": "SP",
        "district": "Jardim das Paineiras II",
        "street": "Rua Wilson Botigelli",
        "zipcode": "14948-052"
    },
    {
        "city": "Ibitinga",
        "state": "SP",
        "district": "Jardim Eldorado III",
        "street": "Rua 10",
        "zipcode": "14944-142"
    },
    {
        "city": "Ibitinga",
        "state": "SP",
        "district": "Jardim Izolina",
        "street": "Rua Theodoro Ribeiro da Silva",
        "zipcode": "14943-442"
    },
    {
        "city": "Ibitinga",
        "state": "SP",
        "district": "Jardim Roseira",
        "street": "Rua Therezinha Storniolo Russi",
        "zipcode": "14940-856"
    },
    {
        "city": "Ibitinga",
        "state": "SP",
        "district": "Jardim Campo Belo",
        "street": "Rua Quatro",
        "zipcode": "14943-198"
    },
    {
        "city": "Ibitinga",
        "state": "SP",
        "district": "Residencial Parque Morumbi",
        "street": "Rua Santino Raineri",
        "zipcode": "14943-482"
    },
    {
        "city": "Ibitinga",
        "state": "SP",
        "district": "Jardim Eldorado",
        "street": "Avenida Engenheiro Ivanil Francischini",
        "zipcode": "14944-970"
    },
    {
        "city": "Ibitinga",
        "state": "SP",
        "district": "Ângelo de Rosa",
        "street": "Rua Alaor Pinheiro Machado",
        "zipcode": "14946-128"
    },
    {
        "city": "Ibitinga",
        "state": "SP",
        "district": "Jardim Maria Luiza",
        "street": "Avenida Anchieta",
        "zipcode": "14946-018"
    },
    {
        "city": "Ibitinga",
        "state": "SP",
        "district": "Jardim Maria Luiza",
        "street": "Rua Ângelo Pinheiro Machado Neto",
        "zipcode": "14946-004"
    },
    {
        "city": "Ibitinga",
        "state": "SP",
        "district": "Jardim Maria Luiza",
        "street": "Rua Antonio Kizo Seino",
        "zipcode": "14946-014"
    },
    {
        "city": "Ibitinga",
        "state": "SP",
        "district": "Jardim dos Ipês IV",
        "street": "Rua Antonio Margadona",
        "zipcode": "14945-286"
    },
    {
        "city": "Ibitinga",
        "state": "SP",
        "district": "Jardim dos Ipês I",
        "street": "Rua Avelino Minzoni",
        "zipcode": "14945-312"
    },
    {
        "city": "Ibitinga",
        "state": "SP",
        "district": "Jardim dos Ipês IV",
        "street": "Rua Cinco",
        "zipcode": "14945-282"
    },
    {
        "city": "Ibitinga",
        "state": "SP",
        "district": "Jardim dos Ipês I",
        "street": "Rua Damaso Deri",
        "zipcode": "14945-316"
    },
    {
        "city": "Ibitinga",
        "state": "SP",
        "district": "Jardim dos Ipês I",
        "street": "Rua Dois",
        "zipcode": "14945-306"
    },
    {
        "city": "Ibitinga",
        "state": "SP",
        "district": "Jardim Maria Luiza",
        "street": "Rua Domingos Deríssio",
        "zipcode": "14946-012"
    },
    {
        "city": "Ibitinga",
        "state": "SP",
        "district": "Jardim dos Ipês I",
        "street": "Rua Eiriberto Teixeira Godoy",
        "zipcode": "14945-304"
    },
    {
        "city": "Ibitinga",
        "state": "SP",
        "district": "Jardim Maria Luiza",
        "street": "Rua Érico Meira Ramos",
        "zipcode": "14946-008"
    },
    {
        "city": "Ibitinga",
        "state": "SP",
        "district": "Jardim Maria Luiza",
        "street": "Avenida Euclides Coleone",
        "zipcode": "14946-002"
    },
    {
        "city": "Ibitinga",
        "state": "SP",
        "district": "Jardim dos Ipês I",
        "street": "Rua Hélio Domingues",
        "zipcode": "14945-322"
    },
    {
        "city": "Ibitinga",
        "state": "SP",
        "district": "Ângelo de Rosa",
        "street": "Rua Idilio Alves Lopes",
        "zipcode": "14946-124"
    },
    {
        "city": "Ibitinga",
        "state": "SP",
        "district": "Ângelo de Rosa",
        "street": "Rua Idílio Pereira",
        "zipcode": "14946-130"
    },
    {
        "city": "Ibitinga",
        "state": "SP",
        "district": "Jardim Maria Luiza",
        "street": "Avenida Engenheiro Ivanil Francischini",
        "zipcode": "14946-000"
    },
    {
        "city": "Ibitinga",
        "state": "SP",
        "district": "Ângelo de Rosa",
        "street": "Avenida Jean Habib Machaalani",
        "zipcode": "14946-122"
    },
    {
        "city": "Ibitinga",
        "state": "SP",
        "district": "Ângelo de Rosa",
        "street": "Rua Joana Parra Ribeiro",
        "zipcode": "14946-126"
    },
    {
        "city": "Ibitinga",
        "state": "SP",
        "district": "Jardim dos Ipês IV",
        "street": "Rua João Marrone",
        "zipcode": "14945-290"
    },
    {
        "city": "Ibitinga",
        "state": "SP",
        "district": "Jardim dos Ipês I",
        "street": "Rua João Marrone",
        "zipcode": "14945-310"
    },
    {
        "city": "Ibitinga",
        "state": "SP",
        "district": "Jardim Maria Luiza",
        "street": "Rua João Zavatta",
        "zipcode": "14946-010"
    },
    {
        "city": "Ibitinga",
        "state": "SP",
        "district": "Jardim Maria Luiza",
        "street": "Rua Doutor José Augusto de Arruda Botelho",
        "zipcode": "14946-006"
    },
    {
        "city": "Ibitinga",
        "state": "SP",
        "district": "Jardim Maria Luiza",
        "street": "Rua José Venâncio Custódio",
        "zipcode": "14946-016"
    },
    {
        "city": "Ibitinga",
        "state": "SP",
        "district": "Jardim dos Ipês IV",
        "street": "Rua Lidio Moacir Crecente",
        "zipcode": "14945-280"
    },
    {
        "city": "Ibitinga",
        "state": "SP",
        "district": "Ângelo de Rosa",
        "street": "Rua Lucila Santana Guidi",
        "zipcode": "14946-132"
    },
    {
        "city": "Ibitinga",
        "state": "SP",
        "district": "Ângelo de Rosa",
        "street": "Rua Marcos Antonio Calamante",
        "zipcode": "14946-136"
    },
    {
        "city": "Ibitinga",
        "state": "SP",
        "district": "Jardim dos Ipês IV",
        "street": "Rua Maria Gonçalves de Amorim Grillo",
        "zipcode": "14945-278"
    },
    {
        "city": "Ibitinga",
        "state": "SP",
        "district": "Jardim dos Ipês I",
        "street": "Rua Maria Gonçalves de Amorim Grillo",
        "zipcode": "14945-300"
    },
    {
        "city": "Ibitinga",
        "state": "SP",
        "district": "Jardim dos Ipês I",
        "street": "Rua Onze",
        "zipcode": "14945-318"
    },
    {
        "city": "Ibitinga",
        "state": "SP",
        "district": "Ângelo de Rosa",
        "street": "Estrada Municipal Romão Fernando",
        "zipcode": "14946-120"
    },
    {
        "city": "Ibitinga",
        "state": "SP",
        "district": "Ângelo de Rosa",
        "street": "Rua Rosa Manfrim",
        "zipcode": "14946-134"
    },
    {
        "city": "Ibitinga",
        "state": "SP",
        "district": "Ângelo de Rosa",
        "street": "Rua Sebastião Falsete",
        "zipcode": "14946-138"
    },
    {
        "city": "Ibitinga",
        "state": "SP",
        "district": "Jardim dos Ipês IV",
        "street": "Rua Seis",
        "zipcode": "14945-284"
    },
    {
        "city": "Ibitinga",
        "state": "SP",
        "district": "Jardim dos Ipês IV",
        "street": "Rua Sete",
        "zipcode": "14945-288"
    },
    {
        "city": "Ibitinga",
        "state": "SP",
        "district": "Jardim dos Ipês II",
        "street": "Rua Setímio Montanari",
        "zipcode": "14945-344"
    },
    {
        "city": "Ibitinga",
        "state": "SP",
        "district": "Jardim dos Ipês I",
        "street": "Rua Três",
        "zipcode": "14945-308"
    },
    {
        "city": "Ibitinga",
        "state": "SP",
        "district": "Jardim dos Ipês I",
        "street": "Rua Ulysses Tavares Sacomano",
        "zipcode": "14945-320"
    },
    {
        "city": "Ibitinga",
        "state": "SP",
        "district": "Jardim dos Ipês I",
        "street": "Rua Um",
        "zipcode": "14945-302"
    },
    {
        "city": "Ibitinga",
        "state": "SP",
        "district": "Jardim dos Ipês I",
        "street": "Rua Valentina Minzoni Palanque",
        "zipcode": "14945-314"
    },
    {
        "city": "Ibitinga",
        "state": "SP",
        "district": "Jardim dos Ipês II",
        "street": "Rua 1",
        "zipcode": "14945-330"
    },
    {
        "city": "Ibitinga",
        "state": "SP",
        "district": "Jardim dos Ipês II",
        "street": "Rua 2",
        "zipcode": "14945-332"
    },
    {
        "city": "Ibitinga",
        "state": "SP",
        "district": "Jardim dos Ipês II",
        "street": "Rua 3",
        "zipcode": "14945-334"
    },
    {
        "city": "Ibitinga",
        "state": "SP",
        "district": "Jardim dos Ipês II",
        "street": "Rua 4",
        "zipcode": "14945-336"
    },
    {
        "city": "Ibitinga",
        "state": "SP",
        "district": "Jardim dos Ipês II",
        "street": "Rua 5",
        "zipcode": "14945-338"
    },
    {
        "city": "Ibitinga",
        "state": "SP",
        "district": "Jardim dos Ipês II",
        "street": "Rua 6",
        "zipcode": "14945-340"
    },
    {
        "city": "Ibitinga",
        "state": "SP",
        "district": "Jardim dos Ipês II",
        "street": "Rua 7",
        "zipcode": "14945-342"
    },
    {
        "city": "Ibitinga",
        "state": "SP",
        "district": "Jardim dos Ipês II",
        "street": "Rua 8",
        "zipcode": "14945-346"
    },
    {
        "city": "Ibitinga",
        "state": "SP",
        "district": "Jardim dos Ipês II",
        "street": "Rua 9",
        "zipcode": "14945-348"
    },
    {
        "city": "Ibitinga",
        "state": "SP",
        "district": "Jardim dos Ipês II",
        "street": "Rua 10",
        "zipcode": "14945-350"
    },
    {
        "city": "Ibitinga",
        "state": "SP",
        "district": "Jardim dos Ipês II",
        "street": "Rua 11",
        "zipcode": "14945-352"
    },
    {
        "city": "Ibitinga",
        "state": "SP",
        "district": "Jardim Eldorado",
        "street": "Avenida Engenheiro Ivanil Francischini 14020",
        "zipcode": "14940-972"
    },
    {
        "city": "Ibitinga",
        "state": "SP",
        "district": "Jardim London Park",
        "street": "Rua Joaquim Gonçalves Lopes",
        "zipcode": "14942-066"
    },
    {
        "city": "Ibitinga",
        "state": "SP",
        "district": "Residencial Parque Morumbi",
        "street": "Rua Américo Tagliatella",
        "zipcode": "14943-484"
    },
    {
        "city": "Ibitinga",
        "state": "SP",
        "district": "Parque Industrial",
        "street": "Rua Nunila Fernandes Arantes",
        "zipcode": "14942-120"
    },
    {
        "city": "Ibitinga",
        "state": "SP",
        "district": "Residencial Parque Morumbi",
        "street": "Avenida Mario Antonio do Nascimento (Mário da Tó)",
        "zipcode": "14943-476"
    },
    {
        "city": "Ibitinga",
        "state": "SP",
        "district": "Distrito Industrial João Paulo Bocca (I)",
        "street": "Estrada Municipal Miguel Baladi",
        "zipcode": "14943-544"
    },
    {
        "city": "Ibitinga",
        "state": "SP",
        "district": "Residencial São Domingos II",
        "street": "Rua Doutor Abdalla Haddad",
        "zipcode": "14948-130"
    },
    {
        "city": "Ibitinga",
        "state": "SP",
        "district": "Jardim Santo André",
        "street": "Rua Treze de Maio",
        "zipcode": "14940-432"
    },
    {
        "city": "Ibitinga",
        "state": "SP",
        "district": "Jardim Paraíso",
        "street": "Avenida Benedito Orlando Titato",
        "zipcode": "14943-140"
    },
    {
        "city": "Ibitinga",
        "state": "SP",
        "district": "Jardim Aurora",
        "street": "Rua Sandra Helena Doro Pereira",
        "zipcode": "14948-574"
    },
    {
        "city": "Ibitinga",
        "state": "SP",
        "district": "Jardim Eldorado III",
        "street": "Rua Antonio Francisco dos Santos",
        "zipcode": "14944-148"
    },
    {
        "city": "Ibitinga",
        "state": "SP",
        "district": "Jardim do Bosque",
        "street": "Rua Luiz Russi (Bigim)",
        "zipcode": "14945-014"
    },
    {
        "city": "Ibitinga",
        "state": "SP",
        "district": "Residencial Vitoria III",
        "street": "Avenida Guido Izidoro DallAcqua",
        "zipcode": "14940-500"
    },
    {
        "city": "Ibitinga",
        "state": "SP",
        "district": "Residencial Vitoria I",
        "street": "Rua Antonio Casemiro",
        "zipcode": "14940-524"
    },
    {
        "city": "Ibitinga",
        "state": "SP",
        "district": "Centro (Cambaratiba)",
        "street": "Rua Paulino Venâncio de Paula",
        "zipcode": "14949-014"
    },
    {
        "city": "Ibitinga",
        "state": "SP",
        "district": "Jardim Eldorado",
        "street": "Rua Marinheiro Nascimento José",
        "zipcode": "14944-042"
    },
    {
        "city": "Ibitinga",
        "state": "SP",
        "district": "Jardim Santo Antônio",
        "street": "Rua José Augusto Massola",
        "zipcode": "14945-180"
    },
    {
        "city": "Ibitinga",
        "state": "SP",
        "district": "Jardim Centenário",
        "street": "Rua Capitão Felicio Salomão Racy",
        "zipcode": "14940-492"
    },
    {
        "city": "Ibitinga",
        "state": "SP",
        "district": "Terras de São Joaquim II",
        "street": "Rua Prazer Sampaio Miranda Sales",
        "zipcode": "14948-424"
    },
    {
        "city": "Ibitinga",
        "state": "SP",
        "district": "Jardim Maria Helena II",
        "street": "Rua Francisco Baptista de Oliveira",
        "zipcode": "14944-014"
    },
    {
        "city": "Ibitinga",
        "state": "SP",
        "district": "Jardim Santo Antônio",
        "street": "Rua José Manoel Martins Lorenci",
        "zipcode": "14945-182"
    },
    {
        "city": "Ibitinga",
        "state": "SP",
        "district": "Jardim Pacola",
        "street": "Rua Maria Brigne Pacola",
        "zipcode": "14948-028"
    },
    {
        "city": "Ibitinga",
        "state": "SP",
        "district": "Centro",
        "street": "Avenida Ferroviária",
        "zipcode": "14940-046"
    },
    {
        "city": "Ibitinga",
        "state": "SP",
        "district": "Jardim Petrópolis",
        "street": "Rua Adelino Pinto da Costa",
        "zipcode": "14940-540"
    },
    {
        "city": "Ibitinga",
        "state": "SP",
        "district": "Jardim Paulista",
        "street": "Rua Rio Branco",
        "zipcode": "14940-412"
    },
    {
        "city": "Ibitinga",
        "state": "SP",
        "district": "Jardim das Paineiras II",
        "street": "Alameda Luciana Furco Guedes",
        "zipcode": "14948-062"
    },
    {
        "city": "Ibitinga",
        "state": "SP",
        "district": "Vila Maria",
        "street": "Praça Nivaldo Ferreira de Oliveira",
        "zipcode": "14948-376"
    },
    {
        "city": "Ibitinga",
        "state": "SP",
        "district": "Vila Maria",
        "street": "Praça Arlindo Nunes Pinheiro",
        "zipcode": "14948-364"
    },
    {
        "city": "Ibitinga",
        "state": "SP",
        "district": "Jardim Ibirapuera",
        "street": "Rua Sejan Sahyun",
        "zipcode": "14945-120"
    },
    {
        "city": "Ibitinga",
        "state": "SP",
        "district": "Jardim Bela Vista",
        "street": "Rua João Abrão",
        "zipcode": "14948-008"
    },
    {
        "city": "Ibitinga",
        "state": "SP",
        "district": "Residencial Dona Branca",
        "street": "Rua dos Jasmins",
        "zipcode": "14944-100"
    },
    {
        "city": "Ibitinga",
        "state": "SP",
        "district": "Jardim dos Bordados",
        "street": "Rua das Margaridas",
        "zipcode": "14944-080"
    },
    {
        "city": "Ibitinga",
        "state": "SP",
        "district": "Jardim Izolina",
        "street": "Rua José Maria Reobold",
        "zipcode": "14943-434"
    },
    {
        "city": "Ibitinga",
        "state": "SP",
        "district": "Jardim Ternura",
        "street": "Avenida Prefeito Alberto Alves Casemiro",
        "zipcode": "14943-030"
    },
    {
        "city": "Ibitinga",
        "state": "SP",
        "district": "Jardim Verona",
        "street": "Rua Isabel Batiston Vareschi",
        "zipcode": "14945-212"
    },
    {
        "city": "Ibitinga",
        "state": "SP",
        "district": "Jardim Mirante",
        "street": "Rua Aracaju",
        "zipcode": "14947-244"
    },
    {
        "city": "Ibitinga",
        "state": "SP",
        "district": "Jardim Taquaral",
        "street": "Avenida José Maria Machado",
        "zipcode": "14947-116"
    },
    {
        "city": "Ibitinga",
        "state": "SP",
        "district": "Jardim Eldorado",
        "street": "Rua Doutor Albino Quaresma Filho",
        "zipcode": "14944-046"
    },
    {
        "city": "Ibitinga",
        "state": "SP",
        "district": "Vila Maria",
        "street": "Rua Victório Tagliari",
        "zipcode": "14948-372"
    },
    {
        "city": "Ibitinga",
        "state": "SP",
        "district": "Saltinho",
        "street": "Rua Luiz Henrique Adegas",
        "zipcode": "14943-114"
    },
    {
        "city": "Ibitinga",
        "state": "SP",
        "district": "Distrito Industrial João Paulo Bocca (I)",
        "street": "Rua Júlio Francischini",
        "zipcode": "14943-540"
    },
    {
        "city": "Ibitinga",
        "state": "SP",
        "district": "Parque das Águas Canaã",
        "street": "Rua Salinas",
        "zipcode": "14942-280"
    },
    {
        "city": "Ibitinga",
        "state": "SP",
        "district": "Centro",
        "street": "Rua Capitão Felicio Salomão Racy",
        "zipcode": "14940-223"
    },
    {
        "city": "Ibitinga",
        "state": "SP",
        "district": "Saltinho",
        "street": "Rua dos Juritis",
        "zipcode": "14943-126"
    },
    {
        "city": "Ibitinga",
        "state": "SP",
        "district": "Jardim Paulista",
        "street": "Rua Onésimo da Costa",
        "zipcode": "14940-422"
    },
    {
        "city": "Ibitinga",
        "state": "SP",
        "district": "Terras de São Joaquim II",
        "street": "Rua Carmelo Carradore",
        "zipcode": "14948-434"
    },
    {
        "city": "Ibitinga",
        "state": "SP",
        "district": "Jardim Pacola",
        "street": "Rua Tereza Alvina",
        "zipcode": "14948-034"
    }
]