[
    {
        "city": "Itaí",
        "state": "SP",
        "district": "Centro",
        "street": "Rua XV de Novembro 1168",
        "zipcode": "18730-970"
    },
    {
        "city": "Itaí",
        "state": "SP",
        "district": "",
        "street": "",
        "zipcode": "18730-000"
    },
    {
        "city": "Itaí",
        "state": "SP",
        "district": "Residencial Marajoara",
        "street": "Rua Amadeu Tristão",
        "zipcode": "18732-210"
    },
    {
        "city": "Itaí",
        "state": "SP",
        "district": "Centro",
        "street": "Praça da Bandeira",
        "zipcode": "18730-029"
    },
    {
        "city": "Itaí",
        "state": "SP",
        "district": "Jardim Monte Alto",
        "street": "Rua Antonio Fiori",
        "zipcode": "18734-064"
    },
    {
        "city": "Itaí",
        "state": "SP",
        "district": "Conjunto Habitacional Recanto dos Pássaros",
        "street": "Avenida João de Barro",
        "zipcode": "18737-174"
    },
    {
        "city": "Itaí",
        "state": "SP",
        "district": "Jardim Brasil",
        "street": "Estrada Abílio Raposo Ferraz",
        "zipcode": "18734-280"
    },
    {
        "city": "Itaí",
        "state": "SP",
        "district": "Vila São Salvador",
        "street": "Rua Amélia Cardoso de Oliveira",
        "zipcode": "18734-002"
    },
    {
        "city": "Itaí",
        "state": "SP",
        "district": "Vila São Salvador",
        "street": "Estrada José Rolim Pinheiro",
        "zipcode": "18734-006"
    },
    {
        "city": "Itaí",
        "state": "SP",
        "district": "Jardim Monte Alto",
        "street": "Rua Agostinho Morgato",
        "zipcode": "18734-044"
    },
    {
        "city": "Itaí",
        "state": "SP",
        "district": "Vila Capitão Cezário",
        "street": "Rua Angelino de Oliveira",
        "zipcode": "18737-002"
    },
    {
        "city": "Itaí",
        "state": "SP",
        "district": "Centro",
        "street": "Avenida Aurélio Bouças Loureiro",
        "zipcode": "18730-057"
    },
    {
        "city": "Itaí",
        "state": "SP",
        "district": "Residencial Marajoara",
        "street": "Rua Antenor Ferrão",
        "zipcode": "18732-214"
    },
    {
        "city": "Itaí",
        "state": "SP",
        "district": "Jardim Planalto",
        "street": "Avenida Santo Antônio",
        "zipcode": "18730-120"
    },
    {
        "city": "Itaí",
        "state": "SP",
        "district": "Jardim Monte Alto",
        "street": "Rua Antonio Bergamo",
        "zipcode": "18734-058"
    },
    {
        "city": "Itaí",
        "state": "SP",
        "district": "Jardim Vila Rica",
        "street": "Rua Ana Maria Vieira",
        "zipcode": "18730-096"
    },
    {
        "city": "Itaí",
        "state": "SP",
        "district": "Jardim Novo Horizonte",
        "street": "Rua Alfredo Veloso de Moura",
        "zipcode": "18732-062"
    },
    {
        "city": "Itaí",
        "state": "SP",
        "district": "Jardim Planalto",
        "street": "Avenida Antonio Justino Vieira",
        "zipcode": "18730-136"
    },
    {
        "city": "Itaí",
        "state": "SP",
        "district": "Vila Florentino Dognani",
        "street": "Praça Colonização Japonesa",
        "zipcode": "18732-046"
    },
    {
        "city": "Itaí",
        "state": "SP",
        "district": "Jardim Monte Alto",
        "street": "Rua Antonio Benedito Leite de Moraes",
        "zipcode": "18734-052"
    },
    {
        "city": "Itaí",
        "state": "SP",
        "district": "Jardim Novo Horizonte",
        "street": "Rua Antonio Leme Brisola",
        "zipcode": "18732-090"
    },
    {
        "city": "Itaí",
        "state": "SP",
        "district": "Centro",
        "street": "Praça Padre Ernesto Odino",
        "zipcode": "18730-031"
    },
    {
        "city": "Itaí",
        "state": "SP",
        "district": "Vila Campo Santo",
        "street": "Rua Abel Gomes da Silveira",
        "zipcode": "18734-036"
    },
    {
        "city": "Itaí",
        "state": "SP",
        "district": "Vila Capitão Cezário",
        "street": "Rua Akira Sako",
        "zipcode": "18737-020"
    },
    {
        "city": "Itaí",
        "state": "SP",
        "district": "Vila Florentino Dognani",
        "street": "Avenida Amantino Rolim de Moura",
        "zipcode": "18732-030"
    },
    {
        "city": "Itaí",
        "state": "SP",
        "district": "Jardim Bela Vista",
        "street": "Avenida Santo Antônio",
        "zipcode": "18730-112"
    },
    {
        "city": "Itaí",
        "state": "SP",
        "district": "Vila Capitão Cezário",
        "street": "Rua Antonio Dias",
        "zipcode": "18737-000"
    },
    {
        "city": "Itaí",
        "state": "SP",
        "district": "Jardim Bela Vista",
        "street": "Avenida Antonio Justino Vieira",
        "zipcode": "18730-100"
    },
    {
        "city": "Itaí",
        "state": "SP",
        "district": "Vila Campo Santo",
        "street": "Estrada José Luiz da Rocha",
        "zipcode": "18734-038"
    },
    {
        "city": "Itaí",
        "state": "SP",
        "district": "Vila Florentino Dognani",
        "street": "Avenida Nhonhô César",
        "zipcode": "18732-050"
    },
    {
        "city": "Itaí",
        "state": "SP",
        "district": "Vila Florentino Dognani",
        "street": "Avenida Primo Cristiano de Melo",
        "zipcode": "18732-052"
    },
    {
        "city": "Itaí",
        "state": "SP",
        "district": "Residencial Doutor Luiz Antonio Paschoal",
        "street": "Rua Amauri Manoel de Almeida",
        "zipcode": "18737-148"
    },
    {
        "city": "Itaí",
        "state": "SP",
        "district": "Quinta dos Cambarás",
        "street": "Rua Antônio Carlos da Rocha",
        "zipcode": "18737-202"
    },
    {
        "city": "Itaí",
        "state": "SP",
        "district": "Jardim Brasil",
        "street": "Rua Antonio Corrêa dos Santos",
        "zipcode": "18734-296"
    },
    {
        "city": "Itaí",
        "state": "SP",
        "district": "Jardim América",
        "street": "Avenida Aurélio Bouças Loureiro",
        "zipcode": "18730-074"
    },
    {
        "city": "Itaí",
        "state": "SP",
        "district": "Jardim América",
        "street": "Avenida Antonio Justino Vieira",
        "zipcode": "18730-076"
    },
    {
        "city": "Itaí",
        "state": "SP",
        "district": "Jardim Novo Horizonte",
        "street": "Rua Antonio Januário Batista",
        "zipcode": "18732-086"
    },
    {
        "city": "Itaí",
        "state": "SP",
        "district": "Residencial Marajoara",
        "street": "Rua Alcides Custódio da Silva",
        "zipcode": "18732-208"
    },
    {
        "city": "Itaí",
        "state": "SP",
        "district": "Centro",
        "street": "Avenida Antonio Justino Vieira",
        "zipcode": "18730-053"
    },
    {
        "city": "Itaí",
        "state": "SP",
        "district": "Jardim Novo Horizonte",
        "street": "Avenida Amantino Rolim de Moura",
        "zipcode": "18732-072"
    },
    {
        "city": "Itaí",
        "state": "SP",
        "district": "Vila Campo Santo",
        "street": "Rodovia Eduardo Saigh",
        "zipcode": "18734-032"
    },
    {
        "city": "Itaí",
        "state": "SP",
        "district": "Conjunto Habitacional Recanto dos Pássaros",
        "street": "Avenida das Graças",
        "zipcode": "18737-182"
    },
    {
        "city": "Itaí",
        "state": "SP",
        "district": "Quinta dos Cambarás",
        "street": "Rua Ademário Borges Filho",
        "zipcode": "18737-216"
    },
    {
        "city": "Itaí",
        "state": "SP",
        "district": "Vila Capitão Cezário",
        "street": "Avenida Maria Araújo Pinheiro",
        "zipcode": "18737-086"
    },
    {
        "city": "Itaí",
        "state": "SP",
        "district": "Centro",
        "street": "Rodovia Eduardo Saigh",
        "zipcode": "18730-001"
    },
    {
        "city": "Itaí",
        "state": "SP",
        "district": "Jardim Santo Antônio",
        "street": "Avenida Durval Rahmi Garcia",
        "zipcode": "18732-022"
    },
    {
        "city": "Itaí",
        "state": "SP",
        "district": "Vila Capitão Cezário",
        "street": "Estrada José Rolim Pinheiro",
        "zipcode": "18737-024"
    },
    {
        "city": "Itaí",
        "state": "SP",
        "district": "Área Rural de Itaí",
        "street": "Área Rural",
        "zipcode": "18739-899"
    },
    {
        "city": "Itaí",
        "state": "SP",
        "district": "Jardim Planalto",
        "street": "Rua Elizina Pereira da Cruz",
        "zipcode": "18730-162"
    },
    {
        "city": "Itaí",
        "state": "SP",
        "district": "Quinta dos Cambarás",
        "street": "Rua Arlindo Lúcio",
        "zipcode": "18737-224"
    },
    {
        "city": "Itaí",
        "state": "SP",
        "district": "Jardim Vila Rica",
        "street": "Rua Antonio Martins",
        "zipcode": "18730-098"
    },
    {
        "city": "Itaí",
        "state": "SP",
        "district": "Parque Marajoara",
        "street": "Rua Francisca Maria Queiroz Cardoso",
        "zipcode": "18732-246"
    },
    {
        "city": "Itaí",
        "state": "SP",
        "district": "Vila Capitão Cezário",
        "street": "Rua Francisco Carlos",
        "zipcode": "18737-006"
    },
    {
        "city": "Itaí",
        "state": "SP",
        "district": "Vila Capitão Cezário",
        "street": "Rua Carmelo Rolim Pinheiro",
        "zipcode": "18737-014"
    },
    {
        "city": "Itaí",
        "state": "SP",
        "district": "Vila São Salvador",
        "street": "Rua Arnaldo Segala",
        "zipcode": "18734-026"
    },
    {
        "city": "Itaí",
        "state": "SP",
        "district": "Residencial Colina Verde",
        "street": "Rua Durvalino Corrêa dos Santos",
        "zipcode": "18732-250"
    },
    {
        "city": "Itaí",
        "state": "SP",
        "district": "Jardim Planalto",
        "street": "Rua Cristiano Correia de Oliveira",
        "zipcode": "18730-154"
    },
    {
        "city": "Itaí",
        "state": "SP",
        "district": "Jardim Planalto",
        "street": "Rua Eugênia Antonia de Camargo",
        "zipcode": "18730-178"
    },
    {
        "city": "Itaí",
        "state": "SP",
        "district": "Conjunto Residencial Valdomiro Gabriel de Freitas",
        "street": "Rua Edvaldo Domingues",
        "zipcode": "18734-372"
    },
    {
        "city": "Itaí",
        "state": "SP",
        "district": "Vila Capitão Cezário",
        "street": "Rua Eurico Sako",
        "zipcode": "18737-058"
    },
    {
        "city": "Itaí",
        "state": "SP",
        "district": "Jardim Monte Alto",
        "street": "Rua Cassiano Luiz da Silva",
        "zipcode": "18734-048"
    },
    {
        "city": "Itaí",
        "state": "SP",
        "district": "Jardim Planalto",
        "street": "Rua Donato Dias de Camargo",
        "zipcode": "18730-144"
    },
    {
        "city": "Itaí",
        "state": "SP",
        "district": "Jardim Bela Vista",
        "street": "Rua Avelino Gabriel de Freitas",
        "zipcode": "18730-110"
    },
    {
        "city": "Itaí",
        "state": "SP",
        "district": "Conjunto Habitacional Recanto dos Pássaros",
        "street": "Rua dos Canários",
        "zipcode": "18737-170"
    },
    {
        "city": "Itaí",
        "state": "SP",
        "district": "Jardim Brasil",
        "street": "Rua Francisco Corrêa dos Santos",
        "zipcode": "18734-300"
    },
    {
        "city": "Itaí",
        "state": "SP",
        "district": "Jardim Bela Vista",
        "street": "Rua Braulino Ferreira de Almeida",
        "zipcode": "18730-106"
    },
    {
        "city": "Itaí",
        "state": "SP",
        "district": "Jardim Planalto",
        "street": "Rua Antonio Tristão Moço",
        "zipcode": "18730-164"
    },
    {
        "city": "Itaí",
        "state": "SP",
        "district": "Quinta dos Cambarás",
        "street": "Rua Eunucho Ferreira da Cruz",
        "zipcode": "18737-214"
    },
    {
        "city": "Itaí",
        "state": "SP",
        "district": "Conjunto Habitacional Itaí B",
        "street": "Rua Bartolomeu Francisco da Silva",
        "zipcode": "18734-334"
    },
    {
        "city": "Itaí",
        "state": "SP",
        "district": "Quinta dos Cambarás",
        "street": "Rua Catharina Galvani Dognani",
        "zipcode": "18737-190"
    },
    {
        "city": "Itaí",
        "state": "SP",
        "district": "Conjunto Habitacional Itaí B",
        "street": "Rua Augusto Daffara",
        "zipcode": "18734-336"
    },
    {
        "city": "Itaí",
        "state": "SP",
        "district": "Jardim Vila Rica",
        "street": "Rua Ester de Oliveira",
        "zipcode": "18730-092"
    },
    {
        "city": "Itaí",
        "state": "SP",
        "district": "Jardim Novo Horizonte",
        "street": "Rua Francisco de Almeida Lara",
        "zipcode": "18732-074"
    },
    {
        "city": "Itaí",
        "state": "SP",
        "district": "Parque Marajoara",
        "street": "Rua César Fernando Roque",
        "zipcode": "18732-234"
    },
    {
        "city": "Itaí",
        "state": "SP",
        "district": "Vila Capitão Cezário",
        "street": "Rua Benedito Antonio de Oliveira",
        "zipcode": "18737-078"
    },
    {
        "city": "Itaí",
        "state": "SP",
        "district": "Vila Florentino Dognani",
        "street": "Rua Egidio Gesualdi",
        "zipcode": "18732-048"
    },
    {
        "city": "Itaí",
        "state": "SP",
        "district": "Centro",
        "street": "Rua Expedicionários",
        "zipcode": "18730-041"
    },
    {
        "city": "Itaí",
        "state": "SP",
        "district": "Centro",
        "street": "Rua Duque de Caxias",
        "zipcode": "18730-021"
    },
    {
        "city": "Itaí",
        "state": "SP",
        "district": "Centro",
        "street": "Rua Aristides Pires",
        "zipcode": "18730-019"
    },
    {
        "city": "Itaí",
        "state": "SP",
        "district": "Quinta dos Cambarás",
        "street": "Rua Benedito Aparecido dos Santos",
        "zipcode": "18737-192"
    },
    {
        "city": "Itaí",
        "state": "SP",
        "district": "Quinta dos Cambarás",
        "street": "Rua Doutor Lúcio de Almeida",
        "zipcode": "18737-228"
    },
    {
        "city": "Itaí",
        "state": "SP",
        "district": "Jardim Monte Alto",
        "street": "Rua Francisco Pereira Ramos",
        "zipcode": "18734-060"
    },
    {
        "city": "Itaí",
        "state": "SP",
        "district": "Jardim Monte Alto",
        "street": "Rua Arlindo Cardoso Vieira",
        "zipcode": "18734-066"
    },
    {
        "city": "Itaí",
        "state": "SP",
        "district": "Jardim Monte Alto",
        "street": "Rua Antonio Zamarioli",
        "zipcode": "18734-056"
    },
    {
        "city": "Itaí",
        "state": "SP",
        "district": "Jardim Planalto",
        "street": "Rua Donério Gomes",
        "zipcode": "18730-176"
    },
    {
        "city": "Itaí",
        "state": "SP",
        "district": "Jardim Novo Horizonte",
        "street": "Rua Benedito Tavares de Moraes",
        "zipcode": "18732-088"
    },
    {
        "city": "Itaí",
        "state": "SP",
        "district": "Residencial Doutor Luiz Antonio Paschoal",
        "street": "Rua Dionísio Antonio Michelin",
        "zipcode": "18737-160"
    },
    {
        "city": "Itaí",
        "state": "SP",
        "district": "Residencial Doutor Luiz Antonio Paschoal",
        "street": "Rua Debni Diogo de Araújo",
        "zipcode": "18737-146"
    },
    {
        "city": "Itaí",
        "state": "SP",
        "district": "Vila Capitão Cezário",
        "street": "Rua Benedito Rolim",
        "zipcode": "18737-012"
    },
    {
        "city": "Itaí",
        "state": "SP",
        "district": "Jardim Novo Horizonte",
        "street": "Rua Aristiides Domingues Leite",
        "zipcode": "18732-080"
    },
    {
        "city": "Itaí",
        "state": "SP",
        "district": "Vila Capitão Cezário",
        "street": "Rua Antonio Pires Cardoso",
        "zipcode": "18737-088"
    },
    {
        "city": "Itaí",
        "state": "SP",
        "district": "Vila Campo Santo",
        "street": "Rua Arnaldo Segala",
        "zipcode": "18734-030"
    },
    {
        "city": "Itaí",
        "state": "SP",
        "district": "Conjunto Habitacional Recanto dos Pássaros",
        "street": "Rua dos Sabiás",
        "zipcode": "18737-178"
    },
    {
        "city": "Itaí",
        "state": "SP",
        "district": "Residencial Mário Gonçalves",
        "street": "Rua Antonio Pires Cardoso",
        "zipcode": "18734-324"
    },
    {
        "city": "Itaí",
        "state": "SP",
        "district": "Jardim Novo Horizonte",
        "street": "Rua Egidio Gesualdi",
        "zipcode": "18732-068"
    },
    {
        "city": "Itaí",
        "state": "SP",
        "district": "Jardim Planalto",
        "street": "Rua Francisca Negrão",
        "zipcode": "18730-150"
    },
    {
        "city": "Itaí",
        "state": "SP",
        "district": "Conjunto Habitacional Recanto dos Pássaros",
        "street": "Rua dos Curiós",
        "zipcode": "18737-180"
    },
    {
        "city": "Itaí",
        "state": "SP",
        "district": "Conjunto Habitacional Recanto dos Pássaros",
        "street": "Rua das Andorinhas",
        "zipcode": "18737-176"
    },
    {
        "city": "Itaí",
        "state": "SP",
        "district": "Parque Marajoara",
        "street": "Rua Francisco Pinto Neto",
        "zipcode": "18732-236"
    },
    {
        "city": "Itaí",
        "state": "SP",
        "district": "Jardim Planalto",
        "street": "Rua Antonio Martins",
        "zipcode": "18730-152"
    },
    {
        "city": "Itaí",
        "state": "SP",
        "district": "Residencial Doutor Luiz Antonio Paschoal",
        "street": "Rua Edgar Wilson Ferraz de Carvalho",
        "zipcode": "18737-144"
    },
    {
        "city": "Itaí",
        "state": "SP",
        "district": "Vila São Salvador",
        "street": "Rua Haruo Yoshida",
        "zipcode": "18734-022"
    },
    {
        "city": "Itaí",
        "state": "SP",
        "district": "Quinta dos Cambarás",
        "street": "Rua Jandira Araujo Consulo",
        "zipcode": "18737-222"
    },
    {
        "city": "Itaí",
        "state": "SP",
        "district": "Jardim Santo Antônio",
        "street": "Rua José Antonio de Oliveira",
        "zipcode": "18732-016"
    },
    {
        "city": "Itaí",
        "state": "SP",
        "district": "Residencial Marajoara",
        "street": "Rua Jonas Carlos Pinto",
        "zipcode": "18732-212"
    },
    {
        "city": "Itaí",
        "state": "SP",
        "district": "Jardim Santo Antônio",
        "street": "Rua Inácia Maria de Jesus",
        "zipcode": "18732-020"
    },
    {
        "city": "Itaí",
        "state": "SP",
        "district": "Jardim Santo Antônio",
        "street": "Rua José Ribeiro de Arruda",
        "zipcode": "18732-024"
    },
    {
        "city": "Itaí",
        "state": "SP",
        "district": "Jardim Vila Rica",
        "street": "Rua Jonas Ribeiro de Castro",
        "zipcode": "18730-088"
    },
    {
        "city": "Itaí",
        "state": "SP",
        "district": "Jardim Monte Alto",
        "street": "Rua Joaquim Mathias de Oliveira",
        "zipcode": "18734-050"
    },
    {
        "city": "Itaí",
        "state": "SP",
        "district": "Residencial Marajoara",
        "street": "Rua João Nunes Monteiro Filho",
        "zipcode": "18732-204"
    },
    {
        "city": "Itaí",
        "state": "SP",
        "district": "Quinta dos Cambarás",
        "street": "Rua Iolanda Brisola de Almeida",
        "zipcode": "18737-210"
    },
    {
        "city": "Itaí",
        "state": "SP",
        "district": "Jardim Brasil",
        "street": "Rua Joaquim Tavares dos Santos",
        "zipcode": "18734-302"
    },
    {
        "city": "Itaí",
        "state": "SP",
        "district": "Jardim Eldorado",
        "street": "Rua João Ribeiro de Castro",
        "zipcode": "18734-350"
    },
    {
        "city": "Itaí",
        "state": "SP",
        "district": "Jardim Brasil",
        "street": "Rua José Domingues de Melo",
        "zipcode": "18734-294"
    },
    {
        "city": "Itaí",
        "state": "SP",
        "district": "Centro",
        "street": "Rua José Silveira Melo",
        "zipcode": "18730-007"
    },
    {
        "city": "Itaí",
        "state": "SP",
        "district": "Vila São Salvador",
        "street": "Rua João Pedro Ferreira",
        "zipcode": "18734-020"
    },
    {
        "city": "Itaí",
        "state": "SP",
        "district": "Vila São Salvador",
        "street": "Rua Jorge de Oliveira",
        "zipcode": "18734-016"
    },
    {
        "city": "Itaí",
        "state": "SP",
        "district": "Jardim Santo Antônio",
        "street": "Rua José Primo de Macedo",
        "zipcode": "18732-004"
    },
    {
        "city": "Itaí",
        "state": "SP",
        "district": "Jardim Novo Horizonte",
        "street": "Rua João dos Santos",
        "zipcode": "18732-076"
    },
    {
        "city": "Itaí",
        "state": "SP",
        "district": "Vila Capitão Cezário",
        "street": "Rua Giro Goia",
        "zipcode": "18737-038"
    },
    {
        "city": "Itaí",
        "state": "SP",
        "district": "Residencial Colina Verde",
        "street": "Rua José Moreira Cabral",
        "zipcode": "18732-252"
    },
    {
        "city": "Itaí",
        "state": "SP",
        "district": "Jardim América",
        "street": "Rua João Maria dos Santos",
        "zipcode": "18730-072"
    },
    {
        "city": "Itaí",
        "state": "SP",
        "district": "Vila Florentino Dognani",
        "street": "Rua Higino Antunes do Prado",
        "zipcode": "18732-032"
    },
    {
        "city": "Itaí",
        "state": "SP",
        "district": "Quinta dos Cambarás",
        "street": "Rua João Paulo Rapozo Ferraz",
        "zipcode": "18737-200"
    },
    {
        "city": "Itaí",
        "state": "SP",
        "district": "Jardim Santo Antônio",
        "street": "Rua João Antonio de Oliveira",
        "zipcode": "18732-008"
    },
    {
        "city": "Itaí",
        "state": "SP",
        "district": "Vila Florentino Dognani",
        "street": "Rua José Antunes de Oliveira",
        "zipcode": "18732-044"
    },
    {
        "city": "Itaí",
        "state": "SP",
        "district": "Centro",
        "street": "Rua José Antunes de Oliveira",
        "zipcode": "18730-059"
    },
    {
        "city": "Itaí",
        "state": "SP",
        "district": "Conjunto Habitacional Itaí B",
        "street": "Rua Hichidi Futikami",
        "zipcode": "18734-338"
    },
    {
        "city": "Itaí",
        "state": "SP",
        "district": "Jardim Santo Antônio",
        "street": "Rua Irineu Miranda",
        "zipcode": "18732-010"
    },
    {
        "city": "Itaí",
        "state": "SP",
        "district": "Jardim Monte Alto",
        "street": "Rua Jorge Rodrigues Pereira",
        "zipcode": "18734-068"
    },
    {
        "city": "Itaí",
        "state": "SP",
        "district": "Vila Capitão Cezário",
        "street": "Rua Hichidi Futikami",
        "zipcode": "18737-030"
    },
    {
        "city": "Itaí",
        "state": "SP",
        "district": "Residencial Marajoara",
        "street": "Rua José da Rosa Goulart",
        "zipcode": "18732-220"
    },
    {
        "city": "Itaí",
        "state": "SP",
        "district": "Residencial Mário Gonçalves",
        "street": "Rua José Batista de Almeida",
        "zipcode": "18734-310"
    },
    {
        "city": "Itaí",
        "state": "SP",
        "district": "Jardim Brasil",
        "street": "Rua João Batista de Araújo",
        "zipcode": "18734-286"
    },
    {
        "city": "Itaí",
        "state": "SP",
        "district": "Jardim Brasil",
        "street": "Rua Irmãos Bergamo",
        "zipcode": "18734-282"
    },
    {
        "city": "Itaí",
        "state": "SP",
        "district": "Quinta dos Cambarás",
        "street": "Rua João Roberto de Oliveira",
        "zipcode": "18737-218"
    },
    {
        "city": "Itaí",
        "state": "SP",
        "district": "Jardim Monte Alto",
        "street": "Rua João Roque dos Santos",
        "zipcode": "18734-070"
    },
    {
        "city": "Itaí",
        "state": "SP",
        "district": "Jardim Planalto",
        "street": "Rua Hamad Musa Ali",
        "zipcode": "18730-142"
    },
    {
        "city": "Itaí",
        "state": "SP",
        "district": "Jardim Novo Horizonte",
        "street": "Rua João Miranda",
        "zipcode": "18732-084"
    },
    {
        "city": "Itaí",
        "state": "SP",
        "district": "Vila Capitão Cezário",
        "street": "Rua Josikato Sakamoto",
        "zipcode": "18737-050"
    },
    {
        "city": "Itaí",
        "state": "SP",
        "district": "Jardim Monte Alto",
        "street": "Rua Ivo Antunes Nogueira",
        "zipcode": "18734-046"
    },
    {
        "city": "Itaí",
        "state": "SP",
        "district": "Vila Capitão Cezário",
        "street": "Rua Itiro Oshima",
        "zipcode": "18737-022"
    },
    {
        "city": "Itaí",
        "state": "SP",
        "district": "Jardim Brasil",
        "street": "Rua João Batista Brisola",
        "zipcode": "18734-290"
    },
    {
        "city": "Itaí",
        "state": "SP",
        "district": "Vila Capitão Cezário",
        "street": "Rua José Mitsuro Yassu",
        "zipcode": "18737-054"
    },
    {
        "city": "Itaí",
        "state": "SP",
        "district": "Centro",
        "street": "Rua José Floriano",
        "zipcode": "18730-011"
    },
    {
        "city": "Itaí",
        "state": "SP",
        "district": "Vila Capitão Cezário",
        "street": "Rua João Pedro Ferreira",
        "zipcode": "18737-026"
    },
    {
        "city": "Itaí",
        "state": "SP",
        "district": "Jardim Bela Vista",
        "street": "Rua Gregório Justino de Freitas",
        "zipcode": "18730-108"
    },
    {
        "city": "Itaí",
        "state": "SP",
        "district": "Jardim Monte Alto",
        "street": "Rua Genoveva Angela Michelin",
        "zipcode": "18734-062"
    },
    {
        "city": "Itaí",
        "state": "SP",
        "district": "Vila Capitão Cezário",
        "street": "Rua João Damaceno Dias",
        "zipcode": "18737-072"
    },
    {
        "city": "Itaí",
        "state": "SP",
        "district": "Jardim Novo Horizonte",
        "street": "Rua João Alves da Cunha",
        "zipcode": "18732-064"
    },
    {
        "city": "Itaí",
        "state": "SP",
        "district": "Residencial Doutor Luiz Antonio Paschoal",
        "street": "Rua Gustavo Gabriel Gianneschi",
        "zipcode": "18737-140"
    },
    {
        "city": "Itaí",
        "state": "SP",
        "district": "Jardim Planalto",
        "street": "Rua José Moreira Leite",
        "zipcode": "18730-122"
    },
    {
        "city": "Itaí",
        "state": "SP",
        "district": "Jardim Bela Vista",
        "street": "Rua João Antunes de Oliveira",
        "zipcode": "18730-104"
    },
    {
        "city": "Itaí",
        "state": "SP",
        "district": "Vila Capitão Cezário",
        "street": "Rua João Joaquim de Oliveira",
        "zipcode": "18737-032"
    },
    {
        "city": "Itaí",
        "state": "SP",
        "district": "Jardim Planalto",
        "street": "Rua Pedro Corrêa de Souza",
        "zipcode": "18730-146"
    },
    {
        "city": "Itaí",
        "state": "SP",
        "district": "Vila Capitão Cezário",
        "street": "Rua Pedro Nunes",
        "zipcode": "18737-044"
    },
    {
        "city": "Itaí",
        "state": "SP",
        "district": "Vila Florentino Dognani",
        "street": "Rua Paulo Vieira Diniz",
        "zipcode": "18732-042"
    },
    {
        "city": "Itaí",
        "state": "SP",
        "district": "Jardim Brasil",
        "street": "Rua Pedro Villen",
        "zipcode": "18734-284"
    },
    {
        "city": "Itaí",
        "state": "SP",
        "district": "Jardim Novo Horizonte",
        "street": "Rua Leonidas Soares de Oliveira",
        "zipcode": "18732-060"
    },
    {
        "city": "Itaí",
        "state": "SP",
        "district": "Residencial Marajoara",
        "street": "Rua Juliana Anissara Gabriel",
        "zipcode": "18732-206"
    },
    {
        "city": "Itaí",
        "state": "SP",
        "district": "Centro",
        "street": "Rua Major Brasílio",
        "zipcode": "18730-045"
    },
    {
        "city": "Itaí",
        "state": "SP",
        "district": "Residencial Colina Verde",
        "street": "Rua Moacyr de Oliveira Melo",
        "zipcode": "18732-260"
    },
    {
        "city": "Itaí",
        "state": "SP",
        "district": "Vila Capitão Cezário",
        "street": "Rua Mario Gonçalves",
        "zipcode": "18737-062"
    },
    {
        "city": "Itaí",
        "state": "SP",
        "district": "Centro",
        "street": "Rua Major João Diogo",
        "zipcode": "18730-051"
    },
    {
        "city": "Itaí",
        "state": "SP",
        "district": "Residencial Marajoara",
        "street": "Rua Márcio Cerqueira Vieira",
        "zipcode": "18732-216"
    },
    {
        "city": "Itaí",
        "state": "SP",
        "district": "Quinta dos Cambarás",
        "street": "Rua Levina do Prado de Oliveira",
        "zipcode": "18737-212"
    },
    {
        "city": "Itaí",
        "state": "SP",
        "district": "Vila Capitão Cezário",
        "street": "Rua Pedro Ayres Cardoso",
        "zipcode": "18737-074"
    },
    {
        "city": "Itaí",
        "state": "SP",
        "district": "Conjunto Residencial Valdomiro Gabriel de Freitas",
        "street": "Rua Leopoldino Cardoso dos Santos",
        "zipcode": "18734-378"
    },
    {
        "city": "Itaí",
        "state": "SP",
        "district": "Vila Capitão Cezário",
        "street": "Rua Natanael Rolim Pinheiro",
        "zipcode": "18737-046"
    },
    {
        "city": "Itaí",
        "state": "SP",
        "district": "Vila Capitão Cezário",
        "street": "Rua Pedro Leite da Silva",
        "zipcode": "18737-010"
    },
    {
        "city": "Itaí",
        "state": "SP",
        "district": "Vila São Salvador",
        "street": "Rua Oscar Cerqueira Vieira",
        "zipcode": "18734-018"
    },
    {
        "city": "Itaí",
        "state": "SP",
        "district": "Jardim Eldorado",
        "street": "Rua Pedro Nunes",
        "zipcode": "18734-354"
    },
    {
        "city": "Itaí",
        "state": "SP",
        "district": "Vila Capitão Cezário",
        "street": "Rua Mário Zanella",
        "zipcode": "18737-068"
    },
    {
        "city": "Itaí",
        "state": "SP",
        "district": "Vila São Salvador",
        "street": "Rua Maximília Nunes Parischi",
        "zipcode": "18734-010"
    },
    {
        "city": "Itaí",
        "state": "SP",
        "district": "Vila Capitão Cezário",
        "street": "Rua Luiza Catharina Vaz",
        "zipcode": "18737-080"
    },
    {
        "city": "Itaí",
        "state": "SP",
        "district": "Quinta dos Cambarás",
        "street": "Rua Luiz Alberto Miranda de Souza",
        "zipcode": "18737-230"
    },
    {
        "city": "Itaí",
        "state": "SP",
        "district": "Jardim Vila Rica",
        "street": "Rua Liz de Almeida",
        "zipcode": "18730-094"
    },
    {
        "city": "Itaí",
        "state": "SP",
        "district": "Vila Capitão Cezário",
        "street": "Rua Oscar Pereira Ferraz",
        "zipcode": "18737-016"
    },
    {
        "city": "Itaí",
        "state": "SP",
        "district": "Centro",
        "street": "Rua Nove de Julho",
        "zipcode": "18730-015"
    },
    {
        "city": "Itaí",
        "state": "SP",
        "district": "Vila Capitão Cezário",
        "street": "Rua Massataro Yoshida",
        "zipcode": "18737-036"
    },
    {
        "city": "Itaí",
        "state": "SP",
        "district": "Centro",
        "street": "Rua Manoel Joaquim Garcia",
        "zipcode": "18730-055"
    },
    {
        "city": "Itaí",
        "state": "SP",
        "district": "Jardim Monte Alto",
        "street": "Rua Leonor Fogaça de Almeida",
        "zipcode": "18734-054"
    },
    {
        "city": "Itaí",
        "state": "SP",
        "district": "Centro",
        "street": "Rua Júlio Leite",
        "zipcode": "18730-047"
    },
    {
        "city": "Itaí",
        "state": "SP",
        "district": "Quinta dos Cambarás",
        "street": "Rua Nilson Bonsaglia",
        "zipcode": "18737-226"
    },
    {
        "city": "Itaí",
        "state": "SP",
        "district": "Jardim Planalto",
        "street": "Rua Laurindo Otávio Gonçalves",
        "zipcode": "18730-128"
    },
    {
        "city": "Itaí",
        "state": "SP",
        "district": "Vila São Salvador",
        "street": "Rua Osório Calixto",
        "zipcode": "18734-012"
    },
    {
        "city": "Itaí",
        "state": "SP",
        "district": "Vila Capitão Cezário",
        "street": "Rua Milton Gomes",
        "zipcode": "18737-064"
    },
    {
        "city": "Itaí",
        "state": "SP",
        "district": "Jardim Planalto",
        "street": "Rua Olímpio Nunes Vieira",
        "zipcode": "18730-172"
    },
    {
        "city": "Itaí",
        "state": "SP",
        "district": "Jardim Santo Antônio",
        "street": "Rua Professora Delfina Silveira Melo",
        "zipcode": "18732-002"
    },
    {
        "city": "Itaí",
        "state": "SP",
        "district": "Jardim Bela Vista",
        "street": "Rua Major Brasílio",
        "zipcode": "18730-102"
    },
    {
        "city": "Itaí",
        "state": "SP",
        "district": "Jardim Novo Horizonte",
        "street": "Rua Maria Margarida Tedesco",
        "zipcode": "18732-078"
    },
    {
        "city": "Itaí",
        "state": "SP",
        "district": "Conjunto Residencial Valdomiro Gabriel de Freitas",
        "street": "Rua Ottilia Garcia de Camargo",
        "zipcode": "18734-366"
    },
    {
        "city": "Itaí",
        "state": "SP",
        "district": "Residencial Doutor Luiz Antonio Paschoal",
        "street": "Rua Philippe Luccas Araújo Teixeira",
        "zipcode": "18737-162"
    },
    {
        "city": "Itaí",
        "state": "SP",
        "district": "Quinta dos Cambarás",
        "street": "Rua Maria Francisca Bugiani",
        "zipcode": "18737-204"
    },
    {
        "city": "Itaí",
        "state": "SP",
        "district": "Vila Capitão Cezário",
        "street": "Rua Kunito Morimoto",
        "zipcode": "18737-040"
    },
    {
        "city": "Itaí",
        "state": "SP",
        "district": "Jardim Santo Antônio",
        "street": "Rua Pedro Alexandre Fogaça",
        "zipcode": "18732-006"
    },
    {
        "city": "Itaí",
        "state": "SP",
        "district": "Residencial Colina Verde",
        "street": "Rua Nair Souza do Amaral",
        "zipcode": "18732-264"
    },
    {
        "city": "Itaí",
        "state": "SP",
        "district": "Quinta dos Cambarás",
        "street": "Rua Nira Rolim Pires Melo",
        "zipcode": "18737-194"
    },
    {
        "city": "Itaí",
        "state": "SP",
        "district": "Parque Marajoara",
        "street": "Rua Orlando Neres de Meira",
        "zipcode": "18732-238"
    },
    {
        "city": "Itaí",
        "state": "SP",
        "district": "Residencial Doutor Luiz Antonio Paschoal",
        "street": "Rua Maria Ferreira de Arruda",
        "zipcode": "18737-142"
    },
    {
        "city": "Itaí",
        "state": "SP",
        "district": "Residencial Colina Verde",
        "street": "Rua Maria Aparecida Corrêa",
        "zipcode": "18732-266"
    },
    {
        "city": "Itaí",
        "state": "SP",
        "district": "Centro",
        "street": "Rua Professor José de Oliveira",
        "zipcode": "18730-005"
    },
    {
        "city": "Itaí",
        "state": "SP",
        "district": "Quinta dos Cambarás",
        "street": "Rua Pedra Cristina da Silva",
        "zipcode": "18737-206"
    },
    {
        "city": "Itaí",
        "state": "SP",
        "district": "Vila Capitão Cezário",
        "street": "Rua Osvaldo dos Santos",
        "zipcode": "18737-008"
    },
    {
        "city": "Itaí",
        "state": "SP",
        "district": "Residencial Mário Gonçalves",
        "street": "Rua Mário Bonifácio",
        "zipcode": "18734-320"
    },
    {
        "city": "Itaí",
        "state": "SP",
        "district": "Jardim Planalto",
        "street": "Rua Miguel Fabrício",
        "zipcode": "18730-174"
    },
    {
        "city": "Itaí",
        "state": "SP",
        "district": "Quinta dos Cambarás",
        "street": "Rua Maria Helena dos Santos",
        "zipcode": "18737-220"
    },
    {
        "city": "Itaí",
        "state": "SP",
        "district": "Jardim Planalto",
        "street": "Rua Virgílo Justino Vieira",
        "zipcode": "18730-166"
    },
    {
        "city": "Itaí",
        "state": "SP",
        "district": "Centro",
        "street": "Rua Tenente Cabral",
        "zipcode": "18730-033"
    },
    {
        "city": "Itaí",
        "state": "SP",
        "district": "Jardim Vila Rica",
        "street": "Rua Ramiro Justino Vieira",
        "zipcode": "18730-082"
    },
    {
        "city": "Itaí",
        "state": "SP",
        "district": "Vila Capitão Cezário",
        "street": "Rua Takeshi Honna",
        "zipcode": "18737-034"
    },
    {
        "city": "Itaí",
        "state": "SP",
        "district": "Parque Marajoara",
        "street": "Rua Silvio Justino Vieira",
        "zipcode": "18732-244"
    },
    {
        "city": "Itaí",
        "state": "SP",
        "district": "Residencial Marajoara",
        "street": "Rua Sargento Morgato",
        "zipcode": "18732-202"
    },
    {
        "city": "Itaí",
        "state": "SP",
        "district": "Jardim Santo Antônio",
        "street": "Rua Quinze de Novembro",
        "zipcode": "18732-012"
    },
    {
        "city": "Itaí",
        "state": "SP",
        "district": "Centro",
        "street": "Rua Sete de Setembro",
        "zipcode": "18730-037"
    },
    {
        "city": "Itaí",
        "state": "SP",
        "district": "Conjunto Residencial Valdomiro Gabriel de Freitas",
        "street": "Rua Vera Alves Pinheiro",
        "zipcode": "18734-368"
    },
    {
        "city": "Itaí",
        "state": "SP",
        "district": "Vila Florentino Dognani",
        "street": "Rua Rute Camilo de Melo Ferraz",
        "zipcode": "18732-036"
    },
    {
        "city": "Itaí",
        "state": "SP",
        "district": "Residencial Colina Verde",
        "street": "Rua Valdomiro Bernardino",
        "zipcode": "18732-258"
    },
    {
        "city": "Itaí",
        "state": "SP",
        "district": "Vila Capitão Cezário",
        "street": "Rua Silvio Custódio",
        "zipcode": "18737-070"
    },
    {
        "city": "Itaí",
        "state": "SP",
        "district": "Vila Florentino Dognani",
        "street": "Rua Raphael Rolim de Moura",
        "zipcode": "18732-056"
    },
    {
        "city": "Itaí",
        "state": "SP",
        "district": "Residencial Doutor Luiz Antonio Paschoal",
        "street": "Rua Roger Cristian Botelho de Melo",
        "zipcode": "18737-152"
    },
    {
        "city": "Itaí",
        "state": "SP",
        "district": "Residencial Colina Verde",
        "street": "Rua Sandra Aparecida Araújo",
        "zipcode": "18732-262"
    },
    {
        "city": "Itaí",
        "state": "SP",
        "district": "Conjunto Habitacional Itaí B",
        "street": "Rua Roberto Carlos de Almeida",
        "zipcode": "18734-340"
    },
    {
        "city": "Itaí",
        "state": "SP",
        "district": "Jardim Novo Horizonte",
        "street": "Rua Salvador Rodrigues Daniel",
        "zipcode": "18732-070"
    },
    {
        "city": "Itaí",
        "state": "SP",
        "district": "Quinta dos Cambarás",
        "street": "Rua Roque Leite",
        "zipcode": "18737-196"
    },
    {
        "city": "Itaí",
        "state": "SP",
        "district": "Centro",
        "street": "Rua Salustiano Soares de Oliveira",
        "zipcode": "18730-009"
    },
    {
        "city": "Itaí",
        "state": "SP",
        "district": "Jardim Planalto",
        "street": "Travessa Joaquim Carlos de Queiroz",
        "zipcode": "18730-140"
    },
    {
        "city": "Itaí",
        "state": "SP",
        "district": "Jardim Vila Rica",
        "street": "Rua Simpliciano Leite de Moraes",
        "zipcode": "18730-084"
    },
    {
        "city": "Itaí",
        "state": "SP",
        "district": "Jardim Vila Rica",
        "street": "Rua Roque Pinto Leite",
        "zipcode": "18730-090"
    },
    {
        "city": "Itaí",
        "state": "SP",
        "district": "Jardim Brasil",
        "street": "Rua Teófilo Brisola Duarte",
        "zipcode": "18734-292"
    },
    {
        "city": "Itaí",
        "state": "SP",
        "district": "Jardim Brasil",
        "street": "Rua Rita Maria de Jesus",
        "zipcode": "18734-304"
    },
    {
        "city": "Itaí",
        "state": "SP",
        "district": "Jardim Planalto",
        "street": "Travessa Manoel Batista Cardoso",
        "zipcode": "18730-138"
    },
    {
        "city": "Itaí",
        "state": "SP",
        "district": "Vila São Salvador",
        "street": "Rua Salvador Ferreira de Albuquerque",
        "zipcode": "18734-008"
    },
    {
        "city": "Itaí",
        "state": "SP",
        "district": "Vila Capitão Cezário",
        "street": "Rua Sebastião Pimenta",
        "zipcode": "18737-048"
    },
    {
        "city": "Itaí",
        "state": "SP",
        "district": "Quinta dos Cambarás",
        "street": "Rua Vergilio Domingues",
        "zipcode": "18737-208"
    },
    {
        "city": "Itaí",
        "state": "SP",
        "district": "Parque Marajoara",
        "street": "Rua Vicente Diogo Vaz",
        "zipcode": "18732-240"
    },
    {
        "city": "Itaí",
        "state": "SP",
        "district": "Residencial Colina Verde",
        "street": "Rua Wilson Moreira Ferraz",
        "zipcode": "18732-256"
    },
    {
        "city": "Itaí",
        "state": "SP",
        "district": "Vila Capitão Cezário",
        "street": "Rua Shinyti Ischikawa",
        "zipcode": "18737-060"
    },
    {
        "city": "Itaí",
        "state": "SP",
        "district": "Vila Florentino Dognani",
        "street": "Rua Tapy de Almeida",
        "zipcode": "18732-054"
    },
    {
        "city": "Itaí",
        "state": "SP",
        "district": "Vila Capitão Cezário",
        "street": "Rua Yassuchi Sakamoto",
        "zipcode": "18737-042"
    },
    {
        "city": "Itaí",
        "state": "SP",
        "district": "Vila Campo Santo",
        "street": "Rua Sebastião Leite de Oliveira",
        "zipcode": "18734-034"
    },
    {
        "city": "Itaí",
        "state": "SP",
        "district": "Centro",
        "street": "Rua 21 de Abril",
        "zipcode": "18730-013"
    },
    {
        "city": "Itaí",
        "state": "SP",
        "district": "Jardim Planalto",
        "street": "Travessa Avelino Paulo da Costa",
        "zipcode": "18730-130"
    },
    {
        "city": "Itaí",
        "state": "SP",
        "district": "Jardim Planalto",
        "street": "Travessa João Pedro de Oliveira",
        "zipcode": "18730-134"
    },
    {
        "city": "Itaí",
        "state": "SP",
        "district": "Vila Capitão Cezário",
        "street": "Rua Antonio Leite Neto",
        "zipcode": "18737-066"
    },
    {
        "city": "Itaí",
        "state": "SP",
        "district": "Jardim Planalto",
        "street": "Rua Braulino Ferreira de Almeida",
        "zipcode": "18730-126"
    },
    {
        "city": "Itaí",
        "state": "SP",
        "district": "Jardim Santo Antônio",
        "street": "Avenida Santo Antônio",
        "zipcode": "18732-000"
    },
    {
        "city": "Itaí",
        "state": "SP",
        "district": "Vila Capitão Cezário",
        "street": "Rua Haruo Yoshida",
        "zipcode": "18737-028"
    },
    {
        "city": "Itaí",
        "state": "SP",
        "district": "Vila São Salvador",
        "street": "Rua Benedito Pedroso Macedo",
        "zipcode": "18734-014"
    },
    {
        "city": "Itaí",
        "state": "SP",
        "district": "Parque Marajoara",
        "street": "Rua Amador Ferreira Gomes",
        "zipcode": "18732-232"
    },
    {
        "city": "Itaí",
        "state": "SP",
        "district": "Conjunto Habitacional Recanto dos Pássaros",
        "street": "Rua do Beija",
        "zipcode": "18737-172"
    },
    {
        "city": "Itaí",
        "state": "SP",
        "district": "Parque Marajoara",
        "street": "Rua José Leite de Queiroz",
        "zipcode": "18732-242"
    },
    {
        "city": "Itaí",
        "state": "SP",
        "district": "Jardim Brasil",
        "street": "Rua Jorge Pádua Meira",
        "zipcode": "18734-298"
    },
    {
        "city": "Itaí",
        "state": "SP",
        "district": "Jardim Santo Antônio",
        "street": "Rua João de Moraes",
        "zipcode": "18732-018"
    },
    {
        "city": "Itaí",
        "state": "SP",
        "district": "Centro",
        "street": "Rua João Ribeiro da Silva",
        "zipcode": "18730-043"
    },
    {
        "city": "Itaí",
        "state": "SP",
        "district": "Jardim Planalto",
        "street": "Rua Aparecida dos Santos",
        "zipcode": "18730-156"
    },
    {
        "city": "Itaí",
        "state": "SP",
        "district": "Residencial Doutor Luiz Antonio Paschoal",
        "street": "Rua Gabriela Figueiredo Silva Squillaci",
        "zipcode": "18737-156"
    },
    {
        "city": "Itaí",
        "state": "SP",
        "district": "Vila Florentino Dognani",
        "street": "Rua Leonidas Soares de Oliveira",
        "zipcode": "18732-058"
    },
    {
        "city": "Itaí",
        "state": "SP",
        "district": "Conjunto Residencial Valdomiro Gabriel de Freitas",
        "street": "Rua Julia Vieira Bonifácio",
        "zipcode": "18734-370"
    },
    {
        "city": "Itaí",
        "state": "SP",
        "district": "Vila Capitão Cezário",
        "street": "Rua Kancichi Nishigushi",
        "zipcode": "18737-052"
    },
    {
        "city": "Itaí",
        "state": "SP",
        "district": "Jardim Planalto",
        "street": "Rua Israel Florêncio",
        "zipcode": "18730-170"
    },
    {
        "city": "Itaí",
        "state": "SP",
        "district": "Vila Capitão Cezário",
        "street": "Rua Joaquim Aparecido Gonçalves",
        "zipcode": "18737-056"
    },
    {
        "city": "Itaí",
        "state": "SP",
        "district": "Residencial Marajoara",
        "street": "Rua César Fernando Roque",
        "zipcode": "18732-218"
    },
    {
        "city": "Itaí",
        "state": "SP",
        "district": "Jardim Planalto",
        "street": "Rua Marcílio Vaz de Almeida",
        "zipcode": "18730-148"
    },
    {
        "city": "Itaí",
        "state": "SP",
        "district": "Conjunto Habitacional Itaí B",
        "street": "Rua Luíz Lísboa",
        "zipcode": "18734-332"
    },
    {
        "city": "Itaí",
        "state": "SP",
        "district": "Jardim Brasil",
        "street": "Rua José Batista de Almeida",
        "zipcode": "18734-306"
    },
    {
        "city": "Itaí",
        "state": "SP",
        "district": "Residencial Marajoara",
        "street": "Rua Durvalino Corrêa dos Santos",
        "zipcode": "18732-224"
    },
    {
        "city": "Itaí",
        "state": "SP",
        "district": "Vila Capitão Cezário",
        "street": "Rua Arlindo Dias",
        "zipcode": "18737-082"
    },
    {
        "city": "Itaí",
        "state": "SP",
        "district": "Centro",
        "street": "Rua Doze de Outubro",
        "zipcode": "18730-023"
    },
    {
        "city": "Itaí",
        "state": "SP",
        "district": "Residencial Mário Gonçalves",
        "street": "Rua José Ramos",
        "zipcode": "18734-318"
    },
    {
        "city": "Itaí",
        "state": "SP",
        "district": "Jardim Santo Antônio",
        "street": "Avenida Amantino Rolim de Moura",
        "zipcode": "18732-014"
    },
    {
        "city": "Itaí",
        "state": "SP",
        "district": "Jardim Planalto",
        "street": "Rua Avelino Carlos de Queiroz",
        "zipcode": "18730-132"
    },
    {
        "city": "Itaí",
        "state": "SP",
        "district": "Vila Capitão Cezário",
        "street": "Rua Francisco Guimarães",
        "zipcode": "18737-084"
    },
    {
        "city": "Itaí",
        "state": "SP",
        "district": "Residencial Doutor Luiz Antonio Paschoal",
        "street": "Rua Misla Silva Garbelotti",
        "zipcode": "18737-158"
    },
    {
        "city": "Itaí",
        "state": "SP",
        "district": "Residencial Marajoara",
        "street": "Rua Antonio Leme Brisola",
        "zipcode": "18732-200"
    },
    {
        "city": "Itaí",
        "state": "SP",
        "district": "Residencial Mário Gonçalves",
        "street": "Rua João Nunes de Oliveira",
        "zipcode": "18734-312"
    },
    {
        "city": "Itaí",
        "state": "SP",
        "district": "Vila São Salvador",
        "street": "Rodovia Eduardo Saigh",
        "zipcode": "18734-000"
    },
    {
        "city": "Itaí",
        "state": "SP",
        "district": "Jardim Monte Alto",
        "street": "Rua Anivaldo Rolin Pereria",
        "zipcode": "18734-040"
    },
    {
        "city": "Itaí",
        "state": "SP",
        "district": "Vila Florentino Dognani",
        "street": "Praça Colonização Holandesa",
        "zipcode": "18732-040"
    },
    {
        "city": "Itaí",
        "state": "SP",
        "district": "Jardim Vila Rica",
        "street": "Avenida Antonio Justino Vieira",
        "zipcode": "18730-080"
    },
    {
        "city": "Itaí",
        "state": "SP",
        "district": "Jardim Planalto",
        "street": "Rua Antonio Caussero",
        "zipcode": "18730-168"
    },
    {
        "city": "Itaí",
        "state": "SP",
        "district": "Residencial Marajoara",
        "street": "Rua Paulo Eduardo de Almeida Santos",
        "zipcode": "18732-222"
    },
    {
        "city": "Itaí",
        "state": "SP",
        "district": "Centro",
        "street": "Rua Etelvina Dias de Almeida",
        "zipcode": "18730-049"
    },
    {
        "city": "Itaí",
        "state": "SP",
        "district": "Vila Capitão Cezário",
        "street": "Rua Geraldo Venâncio Cardoso",
        "zipcode": "18737-076"
    },
    {
        "city": "Itaí",
        "state": "SP",
        "district": "Quinta dos Cambarás",
        "street": "Avenida Carla Cristiane Gonçalves",
        "zipcode": "18737-198"
    },
    {
        "city": "Itaí",
        "state": "SP",
        "district": "Conjunto Habitacional Itaí B",
        "street": "Rua Olegário Antonio de Morais",
        "zipcode": "18734-342"
    },
    {
        "city": "Itaí",
        "state": "SP",
        "district": "Vila Florentino Dognani",
        "street": "Rua Honorato Valério da Silveira",
        "zipcode": "18732-038"
    },
    {
        "city": "Itaí",
        "state": "SP",
        "district": "Residencial Mário Gonçalves",
        "street": "Rua Pedro Vicente dos Santos",
        "zipcode": "18734-322"
    },
    {
        "city": "Itaí",
        "state": "SP",
        "district": "Conjunto Residencial Valdomiro Gabriel de Freitas",
        "street": "Rua Antonio Pires Cardoso",
        "zipcode": "18734-360"
    },
    {
        "city": "Itaí",
        "state": "SP",
        "district": "Conjunto Residencial Valdomiro Gabriel de Freitas",
        "street": "Rua Jether Araújo",
        "zipcode": "18734-364"
    },
    {
        "city": "Itaí",
        "state": "SP",
        "district": "Conjunto Residencial Valdomiro Gabriel de Freitas",
        "street": "Rua Maria Benedita Pereira Macedo",
        "zipcode": "18734-362"
    },
    {
        "city": "Itaí",
        "state": "SP",
        "district": "Vila Capitão Cezário",
        "street": "Rua Alberto Trombini",
        "zipcode": "18737-018"
    },
    {
        "city": "Itaí",
        "state": "SP",
        "district": "Jardim Planalto",
        "street": "Rua Prudenciano Francisco de Queiroz",
        "zipcode": "18730-160"
    },
    {
        "city": "Itaí",
        "state": "SP",
        "district": "Vila São Salvador",
        "street": "Rua Rodrigo Domingues Valim",
        "zipcode": "18734-024"
    },
    {
        "city": "Itaí",
        "state": "SP",
        "district": "Jardim Novo Horizonte",
        "street": "Rua Sargento Morgato",
        "zipcode": "18732-092"
    },
    {
        "city": "Itaí",
        "state": "SP",
        "district": "Centro",
        "street": "Via Capitão Cezário",
        "zipcode": "18730-025"
    },
    {
        "city": "Itaí",
        "state": "SP",
        "district": "Jardim América",
        "street": "Rua Simpliciano Leite de Moraes",
        "zipcode": "18730-070"
    },
    {
        "city": "Itaí",
        "state": "SP",
        "district": "Vila São Salvador",
        "street": "Rua Oscar Pereira Ferraz",
        "zipcode": "18734-004"
    },
    {
        "city": "Itaí",
        "state": "SP",
        "district": "Centro",
        "street": "Rua Salvador de Freitas",
        "zipcode": "18730-027"
    },
    {
        "city": "Itaí",
        "state": "SP",
        "district": "Residencial Doutor Luiz Antonio Paschoal",
        "street": "Rua Marlos Henrique dos Santos",
        "zipcode": "18737-150"
    },
    {
        "city": "Itaí",
        "state": "SP",
        "district": "Jardim Vila Rica",
        "street": "Rua Raphael Rolim de Moura",
        "zipcode": "18730-086"
    },
    {
        "city": "Itaí",
        "state": "SP",
        "district": "Jardim Eldorado",
        "street": "Rua Pedro Gonçalves da Silva",
        "zipcode": "18734-352"
    },
    {
        "city": "Itaí",
        "state": "SP",
        "district": "Centro",
        "street": "Rua Quinze de Novembro",
        "zipcode": "18730-017"
    },
    {
        "city": "Itaí",
        "state": "SP",
        "district": "Centro",
        "street": "Rua Voluntários de 32",
        "zipcode": "18730-039"
    },
    {
        "city": "Itaí",
        "state": "SP",
        "district": "Centro",
        "street": "Ruela Sebastião Galhiano de Lima",
        "zipcode": "18730-035"
    },
    {
        "city": "Itaí",
        "state": "SP",
        "district": "Vila Capitão Cezário",
        "street": "Rua Sebastião Martins Crespo",
        "zipcode": "18737-004"
    },
    {
        "city": "Itaí",
        "state": "SP",
        "district": "Conjunto Residencial Valdomiro Gabriel de Freitas",
        "street": "Rua Valderi Palmeira",
        "zipcode": "18734-374"
    },
    {
        "city": "Itaí",
        "state": "SP",
        "district": "Conjunto Residencial Valdomiro Gabriel de Freitas",
        "street": "Rua Benedito Tavares da Silva",
        "zipcode": "18734-376"
    },
    {
        "city": "Itaí",
        "state": "SP",
        "district": "Jardim Novo Horizonte",
        "street": "Avenida Primo Cristiano de Melo",
        "zipcode": "18732-066"
    },
    {
        "city": "Itaí",
        "state": "SP",
        "district": "Jardim Brasil",
        "street": "Rua Rodrigo Domingues Valim",
        "zipcode": "18734-288"
    },
    {
        "city": "Itaí",
        "state": "SP",
        "district": "Conjunto Habitacional Itaí B",
        "street": "Rua Amador Alvarenga",
        "zipcode": "18734-330"
    },
    {
        "city": "Itaí",
        "state": "SP",
        "district": "Jardim Planalto",
        "street": "Rua José Rodrigues de Souza",
        "zipcode": "18730-158"
    },
    {
        "city": "Itaí",
        "state": "SP",
        "district": "Parque Marajoara",
        "street": "Rua Paulo Eduardo de Almeida Santos",
        "zipcode": "18732-230"
    },
    {
        "city": "Itaí",
        "state": "SP",
        "district": "Residencial Doutor Luiz Antonio Paschoal",
        "street": "Rua Flavia Cristina dos Santos",
        "zipcode": "18737-154"
    },
    {
        "city": "Itaí",
        "state": "SP",
        "district": "Residencial Colina Verde",
        "street": "Rua Sebastião de Oliveira",
        "zipcode": "18732-254"
    },
    {
        "city": "Itaí",
        "state": "SP",
        "district": "Residencial Mário Gonçalves",
        "street": "Rua Maria Luiza Ferreira",
        "zipcode": "18734-314"
    },
    {
        "city": "Itaí",
        "state": "SP",
        "district": "Residencial Mário Gonçalves",
        "street": "Rua Antonio Raposo Ferraz",
        "zipcode": "18734-316"
    },
    {
        "city": "Itaí",
        "state": "SP",
        "district": "Jardim Novo Horizonte",
        "street": "Rua Sebastiana Vieira de Jesus",
        "zipcode": "18732-082"
    },
    {
        "city": "Itaí",
        "state": "SP",
        "district": "Jardim Planalto",
        "street": "Rua Irmã Morena",
        "zipcode": "18730-124"
    },
    {
        "city": "Itaí",
        "state": "SP",
        "district": "Centro",
        "street": "Avenida Santo Antônio",
        "zipcode": "18730-003"
    },
    {
        "city": "Itaí",
        "state": "SP",
        "district": "Vila Florentino Dognani",
        "street": "Avenida Aurélio Bouças Loureiro",
        "zipcode": "18732-034"
    },
    {
        "city": "Itaí",
        "state": "SP",
        "district": "Jardim Monte Alto",
        "street": "Rua Gumercinda Maria Pereira",
        "zipcode": "18734-042"
    }
]