[
    {
        "city": "Itapeva",
        "state": "SP",
        "district": "Jardim Europa",
        "street": "Rua Holanda",
        "zipcode": "18406-480"
    },
    {
        "city": "Itapeva",
        "state": "SP",
        "district": "Centro",
        "street": "Praça do Correio",
        "zipcode": "18400-360"
    },
    {
        "city": "Itapeva",
        "state": "SP",
        "district": "Vila Nossa Senhora de Fátima",
        "street": "Rua Mirassol",
        "zipcode": "18409-130"
    },
    {
        "city": "Itapeva",
        "state": "SP",
        "district": "Vila Isabel",
        "street": "Rua Sorocaba",
        "zipcode": "18411-410"
    },
    {
        "city": "Itapeva",
        "state": "SP",
        "district": "Vila Taquari",
        "street": "Rua Marília",
        "zipcode": "18408-450"
    },
    {
        "city": "Itapeva",
        "state": "SP",
        "district": "Bairro de Cima",
        "street": "Rua Salvador Domingues de Oliveira",
        "zipcode": "18404-509"
    },
    {
        "city": "Itapeva",
        "state": "SP",
        "district": "Residencial Ouroville",
        "street": "Rua 12",
        "zipcode": "18406-246"
    },
    {
        "city": "Itapeva",
        "state": "SP",
        "district": "Centro",
        "street": "Praça Presbiteriana",
        "zipcode": "18400-235"
    },
    {
        "city": "Itapeva",
        "state": "SP",
        "district": "Jardim Esperança",
        "street": "Rua Alvorada",
        "zipcode": "18402-163"
    },
    {
        "city": "Itapeva",
        "state": "SP",
        "district": "Jardim Brasil",
        "street": "Rua Genésio de Araújo",
        "zipcode": "18405-209"
    },
    {
        "city": "Itapeva",
        "state": "SP",
        "district": "Centro",
        "street": "Rua Ruy Barbosa",
        "zipcode": "18400-971"
    },
    {
        "city": "Itapeva",
        "state": "SP",
        "district": "Centro",
        "street": "Praça da Bandeira",
        "zipcode": "18400-002"
    },
    {
        "city": "Itapeva",
        "state": "SP",
        "district": "Vila Nova",
        "street": "Rua Bauru",
        "zipcode": "18410-020"
    },
    {
        "city": "Itapeva",
        "state": "SP",
        "district": "Centro",
        "street": "Rua Cantidio Pereira Santos",
        "zipcode": "18400-210"
    },
    {
        "city": "Itapeva",
        "state": "SP",
        "district": "Jardim Nova Itapeva",
        "street": "Rua Clarice Lopes Machado",
        "zipcode": "18401-670"
    },
    {
        "city": "Itapeva",
        "state": "SP",
        "district": "Centro",
        "street": "Rua Coronel Levino Ribeiro",
        "zipcode": "18400-410"
    },
    {
        "city": "Itapeva",
        "state": "SP",
        "district": "Centro",
        "street": "Praça Dom Sílvio Maria Dario",
        "zipcode": "18400-004"
    },
    {
        "city": "Itapeva",
        "state": "SP",
        "district": "Vila São Benedito",
        "street": "Rua Goiás",
        "zipcode": "18403-135"
    },
    {
        "city": "Itapeva",
        "state": "SP",
        "district": "Vila Nova",
        "street": "Rua Iperó",
        "zipcode": "18410-120"
    },
    {
        "city": "Itapeva",
        "state": "SP",
        "district": "Vila Nova",
        "street": "Rua Itatinga",
        "zipcode": "18410-050"
    },
    {
        "city": "Itapeva",
        "state": "SP",
        "district": "Centro",
        "street": "Rua Jaú",
        "zipcode": "18400-420"
    },
    {
        "city": "Itapeva",
        "state": "SP",
        "district": "Centro",
        "street": "Rua João Cavani",
        "zipcode": "18400-350"
    },
    {
        "city": "Itapeva",
        "state": "SP",
        "district": "Jardim Maringá IV",
        "street": "Rua João Padilha",
        "zipcode": "18407-180"
    },
    {
        "city": "Itapeva",
        "state": "SP",
        "district": "Parque Planalto",
        "street": "Rua Oito",
        "zipcode": "18402-370"
    },
    {
        "city": "Itapeva",
        "state": "SP",
        "district": "Centro",
        "street": "Rua Professor Rivadavia Marques Júnior",
        "zipcode": "18400-370"
    },
    {
        "city": "Itapeva",
        "state": "SP",
        "district": "Recanto Pilão DAgua",
        "street": "Rua Projetada Dois",
        "zipcode": "18402-180"
    },
    {
        "city": "Itapeva",
        "state": "SP",
        "district": "Centro",
        "street": "Rua Ruy Barbosa",
        "zipcode": "18400-385"
    },
    {
        "city": "Itapeva",
        "state": "SP",
        "district": "Centro",
        "street": "Rua Santana",
        "zipcode": "18400-010"
    },
    {
        "city": "Itapeva",
        "state": "SP",
        "district": "Centro",
        "street": "Rua Sinhó de Camargo",
        "zipcode": "18400-550"
    },
    {
        "city": "Itapeva",
        "state": "SP",
        "district": "Parque Planalto",
        "street": "Rua Um",
        "zipcode": "18402-300"
    },
    {
        "city": "Itapeva",
        "state": "SP",
        "district": "Centro",
        "street": "Rua Vitória",
        "zipcode": "18400-470"
    },
    {
        "city": "Itapeva",
        "state": "SP",
        "district": "Conjunto Habitacional Jardim Vitória",
        "street": "Rua José Rosa Matos",
        "zipcode": "18403-218"
    },
    {
        "city": "Itapeva",
        "state": "SP",
        "district": "Jardim Guanabara",
        "street": "Rua Valdivino Marcondes",
        "zipcode": "18411-290"
    },
    {
        "city": "Itapeva",
        "state": "SP",
        "district": "Centro",
        "street": "Rua 9 de Julho",
        "zipcode": "18400-070"
    },
    {
        "city": "Itapeva",
        "state": "SP",
        "district": "Vila Nova",
        "street": "Rua Sarapui",
        "zipcode": "18410-090"
    },
    {
        "city": "Itapeva",
        "state": "SP",
        "district": "Vila Santana",
        "street": "Travessa Nelson Araújo",
        "zipcode": "18405-191"
    },
    {
        "city": "Itapeva",
        "state": "SP",
        "district": "Centro",
        "street": "Rua Bakos Hanna Lahoud",
        "zipcode": "18400-395"
    },
    {
        "city": "Itapeva",
        "state": "SP",
        "district": "Conjunto Habitacional Jardim Vitória",
        "street": "Rua Pedro Bernardo Paiva",
        "zipcode": "18403-227"
    },
    {
        "city": "Itapeva",
        "state": "SP",
        "district": "Jardim Brasil",
        "street": "Rua Luiz Vanzeli",
        "zipcode": "18405-224"
    },
    {
        "city": "Itapeva",
        "state": "SP",
        "district": "Jardim Maringá IV",
        "street": "Avenida José Bilesk",
        "zipcode": "18407-183"
    },
    {
        "city": "Itapeva",
        "state": "SP",
        "district": "Jardim Santa Rosa",
        "street": "Rua Emilio Augusto Ferreira",
        "zipcode": "18405-190"
    },
    {
        "city": "Itapeva",
        "state": "SP",
        "district": "Vila Guarani",
        "street": "Rua Julia dos Santos Rodrigues",
        "zipcode": "18407-223"
    },
    {
        "city": "Itapeva",
        "state": "SP",
        "district": "Vila Boava",
        "street": "Rua João Lobo de Carvalho",
        "zipcode": "18408-003"
    },
    {
        "city": "Itapeva",
        "state": "SP",
        "district": "Jardim Nova Itapeva",
        "street": "Rua Antônio Edmundo de Oliveira Campos",
        "zipcode": "18401-640"
    },
    {
        "city": "Itapeva",
        "state": "SP",
        "district": "Jardim Pôr do Sol",
        "street": "Rua Aparício Mathias Carneiro",
        "zipcode": "18403-050"
    },
    {
        "city": "Itapeva",
        "state": "SP",
        "district": "Jardim Grajaú",
        "street": "Rua Benedito Camargo Margarido",
        "zipcode": "18404-320"
    },
    {
        "city": "Itapeva",
        "state": "SP",
        "district": "Vila Santa Maria",
        "street": "Rua Benedito da Luz Teodoro",
        "zipcode": "18402-103"
    },
    {
        "city": "Itapeva",
        "state": "SP",
        "district": "Vila Santana",
        "street": "Rua Cantidio Neves",
        "zipcode": "18400-802"
    },
    {
        "city": "Itapeva",
        "state": "SP",
        "district": "Centro",
        "street": "Rua Carlos de Campos",
        "zipcode": "18400-380"
    },
    {
        "city": "Itapeva",
        "state": "SP",
        "district": "Vila Ribas",
        "street": "Rua Cícero Marques Júnior",
        "zipcode": "18403-040"
    },
    {
        "city": "Itapeva",
        "state": "SP",
        "district": "Vila Aparecida",
        "street": "Rua Conchas",
        "zipcode": "18401-220"
    },
    {
        "city": "Itapeva",
        "state": "SP",
        "district": "Centro",
        "street": "Rua Coronel Queiroz",
        "zipcode": "18400-465"
    },
    {
        "city": "Itapeva",
        "state": "SP",
        "district": "Parque Planalto",
        "street": "Rua Dez",
        "zipcode": "18402-390"
    },
    {
        "city": "Itapeva",
        "state": "SP",
        "district": "Vila Santa Maria",
        "street": "Rua Dirce Camargo de Almeida",
        "zipcode": "18402-110"
    },
    {
        "city": "Itapeva",
        "state": "SP",
        "district": "Jardim Maringá IV",
        "street": "Rua Dois",
        "zipcode": "18407-190"
    },
    {
        "city": "Itapeva",
        "state": "SP",
        "district": "Centro",
        "street": "Rua Dom Luiz de Souza",
        "zipcode": "18400-480"
    },
    {
        "city": "Itapeva",
        "state": "SP",
        "district": "Bairro de Cima",
        "street": "Rua Júlio Vieira de Araujo",
        "zipcode": "18404-519"
    },
    {
        "city": "Itapeva",
        "state": "SP",
        "district": "Conjunto Habitacional Jardim Vitória",
        "street": "Rua Hugo Dobrstain",
        "zipcode": "18403-205"
    },
    {
        "city": "Itapeva",
        "state": "SP",
        "district": "Jardim Europa",
        "street": "Praça Pedro Merege",
        "zipcode": "18406-465"
    },
    {
        "city": "Itapeva",
        "state": "SP",
        "district": "Loteamento Longa Vida",
        "street": "Rua José Alves de Souza",
        "zipcode": "18404-010"
    },
    {
        "city": "Itapeva",
        "state": "SP",
        "district": "Jardim Brasil",
        "street": "Rua Antônio Brisola",
        "zipcode": "18405-217"
    },
    {
        "city": "Itapeva",
        "state": "SP",
        "district": "Vila Bom Jesus",
        "street": "Rua Apiaí",
        "zipcode": "18400-630"
    },
    {
        "city": "Itapeva",
        "state": "SP",
        "district": "Vila Isabel",
        "street": "Praça Nossa Senhora Aparecida",
        "zipcode": "18411-483"
    },
    {
        "city": "Itapeva",
        "state": "SP",
        "district": "Centro",
        "street": "Rua Mário Prandini",
        "zipcode": "18400-901"
    },
    {
        "city": "Itapeva",
        "state": "SP",
        "district": "Vila Aparecida",
        "street": "Rua Edwirges Serapião",
        "zipcode": "18401-180"
    },
    {
        "city": "Itapeva",
        "state": "SP",
        "district": "Jardim Belvedere",
        "street": "Rua das Hortências",
        "zipcode": "18401-410"
    },
    {
        "city": "Itapeva",
        "state": "SP",
        "district": "Centro",
        "street": "Praça Joaquim Marques da Silva",
        "zipcode": "18400-540"
    },
    {
        "city": "Itapeva",
        "state": "SP",
        "district": "Jardim Beija",
        "street": "Rua José Pedro de Oliveira Campos",
        "zipcode": "18401-480"
    },
    {
        "city": "Itapeva",
        "state": "SP",
        "district": "Vila Ophélia",
        "street": "Rua José Vitorino de Oliveira",
        "zipcode": "18400-815"
    },
    {
        "city": "Itapeva",
        "state": "SP",
        "district": "Jardim Beija",
        "street": "Rua Jovil Gomes Pinheiro",
        "zipcode": "18401-530"
    },
    {
        "city": "Itapeva",
        "state": "SP",
        "district": "Jardim Doutor Pinheiro",
        "street": "Rua Major Eurico Monteiro",
        "zipcode": "18400-620"
    },
    {
        "city": "Itapeva",
        "state": "SP",
        "district": "Jardim Ferrari",
        "street": "Rua Maria Aparecida Larotonda",
        "zipcode": "18405-040"
    },
    {
        "city": "Itapeva",
        "state": "SP",
        "district": "Centro",
        "street": "Rua Mário Prandini",
        "zipcode": "18400-170"
    },
    {
        "city": "Itapeva",
        "state": "SP",
        "district": "Centro",
        "street": "Rua Mário Covas",
        "zipcode": "18400-500"
    },
    {
        "city": "Itapeva",
        "state": "SP",
        "district": "Vila São Benedito",
        "street": "Rua Santo Antônio de Categero",
        "zipcode": "18403-130"
    },
    {
        "city": "Itapeva",
        "state": "SP",
        "district": "Vila São José",
        "street": "Rua São Judas Tadeu",
        "zipcode": "18404-120"
    },
    {
        "city": "Itapeva",
        "state": "SP",
        "district": "Colina dos Pinheiros",
        "street": "Rua Sete",
        "zipcode": "18402-070"
    },
    {
        "city": "Itapeva",
        "state": "SP",
        "district": "Parque Planalto",
        "street": "Rua Três",
        "zipcode": "18402-320"
    },
    {
        "city": "Itapeva",
        "state": "SP",
        "district": "Vila São Miguel",
        "street": "Rua Antonio Rodrigues de Abreu",
        "zipcode": "18404-140"
    },
    {
        "city": "Itapeva",
        "state": "SP",
        "district": "Vila São Miguel",
        "street": "Rua 9 de Julho",
        "zipcode": "18404-130"
    },
    {
        "city": "Itapeva",
        "state": "SP",
        "district": "Jardim Grajaú",
        "street": "Rua Elvira Ribeiro Bicudo Amaral",
        "zipcode": "18404-410"
    },
    {
        "city": "Itapeva",
        "state": "SP",
        "district": "Jardim Beija",
        "street": "Rua Raul Fratti",
        "zipcode": "18401-500"
    },
    {
        "city": "Itapeva",
        "state": "SP",
        "district": "Vila Aparecida",
        "street": "Rua Francisco de Lima",
        "zipcode": "18401-050"
    },
    {
        "city": "Itapeva",
        "state": "SP",
        "district": "Jardim Grajaú",
        "street": "Rua João Benedicto de Melo",
        "zipcode": "18404-400"
    },
    {
        "city": "Itapeva",
        "state": "SP",
        "district": "Vila Bom Jesus",
        "street": "Rua Professor João Santana",
        "zipcode": "18400-640"
    },
    {
        "city": "Itapeva",
        "state": "SP",
        "district": "Vila Bom Jesus",
        "street": "Rua Ciro Rolim",
        "zipcode": "18400-700"
    },
    {
        "city": "Itapeva",
        "state": "SP",
        "district": "Jardim Brasil",
        "street": "Rua Geraldino Vieira de Queiroz",
        "zipcode": "18405-219"
    },
    {
        "city": "Itapeva",
        "state": "SP",
        "district": "Jardim Brasil",
        "street": "Rua Hermógenes Simão de Almeida",
        "zipcode": "18405-218"
    },
    {
        "city": "Itapeva",
        "state": "SP",
        "district": "Vila Nova",
        "street": "Praça da Saudade",
        "zipcode": "18410-004"
    },
    {
        "city": "Itapeva",
        "state": "SP",
        "district": "Jardim Nova Itapeva",
        "street": "Rua Tomaz Aquino Pereira",
        "zipcode": "18401-725"
    },
    {
        "city": "Itapeva",
        "state": "SP",
        "district": "Centro",
        "street": "Praça 20 de Setembro",
        "zipcode": "18400-230"
    },
    {
        "city": "Itapeva",
        "state": "SP",
        "district": "Vila Boava",
        "street": "Rua Reinaldo Jacob",
        "zipcode": "18408-005"
    },
    {
        "city": "Itapeva",
        "state": "SP",
        "district": "Jardim São Paulo",
        "street": "Rua Maestro Hugo Belézia",
        "zipcode": "18408-580"
    },
    {
        "city": "Itapeva",
        "state": "SP",
        "district": "Jardim São Paulo",
        "street": "Rua José Rodrigues da Cruz",
        "zipcode": "18408-585"
    },
    {
        "city": "Itapeva",
        "state": "SP",
        "district": "Jardim Maringá",
        "street": "Rua Alcidia Cardoso de Oliveira",
        "zipcode": "18407-090"
    },
    {
        "city": "Itapeva",
        "state": "SP",
        "district": "Conjunto Habitacional Paulo VI",
        "street": "Rua Amadeu Cardoso de Barros",
        "zipcode": "18407-300"
    },
    {
        "city": "Itapeva",
        "state": "SP",
        "district": "Parque São Jorge",
        "street": "Rua Antônio Aidino dos Santos",
        "zipcode": "18409-260"
    },
    {
        "city": "Itapeva",
        "state": "SP",
        "district": "Jardim Maringá",
        "street": "Rua Antônio Galvão dos Santos",
        "zipcode": "18407-150"
    },
    {
        "city": "Itapeva",
        "state": "SP",
        "district": "Vila Nossa Senhora de Fátima",
        "street": "Rua Arapongas",
        "zipcode": "18409-090"
    },
    {
        "city": "Itapeva",
        "state": "SP",
        "district": "Jardim Maringá",
        "street": "Rua Armando da Costa",
        "zipcode": "18407-020"
    },
    {
        "city": "Itapeva",
        "state": "SP",
        "district": "Jardim Paulista",
        "street": "Rua Ary Antunes de Moura",
        "zipcode": "18405-290"
    },
    {
        "city": "Itapeva",
        "state": "SP",
        "district": "Vila Nova",
        "street": "Rua Bela Vista",
        "zipcode": "18410-040"
    },
    {
        "city": "Itapeva",
        "state": "SP",
        "district": "Jardim Dona Miriam",
        "street": "Rua Benedito Fogaça de Almeida (Dito Caipira)",
        "zipcode": "18406-170"
    },
    {
        "city": "Itapeva",
        "state": "SP",
        "district": "Jardim Califórnia",
        "street": "Rua Cantidio Rodrigues Garcia",
        "zipcode": "18406-120"
    },
    {
        "city": "Itapeva",
        "state": "SP",
        "district": "Parque Cimentolândia",
        "street": "Rua Celso Magalhães de Araújo",
        "zipcode": "18409-490"
    },
    {
        "city": "Itapeva",
        "state": "SP",
        "district": "Jardim Maringá",
        "street": "Rua Coronel Monteiro",
        "zipcode": "18407-010"
    },
    {
        "city": "Itapeva",
        "state": "SP",
        "district": "Conjunto Habitacional Tancredo Neves",
        "street": "Rua Domingos Col",
        "zipcode": "18410-240"
    },
    {
        "city": "Itapeva",
        "state": "SP",
        "district": "Conjunto Habitacional São Camilo",
        "street": "Rua Doutor Cory Ronald Blume de Araújo",
        "zipcode": "18408-210"
    },
    {
        "city": "Itapeva",
        "state": "SP",
        "district": "Conjunto Habitacional Tancredo Neves",
        "street": "Rua Doutor Nivaldo Ferreira Gandra",
        "zipcode": "18410-370"
    },
    {
        "city": "Itapeva",
        "state": "SP",
        "district": "Jardim Europa",
        "street": "Avenida Europa",
        "zipcode": "18406-460"
    },
    {
        "city": "Itapeva",
        "state": "SP",
        "district": "Jardim Maringá",
        "street": "Rua Gastão Vidigal",
        "zipcode": "18407-170"
    },
    {
        "city": "Itapeva",
        "state": "SP",
        "district": "Jardim América I",
        "street": "Rua Grécia",
        "zipcode": "18406-320"
    },
    {
        "city": "Itapeva",
        "state": "SP",
        "district": "Distrito Industrial",
        "street": "Avenida Guido Tomazoni",
        "zipcode": "18410-600"
    },
    {
        "city": "Itapeva",
        "state": "SP",
        "district": "Jardim Europa",
        "street": "Rua Inglaterra",
        "zipcode": "18406-400"
    },
    {
        "city": "Itapeva",
        "state": "SP",
        "district": "Parque Paineiras",
        "street": "Alameda Ipê",
        "zipcode": "18405-460"
    },
    {
        "city": "Itapeva",
        "state": "SP",
        "district": "Vila Isabel",
        "street": "Rua Pátio da Estação",
        "zipcode": "18411-434"
    },
    {
        "city": "Itapeva",
        "state": "SP",
        "district": "Vila Guarani",
        "street": "Rua Alice Ferreira Fonseca",
        "zipcode": "18407-218"
    },
    {
        "city": "Itapeva",
        "state": "SP",
        "district": "Jardim Morada do Sol",
        "street": "Rua Oirasil Carlos Maciel",
        "zipcode": "18408-625"
    },
    {
        "city": "Itapeva",
        "state": "SP",
        "district": "Vila Guarani",
        "street": "Rua Jair Vitta",
        "zipcode": "18407-215"
    },
    {
        "city": "Itapeva",
        "state": "SP",
        "district": "Vila Dom Bosco",
        "street": "Rua Irmã Ernestina",
        "zipcode": "18409-350"
    },
    {
        "city": "Itapeva",
        "state": "SP",
        "district": "Jardim Califórnia",
        "street": "Rua Izidio Rodrigues da Costa",
        "zipcode": "18406-060"
    },
    {
        "city": "Itapeva",
        "state": "SP",
        "district": "Parque Paineiras",
        "street": "Alameda Jacarandá",
        "zipcode": "18405-430"
    },
    {
        "city": "Itapeva",
        "state": "SP",
        "district": "Vila Nova",
        "street": "Rua João Proença Sobrinho",
        "zipcode": "18410-180"
    },
    {
        "city": "Itapeva",
        "state": "SP",
        "district": "Conjunto Habitacional São Camilo",
        "street": "Rua José do Amaral",
        "zipcode": "18408-100"
    },
    {
        "city": "Itapeva",
        "state": "SP",
        "district": "Vila Sonia",
        "street": "Rua José Segatto",
        "zipcode": "18409-210"
    },
    {
        "city": "Itapeva",
        "state": "SP",
        "district": "Horto do Ipê",
        "street": "Rua José Souza Faria",
        "zipcode": "18409-170"
    },
    {
        "city": "Itapeva",
        "state": "SP",
        "district": "Jardim Santa Rosa",
        "street": "Rua Lauro Brizola",
        "zipcode": "18405-120"
    },
    {
        "city": "Itapeva",
        "state": "SP",
        "district": "Jardim Maringá III",
        "street": "Rua Noemi de Moura Muzel",
        "zipcode": "18407-250"
    },
    {
        "city": "Itapeva",
        "state": "SP",
        "district": "Vila Taquari",
        "street": "Rua Oriente",
        "zipcode": "18408-440"
    },
    {
        "city": "Itapeva",
        "state": "SP",
        "district": "Vila Nossa Senhora de Fátima",
        "street": "Rua da Geraldo Alckmin",
        "zipcode": "18409-010"
    },
    {
        "city": "Itapeva",
        "state": "SP",
        "district": "Centro",
        "street": "Rua Pires Fleury",
        "zipcode": "18400-430"
    },
    {
        "city": "Itapeva",
        "state": "SP",
        "district": "Jardim Paulista",
        "street": "Rua Renato de Souza Faria",
        "zipcode": "18405-370"
    },
    {
        "city": "Itapeva",
        "state": "SP",
        "district": "Vila Taquari",
        "street": "Rua Roberto Butzer",
        "zipcode": "18408-490"
    },
    {
        "city": "Itapeva",
        "state": "SP",
        "district": "Conjunto Habitacional São Camilo",
        "street": "Rua Salvador Rodrigues Garcia",
        "zipcode": "18408-280"
    },
    {
        "city": "Itapeva",
        "state": "SP",
        "district": "Vila Nova",
        "street": "Rua São Bento",
        "zipcode": "18410-110"
    },
    {
        "city": "Itapeva",
        "state": "SP",
        "district": "Vila Dom Bosco",
        "street": "Rua Sol Nascente",
        "zipcode": "18409-430"
    },
    {
        "city": "Itapeva",
        "state": "SP",
        "district": "Parque Cimentolândia",
        "street": "Rua Stéfano Simonini",
        "zipcode": "18409-610"
    },
    {
        "city": "Itapeva",
        "state": "SP",
        "district": "Jardim Europa",
        "street": "Rua Suíça",
        "zipcode": "18406-406"
    },
    {
        "city": "Itapeva",
        "state": "SP",
        "district": "Parque Cimentolândia",
        "street": "Rua Armelina Ferreira Rosa",
        "zipcode": "18409-530"
    },
    {
        "city": "Itapeva",
        "state": "SP",
        "district": "Conjunto Habitacional São Camilo",
        "street": "Rua Vinte e Cinco (25)",
        "zipcode": "18408-300"
    },
    {
        "city": "Itapeva",
        "state": "SP",
        "district": "Vila Nova",
        "street": "Rua 24 de Outubro",
        "zipcode": "18410-190"
    },
    {
        "city": "Itapeva",
        "state": "SP",
        "district": "Conjunto Habitacional Tancredo Neves",
        "street": "Avenida Paulo Leite de Oliveira",
        "zipcode": "18410-360"
    },
    {
        "city": "Itapeva",
        "state": "SP",
        "district": "Conjunto Habitacional Tancredo Neves",
        "street": "Rua Arlindo Antunes de Oliveira",
        "zipcode": "18410-305"
    },
    {
        "city": "Itapeva",
        "state": "SP",
        "district": "Vila dos Comerciários",
        "street": "Rua Epaminondas Tecchio",
        "zipcode": "18408-551"
    },
    {
        "city": "Itapeva",
        "state": "SP",
        "district": "Jardim Morada do Sol",
        "street": "Rua Walter Antonio Muzel Gonçalves",
        "zipcode": "18408-651"
    },
    {
        "city": "Itapeva",
        "state": "SP",
        "district": "Jardim Brasil",
        "street": "Rua Antônio Fernandes Lico",
        "zipcode": "18405-214"
    },
    {
        "city": "Itapeva",
        "state": "SP",
        "district": "Jardim Morada do Sol",
        "street": "Rua Celso Monteiro de Oliveira",
        "zipcode": "18408-605"
    },
    {
        "city": "Itapeva",
        "state": "SP",
        "district": "Vila Isabel",
        "street": "Rua Aracacu",
        "zipcode": "18411-460"
    },
    {
        "city": "Itapeva",
        "state": "SP",
        "district": "Centro",
        "street": "Rua Coronel Acácio Piedade",
        "zipcode": "18400-180"
    },
    {
        "city": "Itapeva",
        "state": "SP",
        "district": "Vila Santana",
        "street": "Rua Coronel Crescencio",
        "zipcode": "18400-140"
    },
    {
        "city": "Itapeva",
        "state": "SP",
        "district": "Vila Maringá",
        "street": "Rua Dois",
        "zipcode": "18408-380"
    },
    {
        "city": "Itapeva",
        "state": "SP",
        "district": "Centro",
        "street": "Rua Dona Olívia Marques",
        "zipcode": "18400-100"
    },
    {
        "city": "Itapeva",
        "state": "SP",
        "district": "Centro",
        "street": "Avenida Doutor José Ermirio de Moraes",
        "zipcode": "18400-510"
    },
    {
        "city": "Itapeva",
        "state": "SP",
        "district": "Centro",
        "street": "Rua Doutor Pinheiro",
        "zipcode": "18400-005"
    },
    {
        "city": "Itapeva",
        "state": "SP",
        "district": "Centro",
        "street": "Praça Duque de Caxias",
        "zipcode": "18400-490"
    },
    {
        "city": "Itapeva",
        "state": "SP",
        "district": "Vila Santana",
        "street": "Rua Emílio Ferrari",
        "zipcode": "18400-803"
    },
    {
        "city": "Itapeva",
        "state": "SP",
        "district": "Centro",
        "street": "Rua Epaminondas Ferreira Lobo",
        "zipcode": "18400-250"
    },
    {
        "city": "Itapeva",
        "state": "SP",
        "district": "Jardim Virgínia",
        "street": "Rua Ernesto de Moura",
        "zipcode": "18411-140"
    },
    {
        "city": "Itapeva",
        "state": "SP",
        "district": "Centro",
        "street": "Rua Fernando de Oliveira",
        "zipcode": "18400-580"
    },
    {
        "city": "Itapeva",
        "state": "SP",
        "district": "Centro",
        "street": "Rua Francisco de Castro",
        "zipcode": "18400-080"
    },
    {
        "city": "Itapeva",
        "state": "SP",
        "district": "Centro",
        "street": "Praça Furquim Pedroso",
        "zipcode": "18400-520"
    },
    {
        "city": "Itapeva",
        "state": "SP",
        "district": "Vila Ophélia",
        "street": "Rua Glicério David Muzel",
        "zipcode": "18400-813"
    },
    {
        "city": "Itapeva",
        "state": "SP",
        "district": "Vila Bom Jesus",
        "street": "Rua Iporanga",
        "zipcode": "18400-750"
    },
    {
        "city": "Itapeva",
        "state": "SP",
        "district": "Vila Bom Jesus",
        "street": "Rua Itaberá",
        "zipcode": "18400-710"
    },
    {
        "city": "Itapeva",
        "state": "SP",
        "district": "Vila Bom Jesus",
        "street": "Rua Itapetininga",
        "zipcode": "18400-670"
    },
    {
        "city": "Itapeva",
        "state": "SP",
        "district": "Vila Bom Jesus",
        "street": "Rua Itaporanga",
        "zipcode": "18400-680"
    },
    {
        "city": "Itapeva",
        "state": "SP",
        "district": "Centro",
        "street": "Rua João Augusto Lico",
        "zipcode": "18400-570"
    },
    {
        "city": "Itapeva",
        "state": "SP",
        "district": "Jardim São Francisco",
        "street": "Rua José Maria Domingues",
        "zipcode": "18411-055"
    },
    {
        "city": "Itapeva",
        "state": "SP",
        "district": "Jardim Doutor Pinheiro",
        "street": "Rua José Pinheiro de Carvalho",
        "zipcode": "18400-610"
    },
    {
        "city": "Itapeva",
        "state": "SP",
        "district": "Kantiã",
        "street": "Rua Joaquim Candido Rodrigues",
        "zipcode": "18412-159"
    },
    {
        "city": "Itapeva",
        "state": "SP",
        "district": "Conjunto Habitacional Danilo Lucano Gimenez",
        "street": "Rua Governador Américo Brasiliense de Almeida Melo",
        "zipcode": "18408-740"
    },
    {
        "city": "Itapeva",
        "state": "SP",
        "district": "Jardim Santa Rosa",
        "street": "Rua João Marcolino dos Santos",
        "zipcode": "18405-173"
    },
    {
        "city": "Itapeva",
        "state": "SP",
        "district": "Centro",
        "street": "Rua Josino Brisola",
        "zipcode": "18400-150"
    },
    {
        "city": "Itapeva",
        "state": "SP",
        "district": "Jardim Guanabara",
        "street": "Rua Lenis S. Camargo",
        "zipcode": "18411-300"
    },
    {
        "city": "Itapeva",
        "state": "SP",
        "district": "Centro",
        "street": "Rua Lucas de Camargo",
        "zipcode": "18400-340"
    },
    {
        "city": "Itapeva",
        "state": "SP",
        "district": "Vila Ophélia",
        "street": "Rua Luiz Carriel",
        "zipcode": "18400-812"
    },
    {
        "city": "Itapeva",
        "state": "SP",
        "district": "Vila Santana",
        "street": "Rua México",
        "zipcode": "18400-801"
    },
    {
        "city": "Itapeva",
        "state": "SP",
        "district": "Jardim Bela Vista",
        "street": "Rua Salvador Galvão dos Santos",
        "zipcode": "18412-080"
    },
    {
        "city": "Itapeva",
        "state": "SP",
        "district": "Centro",
        "street": "Rua Quintino Bocaiúva",
        "zipcode": "18400-440"
    },
    {
        "city": "Itapeva",
        "state": "SP",
        "district": "Vila Bom Jesus",
        "street": "Rua Ribeirão Branco",
        "zipcode": "18400-740"
    },
    {
        "city": "Itapeva",
        "state": "SP",
        "district": "Centro",
        "street": "Rua Rodolfo Marques Bonilha",
        "zipcode": "18400-050"
    },
    {
        "city": "Itapeva",
        "state": "SP",
        "district": "Jardim Europa",
        "street": "Rua Rússia",
        "zipcode": "18406-360"
    },
    {
        "city": "Itapeva",
        "state": "SP",
        "district": "Vila Isabel",
        "street": "Rua Ruy Antunes de Moura",
        "zipcode": "18411-450"
    },
    {
        "city": "Itapeva",
        "state": "SP",
        "district": "Centro",
        "street": "Rua Santos Dumont",
        "zipcode": "18400-030"
    },
    {
        "city": "Itapeva",
        "state": "SP",
        "district": "Vila Bom Jesus",
        "street": "Rua Taquarituba",
        "zipcode": "18400-660"
    },
    {
        "city": "Itapeva",
        "state": "SP",
        "district": "Centro",
        "street": "Alameda Toledo Ribas",
        "zipcode": "18400-060"
    },
    {
        "city": "Itapeva",
        "state": "SP",
        "district": "Jardim São Francisco",
        "street": "Rua Joel Henrique de Souza",
        "zipcode": "18411-090"
    },
    {
        "city": "Itapeva",
        "state": "SP",
        "district": "Centro",
        "street": "Rua 13 de Maio",
        "zipcode": "18400-530"
    },
    {
        "city": "Itapeva",
        "state": "SP",
        "district": "Vila Isabel",
        "street": "Rua José do Prado Melo",
        "zipcode": "18411-510"
    },
    {
        "city": "Itapeva",
        "state": "SP",
        "district": "Jardim Bela Vista",
        "street": "Rodovia Francisco Alves Negrão",
        "zipcode": "18412-000"
    },
    {
        "city": "Itapeva",
        "state": "SP",
        "district": "Centro",
        "street": "Rua Marcos Kirschnner",
        "zipcode": "18400-200"
    },
    {
        "city": "Itapeva",
        "state": "SP",
        "district": "Vila Bom Jesus",
        "street": "Rua Ribeira",
        "zipcode": "18400-760"
    },
    {
        "city": "Itapeva",
        "state": "SP",
        "district": "Vila dos Comerciários",
        "street": "Rua Arnaldo de Luiz Oliveira",
        "zipcode": "18408-550"
    },
    {
        "city": "Itapeva",
        "state": "SP",
        "district": "Vila Ribas",
        "street": "Rua Alexandre Ribeiro",
        "zipcode": "18403-020"
    },
    {
        "city": "Itapeva",
        "state": "SP",
        "district": "Parque Vista Alegre",
        "street": "Rua Ana Barros Nicoleti",
        "zipcode": "18401-280"
    },
    {
        "city": "Itapeva",
        "state": "SP",
        "district": "Vila Ribas",
        "street": "Rua Antônio Carlos Veiga",
        "zipcode": "18403-010"
    },
    {
        "city": "Itapeva",
        "state": "SP",
        "district": "Vila Santa Maria",
        "street": "Rua Antônio Gomes",
        "zipcode": "18402-104"
    },
    {
        "city": "Itapeva",
        "state": "SP",
        "district": "Jardim Bonfiglioli",
        "street": "Rua Frutuoso de Melo Pimentel",
        "zipcode": "18402-120"
    },
    {
        "city": "Itapeva",
        "state": "SP",
        "district": "Vila Santa Maria",
        "street": "Rua Antônio Luiz Rosa",
        "zipcode": "18402-108"
    },
    {
        "city": "Itapeva",
        "state": "SP",
        "district": "Jardim Beija",
        "street": "Rua Atila Bonilha Neto",
        "zipcode": "18401-560"
    },
    {
        "city": "Itapeva",
        "state": "SP",
        "district": "Jardim Belvedere",
        "street": "Rua das Azaléias",
        "zipcode": "18401-450"
    },
    {
        "city": "Itapeva",
        "state": "SP",
        "district": "Jardim Beija",
        "street": "Rua Cabo Pedro Paulo Gonçalves",
        "zipcode": "18401-550"
    },
    {
        "city": "Itapeva",
        "state": "SP",
        "district": "Jardim Beija",
        "street": "Rua Caliza Furquim de Almeida",
        "zipcode": "18401-520"
    },
    {
        "city": "Itapeva",
        "state": "SP",
        "district": "Jardim Beija",
        "street": "Rua Tasso Menezes de Abreu",
        "zipcode": "18401-570"
    },
    {
        "city": "Itapeva",
        "state": "SP",
        "district": "Colina dos Pinheiros",
        "street": "Rua Cinco",
        "zipcode": "18402-050"
    },
    {
        "city": "Itapeva",
        "state": "SP",
        "district": "Parque Planalto",
        "street": "Rua Cinco",
        "zipcode": "18402-340"
    },
    {
        "city": "Itapeva",
        "state": "SP",
        "district": "Jardim Beija",
        "street": "Rua Cinco A",
        "zipcode": "18401-620"
    },
    {
        "city": "Itapeva",
        "state": "SP",
        "district": "Parque Planalto",
        "street": "Rua Dois",
        "zipcode": "18402-310"
    },
    {
        "city": "Itapeva",
        "state": "SP",
        "district": "Jardim Nova Itapeva",
        "street": "Rua Eugênio Antonio de Souza",
        "zipcode": "18401-710"
    },
    {
        "city": "Itapeva",
        "state": "SP",
        "district": "Vila Aparecida",
        "street": "Rua Frei Cláudio Argote",
        "zipcode": "18401-190"
    },
    {
        "city": "Itapeva",
        "state": "SP",
        "district": "Jardim Nova Itapeva",
        "street": "Rua Haroldo Hannickel",
        "zipcode": "18401-720"
    },
    {
        "city": "Itapeva",
        "state": "SP",
        "district": "Jardim Beija",
        "street": "Rua Hebe Faria Pio",
        "zipcode": "18401-510"
    },
    {
        "city": "Itapeva",
        "state": "SP",
        "district": "Vila Aparecida",
        "street": "Rua Iguape",
        "zipcode": "18401-130"
    },
    {
        "city": "Itapeva",
        "state": "SP",
        "district": "Vila Aparecida",
        "street": "Rua Ipanema",
        "zipcode": "18401-200"
    },
    {
        "city": "Itapeva",
        "state": "SP",
        "district": "Jardim Pôr do Sol",
        "street": "Rua Ítalo Turiani",
        "zipcode": "18403-060"
    },
    {
        "city": "Itapeva",
        "state": "SP",
        "district": "Parque Vista Alegre",
        "street": "Rua Itú",
        "zipcode": "18401-230"
    },
    {
        "city": "Itapeva",
        "state": "SP",
        "district": "Jardim Nova Itapeva",
        "street": "Rua João Pedro Pereira Carpes",
        "zipcode": "18401-650"
    },
    {
        "city": "Itapeva",
        "state": "SP",
        "district": "Vila Aparecida",
        "street": "Rua João Pinn",
        "zipcode": "18401-060"
    },
    {
        "city": "Itapeva",
        "state": "SP",
        "district": "Vila Ribas",
        "street": "Rua Jorge Hagge",
        "zipcode": "18403-030"
    },
    {
        "city": "Itapeva",
        "state": "SP",
        "district": "Vila Aparecida",
        "street": "Rua José Duch Vilar",
        "zipcode": "18401-030"
    },
    {
        "city": "Itapeva",
        "state": "SP",
        "district": "Vila Aparecida",
        "street": "Rua Lindóia",
        "zipcode": "18401-210"
    },
    {
        "city": "Itapeva",
        "state": "SP",
        "district": "Vila Aparecida",
        "street": "Rua Maestro Jangão",
        "zipcode": "18401-080"
    },
    {
        "city": "Itapeva",
        "state": "SP",
        "district": "Vila Aparecida",
        "street": "Rua Maria Raimunda",
        "zipcode": "18401-010"
    },
    {
        "city": "Itapeva",
        "state": "SP",
        "district": "Vila Aparecida",
        "street": "Rua Matão",
        "zipcode": "18401-040"
    },
    {
        "city": "Itapeva",
        "state": "SP",
        "district": "Jardim América I",
        "street": "Loteamento Residencial Mont Blanc",
        "zipcode": "18406-275"
    },
    {
        "city": "Itapeva",
        "state": "SP",
        "district": "Parque São Jorge",
        "street": "Praça Benedito Domingues de Araújo",
        "zipcode": "18409-255"
    },
    {
        "city": "Itapeva",
        "state": "SP",
        "district": "Jardim Santa Rosa",
        "street": "Rua Inocêncio Rodrigues de Almeida",
        "zipcode": "18405-153"
    },
    {
        "city": "Itapeva",
        "state": "SP",
        "district": "Conjunto Habitacional São Camilo",
        "street": "Rua Salvador Rodrigues Faria",
        "zipcode": "18408-340"
    },
    {
        "city": "Itapeva",
        "state": "SP",
        "district": "Jardim Nova Itapeva",
        "street": "Rua Miguel Celestino dos Santos",
        "zipcode": "18401-690"
    },
    {
        "city": "Itapeva",
        "state": "SP",
        "district": "Jardim Beija",
        "street": "Rua Murilo Gomeso",
        "zipcode": "18401-590"
    },
    {
        "city": "Itapeva",
        "state": "SP",
        "district": "Vila Santa Maria",
        "street": "Rua Naildes Vaz da Mota",
        "zipcode": "18402-101"
    },
    {
        "city": "Itapeva",
        "state": "SP",
        "district": "Colina dos Pinheiros",
        "street": "Rua Nove",
        "zipcode": "18402-090"
    },
    {
        "city": "Itapeva",
        "state": "SP",
        "district": "Parque Planalto",
        "street": "Rua Nove",
        "zipcode": "18402-380"
    },
    {
        "city": "Itapeva",
        "state": "SP",
        "district": "Vila Aparecida",
        "street": "Rua Padre Artur Silveira",
        "zipcode": "18401-070"
    },
    {
        "city": "Itapeva",
        "state": "SP",
        "district": "Recanto Pilão DAgua",
        "street": "Rua Raul de Oliveira",
        "zipcode": "18402-170"
    },
    {
        "city": "Itapeva",
        "state": "SP",
        "district": "Colina dos Pinheiros",
        "street": "Rua Seis",
        "zipcode": "18402-060"
    },
    {
        "city": "Itapeva",
        "state": "SP",
        "district": "Parque Planalto",
        "street": "Rua Seis",
        "zipcode": "18402-350"
    },
    {
        "city": "Itapeva",
        "state": "SP",
        "district": "Vila Santa Maria",
        "street": "Rua Tobias Roque de Carvalho",
        "zipcode": "18402-105"
    },
    {
        "city": "Itapeva",
        "state": "SP",
        "district": "Parque Planalto",
        "street": "Rua Sete",
        "zipcode": "18402-360"
    },
    {
        "city": "Itapeva",
        "state": "SP",
        "district": "Vila Santa Maria",
        "street": "Rua Leonel França",
        "zipcode": "18402-106"
    },
    {
        "city": "Itapeva",
        "state": "SP",
        "district": "Vila Aparecida",
        "street": "Rua Tietê",
        "zipcode": "18401-150"
    },
    {
        "city": "Itapeva",
        "state": "SP",
        "district": "Jardim Nova Itapeva",
        "street": "Rua Mauro Bilescky",
        "zipcode": "18401-660"
    },
    {
        "city": "Itapeva",
        "state": "SP",
        "district": "Colina dos Pinheiros",
        "street": "Rua Três",
        "zipcode": "18402-030"
    },
    {
        "city": "Itapeva",
        "state": "SP",
        "district": "Colina dos Pinheiros",
        "street": "Rua Um",
        "zipcode": "18402-010"
    },
    {
        "city": "Itapeva",
        "state": "SP",
        "district": "Jardim Alvorada",
        "street": "Rua Um",
        "zipcode": "18402-250"
    },
    {
        "city": "Itapeva",
        "state": "SP",
        "district": "Jardim Belvedere",
        "street": "Rua dos Ipês",
        "zipcode": "18401-460"
    },
    {
        "city": "Itapeva",
        "state": "SP",
        "district": "Vila Aparecida",
        "street": "Rua Avaré",
        "zipcode": "18401-100"
    },
    {
        "city": "Itapeva",
        "state": "SP",
        "district": "Colina dos Pinheiros",
        "street": "Rua Nilton Guido do Amaral",
        "zipcode": "18402-020"
    },
    {
        "city": "Itapeva",
        "state": "SP",
        "district": "Jardim Belvedere",
        "street": "Rua Primavera",
        "zipcode": "18401-400"
    },
    {
        "city": "Itapeva",
        "state": "SP",
        "district": "Jardim Belvedere",
        "street": "Rua Taubaté",
        "zipcode": "18401-420"
    },
    {
        "city": "Itapeva",
        "state": "SP",
        "district": "Jardim Santa Marina",
        "street": "Rua José Sipos Filho",
        "zipcode": "18401-330"
    },
    {
        "city": "Itapeva",
        "state": "SP",
        "district": "Jardim Santa Marina",
        "street": "Rua Mateus Soares dos Santos",
        "zipcode": "18401-335"
    },
    {
        "city": "Itapeva",
        "state": "SP",
        "district": "Jardim Santa Marina",
        "street": "Rua Joaquim Antônio Inésio",
        "zipcode": "18401-345"
    },
    {
        "city": "Itapeva",
        "state": "SP",
        "district": "Jardim Grajaú",
        "street": "Rua Benedito Rezende",
        "zipcode": "18404-330"
    },
    {
        "city": "Itapeva",
        "state": "SP",
        "district": "Jardim Califórnia",
        "street": "Rua Boituva",
        "zipcode": "18406-070"
    },
    {
        "city": "Itapeva",
        "state": "SP",
        "district": "Jardim Paulista",
        "street": "Rua C",
        "zipcode": "18405-330"
    },
    {
        "city": "Itapeva",
        "state": "SP",
        "district": "Jardim Paulista",
        "street": "Rua Cantidio Moreira Mattos Filho",
        "zipcode": "18405-350"
    },
    {
        "city": "Itapeva",
        "state": "SP",
        "district": "Loteamento Longa Vida",
        "street": "Rua Benedita Maria Soares",
        "zipcode": "18404-030"
    },
    {
        "city": "Itapeva",
        "state": "SP",
        "district": "Vila São Miguel",
        "street": "Rua Cotia",
        "zipcode": "18404-180"
    },
    {
        "city": "Itapeva",
        "state": "SP",
        "district": "Jardim Pôr do Sol",
        "street": "Rua Dionízio Garcia Cano",
        "zipcode": "18403-090"
    },
    {
        "city": "Itapeva",
        "state": "SP",
        "district": "Jardim Ferrari",
        "street": "Avenida Europa",
        "zipcode": "18405-110"
    },
    {
        "city": "Itapeva",
        "state": "SP",
        "district": "Central Park",
        "street": "Rua Everaldo Milton Chiavani",
        "zipcode": "18406-020"
    },
    {
        "city": "Itapeva",
        "state": "SP",
        "district": "Jardim Paulista",
        "street": "Rua Frederico Guilherme Braatz",
        "zipcode": "18405-310"
    },
    {
        "city": "Itapeva",
        "state": "SP",
        "district": "Jardim Santa Rosa",
        "street": "Rua Gabriel Werneck Moreira",
        "zipcode": "18405-140"
    },
    {
        "city": "Itapeva",
        "state": "SP",
        "district": "Parque Paineiras",
        "street": "Alameda Grevilia",
        "zipcode": "18405-450"
    },
    {
        "city": "Itapeva",
        "state": "SP",
        "district": "Jardim Ferrari",
        "street": "Rua João Ferrari",
        "zipcode": "18405-005"
    },
    {
        "city": "Itapeva",
        "state": "SP",
        "district": "Jardim Grajaú",
        "street": "Rua João Rosa Araújo",
        "zipcode": "18404-370"
    },
    {
        "city": "Itapeva",
        "state": "SP",
        "district": "Jardim Grajaú",
        "street": "Rua José Alves Benfica",
        "zipcode": "18404-380"
    },
    {
        "city": "Itapeva",
        "state": "SP",
        "district": "Jardim Ferrari",
        "street": "Rua José Vasques Ferrary",
        "zipcode": "18405-080"
    },
    {
        "city": "Itapeva",
        "state": "SP",
        "district": "Vila São Miguel",
        "street": "Rua Josino Brizola Santos",
        "zipcode": "18404-190"
    },
    {
        "city": "Itapeva",
        "state": "SP",
        "district": "Jardim Grajaú",
        "street": "Rua Maria de Lima",
        "zipcode": "18404-430"
    },
    {
        "city": "Itapeva",
        "state": "SP",
        "district": "Jardim Grajaú",
        "street": "Rua Maria Santos Camargo",
        "zipcode": "18404-350"
    },
    {
        "city": "Itapeva",
        "state": "SP",
        "district": "Jardim Ferrari",
        "street": "Rua Zita Ferrari",
        "zipcode": "18405-050"
    },
    {
        "city": "Itapeva",
        "state": "SP",
        "district": "Jardim Grajaú",
        "street": "Rua Noberto Trindade de Vasconcelos Veiga",
        "zipcode": "18404-420"
    },
    {
        "city": "Itapeva",
        "state": "SP",
        "district": "Central Park",
        "street": "Rua Oscar Rolim",
        "zipcode": "18406-040"
    },
    {
        "city": "Itapeva",
        "state": "SP",
        "district": "Jardim Ferrari",
        "street": "Avenida Professor Aristeu de Almeida Camargo",
        "zipcode": "18405-001"
    },
    {
        "city": "Itapeva",
        "state": "SP",
        "district": "Vila São Miguel",
        "street": "Rua Queluz",
        "zipcode": "18404-170"
    },
    {
        "city": "Itapeva",
        "state": "SP",
        "district": "Vila São Benedito",
        "street": "Rua São Benedito",
        "zipcode": "18403-140"
    },
    {
        "city": "Itapeva",
        "state": "SP",
        "district": "Jardim Pôr do Sol",
        "street": "Rua Davina Batista de Barros",
        "zipcode": "18403-110"
    },
    {
        "city": "Itapeva",
        "state": "SP",
        "district": "Centro",
        "street": "Rua Flauzino Antunes",
        "zipcode": "18400-220"
    },
    {
        "city": "Itapeva",
        "state": "SP",
        "district": "Jardim Ferrari",
        "street": "Rua José Francisco Martho",
        "zipcode": "18405-002"
    },
    {
        "city": "Itapeva",
        "state": "SP",
        "district": "Loteamento Longa Vida",
        "street": "Rua Sete",
        "zipcode": "18404-020"
    },
    {
        "city": "Itapeva",
        "state": "SP",
        "district": "Jardim Ferrari",
        "street": "Rua Torquato Raimundo",
        "zipcode": "18405-010"
    },
    {
        "city": "Itapeva",
        "state": "SP",
        "district": "Loteamento Longa Vida",
        "street": "Rua Três",
        "zipcode": "18404-040"
    },
    {
        "city": "Itapeva",
        "state": "SP",
        "district": "Jardim Santa Rosa",
        "street": "Rua Wilson Pontes",
        "zipcode": "18405-170"
    },
    {
        "city": "Itapeva",
        "state": "SP",
        "district": "Jardim Ferrari",
        "street": "Rua 7 de Setembro",
        "zipcode": "18405-060"
    },
    {
        "city": "Itapeva",
        "state": "SP",
        "district": "Jardim Santa Rosa",
        "street": "Rua Jesuíno de Oliveira Melo",
        "zipcode": "18405-130"
    },
    {
        "city": "Itapeva",
        "state": "SP",
        "district": "Vila São Miguel",
        "street": "Rua Atibaia",
        "zipcode": "18404-150"
    },
    {
        "city": "Itapeva",
        "state": "SP",
        "district": "Jardim Paulista",
        "street": "Rua Leonina Breda",
        "zipcode": "18405-360"
    },
    {
        "city": "Itapeva",
        "state": "SP",
        "district": "Jardim Califórnia",
        "street": "Rua Ipiranga",
        "zipcode": "18406-090"
    },
    {
        "city": "Itapeva",
        "state": "SP",
        "district": "Jardim Grajaú",
        "street": "Rua Marciliano Antunes de Lima",
        "zipcode": "18404-360"
    },
    {
        "city": "Itapeva",
        "state": "SP",
        "district": "Central Park",
        "street": "Avenida Roberto Gemignani",
        "zipcode": "18406-000"
    },
    {
        "city": "Itapeva",
        "state": "SP",
        "district": "Central Park",
        "street": "Avenida Angelino Fascetti",
        "zipcode": "18406-030"
    },
    {
        "city": "Itapeva",
        "state": "SP",
        "district": "Parque Paineiras",
        "street": "Alameda Cabreúva",
        "zipcode": "18405-420"
    },
    {
        "city": "Itapeva",
        "state": "SP",
        "district": "Jardim Santa Rosa",
        "street": "Rua Aldo Russo",
        "zipcode": "18405-171"
    },
    {
        "city": "Itapeva",
        "state": "SP",
        "district": "Jardim Brasil",
        "street": "Rua Leoni Gomes Carvalho",
        "zipcode": "18405-211"
    },
    {
        "city": "Itapeva",
        "state": "SP",
        "district": "Jardim Brasil",
        "street": "Rua Joaquim dos Santos",
        "zipcode": "18405-213"
    },
    {
        "city": "Itapeva",
        "state": "SP",
        "district": "Jardim Brasil",
        "street": "Rua Nove",
        "zipcode": "18405-215"
    },
    {
        "city": "Itapeva",
        "state": "SP",
        "district": "Jardim Brasil",
        "street": "Rua Vinte",
        "zipcode": "18405-221"
    },
    {
        "city": "Itapeva",
        "state": "SP",
        "district": "Jardim Brasil",
        "street": "Rua Vinte e Um",
        "zipcode": "18405-222"
    },
    {
        "city": "Itapeva",
        "state": "SP",
        "district": "Jardim Brasil",
        "street": "Rua Vinte e Dois",
        "zipcode": "18405-223"
    },
    {
        "city": "Itapeva",
        "state": "SP",
        "district": "Conjunto Habitacional Paulo VI",
        "street": "Rua Amélio Lourenço de Oliveira",
        "zipcode": "18407-370"
    },
    {
        "city": "Itapeva",
        "state": "SP",
        "district": "Jardim Maringá",
        "street": "Rua Antônio Alves",
        "zipcode": "18407-100"
    },
    {
        "city": "Itapeva",
        "state": "SP",
        "district": "Jardim Dona Miriam",
        "street": "Rua Antônio Alves da Rocha (Tonico Batucada)",
        "zipcode": "18406-140"
    },
    {
        "city": "Itapeva",
        "state": "SP",
        "district": "Conjunto Habitacional Paulo VI",
        "street": "Rua Antônio Deffune",
        "zipcode": "18407-330"
    },
    {
        "city": "Itapeva",
        "state": "SP",
        "district": "Conjunto Habitacional Paulo VI",
        "street": "Rua Antônio Miranda",
        "zipcode": "18407-340"
    },
    {
        "city": "Itapeva",
        "state": "SP",
        "district": "Jardim Ferrari",
        "street": "Rua Isabel Ferrari de Almeida",
        "zipcode": "18405-008"
    },
    {
        "city": "Itapeva",
        "state": "SP",
        "district": "Jardim Paulista",
        "street": "Rua Francisco Lopes Martinez",
        "zipcode": "18405-335"
    },
    {
        "city": "Itapeva",
        "state": "SP",
        "district": "Jardim Brasil",
        "street": "Rua Joaquim Marmo de Oliveira",
        "zipcode": "18405-203"
    },
    {
        "city": "Itapeva",
        "state": "SP",
        "district": "Jardim Ferrari",
        "street": "Praça Hélio Tadeu de Oliveira",
        "zipcode": "18405-013"
    },
    {
        "city": "Itapeva",
        "state": "SP",
        "district": "Jardim América I",
        "street": "Rua Argentina",
        "zipcode": "18406-260"
    },
    {
        "city": "Itapeva",
        "state": "SP",
        "district": "Vila Boava",
        "street": "Rua Aurora",
        "zipcode": "18408-002"
    },
    {
        "city": "Itapeva",
        "state": "SP",
        "district": "Jardim Europa",
        "street": "Rua Áustria",
        "zipcode": "18406-450"
    },
    {
        "city": "Itapeva",
        "state": "SP",
        "district": "Jardim Dona Miriam",
        "street": "Rua Batista Loureiro",
        "zipcode": "18406-145"
    },
    {
        "city": "Itapeva",
        "state": "SP",
        "district": "Vila Boava",
        "street": "Rua Chile",
        "zipcode": "18408-030"
    },
    {
        "city": "Itapeva",
        "state": "SP",
        "district": "Jardim América I",
        "street": "Rua Colômbia",
        "zipcode": "18406-280"
    },
    {
        "city": "Itapeva",
        "state": "SP",
        "district": "Jardim Maringá",
        "street": "Rua Doutor Cícero de Alencar",
        "zipcode": "18407-040"
    },
    {
        "city": "Itapeva",
        "state": "SP",
        "district": "Conjunto Habitacional Paulo VI",
        "street": "Rua Elisio Antunes de Moura",
        "zipcode": "18407-320"
    },
    {
        "city": "Itapeva",
        "state": "SP",
        "district": "Jardim Maringá III",
        "street": "Rua Engenheiro Ney Cuiabano",
        "zipcode": "18407-160"
    },
    {
        "city": "Itapeva",
        "state": "SP",
        "district": "Jardim Europa",
        "street": "Rua Espanha",
        "zipcode": "18406-410"
    },
    {
        "city": "Itapeva",
        "state": "SP",
        "district": "Jardim Maringá",
        "street": "Rua Euclides de Campos",
        "zipcode": "18407-070"
    },
    {
        "city": "Itapeva",
        "state": "SP",
        "district": "Vila Guarani",
        "street": "Rua Guarani",
        "zipcode": "18407-210"
    },
    {
        "city": "Itapeva",
        "state": "SP",
        "district": "Jardim Dona Miriam",
        "street": "Rua Higino Rodrigues Garcia",
        "zipcode": "18406-130"
    },
    {
        "city": "Itapeva",
        "state": "SP",
        "district": "Jardim Califórnia",
        "street": "Rua Hubtemberg Alves",
        "zipcode": "18406-100"
    },
    {
        "city": "Itapeva",
        "state": "SP",
        "district": "Jardim Europa",
        "street": "Rua Hungria",
        "zipcode": "18406-370"
    },
    {
        "city": "Itapeva",
        "state": "SP",
        "district": "Jardim Europa",
        "street": "Rua Itália",
        "zipcode": "18406-420"
    },
    {
        "city": "Itapeva",
        "state": "SP",
        "district": "Jardim Maringá",
        "street": "Rua João Rios Carneiro",
        "zipcode": "18407-030"
    },
    {
        "city": "Itapeva",
        "state": "SP",
        "district": "Conjunto Habitacional São Camilo",
        "street": "Rua João Solão",
        "zipcode": "18408-140"
    },
    {
        "city": "Itapeva",
        "state": "SP",
        "district": "Conjunto Habitacional São Camilo",
        "street": "Rua Joaquim Gomes dos Santos",
        "zipcode": "18408-110"
    },
    {
        "city": "Itapeva",
        "state": "SP",
        "district": "Conjunto Habitacional Paulo VI",
        "street": "Rua Laura Ferreira Pimentel",
        "zipcode": "18407-380"
    },
    {
        "city": "Itapeva",
        "state": "SP",
        "district": "Jardim Dona Miriam",
        "street": "Rua Nove",
        "zipcode": "18406-146"
    },
    {
        "city": "Itapeva",
        "state": "SP",
        "district": "Jardim Maringá",
        "street": "Rua Oscar Silveira Gomes",
        "zipcode": "18407-140"
    },
    {
        "city": "Itapeva",
        "state": "SP",
        "district": "Conjunto Habitacional Paulo VI",
        "street": "Rua Osório Alves",
        "zipcode": "18407-290"
    },
    {
        "city": "Itapeva",
        "state": "SP",
        "district": "Jardim América I",
        "street": "Rua Paraguai",
        "zipcode": "18406-290"
    },
    {
        "city": "Itapeva",
        "state": "SP",
        "district": "Jardim Pilar",
        "street": "Rua Alonso Lino de Barros",
        "zipcode": "18407-280"
    },
    {
        "city": "Itapeva",
        "state": "SP",
        "district": "Vila Boava",
        "street": "Rua Paris",
        "zipcode": "18408-020"
    },
    {
        "city": "Itapeva",
        "state": "SP",
        "district": "Vila Guarani",
        "street": "Rua Piauí",
        "zipcode": "18407-200"
    },
    {
        "city": "Itapeva",
        "state": "SP",
        "district": "Jardim Dona Miriam",
        "street": "Rua Professor Euflávio Barbosa",
        "zipcode": "18406-160"
    },
    {
        "city": "Itapeva",
        "state": "SP",
        "district": "Conjunto Habitacional São Camilo",
        "street": "Rua Romanina Curia Campolim do Canto",
        "zipcode": "18408-160"
    },
    {
        "city": "Itapeva",
        "state": "SP",
        "district": "Jardim Maringá III",
        "street": "Rua Roque Lírio Barbosa",
        "zipcode": "18407-230"
    },
    {
        "city": "Itapeva",
        "state": "SP",
        "district": "Jardim Europa",
        "street": "Rua Sérgio Mazeto",
        "zipcode": "18406-440"
    },
    {
        "city": "Itapeva",
        "state": "SP",
        "district": "Jardim Europa",
        "street": "Avenida Vaticano",
        "zipcode": "18406-380"
    },
    {
        "city": "Itapeva",
        "state": "SP",
        "district": "Jardim América I",
        "street": "Rua Venezuela",
        "zipcode": "18406-330"
    },
    {
        "city": "Itapeva",
        "state": "SP",
        "district": "Vila Dom Bosco",
        "street": "Rua Cruzeiro",
        "zipcode": "18409-380"
    },
    {
        "city": "Itapeva",
        "state": "SP",
        "district": "Parque Residencial Itapeva",
        "street": "Rua Júlio Paperetti",
        "zipcode": "18406-220"
    },
    {
        "city": "Itapeva",
        "state": "SP",
        "district": "Jardim Maringá IV",
        "street": "Rua Matias Machado",
        "zipcode": "18407-181"
    },
    {
        "city": "Itapeva",
        "state": "SP",
        "district": "Jardim Europa",
        "street": "Rua Alemanha",
        "zipcode": "18406-490"
    },
    {
        "city": "Itapeva",
        "state": "SP",
        "district": "Jardim Dona Miriam",
        "street": "Rua Zizo Benedetti",
        "zipcode": "18406-180"
    },
    {
        "city": "Itapeva",
        "state": "SP",
        "district": "Jardim América I",
        "street": "Rua Bolívia",
        "zipcode": "18406-310"
    },
    {
        "city": "Itapeva",
        "state": "SP",
        "district": "Vila Boava",
        "street": "Rua Jandaia",
        "zipcode": "18408-050"
    },
    {
        "city": "Itapeva",
        "state": "SP",
        "district": "Jardim Maringá",
        "street": "Avenida Higino Marques",
        "zipcode": "18407-120"
    },
    {
        "city": "Itapeva",
        "state": "SP",
        "district": "Vila Guarani",
        "street": "Rua Manoel Jacinto dos Reis",
        "zipcode": "18407-221"
    },
    {
        "city": "Itapeva",
        "state": "SP",
        "district": "Vila Guarani",
        "street": "Rua José Teixeira",
        "zipcode": "18407-217"
    },
    {
        "city": "Itapeva",
        "state": "SP",
        "district": "Vila Sonia",
        "street": "Rua Antônio Agnelo",
        "zipcode": "18409-240"
    },
    {
        "city": "Itapeva",
        "state": "SP",
        "district": "Horto do Ipê",
        "street": "Rua Antônio Benedito dos Santos",
        "zipcode": "18409-200"
    },
    {
        "city": "Itapeva",
        "state": "SP",
        "district": "Conjunto Habitacional São Camilo",
        "street": "Rua Antônio Martins Guimarães",
        "zipcode": "18408-170"
    },
    {
        "city": "Itapeva",
        "state": "SP",
        "district": "Vila Nossa Senhora de Fátima",
        "street": "Rua Araras",
        "zipcode": "18409-060"
    },
    {
        "city": "Itapeva",
        "state": "SP",
        "district": "Conjunto Habitacional São Camilo",
        "street": "Rua Benedito Pinto",
        "zipcode": "18408-240"
    },
    {
        "city": "Itapeva",
        "state": "SP",
        "district": "Vila Nossa Senhora de Fátima",
        "street": "Rua Júlio Vieira Holtz",
        "zipcode": "18409-150"
    },
    {
        "city": "Itapeva",
        "state": "SP",
        "district": "Horto do Ipê",
        "street": "Rua Décio Bueno de Melo",
        "zipcode": "18409-190"
    },
    {
        "city": "Itapeva",
        "state": "SP",
        "district": "Vista Alegre II",
        "street": "Avenida Gastão de Mesquita Filho",
        "zipcode": "18408-521"
    },
    {
        "city": "Itapeva",
        "state": "SP",
        "district": "Horto do Ipê",
        "street": "Rua Grigorijus Bykovas",
        "zipcode": "18409-160"
    },
    {
        "city": "Itapeva",
        "state": "SP",
        "district": "Jardim Maringá III",
        "street": "Rua Gérson David Muzel",
        "zipcode": "18407-260"
    },
    {
        "city": "Itapeva",
        "state": "SP",
        "district": "Parque Residencial Itapeva",
        "street": "Rua Pedro Pivovar",
        "zipcode": "18406-190"
    },
    {
        "city": "Itapeva",
        "state": "SP",
        "district": "Parque Residencial Itapeva",
        "street": "Rua Doutor Waldemar Felipe",
        "zipcode": "18406-230"
    },
    {
        "city": "Itapeva",
        "state": "SP",
        "district": "Parque São Jorge",
        "street": "Rua Hortêncio de Oliveira Pio",
        "zipcode": "18409-310"
    },
    {
        "city": "Itapeva",
        "state": "SP",
        "district": "Conjunto Habitacional São Camilo",
        "street": "Rua Isaltino Rodrigues Fortes",
        "zipcode": "18408-260"
    },
    {
        "city": "Itapeva",
        "state": "SP",
        "district": "Vila Taquari",
        "street": "Rua Itaóca",
        "zipcode": "18408-480"
    },
    {
        "city": "Itapeva",
        "state": "SP",
        "district": "Conjunto Habitacional São Camilo",
        "street": "Rua João Moreira",
        "zipcode": "18408-180"
    },
    {
        "city": "Itapeva",
        "state": "SP",
        "district": "Vila Nossa Senhora de Fátima",
        "street": "Rua Joel Antunes de Moura",
        "zipcode": "18409-120"
    },
    {
        "city": "Itapeva",
        "state": "SP",
        "district": "Vila Sonia",
        "street": "Rua José de Souza Aranha",
        "zipcode": "18409-230"
    },
    {
        "city": "Itapeva",
        "state": "SP",
        "district": "Conjunto Habitacional São Camilo",
        "street": "Rua Juvenal Celestino dos Santos",
        "zipcode": "18408-270"
    },
    {
        "city": "Itapeva",
        "state": "SP",
        "district": "Parque São Jorge",
        "street": "Rua Leônidas Marques Bonilha",
        "zipcode": "18409-280"
    },
    {
        "city": "Itapeva",
        "state": "SP",
        "district": "Conjunto Habitacional São Camilo",
        "street": "Rua Luiz Emílio de Oliveira",
        "zipcode": "18408-230"
    },
    {
        "city": "Itapeva",
        "state": "SP",
        "district": "Vila Taquari",
        "street": "Rua Luiza de Camargo Monteiro",
        "zipcode": "18408-510"
    },
    {
        "city": "Itapeva",
        "state": "SP",
        "district": "Vila Nossa Senhora de Fátima",
        "street": "Rua Minas Gerais",
        "zipcode": "18409-100"
    },
    {
        "city": "Itapeva",
        "state": "SP",
        "district": "Vila Nossa Senhora de Fátima",
        "street": "Rua Pilar",
        "zipcode": "18409-020"
    },
    {
        "city": "Itapeva",
        "state": "SP",
        "district": "Vila Maringá",
        "street": "Rua Quatro",
        "zipcode": "18408-410"
    },
    {
        "city": "Itapeva",
        "state": "SP",
        "district": "Vila Taquari",
        "street": "Rua Taquarí",
        "zipcode": "18408-460"
    },
    {
        "city": "Itapeva",
        "state": "SP",
        "district": "Vila Maringá",
        "street": "Rua Três",
        "zipcode": "18408-400"
    },
    {
        "city": "Itapeva",
        "state": "SP",
        "district": "Conjunto Habitacional São Camilo",
        "street": "Rua Trinta e Um (31)",
        "zipcode": "18408-360"
    },
    {
        "city": "Itapeva",
        "state": "SP",
        "district": "Vila Nossa Senhora de Fátima",
        "street": "Rua Tupi",
        "zipcode": "18409-050"
    },
    {
        "city": "Itapeva",
        "state": "SP",
        "district": "Vila Nossa Senhora de Fátima",
        "street": "Rua Uirapuru",
        "zipcode": "18409-080"
    },
    {
        "city": "Itapeva",
        "state": "SP",
        "district": "Conjunto Habitacional Danilo Lucano Gimenez",
        "street": "Rua Fortunato Marques",
        "zipcode": "18408-715"
    },
    {
        "city": "Itapeva",
        "state": "SP",
        "district": "Vista Alegre II",
        "street": "Rua Miguel Ghering",
        "zipcode": "18408-540"
    },
    {
        "city": "Itapeva",
        "state": "SP",
        "district": "Jardim Maringá",
        "street": "Praça Teonilo Gomes Cardoso",
        "zipcode": "18407-053"
    },
    {
        "city": "Itapeva",
        "state": "SP",
        "district": "Conjunto Habitacional Danilo Lucano Gimenez",
        "street": "Rua Pacífico de Mattos Salles",
        "zipcode": "18408-730"
    },
    {
        "city": "Itapeva",
        "state": "SP",
        "district": "Conjunto Habitacional São Camilo",
        "street": "Rua Vinte e Seis (26)",
        "zipcode": "18408-320"
    },
    {
        "city": "Itapeva",
        "state": "SP",
        "district": "Conjunto Habitacional São Camilo",
        "street": "Rua Vinte e Sete (27)",
        "zipcode": "18408-310"
    },
    {
        "city": "Itapeva",
        "state": "SP",
        "district": "Vila Nossa Senhora de Fátima",
        "street": "Rua Moracy do Prado Moura",
        "zipcode": "18409-000"
    },
    {
        "city": "Itapeva",
        "state": "SP",
        "district": "Vista Alegre II",
        "street": "Rua Nivaldo Rocha de Moraes",
        "zipcode": "18408-520"
    },
    {
        "city": "Itapeva",
        "state": "SP",
        "district": "Parque São Jorge",
        "street": "Rua José Alves Janeiro",
        "zipcode": "18409-320"
    },
    {
        "city": "Itapeva",
        "state": "SP",
        "district": "Jardim Morada do Sol",
        "street": "Rua Maria Aparecida de Soza Leme",
        "zipcode": "18408-610"
    },
    {
        "city": "Itapeva",
        "state": "SP",
        "district": "Jardim Morada do Sol",
        "street": "Rua Alcides Rodrigues de Almeida Filho",
        "zipcode": "18408-640"
    },
    {
        "city": "Itapeva",
        "state": "SP",
        "district": "Jardim Morada do Sol",
        "street": "Rua Maria Aparecida Santos Almeida",
        "zipcode": "18408-650"
    },
    {
        "city": "Itapeva",
        "state": "SP",
        "district": "Jardim Morada do Sol",
        "street": "Rua José Marques dos Santos",
        "zipcode": "18408-652"
    },
    {
        "city": "Itapeva",
        "state": "SP",
        "district": "Jardim Morada do Sol",
        "street": "Rua Elison Corazza",
        "zipcode": "18408-654"
    },
    {
        "city": "Itapeva",
        "state": "SP",
        "district": "Jardim Morada do Sol",
        "street": "Rua Cecil Barros e Silva",
        "zipcode": "18408-648"
    },
    {
        "city": "Itapeva",
        "state": "SP",
        "district": "Vila dos Comerciários",
        "street": "Rua Edite Figueiredo Mendes",
        "zipcode": "18408-552"
    },
    {
        "city": "Itapeva",
        "state": "SP",
        "district": "Vila Dom Bosco",
        "street": "Rua A",
        "zipcode": "18409-450"
    },
    {
        "city": "Itapeva",
        "state": "SP",
        "district": "Parque Cimentolândia",
        "street": "Rua Alfredo Petterson",
        "zipcode": "18409-630"
    },
    {
        "city": "Itapeva",
        "state": "SP",
        "district": "Jardim Belvedere",
        "street": "Rua Alípio de Almeida Camargo",
        "zipcode": "18401-430"
    },
    {
        "city": "Itapeva",
        "state": "SP",
        "district": "Vila Dom Bosco",
        "street": "Rua Amparo",
        "zipcode": "18409-420"
    },
    {
        "city": "Itapeva",
        "state": "SP",
        "district": "Conjunto Habitacional Tancredo Neves",
        "street": "Rua Aristides Franco de Moraes",
        "zipcode": "18410-390"
    },
    {
        "city": "Itapeva",
        "state": "SP",
        "district": "Vila Dom Bosco",
        "street": "Rua Assis",
        "zipcode": "18409-480"
    },
    {
        "city": "Itapeva",
        "state": "SP",
        "district": "Conjunto Habitacional Tancredo Neves",
        "street": "Avenida B",
        "zipcode": "18410-220"
    },
    {
        "city": "Itapeva",
        "state": "SP",
        "district": "Vila Dom Bosco",
        "street": "Rua Barueri",
        "zipcode": "18409-400"
    },
    {
        "city": "Itapeva",
        "state": "SP",
        "district": "Parque Cimentolândia",
        "street": "Rua Caconde",
        "zipcode": "18409-580"
    },
    {
        "city": "Itapeva",
        "state": "SP",
        "district": "Vila Nova",
        "street": "Rua Cerquilho",
        "zipcode": "18410-170"
    },
    {
        "city": "Itapeva",
        "state": "SP",
        "district": "Conjunto Habitacional Tancredo Neves",
        "street": "Rua Cláudio Alessandro Melo Amaral",
        "zipcode": "18410-307"
    },
    {
        "city": "Itapeva",
        "state": "SP",
        "district": "Conjunto Habitacional Tancredo Neves",
        "street": "Rua D",
        "zipcode": "18410-310"
    },
    {
        "city": "Itapeva",
        "state": "SP",
        "district": "Vila Dom Bosco",
        "street": "Rua Dom José Carlos de Aguirre",
        "zipcode": "18409-440"
    },
    {
        "city": "Itapeva",
        "state": "SP",
        "district": "Vila Ophélia",
        "street": "Rua Doutor Luiz Gonzaga de Souza Queiroz",
        "zipcode": "18400-814"
    },
    {
        "city": "Itapeva",
        "state": "SP",
        "district": "Conjunto Habitacional Danilo Lucano Gimenez",
        "street": "Rua Cida Campolim",
        "zipcode": "18408-710"
    },
    {
        "city": "Itapeva",
        "state": "SP",
        "district": "Vista Alegre II",
        "street": "Travessa Lázaro Baptista Barbosa",
        "zipcode": "18408-541"
    },
    {
        "city": "Itapeva",
        "state": "SP",
        "district": "Vila Dom Bosco",
        "street": "Rua Vicente Ferreira Barros",
        "zipcode": "18409-470"
    },
    {
        "city": "Itapeva",
        "state": "SP",
        "district": "Conjunto Habitacional Paulo VI",
        "street": "Praça Padre José Pássaro",
        "zipcode": "18407-390"
    },
    {
        "city": "Itapeva",
        "state": "SP",
        "district": "Conjunto Habitacional Tancredo Neves",
        "street": "Rua Fernando César Rodrigues de Oliveira",
        "zipcode": "18410-295"
    },
    {
        "city": "Itapeva",
        "state": "SP",
        "district": "Jardim Maringá",
        "street": "Rua Francisco Panis",
        "zipcode": "18407-060"
    },
    {
        "city": "Itapeva",
        "state": "SP",
        "district": "Conjunto Habitacional Tancredo Neves",
        "street": "Rua G",
        "zipcode": "18410-350"
    },
    {
        "city": "Itapeva",
        "state": "SP",
        "district": "Conjunto Habitacional Tancredo Neves",
        "street": "Rua Ivo Simeão da Silva",
        "zipcode": "18410-355"
    },
    {
        "city": "Itapeva",
        "state": "SP",
        "district": "Vila Ribas",
        "street": "Rua João Gonçalves",
        "zipcode": "18403-002"
    },
    {
        "city": "Itapeva",
        "state": "SP",
        "district": "Parque São Jorge",
        "street": "Rua Joaquim de Almeida Barros",
        "zipcode": "18409-330"
    },
    {
        "city": "Itapeva",
        "state": "SP",
        "district": "Conjunto Habitacional Tancredo Neves",
        "street": "Rua Joaquim José de Almeida",
        "zipcode": "18410-260"
    },
    {
        "city": "Itapeva",
        "state": "SP",
        "district": "Conjunto Habitacional Tancredo Neves",
        "street": "Rua José Carlos Chagas",
        "zipcode": "18410-380"
    },
    {
        "city": "Itapeva",
        "state": "SP",
        "district": "Vila Dom Bosco",
        "street": "Rua Jundiaí",
        "zipcode": "18409-390"
    },
    {
        "city": "Itapeva",
        "state": "SP",
        "district": "Conjunto Habitacional Tancredo Neves",
        "street": "Rua Lothar Leal",
        "zipcode": "18410-250"
    },
    {
        "city": "Itapeva",
        "state": "SP",
        "district": "Parque Vista Alegre",
        "street": "Rua Maria de Almeida Barros",
        "zipcode": "18401-240"
    },
    {
        "city": "Itapeva",
        "state": "SP",
        "district": "Conjunto Habitacional Tancredo Neves",
        "street": "Rua Newton Rosa",
        "zipcode": "18410-230"
    },
    {
        "city": "Itapeva",
        "state": "SP",
        "district": "Parque Cimentolândia",
        "street": "Rua Nicola Pedecino",
        "zipcode": "18409-590"
    },
    {
        "city": "Itapeva",
        "state": "SP",
        "district": "Parque Cimentolândia",
        "street": "Rua Nicolau Merege",
        "zipcode": "18409-570"
    },
    {
        "city": "Itapeva",
        "state": "SP",
        "district": "Conjunto Habitacional Tancredo Neves",
        "street": "Rua Nivaldo Ferreira Gandra",
        "zipcode": "18410-361"
    },
    {
        "city": "Itapeva",
        "state": "SP",
        "district": "Vila Nova",
        "street": "Rua das Palmeiras",
        "zipcode": "18410-130"
    },
    {
        "city": "Itapeva",
        "state": "SP",
        "district": "Vila Nova",
        "street": "Rua Paranapanema",
        "zipcode": "18410-200"
    },
    {
        "city": "Itapeva",
        "state": "SP",
        "district": "Jardim Grajaú",
        "street": "Rua Pedro Rodrigues de Oliveira",
        "zipcode": "18404-390"
    },
    {
        "city": "Itapeva",
        "state": "SP",
        "district": "Vila Nova",
        "street": "Rua Portugal",
        "zipcode": "18410-100"
    },
    {
        "city": "Itapeva",
        "state": "SP",
        "district": "Parque Cimentolândia",
        "street": "Rua Professor Antônio Felipe",
        "zipcode": "18409-520"
    },
    {
        "city": "Itapeva",
        "state": "SP",
        "district": "Vila São Francisco de Assis",
        "street": "Rua João Siqueira Pinto",
        "zipcode": "18408-563"
    },
    {
        "city": "Itapeva",
        "state": "SP",
        "district": "Conjunto Habitacional Danilo Lucano Gimenez",
        "street": "Rua Jorge Felippe",
        "zipcode": "18408-735"
    },
    {
        "city": "Itapeva",
        "state": "SP",
        "district": "Jardim Morada do Sol",
        "street": "Rua Professora Cleide Marques Proença",
        "zipcode": "18408-635"
    },
    {
        "city": "Itapeva",
        "state": "SP",
        "district": "Parque Cimentolândia",
        "street": "Rua Professor Humberto Fascetti",
        "zipcode": "18409-620"
    },
    {
        "city": "Itapeva",
        "state": "SP",
        "district": "Vila Dom Bosco",
        "street": "Rua Roque do Amaral",
        "zipcode": "18409-370"
    },
    {
        "city": "Itapeva",
        "state": "SP",
        "district": "Vila Nova",
        "street": "Rua Santa Cruz",
        "zipcode": "18410-150"
    },
    {
        "city": "Itapeva",
        "state": "SP",
        "district": "Vila Nova",
        "street": "Rua São Paulo",
        "zipcode": "18410-070"
    },
    {
        "city": "Itapeva",
        "state": "SP",
        "district": "Vila Dom Bosco",
        "street": "Travessa do Sol Nascente",
        "zipcode": "18409-360"
    },
    {
        "city": "Itapeva",
        "state": "SP",
        "district": "Parque Cimentolândia",
        "street": "Rua Valentim Rossi",
        "zipcode": "18409-550"
    },
    {
        "city": "Itapeva",
        "state": "SP",
        "district": "Jardim Ferrari",
        "street": "Rua Prefeito Felipe Marinho",
        "zipcode": "18405-070"
    },
    {
        "city": "Itapeva",
        "state": "SP",
        "district": "Parque Cimentolândia",
        "street": "Rua Cornélio Vieira da Cruz",
        "zipcode": "18409-510"
    },
    {
        "city": "Itapeva",
        "state": "SP",
        "district": "Vila Nova",
        "street": "Rua Barão do Rio Branco",
        "zipcode": "18410-060"
    },
    {
        "city": "Itapeva",
        "state": "SP",
        "district": "Vila Nova",
        "street": "Rua Itapira",
        "zipcode": "18410-140"
    },
    {
        "city": "Itapeva",
        "state": "SP",
        "district": "Jardim Primavera",
        "street": "Rua José de Oliveira Costa",
        "zipcode": "18409-650"
    },
    {
        "city": "Itapeva",
        "state": "SP",
        "district": "Distrito Industrial",
        "street": "Rua Antônio Moulatlet",
        "zipcode": "18410-610"
    },
    {
        "city": "Itapeva",
        "state": "SP",
        "district": "Vila Isabel",
        "street": "Rua Aracaiba",
        "zipcode": "18411-440"
    },
    {
        "city": "Itapeva",
        "state": "SP",
        "district": "Vila Taquari",
        "street": "Rua Arthur do Amaral Camargo",
        "zipcode": "18408-430"
    },
    {
        "city": "Itapeva",
        "state": "SP",
        "district": "Jardim São Francisco",
        "street": "Rua Augusto Batista do Canto",
        "zipcode": "18411-070"
    },
    {
        "city": "Itapeva",
        "state": "SP",
        "district": "Vila Aparecida",
        "street": "Rua Brasília",
        "zipcode": "18401-140"
    },
    {
        "city": "Itapeva",
        "state": "SP",
        "district": "Jardim Virgínia",
        "street": "Avenida Cândido Rodrigues",
        "zipcode": "18411-250"
    },
    {
        "city": "Itapeva",
        "state": "SP",
        "district": "Parque Vista Alegre",
        "street": "Rua Carlos Rocha Amorim",
        "zipcode": "18401-270"
    },
    {
        "city": "Itapeva",
        "state": "SP",
        "district": "Vila Isabel",
        "street": "Rua Carmino Farina",
        "zipcode": "18411-400"
    },
    {
        "city": "Itapeva",
        "state": "SP",
        "district": "Centro",
        "street": "Rua Clóvis Mendes Garcia",
        "zipcode": "18400-085"
    },
    {
        "city": "Itapeva",
        "state": "SP",
        "district": "Centro",
        "street": "Rua Crescencio Vasconcelos",
        "zipcode": "18400-590"
    },
    {
        "city": "Itapeva",
        "state": "SP",
        "district": "Vila Bom Jesus",
        "street": "Rua Dorinezio de Almeida",
        "zipcode": "18400-720"
    },
    {
        "city": "Itapeva",
        "state": "SP",
        "district": "Parque Cimentolândia",
        "street": "Rua Doutor Estelita Ribas",
        "zipcode": "18409-560"
    },
    {
        "city": "Itapeva",
        "state": "SP",
        "district": "Vila Ophélia",
        "street": "Rua Doutor Érico Pimentel Dias",
        "zipcode": "18400-811"
    },
    {
        "city": "Itapeva",
        "state": "SP",
        "district": "Centro",
        "street": "Rua Ernesto de Camargo",
        "zipcode": "18400-400"
    },
    {
        "city": "Itapeva",
        "state": "SP",
        "district": "Centro",
        "street": "Rua Faxina",
        "zipcode": "18400-160"
    },
    {
        "city": "Itapeva",
        "state": "SP",
        "district": "Jardim Virgínia",
        "street": "Rua Félicio Tortelli",
        "zipcode": "18411-190"
    },
    {
        "city": "Itapeva",
        "state": "SP",
        "district": "Vila Nova",
        "street": "Rua Guareí",
        "zipcode": "18411-010"
    },
    {
        "city": "Itapeva",
        "state": "SP",
        "district": "Vila Isabel",
        "street": "Rua Itararé",
        "zipcode": "18411-470"
    },
    {
        "city": "Itapeva",
        "state": "SP",
        "district": "Jardim Guanabara",
        "street": "Rua João Leme Trindade",
        "zipcode": "18411-270"
    },
    {
        "city": "Itapeva",
        "state": "SP",
        "district": "Conjunto Habitacional Danilo Lucano Gimenez",
        "street": "Rua Tadeu Benedito Gonçalves",
        "zipcode": "18408-743"
    },
    {
        "city": "Itapeva",
        "state": "SP",
        "district": "Vila Nossa Senhora de Fátima",
        "street": "Rua João Manoel de Almeida Camargo",
        "zipcode": "18409-140"
    },
    {
        "city": "Itapeva",
        "state": "SP",
        "district": "Jardim Doutor Pinheiro",
        "street": "Rua José Basílio Araújo Ferraz",
        "zipcode": "18400-600"
    },
    {
        "city": "Itapeva",
        "state": "SP",
        "district": "Vila Aparecida",
        "street": "Rua José Ferrari",
        "zipcode": "18401-020"
    },
    {
        "city": "Itapeva",
        "state": "SP",
        "district": "Vila Santana",
        "street": "Rua José Gomes",
        "zipcode": "18400-800"
    },
    {
        "city": "Itapeva",
        "state": "SP",
        "district": "Jardim Virgínia",
        "street": "Rua José Roberto Coelho de Almeida",
        "zipcode": "18411-180"
    },
    {
        "city": "Itapeva",
        "state": "SP",
        "district": "Distrito Industrial",
        "street": "Avenida Kazumi Yoshimura",
        "zipcode": "18410-480"
    },
    {
        "city": "Itapeva",
        "state": "SP",
        "district": "Vila Isabel",
        "street": "Avenida Kazumi Yoshimura",
        "zipcode": "18411-390"
    },
    {
        "city": "Itapeva",
        "state": "SP",
        "district": "Vila Nova",
        "street": "Rua da Liberdade",
        "zipcode": "18411-000"
    },
    {
        "city": "Itapeva",
        "state": "SP",
        "district": "Jardim Belvedere",
        "street": "Rua das Margaridas",
        "zipcode": "18401-470"
    },
    {
        "city": "Itapeva",
        "state": "SP",
        "district": "Centro",
        "street": "Rua Martinho Carneiro",
        "zipcode": "18400-460"
    },
    {
        "city": "Itapeva",
        "state": "SP",
        "district": "Jardim Virgínia",
        "street": "Rua Mauri Mancebo Vanni",
        "zipcode": "18411-130"
    },
    {
        "city": "Itapeva",
        "state": "SP",
        "district": "Conjunto Habitacional Tancredo Neves",
        "street": "Rua Pedro Cadena",
        "zipcode": "18410-430"
    },
    {
        "city": "Itapeva",
        "state": "SP",
        "district": "Vila Isabel",
        "street": "Rua Piraju",
        "zipcode": "18411-430"
    },
    {
        "city": "Itapeva",
        "state": "SP",
        "district": "Distrito Industrial",
        "street": "Rua Quinto Cavani",
        "zipcode": "18410-620"
    },
    {
        "city": "Itapeva",
        "state": "SP",
        "district": "Jardim Belvedere",
        "street": "Avenida dos Revolucionários de 32",
        "zipcode": "18401-440"
    },
    {
        "city": "Itapeva",
        "state": "SP",
        "district": "Jardim Virgínia",
        "street": "Rua Rui França",
        "zipcode": "18411-120"
    },
    {
        "city": "Itapeva",
        "state": "SP",
        "district": "Distrito Industrial",
        "street": "Rua Alfredo Moreira de Souza",
        "zipcode": "18410-640"
    },
    {
        "city": "Itapeva",
        "state": "SP",
        "district": "Vila Ophélia",
        "street": "Rua Teófilo David Muzel",
        "zipcode": "18400-816"
    },
    {
        "city": "Itapeva",
        "state": "SP",
        "district": "Jardim Virgínia",
        "street": "Rua Um",
        "zipcode": "18411-150"
    },
    {
        "city": "Itapeva",
        "state": "SP",
        "district": "Conjunto Habitacional Tancredo Neves",
        "street": "Rua Honorato Carneiro Faria",
        "zipcode": "18410-450"
    },
    {
        "city": "Itapeva",
        "state": "SP",
        "district": "Parque Cimentolândia",
        "street": "Rua Miguel da Silva Gouveia",
        "zipcode": "18409-645"
    },
    {
        "city": "Itapeva",
        "state": "SP",
        "district": "Jardim São Francisco",
        "street": "Rua João Brustolini",
        "zipcode": "18411-100"
    },
    {
        "city": "Itapeva",
        "state": "SP",
        "district": "Jardim Virgínia",
        "street": "Rua Zianir Pires de Oliveira",
        "zipcode": "18411-220"
    },
    {
        "city": "Itapeva",
        "state": "SP",
        "district": "Vila Bom Jesus",
        "street": "Rua Capão Bonito",
        "zipcode": "18400-690"
    },
    {
        "city": "Itapeva",
        "state": "SP",
        "district": "Jardim Virgínia",
        "street": "Rua Dona Julia",
        "zipcode": "18411-110"
    },
    {
        "city": "Itapeva",
        "state": "SP",
        "district": "Conjunto Habitacional Tancredo Neves",
        "street": "Rua Joaquim Bento de Oliveira Júnior",
        "zipcode": "18410-420"
    },
    {
        "city": "Itapeva",
        "state": "SP",
        "district": "Jardim Virgínia",
        "street": "Rua José Ricardo de Oliveira",
        "zipcode": "18411-170"
    },
    {
        "city": "Itapeva",
        "state": "SP",
        "district": "Vila Aparecida",
        "street": "Rua Padre Manoel de Barros",
        "zipcode": "18401-090"
    },
    {
        "city": "Itapeva",
        "state": "SP",
        "district": "Vila Nova",
        "street": "Rua Santa Rita",
        "zipcode": "18411-020"
    },
    {
        "city": "Itapeva",
        "state": "SP",
        "district": "Jardim São Francisco",
        "street": "Rua Imperador",
        "zipcode": "18411-040"
    },
    {
        "city": "Itapeva",
        "state": "SP",
        "district": "Centro",
        "street": "Rua Campos Sales",
        "zipcode": "18400-190"
    },
    {
        "city": "Itapeva",
        "state": "SP",
        "district": "Jardim Santa Marina",
        "street": "Rua Próspero José Perreti",
        "zipcode": "18401-340"
    },
    {
        "city": "Itapeva",
        "state": "SP",
        "district": "Jardim Bela Vista",
        "street": "Rua Ala Domingues da Silva",
        "zipcode": "18412-040"
    },
    {
        "city": "Itapeva",
        "state": "SP",
        "district": "Central Park",
        "street": "Rua Antonino Artale",
        "zipcode": "18406-010"
    },
    {
        "city": "Itapeva",
        "state": "SP",
        "district": "Jardim Ferrari",
        "street": "Rua Augusto do Amaral",
        "zipcode": "18405-090"
    },
    {
        "city": "Itapeva",
        "state": "SP",
        "district": "Jardim Ferrari",
        "street": "Rua Benjamin Constant",
        "zipcode": "18405-000"
    },
    {
        "city": "Itapeva",
        "state": "SP",
        "district": "Jardim Dona Miriam",
        "street": "Rua Celso Correa Vilão",
        "zipcode": "18406-150"
    },
    {
        "city": "Itapeva",
        "state": "SP",
        "district": "Jardim Bela Vista",
        "street": "Rua Balbino Rosa de Melo",
        "zipcode": "18412-100"
    },
    {
        "city": "Itapeva",
        "state": "SP",
        "district": "Jardim Santa Rosa",
        "street": "Rua Evaristo Martins Silva",
        "zipcode": "18405-180"
    },
    {
        "city": "Itapeva",
        "state": "SP",
        "district": "Jardim Califórnia",
        "street": "Rua Florentino Bueno de Camargo",
        "zipcode": "18406-080"
    },
    {
        "city": "Itapeva",
        "state": "SP",
        "district": "Jardim Europa",
        "street": "Rua França",
        "zipcode": "18406-430"
    },
    {
        "city": "Itapeva",
        "state": "SP",
        "district": "Jardim Bela Vista",
        "street": "Rua Francisco Vaz de Oliveira",
        "zipcode": "18412-050"
    },
    {
        "city": "Itapeva",
        "state": "SP",
        "district": "Jardim Paulista",
        "street": "Rua Gregôrio de Oliveira",
        "zipcode": "18405-340"
    },
    {
        "city": "Itapeva",
        "state": "SP",
        "district": "Vila São José",
        "street": "Rua Jacinto Buffa",
        "zipcode": "18404-110"
    },
    {
        "city": "Itapeva",
        "state": "SP",
        "district": "Jardim América I",
        "street": "Rua João Franca Sobrinho",
        "zipcode": "18406-300"
    },
    {
        "city": "Itapeva",
        "state": "SP",
        "district": "Jardim São Francisco",
        "street": "Rua José Evandro dos Santos",
        "zipcode": "18411-050"
    },
    {
        "city": "Itapeva",
        "state": "SP",
        "district": "Vila Santa Maria",
        "street": "Rua José Loureiro",
        "zipcode": "18402-107"
    },
    {
        "city": "Itapeva",
        "state": "SP",
        "district": "Jardim Grajaú",
        "street": "Estrada Municipal",
        "zipcode": "18404-310"
    },
    {
        "city": "Itapeva",
        "state": "SP",
        "district": "Colina dos Pinheiros",
        "street": "Rua Oito",
        "zipcode": "18402-080"
    },
    {
        "city": "Itapeva",
        "state": "SP",
        "district": "Jardim Bela Vista",
        "street": "Rua Hortência Santana de Melo",
        "zipcode": "18412-110"
    },
    {
        "city": "Itapeva",
        "state": "SP",
        "district": "Parque Paineiras",
        "street": "Alameda Pinheiros",
        "zipcode": "18405-440"
    },
    {
        "city": "Itapeva",
        "state": "SP",
        "district": "Jardim Europa",
        "street": "Rua Polônia",
        "zipcode": "18406-350"
    },
    {
        "city": "Itapeva",
        "state": "SP",
        "district": "Jardim São Francisco",
        "street": "Rua Professor Rubens Fernando de Almeida",
        "zipcode": "18411-065"
    },
    {
        "city": "Itapeva",
        "state": "SP",
        "district": "Conjunto Habitacional Tancredo Neves",
        "street": "Praça dos Trabalhadores",
        "zipcode": "18410-363"
    },
    {
        "city": "Itapeva",
        "state": "SP",
        "district": "Colina dos Pinheiros",
        "street": "Rua Quatro",
        "zipcode": "18402-040"
    },
    {
        "city": "Itapeva",
        "state": "SP",
        "district": "Parque Planalto",
        "street": "Rua Quatro",
        "zipcode": "18402-330"
    },
    {
        "city": "Itapeva",
        "state": "SP",
        "district": "Jardim Paulista",
        "street": "Rua Reverendo Uriel Antunes de Moura",
        "zipcode": "18405-300"
    },
    {
        "city": "Itapeva",
        "state": "SP",
        "district": "Central Park",
        "street": "Avenida Ricardo Campolim de Almeida Neto",
        "zipcode": "18406-050"
    },
    {
        "city": "Itapeva",
        "state": "SP",
        "district": "Jardim Nova Itapeva",
        "street": "Rua Rodis Gomes de Abreu",
        "zipcode": "18401-680"
    },
    {
        "city": "Itapeva",
        "state": "SP",
        "district": "Jardim Beija",
        "street": "Rua Ruben Alves Janeiro",
        "zipcode": "18401-630"
    },
    {
        "city": "Itapeva",
        "state": "SP",
        "district": "Vila São José",
        "street": "Rua Salim Demétrio",
        "zipcode": "18404-105"
    },
    {
        "city": "Itapeva",
        "state": "SP",
        "district": "Vila Ribas",
        "street": "Rua São Benedito",
        "zipcode": "18403-000"
    },
    {
        "city": "Itapeva",
        "state": "SP",
        "district": "Vila Isabel",
        "street": "Rua São Miguel Arcanjo",
        "zipcode": "18411-480"
    },
    {
        "city": "Itapeva",
        "state": "SP",
        "district": "Parque Residencial Itapeva",
        "street": "Rua Saturnino Benedito de Souza",
        "zipcode": "18406-191"
    },
    {
        "city": "Itapeva",
        "state": "SP",
        "district": "Jardim Pôr do Sol",
        "street": "Rua Valdemar José Ramos",
        "zipcode": "18403-080"
    },
    {
        "city": "Itapeva",
        "state": "SP",
        "district": "Bairro de Cima",
        "street": "Rua Moisés de Almeida",
        "zipcode": "18404-507"
    },
    {
        "city": "Itapeva",
        "state": "SP",
        "district": "Bairro de Cima",
        "street": "Rua João Leme da Silva",
        "zipcode": "18404-516"
    },
    {
        "city": "Itapeva",
        "state": "SP",
        "district": "Centro",
        "street": "Praça Duque de Caxias",
        "zipcode": "18400-900"
    },
    {
        "city": "Itapeva",
        "state": "SP",
        "district": "Conjunto Habitacional Jardim Vitória",
        "street": "Praça Emilio Branco",
        "zipcode": "18403-225"
    },
    {
        "city": "Itapeva",
        "state": "SP",
        "district": "Jardim Guanabara",
        "street": "Rua Luiz de Souza Camargo",
        "zipcode": "18411-260"
    },
    {
        "city": "Itapeva",
        "state": "SP",
        "district": "Conjunto Habitacional Jardim Vitória",
        "street": "Rua Amador Batista Rosa",
        "zipcode": "18403-215"
    },
    {
        "city": "Itapeva",
        "state": "SP",
        "district": "Vila Aparecida",
        "street": "Praça Tito Livio Cerioni",
        "zipcode": "18401-170"
    },
    {
        "city": "Itapeva",
        "state": "SP",
        "district": "Vila Isabel",
        "street": "Rua José Mariano Rodrigues",
        "zipcode": "18411-490"
    },
    {
        "city": "Itapeva",
        "state": "SP",
        "district": "Jardim Brasil",
        "street": "Rua Maria Francisca Nepomuceno",
        "zipcode": "18405-210"
    },
    {
        "city": "Itapeva",
        "state": "SP",
        "district": "Vila Bom Jesus",
        "street": "Rua Antenor de Almeida Bueno",
        "zipcode": "18400-711"
    },
    {
        "city": "Itapeva",
        "state": "SP",
        "district": "Conjunto Habitacional Jardim Vitória",
        "street": "Rua Pedreiro Joaquim dos Santos",
        "zipcode": "18403-209"
    },
    {
        "city": "Itapeva",
        "state": "SP",
        "district": "Conjunto Habitacional Jardim Vitória",
        "street": "Rua Palmira Aparecida de Andrade",
        "zipcode": "18403-222"
    },
    {
        "city": "Itapeva",
        "state": "SP",
        "district": "Parque Paineiras",
        "street": "Alameda das Paineiras",
        "zipcode": "18405-410"
    },
    {
        "city": "Itapeva",
        "state": "SP",
        "district": "Jardim Grajaú",
        "street": "Rua Sílvio Cardoso Del Tedesco",
        "zipcode": "18404-340"
    },
    {
        "city": "Itapeva",
        "state": "SP",
        "district": "Vila Isabel",
        "street": "Rua Votorantim",
        "zipcode": "18411-500"
    },
    {
        "city": "Itapeva",
        "state": "SP",
        "district": "Jardim Bela Vista",
        "street": "Rua Neuza Rosa dos Santos",
        "zipcode": "18412-030"
    },
    {
        "city": "Itapeva",
        "state": "SP",
        "district": "Jardim Beija",
        "street": "Rua Emiliana Santiago Machado",
        "zipcode": "18401-580"
    },
    {
        "city": "Itapeva",
        "state": "SP",
        "district": "Vila São José",
        "street": "Rua Adil Bernadino",
        "zipcode": "18404-100"
    },
    {
        "city": "Itapeva",
        "state": "SP",
        "district": "Jardim Bela Vista",
        "street": "Estrada Municipal",
        "zipcode": "18412-130"
    },
    {
        "city": "Itapeva",
        "state": "SP",
        "district": "Jardim Bela Vista",
        "street": "Rua Maria do Carmo Melo",
        "zipcode": "18412-070"
    },
    {
        "city": "Itapeva",
        "state": "SP",
        "district": "Jardim Maringá",
        "street": "Rua Atila Martins Bonilha",
        "zipcode": "18407-050"
    },
    {
        "city": "Itapeva",
        "state": "SP",
        "district": "Conjunto Habitacional São Camilo",
        "street": "Rua Benedita de Jesus Barros",
        "zipcode": "18408-130"
    },
    {
        "city": "Itapeva",
        "state": "SP",
        "district": "Vista Alegre II",
        "street": "Rua Benedito Schimidt de Barros",
        "zipcode": "18408-530"
    },
    {
        "city": "Itapeva",
        "state": "SP",
        "district": "Vila Nova",
        "street": "Avenida Brasil",
        "zipcode": "18410-010"
    },
    {
        "city": "Itapeva",
        "state": "SP",
        "district": "Parque Cimentolândia",
        "street": "Rua César Belezia",
        "zipcode": "18409-600"
    },
    {
        "city": "Itapeva",
        "state": "SP",
        "district": "Jardim Maringá",
        "street": "Avenida Dona Paulina de Morais",
        "zipcode": "18407-110"
    },
    {
        "city": "Itapeva",
        "state": "SP",
        "district": "Parque Cimentolândia",
        "street": "Rua Emílio Simonini",
        "zipcode": "18409-500"
    },
    {
        "city": "Itapeva",
        "state": "SP",
        "district": "Conjunto Habitacional Tancredo Neves",
        "street": "Rua F",
        "zipcode": "18410-320"
    },
    {
        "city": "Itapeva",
        "state": "SP",
        "district": "Conjunto Habitacional Tancredo Neves",
        "street": "Rua dos Ferroviários",
        "zipcode": "18410-290"
    },
    {
        "city": "Itapeva",
        "state": "SP",
        "district": "Parque São Jorge",
        "street": "Rua Francisco Lucas de Almeida",
        "zipcode": "18409-290"
    },
    {
        "city": "Itapeva",
        "state": "SP",
        "district": "Vila Boava",
        "street": "Rua Garça",
        "zipcode": "18408-040"
    },
    {
        "city": "Itapeva",
        "state": "SP",
        "district": "Conjunto Habitacional Tancredo Neves",
        "street": "Rua Geni Kuntz Lacerda",
        "zipcode": "18410-400"
    },
    {
        "city": "Itapeva",
        "state": "SP",
        "district": "Vila Taquari",
        "street": "Rua da Glória",
        "zipcode": "18408-470"
    },
    {
        "city": "Itapeva",
        "state": "SP",
        "district": "Horto do Ipê",
        "street": "Rua Handley Thomaz",
        "zipcode": "18409-180"
    },
    {
        "city": "Itapeva",
        "state": "SP",
        "district": "Vila Boava",
        "street": "Rua Itatiba",
        "zipcode": "18408-010"
    },
    {
        "city": "Itapeva",
        "state": "SP",
        "district": "Conjunto Habitacional São Camilo",
        "street": "Rua Izabel Faria Mello",
        "zipcode": "18408-250"
    },
    {
        "city": "Itapeva",
        "state": "SP",
        "district": "Jardim Maringá",
        "street": "Rua João Luiz da Costa",
        "zipcode": "18407-000"
    },
    {
        "city": "Itapeva",
        "state": "SP",
        "district": "Parque Cimentolândia",
        "street": "Rua Joaquim Ubaldo Rodrigues",
        "zipcode": "18409-540"
    },
    {
        "city": "Itapeva",
        "state": "SP",
        "district": "Vila Sonia",
        "street": "Rua José Martins Margarido",
        "zipcode": "18409-220"
    },
    {
        "city": "Itapeva",
        "state": "SP",
        "district": "Vila Nova",
        "street": "Rua Maranhão",
        "zipcode": "18410-160"
    },
    {
        "city": "Itapeva",
        "state": "SP",
        "district": "Jardim Ferrari",
        "street": "Rua Mário Prandini",
        "zipcode": "18405-020"
    },
    {
        "city": "Itapeva",
        "state": "SP",
        "district": "Vila Nossa Senhora de Fátima",
        "street": "Rua Paraíso",
        "zipcode": "18409-030"
    },
    {
        "city": "Itapeva",
        "state": "SP",
        "district": "Vila Guarani",
        "street": "Rua Paraná",
        "zipcode": "18407-220"
    },
    {
        "city": "Itapeva",
        "state": "SP",
        "district": "Parque São Jorge",
        "street": "Rua Paulo Petzold",
        "zipcode": "18409-340"
    },
    {
        "city": "Itapeva",
        "state": "SP",
        "district": "Conjunto Habitacional Paulo VI",
        "street": "Rua Salvador Bueno de Melo",
        "zipcode": "18407-310"
    },
    {
        "city": "Itapeva",
        "state": "SP",
        "district": "Vila Nossa Senhora de Fátima",
        "street": "Rua Tupã",
        "zipcode": "18409-070"
    },
    {
        "city": "Itapeva",
        "state": "SP",
        "district": "Vila Maringá",
        "street": "Rua Um",
        "zipcode": "18408-390"
    },
    {
        "city": "Itapeva",
        "state": "SP",
        "district": "Jardim América I",
        "street": "Rua Uruguai",
        "zipcode": "18406-270"
    },
    {
        "city": "Itapeva",
        "state": "SP",
        "district": "Conjunto Habitacional Tancredo Neves",
        "street": "Rua Vereador André Barranco Segobia",
        "zipcode": "18410-440"
    },
    {
        "city": "Itapeva",
        "state": "SP",
        "district": "Vila Maringá",
        "street": "Rua Cinco",
        "zipcode": "18408-420"
    },
    {
        "city": "Itapeva",
        "state": "SP",
        "district": "Vila Nova",
        "street": "Rua Rio de Janeiro",
        "zipcode": "18410-210"
    },
    {
        "city": "Itapeva",
        "state": "SP",
        "district": "Jardim Morada do Sol",
        "street": "Rua Narciso Gomes Teixeira",
        "zipcode": "18408-600"
    },
    {
        "city": "Itapeva",
        "state": "SP",
        "district": "Bairro de Cima",
        "street": "Rua Severino Alves Rodrigues de Oliveira",
        "zipcode": "18404-510"
    },
    {
        "city": "Itapeva",
        "state": "SP",
        "district": "Distrito Industrial",
        "street": "Rua Benedito Santos",
        "zipcode": "18410-615"
    },
    {
        "city": "Itapeva",
        "state": "SP",
        "district": "Jardim Morada do Sol",
        "street": "Rua Andrésia Jesus de Lima",
        "zipcode": "18408-620"
    },
    {
        "city": "Itapeva",
        "state": "SP",
        "district": "Jardim Morada do Sol",
        "street": "Rua Otília da Silva Santos",
        "zipcode": "18408-653"
    },
    {
        "city": "Itapeva",
        "state": "SP",
        "district": "Bairro de Cima",
        "street": "Rua Durville Leme da Silva",
        "zipcode": "18404-512"
    },
    {
        "city": "Itapeva",
        "state": "SP",
        "district": "Parque Planalto",
        "street": "Rua Aparecida Rodrigues Ribeiro",
        "zipcode": "18402-322"
    },
    {
        "city": "Itapeva",
        "state": "SP",
        "district": "Bairro de Cima",
        "street": "Rua Antonio de Souza Lima",
        "zipcode": "18404-505"
    },
    {
        "city": "Itapeva",
        "state": "SP",
        "district": "Jardim Brasil",
        "street": "Rua Pedro Siqueira Pinto",
        "zipcode": "18405-230"
    },
    {
        "city": "Itapeva",
        "state": "SP",
        "district": "Bairro de Cima",
        "street": "Rua Joaquim Domingues de Oliveira",
        "zipcode": "18404-522"
    },
    {
        "city": "Itapeva",
        "state": "SP",
        "district": "Jardim Bela Vista",
        "street": "Rua Olmiro de Campos Pereira",
        "zipcode": "18412-120"
    },
    {
        "city": "Itapeva",
        "state": "SP",
        "district": "Bairro de Cima",
        "street": "Rua Hilda Frida Gehring Gemignani",
        "zipcode": "18404-525"
    },
    {
        "city": "Itapeva",
        "state": "SP",
        "district": "Vila São Miguel",
        "street": "Praça Solom de Oliveira",
        "zipcode": "18404-160"
    },
    {
        "city": "Itapeva",
        "state": "SP",
        "district": "Jardim Europa",
        "street": "Rua Francisco Jorge Stuart Filho",
        "zipcode": "18406-381"
    },
    {
        "city": "Itapeva",
        "state": "SP",
        "district": "Jardim Brasil",
        "street": "Rua Dezenove",
        "zipcode": "18405-220"
    },
    {
        "city": "Itapeva",
        "state": "SP",
        "district": "Jardim Maringá IV",
        "street": "Rua Prefeito Mário Cerdeira",
        "zipcode": "18407-184"
    },
    {
        "city": "Itapeva",
        "state": "SP",
        "district": "Jardim Morada do Sol",
        "street": "Rua José Gonçalves Aguiar",
        "zipcode": "18408-645"
    },
    {
        "city": "Itapeva",
        "state": "SP",
        "district": "Jardim Virgínia",
        "street": "Rua Alia Chuieri Martins",
        "zipcode": "18411-160"
    },
    {
        "city": "Itapeva",
        "state": "SP",
        "district": "Jardim Beija",
        "street": "Rua Amaury Moreira de Souza",
        "zipcode": "18401-600"
    },
    {
        "city": "Itapeva",
        "state": "SP",
        "district": "Vila Isabel",
        "street": "Rua Angatuba",
        "zipcode": "18411-420"
    },
    {
        "city": "Itapeva",
        "state": "SP",
        "district": "Vila Nova",
        "street": "Rua Botucatu",
        "zipcode": "18410-030"
    },
    {
        "city": "Itapeva",
        "state": "SP",
        "district": "Vila Santa Maria",
        "street": "Rua Benedito dos Santos Vieira",
        "zipcode": "18402-109"
    },
    {
        "city": "Itapeva",
        "state": "SP",
        "district": "Vila Aparecida",
        "street": "Rua Jales",
        "zipcode": "18401-110"
    },
    {
        "city": "Itapeva",
        "state": "SP",
        "district": "Jardim Maringá",
        "street": "Rua João Antunes de Moura",
        "zipcode": "18407-015"
    },
    {
        "city": "Itapeva",
        "state": "SP",
        "district": "Conjunto Habitacional São Camilo",
        "street": "Rua João Benedito Ferreira de Mello",
        "zipcode": "18408-060"
    },
    {
        "city": "Itapeva",
        "state": "SP",
        "district": "Jardim Bela Vista",
        "street": "Rua João Rodrigues Jardim",
        "zipcode": "18412-020"
    },
    {
        "city": "Itapeva",
        "state": "SP",
        "district": "Vila Santa Maria",
        "street": "Rua Joaquim Marques de Freitas",
        "zipcode": "18402-102"
    },
    {
        "city": "Itapeva",
        "state": "SP",
        "district": "Jardim Pôr do Sol",
        "street": "Rua José Carlos Fontes Ferreira",
        "zipcode": "18403-070"
    },
    {
        "city": "Itapeva",
        "state": "SP",
        "district": "Jardim Ferrari",
        "street": "Rua José Cavani",
        "zipcode": "18405-009"
    },
    {
        "city": "Itapeva",
        "state": "SP",
        "district": "Jardim Virgínia",
        "street": "Rua José Lara",
        "zipcode": "18411-240"
    },
    {
        "city": "Itapeva",
        "state": "SP",
        "district": "Parque Residencial Itapeva",
        "street": "Rua José Macedo Arantes",
        "zipcode": "18406-225"
    },
    {
        "city": "Itapeva",
        "state": "SP",
        "district": "Distrito Industrial",
        "street": "Rua Luiz Pimentel Matos",
        "zipcode": "18410-630"
    },
    {
        "city": "Itapeva",
        "state": "SP",
        "district": "Jardim Bela Vista",
        "street": "Rua Dirley Carlos Machado",
        "zipcode": "18412-090"
    },
    {
        "city": "Itapeva",
        "state": "SP",
        "district": "Parque Vista Alegre",
        "street": "Rua Osório Ferreira Gomes",
        "zipcode": "18401-260"
    },
    {
        "city": "Itapeva",
        "state": "SP",
        "district": "Vila Santa Maria",
        "street": "Rua Pedro de Almeida Ramos",
        "zipcode": "18402-111"
    },
    {
        "city": "Itapeva",
        "state": "SP",
        "district": "Jardim Virgínia",
        "street": "Rua Pedro Rodrigues Proença",
        "zipcode": "18411-200"
    },
    {
        "city": "Itapeva",
        "state": "SP",
        "district": "Conjunto Habitacional Tancredo Neves",
        "street": "Rua Professor Eurico Ferreira Mello",
        "zipcode": "18410-460"
    },
    {
        "city": "Itapeva",
        "state": "SP",
        "district": "Conjunto Habitacional São Camilo",
        "street": "Rua Professora Rachel de Melo Souza Amorim",
        "zipcode": "18408-080"
    },
    {
        "city": "Itapeva",
        "state": "SP",
        "district": "Centro",
        "street": "Rua Doutor Ricardo Watherli",
        "zipcode": "18400-390"
    },
    {
        "city": "Itapeva",
        "state": "SP",
        "district": "Vila Nova",
        "street": "Rua São João",
        "zipcode": "18411-030"
    },
    {
        "city": "Itapeva",
        "state": "SP",
        "district": "Jardim Maringá",
        "street": "Rua Sebastião Nóbrega da Silva",
        "zipcode": "18407-080"
    },
    {
        "city": "Itapeva",
        "state": "SP",
        "district": "Jardim Guanabara",
        "street": "Rua Marcolino Gomes de Oliveira",
        "zipcode": "18411-280"
    },
    {
        "city": "Itapeva",
        "state": "SP",
        "district": "Conjunto Habitacional São Camilo",
        "street": "Rua Trinta (30)",
        "zipcode": "18408-350"
    },
    {
        "city": "Itapeva",
        "state": "SP",
        "district": "Conjunto Habitacional São Camilo",
        "street": "Rua Zacarias Augusto Pimentel",
        "zipcode": "18408-090"
    },
    {
        "city": "Itapeva",
        "state": "SP",
        "district": "Bairro de Cima",
        "street": "Rua Lucrécio de Almeida Leite",
        "zipcode": "18404-514"
    },
    {
        "city": "Itapeva",
        "state": "SP",
        "district": "Kantiã",
        "street": "Rua Nagib Rodrigues de Almeida",
        "zipcode": "18412-151"
    },
    {
        "city": "Itapeva",
        "state": "SP",
        "district": "Parque Planalto",
        "street": "Rua Vera Lúcia Chrischner",
        "zipcode": "18402-315"
    },
    {
        "city": "Itapeva",
        "state": "SP",
        "district": "Kantiã",
        "street": "Rua Antonia Rodrigues Lopes",
        "zipcode": "18412-153"
    },
    {
        "city": "Itapeva",
        "state": "SP",
        "district": "Kantiã",
        "street": "Rua José Teixeira Pinto",
        "zipcode": "18412-157"
    },
    {
        "city": "Itapeva",
        "state": "SP",
        "district": "Kantiã",
        "street": "Rua Josefa Maria Silva",
        "zipcode": "18412-161"
    },
    {
        "city": "Itapeva",
        "state": "SP",
        "district": "Jardim Morada do Sol",
        "street": "Rua Guilherme Francisco Martho",
        "zipcode": "18408-655"
    },
    {
        "city": "Itapeva",
        "state": "SP",
        "district": "Jardim Brasil",
        "street": "Rua João Batista Vieira Santos",
        "zipcode": "18405-212"
    },
    {
        "city": "Itapeva",
        "state": "SP",
        "district": "Jardim Brasil",
        "street": "Rua Adelço Buhrer",
        "zipcode": "18405-235"
    },
    {
        "city": "Itapeva",
        "state": "SP",
        "district": "Loteamento Longa Vida",
        "street": "Rua Maria de Lourdes Camargo",
        "zipcode": "18404-015"
    },
    {
        "city": "Itapeva",
        "state": "SP",
        "district": "Vila Dom Bosco",
        "street": "Rua Sebastião Lázaro de Melo",
        "zipcode": "18409-460"
    },
    {
        "city": "Itapeva",
        "state": "SP",
        "district": "Vila São Francisco de Assis",
        "street": "Rua Benedito Gomes de Assis",
        "zipcode": "18408-561"
    },
    {
        "city": "Itapeva",
        "state": "SP",
        "district": "Kantiã",
        "street": "Rua Maria Aparecida Chueri",
        "zipcode": "18412-155"
    },
    {
        "city": "Itapeva",
        "state": "SP",
        "district": "Vila Nossa Senhora de Fátima",
        "street": "Rua Irineo Santini",
        "zipcode": "18409-110"
    },
    {
        "city": "Itapeva",
        "state": "SP",
        "district": "Vila São Francisco de Assis",
        "street": "Rua José Fernandes de Melo",
        "zipcode": "18408-564"
    },
    {
        "city": "Itapeva",
        "state": "SP",
        "district": "Jardim Pôr do Sol",
        "street": "Rua Dina Pedroso",
        "zipcode": "18403-100"
    },
    {
        "city": "Itapeva",
        "state": "SP",
        "district": "Jardim Brasil",
        "street": "Rua Itamar Frezzatti",
        "zipcode": "18405-225"
    },
    {
        "city": "Itapeva",
        "state": "SP",
        "district": "Jardim Bonfiglioli",
        "street": "Rua Água Viva",
        "zipcode": "18402-124"
    },
    {
        "city": "Itapeva",
        "state": "SP",
        "district": "Distrito Industrial",
        "street": "Rua João Antunes de Almeida",
        "zipcode": "18410-545"
    },
    {
        "city": "Itapeva",
        "state": "SP",
        "district": "Centro",
        "street": "Praça Lourival Gomes",
        "zipcode": "18400-515"
    },
    {
        "city": "Itapeva",
        "state": "SP",
        "district": "Conjunto Habitacional Emilio de la Rua Bajo",
        "street": "Rua Orlando Ney Valcazara",
        "zipcode": "18411-515"
    },
    {
        "city": "Itapeva",
        "state": "SP",
        "district": "Conjunto Habitacional Emilio de la Rua Bajo",
        "street": "Rua Pastor Joel Batista Valadares",
        "zipcode": "18411-517"
    },
    {
        "city": "Itapeva",
        "state": "SP",
        "district": "Conjunto Habitacional Emilio de la Rua Bajo",
        "street": "Rua Euclydes Alves dos Santos",
        "zipcode": "18411-518"
    },
    {
        "city": "Itapeva",
        "state": "SP",
        "district": "Conjunto Habitacional Emilio de la Rua Bajo",
        "street": "Rua Athos Fontes Ferreira",
        "zipcode": "18411-520"
    },
    {
        "city": "Itapeva",
        "state": "SP",
        "district": "Conjunto Habitacional Emilio de la Rua Bajo",
        "street": "Rua Nair Campolim Vasconcelos",
        "zipcode": "18411-516"
    },
    {
        "city": "Itapeva",
        "state": "SP",
        "district": "Conjunto Habitacional Emilio de la Rua Bajo",
        "street": "Rua Neide Monteiro Duarte",
        "zipcode": "18411-519"
    },
    {
        "city": "Itapeva",
        "state": "SP",
        "district": "Parque São Jorge",
        "street": "Rua Boanerges Camargo",
        "zipcode": "18409-300"
    },
    {
        "city": "Itapeva",
        "state": "SP",
        "district": "Vila Bom Jesus",
        "street": "Rua Buri",
        "zipcode": "18400-730"
    },
    {
        "city": "Itapeva",
        "state": "SP",
        "district": "Vila Dom Bosco",
        "street": "Rua Dirceu Benedito de Oliveira",
        "zipcode": "18409-410"
    },
    {
        "city": "Itapeva",
        "state": "SP",
        "district": "Vila Ophélia",
        "street": "Avenida Dona Paulina de Morais",
        "zipcode": "18400-818"
    },
    {
        "city": "Itapeva",
        "state": "SP",
        "district": "Jardim América II",
        "street": "Rua Estados Unidos",
        "zipcode": "18406-340"
    },
    {
        "city": "Itapeva",
        "state": "SP",
        "district": "Parque Cimentolândia",
        "street": "Avenida Expedicionários de Itapeva",
        "zipcode": "18409-640"
    },
    {
        "city": "Itapeva",
        "state": "SP",
        "district": "Centro",
        "street": "Rua Floriano Peixoto",
        "zipcode": "18400-240"
    },
    {
        "city": "Itapeva",
        "state": "SP",
        "district": "Jardim Maringá III",
        "street": "Rua Francisca Silvana Camargo",
        "zipcode": "18407-270"
    },
    {
        "city": "Itapeva",
        "state": "SP",
        "district": "Jardim Ferrari",
        "street": "Rua João Nicolau Mendes (Gote)",
        "zipcode": "18405-006"
    },
    {
        "city": "Itapeva",
        "state": "SP",
        "district": "Jardim Maringá III",
        "street": "Rua Sezefredo Loureiro da Silveira",
        "zipcode": "18407-240"
    },
    {
        "city": "Itapeva",
        "state": "SP",
        "district": "Colina dos Pinheiros",
        "street": "Rodovia Francisco Alves Negrão",
        "zipcode": "18402-000"
    },
    {
        "city": "Itapeva",
        "state": "SP",
        "district": "Conjunto Habitacional São Camilo",
        "street": "Rua Vinte e Quatro (24)",
        "zipcode": "18408-290"
    },
    {
        "city": "Itapeva",
        "state": "SP",
        "district": "Jardim Brasil",
        "street": "Rua Cassemiro Rodrigues",
        "zipcode": "18405-206"
    },
    {
        "city": "Itapeva",
        "state": "SP",
        "district": "Vila Camargo I",
        "street": "Rua Juvenal Fiúza de Almeida",
        "zipcode": "18402-190"
    },
    {
        "city": "Itapeva",
        "state": "SP",
        "district": "Jardim Maringá",
        "street": "Avenida Dona Paulina de Morais",
        "zipcode": "18407-970"
    },
    {
        "city": "Itapeva",
        "state": "SP",
        "district": "Vila Taquari",
        "street": "Rua Eurico Fogaça de Almeida",
        "zipcode": "18408-461"
    },
    {
        "city": "Itapeva",
        "state": "SP",
        "district": "Parque São Jorge",
        "street": "Rua Prefeito João Benedito Barbosa",
        "zipcode": "18409-250"
    },
    {
        "city": "Itapeva",
        "state": "SP",
        "district": "Vila Nossa Senhora de Fátima",
        "street": "Rua Lins",
        "zipcode": "18409-040"
    },
    {
        "city": "Itapeva",
        "state": "SP",
        "district": "Centro",
        "street": "Praça Espiridião Lúcio Martins",
        "zipcode": "18400-020"
    },
    {
        "city": "Itapeva",
        "state": "SP",
        "district": "Jardim Primavera",
        "street": "Rua Mário Guimarães (Zé Caninha)",
        "zipcode": "18409-651"
    },
    {
        "city": "Itapeva",
        "state": "SP",
        "district": "Jardim Bonfiglioli",
        "street": "Rua Edmundo Maluf",
        "zipcode": "18402-122"
    },
    {
        "city": "Itapeva",
        "state": "SP",
        "district": "Jardim Pilar",
        "street": "Rua Benedito Geraldo Jonson",
        "zipcode": "18407-283"
    },
    {
        "city": "Itapeva",
        "state": "SP",
        "district": "Jardim Califórnia",
        "street": "Praça José Domingues",
        "zipcode": "18406-063"
    },
    {
        "city": "Itapeva",
        "state": "SP",
        "district": "Centro",
        "street": "Praça do Correio",
        "zipcode": "18400-999"
    },
    {
        "city": "Itapeva",
        "state": "SP",
        "district": "Bairro de Cima",
        "street": "Rua Alcino Pereira de Oliveira",
        "zipcode": "18404-500"
    },
    {
        "city": "Itapeva",
        "state": "SP",
        "district": "Jardim Beija",
        "street": "Rua Murilo Gomes",
        "zipcode": "18401-490"
    },
    {
        "city": "Itapeva",
        "state": "SP",
        "district": "Vila Guarani",
        "street": "Travessa de Joaquim Fogaça de Almeida",
        "zipcode": "18407-222"
    },
    {
        "city": "Itapeva",
        "state": "SP",
        "district": "Kantiã",
        "street": "Rua Athanazio Barra de Oliveira",
        "zipcode": "18412-167"
    },
    {
        "city": "Itapeva",
        "state": "SP",
        "district": "Distrito Industrial",
        "street": "Rua Jamil Amaro",
        "zipcode": "18410-605"
    },
    {
        "city": "Itapeva",
        "state": "SP",
        "district": "Conjunto Habitacional Paulo VI",
        "street": "Rua Francisco Ribeiro",
        "zipcode": "18407-350"
    },
    {
        "city": "Itapeva",
        "state": "SP",
        "district": "Jardim Paulista",
        "street": "Rua Antônio Costa Pereira",
        "zipcode": "18405-320"
    },
    {
        "city": "Itapeva",
        "state": "SP",
        "district": "Vila Aparecida",
        "street": "Rua Tatuí",
        "zipcode": "18401-120"
    },
    {
        "city": "Itapeva",
        "state": "SP",
        "district": "Jardim Morada do Sol",
        "street": "Rua Alcidez Agnelo",
        "zipcode": "18408-603"
    },
    {
        "city": "Itapeva",
        "state": "SP",
        "district": "Conjunto Habitacional Emilio de la Rua Bajo",
        "street": "Rua Rodolfo Robles",
        "zipcode": "18411-514"
    },
    {
        "city": "Itapeva",
        "state": "SP",
        "district": "Conjunto Habitacional Jardim Vitória",
        "street": "Rua Samuel David Dovich",
        "zipcode": "18403-229"
    },
    {
        "city": "Itapeva",
        "state": "SP",
        "district": "Vila São Benedito",
        "street": "Rua Joaquim Campolim de Almeida",
        "zipcode": "18403-145"
    },
    {
        "city": "Itapeva",
        "state": "SP",
        "district": "Loteamento Longa Vida",
        "street": "Rua Benedita Dias Cardoso",
        "zipcode": "18404-019"
    },
    {
        "city": "Itapeva",
        "state": "SP",
        "district": "Vila Aparecida",
        "street": "Travessa José Neves de Oliveira",
        "zipcode": "18401-042"
    },
    {
        "city": "Itapeva",
        "state": "SP",
        "district": "Centro",
        "street": "Rua Maria Luzia Cerdeira",
        "zipcode": "18400-040"
    },
    {
        "city": "Itapeva",
        "state": "SP",
        "district": "Jardim Santa Rosa",
        "street": "Rua Eduardo Reichert",
        "zipcode": "18405-160"
    },
    {
        "city": "Itapeva",
        "state": "SP",
        "district": "Central Park",
        "street": "Travessa Nicanor Salles",
        "zipcode": "18406-011"
    },
    {
        "city": "Itapeva",
        "state": "SP",
        "district": "Parque Nova Esperança",
        "street": "Rua Laurentino Alves de Souza",
        "zipcode": "18404-050"
    },
    {
        "city": "Itapeva",
        "state": "SP",
        "district": "Centro",
        "street": "Praça do Correio",
        "zipcode": "18400-970"
    },
    {
        "city": "Itapeva",
        "state": "SP",
        "district": "Jardim Ferrari",
        "street": "Rua Professora Nice de Almeida Marques",
        "zipcode": "18405-004"
    },
    {
        "city": "Itapeva",
        "state": "SP",
        "district": "Vila Aparecida",
        "street": "Rua Olinda Carvalho de Oliveira",
        "zipcode": "18401-160"
    },
    {
        "city": "Itapeva",
        "state": "SP",
        "district": "Jardim Beija",
        "street": "Rua Osório Vieira de Almeida",
        "zipcode": "18401-610"
    },
    {
        "city": "Itapeva",
        "state": "SP",
        "district": "Centro",
        "street": "Praça Sinharinha Pimentel",
        "zipcode": "18400-006"
    },
    {
        "city": "Itapeva",
        "state": "SP",
        "district": "Conjunto Habitacional São Camilo",
        "street": "Rua Francisco Claro Rossi (28)",
        "zipcode": "18408-330"
    },
    {
        "city": "Itapeva",
        "state": "SP",
        "district": "Conjunto Habitacional Emilio de la Rua Bajo",
        "street": "Rua Engenheiro Newton Marczuk",
        "zipcode": "18411-511"
    },
    {
        "city": "Itapeva",
        "state": "SP",
        "district": "Conjunto Habitacional Emilio de la Rua Bajo",
        "street": "Rua Vanessa Bolacha Moura Silva",
        "zipcode": "18411-513"
    },
    {
        "city": "Itapeva",
        "state": "SP",
        "district": "Conjunto Habitacional Emilio de la Rua Bajo",
        "street": "Rua José Barbosa dos Santos",
        "zipcode": "18411-512"
    },
    {
        "city": "Itapeva",
        "state": "SP",
        "district": "Jardim Europa",
        "street": "Rua Alberto Vilhena Junior",
        "zipcode": "18406-110"
    },
    {
        "city": "Itapeva",
        "state": "SP",
        "district": "Jardim Bela Vista",
        "street": "Rua Adelino Ferreira Leite",
        "zipcode": "18412-060"
    },
    {
        "city": "Itapeva",
        "state": "SP",
        "district": "Jardim São Francisco",
        "street": "Rua Adriano Gomes Carvalho",
        "zipcode": "18411-060"
    },
    {
        "city": "Itapeva",
        "state": "SP",
        "district": "Jardim Ferrari",
        "street": "Rua Alan Kardec",
        "zipcode": "18405-030"
    },
    {
        "city": "Itapeva",
        "state": "SP",
        "district": "Vila Santa Maria",
        "street": "Rua Alaor Francisco Feiteira",
        "zipcode": "18402-100"
    },
    {
        "city": "Itapeva",
        "state": "SP",
        "district": "Jardim Europa",
        "street": "Rua Alberto Vilhena Júnior",
        "zipcode": "18406-404"
    },
    {
        "city": "Itapeva",
        "state": "SP",
        "district": "Conjunto Habitacional Tancredo Neves",
        "street": "Rua Alceu Ferreira da Silva",
        "zipcode": "18410-300"
    },
    {
        "city": "Itapeva",
        "state": "SP",
        "district": "Jardim Maringá",
        "street": "Rua Alexandrino de Moraes",
        "zipcode": "18407-130"
    },
    {
        "city": "Itapeva",
        "state": "SP",
        "district": "Centro",
        "street": "Praça Anchieta",
        "zipcode": "18400-450"
    },
    {
        "city": "Itapeva",
        "state": "SP",
        "district": "Jardim Virgínia",
        "street": "Rua André Henrique de Oliveira",
        "zipcode": "18411-230"
    },
    {
        "city": "Itapeva",
        "state": "SP",
        "district": "Jardim Maringa Iv",
        "street": "Avenida Higino Marques",
        "zipcode": "18408-000"
    },
    {
        "city": "Itapeva",
        "state": "SP",
        "district": "Residencial Ouroville",
        "street": "Rua Lucas Humber",
        "zipcode": "18406-242"
    },
    {
        "city": "Itapeva",
        "state": "SP",
        "district": "Residencial Ouroville",
        "street": "Rua Terezinha de Jesus Mancebo Kaesemodel",
        "zipcode": "18406-234"
    },
    {
        "city": "Itapeva",
        "state": "SP",
        "district": "Residencial Ouroville",
        "street": "Rua 3",
        "zipcode": "18406-238"
    },
    {
        "city": "Itapeva",
        "state": "SP",
        "district": "Residencial Ouroville",
        "street": "Rua Júlio Campolim",
        "zipcode": "18406-245"
    },
    {
        "city": "Itapeva",
        "state": "SP",
        "district": "Loteamento Moradas de Itapeva",
        "street": "Rua Benedita de Conceição Antunes",
        "zipcode": "18408-367"
    },
    {
        "city": "Itapeva",
        "state": "SP",
        "district": "Loteamento Moradas de Itapeva",
        "street": "Rua 6",
        "zipcode": "18408-373"
    },
    {
        "city": "Itapeva",
        "state": "SP",
        "district": "Jardim Beija",
        "street": "Rua Jorge Rodrigues de Barros",
        "zipcode": "18401-505"
    },
    {
        "city": "Itapeva",
        "state": "SP",
        "district": "Jardim Grajaú",
        "street": "Rua José Celestino dos Santos",
        "zipcode": "18404-314"
    },
    {
        "city": "Itapeva",
        "state": "SP",
        "district": "Residencial Ouroville",
        "street": "Rua Francisco Rodrigues de Almeida",
        "zipcode": "18406-252"
    },
    {
        "city": "Itapeva",
        "state": "SP",
        "district": "Jardim Belvedere",
        "street": "Rua Suica",
        "zipcode": "18401-390"
    },
    {
        "city": "Itapeva",
        "state": "SP",
        "district": "Vila Ophelia",
        "street": "Avenida Dona Paulina De Morais",
        "zipcode": "18400-320"
    },
    {
        "city": "Itapeva",
        "state": "SP",
        "district": "Vila Ophelia",
        "street": "Rua Epitacio Piedade",
        "zipcode": "18400-290"
    },
    {
        "city": "Itapeva",
        "state": "SP",
        "district": "Loteamento Moradas de Itapeva",
        "street": "Avenida Roberto Butzer Filho",
        "zipcode": "18408-365"
    },
    {
        "city": "Itapeva",
        "state": "SP",
        "district": "Vila Santana",
        "street": "Rua Cantidio Neves",
        "zipcode": "18400-110"
    },
    {
        "city": "Itapeva",
        "state": "SP",
        "district": "Vila Ophelia",
        "street": "Rua Dr Luiz Gonzaga De Souza Queiroz",
        "zipcode": "18400-280"
    },
    {
        "city": "Itapeva",
        "state": "SP",
        "district": "Residencial Ouroville",
        "street": "Rua Euler Peixoto de Rezende",
        "zipcode": "18406-247"
    },
    {
        "city": "Itapeva",
        "state": "SP",
        "district": "Vila São Miguel",
        "street": "Rua Roque Pereira da Godoi",
        "zipcode": "18404-183"
    },
    {
        "city": "Itapeva",
        "state": "SP",
        "district": "Jardim Dona Miriam",
        "street": "Rua Nove",
        "zipcode": "18406-200"
    },
    {
        "city": "Itapeva",
        "state": "SP",
        "district": "Área Rural de Itapeva",
        "street": "Área Rural",
        "zipcode": "18419-899"
    },
    {
        "city": "Itapeva",
        "state": "SP",
        "district": "Vila Santana",
        "street": "Rua Mexico",
        "zipcode": "18400-130"
    },
    {
        "city": "Itapeva",
        "state": "SP",
        "district": "Residencial Ouroville",
        "street": "Rua Maria do Carmo Rodrigues de Oliveira Barros",
        "zipcode": "18406-243"
    },
    {
        "city": "Itapeva",
        "state": "SP",
        "district": "Residencial Ouroville",
        "street": "Rua 2",
        "zipcode": "18406-237"
    },
    {
        "city": "Itapeva",
        "state": "SP",
        "district": "Loteamento Longa Vida",
        "street": "Avenida Hugo Camargo Ayres",
        "zipcode": "18404-005"
    },
    {
        "city": "Itapeva",
        "state": "SP",
        "district": "Jardim Beija",
        "street": "Rua Helena Hussne",
        "zipcode": "18401-507"
    },
    {
        "city": "Itapeva",
        "state": "SP",
        "district": "Residencial Ouroville",
        "street": "Rua Agenor Monteiro de Almeida",
        "zipcode": "18406-248"
    },
    {
        "city": "Itapeva",
        "state": "SP",
        "district": "Loteamento Moradas de Itapeva",
        "street": "Rua 3",
        "zipcode": "18408-370"
    },
    {
        "city": "Itapeva",
        "state": "SP",
        "district": "Residencial Ouroville",
        "street": "Rua Licínio Gomes Pinto Siqueira",
        "zipcode": "18406-250"
    },
    {
        "city": "Itapeva",
        "state": "SP",
        "district": "Residencial Ouroville",
        "street": "Rua Lila Araújo",
        "zipcode": "18406-249"
    },
    {
        "city": "Itapeva",
        "state": "SP",
        "district": "Vila Ophelia",
        "street": "Rua Glicerio David Muzel",
        "zipcode": "18400-330"
    },
    {
        "city": "Itapeva",
        "state": "SP",
        "district": "Vila Santana",
        "street": "Rua Emilio Ferrari",
        "zipcode": "18400-120"
    },
    {
        "city": "Itapeva",
        "state": "SP",
        "district": "Jardim Imperador",
        "street": "Rua Jose Maria Domingues",
        "zipcode": "18411-002"
    },
    {
        "city": "Itapeva",
        "state": "SP",
        "district": "Loteamento Moradas de Itapeva",
        "street": "Rua Martinho José Gonçalves de Amorim",
        "zipcode": "18408-371"
    },
    {
        "city": "Itapeva",
        "state": "SP",
        "district": "Residencial Ouroville",
        "street": "Rua 1",
        "zipcode": "18406-236"
    },
    {
        "city": "Itapeva",
        "state": "SP",
        "district": "Vila Ophelia",
        "street": "Rua Erico Pimentel Dias",
        "zipcode": "18400-310"
    },
    {
        "city": "Itapeva",
        "state": "SP",
        "district": "Loteamento Moradas de Itapeva",
        "street": "Rua 5",
        "zipcode": "18408-372"
    },
    {
        "city": "Itapeva",
        "state": "SP",
        "district": "Conjunto Habitacional São Camilo",
        "street": "Rua Adhemar de Almeida Vasconcelos",
        "zipcode": "18408-120"
    },
    {
        "city": "Itapeva",
        "state": "SP",
        "district": "Loteamento Moradas de Itapeva",
        "street": "Rua Heitor de Campos Moura",
        "zipcode": "18408-368"
    },
    {
        "city": "Itapeva",
        "state": "SP",
        "district": "Vila Ophelia",
        "street": "Rua Jose Vitorino De Oliveira",
        "zipcode": "18400-270"
    },
    {
        "city": "Itapeva",
        "state": "SP",
        "district": "Vila Isabel",
        "street": "Rua Pateo Da Estacao",
        "zipcode": "18411-004"
    },
    {
        "city": "Itapeva",
        "state": "SP",
        "district": "Vila Santana",
        "street": "Rua Jose Gomes",
        "zipcode": "18400-090"
    },
    {
        "city": "Itapeva",
        "state": "SP",
        "district": "Vila Taquari",
        "street": "Rua Antônio Monteiro de Almeida",
        "zipcode": "18408-500"
    },
    {
        "city": "Itapeva",
        "state": "SP",
        "district": "Centro",
        "street": "Rua Ariovaldo de Queiroz Marques",
        "zipcode": "18400-560"
    },
    {
        "city": "Itapeva",
        "state": "SP",
        "district": "Jardim Virgínia",
        "street": "Rua Balduíno Severo",
        "zipcode": "18411-210"
    },
    {
        "city": "Itapeva",
        "state": "SP",
        "district": "Conjunto Habitacional São Camilo",
        "street": "Rua Comendadeira Ana Espírito Santos Lopes Queiroz",
        "zipcode": "18408-220"
    },
    {
        "city": "Itapeva",
        "state": "SP",
        "district": "Jardim Beija",
        "street": "Rua João Luiz Teixeira",
        "zipcode": "18401-540"
    },
    {
        "city": "Itapeva",
        "state": "SP",
        "district": "Conjunto Habitacional Paulo VI",
        "street": "Rua Francisco de Barros Filho",
        "zipcode": "18407-400"
    },
    {
        "city": "Itapeva",
        "state": "SP",
        "district": "Jardim Europa",
        "street": "Rua João Antunes de Moura",
        "zipcode": "18406-470"
    },
    {
        "city": "Itapeva",
        "state": "SP",
        "district": "Conjunto Habitacional Paulo VI",
        "street": "Rua João Martins de Melo Primo",
        "zipcode": "18407-360"
    },
    {
        "city": "Itapeva",
        "state": "SP",
        "district": "Conjunto Habitacional São Camilo",
        "street": "Rua Josino Celestino dos Santos",
        "zipcode": "18408-190"
    },
    {
        "city": "Itapeva",
        "state": "SP",
        "district": "Vila Aparecida",
        "street": "Rua Laudelina Loureiro de Melo",
        "zipcode": "18401-000"
    },
    {
        "city": "Itapeva",
        "state": "SP",
        "district": "Conjunto Habitacional Tancredo Neves",
        "street": "Rua Laurindo Rodrigues de Almeida",
        "zipcode": "18410-280"
    },
    {
        "city": "Itapeva",
        "state": "SP",
        "district": "Jardim Ferrari",
        "street": "Rua Leovigildo de Almeida Camargo",
        "zipcode": "18405-100"
    },
    {
        "city": "Itapeva",
        "state": "SP",
        "district": "Vila Bom Jesus",
        "street": "Rua Marechal Deodoro da Fonseca",
        "zipcode": "18400-650"
    },
    {
        "city": "Itapeva",
        "state": "SP",
        "district": "Jardim Dona Miriam",
        "street": "Avenida Orestes Gonzaga",
        "zipcode": "18406-131"
    },
    {
        "city": "Itapeva",
        "state": "SP",
        "district": "Loteamento Longa Vida",
        "street": "Rua Professor João Soares de Almeida",
        "zipcode": "18404-000"
    },
    {
        "city": "Itapeva",
        "state": "SP",
        "district": "Vila Nova",
        "street": "Rua Rio Claro",
        "zipcode": "18410-080"
    },
    {
        "city": "Itapeva",
        "state": "SP",
        "district": "Conjunto Habitacional São Camilo",
        "street": "Rua Rosalvo Matias dos Santos",
        "zipcode": "18408-070"
    },
    {
        "city": "Itapeva",
        "state": "SP",
        "district": "Conjunto Habitacional Tancredo Neves",
        "street": "Rua Vivian Aiub",
        "zipcode": "18410-270"
    },
    {
        "city": "Itapeva",
        "state": "SP",
        "district": "Conjunto Habitacional Tancredo Neves",
        "street": "Rua Anselmo Rodrigues Fortes",
        "zipcode": "18410-410"
    },
    {
        "city": "Itapeva",
        "state": "SP",
        "district": "Jardim Morada do Sol",
        "street": "Rua Ivaldo Cavani",
        "zipcode": "18408-630"
    },
    {
        "city": "Itapeva",
        "state": "SP",
        "district": "Jardim São Paulo",
        "street": "Rua Vereador Durval de Oliveira Santos",
        "zipcode": "18408-582"
    },
    {
        "city": "Itapeva",
        "state": "SP",
        "district": "Vila Camargo I",
        "street": "Rua João Batista",
        "zipcode": "18402-195"
    },
    {
        "city": "Itapeva",
        "state": "SP",
        "district": "Loteamento Longa Vida",
        "street": "Rua José Carlos Fernandes da Rosa",
        "zipcode": "18404-018"
    },
    {
        "city": "Itapeva",
        "state": "SP",
        "district": "Kantiã",
        "street": "Rua Azoito de Oliveira Rodrigues",
        "zipcode": "18412-165"
    },
    {
        "city": "Itapeva",
        "state": "SP",
        "district": "Vila Ophélia",
        "street": "Rua Epitácio Piedade",
        "zipcode": "18400-817"
    },
    {
        "city": "Itapeva",
        "state": "SP",
        "district": "Jardim Brasil",
        "street": "Rua Professor Salvador Pereira de Barros",
        "zipcode": "18405-200"
    },
    {
        "city": "Itapeva",
        "state": "SP",
        "district": "Conjunto Habitacional Danilo Lucano Gimenez",
        "street": "Avenida Marina Vieira",
        "zipcode": "18408-705"
    },
    {
        "city": "Itapeva",
        "state": "SP",
        "district": "Vila Camargo I",
        "street": "Rua Luiz Camargo Filho",
        "zipcode": "18402-192"
    },
    {
        "city": "Itapeva",
        "state": "SP",
        "district": "Vila Camargo",
        "street": "Rua Marcondes de Oliveira",
        "zipcode": "18402-160"
    },
    {
        "city": "Itapeva",
        "state": "SP",
        "district": "Vila Ophelia",
        "street": "Rua Luiz Carriel",
        "zipcode": "18400-300"
    },
    {
        "city": "Itapeva",
        "state": "SP",
        "district": "Residencial Ouroville",
        "street": "Rua Norton Roberto Piedade",
        "zipcode": "18406-240"
    },
    {
        "city": "Itapeva",
        "state": "SP",
        "district": "Conjunto Habitacional Danilo Lucano Gimenez",
        "street": "Avenida Armando Cavani",
        "zipcode": "18408-700"
    },
    {
        "city": "Itapeva",
        "state": "SP",
        "district": "Conj Habit Tancredo Neves",
        "street": "Rua Nivaldo Ferreira Gandra",
        "zipcode": "18410-006"
    },
    {
        "city": "Itapeva",
        "state": "SP",
        "district": "Jardim Ferrari",
        "street": "Rua Daula Silva",
        "zipcode": "18405-003"
    },
    {
        "city": "Itapeva",
        "state": "SP",
        "district": "Conjunto Habitacional Danilo Lucano Gimenez",
        "street": "Rua Douglas José da Mota e Silva",
        "zipcode": "18408-720"
    },
    {
        "city": "Itapeva",
        "state": "SP",
        "district": "Vila Taquari",
        "street": "Rua João Avelino da Silva (Seu Joca)",
        "zipcode": "18408-441"
    },
    {
        "city": "Itapeva",
        "state": "SP",
        "district": "Jardim Pilar",
        "street": "Rua Julio Samarone",
        "zipcode": "18407-002"
    },
    {
        "city": "Itapeva",
        "state": "SP",
        "district": "Vila Sao Benedito",
        "street": "Rua Goias",
        "zipcode": "18403-004"
    },
    {
        "city": "Itapeva",
        "state": "SP",
        "district": "Conjunto Habitacional Danilo Lucano Gimenez",
        "street": "Rua Firmino Cadena de Moraes",
        "zipcode": "18408-745"
    },
    {
        "city": "Itapeva",
        "state": "SP",
        "district": "Loteamento Moradas de Itapeva",
        "street": "Rua Rosa Gehring",
        "zipcode": "18408-369"
    },
    {
        "city": "Itapeva",
        "state": "SP",
        "district": "Vila Ophelia",
        "street": "Rua Teofilo David Muzel",
        "zipcode": "18400-260"
    },
    {
        "city": "Itapeva",
        "state": "SP",
        "district": "Jardim Grajaú",
        "street": "Rua Fernandina Brisola dos Santos",
        "zipcode": "18404-312"
    },
    {
        "city": "Itapeva",
        "state": "SP",
        "district": "Residencial Ouroville",
        "street": "Rua Antônio Augusto de Oliveira",
        "zipcode": "18406-239"
    },
    {
        "city": "Itapeva",
        "state": "SP",
        "district": "Central Park",
        "street": "Rua Nicanor Salles",
        "zipcode": "18406-015"
    },
    {
        "city": "Itapeva",
        "state": "SP",
        "district": "Residencial Ouroville",
        "street": "Rua Maria Jesuína Queiróz Gonçalves",
        "zipcode": "18406-244"
    },
    {
        "city": "Itapeva",
        "state": "SP",
        "district": "Vila Nova",
        "street": "Rua Itaí",
        "zipcode": "18410-000"
    },
    {
        "city": "Itapeva",
        "state": "SP",
        "district": "Distrito Industrial",
        "street": "Rua Ney da Silva Gomes",
        "zipcode": "18410-625"
    },
    {
        "city": "Itapeva",
        "state": "SP",
        "district": "Jardim Beija",
        "street": "Rua Waigh Hussne",
        "zipcode": "18401-506"
    },
    {
        "city": "Itapeva",
        "state": "SP",
        "district": "Distrito Industrial",
        "street": "Rua Valter Tavares dos Santos",
        "zipcode": "18410-635"
    },
    {
        "city": "Itapeva",
        "state": "SP",
        "district": "Jardim Ferrari",
        "street": "Rua Professora Flavia Elsie Ferrari Lima",
        "zipcode": "18405-007"
    },
    {
        "city": "Itapeva",
        "state": "SP",
        "district": "Jardim Brasil",
        "street": "Rua Jamil de Oliveira Ramos (Chulipa)",
        "zipcode": "18405-216"
    },
    {
        "city": "Itapeva",
        "state": "SP",
        "district": "Jardim Pôr do Sol",
        "street": "Rua Cabo José Rubens Barros de Oliveira",
        "zipcode": "18403-120"
    },
    {
        "city": "Itapeva",
        "state": "SP",
        "district": "Conjunto Habitacional São Camilo",
        "street": "Rua Joaquim Rodrigues Garcia Neto",
        "zipcode": "18408-200"
    },
    {
        "city": "Itapeva",
        "state": "SP",
        "district": "Conjunto Habitacional Jardim Vitória",
        "street": "Rua Nelson Domingues",
        "zipcode": "18403-212"
    },
    {
        "city": "Itapeva",
        "state": "SP",
        "district": "Jardim Alvorada",
        "street": "Rua Wadi Ibraim",
        "zipcode": "18402-260"
    },
    {
        "city": "Itapeva",
        "state": "SP",
        "district": "Jardim Maringá",
        "street": "Praça Rubens dos Santos Reno",
        "zipcode": "18407-018"
    },
    {
        "city": "Itapeva",
        "state": "SP",
        "district": "Conjunto Habitacional Tancredo Neves",
        "street": "Rua Joaquim Bueno Machado",
        "zipcode": "18410-222"
    },
    {
        "city": "Itapeva",
        "state": "SP",
        "district": "Jardim Nova Itapeva",
        "street": "Rua João Luiz Teixeira",
        "zipcode": "18401-730"
    },
    {
        "city": "Itapeva",
        "state": "SP",
        "district": "Parque Vista Alegre",
        "street": "Rua Analzídio Gomes Sobrinho (Cidinho)",
        "zipcode": "18401-250"
    },
    {
        "city": "Itapeva",
        "state": "SP",
        "district": "Jardim Santa Rosa",
        "street": "Rua Francisca Brisola de Oliveira",
        "zipcode": "18405-150"
    },
    {
        "city": "Itapeva",
        "state": "SP",
        "district": "Residencial Ouroville",
        "street": "Rua Leonidas Alves Bueno (Lico)",
        "zipcode": "18406-241"
    },
    {
        "city": "Itapeva",
        "state": "SP",
        "district": "Vila São Francisco de Assis",
        "street": "Rua Antônio Jesus Almeida",
        "zipcode": "18408-562"
    },
    {
        "city": "Itapeva",
        "state": "SP",
        "district": "Parque Residencial Itapeva",
        "street": "Rua Cândido Francisco da Silva",
        "zipcode": "18406-210"
    },
    {
        "city": "Itapeva",
        "state": "SP",
        "district": "Residencial Ouroville",
        "street": "Avenida Asdrubal Gonçalves (Dubrica)",
        "zipcode": "18406-232"
    },
    {
        "city": "Itapeva",
        "state": "SP",
        "district": "Parque São Jorge",
        "street": "Praça Carlos Flávio Vasconcelos",
        "zipcode": "18409-270"
    },
    {
        "city": "Itapeva",
        "state": "SP",
        "district": "Vila Nossa Senhora de Fátima",
        "street": "Praça Dom de Benjamin de Souza Gomes",
        "zipcode": "18409-003"
    },
    {
        "city": "Itapeva",
        "state": "SP",
        "district": "Jardim Maringa Iv",
        "street": "Rua Matias Machado",
        "zipcode": "18407-004"
    },
    {
        "city": "Itapeva",
        "state": "SP",
        "district": "Kantiã",
        "street": "Rua José Luiz Veiga Domingues",
        "zipcode": "18412-163"
    },
    {
        "city": "Itapeva",
        "state": "SP",
        "district": "Jardim Pilar",
        "street": "Rua Júlio Samarone",
        "zipcode": "18407-282"
    },
    {
        "city": "Itapeva",
        "state": "SP",
        "district": "Jardim Bela Vista",
        "street": "Rua João Perretti",
        "zipcode": "18412-010"
    },
    {
        "city": "Itapeva",
        "state": "SP",
        "district": "Residencial Ouroville",
        "street": "Rua Moacir Corrêa de Almeida",
        "zipcode": "18406-251"
    },
    {
        "city": "Itapeva",
        "state": "SP",
        "district": "Vila Dom Bosco",
        "street": "Travessa da Benedito Oliveira da Silva",
        "zipcode": "18409-431"
    },
    {
        "city": "Itapeva",
        "state": "SP",
        "district": "Jardim São Francisco",
        "street": "Rua Laurinda Braga Jensen",
        "zipcode": "18411-080"
    },
    {
        "city": "Itapeva",
        "state": "SP",
        "district": "Jardim Bonfiglioli",
        "street": "Rua José Alessandro Gois dos Santos",
        "zipcode": "18402-126"
    },
    {
        "city": "Itapeva",
        "state": "SP",
        "district": "Jardim Maringá",
        "street": "Rua Jair Lourenço dos Santos",
        "zipcode": "18407-023"
    },
    {
        "city": "Itapeva",
        "state": "SP",
        "district": "Jardim Santa Rosa",
        "street": "Rua Abraão Vieira",
        "zipcode": "18405-125"
    },
    {
        "city": "Itapeva",
        "state": "SP",
        "district": "Conj Habit Tancredo Neves",
        "street": "Rua Joaquim Bueno Machado",
        "zipcode": "18410-002"
    },
    {
        "city": "Itapeva",
        "state": "SP",
        "district": "Conjunto Habitacional Danilo Lucano Gimenez",
        "street": "Rua Luiz Gonzaga da Silva",
        "zipcode": "18408-725"
    }
]