[
    {
        "city": "Itapecerica Da Serra",
        "state": "SP",
        "district": "Potuvera",
        "street": "Estrada Abilio Marchi",
        "zipcode": "06884-100"
    },
    {
        "city": "Itapecerica Da Serra",
        "state": "SP",
        "district": "Embu Mirim",
        "street": "Rua Chapada",
        "zipcode": "06853-070"
    },
    {
        "city": "Itapecerica Da Serra",
        "state": "SP",
        "district": "Mombaca",
        "street": "Estrada Abias Da Silva",
        "zipcode": "06864-000"
    },
    {
        "city": "Itapecerica Da Serra",
        "state": "SP",
        "district": "Jardim Santa Isabel",
        "street": "Praça Teofilo Nilo De Moura",
        "zipcode": "06850-570"
    },
    {
        "city": "Itapecerica Da Serra",
        "state": "SP",
        "district": "Jardim Jacira",
        "street": "Praça Dalton Trevisam",
        "zipcode": "06864-090"
    },
    {
        "city": "Itapecerica Da Serra",
        "state": "SP",
        "district": "Parque Santa Amelia",
        "street": "Rua Jupi",
        "zipcode": "06852-890"
    },
    {
        "city": "Itapecerica Da Serra",
        "state": "SP",
        "district": "Potuvera",
        "street": "Rodovia Regis Bittencourt",
        "zipcode": "06880-000"
    },
    {
        "city": "Itapecerica Da Serra",
        "state": "SP",
        "district": "Ressaca",
        "street": "Rua Violetas",
        "zipcode": "06886-020"
    },
    {
        "city": "Itapecerica Da Serra",
        "state": "SP",
        "district": "Jd Tereza Maria",
        "street": "Rua Joao Elias Assuncao",
        "zipcode": "06850-323"
    },
    {
        "city": "Itapecerica Da Serra",
        "state": "SP",
        "district": "Jd Tereza Maria",
        "street": "Rua Carlos Domingues Tantico",
        "zipcode": "06850-500"
    },
    {
        "city": "Itapecerica Da Serra",
        "state": "SP",
        "district": "Jardim Jacira",
        "street": "Praça Haroldo De Azevedo",
        "zipcode": "06864-100"
    },
    {
        "city": "Itapecerica Da Serra",
        "state": "SP",
        "district": "Potuvera",
        "street": "Rodovia Regis Bittencourt",
        "zipcode": "06882-000"
    },
    {
        "city": "Itapecerica Da Serra",
        "state": "SP",
        "district": "Jardim Jacira",
        "street": "Praça Cecilia Meireles",
        "zipcode": "06864-080"
    },
    {
        "city": "Itapecerica Da Serra",
        "state": "SP",
        "district": "Cidade Santa Julia",
        "street": "Praça Tiete",
        "zipcode": "06867-410"
    },
    {
        "city": "Itapecerica Da Serra",
        "state": "SP",
        "district": "Recreio Primavera",
        "street": "Rua Marilia",
        "zipcode": "06863-180"
    },
    {
        "city": "Itapecerica Da Serra",
        "state": "SP",
        "district": "Jardim Santa Isabel",
        "street": "Praça Germano Haberstock",
        "zipcode": "06850-895"
    },
    {
        "city": "Itapecerica Da Serra",
        "state": "SP",
        "district": "Cidade Santa Julia",
        "street": "Praça Rio Das Contas",
        "zipcode": "06867-400"
    },
    {
        "city": "Itapecerica Da Serra",
        "state": "SP",
        "district": "Potuvera",
        "street": "Rodovia Regis Bittencourt",
        "zipcode": "06870-000"
    },
    {
        "city": "Itapecerica Da Serra",
        "state": "SP",
        "district": "Jardim Jacira",
        "street": "Praça Marques Rabelo",
        "zipcode": "06864-230"
    },
    {
        "city": "Itapecerica Da Serra",
        "state": "SP",
        "district": "Jardim Valo Velho",
        "street": "Praça Jose Camilo Da Silva",
        "zipcode": "06856-120"
    },
    {
        "city": "Itapecerica Da Serra",
        "state": "SP",
        "district": "Olaria",
        "street": "Rua Adriatico",
        "zipcode": "06858-100"
    },
    {
        "city": "Itapecerica Da Serra",
        "state": "SP",
        "district": "Lagoa",
        "street": "Alameda Acaua",
        "zipcode": "06858-090"
    },
    {
        "city": "Itapecerica Da Serra",
        "state": "SP",
        "district": "Parque Santa Amelia",
        "street": "Rodovia Regis Bittencourt",
        "zipcode": "06885-000"
    },
    {
        "city": "Itapecerica Da Serra",
        "state": "SP",
        "district": "Potuvera",
        "street": "Rodovia Regis Bittencourt",
        "zipcode": "06884-000"
    },
    {
        "city": "Itapecerica Da Serra",
        "state": "SP",
        "district": "Jardim Santa Isabel",
        "street": "Praça Manoel Joaquim Pereira",
        "zipcode": "06850-470"
    },
    {
        "city": "Itapecerica Da Serra",
        "state": "SP",
        "district": "Jardim Angelica",
        "street": "Rua A",
        "zipcode": "06857-000"
    },
    {
        "city": "Itapecerica Da Serra",
        "state": "SP",
        "district": "Potuvera",
        "street": "Rodovia Regis Bittencourt",
        "zipcode": "06876-000"
    },
    {
        "city": "Itapecerica Da Serra",
        "state": "SP",
        "district": "Parque Paraiso",
        "street": "Praça Da Biblia",
        "zipcode": "06852-750"
    },
    {
        "city": "Itapecerica Da Serra",
        "state": "SP",
        "district": "Embu Mirim",
        "street": "Rua Taquarama",
        "zipcode": "06853-080"
    },
    {
        "city": "Itapecerica Da Serra",
        "state": "SP",
        "district": "Parque Paraiso",
        "street": "Rua Nova Zelandia",
        "zipcode": "06852-280"
    },
    {
        "city": "Itapecerica Da Serra",
        "state": "SP",
        "district": "Crispim",
        "street": "Estrada Mataguacu",
        "zipcode": "06866-110"
    },
    {
        "city": "Itapecerica Da Serra",
        "state": "SP",
        "district": "Jardim Branca Flor",
        "street": "Rua Do Moinho",
        "zipcode": "06854-550"
    },
    {
        "city": "Itapecerica Da Serra",
        "state": "SP",
        "district": "Mombaca",
        "street": "Estrada Dos Francos",
        "zipcode": "06863-400"
    },
    {
        "city": "Itapecerica Da Serra",
        "state": "SP",
        "district": "Jardim Jacira",
        "street": "Rua Guimaraes Rosa",
        "zipcode": "06864-200"
    },
    {
        "city": "Itapecerica Da Serra",
        "state": "SP",
        "district": "Jardim Jacira",
        "street": "Praça Casimiro De Abreu",
        "zipcode": "06864-060"
    },
    {
        "city": "Itapecerica Da Serra",
        "state": "SP",
        "district": "Olaria",
        "street": "Estrada Joao Rodrigues De Moraes",
        "zipcode": "06858-210"
    },
    {
        "city": "Itapecerica Da Serra",
        "state": "SP",
        "district": "Jardim Itapecerica",
        "street": "Rodovia Regis Bittencourt",
        "zipcode": "06888-000"
    },
    {
        "city": "Itapecerica Da Serra",
        "state": "SP",
        "district": "Parque Yara Cecy",
        "street": "Praça Yara Cecy",
        "zipcode": "06872-370"
    },
    {
        "city": "Itapecerica Da Serra",
        "state": "SP",
        "district": "Potuvera",
        "street": "Rodovia Regis Bittencourt",
        "zipcode": "06881-000"
    },
    {
        "city": "Itapecerica Da Serra",
        "state": "SP",
        "district": "Jardim Elisa",
        "street": "Praça Leonarda Moreira",
        "zipcode": "06872-025"
    },
    {
        "city": "Itapecerica Da Serra",
        "state": "SP",
        "district": "Mombaca",
        "street": "Estrada Itaquaciara",
        "zipcode": "06869-200"
    },
    {
        "city": "Itapecerica Da Serra",
        "state": "SP",
        "district": "Parque Paraiso",
        "street": "Rua Cento E Cinquenta E Dois",
        "zipcode": "06850-355"
    },
    {
        "city": "Itapecerica Da Serra",
        "state": "SP",
        "district": "Potuvera",
        "street": "Rodovia Regis Bittencourt",
        "zipcode": "06851-890"
    },
    {
        "city": "Itapecerica Da Serra",
        "state": "SP",
        "district": "Jardim Branca Flor",
        "street": "Rua Caraguatatuba",
        "zipcode": "06854-540"
    },
    {
        "city": "Itapecerica Da Serra",
        "state": "SP",
        "district": "Potuvera",
        "street": "Rodovia Regis Bittencourt",
        "zipcode": "06877-000"
    },
    {
        "city": "Itapecerica Da Serra",
        "state": "SP",
        "district": "Jardim Sao Pedro",
        "street": "Estrada De Servidao",
        "zipcode": "06863-300"
    }
]