[
    {
        "city": "Ituverava",
        "state": "SP",
        "district": "Capivari da Mata",
        "street": "",
        "zipcode": "14508-000"
    },
    {
        "city": "Ituverava",
        "state": "SP",
        "district": "Centro",
        "street": "Rua Jovina Trajano Borges",
        "zipcode": "14500-972"
    },
    {
        "city": "Ituverava",
        "state": "SP",
        "district": "Centro",
        "street": "Rua Capitão Hilário A. Freitas 94",
        "zipcode": "14500-970"
    },
    {
        "city": "Ituverava",
        "state": "SP",
        "district": "Centro",
        "street": "Rua João Alberto de Souza 220",
        "zipcode": "14508-972"
    },
    {
        "city": "Ituverava",
        "state": "SP",
        "district": "Centro",
        "street": "Rua Manoel Justino 222",
        "zipcode": "14505-970"
    },
    {
        "city": "Ituverava",
        "state": "SP",
        "district": "Aparecida do Alto",
        "street": "Rua Justino Barbosa Sandoval 136",
        "zipcode": "14500-971"
    },
    {
        "city": "Ituverava",
        "state": "SP",
        "district": "",
        "street": "",
        "zipcode": "14500-000"
    },
    {
        "city": "Ituverava",
        "state": "SP",
        "district": "São Benedito da Cachoeirinha",
        "street": "",
        "zipcode": "14505-000"
    }
]