[
    {
        "city": "Jacarei",
        "state": "SP",
        "district": "Vila Guedes",
        "street": "Rua Benedicto Garcia De Melo",
        "zipcode": "12300-680"
    },
    {
        "city": "Jacarei",
        "state": "SP",
        "district": "Avarei",
        "street": "Avenida Avarei",
        "zipcode": "12303-000"
    },
    {
        "city": "Jacarei",
        "state": "SP",
        "district": "Vila Guedes",
        "street": "Rua Raul Ale",
        "zipcode": "12300-650"
    },
    {
        "city": "Jacarei",
        "state": "SP",
        "district": "Parque Brasil",
        "street": "Largo Do Ipe",
        "zipcode": "12303-490"
    },
    {
        "city": "Jacarei",
        "state": "SP",
        "district": "Jardim Do Vale",
        "street": "Rua Leopoldo Leite",
        "zipcode": "12300-471"
    },
    {
        "city": "Jacarei",
        "state": "SP",
        "district": "Rio Comprido",
        "street": "Viela Limeira",
        "zipcode": "12305-280"
    },
    {
        "city": "Jacarei",
        "state": "SP",
        "district": "Centro",
        "street": "Rua Vicente Scherma",
        "zipcode": "12300-250"
    },
    {
        "city": "Jacarei",
        "state": "SP",
        "district": "Centro",
        "street": "Vila Abel Cabral",
        "zipcode": "12300-310"
    },
    {
        "city": "Jacarei",
        "state": "SP",
        "district": "Centro",
        "street": "Rua Coronel Carlos Porto",
        "zipcode": "12300-280"
    },
    {
        "city": "Jacarei",
        "state": "SP",
        "district": "Jardim Leonidia",
        "street": "Rua Batista Scavone",
        "zipcode": "12300-130"
    },
    {
        "city": "Jacarei",
        "state": "SP",
        "district": "Jardim Leonidia",
        "street": "Rua Leonor Chaves Dias",
        "zipcode": "12300-090"
    },
    {
        "city": "Jacarei",
        "state": "SP",
        "district": "Centro",
        "street": "Rua Albano Maximo",
        "zipcode": "12300-050"
    },
    {
        "city": "Jacarei",
        "state": "SP",
        "district": "Jardim Leonidia",
        "street": "Rua Tres De Abril",
        "zipcode": "12300-100"
    },
    {
        "city": "Jacarei",
        "state": "SP",
        "district": "Centro",
        "street": "Rua Quinze De Novembro",
        "zipcode": "12300-060"
    },
    {
        "city": "Jacarei",
        "state": "SP",
        "district": "Centro",
        "street": "Rua Leitao",
        "zipcode": "12300-020"
    },
    {
        "city": "Jacarei",
        "state": "SP",
        "district": "Jardim Leonidia",
        "street": "Praça Leonidia Scavone",
        "zipcode": "12300-140"
    },
    {
        "city": "Jacarei",
        "state": "SP",
        "district": "Centro",
        "street": "Rua Jose Bonifacio",
        "zipcode": "12300-190"
    },
    {
        "city": "Jacarei",
        "state": "SP",
        "district": "Centro",
        "street": "Praça Dos Tres Poderes",
        "zipcode": "12300-170"
    },
    {
        "city": "Jacarei",
        "state": "SP",
        "district": "Centro",
        "street": "Praça Elvira Lopes Da Costa",
        "zipcode": "12300-230"
    },
    {
        "city": "Jacarei",
        "state": "SP",
        "district": "Centro",
        "street": "Rua Ramira Cabral",
        "zipcode": "12300-300"
    },
    {
        "city": "Jacarei",
        "state": "SP",
        "district": "Centro",
        "street": "Praça Conde Frontin",
        "zipcode": "12300-330"
    },
    {
        "city": "Jacarei",
        "state": "SP",
        "district": "Jardim Leonidia",
        "street": "Rua Dom Pedro Ii",
        "zipcode": "12300-120"
    },
    {
        "city": "Jacarei",
        "state": "SP",
        "district": "Centro",
        "street": "Largo Do Riachuelo",
        "zipcode": "12300-240"
    },
    {
        "city": "Jacarei",
        "state": "SP",
        "district": "Centro",
        "street": "Ladeira Benedito Do Prado",
        "zipcode": "12300-180"
    },
    {
        "city": "Jacarei",
        "state": "SP",
        "district": "Jardim Leonidia",
        "street": "Rua Oito De Dezembro",
        "zipcode": "12300-150"
    },
    {
        "city": "Jacarei",
        "state": "SP",
        "district": "Centro",
        "street": "Rua Lucinda Pires",
        "zipcode": "12300-290"
    },
    {
        "city": "Jacarei",
        "state": "SP",
        "district": "Vila Guedes",
        "street": "Avenida Jurandir Fonsi",
        "zipcode": "12300-600"
    },
    {
        "city": "Jacarei",
        "state": "SP",
        "district": "Centro",
        "street": "Rua Dr Lucio Malta",
        "zipcode": "12301-001"
    },
    {
        "city": "Jacarei",
        "state": "SP",
        "district": "Centro",
        "street": "Rua Armando Salles De Oliveira",
        "zipcode": "12300-080"
    },
    {
        "city": "Jacarei",
        "state": "SP",
        "district": "Centro",
        "street": "Praça Antonio Eleuterio Dos Santos",
        "zipcode": "12300-410"
    },
    {
        "city": "Jacarei",
        "state": "SP",
        "district": "Jardim Do Vale",
        "street": "Rua Otavio Landim Cassal",
        "zipcode": "12300-530"
    },
    {
        "city": "Jacarei",
        "state": "SP",
        "district": "Jardim Do Vale",
        "street": "Avenida Lafayete Benedito Briant",
        "zipcode": "12300-510"
    },
    {
        "city": "Jacarei",
        "state": "SP",
        "district": "Vila Guedes",
        "street": "Rua Nestor Lucien Goossens",
        "zipcode": "12300-590"
    },
    {
        "city": "Jacarei",
        "state": "SP",
        "district": "Vila Guedes",
        "street": "Rua Delfino Ferreira Da Silva",
        "zipcode": "12300-500"
    },
    {
        "city": "Jacarei",
        "state": "SP",
        "district": "Jardim Pereira Do Amparo",
        "street": "Rua Reinaldo Leite Pereira",
        "zipcode": "12301-670"
    },
    {
        "city": "Jacarei",
        "state": "SP",
        "district": "Centro",
        "street": "Rua Antonio Afonso",
        "zipcode": "12300-270"
    },
    {
        "city": "Jacarei",
        "state": "SP",
        "district": "Jardim Pereira Do Amparo",
        "street": "Rua Chaquib Sleiman Ahmed",
        "zipcode": "12301-700"
    },
    {
        "city": "Jacarei",
        "state": "SP",
        "district": "Centro",
        "street": "Avenida Orlando Hardt",
        "zipcode": "12300-390"
    },
    {
        "city": "Jacarei",
        "state": "SP",
        "district": "Avarei",
        "street": "Rua Alfredo Ribeiro De Mendonca",
        "zipcode": "12303-050"
    },
    {
        "city": "Jacarei",
        "state": "SP",
        "district": "Jardim Liberdade",
        "street": "Rua Prof. Antonio Martins Da Silva",
        "zipcode": "12300-430"
    },
    {
        "city": "Jacarei",
        "state": "SP",
        "district": "Centro",
        "street": "Rua Joao Ferraz",
        "zipcode": "12300-210"
    },
    {
        "city": "Jacarei",
        "state": "SP",
        "district": "Vila Guedes",
        "street": "Rua Virgilio Da Costa Pimentel",
        "zipcode": "12300-720"
    },
    {
        "city": "Jacarei",
        "state": "SP",
        "district": "Vila Guedes",
        "street": "Rua Ismael De Mello",
        "zipcode": "12300-710"
    },
    {
        "city": "Jacarei",
        "state": "SP",
        "district": "Vila Guedes",
        "street": "Avenida Jesus Romero",
        "zipcode": "12300-640"
    },
    {
        "city": "Jacarei",
        "state": "SP",
        "district": "Avarei",
        "street": "Rua Barao Do Rio Branco",
        "zipcode": "12303-060"
    },
    {
        "city": "Jacarei",
        "state": "SP",
        "district": "Centro",
        "street": "Rua Alfredo Schurig",
        "zipcode": "12300-005"
    },
    {
        "city": "Jacarei",
        "state": "SP",
        "district": "Centro",
        "street": "Praça Padre Anchieta",
        "zipcode": "12300-200"
    },
    {
        "city": "Jacarei",
        "state": "SP",
        "district": "Jardim Santa Maria",
        "street": "Avenida Jubis Da Silva",
        "zipcode": "12303-160"
    },
    {
        "city": "Jacarei",
        "state": "SP",
        "district": "Avarei",
        "street": "Rua Joao Alberto Candia",
        "zipcode": "12303-030"
    },
    {
        "city": "Jacarei",
        "state": "SP",
        "district": "Jardim Santa Maria",
        "street": "Avenida Roberto Lopes Leal",
        "zipcode": "12303-141"
    },
    {
        "city": "Jacarei",
        "state": "SP",
        "district": "Jardim Liberdade",
        "street": "Rua Luiz Martins Moreira",
        "zipcode": "12300-440"
    },
    {
        "city": "Jacarei",
        "state": "SP",
        "district": "Jardim Pereira Do Amparo",
        "street": "Rua Jose Medeiros",
        "zipcode": "12301-680"
    },
    {
        "city": "Jacarei",
        "state": "SP",
        "district": "Centro",
        "street": "Praça Barao Do Rio Branco",
        "zipcode": "12300-350"
    },
    {
        "city": "Jacarei",
        "state": "SP",
        "district": "Vila Guedes",
        "street": "Avenida Prof. Zilah Mercadante Catao Bastos",
        "zipcode": "12300-700"
    },
    {
        "city": "Jacarei",
        "state": "SP",
        "district": "Jardim Mesquita",
        "street": "Rua Dos Ferroviarios",
        "zipcode": "12301-530"
    },
    {
        "city": "Jacarei",
        "state": "SP",
        "district": "Jardim Santa Maria",
        "street": "Avenida Azenio De Azevedo Chaves",
        "zipcode": "12303-220"
    },
    {
        "city": "Jacarei",
        "state": "SP",
        "district": "Vila Guedes",
        "street": "Rua Neif Ismael Rachid",
        "zipcode": "12300-610"
    },
    {
        "city": "Jacarei",
        "state": "SP",
        "district": "Jardim Santa Maria",
        "street": "Avenida Claurides De Siqueira",
        "zipcode": "12303-170"
    },
    {
        "city": "Jacarei",
        "state": "SP",
        "district": "Avarei",
        "street": "Rua Sao Vitorino",
        "zipcode": "12303-010"
    },
    {
        "city": "Jacarei",
        "state": "SP",
        "district": "Centro",
        "street": "Rua Pedro Souza Ramos",
        "zipcode": "12300-370"
    },
    {
        "city": "Jacarei",
        "state": "SP",
        "district": "Centro",
        "street": "Avenida Major Acacio Ferreira",
        "zipcode": "12300-070"
    },
    {
        "city": "Jacarei",
        "state": "SP",
        "district": "Jardim Pereira Do Amparo",
        "street": "Rua Frederico Osanann",
        "zipcode": "12301-720"
    },
    {
        "city": "Jacarei",
        "state": "SP",
        "district": "Jardim Pereira Do Amparo",
        "street": "Travessa Chiquinha Esper",
        "zipcode": "12301-750"
    },
    {
        "city": "Jacarei",
        "state": "SP",
        "district": "Centro",
        "street": "Rua Corneteiro De Jesus",
        "zipcode": "12300-380"
    },
    {
        "city": "Jacarei",
        "state": "SP",
        "district": "Jardim Santa Maria",
        "street": "Avenida Antonio Alves De Carvalho Rosa",
        "zipcode": "12303-130"
    },
    {
        "city": "Jacarei",
        "state": "SP",
        "district": "Vila Guedes",
        "street": "Avenida Sebastiao De Oliveira Goda",
        "zipcode": "12300-560"
    },
    {
        "city": "Jacarei",
        "state": "SP",
        "district": "Jardim Pereira Do Amparo",
        "street": "Rua Conego Benedito Rodrigues Da Cunha",
        "zipcode": "12301-710"
    },
    {
        "city": "Jacarei",
        "state": "SP",
        "district": "Jardim Santa Maria",
        "street": "Rua Amelia Faria",
        "zipcode": "12303-120"
    },
    {
        "city": "Jacarei",
        "state": "SP",
        "district": "Jardim Do Vale",
        "street": "Rua Prof. Maria Hamkens",
        "zipcode": "12300-520"
    },
    {
        "city": "Jacarei",
        "state": "SP",
        "district": "Vila Guedes",
        "street": "Rua Jorge Mega",
        "zipcode": "12300-540"
    },
    {
        "city": "Jacarei",
        "state": "SP",
        "district": "Vila Guedes",
        "street": "Rua Eliza De Campos Pires",
        "zipcode": "12300-570"
    },
    {
        "city": "Jacarei",
        "state": "SP",
        "district": "Vila Sao Jose",
        "street": "Rua Borda Gato",
        "zipcode": "12301-510"
    },
    {
        "city": "Jacarei",
        "state": "SP",
        "district": "Vila Guedes",
        "street": "Rua Rosa De Souza Martins",
        "zipcode": "12300-730"
    },
    {
        "city": "Jacarei",
        "state": "SP",
        "district": "Jardim Santa Maria",
        "street": "Rua Celso Moreira De Almeida",
        "zipcode": "12303-080"
    },
    {
        "city": "Jacarei",
        "state": "SP",
        "district": "Jardim Santa Maria",
        "street": "Rua Maria Aparecida Prado",
        "zipcode": "12303-240"
    },
    {
        "city": "Jacarei",
        "state": "SP",
        "district": "Avarei",
        "street": "Avenida Avarei",
        "zipcode": "12303-001"
    },
    {
        "city": "Jacarei",
        "state": "SP",
        "district": "Jardim Pereira Do Amparo",
        "street": "Avenida Senador Joaquim Miguel Martins De Siqueira",
        "zipcode": "12301-650"
    },
    {
        "city": "Jacarei",
        "state": "SP",
        "district": "Jardim Pereira Do Amparo",
        "street": "Rua Miguel Esper",
        "zipcode": "12301-740"
    },
    {
        "city": "Jacarei",
        "state": "SP",
        "district": "Rio Comprido",
        "street": "Rua Sergipe",
        "zipcode": "12305-310"
    },
    {
        "city": "Jacarei",
        "state": "SP",
        "district": "Rio Comprido",
        "street": "Viela Caruaru",
        "zipcode": "12305-320"
    },
    {
        "city": "Jacarei",
        "state": "SP",
        "district": "Rio Comprido",
        "street": "Rua Pernambuco",
        "zipcode": "12305-340"
    },
    {
        "city": "Jacarei",
        "state": "SP",
        "district": "Rio Comprido",
        "street": "Rua Santa Catarina",
        "zipcode": "12305-370"
    },
    {
        "city": "Jacarei",
        "state": "SP",
        "district": "Jardim Santana",
        "street": "Estrada Senoai",
        "zipcode": "12331-010"
    },
    {
        "city": "Jacarei",
        "state": "SP",
        "district": "Jardim Santa Maria",
        "street": "Rua Armando De Melo",
        "zipcode": "12303-090"
    },
    {
        "city": "Jacarei",
        "state": "SP",
        "district": "Jardim Santa Maria",
        "street": "Avenida Roberto Lopes Leal",
        "zipcode": "12303-140"
    },
    {
        "city": "Jacarei",
        "state": "SP",
        "district": "Jardim Santa Maria",
        "street": "Rua Mario Guerra",
        "zipcode": "12303-270"
    },
    {
        "city": "Jacarei",
        "state": "SP",
        "district": "Jardim Santa Maria",
        "street": "Rua Arlindo Scavone",
        "zipcode": "12303-250"
    },
    {
        "city": "Jacarei",
        "state": "SP",
        "district": "Jardim Santa Maria",
        "street": "Avenida Afonso Rosa Da Silva",
        "zipcode": "12303-330"
    },
    {
        "city": "Jacarei",
        "state": "SP",
        "district": "Cidade Salvador",
        "street": "Avenida Sao Jorge",
        "zipcode": "12312-001"
    },
    {
        "city": "Jacarei",
        "state": "SP",
        "district": "Jardim Das Industrias",
        "street": "Estrada Velha Rio/sao Paulo",
        "zipcode": "12306-310"
    },
    {
        "city": "Jacarei",
        "state": "SP",
        "district": "Jardim Santa Maria",
        "street": "Rua Dimas De Vasconcelos Rodrigues",
        "zipcode": "12303-280"
    },
    {
        "city": "Jacarei",
        "state": "SP",
        "district": "Parque Brasil",
        "street": "Rua Danton Siqueira Malta",
        "zipcode": "12303-400"
    },
    {
        "city": "Jacarei",
        "state": "SP",
        "district": "Rio Comprido",
        "street": "Rua Recife",
        "zipcode": "12305-410"
    },
    {
        "city": "Jacarei",
        "state": "SP",
        "district": "Jardim Santana",
        "street": "Estrada Massachi Tamaka",
        "zipcode": "12331-040"
    },
    {
        "city": "Jacarei",
        "state": "SP",
        "district": "Parque Brasil",
        "street": "Rua Oscar Bagatini",
        "zipcode": "12303-390"
    },
    {
        "city": "Jacarei",
        "state": "SP",
        "district": "Jardim Santa Maria",
        "street": "Avenida Antonio Fonseca",
        "zipcode": "12303-180"
    },
    {
        "city": "Jacarei",
        "state": "SP",
        "district": "Jardim Maria Amelia",
        "street": "Avenida Projetada",
        "zipcode": "12316-560"
    },
    {
        "city": "Jacarei",
        "state": "SP",
        "district": "Jardim Santa Maria",
        "street": "Avenida Estevan Corbani",
        "zipcode": "12303-190"
    },
    {
        "city": "Jacarei",
        "state": "SP",
        "district": "Rio Comprido",
        "street": "Rua Bom Sucesso",
        "zipcode": "12305-420"
    },
    {
        "city": "Jacarei",
        "state": "SP",
        "district": "Rio Comprido",
        "street": "Avenida Sao Paulo",
        "zipcode": "12305-290"
    },
    {
        "city": "Jacarei",
        "state": "SP",
        "district": "Parque Brasil",
        "street": "Rua Embaixador Jose Carlos Macedo Soares",
        "zipcode": "12303-110"
    },
    {
        "city": "Jacarei",
        "state": "SP",
        "district": "Jardim Olimpia",
        "street": "Rua E (Esquerda)",
        "zipcode": "12319-320"
    },
    {
        "city": "Jacarei",
        "state": "SP",
        "district": "Jardim Santa Maria",
        "street": "Avenida Faria Lima",
        "zipcode": "12303-071"
    },
    {
        "city": "Jacarei",
        "state": "SP",
        "district": "Jardim Santa Maria",
        "street": "Avenida Orlando Felipe Bonano",
        "zipcode": "12303-210"
    },
    {
        "city": "Jacarei",
        "state": "SP",
        "district": "Parque Brasil",
        "street": "Rua Guido Martins Moreira",
        "zipcode": "12303-340"
    },
    {
        "city": "Jacarei",
        "state": "SP",
        "district": "Parque Itamarati",
        "street": "Rua Joao Eugenio De Souza",
        "zipcode": "12307-420"
    },
    {
        "city": "Jacarei",
        "state": "SP",
        "district": "Parque Brasil",
        "street": "Avenida Francisco Grespan",
        "zipcode": "12303-450"
    },
    {
        "city": "Jacarei",
        "state": "SP",
        "district": "Jardim Santa Maria",
        "street": "Avenida Santa Maria",
        "zipcode": "12303-320"
    },
    {
        "city": "Jacarei",
        "state": "SP",
        "district": "Jardim Maria Amelia",
        "street": "Avenida Juliao Stver Brison",
        "zipcode": "12318-600"
    },
    {
        "city": "Jacarei",
        "state": "SP",
        "district": "Rio Comprido",
        "street": "Estrada Rio Comprido",
        "zipcode": "12305-480"
    },
    {
        "city": "Jacarei",
        "state": "SP",
        "district": "Jardim Bela Vista",
        "street": "Rua Seis",
        "zipcode": "12332-030"
    },
    {
        "city": "Jacarei",
        "state": "SP",
        "district": "Jardim Das Industrias",
        "street": "Avenida Das Industrias",
        "zipcode": "12310-080"
    },
    {
        "city": "Jacarei",
        "state": "SP",
        "district": "Parque Brasil",
        "street": "Avenida Vereador Afonso Rosa Da Silva",
        "zipcode": "12303-460"
    },
    {
        "city": "Jacarei",
        "state": "SP",
        "district": "Rio Comprido",
        "street": "Viela Volta Redonda",
        "zipcode": "12305-350"
    },
    {
        "city": "Jacarei",
        "state": "SP",
        "district": "Bandeira Branca I",
        "street": "Rua Sete",
        "zipcode": "12323-430"
    },
    {
        "city": "Jacarei",
        "state": "SP",
        "district": "Rio Comprido",
        "street": "Viela Barra Mansa",
        "zipcode": "12305-380"
    },
    {
        "city": "Jacarei",
        "state": "SP",
        "district": "Jardim Olimpia",
        "street": "Rua E (Direita)",
        "zipcode": "12319-310"
    },
    {
        "city": "Jacarei",
        "state": "SP",
        "district": "Parque Brasil",
        "street": "Avenida Tereza Anselmo Massari",
        "zipcode": "12303-430"
    },
    {
        "city": "Jacarei",
        "state": "SP",
        "district": "Rio Comprido",
        "street": "Viela Caxias",
        "zipcode": "12305-360"
    },
    {
        "city": "Jacarei",
        "state": "SP",
        "district": "Parque Brasil",
        "street": "Rua Jose Salgado Bicudo",
        "zipcode": "12303-360"
    },
    {
        "city": "Jacarei",
        "state": "SP",
        "district": "Jardim Santa Maria",
        "street": "Rua Francisco Batista De Moraes",
        "zipcode": "12303-380"
    },
    {
        "city": "Jacarei",
        "state": "SP",
        "district": "Rio Comprido",
        "street": "Rua Maranhao",
        "zipcode": "12305-450"
    },
    {
        "city": "Jacarei",
        "state": "SP",
        "district": "Jardim Santa Maria",
        "street": "Avenida Adhemar Pereira De Barros",
        "zipcode": "12303-300"
    },
    {
        "city": "Jacarei",
        "state": "SP",
        "district": "Jardim Santana",
        "street": "Estrada Tateishi",
        "zipcode": "12331-030"
    },
    {
        "city": "Jacarei",
        "state": "SP",
        "district": "Centro",
        "street": "Rua Azevedo Sampaio",
        "zipcode": "12308-350"
    },
    {
        "city": "Jacarei",
        "state": "SP",
        "district": "Parque Brasil",
        "street": "Avenida Bruno Decaria",
        "zipcode": "12303-410"
    },
    {
        "city": "Jacarei",
        "state": "SP",
        "district": "Rio Comprido",
        "street": "Rua Piaui",
        "zipcode": "12305-430"
    },
    {
        "city": "Jacarei",
        "state": "SP",
        "district": "Jardim Santana",
        "street": "Estrada Santana",
        "zipcode": "12331-000"
    },
    {
        "city": "Jacarei",
        "state": "SP",
        "district": "Rio Comprido",
        "street": "Viela Parati",
        "zipcode": "12305-390"
    },
    {
        "city": "Jacarei",
        "state": "SP",
        "district": "Veraneio Ijal",
        "street": "Rua Tres",
        "zipcode": "12326-670"
    },
    {
        "city": "Jacarei",
        "state": "SP",
        "district": "Parque Brasil",
        "street": "Praça Julio De Mesquita",
        "zipcode": "12303-440"
    },
    {
        "city": "Jacarei",
        "state": "SP",
        "district": "Rio Comprido",
        "street": "Estrada Do Imperador",
        "zipcode": "12305-470"
    },
    {
        "city": "Jacarei",
        "state": "SP",
        "district": "Jardim Santana",
        "street": "Estrada Zinzo Sakagushi",
        "zipcode": "12331-020"
    },
    {
        "city": "Jacarei",
        "state": "SP",
        "district": "Parque Brasil",
        "street": "Rua Batuira",
        "zipcode": "12303-350"
    },
    {
        "city": "Jacarei",
        "state": "SP",
        "district": "Parque Brasil",
        "street": "Rua Capitao Antonio De Oliveira",
        "zipcode": "12303-420"
    },
    {
        "city": "Jacarei",
        "state": "SP",
        "district": "Centro",
        "street": "Avenida Santos Dumont",
        "zipcode": "12300-400"
    },
    {
        "city": "Jacarei",
        "state": "SP",
        "district": "Centro",
        "street": "Rua Capitao Joao Jose De Macedo",
        "zipcode": "12300-030"
    },
    {
        "city": "Jacarei",
        "state": "SP",
        "district": "Centro",
        "street": "Ladeira Rodolfo De Siqueira",
        "zipcode": "12300-260"
    },
    {
        "city": "Jacarei",
        "state": "SP",
        "district": "Vila Guedes",
        "street": "Avenida Susana De Castro Ramos",
        "zipcode": "12300-550"
    },
    {
        "city": "Jacarei",
        "state": "SP",
        "district": "Jardim Leonidia",
        "street": "Rua Joaquim Mourtinho Dos Santos",
        "zipcode": "12300-110"
    },
    {
        "city": "Jacarei",
        "state": "SP",
        "district": "Centro",
        "street": "Avenida Capitao Joaquim Pinheiro Do Prado",
        "zipcode": "12300-160"
    },
    {
        "city": "Jacarei",
        "state": "SP",
        "district": "Centro",
        "street": "Rua Francisco De Paula Ortiz",
        "zipcode": "12300-420"
    },
    {
        "city": "Jacarei",
        "state": "SP",
        "district": "Centro",
        "street": "Rua Treze De Maio",
        "zipcode": "12300-220"
    },
    {
        "city": "Jacarei",
        "state": "SP",
        "district": "Centro",
        "street": "Rua Dr Paulo De Oliveira Costa",
        "zipcode": "12300-040"
    },
    {
        "city": "Jacarei",
        "state": "SP",
        "district": "Centro",
        "street": "Rua Lamartine Delamare",
        "zipcode": "12300-010"
    },
    {
        "city": "Jacarei",
        "state": "SP",
        "district": "Centro",
        "street": "Rua Voluntario Gabriel Soares",
        "zipcode": "12300-360"
    },
    {
        "city": "Jacarei",
        "state": "SP",
        "district": "Vila Guedes",
        "street": "Avenida Francisco Pinheiro Do Prado",
        "zipcode": "12300-670"
    },
    {
        "city": "Jacarei",
        "state": "SP",
        "district": "Rio Comprido",
        "street": "Avenida Rio De Janeiro",
        "zipcode": "12305-400"
    },
    {
        "city": "Jacarei",
        "state": "SP",
        "district": "Jardim Santa Maria",
        "street": "Avenida Jarbas Porto De Mattos",
        "zipcode": "12303-200"
    },
    {
        "city": "Jacarei",
        "state": "SP",
        "district": "Bandeira Branca I",
        "street": "Rodovia General Euryale De Jesus Zerbini",
        "zipcode": "12323-000"
    },
    {
        "city": "Jacarei",
        "state": "SP",
        "district": "Jardim Santa Terezinha",
        "street": "Rua Da Consolacao",
        "zipcode": "12301-540"
    },
    {
        "city": "Jacarei",
        "state": "SP",
        "district": "Rio Comprido",
        "street": "Rua Particular",
        "zipcode": "12305-330"
    },
    {
        "city": "Jacarei",
        "state": "SP",
        "district": "Vila Guedes",
        "street": "Rua Expedicionario Joao Theodoro",
        "zipcode": "12300-620"
    },
    {
        "city": "Jacarei",
        "state": "SP",
        "district": "Chacaras Reunidas Igarapes",
        "street": "Rodovia Presidente Dutra",
        "zipcode": "12331-300"
    },
    {
        "city": "Jacarei",
        "state": "SP",
        "district": "Jardim Liberdade",
        "street": "Rua Aparicio Lorena",
        "zipcode": "12300-460"
    },
    {
        "city": "Jacarei",
        "state": "SP",
        "district": "Avarei",
        "street": "Rua Arthur Gaspar Viana",
        "zipcode": "12303-020"
    },
    {
        "city": "Jacarei",
        "state": "SP",
        "district": "Vila Guedes",
        "street": "Estrada Pedreira",
        "zipcode": "12300-740"
    },
    {
        "city": "Jacarei",
        "state": "SP",
        "district": "Veraneio Ijal",
        "street": "Rua Vinte E Cinco",
        "zipcode": "12326-540"
    },
    {
        "city": "Jacarei",
        "state": "SP",
        "district": "Jardim Santa Maria",
        "street": "Rua Joao Batista Indiani",
        "zipcode": "12303-260"
    },
    {
        "city": "Jacarei",
        "state": "SP",
        "district": "Jardim Pereira Do Amparo",
        "street": "Avenida Nove De Julho",
        "zipcode": "12301-520"
    },
    {
        "city": "Jacarei",
        "state": "SP",
        "district": "Jardim Pereira Do Amparo",
        "street": "Rua Amin Esper",
        "zipcode": "12301-690"
    },
    {
        "city": "Jacarei",
        "state": "SP",
        "district": "Rio Comprido",
        "street": "Viela Nova Iguacu",
        "zipcode": "12305-300"
    },
    {
        "city": "Jacarei",
        "state": "SP",
        "district": "Jardim Santa Maria",
        "street": "Rua Capitao Edu Figueiredo",
        "zipcode": "12303-310"
    },
    {
        "city": "Jacarei",
        "state": "SP",
        "district": "Parque Brasil",
        "street": "Rua Prof. Ines Michaela Da Silva De Souza",
        "zipcode": "12303-370"
    },
    {
        "city": "Jacarei",
        "state": "SP",
        "district": "Avarei",
        "street": "Avenida Faria Lima",
        "zipcode": "12303-070"
    },
    {
        "city": "Jacarei",
        "state": "SP",
        "district": "Jardim Das Industrias",
        "street": "Rua Catarina Magela Ramos",
        "zipcode": "12310-070"
    },
    {
        "city": "Jacarei",
        "state": "SP",
        "district": "Parque Brasil",
        "street": "Rua Olivio Vieira Da Rosa",
        "zipcode": "12303-100"
    },
    {
        "city": "Jacarei",
        "state": "SP",
        "district": "Jardim Pereira Do Amparo",
        "street": "Rua Miguel Leite Do Amparo",
        "zipcode": "12301-730"
    },
    {
        "city": "Jacarei",
        "state": "SP",
        "district": "Rio Comprido",
        "street": "Rua Resende",
        "zipcode": "12305-440"
    },
    {
        "city": "Jacarei",
        "state": "SP",
        "district": "Parque Brasil",
        "street": "Rua Joao Da Cruz Mariano",
        "zipcode": "12303-480"
    },
    {
        "city": "Jacarei",
        "state": "SP",
        "district": "Jardim Santa Maria",
        "street": "Avenida Carlos Drummond De Andrade",
        "zipcode": "12303-150"
    },
    {
        "city": "Jacarei",
        "state": "SP",
        "district": "Avarei",
        "street": "Rua Joao Abilio Da Costa",
        "zipcode": "12303-040"
    },
    {
        "city": "Jacarei",
        "state": "SP",
        "district": "Centro",
        "street": "Praça Conde Frontin",
        "zipcode": "12300-340"
    },
    {
        "city": "Jacarei",
        "state": "SP",
        "district": "Jardim Paraiso",
        "street": "Estrada Do Pedregulho",
        "zipcode": "12305-590"
    },
    {
        "city": "Jacarei",
        "state": "SP",
        "district": "Jardim Pereira Do Amparo",
        "street": "Rua Frans De Castro Holzwarth",
        "zipcode": "12301-660"
    },
    {
        "city": "Jacarei",
        "state": "SP",
        "district": "Vila Guedes",
        "street": "Rua Pedro Bassi",
        "zipcode": "12300-480"
    },
    {
        "city": "Jacarei",
        "state": "SP",
        "district": "Centro",
        "street": "Rua Sargento Agrisio Santana",
        "zipcode": "12300-320"
    },
    {
        "city": "Jacarei",
        "state": "SP",
        "district": "Jardim Santa Maria",
        "street": "Avenida Jose Pereira De Andrade",
        "zipcode": "12303-290"
    },
    {
        "city": "Jacarei",
        "state": "SP",
        "district": "Parque Brasil",
        "street": "Avenida Orval Salvador",
        "zipcode": "12303-470"
    },
    {
        "city": "Jacarei",
        "state": "SP",
        "district": "Rio Comprido",
        "street": "Rua Ceara",
        "zipcode": "12305-270"
    },
    {
        "city": "Jacarei",
        "state": "SP",
        "district": "Jardim Liberdade",
        "street": "Praça Jose Maria De Abreu",
        "zipcode": "12300-450"
    },
    {
        "city": "Jacarei",
        "state": "SP",
        "district": "Vila Guedes",
        "street": "Rua Antonio Carlos Piovesan",
        "zipcode": "12300-630"
    },
    {
        "city": "Jacarei",
        "state": "SP",
        "district": "Vila Guedes",
        "street": "Rua Filomena Giordano Monteiro",
        "zipcode": "12300-690"
    },
    {
        "city": "Jacarei",
        "state": "SP",
        "district": "Jardim Maria Amelia",
        "street": "Estrada Prof. Olinda A. Mercadante",
        "zipcode": "12318-560"
    },
    {
        "city": "Jacarei",
        "state": "SP",
        "district": "Jardim Liberdade",
        "street": "Rua Leopoldo Leite",
        "zipcode": "12300-470"
    },
    {
        "city": "Jacarei",
        "state": "SP",
        "district": "Vila Guedes",
        "street": "Rua Domingos Reis Piovesan",
        "zipcode": "12300-660"
    },
    {
        "city": "Jacarei",
        "state": "SP",
        "district": "Vila Guedes",
        "street": "Avenida Vicencia Batista Da Silva",
        "zipcode": "12300-750"
    },
    {
        "city": "Jacarei",
        "state": "SP",
        "district": "Jardim Florida",
        "street": "Rua Hawai",
        "zipcode": "12321-000"
    },
    {
        "city": "Jacarei",
        "state": "SP",
        "district": "Vila Guedes",
        "street": "Rua Prof. Maria Tereza Ganassali",
        "zipcode": "12300-490"
    },
    {
        "city": "Jacarei",
        "state": "SP",
        "district": "Sitio Sao Sebastiao (Sao Silvestre)",
        "street": "Estrada Freguesia Da Escada",
        "zipcode": "12340-500"
    },
    {
        "city": "Jacarei",
        "state": "SP",
        "district": "Vila Guedes",
        "street": "Avenida Gilberto Marcelino",
        "zipcode": "12300-580"
    }
]