[
    {
        "city": "Jaguariúna",
        "state": "SP",
        "district": "Nova Jaguariúna",
        "street": "Alameda dos Silva",
        "zipcode": "13919-434"
    },
    {
        "city": "Jaguariúna",
        "state": "SP",
        "district": "Jardim Sônia",
        "street": "Rua Rondônia",
        "zipcode": "13911-178"
    },
    {
        "city": "Jaguariúna",
        "state": "SP",
        "district": "Centro",
        "street": "Avenida Jaguary",
        "zipcode": "13910-039"
    },
    {
        "city": "Jaguariúna",
        "state": "SP",
        "district": "Jardim Primavera",
        "street": "Rua José Pimenta",
        "zipcode": "13916-152"
    },
    {
        "city": "Jaguariúna",
        "state": "SP",
        "district": "Parque Florianópolis",
        "street": "Rua Aparecida Marin",
        "zipcode": "13910-280"
    },
    {
        "city": "Jaguariúna",
        "state": "SP",
        "district": "Roseira de Cima",
        "street": "Rua Jaboticabeira",
        "zipcode": "13917-480"
    },
    {
        "city": "Jaguariúna",
        "state": "SP",
        "district": "Residencial Haras Patente",
        "street": "Alameda Manga Larga",
        "zipcode": "13918-224"
    },
    {
        "city": "Jaguariúna",
        "state": "SP",
        "district": "Residencial Haras Patente",
        "street": "Alameda Mustang",
        "zipcode": "13918-234"
    },
    {
        "city": "Jaguariúna",
        "state": "SP",
        "district": "Residencial Haras Patente",
        "street": "Alameda Árabe",
        "zipcode": "13918-228"
    },
    {
        "city": "Jaguariúna",
        "state": "SP",
        "district": "Residencial Haras Patente",
        "street": "Alameda Hípica",
        "zipcode": "13918-242"
    },
    {
        "city": "Jaguariúna",
        "state": "SP",
        "district": "Estância das Flores",
        "street": "Alameda Francisco de Campos",
        "zipcode": "13917-204"
    },
    {
        "city": "Jaguariúna",
        "state": "SP",
        "district": "Residencial Haras Patente",
        "street": "Alameda Appaloosa",
        "zipcode": "13918-226"
    },
    {
        "city": "Jaguariúna",
        "state": "SP",
        "district": "Residencial Haras Patente",
        "street": "Alameda Morgan",
        "zipcode": "13918-238"
    },
    {
        "city": "Jaguariúna",
        "state": "SP",
        "district": "Estância das Flores",
        "street": "Alameda Aparecida Marconato Tonini",
        "zipcode": "13917-202"
    },
    {
        "city": "Jaguariúna",
        "state": "SP",
        "district": "Pedro Pina",
        "street": "Rua Amapá",
        "zipcode": "13911-004"
    },
    {
        "city": "Jaguariúna",
        "state": "SP",
        "district": "Loteamento Prefeitura",
        "street": "Avenida Jaguary",
        "zipcode": "13911-010"
    },
    {
        "city": "Jaguariúna",
        "state": "SP",
        "district": "Condomínio Fazenda Duas Marias",
        "street": "Rua Nove A",
        "zipcode": "13916-430"
    },
    {
        "city": "Jaguariúna",
        "state": "SP",
        "district": "Residencial Haras Patente",
        "street": "Alameda Lippizziano",
        "zipcode": "13918-246"
    },
    {
        "city": "Jaguariúna",
        "state": "SP",
        "district": "Vila 7 de Setembro",
        "street": "Rua Prudente de Moraes",
        "zipcode": "13912-002"
    },
    {
        "city": "Jaguariúna",
        "state": "SP",
        "district": "Estância das Flores",
        "street": "Alameda Antonio Márcio Menegon",
        "zipcode": "13917-210"
    },
    {
        "city": "Jaguariúna",
        "state": "SP",
        "district": "Estância das Flores",
        "street": "Alameda Aires Pereira Pontes",
        "zipcode": "13917-198"
    },
    {
        "city": "Jaguariúna",
        "state": "SP",
        "district": "Residencial Haras Patente",
        "street": "Alameda Andaluz",
        "zipcode": "13918-222"
    },
    {
        "city": "Jaguariúna",
        "state": "SP",
        "district": "Estância das Flores",
        "street": "Alameda Adélia Salvador Bernardo",
        "zipcode": "13917-196"
    },
    {
        "city": "Jaguariúna",
        "state": "SP",
        "district": "Tanquinho Velho",
        "street": "Avenida Guido Tozzi",
        "zipcode": "13918-112"
    },
    {
        "city": "Jaguariúna",
        "state": "SP",
        "district": "Jardim Imperial",
        "street": "Rua José Frazatto",
        "zipcode": "13912-844"
    },
    {
        "city": "Jaguariúna",
        "state": "SP",
        "district": "Terras da Capela de Santo Antônio",
        "street": "Rua Queiroz",
        "zipcode": "13910-474"
    },
    {
        "city": "Jaguariúna",
        "state": "SP",
        "district": "Jardim Dona Irma",
        "street": "Praça Reynaldo Chiavegato",
        "zipcode": "13917-048"
    },
    {
        "city": "Jaguariúna",
        "state": "SP",
        "district": "Jardim Sônia",
        "street": "Praça Santa Maria",
        "zipcode": "13911-182"
    },
    {
        "city": "Jaguariúna",
        "state": "SP",
        "district": "Santa Cruz",
        "street": "Praça Santa Cruz",
        "zipcode": "13919-068"
    },
    {
        "city": "Jaguariúna",
        "state": "SP",
        "district": "Jardim Pinheiros",
        "street": "Rua Joaquim Elias",
        "zipcode": "13910-300"
    },
    {
        "city": "Jaguariúna",
        "state": "SP",
        "district": "Jardim São João 2° Parte",
        "street": "Rua José Alves Guedes",
        "zipcode": "13911-236"
    },
    {
        "city": "Jaguariúna",
        "state": "SP",
        "district": "Santa Maria",
        "street": "Rua José Alves Guedes",
        "zipcode": "13911-272"
    },
    {
        "city": "Jaguariúna",
        "state": "SP",
        "district": "Jardim São João",
        "street": "Rua José Alves Guedes",
        "zipcode": "13911-386"
    },
    {
        "city": "Jaguariúna",
        "state": "SP",
        "district": "Santa Maria",
        "street": "Rua José Alves Guedes",
        "zipcode": "13911-276"
    },
    {
        "city": "Jaguariúna",
        "state": "SP",
        "district": "Jardim Dom Bosco",
        "street": "Rua Joaquim Bueno",
        "zipcode": "13911-090"
    },
    {
        "city": "Jaguariúna",
        "state": "SP",
        "district": "Parque Florianópolis",
        "street": "Avenida João Batista de Oliveira Castro",
        "zipcode": "13910-284"
    },
    {
        "city": "Jaguariúna",
        "state": "SP",
        "district": "Jardim Sônia",
        "street": "Rua Alagoas",
        "zipcode": "13911-176"
    },
    {
        "city": "Jaguariúna",
        "state": "SP",
        "district": "Parque Florianópolis",
        "street": "Rua Benedito Pires de Camargo",
        "zipcode": "13910-288"
    },
    {
        "city": "Jaguariúna",
        "state": "SP",
        "district": "Jardim Pinheiros",
        "street": "Rua Benedito Norival Caetano",
        "zipcode": "13910-304"
    },
    {
        "city": "Jaguariúna",
        "state": "SP",
        "district": "Vila Primavera",
        "street": "Rua Eurico Lucilo Bergamasco (Lilão)",
        "zipcode": "13910-340"
    },
    {
        "city": "Jaguariúna",
        "state": "SP",
        "district": "Vila Primavera",
        "street": "Rua Gelson Tonietti (Terção)",
        "zipcode": "13910-354"
    },
    {
        "city": "Jaguariúna",
        "state": "SP",
        "district": "Vila Primavera",
        "street": "Rua Enedino Lucas de Almeida",
        "zipcode": "13910-346"
    },
    {
        "city": "Jaguariúna",
        "state": "SP",
        "district": "Terras da Capela de Santo Antônio",
        "street": "Rua Marin",
        "zipcode": "13910-480"
    },
    {
        "city": "Jaguariúna",
        "state": "SP",
        "district": "Parque Florianópolis",
        "street": "Rua Maria Munaretti Picelli",
        "zipcode": "13910-264"
    },
    {
        "city": "Jaguariúna",
        "state": "SP",
        "district": "Vila Primavera",
        "street": "Rua José Marcos Rodrigues dos Santos (Marcão)",
        "zipcode": "13910-360"
    },
    {
        "city": "Jaguariúna",
        "state": "SP",
        "district": "Parque Florianópolis",
        "street": "Rua Mansur Cordeiro",
        "zipcode": "13910-290"
    },
    {
        "city": "Jaguariúna",
        "state": "SP",
        "district": "Jardim São Sebastião",
        "street": "Rua Santo Marmirolli",
        "zipcode": "13917-174"
    },
    {
        "city": "Jaguariúna",
        "state": "SP",
        "district": "Jardim São João 2° Parte",
        "street": "Rua Prudente de Moraes",
        "zipcode": "13911-240"
    },
    {
        "city": "Jaguariúna",
        "state": "SP",
        "district": "Vila Primavera",
        "street": "Rua Sebastião de Oliveira (Maninho)",
        "zipcode": "13910-364"
    },
    {
        "city": "Jaguariúna",
        "state": "SP",
        "district": "Jardim Santa Mercedes",
        "street": "Rua Pinto Catão",
        "zipcode": "13912-532"
    },
    {
        "city": "Jaguariúna",
        "state": "SP",
        "district": "Centro",
        "street": "Praça Mogi Mirim",
        "zipcode": "13910-015"
    },
    {
        "city": "Jaguariúna",
        "state": "SP",
        "district": "Gleba Destacada da Fazenda Santa Cruz",
        "street": "Rua Cosmópolis",
        "zipcode": "13911-054"
    },
    {
        "city": "Jaguariúna",
        "state": "SP",
        "district": "Jardim Sônia",
        "street": "Praça Santa Maria",
        "zipcode": "13911-186"
    },
    {
        "city": "Jaguariúna",
        "state": "SP",
        "district": "Santa Maria",
        "street": "Praça Santa Maria",
        "zipcode": "13911-260"
    },
    {
        "city": "Jaguariúna",
        "state": "SP",
        "district": "Centro",
        "street": "Rua Joaquim Bueno",
        "zipcode": "13910-013"
    },
    {
        "city": "Jaguariúna",
        "state": "SP",
        "district": "Parque Florianópolis",
        "street": "Rua Moacyr Bergamasco",
        "zipcode": "13910-256"
    },
    {
        "city": "Jaguariúna",
        "state": "SP",
        "district": "Parque Florianópolis",
        "street": "Rua Joaquim Elias",
        "zipcode": "13910-274"
    },
    {
        "city": "Jaguariúna",
        "state": "SP",
        "district": "Parque Florianópolis",
        "street": "Rua Nicolau Rossi",
        "zipcode": "13910-276"
    },
    {
        "city": "Jaguariúna",
        "state": "SP",
        "district": "Vila Primavera",
        "street": "Rua Odivor Fontanella",
        "zipcode": "13910-336"
    },
    {
        "city": "Jaguariúna",
        "state": "SP",
        "district": "Vila Primavera",
        "street": "Rua Onivaldo Marconato (Dinho)",
        "zipcode": "13910-358"
    },
    {
        "city": "Jaguariúna",
        "state": "SP",
        "district": "Santa Maria",
        "street": "Rua Joaquim Bueno",
        "zipcode": "13911-270"
    },
    {
        "city": "Jaguariúna",
        "state": "SP",
        "district": "Vila 7 de Setembro",
        "street": "Rua José Bonifácio",
        "zipcode": "13912-006"
    },
    {
        "city": "Jaguariúna",
        "state": "SP",
        "district": "Vila Guilherme Giesbrecht",
        "street": "Rua José Aparecido Teodoro",
        "zipcode": "13917-006"
    },
    {
        "city": "Jaguariúna",
        "state": "SP",
        "district": "Jardim Haruji",
        "street": "Rua Joaquim Bueno",
        "zipcode": "13911-128"
    },
    {
        "city": "Jaguariúna",
        "state": "SP",
        "district": "Centro",
        "street": "Rua Sílvia Bueno",
        "zipcode": "13910-005"
    },
    {
        "city": "Jaguariúna",
        "state": "SP",
        "district": "Terras da Capela de Santo Antônio",
        "street": "Rua Vicentini",
        "zipcode": "13910-488"
    },
    {
        "city": "Jaguariúna",
        "state": "SP",
        "district": "Jardim Berlim",
        "street": "Travessa Santos Dumont",
        "zipcode": "13919-122"
    },
    {
        "city": "Jaguariúna",
        "state": "SP",
        "district": "Centro",
        "street": "Rua Egas Bueno",
        "zipcode": "13910-001"
    },
    {
        "city": "Jaguariúna",
        "state": "SP",
        "district": "Centro",
        "street": "Rua Julia Bueno",
        "zipcode": "13910-007"
    },
    {
        "city": "Jaguariúna",
        "state": "SP",
        "district": "Centro",
        "street": "Rua Coronel Amâncio Bueno",
        "zipcode": "13910-009"
    },
    {
        "city": "Jaguariúna",
        "state": "SP",
        "district": "Loteamento Prefeitura",
        "street": "Rua Santo Antonio de Posse",
        "zipcode": "13911-016"
    },
    {
        "city": "Jaguariúna",
        "state": "SP",
        "district": "Centro",
        "street": "Rua Joaquim Bueno",
        "zipcode": "13910-011"
    },
    {
        "city": "Jaguariúna",
        "state": "SP",
        "district": "Jardim Paraíso",
        "street": "Avenida Marginal",
        "zipcode": "13910-070"
    },
    {
        "city": "Jaguariúna",
        "state": "SP",
        "district": "Parque Florianópolis",
        "street": "Rua Albano Pereira de Godoy",
        "zipcode": "13910-286"
    },
    {
        "city": "Jaguariúna",
        "state": "SP",
        "district": "Jardim Pinheiros",
        "street": "Rua Vereador Moacir Montagnani",
        "zipcode": "13910-314"
    },
    {
        "city": "Jaguariúna",
        "state": "SP",
        "district": "Nova Jaguariúna",
        "street": "Rua José Antonio da Silva",
        "zipcode": "13919-418"
    },
    {
        "city": "Jaguariúna",
        "state": "SP",
        "district": "Colinas do Castelo",
        "street": "Rua Jorge Antonio Cury",
        "zipcode": "13919-598"
    },
    {
        "city": "Jaguariúna",
        "state": "SP",
        "district": "Loteamento São Pedro",
        "street": "Rua Joaquim Machado de Souza",
        "zipcode": "13912-818"
    },
    {
        "city": "Jaguariúna",
        "state": "SP",
        "district": "Nova Jaguariúna II",
        "street": "Rua José Antonio da Silva",
        "zipcode": "13919-450"
    },
    {
        "city": "Jaguariúna",
        "state": "SP",
        "district": "Loteamento Prefeitura",
        "street": "Avenida Doutor Jorge Rios Muraro",
        "zipcode": "13911-020"
    },
    {
        "city": "Jaguariúna",
        "state": "SP",
        "district": "Núcleo Urbano Bom Jardim",
        "street": "Estrada Municipal Amadeu Bruno",
        "zipcode": "13913-190"
    },
    {
        "city": "Jaguariúna",
        "state": "SP",
        "district": "Jardim Santa Mercedes",
        "street": "Avenida Alexandre Marion",
        "zipcode": "13912-544"
    },
    {
        "city": "Jaguariúna",
        "state": "SP",
        "district": "Vila São Francisco",
        "street": "Praça Alonso José de Almeida",
        "zipcode": "13912-032"
    },
    {
        "city": "Jaguariúna",
        "state": "SP",
        "district": "José Jacques Oliveira Germano",
        "street": "Rua Alcides de Oliveira Germano",
        "zipcode": "13912-150"
    },
    {
        "city": "Jaguariúna",
        "state": "SP",
        "district": "Jardim Paraíso",
        "street": "Rua Capitão Ulisses Massotti",
        "zipcode": "13910-072"
    },
    {
        "city": "Jaguariúna",
        "state": "SP",
        "district": "Residencial Parque dos Ipês",
        "street": "Rua Antonio de Almeida Fernandes (Antonio Zé)",
        "zipcode": "13912-432"
    },
    {
        "city": "Jaguariúna",
        "state": "SP",
        "district": "Jardim Pinheiros",
        "street": "Rua Aparecido Alves dos Santos",
        "zipcode": "13910-316"
    },
    {
        "city": "Jaguariúna",
        "state": "SP",
        "district": "Vila São Francisco",
        "street": "Rua Amazonas",
        "zipcode": "13912-030"
    },
    {
        "city": "Jaguariúna",
        "state": "SP",
        "district": "Jardim Imperial",
        "street": "Rua Antonio Oliveira Mathias",
        "zipcode": "13912-854"
    },
    {
        "city": "Jaguariúna",
        "state": "SP",
        "district": "Jardim São João",
        "street": "Rua Bahia",
        "zipcode": "13911-388"
    },
    {
        "city": "Jaguariúna",
        "state": "SP",
        "district": "Jardim Dom Bosco",
        "street": "Rua Guanabara",
        "zipcode": "13911-100"
    },
    {
        "city": "Jaguariúna",
        "state": "SP",
        "district": "Loteamento Prefeitura",
        "street": "Rua Doutor Dotto",
        "zipcode": "13911-018"
    },
    {
        "city": "Jaguariúna",
        "state": "SP",
        "district": "Conjunto Habitacional Vila 12 de Setembro 2° Etapa",
        "street": "Rua Eduardo Tozzi",
        "zipcode": "13912-624"
    },
    {
        "city": "Jaguariúna",
        "state": "SP",
        "district": "José Jacques Oliveira Germano",
        "street": "Rua Gabriel Francisco de Junqueira",
        "zipcode": "13912-160"
    },
    {
        "city": "Jaguariúna",
        "state": "SP",
        "district": "Jardim Imperial",
        "street": "Rua Mauro Aparecido Rosa",
        "zipcode": "13912-850"
    },
    {
        "city": "Jaguariúna",
        "state": "SP",
        "district": "Loteamento Santo Antonio",
        "street": "Rua Maranhão",
        "zipcode": "13912-704"
    },
    {
        "city": "Jaguariúna",
        "state": "SP",
        "district": "Gleba Destacada da Fazenda Santa Cruz",
        "street": "Rua Minas Gerais",
        "zipcode": "13911-062"
    },
    {
        "city": "Jaguariúna",
        "state": "SP",
        "district": "Residencial Reserva da Barra",
        "street": "Rua Lourival de Campos (Lourico)",
        "zipcode": "13913-388"
    },
    {
        "city": "Jaguariúna",
        "state": "SP",
        "district": "Loteamento Santo Antonio",
        "street": "Rua José Frazatto",
        "zipcode": "13912-690"
    },
    {
        "city": "Jaguariúna",
        "state": "SP",
        "district": "Loteamento Capotuna",
        "street": "Rua Ludovico Tonini",
        "zipcode": "13912-192"
    },
    {
        "city": "Jaguariúna",
        "state": "SP",
        "district": "Vila São Francisco",
        "street": "Rua José Malachias",
        "zipcode": "13912-034"
    },
    {
        "city": "Jaguariúna",
        "state": "SP",
        "district": "Santa Maria",
        "street": "Rua Júlio Frank",
        "zipcode": "13911-280"
    },
    {
        "city": "Jaguariúna",
        "state": "SP",
        "district": "Jardim Mauá II",
        "street": "Rua José Firmino de Souza",
        "zipcode": "13912-116"
    },
    {
        "city": "Jaguariúna",
        "state": "SP",
        "district": "Vila Mário Finotelli",
        "street": "Rua Salvador Torres",
        "zipcode": "13912-646"
    },
    {
        "city": "Jaguariúna",
        "state": "SP",
        "district": "Residencial Parque dos Ipês",
        "street": "Rua Serafim Abib",
        "zipcode": "13912-434"
    },
    {
        "city": "Jaguariúna",
        "state": "SP",
        "district": "Jardim Bela Vista",
        "street": "Rua Pedro Silveira Martins",
        "zipcode": "13911-412"
    },
    {
        "city": "Jaguariúna",
        "state": "SP",
        "district": "Jardim Fontanella",
        "street": "Rua Rio Grande do Sul",
        "zipcode": "13911-162"
    },
    {
        "city": "Jaguariúna",
        "state": "SP",
        "district": "Parque Florianópolis",
        "street": "Rua Alvair Ramos da Silva",
        "zipcode": "13910-258"
    },
    {
        "city": "Jaguariúna",
        "state": "SP",
        "district": "Jardim Zeni",
        "street": "Rua Custódio",
        "zipcode": "13912-464"
    },
    {
        "city": "Jaguariúna",
        "state": "SP",
        "district": "Vila Mário Finotelli",
        "street": "Rua Ângelo Torres",
        "zipcode": "13912-644"
    },
    {
        "city": "Jaguariúna",
        "state": "SP",
        "district": "Jardim São João",
        "street": "Rua Maranhão",
        "zipcode": "13911-380"
    },
    {
        "city": "Jaguariúna",
        "state": "SP",
        "district": "Terras da Capela de Santo Antônio",
        "street": "Rua Novaes",
        "zipcode": "13910-498"
    },
    {
        "city": "Jaguariúna",
        "state": "SP",
        "district": "Pedro Pina",
        "street": "Rua Joaquim Bueno",
        "zipcode": "13911-008"
    },
    {
        "city": "Jaguariúna",
        "state": "SP",
        "district": "4° Gleba Sítio Santo Ângelo",
        "street": "Rua João Pires Germano",
        "zipcode": "13912-084"
    },
    {
        "city": "Jaguariúna",
        "state": "SP",
        "district": "Residencial Parque dos Ipês",
        "street": "Rua Dez",
        "zipcode": "13912-422"
    },
    {
        "city": "Jaguariúna",
        "state": "SP",
        "district": "Residencial Parque dos Ipês",
        "street": "Rua Oito",
        "zipcode": "13912-426"
    },
    {
        "city": "Jaguariúna",
        "state": "SP",
        "district": "Residencial Parque dos Ipês",
        "street": "Rua DalBo",
        "zipcode": "13912-436"
    },
    {
        "city": "Jaguariúna",
        "state": "SP",
        "district": "Jardim Imperial",
        "street": "Rua João Gothardo",
        "zipcode": "13912-848"
    },
    {
        "city": "Jaguariúna",
        "state": "SP",
        "district": "Chácara Recreio Floresta",
        "street": "Rua João Ângelo",
        "zipcode": "13913-008"
    },
    {
        "city": "Jaguariúna",
        "state": "SP",
        "district": "Residencial Reserva da Barra",
        "street": "Rua Guiomar Rosa Magalhães Pimenta",
        "zipcode": "13913-372"
    },
    {
        "city": "Jaguariúna",
        "state": "SP",
        "district": "Loteamento Santo Antonio",
        "street": "Rua Valdomiro Rovaron",
        "zipcode": "13912-694"
    },
    {
        "city": "Jaguariúna",
        "state": "SP",
        "district": "Chácara Recreio Floresta",
        "street": "Rua Paulo Fernando Bonetti",
        "zipcode": "13913-000"
    },
    {
        "city": "Jaguariúna",
        "state": "SP",
        "district": "Chácaras Santo Antonio do Jardim",
        "street": "Rua Tonholo",
        "zipcode": "13913-280"
    },
    {
        "city": "Jaguariúna",
        "state": "SP",
        "district": "Jardim Dom Bosco",
        "street": "Rua Santa Catarina",
        "zipcode": "13911-098"
    },
    {
        "city": "Jaguariúna",
        "state": "SP",
        "district": "Chácara Primavera",
        "street": "Avenida Vicenzo Granghelli",
        "zipcode": "13916-144"
    },
    {
        "city": "Jaguariúna",
        "state": "SP",
        "district": "Condomínio Rural Colméia",
        "street": "Estrada Servidão",
        "zipcode": "13915-232"
    },
    {
        "city": "Jaguariúna",
        "state": "SP",
        "district": "Núcleo Residencial Doutor João Aldo Nassif",
        "street": "Avenida Antonio Pinto Catão",
        "zipcode": "13916-026"
    },
    {
        "city": "Jaguariúna",
        "state": "SP",
        "district": "Núcleo Urbano Parque Ana Helena",
        "street": "Estrada Municipal Governador André Franco Montoro",
        "zipcode": "13913-390"
    },
    {
        "city": "Jaguariúna",
        "state": "SP",
        "district": "Chácaras Santo Antonio do Jardim",
        "street": "Praça Arten",
        "zipcode": "13913-302"
    },
    {
        "city": "Jaguariúna",
        "state": "SP",
        "district": "Conjunto Habitacional Vila 12 de Setembro 1° Etapa",
        "street": "Praça Basaglia",
        "zipcode": "13912-570"
    },
    {
        "city": "Jaguariúna",
        "state": "SP",
        "district": "Chácara Santo Antônio Colméia",
        "street": "Rua Arlindo Bozi",
        "zipcode": "13915-294"
    },
    {
        "city": "Jaguariúna",
        "state": "SP",
        "district": "Gleba Destacada da Fazenda Santa Cruz",
        "street": "Rua Amazonas",
        "zipcode": "13911-056"
    },
    {
        "city": "Jaguariúna",
        "state": "SP",
        "district": "Jardim Alice",
        "street": "Rua Amazonas",
        "zipcode": "13912-060"
    },
    {
        "city": "Jaguariúna",
        "state": "SP",
        "district": "Jardim Venturini",
        "street": "Rua Cândido Venturini",
        "zipcode": "13911-472"
    },
    {
        "city": "Jaguariúna",
        "state": "SP",
        "district": "Vila São Francisco",
        "street": "Rua Arthur Nogueira",
        "zipcode": "13912-036"
    },
    {
        "city": "Jaguariúna",
        "state": "SP",
        "district": "Núcleo Urbano Parque Ana Helena",
        "street": "Rua Camata",
        "zipcode": "13913-402"
    },
    {
        "city": "Jaguariúna",
        "state": "SP",
        "district": "Núcleo Residencial Doutor João Aldo Nassif",
        "street": "Rua Benati",
        "zipcode": "13916-040"
    },
    {
        "city": "Jaguariúna",
        "state": "SP",
        "district": "Jardim das Laranjeiras",
        "street": "Rua Fortunato Antônio Chiurato",
        "zipcode": "13912-498"
    },
    {
        "city": "Jaguariúna",
        "state": "SP",
        "district": "Chácara Santo Antônio Colméia",
        "street": "Rua F",
        "zipcode": "13915-296"
    },
    {
        "city": "Jaguariúna",
        "state": "SP",
        "district": "Núcleo Urbano Parque Ana Helena",
        "street": "Rua Franceschini",
        "zipcode": "13913-414"
    },
    {
        "city": "Jaguariúna",
        "state": "SP",
        "district": "Jardim Alice",
        "street": "Rua Epitácio Pessoa",
        "zipcode": "13912-072"
    },
    {
        "city": "Jaguariúna",
        "state": "SP",
        "district": "Vila Jorge Zambon",
        "street": "Rua Francisco Bodini Neto (Chico Bodini)",
        "zipcode": "13914-166"
    },
    {
        "city": "Jaguariúna",
        "state": "SP",
        "district": "Residencial Arco Iris I",
        "street": "Rua Lourdes Frazatto",
        "zipcode": "13914-148"
    },
    {
        "city": "Jaguariúna",
        "state": "SP",
        "district": "Recanto Camanducaia",
        "street": "Rua Luiz Cyrillo Ferrari",
        "zipcode": "13915-006"
    },
    {
        "city": "Jaguariúna",
        "state": "SP",
        "district": "Recanto Camanducaia",
        "street": "Rua Maria Aparecida Gomes Mecenero",
        "zipcode": "13915-014"
    },
    {
        "city": "Jaguariúna",
        "state": "SP",
        "district": "Jardim Primavera",
        "street": "Rua José Roberto Pimenta",
        "zipcode": "13916-156"
    },
    {
        "city": "Jaguariúna",
        "state": "SP",
        "district": "Núcleo Residencial Doutor João Aldo Nassif",
        "street": "Rua Lanzoni",
        "zipcode": "13916-020"
    },
    {
        "city": "Jaguariúna",
        "state": "SP",
        "district": "Núcleo Residencial Doutor João Aldo Nassif",
        "street": "Rua Rovaron",
        "zipcode": "13916-044"
    },
    {
        "city": "Jaguariúna",
        "state": "SP",
        "district": "Jardim Fontanella",
        "street": "Rua Rio Grande do Norte",
        "zipcode": "13911-140"
    },
    {
        "city": "Jaguariúna",
        "state": "SP",
        "district": "Vila São Francisco",
        "street": "Rua Pedreira",
        "zipcode": "13912-038"
    },
    {
        "city": "Jaguariúna",
        "state": "SP",
        "district": "Núcleo Residencial Doutor João Aldo Nassif",
        "street": "Rua Pires",
        "zipcode": "13916-064"
    },
    {
        "city": "Jaguariúna",
        "state": "SP",
        "district": "Residencial Campo Camanducaia",
        "street": "Rua Pico da Neblina",
        "zipcode": "13916-210"
    },
    {
        "city": "Jaguariúna",
        "state": "SP",
        "district": "Jardim Europa",
        "street": "Rua Paulo Saviolli",
        "zipcode": "13914-038"
    },
    {
        "city": "Jaguariúna",
        "state": "SP",
        "district": "Núcleo Urbano Parque Ana Helena",
        "street": "Rua Botelho",
        "zipcode": "13913-392"
    },
    {
        "city": "Jaguariúna",
        "state": "SP",
        "district": "Centro",
        "street": "Praça Dona Umbelina Bueno",
        "zipcode": "13910-029"
    },
    {
        "city": "Jaguariúna",
        "state": "SP",
        "district": "Conjunto Habitacional Vila 12 de Setembro 2° Etapa",
        "street": "Rua Agostini",
        "zipcode": "13912-630"
    },
    {
        "city": "Jaguariúna",
        "state": "SP",
        "district": "Jardim Sylvio Rinaldi II",
        "street": "Praça Santo Serafim",
        "zipcode": "13914-100"
    },
    {
        "city": "Jaguariúna",
        "state": "SP",
        "district": "Condomínio Rural Colméia",
        "street": "Rodovia Governador Doutor Adhemar Pereira de Barros",
        "zipcode": "13915-230"
    },
    {
        "city": "Jaguariúna",
        "state": "SP",
        "district": "Jardim Alice",
        "street": "Rua Minas Gerais",
        "zipcode": "13912-074"
    },
    {
        "city": "Jaguariúna",
        "state": "SP",
        "district": "Jardim Elisa",
        "street": "Rua De Cara",
        "zipcode": "13912-484"
    },
    {
        "city": "Jaguariúna",
        "state": "SP",
        "district": "Jardim Europa",
        "street": "Rua Joaquim Nistarda da Silva",
        "zipcode": "13914-034"
    },
    {
        "city": "Jaguariúna",
        "state": "SP",
        "district": "Recanto Camanducaia",
        "street": "Rua José Carvalho Mineiro",
        "zipcode": "13915-008"
    },
    {
        "city": "Jaguariúna",
        "state": "SP",
        "district": "Núcleo Residencial Doutor João Aldo Nassif",
        "street": "Rua de Izepe",
        "zipcode": "13916-042"
    },
    {
        "city": "Jaguariúna",
        "state": "SP",
        "district": "Residencial Campo Camanducaia",
        "street": "Rua Parque Cabo Orange",
        "zipcode": "13916-236"
    },
    {
        "city": "Jaguariúna",
        "state": "SP",
        "district": "Condomínio Fazenda Duas Marias",
        "street": "Rua Oito A",
        "zipcode": "13916-424"
    },
    {
        "city": "Jaguariúna",
        "state": "SP",
        "district": "Condomínio Fazenda Duas Marias",
        "street": "Rua Oito",
        "zipcode": "13916-432"
    },
    {
        "city": "Jaguariúna",
        "state": "SP",
        "district": "Vila Mário Finotelli",
        "street": "Rua Souza",
        "zipcode": "13912-640"
    },
    {
        "city": "Jaguariúna",
        "state": "SP",
        "district": "Núcleo Residencial São José",
        "street": "Rua Rizzoni",
        "zipcode": "13914-462"
    },
    {
        "city": "Jaguariúna",
        "state": "SP",
        "district": "Jardim Boa Viista II",
        "street": "Rua Wenceslau Brás",
        "zipcode": "13914-500"
    },
    {
        "city": "Jaguariúna",
        "state": "SP",
        "district": "Jardim São Caetano",
        "street": "Praça Sete de Setembro",
        "zipcode": "13911-460"
    },
    {
        "city": "Jaguariúna",
        "state": "SP",
        "district": "Residencial Campo Camanducaia",
        "street": "Rua Ilha Grande",
        "zipcode": "13916-296"
    },
    {
        "city": "Jaguariúna",
        "state": "SP",
        "district": "Parque Florianópolis",
        "street": "Estrada Municipal Doutor Sebastião Paes de Almeida",
        "zipcode": "13910-250"
    },
    {
        "city": "Jaguariúna",
        "state": "SP",
        "district": "Vila Primavera",
        "street": "Estrada Municipal Doutor Sebastião Paes de Almeida",
        "zipcode": "13910-366"
    },
    {
        "city": "Jaguariúna",
        "state": "SP",
        "district": "Núcleo Residencial São José",
        "street": "Avenida Alexandre Marion",
        "zipcode": "13914-450"
    },
    {
        "city": "Jaguariúna",
        "state": "SP",
        "district": "Jardim Cruzeiro do Sul",
        "street": "Estrada Judite dos Santos Pinto",
        "zipcode": "13917-110"
    },
    {
        "city": "Jaguariúna",
        "state": "SP",
        "district": "Jardim Europa",
        "street": "Praça Antonio Cantisano",
        "zipcode": "13914-032"
    },
    {
        "city": "Jaguariúna",
        "state": "SP",
        "district": "Jardim Alice",
        "street": "Avenida Antonio Pinto Catão",
        "zipcode": "13912-076"
    },
    {
        "city": "Jaguariúna",
        "state": "SP",
        "district": "Juraci Alves Galdino",
        "street": "Avenida Alexandre Marion",
        "zipcode": "13912-674"
    },
    {
        "city": "Jaguariúna",
        "state": "SP",
        "district": "Conjunto Habitacional Vila 12 de Setembro 1° Etapa",
        "street": "Rua Bernadino",
        "zipcode": "13912-574"
    },
    {
        "city": "Jaguariúna",
        "state": "SP",
        "district": "Terras da Capela de Santo Antônio",
        "street": "Rua Baldassim",
        "zipcode": "13910-494"
    },
    {
        "city": "Jaguariúna",
        "state": "SP",
        "district": "Residencial Reserva da Barra",
        "street": "Rua Antonia Aparecida Soares de Oliveira",
        "zipcode": "13913-368"
    },
    {
        "city": "Jaguariúna",
        "state": "SP",
        "district": "Jardim Santa Mercedes",
        "street": "Rua Amazonas",
        "zipcode": "13912-530"
    },
    {
        "city": "Jaguariúna",
        "state": "SP",
        "district": "Núcleo Urbano Bom Jardim",
        "street": "Rua Antonio Testa",
        "zipcode": "13913-198"
    },
    {
        "city": "Jaguariúna",
        "state": "SP",
        "district": "Roseira de Baixo",
        "street": "Rua Cafeeiro",
        "zipcode": "13917-248"
    },
    {
        "city": "Jaguariúna",
        "state": "SP",
        "district": "Gleba Destacada da Fazenda Santa Cruz",
        "street": "Rua Doutor Clemente Holtman Júnior",
        "zipcode": "13911-050"
    },
    {
        "city": "Jaguariúna",
        "state": "SP",
        "district": "Jardim Cruzeiro do Sul",
        "street": "Rua Geraldo Anibal",
        "zipcode": "13917-148"
    },
    {
        "city": "Jaguariúna",
        "state": "SP",
        "district": "Núcleo Urbano Bom Jardim",
        "street": "Rua Floriano de Lima",
        "zipcode": "13913-206"
    },
    {
        "city": "Jaguariúna",
        "state": "SP",
        "district": "Jardim São João 2° Parte",
        "street": "Rua Epitácio Pessoa",
        "zipcode": "13911-234"
    },
    {
        "city": "Jaguariúna",
        "state": "SP",
        "district": "Residencial Campo Camanducaia",
        "street": "Rua Hebe Sumariava Manarini",
        "zipcode": "13916-252"
    },
    {
        "city": "Jaguariúna",
        "state": "SP",
        "district": "Conjunto Habitacional Vila 12 de Setembro 1° Etapa",
        "street": "Rua Eduardo Tozzi",
        "zipcode": "13912-572"
    },
    {
        "city": "Jaguariúna",
        "state": "SP",
        "district": "Parque Florianópolis",
        "street": "Rua Doutor Deodoro Reis",
        "zipcode": "13910-294"
    },
    {
        "city": "Jaguariúna",
        "state": "SP",
        "district": "Chácara Recreio Floresta",
        "street": "Rua Emílio Testa",
        "zipcode": "13913-012"
    },
    {
        "city": "Jaguariúna",
        "state": "SP",
        "district": "Chácara Recreio Floresta",
        "street": "Rua Luiza Setin Fernandes",
        "zipcode": "13913-022"
    },
    {
        "city": "Jaguariúna",
        "state": "SP",
        "district": "Jardim Novo Horizonte",
        "street": "Rua José Manoel Mendes",
        "zipcode": "13912-554"
    },
    {
        "city": "Jaguariúna",
        "state": "SP",
        "district": "Jardim Dona Irma",
        "street": "Rua José Moreira Netto",
        "zipcode": "13917-050"
    },
    {
        "city": "Jaguariúna",
        "state": "SP",
        "district": "Jardim Haruji",
        "street": "Rua Rio Grande do Norte",
        "zipcode": "13911-130"
    },
    {
        "city": "Jaguariúna",
        "state": "SP",
        "district": "Residencial Campo Camanducaia",
        "street": "Rua Parque Serra Dourada",
        "zipcode": "13916-240"
    },
    {
        "city": "Jaguariúna",
        "state": "SP",
        "district": "Recanto Camanducaia",
        "street": "Rua Sérgio Fornos",
        "zipcode": "13915-004"
    },
    {
        "city": "Jaguariúna",
        "state": "SP",
        "district": "Roseira de Cima",
        "street": "Rua Pedro Torres",
        "zipcode": "13917-482"
    },
    {
        "city": "Jaguariúna",
        "state": "SP",
        "district": "Jardim Cruzeiro do Sul",
        "street": "Rua Santo Marmirolli",
        "zipcode": "13917-114"
    },
    {
        "city": "Jaguariúna",
        "state": "SP",
        "district": "Jardim Paraíso",
        "street": "Rodovia SP 95",
        "zipcode": "13910-078"
    },
    {
        "city": "Jaguariúna",
        "state": "SP",
        "district": "Gleba Destacada da Fazenda Santa Cruz",
        "street": "Rua Ceará",
        "zipcode": "13911-058"
    },
    {
        "city": "Jaguariúna",
        "state": "SP",
        "district": "Núcleo Urbano Bom Jardim",
        "street": "Praça Olímpio Arten",
        "zipcode": "13913-196"
    },
    {
        "city": "Jaguariúna",
        "state": "SP",
        "district": "Residencial Campo Camanducaia",
        "street": "Rua Chapada das Mesas",
        "zipcode": "13916-220"
    },
    {
        "city": "Jaguariúna",
        "state": "SP",
        "district": "Condomínio Fazenda Duas Marias",
        "street": "Rua Dezesseis",
        "zipcode": "13916-446"
    },
    {
        "city": "Jaguariúna",
        "state": "SP",
        "district": "Parque Florianópolis",
        "street": "Rua Ormádio Pinola Filho",
        "zipcode": "13910-260"
    },
    {
        "city": "Jaguariúna",
        "state": "SP",
        "district": "Condomínio Fazenda Duas Marias",
        "street": "Rua Vinte e Dois",
        "zipcode": "13916-454"
    },
    {
        "city": "Jaguariúna",
        "state": "SP",
        "district": "Vila Guilherme Giesbrecht",
        "street": "Rua Thomaz Jasso",
        "zipcode": "13917-000"
    },
    {
        "city": "Jaguariúna",
        "state": "SP",
        "district": "Jardim Dona Irma",
        "street": "Rua Thomaz Jasso",
        "zipcode": "13917-058"
    },
    {
        "city": "Jaguariúna",
        "state": "SP",
        "district": "Jardim Cruzeiro do Sul",
        "street": "Rua Theodósio Rodrigues Otero",
        "zipcode": "13917-154"
    },
    {
        "city": "Jaguariúna",
        "state": "SP",
        "district": "Jardim Santa Mercedes",
        "street": "Rua Sylvio Pires de Campos",
        "zipcode": "13912-540"
    },
    {
        "city": "Jaguariúna",
        "state": "SP",
        "district": "Residencial Campo Camanducaia",
        "street": "Rua Serra do Pardo",
        "zipcode": "13916-254"
    },
    {
        "city": "Jaguariúna",
        "state": "SP",
        "district": "Núcleo Residencial Doutor João Aldo Nassif",
        "street": "Rua Francheta",
        "zipcode": "13916-024"
    },
    {
        "city": "Jaguariúna",
        "state": "SP",
        "district": "Residencial Campo Camanducaia",
        "street": "Rua Monte Pascoal",
        "zipcode": "13916-224"
    },
    {
        "city": "Jaguariúna",
        "state": "SP",
        "district": "Residencial Campo Camanducaia",
        "street": "Rua Parque da Tijuca",
        "zipcode": "13916-292"
    },
    {
        "city": "Jaguariúna",
        "state": "SP",
        "district": "Residencial Haras Patente",
        "street": "Alameda Puro Sangue Inglês",
        "zipcode": "13918-230"
    },
    {
        "city": "Jaguariúna",
        "state": "SP",
        "district": "Residencial Haras Patente",
        "street": "Alameda Bretão",
        "zipcode": "13918-240"
    },
    {
        "city": "Jaguariúna",
        "state": "SP",
        "district": "Tanquinho Velho",
        "street": "Estrada Municipal Santa Cruz (JGR 254)",
        "zipcode": "13918-114"
    },
    {
        "city": "Jaguariúna",
        "state": "SP",
        "district": "Chácara Nossa Senhora Aparecida",
        "street": "Estrada Municipal Jerônimo Rodrigues Azanha (JGR 284)",
        "zipcode": "13918-470"
    },
    {
        "city": "Jaguariúna",
        "state": "SP",
        "district": "Jardim São Sebastião",
        "street": "Avenida Enéas Ribas Furtado",
        "zipcode": "13917-180"
    },
    {
        "city": "Jaguariúna",
        "state": "SP",
        "district": "Colinas do Castelo",
        "street": "Rua Antonio Stefanini",
        "zipcode": "13919-596"
    },
    {
        "city": "Jaguariúna",
        "state": "SP",
        "district": "Residencial Águas do Jaguari",
        "street": "Rua Amauri Rodrigues",
        "zipcode": "13917-680"
    },
    {
        "city": "Jaguariúna",
        "state": "SP",
        "district": "Joaquim Alface",
        "street": "Rua Alfredo Bueno",
        "zipcode": "13919-152"
    },
    {
        "city": "Jaguariúna",
        "state": "SP",
        "district": "Residencial Campo Camanducaia",
        "street": "Rua Alto Cariri",
        "zipcode": "13916-276"
    },
    {
        "city": "Jaguariúna",
        "state": "SP",
        "district": "Jardim Cruzeiro do Sul",
        "street": "Rua Gaspere",
        "zipcode": "13917-138"
    },
    {
        "city": "Jaguariúna",
        "state": "SP",
        "district": "Frazatto",
        "street": "Rua Doutor Clemente Holtman Júnior",
        "zipcode": "13911-082"
    },
    {
        "city": "Jaguariúna",
        "state": "SP",
        "district": "Nova Jaguariúna",
        "street": "Rua Francisco Bodini",
        "zipcode": "13919-410"
    },
    {
        "city": "Jaguariúna",
        "state": "SP",
        "district": "Nova Jaguariúna II",
        "street": "Rua Gusmão",
        "zipcode": "13919-446"
    },
    {
        "city": "Jaguariúna",
        "state": "SP",
        "district": "Nova Jaguariúna II",
        "street": "Rua Francisco Bodini",
        "zipcode": "13919-458"
    },
    {
        "city": "Jaguariúna",
        "state": "SP",
        "district": "Residencial Águas do Jaguari",
        "street": "Rua Manoel Vitor dos Santos Nascimento",
        "zipcode": "13917-692"
    },
    {
        "city": "Jaguariúna",
        "state": "SP",
        "district": "Nova Jaguariúna III",
        "street": "Rua Maria Florian Astini",
        "zipcode": "13919-474"
    },
    {
        "city": "Jaguariúna",
        "state": "SP",
        "district": "Nova Jaguariúna",
        "street": "Rua José Luiz Silho",
        "zipcode": "13919-416"
    },
    {
        "city": "Jaguariúna",
        "state": "SP",
        "district": "Parque Antonio Barbosa",
        "street": "Rua Lino Sisti",
        "zipcode": "13914-234"
    },
    {
        "city": "Jaguariúna",
        "state": "SP",
        "district": "Roseira de Cima",
        "street": "Rua Laranjeira",
        "zipcode": "13917-486"
    },
    {
        "city": "Jaguariúna",
        "state": "SP",
        "district": "Jardim Mauá",
        "street": "Rua Pedreira",
        "zipcode": "13912-054"
    },
    {
        "city": "Jaguariúna",
        "state": "SP",
        "district": "4° Gleba Sítio Santo Ângelo",
        "street": "Rua Regente Feijó",
        "zipcode": "13912-082"
    },
    {
        "city": "Jaguariúna",
        "state": "SP",
        "district": "Nova Jaguariúna",
        "street": "Rua Salles",
        "zipcode": "13919-422"
    },
    {
        "city": "Jaguariúna",
        "state": "SP",
        "district": "Terras da Capela de Santo Antônio",
        "street": "Rua Santiago",
        "zipcode": "13910-476"
    },
    {
        "city": "Jaguariúna",
        "state": "SP",
        "district": "Terras da Capela de Santo Antônio",
        "street": "Rua Pina",
        "zipcode": "13910-496"
    },
    {
        "city": "Jaguariúna",
        "state": "SP",
        "district": "Gleba Destacada da Fazenda Santa Cruz",
        "street": "Rua São Paulo",
        "zipcode": "13911-066"
    },
    {
        "city": "Jaguariúna",
        "state": "SP",
        "district": "Residencial Águas do Jaguari",
        "street": "Rua Salvador Martins Barbosa",
        "zipcode": "13917-690"
    },
    {
        "city": "Jaguariúna",
        "state": "SP",
        "district": "Jardim Novo Horizonte",
        "street": "Rua Pinto Catão",
        "zipcode": "13912-558"
    },
    {
        "city": "Jaguariúna",
        "state": "SP",
        "district": "Nova Jaguariúna II",
        "street": "Rua Carlos Gobbi",
        "zipcode": "13919-452"
    },
    {
        "city": "Jaguariúna",
        "state": "SP",
        "district": "Colinas do Castelo",
        "street": "Avenida Milton Fortunato Guglielminet",
        "zipcode": "13919-590"
    },
    {
        "city": "Jaguariúna",
        "state": "SP",
        "district": "Residencial Campo Camanducaia",
        "street": "Rua Chapada dos Veadeiros",
        "zipcode": "13916-298"
    },
    {
        "city": "Jaguariúna",
        "state": "SP",
        "district": "Jardim São Sebastião",
        "street": "Rua Testa",
        "zipcode": "13917-176"
    },
    {
        "city": "Jaguariúna",
        "state": "SP",
        "district": "Núcleo Residencial São José",
        "street": "Rua Wenceslau Brás",
        "zipcode": "13914-452"
    },
    {
        "city": "Jaguariúna",
        "state": "SP",
        "district": "Conjunto Habitacional Vila 12 de Setembro 1° Etapa",
        "street": "Rua Pinto Catão",
        "zipcode": "13912-578"
    },
    {
        "city": "Jaguariúna",
        "state": "SP",
        "district": "Residencial Campo Camanducaia",
        "street": "Rua Ubajará",
        "zipcode": "13916-278"
    },
    {
        "city": "Jaguariúna",
        "state": "SP",
        "district": "Jardim Novo Jaguari",
        "street": "Rua XV de Novembro",
        "zipcode": "13919-102"
    },
    {
        "city": "Jaguariúna",
        "state": "SP",
        "district": "Núcleo Residencial Doutor João Aldo Nassif",
        "street": "Rua Turato",
        "zipcode": "13916-068"
    },
    {
        "city": "Jaguariúna",
        "state": "SP",
        "district": "Jardim Berlim",
        "street": "Praça das Andorinhas",
        "zipcode": "13919-138"
    },
    {
        "city": "Jaguariúna",
        "state": "SP",
        "district": "Centro",
        "street": "Rua José Alves Guedes",
        "zipcode": "13910-021"
    },
    {
        "city": "Jaguariúna",
        "state": "SP",
        "district": "Residencial Campo Camanducaia",
        "street": "Rua Nascentes do Rio Parnaíba",
        "zipcode": "13916-300"
    },
    {
        "city": "Jaguariúna",
        "state": "SP",
        "district": "Condomínio Fazenda Duas Marias",
        "street": "Rua Dois",
        "zipcode": "13916-412"
    },
    {
        "city": "Jaguariúna",
        "state": "SP",
        "district": "Condomínio Fazenda Duas Marias",
        "street": "Rua Dez",
        "zipcode": "13916-434"
    },
    {
        "city": "Jaguariúna",
        "state": "SP",
        "district": "Santa Cruz",
        "street": "Rua Joaquim Bueno",
        "zipcode": "13919-070"
    },
    {
        "city": "Jaguariúna",
        "state": "SP",
        "district": "Joaquim Alface",
        "street": "Praça das Andorinhas",
        "zipcode": "13919-154"
    },
    {
        "city": "Jaguariúna",
        "state": "SP",
        "district": "Núcleo Urbano Parque Ana Helena",
        "street": "Praça Rebelato",
        "zipcode": "13913-394"
    },
    {
        "city": "Jaguariúna",
        "state": "SP",
        "district": "Santa Cruz",
        "street": "Alameda Antonio Márcio Menegon",
        "zipcode": "13919-052"
    },
    {
        "city": "Jaguariúna",
        "state": "SP",
        "district": "Centro",
        "street": "Rua José Alves Guedes 444",
        "zipcode": "13820-971"
    },
    {
        "city": "Jaguariúna",
        "state": "SP",
        "district": "",
        "street": "",
        "zipcode": "13820-000"
    },
    {
        "city": "Jaguariúna",
        "state": "SP",
        "district": "Jardim Boa Vista",
        "street": "Avenida Alexandre Marion",
        "zipcode": "13914-482"
    },
    {
        "city": "Jaguariúna",
        "state": "SP",
        "district": "Residencial Haras Patente",
        "street": "Alameda Paddock",
        "zipcode": "13918-244"
    },
    {
        "city": "Jaguariúna",
        "state": "SP",
        "district": "Residencial Haras Patente",
        "street": "Alameda Campolina",
        "zipcode": "13918-236"
    },
    {
        "city": "Jaguariúna",
        "state": "SP",
        "district": "Estância das Flores",
        "street": "Alameda Therezinha da Silva Abrucez",
        "zipcode": "13917-212"
    },
    {
        "city": "Jaguariúna",
        "state": "SP",
        "district": "Residencial Haras Patente",
        "street": "Alameda Quarto de Milha",
        "zipcode": "13918-232"
    },
    {
        "city": "Jaguariúna",
        "state": "SP",
        "district": "Chácara Recreio Floresta",
        "street": "Avenida Airton Senna",
        "zipcode": "13913-014"
    },
    {
        "city": "Jaguariúna",
        "state": "SP",
        "district": "Loteamento Santo Antonio",
        "street": "Avenida Alexandre Marion",
        "zipcode": "13912-702"
    },
    {
        "city": "Jaguariúna",
        "state": "SP",
        "district": "Jardim Dona Luiza",
        "street": "Avenida Alexandre Marion",
        "zipcode": "13912-680"
    },
    {
        "city": "Jaguariúna",
        "state": "SP",
        "district": "Conjunto Habitacional Vila 12 de Setembro 2° Etapa",
        "street": "Avenida Alexandre Marion",
        "zipcode": "13912-620"
    },
    {
        "city": "Jaguariúna",
        "state": "SP",
        "district": "Conjunto Habitacional Vila 12 de Setembro 1° Etapa",
        "street": "Avenida Alexandre Marion",
        "zipcode": "13912-580"
    },
    {
        "city": "Jaguariúna",
        "state": "SP",
        "district": "Jardim Novo Horizonte",
        "street": "Avenida Alexandre Marion",
        "zipcode": "13912-550"
    },
    {
        "city": "Jaguariúna",
        "state": "SP",
        "district": "Santa Úrsula",
        "street": "Avenida Armando Mário Tozzi",
        "zipcode": "13918-002"
    },
    {
        "city": "Jaguariúna",
        "state": "SP",
        "district": "Loteamento Capotuna",
        "street": "Avenida Antonio Pinto Catão",
        "zipcode": "13912-180"
    },
    {
        "city": "Jaguariúna",
        "state": "SP",
        "district": "Jardim Mauá II",
        "street": "Avenida Antonio Pinto Catão",
        "zipcode": "13912-122"
    },
    {
        "city": "Jaguariúna",
        "state": "SP",
        "district": "Jardim das Laranjeiras",
        "street": "Avenida Antonio Pinto Catão",
        "zipcode": "13912-502"
    },
    {
        "city": "Jaguariúna",
        "state": "SP",
        "district": "Nova Jaguariúna",
        "street": "Avenida Januário Eliseu de Navarro",
        "zipcode": "13919-428"
    },
    {
        "city": "Jaguariúna",
        "state": "SP",
        "district": "Parque Florianópolis",
        "street": "Avenida Francisco Sales Pires",
        "zipcode": "13910-272"
    },
    {
        "city": "Jaguariúna",
        "state": "SP",
        "district": "Nova Jaguariúna II",
        "street": "Avenida Januário Eliseu de Navarro",
        "zipcode": "13919-440"
    },
    {
        "city": "Jaguariúna",
        "state": "SP",
        "district": "Laércio Finotelli",
        "street": "Avenida Alexandre Marion",
        "zipcode": "13912-590"
    },
    {
        "city": "Jaguariúna",
        "state": "SP",
        "district": "Joaquim Alface",
        "street": "Avenida Jaguary",
        "zipcode": "13919-150"
    },
    {
        "city": "Jaguariúna",
        "state": "SP",
        "district": "Estância das Flores",
        "street": "Avenida dos Ipês",
        "zipcode": "13917-190"
    },
    {
        "city": "Jaguariúna",
        "state": "SP",
        "district": "Jardim Sylvio Rinaldi I",
        "street": "Avenida Antonio Pinto Catão",
        "zipcode": "13914-122"
    },
    {
        "city": "Jaguariúna",
        "state": "SP",
        "district": "Vargeão",
        "street": "Avenida Alexandre Marion",
        "zipcode": "13914-550"
    },
    {
        "city": "Jaguariúna",
        "state": "SP",
        "district": "4° Gleba Sítio Santo Ângelo",
        "street": "Avenida Antonio Pinto Catão",
        "zipcode": "13912-080"
    },
    {
        "city": "Jaguariúna",
        "state": "SP",
        "district": "Chácara Primavera",
        "street": "Avenida Batista Pina",
        "zipcode": "13916-142"
    },
    {
        "city": "Jaguariúna",
        "state": "SP",
        "district": "Santa Úrsula",
        "street": "Avenida Antarctica",
        "zipcode": "13918-000"
    },
    {
        "city": "Jaguariúna",
        "state": "SP",
        "district": "Jardim Cruzeiro do Sul",
        "street": "Avenida Cruzeiro do Sul",
        "zipcode": "13917-116"
    },
    {
        "city": "Jaguariúna",
        "state": "SP",
        "district": "Jardim Elisa",
        "street": "Avenida Antonio Pinto Catão",
        "zipcode": "13912-470"
    },
    {
        "city": "Jaguariúna",
        "state": "SP",
        "district": "Jardim Europa",
        "street": "Avenida Antonio Pinto Catão",
        "zipcode": "13914-002"
    },
    {
        "city": "Jaguariúna",
        "state": "SP",
        "district": "Residencial Haras Patente",
        "street": "Avenida Haras Patente",
        "zipcode": "13918-220"
    },
    {
        "city": "Jaguariúna",
        "state": "SP",
        "district": "Estância das Flores",
        "street": "Avenida Dermi Antonio Rovaris",
        "zipcode": "13917-192"
    },
    {
        "city": "Jaguariúna",
        "state": "SP",
        "district": "Centro",
        "street": "Avenida Januário Eliseu de Navarro",
        "zipcode": "13910-043"
    },
    {
        "city": "Jaguariúna",
        "state": "SP",
        "district": "Nova Jaguariúna III",
        "street": "Rua Elisa Semeghini Poltronieri",
        "zipcode": "13919-476"
    },
    {
        "city": "Jaguariúna",
        "state": "SP",
        "district": "Jardim Berlim",
        "street": "Rua Júlio Frank",
        "zipcode": "13919-116"
    },
    {
        "city": "Jaguariúna",
        "state": "SP",
        "district": "Residencial Campo Camanducaia",
        "street": "Avenida Ademar Heitor Manarini",
        "zipcode": "13916-218"
    },
    {
        "city": "Jaguariúna",
        "state": "SP",
        "district": "Jardim Berlim",
        "street": "Travessa Princesa Isabel",
        "zipcode": "13919-114"
    },
    {
        "city": "Jaguariúna",
        "state": "SP",
        "district": "Jardim Boa Vista",
        "street": "Rua Nistarda",
        "zipcode": "13914-488"
    },
    {
        "city": "Jaguariúna",
        "state": "SP",
        "district": "Jardim Boa Viista II",
        "street": "Avenida Alexandre Marion",
        "zipcode": "13914-510"
    },
    {
        "city": "Jaguariúna",
        "state": "SP",
        "district": "Jardim Dona Irma",
        "street": "Rua Adhemar Ferrari",
        "zipcode": "13917-044"
    },
    {
        "city": "Jaguariúna",
        "state": "SP",
        "district": "Chácara São João",
        "street": "Rua Itália",
        "zipcode": "13919-084"
    },
    {
        "city": "Jaguariúna",
        "state": "SP",
        "district": "Núcleo Residencial São José",
        "street": "Praça Menegon",
        "zipcode": "13914-454"
    },
    {
        "city": "Jaguariúna",
        "state": "SP",
        "district": "Estância das Flores",
        "street": "Alameda Vereador Deoclécio de Oliveira Neto",
        "zipcode": "13917-200"
    },
    {
        "city": "Jaguariúna",
        "state": "SP",
        "district": "Vargeão",
        "street": "Avenida Pacífico Moneda",
        "zipcode": "13914-552"
    },
    {
        "city": "Jaguariúna",
        "state": "SP",
        "district": "Loteamento São Pedro",
        "street": "Estrada Mariana Queiroz Catão",
        "zipcode": "13912-810"
    },
    {
        "city": "Jaguariúna",
        "state": "SP",
        "district": "Núcleo Urbano Bom Jardim",
        "street": "Praça Américo Venturini",
        "zipcode": "13913-210"
    },
    {
        "city": "Jaguariúna",
        "state": "SP",
        "district": "Jardim Cruzeiro do Sul",
        "street": "Ladeira Antonio Sanchetta",
        "zipcode": "13917-142"
    },
    {
        "city": "Jaguariúna",
        "state": "SP",
        "district": "Loteamento Capotuna",
        "street": "Praça Basaglia",
        "zipcode": "13912-202"
    },
    {
        "city": "Jaguariúna",
        "state": "SP",
        "district": "Jardim Europa",
        "street": "Avenida Rinaldi",
        "zipcode": "13914-010"
    },
    {
        "city": "Jaguariúna",
        "state": "SP",
        "district": "Residencial Arco Iris I",
        "street": "Avenida Rinaldi",
        "zipcode": "13914-150"
    },
    {
        "city": "Jaguariúna",
        "state": "SP",
        "district": "Jardim Cruzeiro do Sul",
        "street": "Ladeira Professor Eraldo Moraes Penteado",
        "zipcode": "13917-128"
    },
    {
        "city": "Jaguariúna",
        "state": "SP",
        "district": "Centro",
        "street": "Avenida Lauro de Carvalho",
        "zipcode": "13910-025"
    },
    {
        "city": "Jaguariúna",
        "state": "SP",
        "district": "Chácara Barreiro",
        "street": "Estrada de Servidão",
        "zipcode": "13917-224"
    },
    {
        "city": "Jaguariúna",
        "state": "SP",
        "district": "Chácara Barreiro",
        "street": "Avenida dos Ipês",
        "zipcode": "13917-220"
    },
    {
        "city": "Jaguariúna",
        "state": "SP",
        "district": "Chácara Long Island",
        "street": "Avenida Luiz Zoia",
        "zipcode": "13918-450"
    },
    {
        "city": "Jaguariúna",
        "state": "SP",
        "district": "Jardim Planalto",
        "street": "Avenida Antonio Pinto Catão",
        "zipcode": "13912-510"
    },
    {
        "city": "Jaguariúna",
        "state": "SP",
        "district": "Jardim Berlim",
        "street": "Avenida Jaguary",
        "zipcode": "13919-148"
    },
    {
        "city": "Jaguariúna",
        "state": "SP",
        "district": "Centro",
        "street": "Estrada Municipal Amalia DalBo",
        "zipcode": "13910-045"
    },
    {
        "city": "Jaguariúna",
        "state": "SP",
        "district": "Jardim Sylvio Rinaldi I",
        "street": "Avenida Rinaldi",
        "zipcode": "13914-120"
    },
    {
        "city": "Jaguariúna",
        "state": "SP",
        "district": "Vila Jorge Zambon",
        "street": "Estrada Municipal Antonio Pina",
        "zipcode": "13914-176"
    },
    {
        "city": "Jaguariúna",
        "state": "SP",
        "district": "Jardim Tonini",
        "street": "Praça Alexandre Munaretti",
        "zipcode": "13911-452"
    },
    {
        "city": "Jaguariúna",
        "state": "SP",
        "district": "Núcleo Residencial Doutor João Aldo Nassif",
        "street": "Avenida Vicenzo Granghelli",
        "zipcode": "13916-058"
    },
    {
        "city": "Jaguariúna",
        "state": "SP",
        "district": "Núcleo Residencial Doutor João Aldo Nassif",
        "street": "Avenida Vicenzo Granghelli",
        "zipcode": "13916-056"
    },
    {
        "city": "Jaguariúna",
        "state": "SP",
        "district": "Jardim Primavera",
        "street": "Avenida Vicenzo Granghelli",
        "zipcode": "13916-150"
    },
    {
        "city": "Jaguariúna",
        "state": "SP",
        "district": "Sítio e Pesqueiro Recanto",
        "street": "Estrada Um",
        "zipcode": "13916-570"
    },
    {
        "city": "Jaguariúna",
        "state": "SP",
        "district": "Sítio e Pesqueiro Recanto",
        "street": "Estrada Três",
        "zipcode": "13916-574"
    },
    {
        "city": "Jaguariúna",
        "state": "SP",
        "district": "Residencial Reserva da Barra",
        "street": "Estrada Municipal Governador André Franco Montoro",
        "zipcode": "13913-360"
    },
    {
        "city": "Jaguariúna",
        "state": "SP",
        "district": "Parque Antonio Barbosa",
        "street": "Avenida Rinaldi",
        "zipcode": "13914-230"
    },
    {
        "city": "Jaguariúna",
        "state": "SP",
        "district": "Parque Florianópolis",
        "street": "Avenida José DalCorso",
        "zipcode": "13910-252"
    },
    {
        "city": "Jaguariúna",
        "state": "SP",
        "district": "Chácara Recreio Primavera",
        "street": "Estrada Judite dos Santos Pinto",
        "zipcode": "13917-082"
    },
    {
        "city": "Jaguariúna",
        "state": "SP",
        "district": "Sítio e Pesqueiro Recanto",
        "street": "Estrada Dois",
        "zipcode": "13916-572"
    },
    {
        "city": "Jaguariúna",
        "state": "SP",
        "district": "Jardim Cruzeiro do Sul",
        "street": "Ladeira Athos Gallo",
        "zipcode": "13917-134"
    },
    {
        "city": "Jaguariúna",
        "state": "SP",
        "district": "Jardim São Sebastião",
        "street": "Avenida Mistieri",
        "zipcode": "13917-182"
    },
    {
        "city": "Jaguariúna",
        "state": "SP",
        "district": "Jardim Cruzeiro do Sul",
        "street": "Ladeira Antonio Chaparin",
        "zipcode": "13917-132"
    },
    {
        "city": "Jaguariúna",
        "state": "SP",
        "district": "Jardim Sylvio Rinaldi II",
        "street": "Praça Antonio Cantisano",
        "zipcode": "13914-110"
    },
    {
        "city": "Jaguariúna",
        "state": "SP",
        "district": "Jardim Sylvio Rinaldi II",
        "street": "Avenida Rinaldi",
        "zipcode": "13914-118"
    },
    {
        "city": "Jaguariúna",
        "state": "SP",
        "district": "Vila Jorge Zambon",
        "street": "Avenida Rinaldi",
        "zipcode": "13914-160"
    },
    {
        "city": "Jaguariúna",
        "state": "SP",
        "district": "Loteamento Capotuna",
        "street": "Estrada Mariana Queiroz Catão",
        "zipcode": "13912-206"
    },
    {
        "city": "Jaguariúna",
        "state": "SP",
        "district": "Santa Cruz",
        "street": "Avenida Antarctica",
        "zipcode": "13919-050"
    },
    {
        "city": "Jaguariúna",
        "state": "SP",
        "district": "Jardim Tonini",
        "street": "Avenida Tiradentes",
        "zipcode": "13911-456"
    },
    {
        "city": "Jaguariúna",
        "state": "SP",
        "district": "Jardim Cruzeiro do Sul",
        "street": "Ladeira Jorge Theodoro Lima",
        "zipcode": "13917-136"
    },
    {
        "city": "Jaguariúna",
        "state": "SP",
        "district": "Jardim Novo Jaguari",
        "street": "Avenida Lauro de Carvalho",
        "zipcode": "13919-100"
    },
    {
        "city": "Jaguariúna",
        "state": "SP",
        "district": "Jardim São João 2° Parte",
        "street": "Avenida Tiradentes",
        "zipcode": "13911-254"
    },
    {
        "city": "Jaguariúna",
        "state": "SP",
        "district": "Jardim Fontanella",
        "street": "Avenida Tiradentes",
        "zipcode": "13911-148"
    },
    {
        "city": "Jaguariúna",
        "state": "SP",
        "district": "Jardim Cruzeiro do Sul",
        "street": "Ladeira Ricardo Zanchetta",
        "zipcode": "13917-130"
    },
    {
        "city": "Jaguariúna",
        "state": "SP",
        "district": "Tanquinho Velho",
        "street": "Estrada Municipal Jerônimo Rodrigues Azanha (JGR 284)",
        "zipcode": "13918-116"
    },
    {
        "city": "Jaguariúna",
        "state": "SP",
        "district": "Chácara Santo Antônio Colméia",
        "street": "Estrada Marginal",
        "zipcode": "13915-292"
    },
    {
        "city": "Jaguariúna",
        "state": "SP",
        "district": "Roseira de Baixo",
        "street": "Avenida dos Ipês",
        "zipcode": "13917-254"
    },
    {
        "city": "Jaguariúna",
        "state": "SP",
        "district": "Jardim Novo Horizonte",
        "street": "Praça Basaglia",
        "zipcode": "13912-560"
    },
    {
        "city": "Jaguariúna",
        "state": "SP",
        "district": "Jardim Cruzeiro do Sul",
        "street": "Ladeira Luiz Ferrari (Gim)",
        "zipcode": "13917-140"
    },
    {
        "city": "Jaguariúna",
        "state": "SP",
        "district": "Chácara Pesqueiro Roseira",
        "street": "Estrada de Servidão",
        "zipcode": "13917-672"
    },
    {
        "city": "Jaguariúna",
        "state": "SP",
        "district": "Jardim Haruji",
        "street": "Praça Cyrillo Fontanella",
        "zipcode": "13911-124"
    },
    {
        "city": "Jaguariúna",
        "state": "SP",
        "district": "Jardim Paraíso",
        "street": "Praça Carlos Gomes",
        "zipcode": "13910-074"
    },
    {
        "city": "Jaguariúna",
        "state": "SP",
        "district": "Chácara Long Island",
        "street": "Praça Cecília Nader Hossri",
        "zipcode": "13918-468"
    },
    {
        "city": "Jaguariúna",
        "state": "SP",
        "district": "Santa Maria",
        "street": "Praça Brasília",
        "zipcode": "13911-274"
    },
    {
        "city": "Jaguariúna",
        "state": "SP",
        "district": "Jardim Fontanella",
        "street": "Praça Cyrillo Fontanella",
        "zipcode": "13911-144"
    },
    {
        "city": "Jaguariúna",
        "state": "SP",
        "district": "Jardim Berlim",
        "street": "Avenida Lauro de Carvalho",
        "zipcode": "13919-136"
    },
    {
        "city": "Jaguariúna",
        "state": "SP",
        "district": "Jardim Novo Jaguari",
        "street": "Praça Bolívia",
        "zipcode": "13919-096"
    },
    {
        "city": "Jaguariúna",
        "state": "SP",
        "district": "Jardim São João",
        "street": "Praça Brasília",
        "zipcode": "13911-384"
    },
    {
        "city": "Jaguariúna",
        "state": "SP",
        "district": "Vila Mário Finotelli",
        "street": "Praça Charles Hundson Clemente",
        "zipcode": "13912-648"
    },
    {
        "city": "Jaguariúna",
        "state": "SP",
        "district": "Loteamento Prefeitura",
        "street": "Rua Amazonas",
        "zipcode": "13911-012"
    },
    {
        "city": "Jaguariúna",
        "state": "SP",
        "district": "Jardim São João 2° Parte",
        "street": "Praça Santa Maria",
        "zipcode": "13911-248"
    },
    {
        "city": "Jaguariúna",
        "state": "SP",
        "district": "Jardim São João 2° Parte",
        "street": "Praça Santa Maria",
        "zipcode": "13911-250"
    },
    {
        "city": "Jaguariúna",
        "state": "SP",
        "district": "Loteamento Capotuna",
        "street": "Praça João Gandolphi",
        "zipcode": "13912-198"
    },
    {
        "city": "Jaguariúna",
        "state": "SP",
        "district": "Loteamento Capotuna",
        "street": "Praça Francisco Parizi",
        "zipcode": "13912-200"
    },
    {
        "city": "Jaguariúna",
        "state": "SP",
        "district": "Jardim das Laranjeiras",
        "street": "Praça Paschoal Abrucezi",
        "zipcode": "13912-492"
    },
    {
        "city": "Jaguariúna",
        "state": "SP",
        "district": "Loteamento Santo Antonio",
        "street": "Praça Joaquim Rodrigues Seixas",
        "zipcode": "13912-692"
    },
    {
        "city": "Jaguariúna",
        "state": "SP",
        "district": "Núcleo Urbano Parque Ana Helena",
        "street": "Praça Penteado",
        "zipcode": "13913-406"
    },
    {
        "city": "Jaguariúna",
        "state": "SP",
        "district": "Jardim Haruji",
        "street": "Praça Mogi Mirim",
        "zipcode": "13911-126"
    },
    {
        "city": "Jaguariúna",
        "state": "SP",
        "district": "Jardim Mauá II",
        "street": "Praça Padre Ignácio Gioia",
        "zipcode": "13912-108"
    },
    {
        "city": "Jaguariúna",
        "state": "SP",
        "district": "Núcleo Urbano Parque Ana Helena",
        "street": "Praça Dias",
        "zipcode": "13913-400"
    },
    {
        "city": "Jaguariúna",
        "state": "SP",
        "district": "Jardim Sylvio Rinaldi II",
        "street": "Praça Santo Serafim",
        "zipcode": "13914-102"
    },
    {
        "city": "Jaguariúna",
        "state": "SP",
        "district": "Jardim Sylvio Rinaldi I",
        "street": "Praça Lídia Pompeu Paizam",
        "zipcode": "13914-124"
    },
    {
        "city": "Jaguariúna",
        "state": "SP",
        "district": "Residencial Arco Iris I",
        "street": "Praça Lídia Pompeu Paizam",
        "zipcode": "13914-140"
    },
    {
        "city": "Jaguariúna",
        "state": "SP",
        "district": "Vila Jorge Zambon",
        "street": "Praça Lídia Pompeu Paizam",
        "zipcode": "13914-164"
    },
    {
        "city": "Jaguariúna",
        "state": "SP",
        "district": "Jardim Boa Viista II",
        "street": "Praça Maria Pereira Pontes",
        "zipcode": "13914-502"
    },
    {
        "city": "Jaguariúna",
        "state": "SP",
        "district": "Núcleo Residencial Doutor João Aldo Nassif",
        "street": "Praça Holambra",
        "zipcode": "13916-034"
    },
    {
        "city": "Jaguariúna",
        "state": "SP",
        "district": "Núcleo Residencial Doutor João Aldo Nassif",
        "street": "Rodovia Governador Doutor Adhemar Pereira de Barros",
        "zipcode": "13916-072"
    },
    {
        "city": "Jaguariúna",
        "state": "SP",
        "district": "Jardim Primavera",
        "street": "Praça João de Paula Filho",
        "zipcode": "13916-154"
    },
    {
        "city": "Jaguariúna",
        "state": "SP",
        "district": "Vila Guilherme Giesbrecht",
        "street": "Praça Doutor Celso de Ataliba Moraes",
        "zipcode": "13917-002"
    },
    {
        "city": "Jaguariúna",
        "state": "SP",
        "district": "Jardim Venturini",
        "street": "Praça Sete de Setembro",
        "zipcode": "13911-470"
    },
    {
        "city": "Jaguariúna",
        "state": "SP",
        "district": "Jardim Planalto",
        "street": "Praça Gomes",
        "zipcode": "13912-528"
    },
    {
        "city": "Jaguariúna",
        "state": "SP",
        "district": "Chácara Primavera",
        "street": "Praça Emílio Marconato",
        "zipcode": "13916-140"
    },
    {
        "city": "Jaguariúna",
        "state": "SP",
        "district": "Jardim Roseira",
        "street": "Rodovia Governador Doutor Adhemar Pereira de Barros",
        "zipcode": "13917-470"
    },
    {
        "city": "Jaguariúna",
        "state": "SP",
        "district": "Santa Úrsula",
        "street": "Rodovia Governador Doutor Adhemar Pereira de Barros",
        "zipcode": "13918-006"
    },
    {
        "city": "Jaguariúna",
        "state": "SP",
        "district": "Nova Jaguariúna",
        "street": "Praça Benedito Bergamasco",
        "zipcode": "13919-420"
    },
    {
        "city": "Jaguariúna",
        "state": "SP",
        "district": "Jardim Boa Vista",
        "street": "Praça Maria Pereira Pontes",
        "zipcode": "13914-490"
    },
    {
        "city": "Jaguariúna",
        "state": "SP",
        "district": "Jardim Dom Bosco",
        "street": "Praça Mogi Mirim",
        "zipcode": "13911-092"
    },
    {
        "city": "Jaguariúna",
        "state": "SP",
        "district": "Chácaras Santo Antonio do Jardim II",
        "street": "Praça Ferreti",
        "zipcode": "13913-276"
    },
    {
        "city": "Jaguariúna",
        "state": "SP",
        "district": "Jardim Europa",
        "street": "Praça Santo Serafim",
        "zipcode": "13914-036"
    },
    {
        "city": "Jaguariúna",
        "state": "SP",
        "district": "Jardim Novo Jaguari",
        "street": "Praça Peru",
        "zipcode": "13919-098"
    },
    {
        "city": "Jaguariúna",
        "state": "SP",
        "district": "Chácaras Santo Antonio do Jardim II",
        "street": "Praça Valente",
        "zipcode": "13913-272"
    },
    {
        "city": "Jaguariúna",
        "state": "SP",
        "district": "Jardim Sylvio Rinaldi I",
        "street": "Praça Santo Serafim",
        "zipcode": "13914-128"
    },
    {
        "city": "Jaguariúna",
        "state": "SP",
        "district": "Jardim Novo Jaguari",
        "street": "Praça Venezuela",
        "zipcode": "13919-092"
    },
    {
        "city": "Jaguariúna",
        "state": "SP",
        "district": "Jardim São João 2° Parte",
        "street": "Rua Bahia",
        "zipcode": "13911-256"
    },
    {
        "city": "Jaguariúna",
        "state": "SP",
        "district": "Jardim América",
        "street": "Rua Amazonas",
        "zipcode": "13912-028"
    },
    {
        "city": "Jaguariúna",
        "state": "SP",
        "district": "Jardim Berlim",
        "street": "Rua Alfredo Bueno",
        "zipcode": "13919-142"
    },
    {
        "city": "Jaguariúna",
        "state": "SP",
        "district": "Residencial Águas do Jaguari",
        "street": "Rua Angelina Bozzer de Campos",
        "zipcode": "13917-688"
    },
    {
        "city": "Jaguariúna",
        "state": "SP",
        "district": "Jardim Fontanella",
        "street": "Rua Alagoas",
        "zipcode": "13911-158"
    },
    {
        "city": "Jaguariúna",
        "state": "SP",
        "district": "Jardim Planalto",
        "street": "Rua Amazonas",
        "zipcode": "13912-512"
    },
    {
        "city": "Jaguariúna",
        "state": "SP",
        "district": "Jardim São João 2° Parte",
        "street": "Rua Alagoas",
        "zipcode": "13911-246"
    },
    {
        "city": "Jaguariúna",
        "state": "SP",
        "district": "Terras da Capela de Santo Antônio",
        "street": "Rua Angeloni",
        "zipcode": "13910-472"
    },
    {
        "city": "Jaguariúna",
        "state": "SP",
        "district": "Vila Primavera",
        "street": "Rua Bento Alves de Godoy",
        "zipcode": "13910-350"
    },
    {
        "city": "Jaguariúna",
        "state": "SP",
        "district": "Guedes",
        "street": "Rua Angelo Refundini",
        "zipcode": "13914-682"
    },
    {
        "city": "Jaguariúna",
        "state": "SP",
        "district": "Vila Jorge Zambon",
        "street": "Rua Aleixo Antonio Munhoz Castanho",
        "zipcode": "13914-174"
    },
    {
        "city": "Jaguariúna",
        "state": "SP",
        "district": "Loteamento Prefeitura",
        "street": "Rua Anésia Venturini Zani",
        "zipcode": "13911-014"
    },
    {
        "city": "Jaguariúna",
        "state": "SP",
        "district": "Jardim Berlim",
        "street": "Rua Alfredo Bueno",
        "zipcode": "13919-140"
    },
    {
        "city": "Jaguariúna",
        "state": "SP",
        "district": "Centro",
        "street": "Rua Alfredo Bueno",
        "zipcode": "13910-027"
    },
    {
        "city": "Jaguariúna",
        "state": "SP",
        "district": "Núcleo Residencial Doutor João Aldo Nassif",
        "street": "Rua Alface",
        "zipcode": "13916-022"
    },
    {
        "city": "Jaguariúna",
        "state": "SP",
        "district": "Jardim Mauá II",
        "street": "Rua Alcides de Oliveira Germano",
        "zipcode": "13912-126"
    },
    {
        "city": "Jaguariúna",
        "state": "SP",
        "district": "Jardim Mauá",
        "street": "Rua Amazonas",
        "zipcode": "13912-058"
    },
    {
        "city": "Jaguariúna",
        "state": "SP",
        "district": "Jardim Sylvio Rinaldi I",
        "street": "Rua Amélio Vendrame",
        "zipcode": "13914-130"
    },
    {
        "city": "Jaguariúna",
        "state": "SP",
        "district": "Jardim Boa Vista",
        "street": "Rua Alcides Venturini",
        "zipcode": "13914-484"
    },
    {
        "city": "Jaguariúna",
        "state": "SP",
        "district": "Residencial Campo Camanducaia",
        "street": "Rua Amazônia",
        "zipcode": "13916-214"
    },
    {
        "city": "Jaguariúna",
        "state": "SP",
        "district": "Chácara Panorama",
        "street": "Rua Andriotti",
        "zipcode": "13916-132"
    },
    {
        "city": "Jaguariúna",
        "state": "SP",
        "district": "Vila Primavera",
        "street": "Rua Antonio Carlos Chiavegato",
        "zipcode": "13910-362"
    },
    {
        "city": "Jaguariúna",
        "state": "SP",
        "district": "Chácaras Santo Antonio do Jardim",
        "street": "Rua Almeida",
        "zipcode": "13913-292"
    },
    {
        "city": "Jaguariúna",
        "state": "SP",
        "district": "Loteamento Santo Antonio",
        "street": "Rua Ângelo Siste",
        "zipcode": "13912-698"
    },
    {
        "city": "Jaguariúna",
        "state": "SP",
        "district": "Jardim Roseira",
        "street": "Rua Amoreira",
        "zipcode": "13917-472"
    },
    {
        "city": "Jaguariúna",
        "state": "SP",
        "district": "Centro",
        "street": "Rua Alfredo Engler",
        "zipcode": "13910-035"
    },
    {
        "city": "Jaguariúna",
        "state": "SP",
        "district": "Jardim Venturini",
        "street": "Rua Alcides de Oliveira Germano",
        "zipcode": "13911-476"
    },
    {
        "city": "Jaguariúna",
        "state": "SP",
        "district": "Vila Primavera",
        "street": "Rua Antonio Coelho do Amaral Sobrinho",
        "zipcode": "13910-348"
    },
    {
        "city": "Jaguariúna",
        "state": "SP",
        "district": "Roseira de Cima",
        "street": "Rua Amoreira",
        "zipcode": "13917-488"
    },
    {
        "city": "Jaguariúna",
        "state": "SP",
        "district": "Jardim Bela Vista",
        "street": "Rua Acre",
        "zipcode": "13911-420"
    },
    {
        "city": "Jaguariúna",
        "state": "SP",
        "district": "Jardim São João",
        "street": "Rua Acre",
        "zipcode": "13911-396"
    },
    {
        "city": "Jaguariúna",
        "state": "SP",
        "district": "Jardim Dona Luiza",
        "street": "Rua Agostini",
        "zipcode": "13912-684"
    },
    {
        "city": "Jaguariúna",
        "state": "SP",
        "district": "Loteamento Santo Antonio",
        "street": "Rua Agostini",
        "zipcode": "13912-700"
    },
    {
        "city": "Jaguariúna",
        "state": "SP",
        "district": "Chácara Recreio Floresta",
        "street": "Rua Achiles Bodini",
        "zipcode": "13913-018"
    },
    {
        "city": "Jaguariúna",
        "state": "SP",
        "district": "Residencial Reserva da Barra",
        "street": "Rua Adélia Ferreira Antonio",
        "zipcode": "13913-362"
    },
    {
        "city": "Jaguariúna",
        "state": "SP",
        "district": "Núcleo Urbano Parque Ana Helena",
        "street": "Rua Abrucezi",
        "zipcode": "13913-424"
    },
    {
        "city": "Jaguariúna",
        "state": "SP",
        "district": "Jardim Haruji",
        "street": "Rua Alagoas",
        "zipcode": "13911-116"
    },
    {
        "city": "Jaguariúna",
        "state": "SP",
        "district": "Jardim Mauá II",
        "street": "Rua Alcides de Oliveira Germano",
        "zipcode": "13912-128"
    },
    {
        "city": "Jaguariúna",
        "state": "SP",
        "district": "Jardim Planalto",
        "street": "Rua Abele Ferrari",
        "zipcode": "13912-514"
    },
    {
        "city": "Jaguariúna",
        "state": "SP",
        "district": "Jardim das Laranjeiras",
        "street": "Rua Abele Ferrari",
        "zipcode": "13912-500"
    },
    {
        "city": "Jaguariúna",
        "state": "SP",
        "district": "Juraci Alves Galdino",
        "street": "Rua Agostini",
        "zipcode": "13912-672"
    },
    {
        "city": "Jaguariúna",
        "state": "SP",
        "district": "Roseira de Cima",
        "street": "Rua Abacateiro",
        "zipcode": "13917-498"
    },
    {
        "city": "Jaguariúna",
        "state": "SP",
        "district": "Chácara Pesqueiro Roseira",
        "street": "Rua Aguaí",
        "zipcode": "13917-662"
    },
    {
        "city": "Jaguariúna",
        "state": "SP",
        "district": "Parque Antonio Barbosa",
        "street": "Rua Adelino Greggio",
        "zipcode": "13914-236"
    },
    {
        "city": "Jaguariúna",
        "state": "SP",
        "district": "Jardim São João 2° Parte",
        "street": "Rua Amazonas",
        "zipcode": "13911-232"
    },
    {
        "city": "Jaguariúna",
        "state": "SP",
        "district": "Tanquinho Velho",
        "street": "Rodovia Governador Doutor Adhemar Pereira de Barros",
        "zipcode": "13918-110"
    },
    {
        "city": "Jaguariúna",
        "state": "SP",
        "district": "Vila Jorge Zambon",
        "street": "Rua Achiles Bonini",
        "zipcode": "13914-162"
    },
    {
        "city": "Jaguariúna",
        "state": "SP",
        "district": "Núcleo Residencial Doutor João Aldo Nassif",
        "street": "Rua Calefi",
        "zipcode": "13916-038"
    },
    {
        "city": "Jaguariúna",
        "state": "SP",
        "district": "Residencial Reserva da Barra",
        "street": "Rua Antonio Ferretti",
        "zipcode": "13913-366"
    },
    {
        "city": "Jaguariúna",
        "state": "SP",
        "district": "Roseira de Baixo",
        "street": "Rua Cajueiro",
        "zipcode": "13917-244"
    },
    {
        "city": "Jaguariúna",
        "state": "SP",
        "district": "Vila Jorge Zambon",
        "street": "Rua Áuria Ribeiro Bodini",
        "zipcode": "13914-170"
    },
    {
        "city": "Jaguariúna",
        "state": "SP",
        "district": "Jardim Cruzeiro do Sul",
        "street": "Rua Aristides Rizzoni",
        "zipcode": "13917-118"
    },
    {
        "city": "Jaguariúna",
        "state": "SP",
        "district": "Vila São Francisco",
        "street": "Rua Antonio Baldassin",
        "zipcode": "13912-046"
    },
    {
        "city": "Jaguariúna",
        "state": "SP",
        "district": "Chácara Long Island",
        "street": "Rua Calil Abib",
        "zipcode": "13918-464"
    },
    {
        "city": "Jaguariúna",
        "state": "SP",
        "district": "Chácara Panorama",
        "street": "Rua Azanha",
        "zipcode": "13916-136"
    },
    {
        "city": "Jaguariúna",
        "state": "SP",
        "district": "Loteamento São Pedro",
        "street": "Rua Artur Venturini",
        "zipcode": "13912-826"
    },
    {
        "city": "Jaguariúna",
        "state": "SP",
        "district": "Jardim Sylvio Rinaldi II",
        "street": "Rua Augusto Stafochi",
        "zipcode": "13914-104"
    },
    {
        "city": "Jaguariúna",
        "state": "SP",
        "district": "Jardim Mauá",
        "street": "Rua Arthur Nogueira",
        "zipcode": "13912-056"
    },
    {
        "city": "Jaguariúna",
        "state": "SP",
        "district": "Jardim Dona Luiza",
        "street": "Rua Bodini",
        "zipcode": "13912-686"
    },
    {
        "city": "Jaguariúna",
        "state": "SP",
        "district": "Jardim Elisa",
        "street": "Rua Bernadino",
        "zipcode": "13912-472"
    },
    {
        "city": "Jaguariúna",
        "state": "SP",
        "district": "Chácaras Santo Antonio do Jardim",
        "street": "Rua Camargo Moraes",
        "zipcode": "13913-290"
    },
    {
        "city": "Jaguariúna",
        "state": "SP",
        "district": "Jardim Tonini",
        "street": "Rua Bahia",
        "zipcode": "13911-454"
    },
    {
        "city": "Jaguariúna",
        "state": "SP",
        "district": "Chácara Recreio Floresta",
        "street": "Rua Benedito Fernandes",
        "zipcode": "13913-016"
    },
    {
        "city": "Jaguariúna",
        "state": "SP",
        "district": "Núcleo Urbano Bom Jardim",
        "street": "Rua Antonio Zambom",
        "zipcode": "13913-212"
    },
    {
        "city": "Jaguariúna",
        "state": "SP",
        "district": "Jardim Boa Viista II",
        "street": "Rua Antonio Especial",
        "zipcode": "13914-506"
    },
    {
        "city": "Jaguariúna",
        "state": "SP",
        "district": "Residencial Arco Iris I",
        "street": "Rua Antonio Lucas da Silva",
        "zipcode": "13914-144"
    },
    {
        "city": "Jaguariúna",
        "state": "SP",
        "district": "Jardim Alice",
        "street": "Rua Arthur Nogueira",
        "zipcode": "13912-068"
    },
    {
        "city": "Jaguariúna",
        "state": "SP",
        "district": "Jardim Europa",
        "street": "Rua Antonio da Silva Maia",
        "zipcode": "13914-028"
    },
    {
        "city": "Jaguariúna",
        "state": "SP",
        "district": "Parque Florianópolis",
        "street": "Rua Antonio Mussato",
        "zipcode": "13910-296"
    },
    {
        "city": "Jaguariúna",
        "state": "SP",
        "district": "Jardim Sylvio Rinaldi II",
        "street": "Rua Artur Bernardes de Oliveira",
        "zipcode": "13914-106"
    },
    {
        "city": "Jaguariúna",
        "state": "SP",
        "district": "Jardim América",
        "street": "Rua Arthur Nogueira",
        "zipcode": "13912-026"
    },
    {
        "city": "Jaguariúna",
        "state": "SP",
        "district": "Chácara Recreio Floresta",
        "street": "Rua Antonio Lino",
        "zipcode": "13913-026"
    },
    {
        "city": "Jaguariúna",
        "state": "SP",
        "district": "Conjunto Habitacional Vila 12 de Setembro 2° Etapa",
        "street": "Rua Bodini",
        "zipcode": "13912-632"
    },
    {
        "city": "Jaguariúna",
        "state": "SP",
        "district": "Vila Mário Finotelli",
        "street": "Rua Antonio Carlos Massotti",
        "zipcode": "13912-650"
    },
    {
        "city": "Jaguariúna",
        "state": "SP",
        "district": "Loteamento Santo Antonio",
        "street": "Rua Bodini",
        "zipcode": "13912-696"
    },
    {
        "city": "Jaguariúna",
        "state": "SP",
        "district": "Núcleo Urbano Parque Ana Helena",
        "street": "Rua Astini",
        "zipcode": "13913-412"
    },
    {
        "city": "Jaguariúna",
        "state": "SP",
        "district": "Residencial Reserva da Barra",
        "street": "Rua Augusto Zóia",
        "zipcode": "13913-370"
    },
    {
        "city": "Jaguariúna",
        "state": "SP",
        "district": "Santa Cruz",
        "street": "Rua Argentina",
        "zipcode": "13919-056"
    },
    {
        "city": "Jaguariúna",
        "state": "SP",
        "district": "Chácaras Santo Antonio do Jardim",
        "street": "Rua Bufolo",
        "zipcode": "13913-294"
    },
    {
        "city": "Jaguariúna",
        "state": "SP",
        "district": "Núcleo Urbano Parque Ana Helena",
        "street": "Rua Bruno",
        "zipcode": "13913-404"
    },
    {
        "city": "Jaguariúna",
        "state": "SP",
        "district": "Parque Florianópolis",
        "street": "Rua Atílio Sisti",
        "zipcode": "13910-254"
    },
    {
        "city": "Jaguariúna",
        "state": "SP",
        "district": "Parque Florianópolis",
        "street": "Rua Bruna Laurita Masoti de Almeida",
        "zipcode": "13910-268"
    },
    {
        "city": "Jaguariúna",
        "state": "SP",
        "district": "Centro",
        "street": "Rua Carlos Turato",
        "zipcode": "13910-023"
    },
    {
        "city": "Jaguariúna",
        "state": "SP",
        "district": "Terras da Capela de Santo Antônio",
        "street": "Rua Carvalho",
        "zipcode": "13910-500"
    },
    {
        "city": "Jaguariúna",
        "state": "SP",
        "district": "Santa Maria",
        "street": "Rua Coronel Amâncio Bueno",
        "zipcode": "13911-262"
    },
    {
        "city": "Jaguariúna",
        "state": "SP",
        "district": "Jardim IK II",
        "street": "Rua Carlos Turato",
        "zipcode": "13911-302"
    },
    {
        "city": "Jaguariúna",
        "state": "SP",
        "district": "Jardim IK III",
        "street": "Rua Carlos Turato",
        "zipcode": "13911-310"
    },
    {
        "city": "Jaguariúna",
        "state": "SP",
        "district": "Jardim Mauá II",
        "street": "Rua Carlos Ferrareto",
        "zipcode": "13912-120"
    },
    {
        "city": "Jaguariúna",
        "state": "SP",
        "district": "Jardim Mauá II",
        "street": "Rua Dal Corso",
        "zipcode": "13912-124"
    },
    {
        "city": "Jaguariúna",
        "state": "SP",
        "district": "Jardim Sylvio Rinaldi II",
        "street": "Rua Antonio Gilberto Rosin",
        "zipcode": "13914-114"
    },
    {
        "city": "Jaguariúna",
        "state": "SP",
        "district": "Jardim Dona Irma",
        "street": "Rua Aparecido Donizetti Torres",
        "zipcode": "13917-052"
    },
    {
        "city": "Jaguariúna",
        "state": "SP",
        "district": "Jardim Boa Viista II",
        "street": "Rua Atílio Rodrigues Bueno",
        "zipcode": "13914-508"
    },
    {
        "city": "Jaguariúna",
        "state": "SP",
        "district": "Residencial Águas do Jaguari",
        "street": "Rua Benedito Dorta (Tio Beca)",
        "zipcode": "13917-686"
    },
    {
        "city": "Jaguariúna",
        "state": "SP",
        "district": "Nova Jaguariúna",
        "street": "Rua Carlos Bergamasco",
        "zipcode": "13919-430"
    },
    {
        "city": "Jaguariúna",
        "state": "SP",
        "district": "Centro",
        "street": "Rua Cândido Bueno",
        "zipcode": "13910-033"
    },
    {
        "city": "Jaguariúna",
        "state": "SP",
        "district": "Residencial Campo Camanducaia",
        "street": "Rua Caparaó",
        "zipcode": "13916-288"
    },
    {
        "city": "Jaguariúna",
        "state": "SP",
        "district": "Nova Jaguariúna III",
        "street": "Rua Carlos Droveto",
        "zipcode": "13919-478"
    },
    {
        "city": "Jaguariúna",
        "state": "SP",
        "district": "Centro",
        "street": "Rua Capitão Ulisses Massotti",
        "zipcode": "13910-041"
    },
    {
        "city": "Jaguariúna",
        "state": "SP",
        "district": "Loteamento Prefeitura",
        "street": "Rua Doutor Clemente Holtman Júnior",
        "zipcode": "13911-022"
    },
    {
        "city": "Jaguariúna",
        "state": "SP",
        "district": "Pedro Pina",
        "street": "Rua Egas Bueno",
        "zipcode": "13911-000"
    },
    {
        "city": "Jaguariúna",
        "state": "SP",
        "district": "Vila Primavera",
        "street": "Rua Doutor José Emílio Pires Bergamasco",
        "zipcode": "13910-324"
    },
    {
        "city": "Jaguariúna",
        "state": "SP",
        "district": "Centro",
        "street": "Rua Doutor Fernando Costa",
        "zipcode": "13910-031"
    },
    {
        "city": "Jaguariúna",
        "state": "SP",
        "district": "Jardim Sônia",
        "street": "Rua Duque de Caxias",
        "zipcode": "13911-174"
    },
    {
        "city": "Jaguariúna",
        "state": "SP",
        "district": "Terras da Capela de Santo Antônio",
        "street": "Rua Durante",
        "zipcode": "13910-478"
    },
    {
        "city": "Jaguariúna",
        "state": "SP",
        "district": "Jardim Sônia",
        "street": "Rua Epitácio Pessoa",
        "zipcode": "13911-202"
    },
    {
        "city": "Jaguariúna",
        "state": "SP",
        "district": "José Jacques Oliveira Germano",
        "street": "Rua Dal Corso",
        "zipcode": "13912-154"
    },
    {
        "city": "Jaguariúna",
        "state": "SP",
        "district": "José Jacques Oliveira Germano",
        "street": "Rua Carlos Ferrareto",
        "zipcode": "13912-156"
    },
    {
        "city": "Jaguariúna",
        "state": "SP",
        "district": "Gastaldo",
        "street": "Rua Carlos Gastaldo",
        "zipcode": "13912-172"
    },
    {
        "city": "Jaguariúna",
        "state": "SP",
        "district": "Jardim Elisa",
        "street": "Rua Carpi",
        "zipcode": "13912-476"
    },
    {
        "city": "Jaguariúna",
        "state": "SP",
        "district": "Chácaras Santo Antonio do Jardim",
        "street": "Rua Chiavegato",
        "zipcode": "13913-296"
    },
    {
        "city": "Jaguariúna",
        "state": "SP",
        "district": "Jardim Europa",
        "street": "Rua Daimler João Husch Pereira",
        "zipcode": "13914-008"
    },
    {
        "city": "Jaguariúna",
        "state": "SP",
        "district": "Jardim Sônia",
        "street": "Rua Castro Alves",
        "zipcode": "13911-196"
    },
    {
        "city": "Jaguariúna",
        "state": "SP",
        "district": "Residencial Parque dos Ipês",
        "street": "Rua Chierice",
        "zipcode": "13912-430"
    },
    {
        "city": "Jaguariúna",
        "state": "SP",
        "district": "Jardim Zeni",
        "street": "Rua Chierice",
        "zipcode": "13912-460"
    },
    {
        "city": "Jaguariúna",
        "state": "SP",
        "district": "Jardim Elisa",
        "street": "Rua Custódio",
        "zipcode": "13912-474"
    },
    {
        "city": "Jaguariúna",
        "state": "SP",
        "district": "Jardim Elisa",
        "street": "Rua Chierice",
        "zipcode": "13912-478"
    },
    {
        "city": "Jaguariúna",
        "state": "SP",
        "district": "Núcleo Urbano Parque Ana Helena",
        "street": "Rua Conti",
        "zipcode": "13913-396"
    },
    {
        "city": "Jaguariúna",
        "state": "SP",
        "district": "Chácara Santo Antônio Colméia",
        "street": "Rua D",
        "zipcode": "13915-298"
    },
    {
        "city": "Jaguariúna",
        "state": "SP",
        "district": "Residencial Campo Camanducaia",
        "street": "Rua Chapada Diamantina",
        "zipcode": "13916-232"
    },
    {
        "city": "Jaguariúna",
        "state": "SP",
        "district": "Residencial Campo Camanducaia",
        "street": "Rua Chapada dos Guimarães",
        "zipcode": "13916-294"
    },
    {
        "city": "Jaguariúna",
        "state": "SP",
        "district": "Jardim Elisa",
        "street": "Rua DalBo",
        "zipcode": "13912-482"
    },
    {
        "city": "Jaguariúna",
        "state": "SP",
        "district": "Chácara Pesqueiro Roseira",
        "street": "Rua Cordeirópolis",
        "zipcode": "13917-670"
    },
    {
        "city": "Jaguariúna",
        "state": "SP",
        "district": "Jardim Berlim",
        "street": "Rua Cândido Bueno",
        "zipcode": "13919-144"
    },
    {
        "city": "Jaguariúna",
        "state": "SP",
        "district": "Nova Jaguariúna",
        "street": "Rua Carlos Gobbi",
        "zipcode": "13919-414"
    },
    {
        "city": "Jaguariúna",
        "state": "SP",
        "district": "Vila Mário Finotelli",
        "street": "Rua Chames Larur Hossri",
        "zipcode": "13912-652"
    },
    {
        "city": "Jaguariúna",
        "state": "SP",
        "district": "Parque Florianópolis",
        "street": "Rua Dirceu Luporini",
        "zipcode": "13910-266"
    },
    {
        "city": "Jaguariúna",
        "state": "SP",
        "district": "Gleba Destacada da Fazenda Santa Cruz",
        "street": "Rua Espírito Santo",
        "zipcode": "13911-060"
    },
    {
        "city": "Jaguariúna",
        "state": "SP",
        "district": "Jardim América",
        "street": "Rua Dom Pedro I",
        "zipcode": "13912-022"
    },
    {
        "city": "Jaguariúna",
        "state": "SP",
        "district": "Jardim Zeni",
        "street": "Rua Darcy de Campos Souza",
        "zipcode": "13912-450"
    },
    {
        "city": "Jaguariúna",
        "state": "SP",
        "district": "Jardim Zeni",
        "street": "Rua De Cara",
        "zipcode": "13912-454"
    },
    {
        "city": "Jaguariúna",
        "state": "SP",
        "district": "Jardim Zeni",
        "street": "Rua DalBo",
        "zipcode": "13912-456"
    },
    {
        "city": "Jaguariúna",
        "state": "SP",
        "district": "Residencial Reserva da Barra",
        "street": "Rua Dolores Rodrigues dos Santos",
        "zipcode": "13913-380"
    },
    {
        "city": "Jaguariúna",
        "state": "SP",
        "district": "Loteamento Capotuna",
        "street": "Rua Dante Panini",
        "zipcode": "13912-188"
    },
    {
        "city": "Jaguariúna",
        "state": "SP",
        "district": "Jardim Zeni",
        "street": "Rua Carpi",
        "zipcode": "13912-462"
    },
    {
        "city": "Jaguariúna",
        "state": "SP",
        "district": "Vila Miguel Martini",
        "street": "Rua Chiorato",
        "zipcode": "13916-010"
    },
    {
        "city": "Jaguariúna",
        "state": "SP",
        "district": "Jardim Cruzeiro do Sul",
        "street": "Rua Carlos Luporini",
        "zipcode": "13917-126"
    },
    {
        "city": "Jaguariúna",
        "state": "SP",
        "district": "Residencial Parque dos Ipês",
        "street": "Rua De Cara",
        "zipcode": "13912-438"
    },
    {
        "city": "Jaguariúna",
        "state": "SP",
        "district": "Condomínio Fazenda Duas Marias",
        "street": "Rua Cinco",
        "zipcode": "13916-416"
    },
    {
        "city": "Jaguariúna",
        "state": "SP",
        "district": "Roseira de Baixo",
        "street": "Rua Cerejeira",
        "zipcode": "13917-250"
    },
    {
        "city": "Jaguariúna",
        "state": "SP",
        "district": "Roseira de Baixo",
        "street": "Rua Castanheira",
        "zipcode": "13917-246"
    },
    {
        "city": "Jaguariúna",
        "state": "SP",
        "district": "Jardim Sylvio Rinaldi I",
        "street": "Rua Clarice Tonini Zanelato",
        "zipcode": "13914-132"
    },
    {
        "city": "Jaguariúna",
        "state": "SP",
        "district": "Jardim Novo Horizonte",
        "street": "Rua Durvalina Almeida Finotelli",
        "zipcode": "13912-552"
    },
    {
        "city": "Jaguariúna",
        "state": "SP",
        "district": "Jardim Pinheiros",
        "street": "Rua Edivino Teodoro Gonçalves",
        "zipcode": "13910-306"
    },
    {
        "city": "Jaguariúna",
        "state": "SP",
        "district": "Jardim Pinheiros",
        "street": "Rua Gervásio Parisi",
        "zipcode": "13910-310"
    },
    {
        "city": "Jaguariúna",
        "state": "SP",
        "district": "Jardim Alice",
        "street": "Rua Goiás",
        "zipcode": "13912-062"
    },
    {
        "city": "Jaguariúna",
        "state": "SP",
        "district": "Jardim América",
        "street": "Rua Epitácio Pessoa",
        "zipcode": "13912-020"
    },
    {
        "city": "Jaguariúna",
        "state": "SP",
        "district": "Vila 7 de Setembro",
        "street": "Rua Epitácio Pessoa",
        "zipcode": "13912-010"
    },
    {
        "city": "Jaguariúna",
        "state": "SP",
        "district": "Gleba Destacada da Fazenda Santa Cruz",
        "street": "Rua Guanabara",
        "zipcode": "13911-070"
    },
    {
        "city": "Jaguariúna",
        "state": "SP",
        "district": "Chácara Recreio Floresta",
        "street": "Rua Francisco DalBó",
        "zipcode": "13913-024"
    },
    {
        "city": "Jaguariúna",
        "state": "SP",
        "district": "Jardim Cruzeiro do Sul",
        "street": "Rua Doutor João Roberto Pires Bueno",
        "zipcode": "13917-120"
    },
    {
        "city": "Jaguariúna",
        "state": "SP",
        "district": "Jardim Mauá",
        "street": "Rua Epitácio Pessoa",
        "zipcode": "13912-052"
    },
    {
        "city": "Jaguariúna",
        "state": "SP",
        "district": "Vila São Francisco",
        "street": "Rua Epitácio Pessoa",
        "zipcode": "13912-042"
    },
    {
        "city": "Jaguariúna",
        "state": "SP",
        "district": "Jardim Alice",
        "street": "Rua Fiorentini",
        "zipcode": "13912-066"
    },
    {
        "city": "Jaguariúna",
        "state": "SP",
        "district": "Jardim Mauá II",
        "street": "Rua Gabriela de Oliveira Germano",
        "zipcode": "13912-110"
    },
    {
        "city": "Jaguariúna",
        "state": "SP",
        "district": "Jardim Europa",
        "street": "Rua Francisco Vicente Simoso",
        "zipcode": "13914-006"
    },
    {
        "city": "Jaguariúna",
        "state": "SP",
        "district": "Residencial Parque dos Ipês",
        "street": "Rua Franco",
        "zipcode": "13912-440"
    },
    {
        "city": "Jaguariúna",
        "state": "SP",
        "district": "Jardim Europa",
        "street": "Rua Europa",
        "zipcode": "13914-004"
    },
    {
        "city": "Jaguariúna",
        "state": "SP",
        "district": "Parque Antonio Barbosa",
        "street": "Rua Elza Baldassin Chiavegatto",
        "zipcode": "13914-238"
    },
    {
        "city": "Jaguariúna",
        "state": "SP",
        "district": "Núcleo Residencial Doutor João Aldo Nassif",
        "street": "Rua Ernani de Souza",
        "zipcode": "13916-036"
    },
    {
        "city": "Jaguariúna",
        "state": "SP",
        "district": "Jardim Europa",
        "street": "Rua Dona Zenaide",
        "zipcode": "13914-016"
    },
    {
        "city": "Jaguariúna",
        "state": "SP",
        "district": "Jardim Zeni",
        "street": "Rua Franco",
        "zipcode": "13912-452"
    },
    {
        "city": "Jaguariúna",
        "state": "SP",
        "district": "Jardim Elisa",
        "street": "Rua Franco",
        "zipcode": "13912-486"
    },
    {
        "city": "Jaguariúna",
        "state": "SP",
        "district": "Jardim Planalto",
        "street": "Rua Funchini",
        "zipcode": "13912-522"
    },
    {
        "city": "Jaguariúna",
        "state": "SP",
        "district": "Loteamento Capotuna",
        "street": "Rua Fioravante Beltrame",
        "zipcode": "13912-190"
    },
    {
        "city": "Jaguariúna",
        "state": "SP",
        "district": "Jardim das Laranjeiras",
        "street": "Rua Eduardo Tozzi",
        "zipcode": "13912-490"
    },
    {
        "city": "Jaguariúna",
        "state": "SP",
        "district": "Jardim Sylvio Rinaldi I",
        "street": "Rua Elvira Granghelli Giorgi",
        "zipcode": "13914-134"
    },
    {
        "city": "Jaguariúna",
        "state": "SP",
        "district": "Jardim Cruzeiro do Sul",
        "street": "Rua Doutor Paulo Soares Hungria Junior",
        "zipcode": "13917-150"
    },
    {
        "city": "Jaguariúna",
        "state": "SP",
        "district": "Jardim Novo Jaguari",
        "street": "Rua Espanha",
        "zipcode": "13919-094"
    },
    {
        "city": "Jaguariúna",
        "state": "SP",
        "district": "Pedro Pina",
        "street": "Rua Flôr da Porcelana",
        "zipcode": "13911-006"
    },
    {
        "city": "Jaguariúna",
        "state": "SP",
        "district": "Jardim Cruzeiro do Sul",
        "street": "Rua Eny Ponce Villela Lima",
        "zipcode": "13917-112"
    },
    {
        "city": "Jaguariúna",
        "state": "SP",
        "district": "Jardim Sônia",
        "street": "Rua Fernando de Noronha",
        "zipcode": "13911-172"
    },
    {
        "city": "Jaguariúna",
        "state": "SP",
        "district": "Jardim Dona Irma",
        "street": "Rua Engenheiro Adolpho Dorigo",
        "zipcode": "13917-054"
    },
    {
        "city": "Jaguariúna",
        "state": "SP",
        "district": "Núcleo Urbano Bom Jardim",
        "street": "Rua Fausto Simione",
        "zipcode": "13913-216"
    },
    {
        "city": "Jaguariúna",
        "state": "SP",
        "district": "Colinas do Castelo",
        "street": "Rua Eduardo Pestana",
        "zipcode": "13919-602"
    },
    {
        "city": "Jaguariúna",
        "state": "SP",
        "district": "Jardim Sylvio Rinaldi I",
        "street": "Rua Domingos Benedicto",
        "zipcode": "13914-126"
    },
    {
        "city": "Jaguariúna",
        "state": "SP",
        "district": "Condomínio Fazenda Duas Marias",
        "street": "Rua Dois A",
        "zipcode": "13916-418"
    },
    {
        "city": "Jaguariúna",
        "state": "SP",
        "district": "Condomínio Fazenda Duas Marias",
        "street": "Rua Dois D",
        "zipcode": "13916-436"
    },
    {
        "city": "Jaguariúna",
        "state": "SP",
        "district": "Jardim Dona Irma",
        "street": "Rua Engenheiro Carlos Alfredo Dorigo (Esquiná)",
        "zipcode": "13917-042"
    },
    {
        "city": "Jaguariúna",
        "state": "SP",
        "district": "Nova Jaguariúna",
        "street": "Rua Dona Maria José",
        "zipcode": "13919-426"
    },
    {
        "city": "Jaguariúna",
        "state": "SP",
        "district": "Nova Jaguariúna II",
        "street": "Rua Dona Maria José",
        "zipcode": "13919-444"
    },
    {
        "city": "Jaguariúna",
        "state": "SP",
        "district": "Vila Primavera",
        "street": "Rua Domingos Granghelli",
        "zipcode": "13910-338"
    },
    {
        "city": "Jaguariúna",
        "state": "SP",
        "district": "Vila 7 de Setembro",
        "street": "Rua Dom Pedro I",
        "zipcode": "13912-000"
    },
    {
        "city": "Jaguariúna",
        "state": "SP",
        "district": "Condomínio Fazenda Duas Marias",
        "street": "Rua Dois B",
        "zipcode": "13916-414"
    },
    {
        "city": "Jaguariúna",
        "state": "SP",
        "district": "Condomínio Fazenda Duas Marias",
        "street": "Rua Dezenove",
        "zipcode": "13916-464"
    },
    {
        "city": "Jaguariúna",
        "state": "SP",
        "district": "Jardim Cruzeiro do Sul",
        "street": "Rua Doutor Hélio Rocha Nunes",
        "zipcode": "13917-152"
    },
    {
        "city": "Jaguariúna",
        "state": "SP",
        "district": "Jardim Planalto",
        "street": "Rua Eduardo Tozzi",
        "zipcode": "13912-526"
    },
    {
        "city": "Jaguariúna",
        "state": "SP",
        "district": "Condomínio Fazenda Duas Marias",
        "street": "Rua Dezoito",
        "zipcode": "13916-452"
    },
    {
        "city": "Jaguariúna",
        "state": "SP",
        "district": "Residencial Reserva da Barra",
        "street": "Rua Dois",
        "zipcode": "13913-364"
    },
    {
        "city": "Jaguariúna",
        "state": "SP",
        "district": "Nova Jaguariúna",
        "street": "Rua Dona Bartira",
        "zipcode": "13919-432"
    },
    {
        "city": "Jaguariúna",
        "state": "SP",
        "district": "Parque Florianópolis",
        "street": "Rua Giácomo Ferrari",
        "zipcode": "13910-262"
    },
    {
        "city": "Jaguariúna",
        "state": "SP",
        "district": "Chácaras Santo Antonio do Jardim",
        "street": "Rua Greggio",
        "zipcode": "13913-284"
    },
    {
        "city": "Jaguariúna",
        "state": "SP",
        "district": "Chácara Recreio Floresta",
        "street": "Rua Hermelindo Lana",
        "zipcode": "13913-004"
    },
    {
        "city": "Jaguariúna",
        "state": "SP",
        "district": "Chácara Barreiro",
        "street": "Rua Figueira",
        "zipcode": "13917-222"
    },
    {
        "city": "Jaguariúna",
        "state": "SP",
        "district": "Jardim Planalto",
        "street": "Rua Franco",
        "zipcode": "13912-524"
    },
    {
        "city": "Jaguariúna",
        "state": "SP",
        "district": "Vila Miguel Martini",
        "street": "Rua Francheta",
        "zipcode": "13916-004"
    },
    {
        "city": "Jaguariúna",
        "state": "SP",
        "district": "Chácara Long Island",
        "street": "Rua Fiorindo Granghelli",
        "zipcode": "13918-454"
    },
    {
        "city": "Jaguariúna",
        "state": "SP",
        "district": "Roseira de Cima",
        "street": "Rua Goiabeira",
        "zipcode": "13917-484"
    },
    {
        "city": "Jaguariúna",
        "state": "SP",
        "district": "Roseira de Baixo",
        "street": "Rua Figueira",
        "zipcode": "13917-240"
    },
    {
        "city": "Jaguariúna",
        "state": "SP",
        "district": "Chácara Long Island",
        "street": "Rua Guilherme Gieserecht",
        "zipcode": "13918-456"
    },
    {
        "city": "Jaguariúna",
        "state": "SP",
        "district": "Jardim Imperial",
        "street": "Rua Fortunato Lana",
        "zipcode": "13912-852"
    },
    {
        "city": "Jaguariúna",
        "state": "SP",
        "district": "Jardim Planalto",
        "street": "Rua Fortunato Antônio Chiurato",
        "zipcode": "13912-516"
    },
    {
        "city": "Jaguariúna",
        "state": "SP",
        "district": "Jardim Santa Mercedes",
        "street": "Rua Floro Leite da Silva",
        "zipcode": "13912-542"
    },
    {
        "city": "Jaguariúna",
        "state": "SP",
        "district": "Chácaras Santo Antonio do Jardim",
        "street": "Rua Ferrari",
        "zipcode": "13913-298"
    },
    {
        "city": "Jaguariúna",
        "state": "SP",
        "district": "Núcleo Residencial Doutor João Aldo Nassif",
        "street": "Rua Gothardo",
        "zipcode": "13916-060"
    },
    {
        "city": "Jaguariúna",
        "state": "SP",
        "district": "Nova Jaguariúna II",
        "street": "Rua Francisco Bodini",
        "zipcode": "13919-460"
    },
    {
        "city": "Jaguariúna",
        "state": "SP",
        "district": "Nova Jaguariúna III",
        "street": "Rua Francisco Bodini",
        "zipcode": "13919-470"
    },
    {
        "city": "Jaguariúna",
        "state": "SP",
        "district": "Jardim Boa Vista",
        "street": "Rua Francisco Correa Viana",
        "zipcode": "13914-480"
    },
    {
        "city": "Jaguariúna",
        "state": "SP",
        "district": "Residencial Águas do Jaguari",
        "street": "Rua Geraldo João Luiz",
        "zipcode": "13917-694"
    },
    {
        "city": "Jaguariúna",
        "state": "SP",
        "district": "Núcleo Urbano Bom Jardim",
        "street": "Rua Guilherme Venturini",
        "zipcode": "13913-202"
    },
    {
        "city": "Jaguariúna",
        "state": "SP",
        "district": "Jardim Mauá II",
        "street": "Rua Hermínio Poltronieri",
        "zipcode": "13912-114"
    },
    {
        "city": "Jaguariúna",
        "state": "SP",
        "district": "Residencial Águas do Jaguari",
        "street": "Rua Francisco Cosmo Pereira Alves",
        "zipcode": "13917-684"
    },
    {
        "city": "Jaguariúna",
        "state": "SP",
        "district": "Jardim São Sebastião",
        "street": "Rua Gaona",
        "zipcode": "13917-178"
    },
    {
        "city": "Jaguariúna",
        "state": "SP",
        "district": "Jardim São Sebastião",
        "street": "Rua Gaspere",
        "zipcode": "13917-170"
    },
    {
        "city": "Jaguariúna",
        "state": "SP",
        "district": "Roseira de Cima",
        "street": "Rua Gallo",
        "zipcode": "13917-492"
    },
    {
        "city": "Jaguariúna",
        "state": "SP",
        "district": "Vila Guilherme Giesbrecht",
        "street": "Rua Ferrucio Augusto Testa",
        "zipcode": "13917-008"
    },
    {
        "city": "Jaguariúna",
        "state": "SP",
        "district": "Núcleo Urbano Bom Jardim",
        "street": "Rua Henrique Izepe",
        "zipcode": "13913-214"
    },
    {
        "city": "Jaguariúna",
        "state": "SP",
        "district": "Residencial Arco Iris I",
        "street": "Rua Francisco Alves",
        "zipcode": "13914-142"
    },
    {
        "city": "Jaguariúna",
        "state": "SP",
        "district": "Parque Florianópolis",
        "street": "Rua João Botelho",
        "zipcode": "13910-292"
    },
    {
        "city": "Jaguariúna",
        "state": "SP",
        "district": "Vila Primavera",
        "street": "Rua Izaura André Dantas",
        "zipcode": "13910-330"
    },
    {
        "city": "Jaguariúna",
        "state": "SP",
        "district": "Terras da Capela de Santo Antônio",
        "street": "Rua Jasso",
        "zipcode": "13910-484"
    },
    {
        "city": "Jaguariúna",
        "state": "SP",
        "district": "Santa Maria",
        "street": "Rua Joaquim Bueno",
        "zipcode": "13911-268"
    },
    {
        "city": "Jaguariúna",
        "state": "SP",
        "district": "Jardim São João",
        "street": "Rua Joaquim Bueno",
        "zipcode": "13911-400"
    },
    {
        "city": "Jaguariúna",
        "state": "SP",
        "district": "Jardim Bela Vista",
        "street": "Rua Joaquim Bueno",
        "zipcode": "13911-410"
    },
    {
        "city": "Jaguariúna",
        "state": "SP",
        "district": "Parque Florianópolis",
        "street": "Rua Ider Carpi",
        "zipcode": "13910-282"
    },
    {
        "city": "Jaguariúna",
        "state": "SP",
        "district": "Jardim Pinheiros",
        "street": "Rua Jacintho Favero",
        "zipcode": "13910-302"
    },
    {
        "city": "Jaguariúna",
        "state": "SP",
        "district": "Terras da Capela de Santo Antônio",
        "street": "Rua Hossri",
        "zipcode": "13910-490"
    },
    {
        "city": "Jaguariúna",
        "state": "SP",
        "district": "Jardim Mauá II",
        "street": "Rua João Pires Germano",
        "zipcode": "13912-106"
    },
    {
        "city": "Jaguariúna",
        "state": "SP",
        "district": "José Jacques Oliveira Germano",
        "street": "Rua João Pires Germano",
        "zipcode": "13912-152"
    },
    {
        "city": "Jaguariúna",
        "state": "SP",
        "district": "Loteamento São Pedro",
        "street": "Rua Horácio Poltronieri",
        "zipcode": "13912-822"
    },
    {
        "city": "Jaguariúna",
        "state": "SP",
        "district": "Loteamento São Pedro",
        "street": "Rua José DalBo",
        "zipcode": "13912-828"
    },
    {
        "city": "Jaguariúna",
        "state": "SP",
        "district": "Jardim Europa",
        "street": "Rua Horácio Carraro",
        "zipcode": "13914-024"
    },
    {
        "city": "Jaguariúna",
        "state": "SP",
        "district": "Jardim Imperial",
        "street": "Rua Horácio Murer",
        "zipcode": "13912-842"
    },
    {
        "city": "Jaguariúna",
        "state": "SP",
        "district": "Jardim Venturini",
        "street": "Rua Irineu Bordotti",
        "zipcode": "13911-478"
    },
    {
        "city": "Jaguariúna",
        "state": "SP",
        "district": "Chácaras Santo Antonio do Jardim II",
        "street": "Rua Finoteli",
        "zipcode": "13913-274"
    },
    {
        "city": "Jaguariúna",
        "state": "SP",
        "district": "Guedes",
        "street": "Rua Francisco DalBo",
        "zipcode": "13914-670"
    },
    {
        "city": "Jaguariúna",
        "state": "SP",
        "district": "Terras da Capela de Santo Antônio",
        "street": "Rua Gobbi",
        "zipcode": "13910-486"
    },
    {
        "city": "Jaguariúna",
        "state": "SP",
        "district": "Nova Jaguariúna",
        "street": "Rua Gusmão",
        "zipcode": "13919-424"
    },
    {
        "city": "Jaguariúna",
        "state": "SP",
        "district": "Nova Jaguariúna III",
        "street": "Rua Helena Pavan Serafim",
        "zipcode": "13919-480"
    },
    {
        "city": "Jaguariúna",
        "state": "SP",
        "district": "Jardim Europa",
        "street": "Rua Hermínio Tonini",
        "zipcode": "13914-030"
    },
    {
        "city": "Jaguariúna",
        "state": "SP",
        "district": "Colinas do Castelo",
        "street": "Rua Hermelindo Poltronieri",
        "zipcode": "13919-594"
    },
    {
        "city": "Jaguariúna",
        "state": "SP",
        "district": "Terras da Capela de Santo Antônio",
        "street": "Rua Lana",
        "zipcode": "13910-482"
    },
    {
        "city": "Jaguariúna",
        "state": "SP",
        "district": "Guedes",
        "street": "Rua Lucila Gasparoto",
        "zipcode": "13914-672"
    },
    {
        "city": "Jaguariúna",
        "state": "SP",
        "district": "Pedro Pina",
        "street": "Rua Júlio Frank",
        "zipcode": "13911-002"
    },
    {
        "city": "Jaguariúna",
        "state": "SP",
        "district": "Núcleo Residencial Doutor João Aldo Nassif",
        "street": "Rua Mantovani",
        "zipcode": "13916-048"
    },
    {
        "city": "Jaguariúna",
        "state": "SP",
        "district": "Vila Miguel Martini",
        "street": "Rua Machado de Souza",
        "zipcode": "13916-006"
    },
    {
        "city": "Jaguariúna",
        "state": "SP",
        "district": "Jardim Sylvio Rinaldi II",
        "street": "Rua José Pinto da Fonseca",
        "zipcode": "13914-108"
    },
    {
        "city": "Jaguariúna",
        "state": "SP",
        "district": "Vila Primavera",
        "street": "Rua Lazinho Granzotti",
        "zipcode": "13910-326"
    },
    {
        "city": "Jaguariúna",
        "state": "SP",
        "district": "Jardim Europa",
        "street": "Rua Lázaro Poltronieri",
        "zipcode": "13914-012"
    },
    {
        "city": "Jaguariúna",
        "state": "SP",
        "district": "Vila Jorge Zambon",
        "street": "Rua José Queiroz Filho",
        "zipcode": "13914-168"
    },
    {
        "city": "Jaguariúna",
        "state": "SP",
        "district": "Jardim Europa",
        "street": "Rua Luiz de Oliveira Pinto",
        "zipcode": "13914-022"
    },
    {
        "city": "Jaguariúna",
        "state": "SP",
        "district": "Loteamento São Pedro",
        "street": "Rua Manoel Ribeiro Caiado",
        "zipcode": "13912-824"
    },
    {
        "city": "Jaguariúna",
        "state": "SP",
        "district": "Loteamento São Pedro",
        "street": "Rua Manoel Jacinto Ribeiro",
        "zipcode": "13912-820"
    },
    {
        "city": "Jaguariúna",
        "state": "SP",
        "district": "Vila Primavera",
        "street": "Rua Leonilde de Souza Bruno",
        "zipcode": "13910-320"
    },
    {
        "city": "Jaguariúna",
        "state": "SP",
        "district": "Núcleo Residencial Doutor João Aldo Nassif",
        "street": "Rua Lopes",
        "zipcode": "13916-050"
    },
    {
        "city": "Jaguariúna",
        "state": "SP",
        "district": "Mário DalBo",
        "street": "Rua Júlio Frank",
        "zipcode": "13911-370"
    },
    {
        "city": "Jaguariúna",
        "state": "SP",
        "district": "Loteamento Capotuna",
        "street": "Rua Luis Lana",
        "zipcode": "13912-186"
    },
    {
        "city": "Jaguariúna",
        "state": "SP",
        "district": "Loteamento São Pedro",
        "street": "Rua Manoel Queirós",
        "zipcode": "13912-816"
    },
    {
        "city": "Jaguariúna",
        "state": "SP",
        "district": "Núcleo Urbano Parque Ana Helena",
        "street": "Rua Lima",
        "zipcode": "13913-422"
    },
    {
        "city": "Jaguariúna",
        "state": "SP",
        "district": "Vila Miguel Martini",
        "street": "Rua Lanzoni",
        "zipcode": "13916-002"
    },
    {
        "city": "Jaguariúna",
        "state": "SP",
        "district": "Chácara Recreio Floresta",
        "street": "Rua Lino Angi",
        "zipcode": "13913-010"
    },
    {
        "city": "Jaguariúna",
        "state": "SP",
        "district": "Jardim Cruzeiro do Sul",
        "street": "Rua José Fernandes",
        "zipcode": "13917-156"
    },
    {
        "city": "Jaguariúna",
        "state": "SP",
        "district": "Jardim Pinheiros",
        "street": "Rua José Sereda",
        "zipcode": "13910-318"
    },
    {
        "city": "Jaguariúna",
        "state": "SP",
        "district": "Loteamento Capotuna",
        "street": "Rua João Bruno",
        "zipcode": "13912-194"
    },
    {
        "city": "Jaguariúna",
        "state": "SP",
        "district": "Loteamento Capotuna",
        "street": "Rua Luis Baldo",
        "zipcode": "13912-196"
    },
    {
        "city": "Jaguariúna",
        "state": "SP",
        "district": "Residencial Reserva da Barra",
        "street": "Rua Izidorio Terenzio",
        "zipcode": "13913-376"
    },
    {
        "city": "Jaguariúna",
        "state": "SP",
        "district": "Jardim Dona Irma",
        "street": "Rua João Duarte de Toledo",
        "zipcode": "13917-056"
    },
    {
        "city": "Jaguariúna",
        "state": "SP",
        "district": "Jardim Alice",
        "street": "Rua João Pires Germano",
        "zipcode": "13912-064"
    },
    {
        "city": "Jaguariúna",
        "state": "SP",
        "district": "Jardim Boa Vista",
        "street": "Rua José de Couto Menezes",
        "zipcode": "13914-486"
    },
    {
        "city": "Jaguariúna",
        "state": "SP",
        "district": "Guedes",
        "street": "Rua Hilda David DalBo",
        "zipcode": "13914-676"
    },
    {
        "city": "Jaguariúna",
        "state": "SP",
        "district": "Chácara Pesqueiro Roseira",
        "street": "Rua Itapira",
        "zipcode": "13917-664"
    },
    {
        "city": "Jaguariúna",
        "state": "SP",
        "district": "Chácara Long Island",
        "street": "Rua João Sisti",
        "zipcode": "13918-466"
    },
    {
        "city": "Jaguariúna",
        "state": "SP",
        "district": "Santa Cruz",
        "street": "Rua Itália",
        "zipcode": "13919-054"
    },
    {
        "city": "Jaguariúna",
        "state": "SP",
        "district": "Nova Jaguariúna",
        "street": "Rua Itapema",
        "zipcode": "13919-436"
    },
    {
        "city": "Jaguariúna",
        "state": "SP",
        "district": "Nova Jaguariúna II",
        "street": "Rua João Ferrari",
        "zipcode": "13919-454"
    },
    {
        "city": "Jaguariúna",
        "state": "SP",
        "district": "Colinas do Castelo",
        "street": "Rua João Leite Penteado",
        "zipcode": "13919-604"
    },
    {
        "city": "Jaguariúna",
        "state": "SP",
        "district": "Vila Guilherme Giesbrecht",
        "street": "Rua João Frazatto",
        "zipcode": "13917-012"
    },
    {
        "city": "Jaguariúna",
        "state": "SP",
        "district": "Jardim Dona Irma",
        "street": "Rua João Frazatto",
        "zipcode": "13917-040"
    },
    {
        "city": "Jaguariúna",
        "state": "SP",
        "district": "Chácara São João",
        "street": "Rua Joaquim Bueno",
        "zipcode": "13919-080"
    },
    {
        "city": "Jaguariúna",
        "state": "SP",
        "district": "Recanto Camanducaia",
        "street": "Rua José Cândido Gomes",
        "zipcode": "13915-016"
    },
    {
        "city": "Jaguariúna",
        "state": "SP",
        "district": "Santa Cruz",
        "street": "Rua Holanda",
        "zipcode": "13919-066"
    },
    {
        "city": "Jaguariúna",
        "state": "SP",
        "district": "Jardim Berlim",
        "street": "Rua Holanda",
        "zipcode": "13919-120"
    },
    {
        "city": "Jaguariúna",
        "state": "SP",
        "district": "Nova Jaguariúna III",
        "street": "Rua José dos Reis",
        "zipcode": "13919-482"
    },
    {
        "city": "Jaguariúna",
        "state": "SP",
        "district": "Loteamento Capotuna",
        "street": "Rua Maranhão",
        "zipcode": "13912-182"
    },
    {
        "city": "Jaguariúna",
        "state": "SP",
        "district": "Nova Jaguariúna II",
        "street": "Rua José Poltronieri",
        "zipcode": "13919-442"
    },
    {
        "city": "Jaguariúna",
        "state": "SP",
        "district": "Nova Jaguariúna III",
        "street": "Rua Laura Fraccheta Poltronieri",
        "zipcode": "13919-472"
    },
    {
        "city": "Jaguariúna",
        "state": "SP",
        "district": "Residencial Campo Camanducaia",
        "street": "Rua Lençóis Maranhenses",
        "zipcode": "13916-216"
    },
    {
        "city": "Jaguariúna",
        "state": "SP",
        "district": "Centro",
        "street": "Rua Júlio Frank",
        "zipcode": "13910-017"
    },
    {
        "city": "Jaguariúna",
        "state": "SP",
        "district": "Colinas do Castelo",
        "street": "Rua Luis Astini",
        "zipcode": "13919-600"
    },
    {
        "city": "Jaguariúna",
        "state": "SP",
        "district": "Jardim IK I",
        "street": "Rua Maranhão",
        "zipcode": "13911-292"
    },
    {
        "city": "Jaguariúna",
        "state": "SP",
        "district": "Centro",
        "street": "Rua Júlio Frank",
        "zipcode": "13910-019"
    },
    {
        "city": "Jaguariúna",
        "state": "SP",
        "district": "Roseira de Cima",
        "street": "Rua Macieira",
        "zipcode": "13917-490"
    },
    {
        "city": "Jaguariúna",
        "state": "SP",
        "district": "Vila Primavera",
        "street": "Rua Marcílio Gomes",
        "zipcode": "13910-328"
    },
    {
        "city": "Jaguariúna",
        "state": "SP",
        "district": "Residencial Águas do Jaguari",
        "street": "Rua José Pinheiro",
        "zipcode": "13917-682"
    },
    {
        "city": "Jaguariúna",
        "state": "SP",
        "district": "Núcleo Residencial Doutor João Aldo Nassif",
        "street": "Rua Luporini",
        "zipcode": "13916-052"
    },
    {
        "city": "Jaguariúna",
        "state": "SP",
        "district": "Jardim Sônia",
        "street": "Rua Mato Grosso",
        "zipcode": "13911-184"
    },
    {
        "city": "Jaguariúna",
        "state": "SP",
        "district": "Guedes",
        "street": "Rua Manoel Caiado",
        "zipcode": "13914-678"
    },
    {
        "city": "Jaguariúna",
        "state": "SP",
        "district": "Residencial Arco Iris I",
        "street": "Rua Luiz Granghelli",
        "zipcode": "13914-146"
    },
    {
        "city": "Jaguariúna",
        "state": "SP",
        "district": "Chácara Panorama",
        "street": "Rua Mantovani",
        "zipcode": "13916-138"
    },
    {
        "city": "Jaguariúna",
        "state": "SP",
        "district": "Roseira de Cima",
        "street": "Rua Mangueira",
        "zipcode": "13917-496"
    },
    {
        "city": "Jaguariúna",
        "state": "SP",
        "district": "Roseira de Cima",
        "street": "Rua Limoeiro",
        "zipcode": "13917-500"
    },
    {
        "city": "Jaguariúna",
        "state": "SP",
        "district": "Guedes",
        "street": "Rua Laureta Gauna",
        "zipcode": "13914-680"
    },
    {
        "city": "Jaguariúna",
        "state": "SP",
        "district": "Jardim Imperial",
        "street": "Rua Maranhão",
        "zipcode": "13912-840"
    },
    {
        "city": "Jaguariúna",
        "state": "SP",
        "district": "Chácara Recreio Floresta",
        "street": "Rua Mário Finotelli",
        "zipcode": "13913-006"
    },
    {
        "city": "Jaguariúna",
        "state": "SP",
        "district": "Jardim Bela Vista",
        "street": "Rua Maranhão",
        "zipcode": "13911-414"
    },
    {
        "city": "Jaguariúna",
        "state": "SP",
        "district": "Loteamento São Pedro",
        "street": "Rua Maranhão",
        "zipcode": "13912-812"
    },
    {
        "city": "Jaguariúna",
        "state": "SP",
        "district": "Jardim Bela Vista",
        "street": "Rua Maranhão",
        "zipcode": "13911-416"
    },
    {
        "city": "Jaguariúna",
        "state": "SP",
        "district": "Colinas do Castelo",
        "street": "Rua José Theodoro de Lima",
        "zipcode": "13919-592"
    },
    {
        "city": "Jaguariúna",
        "state": "SP",
        "district": "Chácara Long Island",
        "street": "Rua Júlio Corsi",
        "zipcode": "13918-458"
    },
    {
        "city": "Jaguariúna",
        "state": "SP",
        "district": "Parque Florianópolis",
        "street": "Rua Mário Venturini",
        "zipcode": "13910-278"
    },
    {
        "city": "Jaguariúna",
        "state": "SP",
        "district": "Jardim Haruji",
        "street": "Rua Mato Grosso",
        "zipcode": "13911-122"
    },
    {
        "city": "Jaguariúna",
        "state": "SP",
        "district": "Vila Guilherme Giesbrecht",
        "street": "Rua Luiz Fernandes Costodio",
        "zipcode": "13917-010"
    },
    {
        "city": "Jaguariúna",
        "state": "SP",
        "district": "Jardim Dona Irma",
        "street": "Rua Luiz Pelegrini",
        "zipcode": "13917-046"
    },
    {
        "city": "Jaguariúna",
        "state": "SP",
        "district": "Jardim Fontanella",
        "street": "Rua Mato Grosso",
        "zipcode": "13911-150"
    },
    {
        "city": "Jaguariúna",
        "state": "SP",
        "district": "Jardim Mauá",
        "street": "Rua Minas Gerais",
        "zipcode": "13912-050"
    },
    {
        "city": "Jaguariúna",
        "state": "SP",
        "district": "Gastaldo",
        "street": "Rua Maranhão",
        "zipcode": "13912-174"
    },
    {
        "city": "Jaguariúna",
        "state": "SP",
        "district": "Chácara Recreio Floresta",
        "street": "Rua Mário Benedicto Masotti",
        "zipcode": "13913-002"
    },
    {
        "city": "Jaguariúna",
        "state": "SP",
        "district": "Jardim Dom Bosco",
        "street": "Rua Mato Grosso",
        "zipcode": "13911-096"
    },
    {
        "city": "Jaguariúna",
        "state": "SP",
        "district": "Vila Primavera",
        "street": "Rua Nelson Fonseca da Luz",
        "zipcode": "13910-332"
    },
    {
        "city": "Jaguariúna",
        "state": "SP",
        "district": "Vila Primavera",
        "street": "Rua Murilo Cerri Ramos Filho (Murilinho)",
        "zipcode": "13910-352"
    },
    {
        "city": "Jaguariúna",
        "state": "SP",
        "district": "Frazatto",
        "street": "Rua Mato Grosso",
        "zipcode": "13911-084"
    },
    {
        "city": "Jaguariúna",
        "state": "SP",
        "district": "Jardim São João 2° Parte",
        "street": "Rua Minas Gerais",
        "zipcode": "13911-238"
    },
    {
        "city": "Jaguariúna",
        "state": "SP",
        "district": "Vila 7 de Setembro",
        "street": "Rua Minas Gerais",
        "zipcode": "13912-008"
    },
    {
        "city": "Jaguariúna",
        "state": "SP",
        "district": "Núcleo Urbano Parque Ana Helena",
        "street": "Rua Mussato",
        "zipcode": "13913-408"
    },
    {
        "city": "Jaguariúna",
        "state": "SP",
        "district": "Vila São Francisco",
        "street": "Rua Minas Gerais",
        "zipcode": "13912-044"
    },
    {
        "city": "Jaguariúna",
        "state": "SP",
        "district": "Jardim Sônia",
        "street": "Rua Minas Gerais",
        "zipcode": "13911-192"
    },
    {
        "city": "Jaguariúna",
        "state": "SP",
        "district": "Jardim São João",
        "street": "Rua Moacir Picelli",
        "zipcode": "13911-394"
    },
    {
        "city": "Jaguariúna",
        "state": "SP",
        "district": "Núcleo Residencial São José",
        "street": "Rua Maneta",
        "zipcode": "13914-456"
    },
    {
        "city": "Jaguariúna",
        "state": "SP",
        "district": "Jardim Santa Mercedes",
        "street": "Rua José Manoel Mendes",
        "zipcode": "13912-538"
    },
    {
        "city": "Jaguariúna",
        "state": "SP",
        "district": "Parque Antonio Barbosa",
        "street": "Rua Júlio Sisti",
        "zipcode": "13914-242"
    },
    {
        "city": "Jaguariúna",
        "state": "SP",
        "district": "Santa Cruz",
        "street": "Rua Líbano",
        "zipcode": "13919-058"
    },
    {
        "city": "Jaguariúna",
        "state": "SP",
        "district": "Jardim Berlim",
        "street": "Rua Maria Ângela",
        "zipcode": "13919-132"
    },
    {
        "city": "Jaguariúna",
        "state": "SP",
        "district": "Jardim Berlim",
        "street": "Rua Maria Ângela",
        "zipcode": "13919-134"
    },
    {
        "city": "Jaguariúna",
        "state": "SP",
        "district": "Jardim Berlim",
        "street": "Rua Maria Ângela",
        "zipcode": "13919-130"
    },
    {
        "city": "Jaguariúna",
        "state": "SP",
        "district": "Recanto Camanducaia",
        "street": "Rua Maria da Conceição Dantas",
        "zipcode": "13915-012"
    },
    {
        "city": "Jaguariúna",
        "state": "SP",
        "district": "Chácaras Santo Antonio do Jardim",
        "street": "Rua Marion",
        "zipcode": "13913-286"
    },
    {
        "city": "Jaguariúna",
        "state": "SP",
        "district": "Roseira de Baixo",
        "street": "Rua Maurício da Silva",
        "zipcode": "13917-242"
    },
    {
        "city": "Jaguariúna",
        "state": "SP",
        "district": "Vila Miguel Martini",
        "street": "Rua Marconato",
        "zipcode": "13916-008"
    },
    {
        "city": "Jaguariúna",
        "state": "SP",
        "district": "Jardim Berlim",
        "street": "Rua Marechal Floriano Peixoto",
        "zipcode": "13919-118"
    },
    {
        "city": "Jaguariúna",
        "state": "SP",
        "district": "Vargeão",
        "street": "Rua Maranhão",
        "zipcode": "13914-554"
    },
    {
        "city": "Jaguariúna",
        "state": "SP",
        "district": "Residencial Campo Camanducaia",
        "street": "Rua Marinho dos Abrolhos",
        "zipcode": "13916-260"
    },
    {
        "city": "Jaguariúna",
        "state": "SP",
        "district": "Jardim Cruzeiro do Sul",
        "street": "Rua Miled Salomão Hossri",
        "zipcode": "13917-122"
    },
    {
        "city": "Jaguariúna",
        "state": "SP",
        "district": "Residencial Campo Camanducaia",
        "street": "Rua Parque Juruena",
        "zipcode": "13916-302"
    },
    {
        "city": "Jaguariúna",
        "state": "SP",
        "district": "Jardim América",
        "street": "Rua Pedreira",
        "zipcode": "13912-024"
    },
    {
        "city": "Jaguariúna",
        "state": "SP",
        "district": "Residencial Campo Camanducaia",
        "street": "Rua Parque Jalapão",
        "zipcode": "13916-256"
    },
    {
        "city": "Jaguariúna",
        "state": "SP",
        "district": "Núcleo Urbano Bom Jardim",
        "street": "Rua Paschoa Bizo Flora",
        "zipcode": "13913-204"
    },
    {
        "city": "Jaguariúna",
        "state": "SP",
        "district": "Loteamento São Pedro",
        "street": "Rua Paulo Tenan",
        "zipcode": "13912-814"
    },
    {
        "city": "Jaguariúna",
        "state": "SP",
        "district": "Jardim Sônia",
        "street": "Rua Papa João XXIII",
        "zipcode": "13911-200"
    },
    {
        "city": "Jaguariúna",
        "state": "SP",
        "district": "Jardim São João 2° Parte",
        "street": "Rua Olavo Bilac",
        "zipcode": "13911-252"
    },
    {
        "city": "Jaguariúna",
        "state": "SP",
        "district": "Santa Maria",
        "street": "Rua Paraná",
        "zipcode": "13911-266"
    },
    {
        "city": "Jaguariúna",
        "state": "SP",
        "district": "Jardim São João",
        "street": "Rua Paraná",
        "zipcode": "13911-398"
    },
    {
        "city": "Jaguariúna",
        "state": "SP",
        "district": "Jardim Haruji",
        "street": "Rua Paraíba",
        "zipcode": "13911-114"
    },
    {
        "city": "Jaguariúna",
        "state": "SP",
        "district": "Jardim Fontanella",
        "street": "Rua Pará",
        "zipcode": "13911-152"
    },
    {
        "city": "Jaguariúna",
        "state": "SP",
        "district": "Jardim Bela Vista",
        "street": "Rua Paraná",
        "zipcode": "13911-418"
    },
    {
        "city": "Jaguariúna",
        "state": "SP",
        "district": "Residencial Parque dos Ipês",
        "street": "Rua Nelson Righi",
        "zipcode": "13912-428"
    },
    {
        "city": "Jaguariúna",
        "state": "SP",
        "district": "Jardim Imperial",
        "street": "Rua Orlando Tonini",
        "zipcode": "13912-846"
    },
    {
        "city": "Jaguariúna",
        "state": "SP",
        "district": "Residencial Reserva da Barra",
        "street": "Rua Orlando Montanheiro",
        "zipcode": "13913-384"
    },
    {
        "city": "Jaguariúna",
        "state": "SP",
        "district": "Jardim Europa",
        "street": "Rua Padre Antonio Joaquim Gomes",
        "zipcode": "13914-014"
    },
    {
        "city": "Jaguariúna",
        "state": "SP",
        "district": "Jardim Fontanella",
        "street": "Rua Paraná",
        "zipcode": "13911-142"
    },
    {
        "city": "Jaguariúna",
        "state": "SP",
        "district": "Chácaras Santo Antonio do Jardim",
        "street": "Rua Parnaíba",
        "zipcode": "13913-288"
    },
    {
        "city": "Jaguariúna",
        "state": "SP",
        "district": "Jardim Sylvio Rinaldi II",
        "street": "Rua Osvaldo Vicentini",
        "zipcode": "13914-116"
    },
    {
        "city": "Jaguariúna",
        "state": "SP",
        "district": "Vila Jorge Zambon",
        "street": "Rua Nair Peternella Brancalhone",
        "zipcode": "13914-172"
    },
    {
        "city": "Jaguariúna",
        "state": "SP",
        "district": "Parque Antonio Barbosa",
        "street": "Rua Mônica Zambon",
        "zipcode": "13914-240"
    },
    {
        "city": "Jaguariúna",
        "state": "SP",
        "district": "Núcleo Residencial São José",
        "street": "Rua Nistarda",
        "zipcode": "13914-458"
    },
    {
        "city": "Jaguariúna",
        "state": "SP",
        "district": "Núcleo Residencial São José",
        "street": "Rua Panini",
        "zipcode": "13914-464"
    },
    {
        "city": "Jaguariúna",
        "state": "SP",
        "district": "Vila Miguel Martini",
        "street": "Rua Murer",
        "zipcode": "13916-014"
    },
    {
        "city": "Jaguariúna",
        "state": "SP",
        "district": "Residencial Campo Camanducaia",
        "street": "Rua Monte Roraima",
        "zipcode": "13916-222"
    },
    {
        "city": "Jaguariúna",
        "state": "SP",
        "district": "Residencial Campo Camanducaia",
        "street": "Rua Parque Carnaúbas",
        "zipcode": "13916-248"
    },
    {
        "city": "Jaguariúna",
        "state": "SP",
        "district": "Residencial Campo Camanducaia",
        "street": "Rua Parque Aparados da Serra",
        "zipcode": "13916-268"
    },
    {
        "city": "Jaguariúna",
        "state": "SP",
        "district": "Condomínio Fazenda Duas Marias",
        "street": "Rua Oito B",
        "zipcode": "13916-426"
    },
    {
        "city": "Jaguariúna",
        "state": "SP",
        "district": "Vila Guilherme Giesbrecht",
        "street": "Rua Narciso Barbosa",
        "zipcode": "13917-004"
    },
    {
        "city": "Jaguariúna",
        "state": "SP",
        "district": "Jardim Cruzeiro do Sul",
        "street": "Rua Orestes Gothardo",
        "zipcode": "13917-124"
    },
    {
        "city": "Jaguariúna",
        "state": "SP",
        "district": "Jardim Fontanella",
        "street": "Rua Paraíba",
        "zipcode": "13911-160"
    },
    {
        "city": "Jaguariúna",
        "state": "SP",
        "district": "Jardim Pinheiros",
        "street": "Rua Otávio Antoniacci",
        "zipcode": "13910-308"
    },
    {
        "city": "Jaguariúna",
        "state": "SP",
        "district": "Residencial Parque dos Ipês",
        "street": "Rua Nove",
        "zipcode": "13912-424"
    },
    {
        "city": "Jaguariúna",
        "state": "SP",
        "district": "Núcleo Urbano Parque Ana Helena",
        "street": "Rua Onda",
        "zipcode": "13913-410"
    },
    {
        "city": "Jaguariúna",
        "state": "SP",
        "district": "Núcleo Residencial Doutor João Aldo Nassif",
        "street": "Rua Marchesini",
        "zipcode": "13916-062"
    },
    {
        "city": "Jaguariúna",
        "state": "SP",
        "district": "Condomínio Fazenda Duas Marias",
        "street": "Rua Onze",
        "zipcode": "13916-442"
    },
    {
        "city": "Jaguariúna",
        "state": "SP",
        "district": "Chácara Pesqueiro Roseira",
        "street": "Rua Mogi Guaçu",
        "zipcode": "13917-666"
    },
    {
        "city": "Jaguariúna",
        "state": "SP",
        "district": "Guedes",
        "street": "Rua Maria Luize",
        "zipcode": "13914-674"
    },
    {
        "city": "Jaguariúna",
        "state": "SP",
        "district": "Núcleo Residencial Doutor João Aldo Nassif",
        "street": "Rua Poltronieri",
        "zipcode": "13916-046"
    },
    {
        "city": "Jaguariúna",
        "state": "SP",
        "district": "Vila Primavera",
        "street": "Rua Renato Abrucez",
        "zipcode": "13910-322"
    },
    {
        "city": "Jaguariúna",
        "state": "SP",
        "district": "Vila São Francisco",
        "street": "Rua Pedro Moraes Penteado",
        "zipcode": "13912-040"
    },
    {
        "city": "Jaguariúna",
        "state": "SP",
        "district": "Residencial Campo Camanducaia",
        "street": "Rua Pau Brasil",
        "zipcode": "13916-282"
    },
    {
        "city": "Jaguariúna",
        "state": "SP",
        "district": "Sítio Bela Vista",
        "street": "Rua Regente Feijó",
        "zipcode": "13912-090"
    },
    {
        "city": "Jaguariúna",
        "state": "SP",
        "district": "Jardim São João",
        "street": "Rua Rio de Janeiro",
        "zipcode": "13911-392"
    },
    {
        "city": "Jaguariúna",
        "state": "SP",
        "district": "Gleba Destacada da Fazenda Santa Cruz",
        "street": "Rua Rio Grande do Sul",
        "zipcode": "13911-072"
    },
    {
        "city": "Jaguariúna",
        "state": "SP",
        "district": "Jardim Santa Mercedes",
        "street": "Rua Reynaldo Angeloni",
        "zipcode": "13912-536"
    },
    {
        "city": "Jaguariúna",
        "state": "SP",
        "district": "Chácara Pesqueiro Roseira",
        "street": "Rua Paulínia",
        "zipcode": "13917-660"
    },
    {
        "city": "Jaguariúna",
        "state": "SP",
        "district": "Núcleo Urbano Bom Jardim",
        "street": "Rua Primo DalBo",
        "zipcode": "13913-192"
    },
    {
        "city": "Jaguariúna",
        "state": "SP",
        "district": "Residencial Campo Camanducaia",
        "street": "Rua Pico do Itatiaia",
        "zipcode": "13916-234"
    },
    {
        "city": "Jaguariúna",
        "state": "SP",
        "district": "Jardim São João 2° Parte",
        "street": "Rua Rio Grande do Sul",
        "zipcode": "13911-242"
    },
    {
        "city": "Jaguariúna",
        "state": "SP",
        "district": "Condomínio Fazenda Duas Marias",
        "street": "Rua Quinze A",
        "zipcode": "13916-448"
    },
    {
        "city": "Jaguariúna",
        "state": "SP",
        "district": "Condomínio Fazenda Duas Marias",
        "street": "Rua Quinze B",
        "zipcode": "13916-450"
    },
    {
        "city": "Jaguariúna",
        "state": "SP",
        "district": "Condomínio Fazenda Duas Marias",
        "street": "Rua Quatorze A",
        "zipcode": "13916-466"
    },
    {
        "city": "Jaguariúna",
        "state": "SP",
        "district": "Vila São Francisco",
        "street": "Rua Regente Feijó",
        "zipcode": "13912-048"
    },
    {
        "city": "Jaguariúna",
        "state": "SP",
        "district": "Jardim Alice",
        "street": "Rua Pedreira",
        "zipcode": "13912-070"
    },
    {
        "city": "Jaguariúna",
        "state": "SP",
        "district": "Jardim das Laranjeiras",
        "street": "Rua Plínio Poltronieri",
        "zipcode": "13912-494"
    },
    {
        "city": "Jaguariúna",
        "state": "SP",
        "district": "Jardim Mauá II",
        "street": "Rua Regente Feijó",
        "zipcode": "13912-102"
    },
    {
        "city": "Jaguariúna",
        "state": "SP",
        "district": "Jardim Mauá II",
        "street": "Rua Regente Feijó",
        "zipcode": "13912-104"
    },
    {
        "city": "Jaguariúna",
        "state": "SP",
        "district": "Jardim São Caetano",
        "street": "Rua Pontes",
        "zipcode": "13911-464"
    },
    {
        "city": "Jaguariúna",
        "state": "SP",
        "district": "Jardim Sônia",
        "street": "Rua Rio Grande do Sul",
        "zipcode": "13911-170"
    },
    {
        "city": "Jaguariúna",
        "state": "SP",
        "district": "Frazatto",
        "street": "Rua Rio Grande do Sul",
        "zipcode": "13911-080"
    },
    {
        "city": "Jaguariúna",
        "state": "SP",
        "district": "Jardim Fontanella",
        "street": "Rua Rio de Janeiro",
        "zipcode": "13911-146"
    },
    {
        "city": "Jaguariúna",
        "state": "SP",
        "district": "Jardim Haruji",
        "street": "Rua Rio Grande do Sul",
        "zipcode": "13911-110"
    },
    {
        "city": "Jaguariúna",
        "state": "SP",
        "district": "Santa Maria",
        "street": "Rua Pernambuco",
        "zipcode": "13911-278"
    },
    {
        "city": "Jaguariúna",
        "state": "SP",
        "district": "Jardim Tonini",
        "street": "Rua Rio de Janeiro",
        "zipcode": "13911-450"
    },
    {
        "city": "Jaguariúna",
        "state": "SP",
        "district": "Jardim Dom Bosco",
        "street": "Rua Rio Grande do Sul",
        "zipcode": "13911-102"
    },
    {
        "city": "Jaguariúna",
        "state": "SP",
        "district": "Parque Florianópolis",
        "street": "Rua Pedro Maion",
        "zipcode": "13910-270"
    },
    {
        "city": "Jaguariúna",
        "state": "SP",
        "district": "Vila 7 de Setembro",
        "street": "Rua Regente Feijó",
        "zipcode": "13912-004"
    },
    {
        "city": "Jaguariúna",
        "state": "SP",
        "district": "Gleba Destacada da Fazenda Santa Cruz",
        "street": "Rua Piauí",
        "zipcode": "13911-068"
    },
    {
        "city": "Jaguariúna",
        "state": "SP",
        "district": "Recanto Camanducaia",
        "street": "Rua Professora Maria de Souza (Nena)",
        "zipcode": "13915-002"
    },
    {
        "city": "Jaguariúna",
        "state": "SP",
        "district": "Recanto Camanducaia",
        "street": "Rua Paulo Afonso de Souza",
        "zipcode": "13915-018"
    },
    {
        "city": "Jaguariúna",
        "state": "SP",
        "district": "Santa Maria",
        "street": "Rua Rio de Janeiro",
        "zipcode": "13911-264"
    },
    {
        "city": "Jaguariúna",
        "state": "SP",
        "district": "Jardim Mauá II",
        "street": "Rua Regente Feijó",
        "zipcode": "13912-100"
    },
    {
        "city": "Jaguariúna",
        "state": "SP",
        "district": "Residencial Campo Camanducaia",
        "street": "Rua Parque Guaricana",
        "zipcode": "13916-290"
    },
    {
        "city": "Jaguariúna",
        "state": "SP",
        "district": "Jardim Sônia",
        "street": "Rua Prudente de Moraes",
        "zipcode": "13911-190"
    },
    {
        "city": "Jaguariúna",
        "state": "SP",
        "district": "Núcleo Residencial São José",
        "street": "Rua Parisi",
        "zipcode": "13914-460"
    },
    {
        "city": "Jaguariúna",
        "state": "SP",
        "district": "Jardim Boa Viista II",
        "street": "Rua Nistarda",
        "zipcode": "13914-504"
    },
    {
        "city": "Jaguariúna",
        "state": "SP",
        "district": "Residencial Campo Camanducaia",
        "street": "Rua Parque Dunas de Natal",
        "zipcode": "13916-246"
    },
    {
        "city": "Jaguariúna",
        "state": "SP",
        "district": "Residencial Campo Camanducaia",
        "street": "Rua Parque do Iguaçu",
        "zipcode": "13916-258"
    },
    {
        "city": "Jaguariúna",
        "state": "SP",
        "district": "Residencial Campo Camanducaia",
        "street": "Rua Parque Catimbau",
        "zipcode": "13916-272"
    },
    {
        "city": "Jaguariúna",
        "state": "SP",
        "district": "Residencial Campo Camanducaia",
        "street": "Rua Parque Boa Nova",
        "zipcode": "13916-280"
    },
    {
        "city": "Jaguariúna",
        "state": "SP",
        "district": "Condomínio Fazenda Duas Marias",
        "street": "Rua Nove",
        "zipcode": "13916-428"
    },
    {
        "city": "Jaguariúna",
        "state": "SP",
        "district": "Residencial Campo Camanducaia",
        "street": "Rua Parque do Xingu",
        "zipcode": "13916-242"
    },
    {
        "city": "Jaguariúna",
        "state": "SP",
        "district": "Santa Cruz",
        "street": "Rua Paraguai",
        "zipcode": "13919-060"
    },
    {
        "city": "Jaguariúna",
        "state": "SP",
        "district": "Residencial Campo Camanducaia",
        "street": "Rua Pantanal Matogrossense",
        "zipcode": "13916-284"
    },
    {
        "city": "Jaguariúna",
        "state": "SP",
        "district": "Chácara Long Island",
        "street": "Rua Padre Bento Dias Pacheco",
        "zipcode": "13918-460"
    },
    {
        "city": "Jaguariúna",
        "state": "SP",
        "district": "Residencial Reserva da Barra",
        "street": "Rua Sebastião Darcy Santos",
        "zipcode": "13913-382"
    },
    {
        "city": "Jaguariúna",
        "state": "SP",
        "district": "Santa Cruz",
        "street": "Rua Portugal",
        "zipcode": "13919-062"
    },
    {
        "city": "Jaguariúna",
        "state": "SP",
        "district": "Chácara Pesqueiro Roseira",
        "street": "Rua São João da Boa Vista",
        "zipcode": "13917-668"
    },
    {
        "city": "Jaguariúna",
        "state": "SP",
        "district": "Roseira de Cima",
        "street": "Rua Pitangueira",
        "zipcode": "13917-502"
    },
    {
        "city": "Jaguariúna",
        "state": "SP",
        "district": "Gleba Destacada da Fazenda Santa Cruz",
        "street": "Rua Roraima",
        "zipcode": "13911-064"
    },
    {
        "city": "Jaguariúna",
        "state": "SP",
        "district": "Núcleo Residencial Doutor João Aldo Nassif",
        "street": "Rua Sachi",
        "zipcode": "13916-066"
    },
    {
        "city": "Jaguariúna",
        "state": "SP",
        "district": "Jardim Novo Horizonte",
        "street": "Rua Reynaldo Angeloni",
        "zipcode": "13912-556"
    },
    {
        "city": "Jaguariúna",
        "state": "SP",
        "district": "Nova Jaguariúna II",
        "street": "Rua Salles",
        "zipcode": "13919-448"
    },
    {
        "city": "Jaguariúna",
        "state": "SP",
        "district": "Núcleo Residencial São José",
        "street": "Rua Scaion",
        "zipcode": "13914-466"
    },
    {
        "city": "Jaguariúna",
        "state": "SP",
        "district": "Jardim Fontanella",
        "street": "Rua Santa Catarina",
        "zipcode": "13911-154"
    },
    {
        "city": "Jaguariúna",
        "state": "SP",
        "district": "Jardim Fontanella",
        "street": "Rua Sergipe",
        "zipcode": "13911-156"
    },
    {
        "city": "Jaguariúna",
        "state": "SP",
        "district": "Jardim Haruji",
        "street": "Rua Sergipe",
        "zipcode": "13911-118"
    },
    {
        "city": "Jaguariúna",
        "state": "SP",
        "district": "Jardim São João",
        "street": "Rua São João",
        "zipcode": "13911-390"
    },
    {
        "city": "Jaguariúna",
        "state": "SP",
        "district": "Jardim Sônia",
        "street": "Rua Santa Catarina",
        "zipcode": "13911-180"
    },
    {
        "city": "Jaguariúna",
        "state": "SP",
        "district": "Chácara Panorama",
        "street": "Rua Sachi",
        "zipcode": "13916-134"
    },
    {
        "city": "Jaguariúna",
        "state": "SP",
        "district": "Nova Jaguariúna",
        "street": "Rua Professora Julia Calhau Rodrigues",
        "zipcode": "13919-438"
    },
    {
        "city": "Jaguariúna",
        "state": "SP",
        "district": "Recanto Camanducaia",
        "street": "Rua Pedro Lana",
        "zipcode": "13915-001"
    },
    {
        "city": "Jaguariúna",
        "state": "SP",
        "district": "Chácara Long Island",
        "street": "Rua Pedro Granghelli",
        "zipcode": "13918-452"
    },
    {
        "city": "Jaguariúna",
        "state": "SP",
        "district": "Guedes",
        "street": "Rua Sebastião Quintino",
        "zipcode": "13914-684"
    },
    {
        "city": "Jaguariúna",
        "state": "SP",
        "district": "Núcleo Residencial São José",
        "street": "Rua Sarti",
        "zipcode": "13914-468"
    },
    {
        "city": "Jaguariúna",
        "state": "SP",
        "district": "Residencial Reserva da Barra",
        "street": "Rua Sebastião de Polli",
        "zipcode": "13913-386"
    },
    {
        "city": "Jaguariúna",
        "state": "SP",
        "district": "Terras da Capela de Santo Antônio",
        "street": "Rua Saverio Abrucezi",
        "zipcode": "13910-470"
    },
    {
        "city": "Jaguariúna",
        "state": "SP",
        "district": "Jardim Cruzeiro do Sul",
        "street": "Rua Rita Villela de Andrade Lima",
        "zipcode": "13917-146"
    },
    {
        "city": "Jaguariúna",
        "state": "SP",
        "district": "Jardim Zeni",
        "street": "Rua Serafim Abib",
        "zipcode": "13912-458"
    },
    {
        "city": "Jaguariúna",
        "state": "SP",
        "district": "Jardim Elisa",
        "street": "Rua Serafim Abib",
        "zipcode": "13912-480"
    },
    {
        "city": "Jaguariúna",
        "state": "SP",
        "district": "Jardim das Laranjeiras",
        "street": "Rua Serafim Abib",
        "zipcode": "13912-496"
    },
    {
        "city": "Jaguariúna",
        "state": "SP",
        "district": "Jardim Planalto",
        "street": "Rua Serafim Abib",
        "zipcode": "13912-518"
    },
    {
        "city": "Jaguariúna",
        "state": "SP",
        "district": "Recanto Camanducaia",
        "street": "Rua Sérgio Andrieti",
        "zipcode": "13915-010"
    },
    {
        "city": "Jaguariúna",
        "state": "SP",
        "district": "Jardim Haruji",
        "street": "Rua Santa Catarina",
        "zipcode": "13911-120"
    },
    {
        "city": "Jaguariúna",
        "state": "SP",
        "district": "Jardim Dom Bosco",
        "street": "Rua São Paulo",
        "zipcode": "13911-094"
    },
    {
        "city": "Jaguariúna",
        "state": "SP",
        "district": "Jardim Haruji",
        "street": "Rua Sílvia Bueno",
        "zipcode": "13911-112"
    },
    {
        "city": "Jaguariúna",
        "state": "SP",
        "district": "Jardim São Caetano",
        "street": "Rua Sisti",
        "zipcode": "13911-462"
    },
    {
        "city": "Jaguariúna",
        "state": "SP",
        "district": "Jardim Venturini",
        "street": "Rua Sisti",
        "zipcode": "13911-474"
    },
    {
        "city": "Jaguariúna",
        "state": "SP",
        "district": "Núcleo Urbano Parque Ana Helena",
        "street": "Rua Serafim",
        "zipcode": "13913-398"
    },
    {
        "city": "Jaguariúna",
        "state": "SP",
        "district": "Residencial Campo Camanducaia",
        "street": "Rua Serra da Canastra",
        "zipcode": "13916-226"
    },
    {
        "city": "Jaguariúna",
        "state": "SP",
        "district": "Residencial Campo Camanducaia",
        "street": "Rua Serra da Bocaina",
        "zipcode": "13916-262"
    },
    {
        "city": "Jaguariúna",
        "state": "SP",
        "district": "Loteamento São Pedro",
        "street": "Rua Servilio DalBo",
        "zipcode": "13912-832"
    },
    {
        "city": "Jaguariúna",
        "state": "SP",
        "district": "Chácaras Santo Antonio do Jardim",
        "street": "Rua Simione",
        "zipcode": "13913-282"
    },
    {
        "city": "Jaguariúna",
        "state": "SP",
        "district": "Residencial Campo Camanducaia",
        "street": "Rua Serra do Japi",
        "zipcode": "13916-228"
    },
    {
        "city": "Jaguariúna",
        "state": "SP",
        "district": "Residencial Campo Camanducaia",
        "street": "Rua Serra da Mantiqueira",
        "zipcode": "13916-238"
    },
    {
        "city": "Jaguariúna",
        "state": "SP",
        "district": "Residencial Campo Camanducaia",
        "street": "Rua Serra do Itajaí",
        "zipcode": "13916-244"
    },
    {
        "city": "Jaguariúna",
        "state": "SP",
        "district": "Residencial Campo Camanducaia",
        "street": "Rua Serra do Mar",
        "zipcode": "13916-264"
    },
    {
        "city": "Jaguariúna",
        "state": "SP",
        "district": "Residencial Campo Camanducaia",
        "street": "Rua Serra da Cantareira",
        "zipcode": "13916-266"
    },
    {
        "city": "Jaguariúna",
        "state": "SP",
        "district": "Residencial Campo Camanducaia",
        "street": "Rua Serra do Rio do Rastro",
        "zipcode": "13916-270"
    },
    {
        "city": "Jaguariúna",
        "state": "SP",
        "district": "Chácara Long Island",
        "street": "Rua Pedro Salomão Hossri",
        "zipcode": "13918-462"
    },
    {
        "city": "Jaguariúna",
        "state": "SP",
        "district": "Residencial Campo Camanducaia",
        "street": "Rua Serra da Cutia",
        "zipcode": "13916-286"
    },
    {
        "city": "Jaguariúna",
        "state": "SP",
        "district": "Parque Florianópolis",
        "street": "Rua Saverio Abrucezi",
        "zipcode": "13910-298"
    },
    {
        "city": "Jaguariúna",
        "state": "SP",
        "district": "Núcleo Urbano Bom Jardim",
        "street": "Rua Sílvio DalBo",
        "zipcode": "13913-200"
    },
    {
        "city": "Jaguariúna",
        "state": "SP",
        "district": "Vila Miguel Martini",
        "street": "Rua Setim",
        "zipcode": "13916-012"
    },
    {
        "city": "Jaguariúna",
        "state": "SP",
        "district": "Condomínio Fazenda Duas Marias",
        "street": "Rua Seis",
        "zipcode": "13916-420"
    },
    {
        "city": "Jaguariúna",
        "state": "SP",
        "district": "Vila Primavera",
        "street": "Rua Vitório Bruno",
        "zipcode": "13910-342"
    },
    {
        "city": "Jaguariúna",
        "state": "SP",
        "district": "Vila Primavera",
        "street": "Rua Vereadora Adna Hossri Faria",
        "zipcode": "13910-356"
    },
    {
        "city": "Jaguariúna",
        "state": "SP",
        "district": "Terras da Capela de Santo Antônio",
        "street": "Rua Tenan",
        "zipcode": "13910-492"
    },
    {
        "city": "Jaguariúna",
        "state": "SP",
        "district": "Jardim Mauá II",
        "street": "Rua Vereador Guido Marchiolli",
        "zipcode": "13912-118"
    },
    {
        "city": "Jaguariúna",
        "state": "SP",
        "district": "Francisco de Assis Finotelli",
        "street": "Rua Souza",
        "zipcode": "13912-660"
    },
    {
        "city": "Jaguariúna",
        "state": "SP",
        "district": "Jardim Dona Luiza",
        "street": "Rua Tassinari",
        "zipcode": "13912-682"
    },
    {
        "city": "Jaguariúna",
        "state": "SP",
        "district": "Loteamento São Pedro",
        "street": "Rua Vereador Braz Pinto Catão",
        "zipcode": "13912-830"
    },
    {
        "city": "Jaguariúna",
        "state": "SP",
        "district": "Núcleo Urbano Bom Jardim",
        "street": "Rua Tereza Gasparoto Testa",
        "zipcode": "13913-194"
    },
    {
        "city": "Jaguariúna",
        "state": "SP",
        "district": "Núcleo Urbano Bom Jardim",
        "street": "Rua Vitório DalBo",
        "zipcode": "13913-208"
    },
    {
        "city": "Jaguariúna",
        "state": "SP",
        "district": "Chácaras Santo Antonio do Jardim II",
        "street": "Rua Tonholo",
        "zipcode": "13913-270"
    },
    {
        "city": "Jaguariúna",
        "state": "SP",
        "district": "Núcleo Urbano Parque Ana Helena",
        "street": "Rua Tonini",
        "zipcode": "13913-418"
    },
    {
        "city": "Jaguariúna",
        "state": "SP",
        "district": "Núcleo Urbano Parque Ana Helena",
        "street": "Rua Venturini",
        "zipcode": "13913-420"
    },
    {
        "city": "Jaguariúna",
        "state": "SP",
        "district": "Jardim Europa",
        "street": "Rua Vigato",
        "zipcode": "13914-000"
    },
    {
        "city": "Jaguariúna",
        "state": "SP",
        "district": "Jardim Europa",
        "street": "Rua Yvone Poltronieri Santos",
        "zipcode": "13914-020"
    },
    {
        "city": "Jaguariúna",
        "state": "SP",
        "district": "Jardim Europa",
        "street": "Rua Teophilo Gastaldo",
        "zipcode": "13914-026"
    },
    {
        "city": "Jaguariúna",
        "state": "SP",
        "district": "Residencial Reserva da Barra",
        "street": "Rua Vereador Emílio Bergamasco Filho (Milo)",
        "zipcode": "13913-374"
    },
    {
        "city": "Jaguariúna",
        "state": "SP",
        "district": "Residencial Reserva da Barra",
        "street": "Rua Valdir Antonio Sisti (Sistinho)",
        "zipcode": "13913-378"
    },
    {
        "city": "Jaguariúna",
        "state": "SP",
        "district": "Jardim Sylvio Rinaldi II",
        "street": "Rua Vanderlei Aparecido Funchini",
        "zipcode": "13914-112"
    },
    {
        "city": "Jaguariúna",
        "state": "SP",
        "district": "Jardim Boa Vista",
        "street": "Rua Wenceslau Brás",
        "zipcode": "13914-492"
    },
    {
        "city": "Jaguariúna",
        "state": "SP",
        "district": "Vila Miguel Martini",
        "street": "Rua Vigato",
        "zipcode": "13916-000"
    },
    {
        "city": "Jaguariúna",
        "state": "SP",
        "district": "Núcleo Residencial Doutor João Aldo Nassif",
        "street": "Rua Voltan",
        "zipcode": "13916-030"
    },
    {
        "city": "Jaguariúna",
        "state": "SP",
        "district": "Núcleo Residencial Doutor João Aldo Nassif",
        "street": "Rua Tozzi",
        "zipcode": "13916-032"
    },
    {
        "city": "Jaguariúna",
        "state": "SP",
        "district": "Núcleo Residencial Doutor João Aldo Nassif",
        "street": "Rua Vigato",
        "zipcode": "13916-070"
    },
    {
        "city": "Jaguariúna",
        "state": "SP",
        "district": "Chácara Panorama",
        "street": "Rua Vigato",
        "zipcode": "13916-130"
    },
    {
        "city": "Jaguariúna",
        "state": "SP",
        "district": "Condomínio Fazenda Duas Marias",
        "street": "Rua Treze",
        "zipcode": "13916-438"
    },
    {
        "city": "Jaguariúna",
        "state": "SP",
        "district": "Condomínio Fazenda Duas Marias",
        "street": "Rua Vinte e Um",
        "zipcode": "13916-456"
    },
    {
        "city": "Jaguariúna",
        "state": "SP",
        "district": "Condomínio Fazenda Duas Marias",
        "street": "Rua Três A",
        "zipcode": "13916-460"
    },
    {
        "city": "Jaguariúna",
        "state": "SP",
        "district": "Chácara Recreio Primavera",
        "street": "Rua Thomaz Jasso",
        "zipcode": "13917-080"
    },
    {
        "city": "Jaguariúna",
        "state": "SP",
        "district": "Jardim Cruzeiro do Sul",
        "street": "Rua Thomaz Jasso",
        "zipcode": "13917-144"
    },
    {
        "city": "Jaguariúna",
        "state": "SP",
        "district": "Vila Primavera",
        "street": "Rua Tuguiu Fujimoto",
        "zipcode": "13910-334"
    },
    {
        "city": "Jaguariúna",
        "state": "SP",
        "district": "Loteamento Capotuna",
        "street": "Rua Souza",
        "zipcode": "13912-210"
    },
    {
        "city": "Jaguariúna",
        "state": "SP",
        "district": "Conjunto Habitacional Vila 12 de Setembro 2° Etapa",
        "street": "Rua Souza",
        "zipcode": "13912-628"
    },
    {
        "city": "Jaguariúna",
        "state": "SP",
        "district": "Condomínio Fazenda Duas Marias",
        "street": "Rua Um",
        "zipcode": "13916-410"
    },
    {
        "city": "Jaguariúna",
        "state": "SP",
        "district": "Jardim Cruzeiro do Sul",
        "street": "Rua Victorio Mathiuzo",
        "zipcode": "13917-158"
    },
    {
        "city": "Jaguariúna",
        "state": "SP",
        "district": "Roseira de Baixo",
        "street": "Rua Videira",
        "zipcode": "13917-252"
    },
    {
        "city": "Jaguariúna",
        "state": "SP",
        "district": "Jardim Berlim",
        "street": "Rua XV de Novembro",
        "zipcode": "13919-110"
    },
    {
        "city": "Jaguariúna",
        "state": "SP",
        "district": "Jardim Berlim",
        "street": "Rua Vicente Maudonet dos Santos",
        "zipcode": "13919-128"
    },
    {
        "city": "Jaguariúna",
        "state": "SP",
        "district": "Nova Jaguariúna II",
        "street": "Rua Vitório Bufalo",
        "zipcode": "13919-456"
    },
    {
        "city": "Jaguariúna",
        "state": "SP",
        "district": "Residencial Campo Camanducaia",
        "street": "Rua Serra do Cipó",
        "zipcode": "13916-230"
    },
    {
        "city": "Jaguariúna",
        "state": "SP",
        "district": "Condomínio Fazenda Duas Marias",
        "street": "Rua Sete",
        "zipcode": "13916-422"
    },
    {
        "city": "Jaguariúna",
        "state": "SP",
        "district": "Condomínio Fazenda Duas Marias",
        "street": "Rua Vinte e Três",
        "zipcode": "13916-462"
    },
    {
        "city": "Jaguariúna",
        "state": "SP",
        "district": "Jardim São Sebastião",
        "street": "Rua Tavares",
        "zipcode": "13917-172"
    },
    {
        "city": "Jaguariúna",
        "state": "SP",
        "district": "Jardim Roseira",
        "street": "Rua Servidão",
        "zipcode": "13917-474"
    },
    {
        "city": "Jaguariúna",
        "state": "SP",
        "district": "Condomínio Fazenda Duas Marias",
        "street": "Rua Três",
        "zipcode": "13916-458"
    },
    {
        "city": "Jaguariúna",
        "state": "SP",
        "district": "Jardim Sônia",
        "street": "Rua Washington Luis",
        "zipcode": "13911-194"
    },
    {
        "city": "Jaguariúna",
        "state": "SP",
        "district": "Jardim Cruzeiro do Sul",
        "street": "Rua Tarcisio Villela Lima",
        "zipcode": "13917-164"
    },
    {
        "city": "Jaguariúna",
        "state": "SP",
        "district": "Jardim Berlim",
        "street": "Rua General Gomes Carneiro",
        "zipcode": "13919-126"
    },
    {
        "city": "Jaguariúna",
        "state": "SP",
        "district": "Residencial Campo Camanducaia",
        "street": "Rua Grande Sertão Veredas",
        "zipcode": "13916-250"
    },
    {
        "city": "Jaguariúna",
        "state": "SP",
        "district": "Jardim Cruzeiro do Sul",
        "street": "Rua José Sebastião Bergamasco (Béga)",
        "zipcode": "13917-160"
    },
    {
        "city": "Jaguariúna",
        "state": "SP",
        "district": "Mário DalBo",
        "street": "Rua Maranhão",
        "zipcode": "13911-372"
    },
    {
        "city": "Jaguariúna",
        "state": "SP",
        "district": "Santa Úrsula",
        "street": "Rua Maria Luppi Fracchetta",
        "zipcode": "13918-004"
    },
    {
        "city": "Jaguariúna",
        "state": "SP",
        "district": "Loteamento Capotuna",
        "street": "Rua Maranhão",
        "zipcode": "13912-184"
    },
    {
        "city": "Jaguariúna",
        "state": "SP",
        "district": "Frazatto",
        "street": "Rua Joaquim Bueno",
        "zipcode": "13911-086"
    },
    {
        "city": "Jaguariúna",
        "state": "SP",
        "district": "Jardim IK I",
        "street": "Rua Zenaide Ferreira Machado",
        "zipcode": "13911-294"
    },
    {
        "city": "Jaguariúna",
        "state": "SP",
        "district": "Jardim IK II",
        "street": "Rua Zenaide Ferreira Machado",
        "zipcode": "13911-300"
    },
    {
        "city": "Jaguariúna",
        "state": "SP",
        "district": "Centro",
        "street": "Travessa Padre Anchieta",
        "zipcode": "13910-003"
    },
    {
        "city": "Jaguariúna",
        "state": "SP",
        "district": "Chácaras Santo Antonio do Jardim",
        "street": "Rua Zoia",
        "zipcode": "13913-300"
    },
    {
        "city": "Jaguariúna",
        "state": "SP",
        "district": "Jardim Europa",
        "street": "Rua Zelinda Zanellato Parizi",
        "zipcode": "13914-018"
    },
    {
        "city": "Jaguariúna",
        "state": "SP",
        "district": "Vila Guedes",
        "street": "Rua 3",
        "zipcode": "13914-662"
    },
    {
        "city": "Jaguariúna",
        "state": "SP",
        "district": "Núcleo Residencial Doutor João Aldo Nassif",
        "street": "Rua Zani",
        "zipcode": "13916-028"
    },
    {
        "city": "Jaguariúna",
        "state": "SP",
        "district": "Centro",
        "street": "Travessa Dona Ermelinda",
        "zipcode": "13910-037"
    },
    {
        "city": "Jaguariúna",
        "state": "SP",
        "district": "Vila Guedes",
        "street": "Rua 1",
        "zipcode": "13914-660"
    },
    {
        "city": "Jaguariúna",
        "state": "SP",
        "district": "Vila Guedes",
        "street": "Rua 2",
        "zipcode": "13914-664"
    },
    {
        "city": "Jaguariúna",
        "state": "SP",
        "district": "Vila Guedes",
        "street": "Rua 6",
        "zipcode": "13914-666"
    },
    {
        "city": "Jaguariúna",
        "state": "SP",
        "district": "Recanto Camanducaia",
        "street": "Rua 10",
        "zipcode": "13915-020"
    },
    {
        "city": "Jaguariúna",
        "state": "SP",
        "district": "Chácara São João",
        "street": "Rua XV de Novembro",
        "zipcode": "13919-082"
    },
    {
        "city": "Jaguariúna",
        "state": "SP",
        "district": "Jardim Berlim",
        "street": "Travessa Barão do Rio Branco",
        "zipcode": "13919-124"
    },
    {
        "city": "Jaguariúna",
        "state": "SP",
        "district": "Parque Antonio Barbosa",
        "street": "Rua Osvaldo Vicentini",
        "zipcode": "13914-232"
    },
    {
        "city": "Jaguariúna",
        "state": "SP",
        "district": "Nova Jaguariúna",
        "street": "Rua Vitório Bufalo",
        "zipcode": "13919-412"
    },
    {
        "city": "Jaguariúna",
        "state": "SP",
        "district": "Vila Primavera",
        "street": "Rua José Andrietti",
        "zipcode": "13910-344"
    },
    {
        "city": "Jaguariúna",
        "state": "SP",
        "district": "Jardim Paraíso",
        "street": "Rua Campos Salles",
        "zipcode": "13910-076"
    },
    {
        "city": "Jaguariúna",
        "state": "SP",
        "district": "Núcleo Residencial Doutor João Aldo Nassif",
        "street": "Praça Emílio Marconato",
        "zipcode": "13916-074"
    },
    {
        "city": "Jaguariúna",
        "state": "SP",
        "district": "Santa Cruz",
        "street": "Rua Uruguai",
        "zipcode": "13919-064"
    },
    {
        "city": "Jaguariúna",
        "state": "SP",
        "district": "Roseira de Cima",
        "street": "Rua Fernandes",
        "zipcode": "13917-494"
    },
    {
        "city": "Jaguariúna",
        "state": "SP",
        "district": "Centro",
        "street": "Rua Julia Bueno 348 Sala 2",
        "zipcode": "13820-970"
    },
    {
        "city": "Jaguariúna",
        "state": "SP",
        "district": "Loteamento Capotuna",
        "street": "Avenida Alexandre Marion",
        "zipcode": "13912-204"
    },
    {
        "city": "Jaguariúna",
        "state": "SP",
        "district": "Estância das Flores",
        "street": "Alameda Nicola Massuci",
        "zipcode": "13917-206"
    },
    {
        "city": "Jaguariúna",
        "state": "SP",
        "district": "Estância das Flores",
        "street": "Alameda Alfredo Chiavegato",
        "zipcode": "13917-208"
    },
    {
        "city": "Jaguariúna",
        "state": "SP",
        "district": "Área Rural de Jaguariúna",
        "street": "Área Rural",
        "zipcode": "13919-899"
    },
    {
        "city": "Jaguariúna",
        "state": "SP",
        "district": "Estância das Flores",
        "street": "Alameda Júlio Benedito Corsi",
        "zipcode": "13917-194"
    },
    {
        "city": "Jaguariúna",
        "state": "SP",
        "district": "Vila Mário Finotelli",
        "street": "Praça Colombini",
        "zipcode": "13912-642"
    },
    {
        "city": "Jaguariúna",
        "state": "SP",
        "district": "Núcleo Residencial Doutor João Aldo Nassif",
        "street": "Avenida Vicenzo Granghelli",
        "zipcode": "13916-054"
    },
    {
        "city": "Jaguariúna",
        "state": "SP",
        "district": "Jardim Zeni",
        "street": "Avenida Antonio Pinto Catão",
        "zipcode": "13912-466"
    },
    {
        "city": "Jaguariúna",
        "state": "SP",
        "district": "Jardim Santa Mercedes",
        "street": "Praça Basaglia",
        "zipcode": "13912-534"
    },
    {
        "city": "Jaguariúna",
        "state": "SP",
        "district": "Jardim Sônia",
        "street": "Rua Amazonas",
        "zipcode": "13911-198"
    },
    {
        "city": "Jaguariúna",
        "state": "SP",
        "district": "Conjunto Habitacional Vila 12 de Setembro 2° Etapa",
        "street": "Rua Bernadino",
        "zipcode": "13912-626"
    },
    {
        "city": "Jaguariúna",
        "state": "SP",
        "district": "Jardim Berlim",
        "street": "Rua Cândido Bueno",
        "zipcode": "13919-146"
    },
    {
        "city": "Jaguariúna",
        "state": "SP",
        "district": "Jardim Pinheiros",
        "street": "Rua Candinho Antonio Venturini",
        "zipcode": "13910-312"
    },
    {
        "city": "Jaguariúna",
        "state": "SP",
        "district": "Jardim São João 2° Parte",
        "street": "Rua Duque de Caxias",
        "zipcode": "13911-244"
    },
    {
        "city": "Jaguariúna",
        "state": "SP",
        "district": "Núcleo Urbano Parque Ana Helena",
        "street": "Rua Granghelli",
        "zipcode": "13913-416"
    },
    {
        "city": "Jaguariúna",
        "state": "SP",
        "district": "Núcleo Residencial São José",
        "street": "Rua Francisco Correa Viana",
        "zipcode": "13914-470"
    },
    {
        "city": "Jaguariúna",
        "state": "SP",
        "district": "Jardim Mauá II",
        "street": "Rua Gabriel Francisco de Junqueira",
        "zipcode": "13912-112"
    },
    {
        "city": "Jaguariúna",
        "state": "SP",
        "district": "Jardim Cruzeiro do Sul",
        "street": "Rua José Roberto Marmerolli",
        "zipcode": "13917-162"
    },
    {
        "city": "Jaguariúna",
        "state": "SP",
        "district": "Residencial Campo Camanducaia",
        "street": "Rua Mata Atlântica",
        "zipcode": "13916-212"
    },
    {
        "city": "Jaguariúna",
        "state": "SP",
        "district": "Jardim IK I",
        "street": "Rua Júlio Frank",
        "zipcode": "13911-290"
    },
    {
        "city": "Jaguariúna",
        "state": "SP",
        "district": "Residencial Campo Camanducaia",
        "street": "Rua Marinho de Fernando de Noronha",
        "zipcode": "13916-274"
    },
    {
        "city": "Jaguariúna",
        "state": "SP",
        "district": "Chácara Recreio Floresta",
        "street": "Rua Márcio Alexandre Lima (Márcio Preto)",
        "zipcode": "13913-020"
    },
    {
        "city": "Jaguariúna",
        "state": "SP",
        "district": "Condomínio Fazenda Duas Marias",
        "street": "Rua Quinze",
        "zipcode": "13916-444"
    },
    {
        "city": "Jaguariúna",
        "state": "SP",
        "district": "Condomínio Fazenda Duas Marias",
        "street": "Rua Quatorze",
        "zipcode": "13916-440"
    },
    {
        "city": "Jaguariúna",
        "state": "SP",
        "district": "Jardim São João",
        "street": "Rua Pernambuco",
        "zipcode": "13911-382"
    },
    {
        "city": "Jaguariúna",
        "state": "SP",
        "district": "Conjunto Habitacional Vila 12 de Setembro 2° Etapa",
        "street": "Rua Salvador Torres",
        "zipcode": "13912-634"
    },
    {
        "city": "Jaguariúna",
        "state": "SP",
        "district": "Jardim Planalto",
        "street": "Rua Plínio Poltronieri",
        "zipcode": "13912-520"
    },
    {
        "city": "Jaguariúna",
        "state": "SP",
        "district": "Jardim Sônia",
        "street": "Rua Coronel Amâncio Bueno",
        "zipcode": "13911-188"
    },
    {
        "city": "Jaguariúna",
        "state": "SP",
        "district": "Residencial Parque dos Ipês",
        "street": "Avenida Antonio Pinto Catão",
        "zipcode": "13912-420"
    },
    {
        "city": "Jaguariúna",
        "state": "SP",
        "district": "Conjunto Habitacional Vila 12 de Setembro 2° Etapa",
        "street": "Avenida Alexandre Marion",
        "zipcode": "13912-622"
    },
    {
        "city": "Jaguariúna",
        "state": "SP",
        "district": "Vila Mário Finotelli",
        "street": "Rua Agostini",
        "zipcode": "13912-654"
    },
    {
        "city": "Jaguariúna",
        "state": "SP",
        "district": "Jardim Europa",
        "street": "Praça Santo Serafim",
        "zipcode": "13914-040"
    },
    {
        "city": "Jaguariúna",
        "state": "SP",
        "district": "Chácara Santo Antônio Colméia",
        "street": "Rodovia Governador Doutor Adhemar Pereira de Barros",
        "zipcode": "13915-290"
    },
    {
        "city": "Jaguariúna",
        "state": "SP",
        "district": "Jardim São João 2° Parte",
        "street": "Rua Papa João XXIII",
        "zipcode": "13911-230"
    },
    {
        "city": "Jaguariúna",
        "state": "SP",
        "district": "Residencial Parque dos Ipês",
        "street": "Rua Darcy de Campos Souza",
        "zipcode": "13912-442"
    },
    {
        "city": "Jaguariúna",
        "state": "SP",
        "district": "Francisco de Assis Finotelli",
        "street": "Rua Jorge Teodoro",
        "zipcode": "13912-662"
    },
    {
        "city": "Jaguariúna",
        "state": "SP",
        "district": "Conjunto Habitacional Vila 12 de Setembro 1° Etapa",
        "street": "Rua Souza",
        "zipcode": "13912-576"
    },
    {
        "city": "Jaguariúna",
        "state": "SP",
        "district": "Juraci Alves Galdino",
        "street": "Rua Jorge Teodoro",
        "zipcode": "13912-670"
    },
    {
        "city": "Jaguariúna",
        "state": "SP",
        "district": "Jardim Berlim",
        "street": "Rua Joaquim Bueno",
        "zipcode": "13919-112"
    },
    {
        "city": "Jaguariúna",
        "state": "SP",
        "district": "Nova Jaguariúna",
        "street": "Praça Vitório Rizzoni",
        "zipcode": "13919-406"
    },
    {
        "city": "Jaguariúna",
        "state": "SP",
        "district": "Jardim Botânico",
        "street": "Rua Rui Barbosa",
        "zipcode": "13919-376"
    },
    {
        "city": "Jaguariúna",
        "state": "SP",
        "district": "Sítio da Ponte",
        "street": "Rua Renato Corte Real",
        "zipcode": "13919-324"
    },
    {
        "city": "Jaguariúna",
        "state": "SP",
        "district": "Jardim Botânico",
        "street": "Rua Renato Corte Real",
        "zipcode": "13919-370"
    },
    {
        "city": "Jaguariúna",
        "state": "SP",
        "district": "Reserva do Jaguary",
        "street": "Rua Quatro",
        "zipcode": "13919-261"
    },
    {
        "city": "Jaguariúna",
        "state": "SP",
        "district": "Jardim Botânico",
        "street": "Rua Pedro Venturini",
        "zipcode": "13919-368"
    },
    {
        "city": "Jaguariúna",
        "state": "SP",
        "district": "Nova Jaguariúna",
        "street": "Rua Osvaldo Tonini",
        "zipcode": "13919-396"
    },
    {
        "city": "Jaguariúna",
        "state": "SP",
        "district": "Jardim Botânico",
        "street": "Rua Nabor de Moraes",
        "zipcode": "13919-380"
    },
    {
        "city": "Jaguariúna",
        "state": "SP",
        "district": "Nova Jaguariúna",
        "street": "Praça Santa Mercedes",
        "zipcode": "13919-392"
    },
    {
        "city": "Jaguariúna",
        "state": "SP",
        "district": "Joaquim Alface",
        "street": "Rua Maria Ângela",
        "zipcode": "13919-156"
    },
    {
        "city": "Jaguariúna",
        "state": "SP",
        "district": "Jardim Botânico",
        "street": "Rua Professora Julia Calhau Rodrigues",
        "zipcode": "13919-366"
    },
    {
        "city": "Jaguariúna",
        "state": "SP",
        "district": "Nova Jaguariúna",
        "street": "Rua José Pires Junior",
        "zipcode": "13919-394"
    },
    {
        "city": "Jaguariúna",
        "state": "SP",
        "district": "Jardim Botânico",
        "street": "Rua Vereador José Pinto Catão",
        "zipcode": "13919-364"
    },
    {
        "city": "Jaguariúna",
        "state": "SP",
        "district": "Jardim Botânico",
        "street": "Rua José Francisco Leme",
        "zipcode": "13919-374"
    },
    {
        "city": "Jaguariúna",
        "state": "SP",
        "district": "Sítio da Ponte",
        "street": "Rua José Dias",
        "zipcode": "13919-322"
    },
    {
        "city": "Jaguariúna",
        "state": "SP",
        "district": "Reserva do Jaguary",
        "street": "Rua José Dias",
        "zipcode": "13919-260"
    },
    {
        "city": "Jaguariúna",
        "state": "SP",
        "district": "Jardim Botânico",
        "street": "Rua Joaquim Pinto de Andrade",
        "zipcode": "13919-378"
    },
    {
        "city": "Jaguariúna",
        "state": "SP",
        "district": "Sítio da Ponte",
        "street": "Rua Joaquim Pinto de Andrade",
        "zipcode": "13919-326"
    },
    {
        "city": "Jaguariúna",
        "state": "SP",
        "district": "Jardim Botânico",
        "street": "Rua Joaquim Pinto de Andrade",
        "zipcode": "13919-360"
    },
    {
        "city": "Jaguariúna",
        "state": "SP",
        "district": "Nova Jaguariúna",
        "street": "Rua João Voltan",
        "zipcode": "13919-398"
    },
    {
        "city": "Jaguariúna",
        "state": "SP",
        "district": "Nova Jaguariúna",
        "street": "Rua João Ferrari",
        "zipcode": "13919-404"
    },
    {
        "city": "Jaguariúna",
        "state": "SP",
        "district": "Nova Jaguariúna",
        "street": "Avenida João Antonio Nery",
        "zipcode": "13919-390"
    },
    {
        "city": "Jaguariúna",
        "state": "SP",
        "district": "Jardim Botânico",
        "street": "Avenida João Antonio Nery",
        "zipcode": "13919-384"
    },
    {
        "city": "Jaguariúna",
        "state": "SP",
        "district": "Jardim Botânico",
        "street": "Avenida Januário Eliseu de Navarro",
        "zipcode": "13919-362"
    },
    {
        "city": "Jaguariúna",
        "state": "SP",
        "district": "Sítio da Ponte",
        "street": "Avenida Januário Eliseu de Navarro",
        "zipcode": "13919-320"
    },
    {
        "city": "Jaguariúna",
        "state": "SP",
        "district": "Reserva do Jaguary",
        "street": "Rua Heitor Turato",
        "zipcode": "13919-262"
    },
    {
        "city": "Jaguariúna",
        "state": "SP",
        "district": "Reserva do Jaguary",
        "street": "Rua Geraldo Campos",
        "zipcode": "13919-263"
    },
    {
        "city": "Jaguariúna",
        "state": "SP",
        "district": "Nova Jaguariúna",
        "street": "Rua Francisco Bodini",
        "zipcode": "13919-408"
    },
    {
        "city": "Jaguariúna",
        "state": "SP",
        "district": "Reserva do Jaguary",
        "street": "Rua Edgard Dias",
        "zipcode": "13919-264"
    },
    {
        "city": "Jaguariúna",
        "state": "SP",
        "district": "Jardim Botânico",
        "street": "Avenida Princesa DOeste",
        "zipcode": "13919-372"
    },
    {
        "city": "Jaguariúna",
        "state": "SP",
        "district": "Reserva do Jaguary",
        "street": "Rua Cinco",
        "zipcode": "13919-265"
    },
    {
        "city": "Jaguariúna",
        "state": "SP",
        "district": "Nova Jaguariúna",
        "street": "Rua Celso de Camargo Moraes",
        "zipcode": "13919-400"
    },
    {
        "city": "Jaguariúna",
        "state": "SP",
        "district": "Joaquim Alface",
        "street": "Rua Cândido Bueno",
        "zipcode": "13919-158"
    },
    {
        "city": "Jaguariúna",
        "state": "SP",
        "district": "Nova Jaguariúna",
        "street": "Rua Bibiano Jasso",
        "zipcode": "13919-402"
    },
    {
        "city": "Jaguariúna",
        "state": "SP",
        "district": "Jardim Botânico",
        "street": "Rua Ângelo Marques Rosa",
        "zipcode": "13919-382"
    },
    {
        "city": "Jaguariúna",
        "state": "SP",
        "district": "Tanquinho Velho",
        "street": "Rodovia Governador Doutor Adhemar Pereira de Barros",
        "zipcode": "13918-900"
    },
    {
        "city": "Jaguariúna",
        "state": "SP",
        "district": "Centro",
        "street": "Rua José Alves Guedes",
        "zipcode": "13910-971"
    },
    {
        "city": "Jaguariúna",
        "state": "SP",
        "district": "Centro",
        "street": "Rua Julia Bueno",
        "zipcode": "13910-972"
    },
    {
        "city": "Jaguariúna",
        "state": "SP",
        "district": "Gastaldo",
        "street": "Avenida Antonio Pinto Catão",
        "zipcode": "13912-170"
    },
    {
        "city": "Jaguariúna",
        "state": "SP",
        "district": "Gleba Destacada da Fazenda Santa Cruz",
        "street": "Rua Santo Antonio de Posse",
        "zipcode": "13911-052"
    },
    {
        "city": "Jaguariúna",
        "state": "SP",
        "district": "José Jacques Oliveira Germano",
        "street": "Rua Gabriela de Oliveira Germano",
        "zipcode": "13912-158"
    },
    {
        "city": "Jaguariúna",
        "state": "SP",
        "district": "Loteamento Capotuna",
        "street": "Rua Antonio Lana",
        "zipcode": "13912-208"
    },
    {
        "city": "Jaguariúna",
        "state": "SP",
        "district": "Jardim Novo Jaguari",
        "street": "Rua Itália",
        "zipcode": "13919-090"
    }
]