[
    {
        "city": "Jales",
        "state": "SP",
        "district": "Jardim Estados Unidos",
        "street": "Rua Oregon",
        "zipcode": "15700-290"
    },
    {
        "city": "Jales",
        "state": "SP",
        "district": "Vila Talma",
        "street": "Rua São Luiz",
        "zipcode": "15704-262"
    },
    {
        "city": "Jales",
        "state": "SP",
        "district": "Jardim Ana Cristina",
        "street": "Avenida Marginal Doutor Eduardo Ferraz Ribeiro do Valle",
        "zipcode": "15700-180"
    },
    {
        "city": "Jales",
        "state": "SP",
        "district": "Jardim Pêgolo",
        "street": "Rua Canários",
        "zipcode": "15704-002"
    },
    {
        "city": "Jales",
        "state": "SP",
        "district": "Jardim do Bosque",
        "street": "Rua Ricardo de Freitas",
        "zipcode": "15703-394"
    },
    {
        "city": "Jales",
        "state": "SP",
        "district": "Jardim São Jorge",
        "street": "Travessa Poti",
        "zipcode": "15704-196"
    },
    {
        "city": "Jales",
        "state": "SP",
        "district": "Residencial Big Plaza",
        "street": "Rua José Buso",
        "zipcode": "15700-880"
    },
    {
        "city": "Jales",
        "state": "SP",
        "district": "Residencial Nova Jales",
        "street": "Rua Aldemiro Fim",
        "zipcode": "15707-426"
    },
    {
        "city": "Jales",
        "state": "SP",
        "district": "Residencial Big Plaza",
        "street": "Rua Khoumies Ibrahin",
        "zipcode": "15700-858"
    },
    {
        "city": "Jales",
        "state": "SP",
        "district": "Jardim Paulista",
        "street": "Rua Bauru",
        "zipcode": "15700-746"
    },
    {
        "city": "Jales",
        "state": "SP",
        "district": "Jardim Estados Unidos",
        "street": "Rua Colorado",
        "zipcode": "15700-270"
    },
    {
        "city": "Jales",
        "state": "SP",
        "district": "Jardim Samambaia",
        "street": "Rua Pau Brasil",
        "zipcode": "15700-216"
    },
    {
        "city": "Jales",
        "state": "SP",
        "district": "Vila Talma",
        "street": "Rua Santa Maria",
        "zipcode": "15704-276"
    },
    {
        "city": "Jales",
        "state": "SP",
        "district": "Centro",
        "street": "Rua 8",
        "zipcode": "15700-970"
    },
    {
        "city": "Jales",
        "state": "SP",
        "district": "Conjunto Habitacional José Antonio Caparroz Bogaz",
        "street": "Rua Goiânia",
        "zipcode": "15707-698"
    },
    {
        "city": "Jales",
        "state": "SP",
        "district": "Centro",
        "street": "Rua 5",
        "zipcode": "15700-012"
    },
    {
        "city": "Jales",
        "state": "SP",
        "district": "Centro",
        "street": "Rua 6",
        "zipcode": "15700-062"
    },
    {
        "city": "Jales",
        "state": "SP",
        "district": "Jardim Arapuã",
        "street": "Rua Jaci",
        "zipcode": "15707-132"
    },
    {
        "city": "Jales",
        "state": "SP",
        "district": "Centro",
        "street": "Rua 1",
        "zipcode": "15700-002"
    },
    {
        "city": "Jales",
        "state": "SP",
        "district": "Jardim Paulista",
        "street": "Rua João Borges de Lima",
        "zipcode": "15700-734"
    },
    {
        "city": "Jales",
        "state": "SP",
        "district": "Jardim Brasília",
        "street": "Avenida Marginal Doutor Eduardo Ferraz Ribeiro do Valle",
        "zipcode": "15706-446"
    },
    {
        "city": "Jales",
        "state": "SP",
        "district": "Centro",
        "street": "Rua 13",
        "zipcode": "15700-036"
    },
    {
        "city": "Jales",
        "state": "SP",
        "district": "Centro",
        "street": "Rua 19",
        "zipcode": "15700-044"
    },
    {
        "city": "Jales",
        "state": "SP",
        "district": "Parque Industrial I",
        "street": "Travessa F",
        "zipcode": "15703-352"
    },
    {
        "city": "Jales",
        "state": "SP",
        "district": "Jardim Oiti",
        "street": "Rua das Margaridas",
        "zipcode": "15706-070"
    },
    {
        "city": "Jales",
        "state": "SP",
        "district": "Jardim Estados Unidos",
        "street": "Rua Virginia",
        "zipcode": "15700-266"
    },
    {
        "city": "Jales",
        "state": "SP",
        "district": "IV Centenário",
        "street": "Rua João Amadeu",
        "zipcode": "15704-046"
    },
    {
        "city": "Jales",
        "state": "SP",
        "district": "Jardim Arapuã",
        "street": "Rua Pari",
        "zipcode": "15707-134"
    },
    {
        "city": "Jales",
        "state": "SP",
        "district": "Jardim Oiti",
        "street": "Rua Braz Polizio",
        "zipcode": "15706-074"
    },
    {
        "city": "Jales",
        "state": "SP",
        "district": "Jardim Estados Unidos",
        "street": "Rua Minnesota",
        "zipcode": "15700-280"
    },
    {
        "city": "Jales",
        "state": "SP",
        "district": "Centro",
        "street": "Avenida Presidente Jânio Quadros",
        "zipcode": "15700-046"
    },
    {
        "city": "Jales",
        "state": "SP",
        "district": "Centro",
        "street": "Rua 9",
        "zipcode": "15700-020"
    },
    {
        "city": "Jales",
        "state": "SP",
        "district": "Vila Pinheiro",
        "street": "Travessa dos Jambos",
        "zipcode": "15704-056"
    },
    {
        "city": "Jales",
        "state": "SP",
        "district": "Jardim do Bosque",
        "street": "Rua Pio Bazzo",
        "zipcode": "15703-376"
    },
    {
        "city": "Jales",
        "state": "SP",
        "district": "Jardim São Gabriel",
        "street": "Rua José Benedito",
        "zipcode": "15700-340"
    },
    {
        "city": "Jales",
        "state": "SP",
        "district": "Vila Santa Ignez",
        "street": "Rua 2",
        "zipcode": "15703-292"
    },
    {
        "city": "Jales",
        "state": "SP",
        "district": "Parque Industrial III",
        "street": "Rua José Bigotto",
        "zipcode": "15700-594"
    },
    {
        "city": "Jales",
        "state": "SP",
        "district": "Jardim Pires de Andrade",
        "street": "Rua Antonio Pelarini",
        "zipcode": "15706-002"
    },
    {
        "city": "Jales",
        "state": "SP",
        "district": "Conjunto Habitacional Vereador Dercilio Joaquim Carvalho",
        "street": "Rua Antonio Roque Petinari",
        "zipcode": "15700-796"
    },
    {
        "city": "Jales",
        "state": "SP",
        "district": "Centro",
        "street": "Travessa Ary Barroso",
        "zipcode": "15700-040"
    },
    {
        "city": "Jales",
        "state": "SP",
        "district": "Jardim Aclimação",
        "street": "Avenida Engenheiro Euphly Jalles",
        "zipcode": "15700-232"
    },
    {
        "city": "Jales",
        "state": "SP",
        "district": "Jardim Samambaia",
        "street": "Alameda das Aroeiras",
        "zipcode": "15700-206"
    },
    {
        "city": "Jales",
        "state": "SP",
        "district": "Residencial Paineiras",
        "street": "Rua Sílvia Cristina de Castro Luís",
        "zipcode": "15704-375"
    },
    {
        "city": "Jales",
        "state": "SP",
        "district": "Jardim São Gabriel",
        "street": "Rua Antônio Rodrigues da Grela",
        "zipcode": "15700-342"
    },
    {
        "city": "Jales",
        "state": "SP",
        "district": "Jardim do Bosque",
        "street": "Rua Joaquim Viana do Prado",
        "zipcode": "15703-412"
    },
    {
        "city": "Jales",
        "state": "SP",
        "district": "Jardim do Bosque",
        "street": "Rua José Antônio da Silveira",
        "zipcode": "15703-406"
    },
    {
        "city": "Jales",
        "state": "SP",
        "district": "Vila Santa Ignez",
        "street": "Rua Nova York",
        "zipcode": "15703-298"
    },
    {
        "city": "Jales",
        "state": "SP",
        "district": "Jardim Pires de Andrade",
        "street": "Rua Hermes Trassi",
        "zipcode": "15706-016"
    },
    {
        "city": "Jales",
        "state": "SP",
        "district": "Residencial Alpha Jales",
        "street": "Rua Esparta",
        "zipcode": "15708-076"
    },
    {
        "city": "Jales",
        "state": "SP",
        "district": "Jardim Trianon",
        "street": "Avenida da Integração",
        "zipcode": "15703-118"
    },
    {
        "city": "Jales",
        "state": "SP",
        "district": "Conjunto Habitacional Renascer",
        "street": "Rua Harmonia",
        "zipcode": "15704-516"
    },
    {
        "city": "Jales",
        "state": "SP",
        "district": "Jardim Tangará",
        "street": "Rua das Esmeraldas",
        "zipcode": "15704-286"
    },
    {
        "city": "Jales",
        "state": "SP",
        "district": "Jardim Soraia",
        "street": "Rua Arthur Luiz da Costa",
        "zipcode": "15704-468"
    },
    {
        "city": "Jales",
        "state": "SP",
        "district": "Jardim Micena",
        "street": "Rua Cuba",
        "zipcode": "15703-273"
    },
    {
        "city": "Jales",
        "state": "SP",
        "district": "Jardim do Bosque",
        "street": "Rua João Candido de Carvalho",
        "zipcode": "15703-408"
    },
    {
        "city": "Jales",
        "state": "SP",
        "district": "Jardim Micena",
        "street": "Rua Costa Rica",
        "zipcode": "15703-278"
    },
    {
        "city": "Jales",
        "state": "SP",
        "district": "Jardim São Gabriel",
        "street": "Rua 3",
        "zipcode": "15700-356"
    },
    {
        "city": "Jales",
        "state": "SP",
        "district": "Residencial São Lucas",
        "street": "Rua Angelo Scaramuzza",
        "zipcode": "15706-094"
    },
    {
        "city": "Jales",
        "state": "SP",
        "district": "Jardim São Gabriel",
        "street": "Rua Rosa Garcia Cecíliano",
        "zipcode": "15700-330"
    },
    {
        "city": "Jales",
        "state": "SP",
        "district": "Jardim São Gabriel",
        "street": "Rua Cláudia Pereira da Silva",
        "zipcode": "15700-338"
    },
    {
        "city": "Jales",
        "state": "SP",
        "district": "Vila Nossa Senhora Aparecida",
        "street": "Rua São Sebastião",
        "zipcode": "15700-718"
    },
    {
        "city": "Jales",
        "state": "SP",
        "district": "Jardim Paulista",
        "street": "Rua Oiapoque",
        "zipcode": "15700-742"
    },
    {
        "city": "Jales",
        "state": "SP",
        "district": "Jardim Eldorado",
        "street": "Avenida Athair Lopes",
        "zipcode": "15704-318"
    },
    {
        "city": "Jales",
        "state": "SP",
        "district": "Jardim São Gabriel",
        "street": "Rua Antônio Zargolin",
        "zipcode": "15700-336"
    },
    {
        "city": "Jales",
        "state": "SP",
        "district": "Centro",
        "street": "Rua Manoel Crespijo",
        "zipcode": "15700-122"
    },
    {
        "city": "Jales",
        "state": "SP",
        "district": "Aeroporto",
        "street": "Rua Orlando Romero",
        "zipcode": "15704-482"
    },
    {
        "city": "Jales",
        "state": "SP",
        "district": "Jardim Novo Mundo",
        "street": "Rua Angelo Gasparetti",
        "zipcode": "15706-428"
    },
    {
        "city": "Jales",
        "state": "SP",
        "district": "Conjunto Habitacional Renascer",
        "street": "Rua Felicidade",
        "zipcode": "15704-514"
    },
    {
        "city": "Jales",
        "state": "SP",
        "district": "Jardim Oiti",
        "street": "Rua Otávio Graziani",
        "zipcode": "15706-077"
    },
    {
        "city": "Jales",
        "state": "SP",
        "district": "Jardim São Gabriel",
        "street": "Rua Benedita Joaquina Oliveira",
        "zipcode": "15700-334"
    },
    {
        "city": "Jales",
        "state": "SP",
        "district": "Jardim Samambaia",
        "street": "Rua Sebastião Martins",
        "zipcode": "15700-209"
    },
    {
        "city": "Jales",
        "state": "SP",
        "district": "Jardim Romero",
        "street": "Rua Manoel Néo de Carvalho",
        "zipcode": "15703-170"
    },
    {
        "city": "Jales",
        "state": "SP",
        "district": "Jardim América",
        "street": "Rua Jales",
        "zipcode": "15703-080"
    },
    {
        "city": "Jales",
        "state": "SP",
        "district": "Vila Nossa Senhora Aparecida",
        "street": "Rua São José",
        "zipcode": "15700-708"
    },
    {
        "city": "Jales",
        "state": "SP",
        "district": "Conjunto Habitacional Roque Viola",
        "street": "Rua do Operário",
        "zipcode": "15700-750"
    },
    {
        "city": "Jales",
        "state": "SP",
        "district": "Vila União",
        "street": "Rua dos Pioneiros",
        "zipcode": "15703-130"
    },
    {
        "city": "Jales",
        "state": "SP",
        "district": "Parque Industrial III",
        "street": "Rua Projetada H",
        "zipcode": "15700-590"
    },
    {
        "city": "Jales",
        "state": "SP",
        "district": "Jardim Trianon",
        "street": "Rua 2",
        "zipcode": "15703-104"
    },
    {
        "city": "Jales",
        "state": "SP",
        "district": "Jardim Samambaia",
        "street": "Avenida João Amadeu",
        "zipcode": "15700-200"
    },
    {
        "city": "Jales",
        "state": "SP",
        "district": "Centro",
        "street": "Avenida João Amadeu",
        "zipcode": "15700-076"
    },
    {
        "city": "Jales",
        "state": "SP",
        "district": "São Judas Tadeu",
        "street": "Rua Vicente Leporace",
        "zipcode": "15700-648"
    },
    {
        "city": "Jales",
        "state": "SP",
        "district": "Jardim América",
        "street": "Rua Dirce Libano dos Santos",
        "zipcode": "15703-042"
    },
    {
        "city": "Jales",
        "state": "SP",
        "district": "Conjunto Habitacional Vereador Santo Hernandes Argentina",
        "street": "Avenida Domingos Masson",
        "zipcode": "15700-830"
    },
    {
        "city": "Jales",
        "state": "SP",
        "district": "Centro",
        "street": "Rua 11",
        "zipcode": "15700-134"
    },
    {
        "city": "Jales",
        "state": "SP",
        "district": "IV Centenário",
        "street": "Rua 1",
        "zipcode": "15704-040"
    },
    {
        "city": "Jales",
        "state": "SP",
        "district": "Jardim América",
        "street": "Rua 15",
        "zipcode": "15703-010"
    },
    {
        "city": "Jales",
        "state": "SP",
        "district": "Centro",
        "street": "Rua 16",
        "zipcode": "15700-088"
    },
    {
        "city": "Jales",
        "state": "SP",
        "district": "Centro",
        "street": "Rua 16",
        "zipcode": "15700-090"
    },
    {
        "city": "Jales",
        "state": "SP",
        "district": "Centro",
        "street": "Rua 18",
        "zipcode": "15700-092"
    },
    {
        "city": "Jales",
        "state": "SP",
        "district": "Jardim América",
        "street": "Rua 19",
        "zipcode": "15703-060"
    },
    {
        "city": "Jales",
        "state": "SP",
        "district": "Centro",
        "street": "Rua 20",
        "zipcode": "15700-118"
    },
    {
        "city": "Jales",
        "state": "SP",
        "district": "Centro",
        "street": "Avenida Alfonso Rossafa Molina",
        "zipcode": "15700-148"
    },
    {
        "city": "Jales",
        "state": "SP",
        "district": "Jardim Santo Expedito",
        "street": "Avenida Alfonso Rossafa Molina",
        "zipcode": "15700-160"
    },
    {
        "city": "Jales",
        "state": "SP",
        "district": "Jardim Paraíso",
        "street": "Rua Amazonas",
        "zipcode": "15700-626"
    },
    {
        "city": "Jales",
        "state": "SP",
        "district": "Conjunto Habitacional Vereador Dercilio Joaquim Carvalho",
        "street": "Avenida Antonio Pavan",
        "zipcode": "15700-782"
    },
    {
        "city": "Jales",
        "state": "SP",
        "district": "Vila Nossa Senhora Aparecida",
        "street": "Rua Nossa Senhora Aparecida",
        "zipcode": "15700-688"
    },
    {
        "city": "Jales",
        "state": "SP",
        "district": "Conjunto Habitacional Vereador Dercilio Joaquim Carvalho",
        "street": "Rua Guarani",
        "zipcode": "15700-780"
    },
    {
        "city": "Jales",
        "state": "SP",
        "district": "Jardim Eldorado",
        "street": "Rua Guido Parminonde",
        "zipcode": "15704-324"
    },
    {
        "city": "Jales",
        "state": "SP",
        "district": "Vila Nossa Senhora Aparecida",
        "street": "Rua João Batista de Melo",
        "zipcode": "15700-682"
    },
    {
        "city": "Jales",
        "state": "SP",
        "district": "Jardim Aclimação",
        "street": "Rua Marechal Rondon",
        "zipcode": "15700-238"
    },
    {
        "city": "Jales",
        "state": "SP",
        "district": "Conjunto Habitacional Vereador Santo Hernandes Argentina",
        "street": "Rua Camapuã",
        "zipcode": "15700-840"
    },
    {
        "city": "Jales",
        "state": "SP",
        "district": "Chácara Bela Vista",
        "street": "Rua do Bosque",
        "zipcode": "15706-232"
    },
    {
        "city": "Jales",
        "state": "SP",
        "district": "Vila União",
        "street": "Rua Nova República",
        "zipcode": "15703-128"
    },
    {
        "city": "Jales",
        "state": "SP",
        "district": "Jardim Samambaia",
        "street": "Avenida Presidente Juscelino Kubitschek",
        "zipcode": "15700-214"
    },
    {
        "city": "Jales",
        "state": "SP",
        "district": "Jardim Estados Unidos",
        "street": "Rua Kansas",
        "zipcode": "15700-282"
    },
    {
        "city": "Jales",
        "state": "SP",
        "district": "Conjunto Habitacional Roque Viola",
        "street": "Rua do Lavrador",
        "zipcode": "15700-752"
    },
    {
        "city": "Jales",
        "state": "SP",
        "district": "Conjunto Habitacional Roque Viola",
        "street": "Rua Grajaú",
        "zipcode": "15700-764"
    },
    {
        "city": "Jales",
        "state": "SP",
        "district": "Jardim Samambaia",
        "street": "Rua Maestro Erlon Chaves",
        "zipcode": "15700-218"
    },
    {
        "city": "Jales",
        "state": "SP",
        "district": "São Judas Tadeu",
        "street": "Rua São Francisco",
        "zipcode": "15700-664"
    },
    {
        "city": "Jales",
        "state": "SP",
        "district": "Jardim Estados Unidos",
        "street": "Rua Texas",
        "zipcode": "15700-264"
    },
    {
        "city": "Jales",
        "state": "SP",
        "district": "Jardim Paraíso",
        "street": "Rua Tupinambás",
        "zipcode": "15700-628"
    },
    {
        "city": "Jales",
        "state": "SP",
        "district": "Vila Nossa Senhora Aparecida",
        "street": "Rua Tupinambás",
        "zipcode": "15700-714"
    },
    {
        "city": "Jales",
        "state": "SP",
        "district": "Jardim Paulista",
        "street": "Rua Rio de Janeiro",
        "zipcode": "15700-300"
    },
    {
        "city": "Jales",
        "state": "SP",
        "district": "Jardim Estados Unidos",
        "street": "Rua Rio de Janeiro",
        "zipcode": "15700-292"
    },
    {
        "city": "Jales",
        "state": "SP",
        "district": "Vila Nossa Senhora Aparecida",
        "street": "Rua São Mateus",
        "zipcode": "15700-706"
    },
    {
        "city": "Jales",
        "state": "SP",
        "district": "Loteamento Fassa",
        "street": "Rua 9",
        "zipcode": "15703-251"
    },
    {
        "city": "Jales",
        "state": "SP",
        "district": "Jardim do Bosque",
        "street": "Avenida Industrial",
        "zipcode": "15703-370"
    },
    {
        "city": "Jales",
        "state": "SP",
        "district": "Jardim Arapuã",
        "street": "Travessa Crixás",
        "zipcode": "15707-144"
    },
    {
        "city": "Jales",
        "state": "SP",
        "district": "Residencial Alpha Jales",
        "street": "Rua Corfu",
        "zipcode": "15708-063"
    },
    {
        "city": "Jales",
        "state": "SP",
        "district": "Residencial Duana",
        "street": "Rua Marginal",
        "zipcode": "15706-302"
    },
    {
        "city": "Jales",
        "state": "SP",
        "district": "Residencial Alpha Jales",
        "street": "Rua Tera",
        "zipcode": "15708-082"
    },
    {
        "city": "Jales",
        "state": "SP",
        "district": "Jardim Micena",
        "street": "Avenida da Integração",
        "zipcode": "15703-269"
    },
    {
        "city": "Jales",
        "state": "SP",
        "district": "Jardim Romero",
        "street": "Avenida da Integração",
        "zipcode": "15703-174"
    },
    {
        "city": "Jales",
        "state": "SP",
        "district": "Jardim Pires de Andrade",
        "street": "Rua dos Ipês",
        "zipcode": "15706-008"
    },
    {
        "city": "Jales",
        "state": "SP",
        "district": "Jardim Primavera",
        "street": "Rua Isolinda Pimentel Lopes",
        "zipcode": "15706-160"
    },
    {
        "city": "Jales",
        "state": "SP",
        "district": "Jardim São Jorge",
        "street": "Rua dos Jacarandás",
        "zipcode": "15704-210"
    },
    {
        "city": "Jales",
        "state": "SP",
        "district": "Jardim Bom Jesus",
        "street": "Rua dos Jacarandás",
        "zipcode": "15704-172"
    },
    {
        "city": "Jales",
        "state": "SP",
        "district": "Vila Norma",
        "street": "Rua dos Jacarandás",
        "zipcode": "15704-090"
    },
    {
        "city": "Jales",
        "state": "SP",
        "district": "Jardim Municipal",
        "street": "Rua José Alvarenga da Silva",
        "zipcode": "15704-494"
    },
    {
        "city": "Jales",
        "state": "SP",
        "district": "Vila Stafusa",
        "street": "Rua Otávio Graziani",
        "zipcode": "15706-054"
    },
    {
        "city": "Jales",
        "state": "SP",
        "district": "Loteamento Avenida",
        "street": "Rua Bélgica",
        "zipcode": "15703-208"
    },
    {
        "city": "Jales",
        "state": "SP",
        "district": "Jardim Europa",
        "street": "Rua Bélgica",
        "zipcode": "15703-188"
    },
    {
        "city": "Jales",
        "state": "SP",
        "district": "Vila Pinheiro",
        "street": "Rua dos Pinheiros",
        "zipcode": "15704-070"
    },
    {
        "city": "Jales",
        "state": "SP",
        "district": "Parque das Flores",
        "street": "Avenida Resedá",
        "zipcode": "15703-432"
    },
    {
        "city": "Jales",
        "state": "SP",
        "district": "Vila São José",
        "street": "Rua 1",
        "zipcode": "15704-023"
    },
    {
        "city": "Jales",
        "state": "SP",
        "district": "Jardim Brasil",
        "street": "Rua 1",
        "zipcode": "15704-250"
    },
    {
        "city": "Jales",
        "state": "SP",
        "district": "Vila Micena",
        "street": "Rua 2",
        "zipcode": "15703-255"
    },
    {
        "city": "Jales",
        "state": "SP",
        "district": "Jardim São Jorge",
        "street": "Avenida Salustiano Pupim",
        "zipcode": "15704-190"
    },
    {
        "city": "Jales",
        "state": "SP",
        "district": "Jardim Nova Vida",
        "street": "Rua Vaticano",
        "zipcode": "15703-223"
    },
    {
        "city": "Jales",
        "state": "SP",
        "district": "Jardim Pêgolo",
        "street": "Rua 22",
        "zipcode": "15704-008"
    },
    {
        "city": "Jales",
        "state": "SP",
        "district": "Jardim Eldorado",
        "street": "Rua Santa Adélia",
        "zipcode": "15704-314"
    },
    {
        "city": "Jales",
        "state": "SP",
        "district": "Vila Talma",
        "street": "Avenida Cosme e Damião",
        "zipcode": "15704-264"
    },
    {
        "city": "Jales",
        "state": "SP",
        "district": "Jardim Maria Paula",
        "street": "Rua dos Guatambus",
        "zipcode": "15704-114"
    },
    {
        "city": "Jales",
        "state": "SP",
        "district": "Jardim São Francisco de Assis",
        "street": "Rua São Lucas",
        "zipcode": "15704-406"
    },
    {
        "city": "Jales",
        "state": "SP",
        "district": "Jardim Monterey",
        "street": "Avenida Paulo Marcondes",
        "zipcode": "15703-314"
    },
    {
        "city": "Jales",
        "state": "SP",
        "district": "Vila Helizabeth",
        "street": "Rua Helizabeth",
        "zipcode": "15703-288"
    },
    {
        "city": "Jales",
        "state": "SP",
        "district": "Jardim Oiti",
        "street": "Rua das Hortências",
        "zipcode": "15706-068"
    },
    {
        "city": "Jales",
        "state": "SP",
        "district": "Jardim Pires de Andrade",
        "street": "Rua das Palmeiras",
        "zipcode": "15706-022"
    },
    {
        "city": "Jales",
        "state": "SP",
        "district": "Vila Pinheiro",
        "street": "Rua das Palmeiras",
        "zipcode": "15704-050"
    },
    {
        "city": "Jales",
        "state": "SP",
        "district": "Residencial São Lucas",
        "street": "Rua das Palmeiras",
        "zipcode": "15706-080"
    },
    {
        "city": "Jales",
        "state": "SP",
        "district": "Vila São José",
        "street": "Rua São Paulo",
        "zipcode": "15704-022"
    },
    {
        "city": "Jales",
        "state": "SP",
        "district": "Jardim Bom Jesus",
        "street": "Rua Bom Jesus",
        "zipcode": "15704-180"
    },
    {
        "city": "Jales",
        "state": "SP",
        "district": "Jardim São Jorge",
        "street": "Rua Nelson Clemencio de Souza",
        "zipcode": "15704-194"
    },
    {
        "city": "Jales",
        "state": "SP",
        "district": "Vila Talma",
        "street": "Rua Nova York",
        "zipcode": "15704-260"
    },
    {
        "city": "Jales",
        "state": "SP",
        "district": "Residencial Maria Silveira",
        "street": "Rua das Embuias",
        "zipcode": "15704-120"
    },
    {
        "city": "Jales",
        "state": "SP",
        "district": "Vila Pinheiro",
        "street": "Rua das Embuias",
        "zipcode": "15704-058"
    },
    {
        "city": "Jales",
        "state": "SP",
        "district": "Jardim Morumbi",
        "street": "Rua da Fraternidade",
        "zipcode": "15704-154"
    },
    {
        "city": "Jales",
        "state": "SP",
        "district": "Parque Industrial I",
        "street": "Travessa G",
        "zipcode": "15703-350"
    },
    {
        "city": "Jales",
        "state": "SP",
        "district": "Vila Nascimento",
        "street": "Rua das Rosas",
        "zipcode": "15706-048"
    },
    {
        "city": "Jales",
        "state": "SP",
        "district": "Jardim São Jorge",
        "street": "Rua da Saudade",
        "zipcode": "15704-200"
    },
    {
        "city": "Jales",
        "state": "SP",
        "district": "Jardim Soraia",
        "street": "Rua José Evaristo Scaramuza",
        "zipcode": "15704-466"
    },
    {
        "city": "Jales",
        "state": "SP",
        "district": "Vila Ines",
        "street": "Rua Fortaleza",
        "zipcode": "15704-226"
    },
    {
        "city": "Jales",
        "state": "SP",
        "district": "Jardim Europa",
        "street": "Rua França",
        "zipcode": "15703-192"
    },
    {
        "city": "Jales",
        "state": "SP",
        "district": "Residencial São Lucas",
        "street": "Rua Francisco Fontes Parra",
        "zipcode": "15706-098"
    },
    {
        "city": "Jales",
        "state": "SP",
        "district": "Jardim Eldorado",
        "street": "Rua Arlindo Correa Junior",
        "zipcode": "15704-338"
    },
    {
        "city": "Jales",
        "state": "SP",
        "district": "Conjunto Habitacional Renascer",
        "street": "Rua Augusto Lopes",
        "zipcode": "15704-510"
    },
    {
        "city": "Jales",
        "state": "SP",
        "district": "Centro",
        "street": "Rua 3",
        "zipcode": "15700-006"
    },
    {
        "city": "Jales",
        "state": "SP",
        "district": "Centro",
        "street": "Rua 6",
        "zipcode": "15700-060"
    },
    {
        "city": "Jales",
        "state": "SP",
        "district": "Centro",
        "street": "Rua 7",
        "zipcode": "15700-016"
    },
    {
        "city": "Jales",
        "state": "SP",
        "district": "Centro",
        "street": "Rua 7",
        "zipcode": "15700-014"
    },
    {
        "city": "Jales",
        "state": "SP",
        "district": "Centro",
        "street": "Rua 8",
        "zipcode": "15700-064"
    },
    {
        "city": "Jales",
        "state": "SP",
        "district": "Vila Norma",
        "street": "Rua 10",
        "zipcode": "15704-096"
    },
    {
        "city": "Jales",
        "state": "SP",
        "district": "Residencial Alpha Jales",
        "street": "Rua Creta",
        "zipcode": "15708-068"
    },
    {
        "city": "Jales",
        "state": "SP",
        "district": "Centro",
        "street": "Rua 10",
        "zipcode": "15700-068"
    },
    {
        "city": "Jales",
        "state": "SP",
        "district": "Vila Santa Izabel",
        "street": "Rua José Batista Prado",
        "zipcode": "15706-206"
    },
    {
        "city": "Jales",
        "state": "SP",
        "district": "Jardim Santo Expedito",
        "street": "Rua Izaura Bertho Venturini",
        "zipcode": "15707-060"
    },
    {
        "city": "Jales",
        "state": "SP",
        "district": "Conjunto Habitacional Jardim Arapuã",
        "street": "Rua Jorge Amado",
        "zipcode": "15707-170"
    },
    {
        "city": "Jales",
        "state": "SP",
        "district": "Jardim Santo Expedito",
        "street": "Rua Porto Rico",
        "zipcode": "15707-080"
    },
    {
        "city": "Jales",
        "state": "SP",
        "district": "Jardim Arapuã",
        "street": "Rua Purus",
        "zipcode": "15707-146"
    },
    {
        "city": "Jales",
        "state": "SP",
        "district": "Centro",
        "street": "Rua 2",
        "zipcode": "15700-052"
    },
    {
        "city": "Jales",
        "state": "SP",
        "district": "Jardim Monterey",
        "street": "Rua Adelmo Bocchi",
        "zipcode": "15703-316"
    },
    {
        "city": "Jales",
        "state": "SP",
        "district": "Centro",
        "street": "Avenida João Amadeu",
        "zipcode": "15700-078"
    },
    {
        "city": "Jales",
        "state": "SP",
        "district": "Jardim Santo Expedito",
        "street": "Rua Uruguai",
        "zipcode": "15707-098"
    },
    {
        "city": "Jales",
        "state": "SP",
        "district": "Conjunto Habitacional José Antonio Caparroz Bogaz",
        "street": "Rua Vicente Papassídero",
        "zipcode": "15707-670"
    },
    {
        "city": "Jales",
        "state": "SP",
        "district": "Conjunto Habitacional José Antonio Caparroz Bogaz",
        "street": "Rua Belo Horizonte",
        "zipcode": "15707-692"
    },
    {
        "city": "Jales",
        "state": "SP",
        "district": "Parque Industrial II",
        "street": "Rua Dercio Joaquim de Carvalho",
        "zipcode": "15708-022"
    },
    {
        "city": "Jales",
        "state": "SP",
        "district": "Centro",
        "street": "Rua 11",
        "zipcode": "15700-030"
    },
    {
        "city": "Jales",
        "state": "SP",
        "district": "Centro",
        "street": "Rua 11",
        "zipcode": "15700-032"
    },
    {
        "city": "Jales",
        "state": "SP",
        "district": "Centro",
        "street": "Rua 12",
        "zipcode": "15700-072"
    },
    {
        "city": "Jales",
        "state": "SP",
        "district": "Centro",
        "street": "Rua 13",
        "zipcode": "15700-034"
    },
    {
        "city": "Jales",
        "state": "SP",
        "district": "Centro",
        "street": "Rua 17",
        "zipcode": "15700-042"
    },
    {
        "city": "Jales",
        "state": "SP",
        "district": "Centro",
        "street": "Rua 17",
        "zipcode": "15700-142"
    },
    {
        "city": "Jales",
        "state": "SP",
        "district": "Centro",
        "street": "Rua 21",
        "zipcode": "15700-050"
    },
    {
        "city": "Jales",
        "state": "SP",
        "district": "Jardim Novo Mundo",
        "street": "Rua Alvorada",
        "zipcode": "15706-426"
    },
    {
        "city": "Jales",
        "state": "SP",
        "district": "Jardim Paulo VI",
        "street": "Rua Alvorada",
        "zipcode": "15706-412"
    },
    {
        "city": "Jales",
        "state": "SP",
        "district": "Jardim Santo Expedito",
        "street": "Avenida América do Sul",
        "zipcode": "15707-084"
    },
    {
        "city": "Jales",
        "state": "SP",
        "district": "Conjunto Habitacional José Antonio Caparroz Bogaz II",
        "street": "Rua Ana Cláudio Landin",
        "zipcode": "15707-652"
    },
    {
        "city": "Jales",
        "state": "SP",
        "district": "Jardim Paulo VI",
        "street": "Rua Angelo Gasparetti",
        "zipcode": "15706-404"
    },
    {
        "city": "Jales",
        "state": "SP",
        "district": "Jardim Pêgolo II",
        "street": "Rua Antonio Belão",
        "zipcode": "15706-264"
    },
    {
        "city": "Jales",
        "state": "SP",
        "district": "Conjunto Habitacional José Antonio Caparroz Bogaz II",
        "street": "Rua Campo Grande",
        "zipcode": "15707-628"
    },
    {
        "city": "Jales",
        "state": "SP",
        "district": "Conjunto Habitacional José Antonio Caparroz Bogaz",
        "street": "Rua Campo Grande",
        "zipcode": "15707-710"
    },
    {
        "city": "Jales",
        "state": "SP",
        "district": "Jardim Arapuã",
        "street": "Rua Tapajós",
        "zipcode": "15707-130"
    },
    {
        "city": "Jales",
        "state": "SP",
        "district": "Conjunto Habitacional Doutor Pedro Nogueira",
        "street": "Rua Paranapuã",
        "zipcode": "15707-326"
    },
    {
        "city": "Jales",
        "state": "SP",
        "district": "Vila Ines",
        "street": "Rua Bom Jardim",
        "zipcode": "15704-234"
    },
    {
        "city": "Jales",
        "state": "SP",
        "district": "Chácaras Alto do Marimbondo",
        "street": "Rua Braz Polizio",
        "zipcode": "15706-220"
    },
    {
        "city": "Jales",
        "state": "SP",
        "district": "Jardim Zaffani",
        "street": "Rua Caiapós",
        "zipcode": "15707-112"
    },
    {
        "city": "Jales",
        "state": "SP",
        "district": "Jardim Santo Expedito",
        "street": "Rua Nicarágua",
        "zipcode": "15707-070"
    },
    {
        "city": "Jales",
        "state": "SP",
        "district": "Conjunto Habitacional Jardim Arapuã",
        "street": "Rua Graciliano Ramos",
        "zipcode": "15707-174"
    },
    {
        "city": "Jales",
        "state": "SP",
        "district": "Chácaras Bandeirantes",
        "street": "Rua Juvêncio Pereira de Brito",
        "zipcode": "15706-256"
    },
    {
        "city": "Jales",
        "state": "SP",
        "district": "Conjunto Habitacional Jardim Arapuã",
        "street": "Praça Cecilia Meireles",
        "zipcode": "15707-186"
    },
    {
        "city": "Jales",
        "state": "SP",
        "district": "Parque Industrial II",
        "street": "Avenida Fausto Abra",
        "zipcode": "15708-014"
    },
    {
        "city": "Jales",
        "state": "SP",
        "district": "Centro",
        "street": "Pátio da Fepasa",
        "zipcode": "15700-048"
    },
    {
        "city": "Jales",
        "state": "SP",
        "district": "Vila Maria",
        "street": "Avenida Francisco Jales",
        "zipcode": "15706-394"
    },
    {
        "city": "Jales",
        "state": "SP",
        "district": "Centro",
        "street": "Avenida Francisco Jales",
        "zipcode": "15700-026"
    },
    {
        "city": "Jales",
        "state": "SP",
        "district": "Centro",
        "street": "Avenida Francisco Jales",
        "zipcode": "15700-028"
    },
    {
        "city": "Jales",
        "state": "SP",
        "district": "Chácaras Bandeirantes",
        "street": "Rua Mamoré",
        "zipcode": "15706-250"
    },
    {
        "city": "Jales",
        "state": "SP",
        "district": "Jardim Soraia",
        "street": "Rua Itamarati",
        "zipcode": "15704-462"
    },
    {
        "city": "Jales",
        "state": "SP",
        "district": "Jardim Samambaia",
        "street": "Alameda dos Pinheiros",
        "zipcode": "15700-204"
    },
    {
        "city": "Jales",
        "state": "SP",
        "district": "Jardim Samambaia",
        "street": "Alameda das Acácias",
        "zipcode": "15700-210"
    },
    {
        "city": "Jales",
        "state": "SP",
        "district": "Residencial Big Plaza",
        "street": "Rua Olympio Honorio Adolpho",
        "zipcode": "15700-862"
    },
    {
        "city": "Jales",
        "state": "SP",
        "district": "Centro",
        "street": "Rua 12",
        "zipcode": "15700-132"
    },
    {
        "city": "Jales",
        "state": "SP",
        "district": "Centro",
        "street": "Rua 13",
        "zipcode": "15700-136"
    },
    {
        "city": "Jales",
        "state": "SP",
        "district": "Jardim Ana Cristina",
        "street": "Rua 14",
        "zipcode": "15700-192"
    },
    {
        "city": "Jales",
        "state": "SP",
        "district": "Centro",
        "street": "Rua 14",
        "zipcode": "15700-126"
    },
    {
        "city": "Jales",
        "state": "SP",
        "district": "Centro",
        "street": "Rua 14",
        "zipcode": "15700-086"
    },
    {
        "city": "Jales",
        "state": "SP",
        "district": "Centro",
        "street": "Rua 14",
        "zipcode": "15700-084"
    },
    {
        "city": "Jales",
        "state": "SP",
        "district": "Centro",
        "street": "Rua 15",
        "zipcode": "15700-138"
    },
    {
        "city": "Jales",
        "state": "SP",
        "district": "Jardim Ana Cristina",
        "street": "Rua 16",
        "zipcode": "15700-190"
    },
    {
        "city": "Jales",
        "state": "SP",
        "district": "Centro",
        "street": "Rua 18",
        "zipcode": "15700-120"
    },
    {
        "city": "Jales",
        "state": "SP",
        "district": "Centro",
        "street": "Rua 19",
        "zipcode": "15700-144"
    },
    {
        "city": "Jales",
        "state": "SP",
        "district": "Centro",
        "street": "Rua 19",
        "zipcode": "15700-146"
    },
    {
        "city": "Jales",
        "state": "SP",
        "district": "Centro",
        "street": "Rua 20",
        "zipcode": "15700-094"
    },
    {
        "city": "Jales",
        "state": "SP",
        "district": "Jardim Santo Expedito",
        "street": "Rua 20",
        "zipcode": "15700-164"
    },
    {
        "city": "Jales",
        "state": "SP",
        "district": "Jardim Santo Expedito",
        "street": "Rua 22",
        "zipcode": "15700-162"
    },
    {
        "city": "Jales",
        "state": "SP",
        "district": "Centro",
        "street": "Rua 22",
        "zipcode": "15700-106"
    },
    {
        "city": "Jales",
        "state": "SP",
        "district": "Centro",
        "street": "Rua 22",
        "zipcode": "15700-116"
    },
    {
        "city": "Jales",
        "state": "SP",
        "district": "Centro",
        "street": "Rua 22",
        "zipcode": "15700-096"
    },
    {
        "city": "Jales",
        "state": "SP",
        "district": "Centro",
        "street": "Rua 24",
        "zipcode": "15700-114"
    },
    {
        "city": "Jales",
        "state": "SP",
        "district": "Centro",
        "street": "Rua 24",
        "zipcode": "15700-115"
    },
    {
        "city": "Jales",
        "state": "SP",
        "district": "Centro",
        "street": "Rua 24",
        "zipcode": "15700-098"
    },
    {
        "city": "Jales",
        "state": "SP",
        "district": "Centro",
        "street": "Rua 26",
        "zipcode": "15700-150"
    },
    {
        "city": "Jales",
        "state": "SP",
        "district": "Jardim Samambaia",
        "street": "Avenida Alfonso Rossafa Molina",
        "zipcode": "15700-202"
    },
    {
        "city": "Jales",
        "state": "SP",
        "district": "Jardim Ana Cristina",
        "street": "Rua Canadá",
        "zipcode": "15700-184"
    },
    {
        "city": "Jales",
        "state": "SP",
        "district": "Jardim Santo Expedito",
        "street": "Rua Canadá",
        "zipcode": "15700-172"
    },
    {
        "city": "Jales",
        "state": "SP",
        "district": "Jardim Santo Expedito",
        "street": "Rua México",
        "zipcode": "15700-170"
    },
    {
        "city": "Jales",
        "state": "SP",
        "district": "Jardim Ana Cristina",
        "street": "Rua México",
        "zipcode": "15700-186"
    },
    {
        "city": "Jales",
        "state": "SP",
        "district": "Jardim Santo Expedito",
        "street": "Avenida Nações Unidas",
        "zipcode": "15700-168"
    },
    {
        "city": "Jales",
        "state": "SP",
        "district": "Vila Maria",
        "street": "Rua Nazaré",
        "zipcode": "15706-390"
    },
    {
        "city": "Jales",
        "state": "SP",
        "district": "Jardim Ana Cristina",
        "street": "Avenida Presidente Juscelino Kubitschek",
        "zipcode": "15700-182"
    },
    {
        "city": "Jales",
        "state": "SP",
        "district": "Conjunto Habitacional Doutor Pedro Nogueira",
        "street": "Rua Santa Albertina",
        "zipcode": "15707-338"
    },
    {
        "city": "Jales",
        "state": "SP",
        "district": "Residencial Big Plaza",
        "street": "Rua Milton Antônio Pedrosa",
        "zipcode": "15700-870"
    },
    {
        "city": "Jales",
        "state": "SP",
        "district": "Residencial Nova Jales",
        "street": "Rua Leiko Nichi",
        "zipcode": "15707-420"
    },
    {
        "city": "Jales",
        "state": "SP",
        "district": "Residencial Alpha Jales",
        "street": "Rua Pirgos",
        "zipcode": "15708-084"
    },
    {
        "city": "Jales",
        "state": "SP",
        "district": "Residencial Big Plaza",
        "street": "Rua José Antonio Adolpho",
        "zipcode": "15700-860"
    },
    {
        "city": "Jales",
        "state": "SP",
        "district": "Jardim Pires de Andrade",
        "street": "Rua Amador Scatena",
        "zipcode": "15706-010"
    },
    {
        "city": "Jales",
        "state": "SP",
        "district": "Jardim Eldorado",
        "street": "Rua Wladimir Sabatini Prandi",
        "zipcode": "15704-330"
    },
    {
        "city": "Jales",
        "state": "SP",
        "district": "Aeroporto Municipal",
        "street": "Avenida Paulo Marcondes",
        "zipcode": "15703-336"
    },
    {
        "city": "Jales",
        "state": "SP",
        "district": "Jardim São Gabriel",
        "street": "Rua Osmar da Veiga Pimentel",
        "zipcode": "15700-354"
    },
    {
        "city": "Jales",
        "state": "SP",
        "district": "Jardim do Bosque",
        "street": "Rua Vereador Domingos de Rosis Filho",
        "zipcode": "15703-388"
    },
    {
        "city": "Jales",
        "state": "SP",
        "district": "Jardim Paraíso",
        "street": "Rua Iguaporé",
        "zipcode": "15700-622"
    },
    {
        "city": "Jales",
        "state": "SP",
        "district": "Jardim Estados Unidos",
        "street": "Rua Indiana",
        "zipcode": "15700-278"
    },
    {
        "city": "Jales",
        "state": "SP",
        "district": "Jardim Aclimação",
        "street": "Rua Oswaldo Cruz",
        "zipcode": "15700-222"
    },
    {
        "city": "Jales",
        "state": "SP",
        "district": "Vila Nossa Senhora Aparecida",
        "street": "Rua Pio XII",
        "zipcode": "15700-702"
    },
    {
        "city": "Jales",
        "state": "SP",
        "district": "Vila Nossa Senhora Aparecida",
        "street": "Rua Polônia",
        "zipcode": "15700-686"
    },
    {
        "city": "Jales",
        "state": "SP",
        "district": "Parque Industrial III",
        "street": "Rua João Alves do Prado",
        "zipcode": "15700-588"
    },
    {
        "city": "Jales",
        "state": "SP",
        "district": "Parque Industrial III",
        "street": "Rua Projetada D",
        "zipcode": "15700-596"
    },
    {
        "city": "Jales",
        "state": "SP",
        "district": "Parque Industrial III",
        "street": "Rua Projetada E",
        "zipcode": "15700-592"
    },
    {
        "city": "Jales",
        "state": "SP",
        "district": "São Judas Tadeu",
        "street": "Rua Joaquim Catarino",
        "zipcode": "15700-660"
    },
    {
        "city": "Jales",
        "state": "SP",
        "district": "São Judas Tadeu",
        "street": "Rua São Benedito",
        "zipcode": "15700-662"
    },
    {
        "city": "Jales",
        "state": "SP",
        "district": "Jardim Zaffani",
        "street": "Rua Tucuruí",
        "zipcode": "15707-114"
    },
    {
        "city": "Jales",
        "state": "SP",
        "district": "Parque Industrial III",
        "street": "Avenida Alcebíades Bernardo",
        "zipcode": "15700-582"
    },
    {
        "city": "Jales",
        "state": "SP",
        "district": "Jardim Estados Unidos",
        "street": "Avenida Engenheiro Euphly Jalles",
        "zipcode": "15700-256"
    },
    {
        "city": "Jales",
        "state": "SP",
        "district": "Parque Industrial III",
        "street": "Rua Affonso Merotti",
        "zipcode": "15700-598"
    },
    {
        "city": "Jales",
        "state": "SP",
        "district": "Conjunto Habitacional Vereador Dercilio Joaquim Carvalho",
        "street": "Rua João Batista Colodetti",
        "zipcode": "15700-786"
    },
    {
        "city": "Jales",
        "state": "SP",
        "district": "Residencial Paineiras II",
        "street": "Rua Antônio Joaquim de Carvalho",
        "zipcode": "15704-369"
    },
    {
        "city": "Jales",
        "state": "SP",
        "district": "Jardim Paraíso",
        "street": "Rua Dirce Libano dos Santos",
        "zipcode": "15700-632"
    },
    {
        "city": "Jales",
        "state": "SP",
        "district": "São Judas Tadeu",
        "street": "Rua 19",
        "zipcode": "15700-666"
    },
    {
        "city": "Jales",
        "state": "SP",
        "district": "Jardim Paraíso",
        "street": "Rua Aimorés",
        "zipcode": "15700-630"
    },
    {
        "city": "Jales",
        "state": "SP",
        "district": "São Judas Tadeu",
        "street": "Rua Amazonas",
        "zipcode": "15700-672"
    },
    {
        "city": "Jales",
        "state": "SP",
        "district": "Jardim Paulista",
        "street": "Rua Maranhão",
        "zipcode": "15700-304"
    },
    {
        "city": "Jales",
        "state": "SP",
        "district": "Jardim Aclimação",
        "street": "Rua Candido Portinari",
        "zipcode": "15700-240"
    },
    {
        "city": "Jales",
        "state": "SP",
        "district": "Jardim Paraíso",
        "street": "Rua Pinguim",
        "zipcode": "15700-620"
    },
    {
        "city": "Jales",
        "state": "SP",
        "district": "Jardim Estados Unidos",
        "street": "Rua Marechal Rondon",
        "zipcode": "15700-258"
    },
    {
        "city": "Jales",
        "state": "SP",
        "district": "Jardim Aclimação",
        "street": "Rua Carlos Chagas",
        "zipcode": "15700-226"
    },
    {
        "city": "Jales",
        "state": "SP",
        "district": "Jardim Paraíso",
        "street": "Rua Cacique",
        "zipcode": "15700-624"
    },
    {
        "city": "Jales",
        "state": "SP",
        "district": "São Judas Tadeu",
        "street": "Rua Cacique",
        "zipcode": "15700-670"
    },
    {
        "city": "Jales",
        "state": "SP",
        "district": "Jardim Estados Unidos",
        "street": "Rua Califórnia",
        "zipcode": "15700-288"
    },
    {
        "city": "Jales",
        "state": "SP",
        "district": "Jardim Paulista",
        "street": "Avenida Minas Gerais",
        "zipcode": "15700-720"
    },
    {
        "city": "Jales",
        "state": "SP",
        "district": "Jardim Estados Unidos",
        "street": "Rua Montana",
        "zipcode": "15700-262"
    },
    {
        "city": "Jales",
        "state": "SP",
        "district": "Jardim Estados Unidos",
        "street": "Rua Nevada",
        "zipcode": "15700-286"
    },
    {
        "city": "Jales",
        "state": "SP",
        "district": "Jardim Estados Unidos",
        "street": "Rua Geórgia",
        "zipcode": "15700-260"
    },
    {
        "city": "Jales",
        "state": "SP",
        "district": "Vila Nossa Senhora Aparecida",
        "street": "Rua Professor Rubião Meira",
        "zipcode": "15700-716"
    },
    {
        "city": "Jales",
        "state": "SP",
        "district": "Jardim Aclimação",
        "street": "Rua Teotônio Vilela",
        "zipcode": "15700-228"
    },
    {
        "city": "Jales",
        "state": "SP",
        "district": "São Judas Tadeu",
        "street": "Rua São Judas Tadeu",
        "zipcode": "15700-674"
    },
    {
        "city": "Jales",
        "state": "SP",
        "district": "Vila Nossa Senhora Aparecida",
        "street": "Rua São Judas Tadeu",
        "zipcode": "15700-684"
    },
    {
        "city": "Jales",
        "state": "SP",
        "district": "São Judas Tadeu",
        "street": "Rua Pajé",
        "zipcode": "15700-640"
    },
    {
        "city": "Jales",
        "state": "SP",
        "district": "Jardim Paraíso",
        "street": "Rua Pajé",
        "zipcode": "15700-634"
    },
    {
        "city": "Jales",
        "state": "SP",
        "district": "São Judas Tadeu",
        "street": "Rua 23",
        "zipcode": "15700-646"
    },
    {
        "city": "Jales",
        "state": "SP",
        "district": "Jardim Aclimação",
        "street": "Rua Maestro Erlon Chaves",
        "zipcode": "15700-220"
    },
    {
        "city": "Jales",
        "state": "SP",
        "district": "Jardim Estados Unidos",
        "street": "Rua Flórida",
        "zipcode": "15700-274"
    },
    {
        "city": "Jales",
        "state": "SP",
        "district": "Vila Nossa Senhora Aparecida",
        "street": "Rua São Francisco",
        "zipcode": "15700-690"
    },
    {
        "city": "Jales",
        "state": "SP",
        "district": "Jardim Aclimação",
        "street": "Rua Ayrton Senna da Silva",
        "zipcode": "15700-234"
    },
    {
        "city": "Jales",
        "state": "SP",
        "district": "Jardim Estados Unidos",
        "street": "Rua Ayrton Senna da Silva",
        "zipcode": "15700-252"
    },
    {
        "city": "Jales",
        "state": "SP",
        "district": "Jardim Paulista",
        "street": "Rua Bahia",
        "zipcode": "15700-302"
    },
    {
        "city": "Jales",
        "state": "SP",
        "district": "Jardim Aclimação",
        "street": "Rua Ataulfo Alves",
        "zipcode": "15700-236"
    },
    {
        "city": "Jales",
        "state": "SP",
        "district": "Vila Nossa Senhora Aparecida",
        "street": "Rua São João",
        "zipcode": "15700-704"
    },
    {
        "city": "Jales",
        "state": "SP",
        "district": "Jardim Paulista",
        "street": "Rua Rio de Janeiro",
        "zipcode": "15700-724"
    },
    {
        "city": "Jales",
        "state": "SP",
        "district": "Vila Helizabeth",
        "street": "Rua Itália",
        "zipcode": "15703-286"
    },
    {
        "city": "Jales",
        "state": "SP",
        "district": "Conjunto Habitacional Roque Viola",
        "street": "Rua Jaçanã",
        "zipcode": "15700-768"
    },
    {
        "city": "Jales",
        "state": "SP",
        "district": "Jardim São Gabriel",
        "street": "Rua Luzia Raimundo Ceciliano",
        "zipcode": "15700-344"
    },
    {
        "city": "Jales",
        "state": "SP",
        "district": "Jardim Arapuã",
        "street": "Rua Tucuruí",
        "zipcode": "15707-138"
    },
    {
        "city": "Jales",
        "state": "SP",
        "district": "Residencial Paineiras II",
        "street": "Rua José Luís Vieira",
        "zipcode": "15704-368"
    },
    {
        "city": "Jales",
        "state": "SP",
        "district": "Conjunto Habitacional Vereador Dercilio Joaquim Carvalho",
        "street": "Rua Jaçanã",
        "zipcode": "15700-820"
    },
    {
        "city": "Jales",
        "state": "SP",
        "district": "Jardim América",
        "street": "Rua Jales",
        "zipcode": "15703-038"
    },
    {
        "city": "Jales",
        "state": "SP",
        "district": "Jardim América",
        "street": "Rua Joaquim Muniz Pereira",
        "zipcode": "15703-044"
    },
    {
        "city": "Jales",
        "state": "SP",
        "district": "Jardim Paulista",
        "street": "Rua Polônia",
        "zipcode": "15700-744"
    },
    {
        "city": "Jales",
        "state": "SP",
        "district": "Jardim América",
        "street": "Rua 2",
        "zipcode": "15703-028"
    },
    {
        "city": "Jales",
        "state": "SP",
        "district": "Jardim América",
        "street": "Rua 2",
        "zipcode": "15703-002"
    },
    {
        "city": "Jales",
        "state": "SP",
        "district": "Jardim Paulista",
        "street": "Rua São Bernardo",
        "zipcode": "15700-736"
    },
    {
        "city": "Jales",
        "state": "SP",
        "district": "Conjunto Habitacional Vereador Dercilio Joaquim Carvalho",
        "street": "Avenida Domingos Masson",
        "zipcode": "15700-824"
    },
    {
        "city": "Jales",
        "state": "SP",
        "district": "Parque Industrial III",
        "street": "Rua Paulo Perassolo",
        "zipcode": "15700-584"
    },
    {
        "city": "Jales",
        "state": "SP",
        "district": "Parque Industrial III",
        "street": "Rua Dirceu Gonçalves Resende",
        "zipcode": "15700-586"
    },
    {
        "city": "Jales",
        "state": "SP",
        "district": "Conjunto Habitacional Vereador Dercilio Joaquim Carvalho",
        "street": "Rua Otávio Alves",
        "zipcode": "15700-802"
    },
    {
        "city": "Jales",
        "state": "SP",
        "district": "Jardim São Gabriel",
        "street": "Rua Rosária Galego Miani",
        "zipcode": "15700-348"
    },
    {
        "city": "Jales",
        "state": "SP",
        "district": "Jardim São Gabriel",
        "street": "Rua Margarida Duella da Silva",
        "zipcode": "15700-350"
    },
    {
        "city": "Jales",
        "state": "SP",
        "district": "Parque Industrial III",
        "street": "Estrada Municipal",
        "zipcode": "15700-580"
    },
    {
        "city": "Jales",
        "state": "SP",
        "district": "Jardim São Gabriel",
        "street": "Rua Herculano Lopes",
        "zipcode": "15700-352"
    },
    {
        "city": "Jales",
        "state": "SP",
        "district": "Conjunto Habitacional Roque Viola",
        "street": "Rua Embú",
        "zipcode": "15700-760"
    },
    {
        "city": "Jales",
        "state": "SP",
        "district": "Jardim América",
        "street": "Rua 15",
        "zipcode": "15703-088"
    },
    {
        "city": "Jales",
        "state": "SP",
        "district": "Jardim América",
        "street": "Rua 17",
        "zipcode": "15703-012"
    },
    {
        "city": "Jales",
        "state": "SP",
        "district": "Jardim América",
        "street": "Rua 19",
        "zipcode": "15703-014"
    },
    {
        "city": "Jales",
        "state": "SP",
        "district": "Jardim Paulista",
        "street": "Rua Aimorés",
        "zipcode": "15700-738"
    },
    {
        "city": "Jales",
        "state": "SP",
        "district": "Conjunto Habitacional Vereador Santo Hernandes Argentina",
        "street": "Rua Antonio Calado",
        "zipcode": "15700-834"
    },
    {
        "city": "Jales",
        "state": "SP",
        "district": "Conjunto Habitacional Vereador Dercilio Joaquim Carvalho",
        "street": "Rua Apolônio Araújo",
        "zipcode": "15700-804"
    },
    {
        "city": "Jales",
        "state": "SP",
        "district": "Jardim Paulista",
        "street": "Rua Guanabara",
        "zipcode": "15700-730"
    },
    {
        "city": "Jales",
        "state": "SP",
        "district": "Conjunto Habitacional Roque Viola",
        "street": "Rua Guarani",
        "zipcode": "15700-774"
    },
    {
        "city": "Jales",
        "state": "SP",
        "district": "Vila Rodrigues",
        "street": "Rua Lisboa",
        "zipcode": "15703-232"
    },
    {
        "city": "Jales",
        "state": "SP",
        "district": "Conjunto Habitacional Vereador Dercilio Joaquim Carvalho",
        "street": "Avenida Romano Bigotto",
        "zipcode": "15700-810"
    },
    {
        "city": "Jales",
        "state": "SP",
        "district": "Jardim Europa",
        "street": "Rua Holanda",
        "zipcode": "15703-198"
    },
    {
        "city": "Jales",
        "state": "SP",
        "district": "Conjunto Habitacional Roque Viola",
        "street": "Rua Iapu",
        "zipcode": "15700-766"
    },
    {
        "city": "Jales",
        "state": "SP",
        "district": "Conjunto Habitacional Roque Viola",
        "street": "Rua Camapuã",
        "zipcode": "15700-758"
    },
    {
        "city": "Jales",
        "state": "SP",
        "district": "Conjunto Habitacional Vereador Dercilio Joaquim Carvalho",
        "street": "Rua Camapuã",
        "zipcode": "15700-792"
    },
    {
        "city": "Jales",
        "state": "SP",
        "district": "Conjunto Habitacional Roque Viola",
        "street": "Avenida Minas Gerais",
        "zipcode": "15700-770"
    },
    {
        "city": "Jales",
        "state": "SP",
        "district": "Jardim Paulista",
        "street": "Rua Professor Rubião Meira",
        "zipcode": "15700-726"
    },
    {
        "city": "Jales",
        "state": "SP",
        "district": "Jardim América",
        "street": "Rua Apóstolo Paulo",
        "zipcode": "15703-036"
    },
    {
        "city": "Jales",
        "state": "SP",
        "district": "Jardim América",
        "street": "Rua Apóstolo Paulo",
        "zipcode": "15703-006"
    },
    {
        "city": "Jales",
        "state": "SP",
        "district": "Conjunto Habitacional Vereador Dercilio Joaquim Carvalho",
        "street": "Rua José Pedrini",
        "zipcode": "15700-800"
    },
    {
        "city": "Jales",
        "state": "SP",
        "district": "Jardim América",
        "street": "Rua Júlio de Mesquita Filho",
        "zipcode": "15703-020"
    },
    {
        "city": "Jales",
        "state": "SP",
        "district": "Jardim Paulista",
        "street": "Rua Ceará",
        "zipcode": "15700-728"
    },
    {
        "city": "Jales",
        "state": "SP",
        "district": "Jardim América",
        "street": "Rua 23",
        "zipcode": "15703-022"
    },
    {
        "city": "Jales",
        "state": "SP",
        "district": "Jardim América",
        "street": "Rua do Estado",
        "zipcode": "15703-008"
    },
    {
        "city": "Jales",
        "state": "SP",
        "district": "Conjunto Habitacional Vereador Santo Hernandes Argentina",
        "street": "Rua Florestam Fernandes",
        "zipcode": "15700-832"
    },
    {
        "city": "Jales",
        "state": "SP",
        "district": "Conjunto Habitacional Roque Viola",
        "street": "Rua Arujá",
        "zipcode": "15700-754"
    },
    {
        "city": "Jales",
        "state": "SP",
        "district": "Jardim Paulista",
        "street": "Rua São Mateus",
        "zipcode": "15700-739"
    },
    {
        "city": "Jales",
        "state": "SP",
        "district": "Jardim Estados Unidos",
        "street": "Rua Goiás",
        "zipcode": "15700-272"
    },
    {
        "city": "Jales",
        "state": "SP",
        "district": "Jardim Europa",
        "street": "Rua Inglaterra",
        "zipcode": "15703-186"
    },
    {
        "city": "Jales",
        "state": "SP",
        "district": "Vila União",
        "street": "Avenida da Integração",
        "zipcode": "15703-120"
    },
    {
        "city": "Jales",
        "state": "SP",
        "district": "Jardim Europa",
        "street": "Avenida da Integração",
        "zipcode": "15703-180"
    },
    {
        "city": "Jales",
        "state": "SP",
        "district": "Conjunto Habitacional Vereador Dercilio Joaquim Carvalho",
        "street": "Rua Tomas Floriano",
        "zipcode": "15700-798"
    },
    {
        "city": "Jales",
        "state": "SP",
        "district": "Conjunto Habitacional Vereador Dercilio Joaquim Carvalho",
        "street": "Rua André Vialle",
        "zipcode": "15700-816"
    },
    {
        "city": "Jales",
        "state": "SP",
        "district": "Parque Industrial I",
        "street": "Travessa Laurentino Tonin",
        "zipcode": "15703-354"
    },
    {
        "city": "Jales",
        "state": "SP",
        "district": "Loteamento Avenida",
        "street": "Rua Itália",
        "zipcode": "15703-212"
    },
    {
        "city": "Jales",
        "state": "SP",
        "district": "Jardim Europa",
        "street": "Rua Itália",
        "zipcode": "15703-184"
    },
    {
        "city": "Jales",
        "state": "SP",
        "district": "Jardim Trianon",
        "street": "Rua Joaquim Muniz Pereira",
        "zipcode": "15703-114"
    },
    {
        "city": "Jales",
        "state": "SP",
        "district": "Jardim América",
        "street": "Rua Joaquim Muniz Pereira",
        "zipcode": "15703-074"
    },
    {
        "city": "Jales",
        "state": "SP",
        "district": "Jardim América",
        "street": "Rua dos Pioneiros",
        "zipcode": "15703-092"
    },
    {
        "city": "Jales",
        "state": "SP",
        "district": "Jardim América",
        "street": "Rua dos Pioneiros",
        "zipcode": "15703-090"
    },
    {
        "city": "Jales",
        "state": "SP",
        "district": "Jardim Europa",
        "street": "Rua 2",
        "zipcode": "15703-194"
    },
    {
        "city": "Jales",
        "state": "SP",
        "district": "Loteamento Avenida",
        "street": "Rua 2",
        "zipcode": "15703-202"
    },
    {
        "city": "Jales",
        "state": "SP",
        "district": "Loteamento Avenida",
        "street": "Rua Vaticano",
        "zipcode": "15703-214"
    },
    {
        "city": "Jales",
        "state": "SP",
        "district": "Jardim Europa",
        "street": "Rua Vaticano",
        "zipcode": "15703-182"
    },
    {
        "city": "Jales",
        "state": "SP",
        "district": "Conjunto Habitacional Vereador Dercilio Joaquim Carvalho",
        "street": "Rua João Colombo",
        "zipcode": "15700-784"
    },
    {
        "city": "Jales",
        "state": "SP",
        "district": "Jardim Residencial Alvorada",
        "street": "Rua Ari Barros Rocha",
        "zipcode": "15707-474"
    },
    {
        "city": "Jales",
        "state": "SP",
        "district": "Jardim América",
        "street": "Rua Vicente Leporace",
        "zipcode": "15703-046"
    },
    {
        "city": "Jales",
        "state": "SP",
        "district": "Jardim Trianon",
        "street": "Rua Vicente Leporace",
        "zipcode": "15703-116"
    },
    {
        "city": "Jales",
        "state": "SP",
        "district": "Jardim América",
        "street": "Rua 17",
        "zipcode": "15703-086"
    },
    {
        "city": "Jales",
        "state": "SP",
        "district": "Jardim América",
        "street": "Rua 19",
        "zipcode": "15703-062"
    },
    {
        "city": "Jales",
        "state": "SP",
        "district": "Jardim América",
        "street": "Rua 19",
        "zipcode": "15703-084"
    },
    {
        "city": "Jales",
        "state": "SP",
        "district": "Vila União",
        "street": "Rua da Constituição",
        "zipcode": "15703-124"
    },
    {
        "city": "Jales",
        "state": "SP",
        "district": "Jardim Romero",
        "street": "Rua da Constituição",
        "zipcode": "15703-168"
    },
    {
        "city": "Jales",
        "state": "SP",
        "district": "Vila União",
        "street": "Rua Angelo Scapin",
        "zipcode": "15703-138"
    },
    {
        "city": "Jales",
        "state": "SP",
        "district": "Jardim Europa",
        "street": "Rua Lisboa",
        "zipcode": "15703-190"
    },
    {
        "city": "Jales",
        "state": "SP",
        "district": "Loteamento Avenida",
        "street": "Rua Lisboa",
        "zipcode": "15703-206"
    },
    {
        "city": "Jales",
        "state": "SP",
        "district": "Vila União",
        "street": "Rua João Antonio de Carvalho",
        "zipcode": "15703-134"
    },
    {
        "city": "Jales",
        "state": "SP",
        "district": "Jardim América",
        "street": "Rua Noruega",
        "zipcode": "15703-064"
    },
    {
        "city": "Jales",
        "state": "SP",
        "district": "Jardim América",
        "street": "Rua Deputado Guilherme Gomes",
        "zipcode": "15703-078"
    },
    {
        "city": "Jales",
        "state": "SP",
        "district": "Jardim Trianon",
        "street": "Rua Deputado Guilherme Gomes",
        "zipcode": "15703-110"
    },
    {
        "city": "Jales",
        "state": "SP",
        "district": "Jardim Trianon",
        "street": "Rua Apóstolo Paulo",
        "zipcode": "15703-106"
    },
    {
        "city": "Jales",
        "state": "SP",
        "district": "Jardim América",
        "street": "Rua José Neres dos Santos",
        "zipcode": "15703-052"
    },
    {
        "city": "Jales",
        "state": "SP",
        "district": "Jardim América",
        "street": "Rua Júlio de Mesquita Filho",
        "zipcode": "15703-058"
    },
    {
        "city": "Jales",
        "state": "SP",
        "district": "Jardim América",
        "street": "Rua 23",
        "zipcode": "15703-056"
    },
    {
        "city": "Jales",
        "state": "SP",
        "district": "Jardim Trianon",
        "street": "Rua do Estado",
        "zipcode": "15703-100"
    },
    {
        "city": "Jales",
        "state": "SP",
        "district": "Loteamento Avenida",
        "street": "Avenida Francisco Jales",
        "zipcode": "15703-200"
    },
    {
        "city": "Jales",
        "state": "SP",
        "district": "Jardim Romero",
        "street": "Avenida Francisco Jales",
        "zipcode": "15703-164"
    },
    {
        "city": "Jales",
        "state": "SP",
        "district": "Vila União",
        "street": "Rua São Thomé",
        "zipcode": "15703-126"
    },
    {
        "city": "Jales",
        "state": "SP",
        "district": "Jardim Trianon",
        "street": "Rua dos Bandeirantes",
        "zipcode": "15703-102"
    },
    {
        "city": "Jales",
        "state": "SP",
        "district": "Vila União",
        "street": "Rua Pedro Goldoni",
        "zipcode": "15703-136"
    },
    {
        "city": "Jales",
        "state": "SP",
        "district": "Jardim Nova Vida",
        "street": "Rua 9",
        "zipcode": "15703-222"
    },
    {
        "city": "Jales",
        "state": "SP",
        "district": "Vila Rodrigues",
        "street": "Rua 9",
        "zipcode": "15703-236"
    },
    {
        "city": "Jales",
        "state": "SP",
        "district": "Vila Rodrigues",
        "street": "Rua 9",
        "zipcode": "15703-234"
    },
    {
        "city": "Jales",
        "state": "SP",
        "district": "Jardim Monterey",
        "street": "Rua José Balbino dos Santos",
        "zipcode": "15703-322"
    },
    {
        "city": "Jales",
        "state": "SP",
        "district": "Jardim Monterey",
        "street": "Avenida da Integração",
        "zipcode": "15703-310"
    },
    {
        "city": "Jales",
        "state": "SP",
        "district": "Jardim Castelo",
        "street": "Avenida da Integração",
        "zipcode": "15703-306"
    },
    {
        "city": "Jales",
        "state": "SP",
        "district": "Jardim Nova Vida",
        "street": "Avenida da Integração",
        "zipcode": "15703-220"
    },
    {
        "city": "Jales",
        "state": "SP",
        "district": "Jardim Micena",
        "street": "Rua Itália",
        "zipcode": "15703-275"
    },
    {
        "city": "Jales",
        "state": "SP",
        "district": "Jardim Micena",
        "street": "Rua Iuguslávia",
        "zipcode": "15703-267"
    },
    {
        "city": "Jales",
        "state": "SP",
        "district": "Jardim Nova Vida",
        "street": "Rua Iuguslávia",
        "zipcode": "15703-221"
    },
    {
        "city": "Jales",
        "state": "SP",
        "district": "Vila Pinheiro",
        "street": "Rua dos Jacarandás",
        "zipcode": "15704-062"
    },
    {
        "city": "Jales",
        "state": "SP",
        "district": "Residencial Big Plaza",
        "street": "Rua Eliseu Soares de Carvalho",
        "zipcode": "15700-868"
    },
    {
        "city": "Jales",
        "state": "SP",
        "district": "Vila Santa Ignez",
        "street": "Rua Itália",
        "zipcode": "15703-296"
    },
    {
        "city": "Jales",
        "state": "SP",
        "district": "Residencial Big Plaza",
        "street": "Rua José Marconato",
        "zipcode": "15700-872"
    },
    {
        "city": "Jales",
        "state": "SP",
        "district": "Jardim Nova Vida",
        "street": "Rua Bélgica",
        "zipcode": "15703-226"
    },
    {
        "city": "Jales",
        "state": "SP",
        "district": "Jardim Monterey",
        "street": "Rua Ailton de Carvalho",
        "zipcode": "15703-320"
    },
    {
        "city": "Jales",
        "state": "SP",
        "district": "Jardim Pêgolo",
        "street": "Rua 1",
        "zipcode": "15704-006"
    },
    {
        "city": "Jales",
        "state": "SP",
        "district": "Vila Goldoni",
        "street": "Rua 2",
        "zipcode": "15703-261"
    },
    {
        "city": "Jales",
        "state": "SP",
        "district": "Vila Helizabeth",
        "street": "Rua 2",
        "zipcode": "15703-282"
    },
    {
        "city": "Jales",
        "state": "SP",
        "district": "Loteamento Fassa",
        "street": "Rua 2",
        "zipcode": "15703-252"
    },
    {
        "city": "Jales",
        "state": "SP",
        "district": "Residencial Big Plaza",
        "street": "Rua Professor Luis Carlos de Oliveira",
        "zipcode": "15700-886"
    },
    {
        "city": "Jales",
        "state": "SP",
        "district": "Conjunto Habitacional Vereador Santo Hernandes Argentina",
        "street": "Rua Elis Regina",
        "zipcode": "15700-838"
    },
    {
        "city": "Jales",
        "state": "SP",
        "district": "Residencial Big Plaza",
        "street": "Rua Ascindino Neres dos Santos",
        "zipcode": "15700-854"
    },
    {
        "city": "Jales",
        "state": "SP",
        "district": "Residencial Big Plaza",
        "street": "Rua Gilberto Viotto",
        "zipcode": "15700-876"
    },
    {
        "city": "Jales",
        "state": "SP",
        "district": "Vila Goldoni",
        "street": "Rua Cristo Rei",
        "zipcode": "15703-260"
    },
    {
        "city": "Jales",
        "state": "SP",
        "district": "Residencial Duana",
        "street": "Rua Vicência Calderone Guisso",
        "zipcode": "15706-306"
    },
    {
        "city": "Jales",
        "state": "SP",
        "district": "IV Centenário",
        "street": "Rua Santos Dumont",
        "zipcode": "15704-034"
    },
    {
        "city": "Jales",
        "state": "SP",
        "district": "Jardim Pêgolo",
        "street": "Rua 20",
        "zipcode": "15704-010"
    },
    {
        "city": "Jales",
        "state": "SP",
        "district": "Vila Pinheiro",
        "street": "Rua dos Coqueiros",
        "zipcode": "15704-054"
    },
    {
        "city": "Jales",
        "state": "SP",
        "district": "Jardim Pêgolo",
        "street": "Rua Aracruz",
        "zipcode": "15704-012"
    },
    {
        "city": "Jales",
        "state": "SP",
        "district": "Jardim Pêgolo",
        "street": "Avenida Maria Jalles",
        "zipcode": "15704-000"
    },
    {
        "city": "Jales",
        "state": "SP",
        "district": "IV Centenário",
        "street": "Avenida Maria Jalles",
        "zipcode": "15704-030"
    },
    {
        "city": "Jales",
        "state": "SP",
        "district": "Vila Pinheiro",
        "street": "Rua dos Guatambus",
        "zipcode": "15704-060"
    },
    {
        "city": "Jales",
        "state": "SP",
        "district": "Jardim Monterey",
        "street": "Rua Vicente Paulo P. Gonçalves",
        "zipcode": "15703-312"
    },
    {
        "city": "Jales",
        "state": "SP",
        "district": "Parque Industrial I",
        "street": "Travessa H",
        "zipcode": "15703-348"
    },
    {
        "city": "Jales",
        "state": "SP",
        "district": "Parque Industrial I",
        "street": "Travessa Anastácio Conde",
        "zipcode": "15703-346"
    },
    {
        "city": "Jales",
        "state": "SP",
        "district": "IV Centenário",
        "street": "Rua das Palmeiras",
        "zipcode": "15704-049"
    },
    {
        "city": "Jales",
        "state": "SP",
        "district": "IV Centenário",
        "street": "Rua São Paulo",
        "zipcode": "15704-042"
    },
    {
        "city": "Jales",
        "state": "SP",
        "district": "Jardim Castelo",
        "street": "Rua Bom Pastor",
        "zipcode": "15703-302"
    },
    {
        "city": "Jales",
        "state": "SP",
        "district": "Parque Industrial I",
        "street": "Travessa C",
        "zipcode": "15703-358"
    },
    {
        "city": "Jales",
        "state": "SP",
        "district": "Jardim Castelo",
        "street": "Rua Nova York",
        "zipcode": "15703-300"
    },
    {
        "city": "Jales",
        "state": "SP",
        "district": "Jardim do Bosque",
        "street": "Avenida Sebastião Cândido Quintela",
        "zipcode": "15703-374"
    },
    {
        "city": "Jales",
        "state": "SP",
        "district": "Jardim Pêgolo",
        "street": "Rua XV de Novembro",
        "zipcode": "15704-016"
    },
    {
        "city": "Jales",
        "state": "SP",
        "district": "Vila São José",
        "street": "Rua XV de Novembro",
        "zipcode": "15704-020"
    },
    {
        "city": "Jales",
        "state": "SP",
        "district": "Jardim do Bosque",
        "street": "Avenida José Rodrigues",
        "zipcode": "15703-372"
    },
    {
        "city": "Jales",
        "state": "SP",
        "district": "Jardim do Bosque",
        "street": "Rua Júlia Pereira de Lima",
        "zipcode": "15703-392"
    },
    {
        "city": "Jales",
        "state": "SP",
        "district": "Jardim Micena",
        "street": "Rua João Gonçalves de Freitas",
        "zipcode": "15703-277"
    },
    {
        "city": "Jales",
        "state": "SP",
        "district": "Jardim Monterey",
        "street": "Rua João Mariano Freitas Filho",
        "zipcode": "15703-324"
    },
    {
        "city": "Jales",
        "state": "SP",
        "district": "IV Centenário",
        "street": "Rua Cinturão Verde",
        "zipcode": "15704-032"
    },
    {
        "city": "Jales",
        "state": "SP",
        "district": "IV Centenário",
        "street": "Rua Santo Expedito",
        "zipcode": "15704-044"
    },
    {
        "city": "Jales",
        "state": "SP",
        "district": "Loteamento Fassa",
        "street": "Rua França",
        "zipcode": "15703-250"
    },
    {
        "city": "Jales",
        "state": "SP",
        "district": "Parque Industrial I",
        "street": "Travessa B",
        "zipcode": "15703-360"
    },
    {
        "city": "Jales",
        "state": "SP",
        "district": "Parque das Flores",
        "street": "Avenida Magnólia",
        "zipcode": "15703-423"
    },
    {
        "city": "Jales",
        "state": "SP",
        "district": "Parque das Flores",
        "street": "Avenida Marginal Antônio Stafuzza",
        "zipcode": "15703-438"
    },
    {
        "city": "Jales",
        "state": "SP",
        "district": "Vila Micena",
        "street": "Rua França",
        "zipcode": "15703-256"
    },
    {
        "city": "Jales",
        "state": "SP",
        "district": "Residencial Maria Silveira",
        "street": "Rua 8",
        "zipcode": "15704-132"
    },
    {
        "city": "Jales",
        "state": "SP",
        "district": "Residencial Maria Silveira",
        "street": "Rua 10",
        "zipcode": "15704-130"
    },
    {
        "city": "Jales",
        "state": "SP",
        "district": "Vila Norma",
        "street": "Rua 10",
        "zipcode": "15704-098"
    },
    {
        "city": "Jales",
        "state": "SP",
        "district": "Jardim Maria Paula",
        "street": "Rua 10",
        "zipcode": "15704-100"
    },
    {
        "city": "Jales",
        "state": "SP",
        "district": "Jardim São Jorge",
        "street": "Rua Santa Rosa",
        "zipcode": "15704-206"
    },
    {
        "city": "Jales",
        "state": "SP",
        "district": "Vila Ines",
        "street": "Rua Itália",
        "zipcode": "15704-230"
    },
    {
        "city": "Jales",
        "state": "SP",
        "district": "Jardim São Jorge",
        "street": "Rua Itapura",
        "zipcode": "15704-198"
    },
    {
        "city": "Jales",
        "state": "SP",
        "district": "Jardim Brasil",
        "street": "Rua Deputado Osvaldo de Carvalho",
        "zipcode": "15704-244"
    },
    {
        "city": "Jales",
        "state": "SP",
        "district": "Vila Norma",
        "street": "Rua dos Pinheiros",
        "zipcode": "15704-080"
    },
    {
        "city": "Jales",
        "state": "SP",
        "district": "Jardim Maria Paula",
        "street": "Rua 1",
        "zipcode": "15704-108"
    },
    {
        "city": "Jales",
        "state": "SP",
        "district": "Jardim Bom Jesus",
        "street": "Rua 1",
        "zipcode": "15704-176"
    },
    {
        "city": "Jales",
        "state": "SP",
        "district": "Vila Ines",
        "street": "Rua 1",
        "zipcode": "15704-220"
    },
    {
        "city": "Jales",
        "state": "SP",
        "district": "Jardim São Jorge",
        "street": "Rua 2",
        "zipcode": "15704-192"
    },
    {
        "city": "Jales",
        "state": "SP",
        "district": "Vila Ines",
        "street": "Rua 2",
        "zipcode": "15704-224"
    },
    {
        "city": "Jales",
        "state": "SP",
        "district": "Jardim Bom Jesus",
        "street": "Avenida Salustiano Pupim",
        "zipcode": "15704-182"
    },
    {
        "city": "Jales",
        "state": "SP",
        "district": "Jardim Bom Jesus",
        "street": "Rua dos Coqueiros",
        "zipcode": "15704-166"
    },
    {
        "city": "Jales",
        "state": "SP",
        "district": "Residencial Maria Silveira",
        "street": "Rua dos Coqueiros",
        "zipcode": "15704-122"
    },
    {
        "city": "Jales",
        "state": "SP",
        "district": "Jardim Morumbi",
        "street": "Rua Antonio Pivoto",
        "zipcode": "15704-148"
    },
    {
        "city": "Jales",
        "state": "SP",
        "district": "Vila Pinheiro",
        "street": "Rua das Arapongas",
        "zipcode": "15704-064"
    },
    {
        "city": "Jales",
        "state": "SP",
        "district": "Vila Norma",
        "street": "Rua dos Guatambus",
        "zipcode": "15704-088"
    },
    {
        "city": "Jales",
        "state": "SP",
        "district": "Jardim Brasil",
        "street": "Rua Guido Parminonde",
        "zipcode": "15704-240"
    },
    {
        "city": "Jales",
        "state": "SP",
        "district": "Jardim Morumbi",
        "street": "Rua Bom Jesus",
        "zipcode": "15704-144"
    },
    {
        "city": "Jales",
        "state": "SP",
        "district": "Vila Ines",
        "street": "Rua Bom Pastor",
        "zipcode": "15704-236"
    },
    {
        "city": "Jales",
        "state": "SP",
        "district": "Vila Pinheiro",
        "street": "Rua dos Buritis",
        "zipcode": "15704-066"
    },
    {
        "city": "Jales",
        "state": "SP",
        "district": "Vila Ines",
        "street": "Rua Nova York",
        "zipcode": "15704-222"
    },
    {
        "city": "Jales",
        "state": "SP",
        "district": "Vila Norma",
        "street": "Rua das Embuias",
        "zipcode": "15704-086"
    },
    {
        "city": "Jales",
        "state": "SP",
        "district": "Jardim Maria Paula",
        "street": "Rua das Embuias",
        "zipcode": "15704-118"
    },
    {
        "city": "Jales",
        "state": "SP",
        "district": "Residencial Maria Silveira",
        "street": "Rua da Fraternidade",
        "zipcode": "15704-128"
    },
    {
        "city": "Jales",
        "state": "SP",
        "district": "Jardim Bom Jesus",
        "street": "Rua dos Tamboris",
        "zipcode": "15704-168"
    },
    {
        "city": "Jales",
        "state": "SP",
        "district": "Jardim São Jorge",
        "street": "Rua João Gonçalves de Freitas",
        "zipcode": "15704-214"
    },
    {
        "city": "Jales",
        "state": "SP",
        "district": "Jardim Bom Jesus",
        "street": "Rua da Liberdade",
        "zipcode": "15704-178"
    },
    {
        "city": "Jales",
        "state": "SP",
        "district": "Jardim Morumbi",
        "street": "Rua da Liberdade",
        "zipcode": "15704-142"
    },
    {
        "city": "Jales",
        "state": "SP",
        "district": "Jardim Brasil",
        "street": "Rua Manaus",
        "zipcode": "15704-246"
    },
    {
        "city": "Jales",
        "state": "SP",
        "district": "Residencial Maria Silveira",
        "street": "Rua Esperança",
        "zipcode": "15704-124"
    },
    {
        "city": "Jales",
        "state": "SP",
        "district": "Jardim Bom Jesus",
        "street": "Rua Esperança",
        "zipcode": "15704-164"
    },
    {
        "city": "Jales",
        "state": "SP",
        "district": "Jardim São Jorge",
        "street": "Rua Espírito Santo",
        "zipcode": "15704-202"
    },
    {
        "city": "Jales",
        "state": "SP",
        "district": "Jardim Maria Paula",
        "street": "Rua dos Estudantes",
        "zipcode": "15704-110"
    },
    {
        "city": "Jales",
        "state": "SP",
        "district": "Vila Norma",
        "street": "Rua dos Estudantes",
        "zipcode": "15704-092"
    },
    {
        "city": "Jales",
        "state": "SP",
        "district": "Jardim Morumbi",
        "street": "Rua Flávio Ferraz",
        "zipcode": "15704-150"
    },
    {
        "city": "Jales",
        "state": "SP",
        "district": "Jardim São Jorge",
        "street": "Rua Fortaleza",
        "zipcode": "15704-216"
    },
    {
        "city": "Jales",
        "state": "SP",
        "district": "Jardim São Jorge",
        "street": "Rua Santa Clara",
        "zipcode": "15704-204"
    },
    {
        "city": "Jales",
        "state": "SP",
        "district": "Jardim Pires de Andrade",
        "street": "Rua 10",
        "zipcode": "15706-014"
    },
    {
        "city": "Jales",
        "state": "SP",
        "district": "Jardim Oiti",
        "street": "Rua dos Cravos",
        "zipcode": "15706-062"
    },
    {
        "city": "Jales",
        "state": "SP",
        "district": "Jardim Eldorado",
        "street": "Avenida Roque Viola",
        "zipcode": "15704-316"
    },
    {
        "city": "Jales",
        "state": "SP",
        "district": "Alto do Ipê",
        "street": "Rua dos Ipês",
        "zipcode": "15706-038"
    },
    {
        "city": "Jales",
        "state": "SP",
        "district": "Aeroporto",
        "street": "Rua Jahu",
        "zipcode": "15704-474"
    },
    {
        "city": "Jales",
        "state": "SP",
        "district": "Jardim Tangará",
        "street": "Rua São José",
        "zipcode": "15704-282"
    },
    {
        "city": "Jales",
        "state": "SP",
        "district": "Vila Talma",
        "street": "Praça Olympio Victorasso",
        "zipcode": "15704-266"
    },
    {
        "city": "Jales",
        "state": "SP",
        "district": "Jardim Eldorado",
        "street": "Rua Deputado Osvaldo de Carvalho",
        "zipcode": "15704-328"
    },
    {
        "city": "Jales",
        "state": "SP",
        "district": "Jardim Oiti",
        "street": "Rua Otávio Graziani",
        "zipcode": "15706-078"
    },
    {
        "city": "Jales",
        "state": "SP",
        "district": "Jardim Oiti",
        "street": "Rua das Primaveras",
        "zipcode": "15706-072"
    },
    {
        "city": "Jales",
        "state": "SP",
        "district": "Jardim Brasil",
        "street": "Rua Relíquias de Miranda",
        "zipcode": "15704-254"
    },
    {
        "city": "Jales",
        "state": "SP",
        "district": "Aeroporto",
        "street": "Rua 14 Bis",
        "zipcode": "15704-476"
    },
    {
        "city": "Jales",
        "state": "SP",
        "district": "Jardim Guarani",
        "street": "Rua Benedito Arthur Peresi",
        "zipcode": "15704-346"
    },
    {
        "city": "Jales",
        "state": "SP",
        "district": "Parque São Bernardo",
        "street": "Rua Benedito França Vieira",
        "zipcode": "15704-386"
    },
    {
        "city": "Jales",
        "state": "SP",
        "district": "Jardim Tangará",
        "street": "Rua dos Rubis",
        "zipcode": "15704-294"
    },
    {
        "city": "Jales",
        "state": "SP",
        "district": "Jardim São Francisco de Assis",
        "street": "Avenida Salustiano Pupim",
        "zipcode": "15704-410"
    },
    {
        "city": "Jales",
        "state": "SP",
        "district": "Jardim Soraia",
        "street": "Avenida Salustiano Pupim",
        "zipcode": "15704-460"
    },
    {
        "city": "Jales",
        "state": "SP",
        "district": "Jardim Tangará",
        "street": "Avenida Cosme e Damião",
        "zipcode": "15704-280"
    },
    {
        "city": "Jales",
        "state": "SP",
        "district": "Jardim Eldorado",
        "street": "Avenida Aleixo Basilio Mendes",
        "zipcode": "15704-320"
    },
    {
        "city": "Jales",
        "state": "SP",
        "district": "Jardim Tangará",
        "street": "Rua Altino Antonio de Oliveira",
        "zipcode": "15704-290"
    },
    {
        "city": "Jales",
        "state": "SP",
        "district": "Jardim do Bosque",
        "street": "Rua Antonio Ludovico Botton",
        "zipcode": "15703-384"
    },
    {
        "city": "Jales",
        "state": "SP",
        "district": "Jardim do Bosque",
        "street": "Córrego Tamboril",
        "zipcode": "15703-386"
    },
    {
        "city": "Jales",
        "state": "SP",
        "district": "Parque das Flores",
        "street": "Rua Fernando Barrientos Calderon",
        "zipcode": "15703-420"
    },
    {
        "city": "Jales",
        "state": "SP",
        "district": "Jardim Residencial Alvorada",
        "street": "Rua Ariste Sartori",
        "zipcode": "15707-484"
    },
    {
        "city": "Jales",
        "state": "SP",
        "district": "Jardim Eldorado",
        "street": "Rua Altino Antonio de Oliveira",
        "zipcode": "15704-332"
    },
    {
        "city": "Jales",
        "state": "SP",
        "district": "Jardim Oiti",
        "street": "Rua das Violetas",
        "zipcode": "15706-064"
    },
    {
        "city": "Jales",
        "state": "SP",
        "district": "Vila Stafusa",
        "street": "Rua das Violetas",
        "zipcode": "15706-050"
    },
    {
        "city": "Jales",
        "state": "SP",
        "district": "Jardim Municipal",
        "street": "Rua José de Souza",
        "zipcode": "15704-500"
    },
    {
        "city": "Jales",
        "state": "SP",
        "district": "Aeroporto",
        "street": "Avenida Guilherme Soncini",
        "zipcode": "15704-470"
    },
    {
        "city": "Jales",
        "state": "SP",
        "district": "Jardim Tangará",
        "street": "Avenida Guilherme Soncini",
        "zipcode": "15704-296"
    },
    {
        "city": "Jales",
        "state": "SP",
        "district": "Jardim Maria Paula",
        "street": "Rua dos Tamboris",
        "zipcode": "15704-116"
    },
    {
        "city": "Jales",
        "state": "SP",
        "district": "Vila São José",
        "street": "Rua Vereador João do Carmo Lisboa",
        "zipcode": "15704-024"
    },
    {
        "city": "Jales",
        "state": "SP",
        "district": "Jardim do Bosque",
        "street": "Rua Fernando Barrientos Calderon",
        "zipcode": "15703-414"
    },
    {
        "city": "Jales",
        "state": "SP",
        "district": "Jardim Eldorado",
        "street": "Rua Hilochi Fedichina",
        "zipcode": "15704-336"
    },
    {
        "city": "Jales",
        "state": "SP",
        "district": "Aeroporto",
        "street": "Rua Idair Lopes",
        "zipcode": "15704-472"
    },
    {
        "city": "Jales",
        "state": "SP",
        "district": "Jardim Oiti",
        "street": "Rua das Palmeiras",
        "zipcode": "15706-079"
    },
    {
        "city": "Jales",
        "state": "SP",
        "district": "Parque São Bernardo",
        "street": "Rua Paschoal Bernardo",
        "zipcode": "15704-392"
    },
    {
        "city": "Jales",
        "state": "SP",
        "district": "Vila Talma",
        "street": "Rua Santa Tereza",
        "zipcode": "15704-272"
    },
    {
        "city": "Jales",
        "state": "SP",
        "district": "Jardim São Francisco de Assis",
        "street": "Rua Santa Luzia",
        "zipcode": "15704-402"
    },
    {
        "city": "Jales",
        "state": "SP",
        "district": "Jardim Oiti",
        "street": "Rua das Rosas",
        "zipcode": "15706-060"
    },
    {
        "city": "Jales",
        "state": "SP",
        "district": "Jardim Tangará",
        "street": "Rua José Evaristo Scaramuza",
        "zipcode": "15704-298"
    },
    {
        "city": "Jales",
        "state": "SP",
        "district": "Jardim Eldorado",
        "street": "Rua José Evaristo Scaramuza",
        "zipcode": "15704-310"
    },
    {
        "city": "Jales",
        "state": "SP",
        "district": "Parque São Bernardo",
        "street": "Rua Leonina Cabral Graziani",
        "zipcode": "15704-388"
    },
    {
        "city": "Jales",
        "state": "SP",
        "district": "Parque São Bernardo",
        "street": "Rua Liberato Perfetto",
        "zipcode": "15704-382"
    },
    {
        "city": "Jales",
        "state": "SP",
        "district": "Alto do Ipê",
        "street": "Rua dos Cedros",
        "zipcode": "15706-032"
    },
    {
        "city": "Jales",
        "state": "SP",
        "district": "Jardim Municipal",
        "street": "Rua Celso Luiz Abra",
        "zipcode": "15704-498"
    },
    {
        "city": "Jales",
        "state": "SP",
        "district": "Alto do Ipê",
        "street": "Rua dos Eucaliptos",
        "zipcode": "15706-034"
    },
    {
        "city": "Jales",
        "state": "SP",
        "district": "Jardim São Francisco de Assis",
        "street": "Rua Tucumã",
        "zipcode": "15704-408"
    },
    {
        "city": "Jales",
        "state": "SP",
        "district": "Jardim Municipal",
        "street": "Rua dos Aviadores",
        "zipcode": "15704-490"
    },
    {
        "city": "Jales",
        "state": "SP",
        "district": "Jardim Guarani",
        "street": "Rua Arlindo Correa Junior",
        "zipcode": "15704-340"
    },
    {
        "city": "Jales",
        "state": "SP",
        "district": "Jardim São Francisco de Assis",
        "street": "Rua Assaré",
        "zipcode": "15704-412"
    },
    {
        "city": "Jales",
        "state": "SP",
        "district": "Jardim Eldorado",
        "street": "Avenida Augusto de Menezes",
        "zipcode": "15704-326"
    },
    {
        "city": "Jales",
        "state": "SP",
        "district": "Jardim Guarani",
        "street": "Avenida Augusto de Menezes",
        "zipcode": "15704-342"
    },
    {
        "city": "Jales",
        "state": "SP",
        "district": "Jardim Municipal",
        "street": "Rua Augusto Lopes",
        "zipcode": "15704-506"
    },
    {
        "city": "Jales",
        "state": "SP",
        "district": "Vila Talma",
        "street": "Rua Pedro Dutra da Silva",
        "zipcode": "15704-268"
    },
    {
        "city": "Jales",
        "state": "SP",
        "district": "Jardim Oiti",
        "street": "Rua dos Jasmins",
        "zipcode": "15706-066"
    },
    {
        "city": "Jales",
        "state": "SP",
        "district": "Vila Santa Izabel",
        "street": "Rua Isolinda Pimentel Lopes",
        "zipcode": "15706-190"
    },
    {
        "city": "Jales",
        "state": "SP",
        "district": "Chácaras Alto do Marimbondo",
        "street": "Rua Itararé",
        "zipcode": "15706-218"
    },
    {
        "city": "Jales",
        "state": "SP",
        "district": "Vila Santa Izabel",
        "street": "Avenida Joaquina Clara de Jesus",
        "zipcode": "15706-202"
    },
    {
        "city": "Jales",
        "state": "SP",
        "district": "Residencial São Lucas",
        "street": "Rua dos Poetas",
        "zipcode": "15706-096"
    },
    {
        "city": "Jales",
        "state": "SP",
        "district": "Vila Santa Izabel",
        "street": "Rua Joaquim Elias de Oliveira",
        "zipcode": "15706-192"
    },
    {
        "city": "Jales",
        "state": "SP",
        "district": "Chácaras Alto do Marimbondo",
        "street": "Rua dos Sabiás",
        "zipcode": "15706-210"
    },
    {
        "city": "Jales",
        "state": "SP",
        "district": "Chácaras Bandeirantes",
        "street": "Rua dos Sabiás",
        "zipcode": "15706-254"
    },
    {
        "city": "Jales",
        "state": "SP",
        "district": "Vila Nossa Senhora Aparecida da Boa Vista",
        "street": "Rua Viena",
        "zipcode": "15706-284"
    },
    {
        "city": "Jales",
        "state": "SP",
        "district": "Residencial São Lucas",
        "street": "Rua Doutor Eduardo Ferraz Ribeiro do Valle",
        "zipcode": "15706-088"
    },
    {
        "city": "Jales",
        "state": "SP",
        "district": "Jardim Paulo VI",
        "street": "Rua 11",
        "zipcode": "15706-402"
    },
    {
        "city": "Jales",
        "state": "SP",
        "district": "Vila Nossa Senhora Aparecida da Boa Vista",
        "street": "Rua 24",
        "zipcode": "15706-280"
    },
    {
        "city": "Jales",
        "state": "SP",
        "district": "Jardim Paulo VI",
        "street": "Rua 24",
        "zipcode": "15706-400"
    },
    {
        "city": "Jales",
        "state": "SP",
        "district": "Vila Maria",
        "street": "Rua 24",
        "zipcode": "15706-398"
    },
    {
        "city": "Jales",
        "state": "SP",
        "district": "Jardim Paulo VI",
        "street": "Rua 26",
        "zipcode": "15706-410"
    },
    {
        "city": "Jales",
        "state": "SP",
        "district": "Residencial São Lucas",
        "street": "Rua dos Compositores",
        "zipcode": "15706-090"
    },
    {
        "city": "Jales",
        "state": "SP",
        "district": "Jardim das Palmeiras",
        "street": "Rua Manoel Garcia Cano",
        "zipcode": "15706-180"
    },
    {
        "city": "Jales",
        "state": "SP",
        "district": "Chácara Bela Vista",
        "street": "Avenida Maria Jalles",
        "zipcode": "15706-234"
    },
    {
        "city": "Jales",
        "state": "SP",
        "district": "Vila Nascimento",
        "street": "Rua Otávio Graziani",
        "zipcode": "15706-042"
    },
    {
        "city": "Jales",
        "state": "SP",
        "district": "Jardim Tangará",
        "street": "Rua dos Brilhantes",
        "zipcode": "15704-300"
    },
    {
        "city": "Jales",
        "state": "SP",
        "district": "Jardim Pires de Andrade",
        "street": "Rua João Berjas Ortega",
        "zipcode": "15706-012"
    },
    {
        "city": "Jales",
        "state": "SP",
        "district": "Chácaras Bandeirantes",
        "street": "Avenida Maria Jalles",
        "zipcode": "15706-252"
    },
    {
        "city": "Jales",
        "state": "SP",
        "district": "Jardim Pêgolo II",
        "street": "Rua Pedro Pêgolo",
        "zipcode": "15706-266"
    },
    {
        "city": "Jales",
        "state": "SP",
        "district": "Jardim Primavera",
        "street": "Rua José Costa",
        "zipcode": "15706-154"
    },
    {
        "city": "Jales",
        "state": "SP",
        "district": "Residencial São Lucas",
        "street": "Avenida São Lucas",
        "zipcode": "15706-086"
    },
    {
        "city": "Jales",
        "state": "SP",
        "district": "Jardim Primavera",
        "street": "Rua João Batista Curtolo",
        "zipcode": "15706-152"
    },
    {
        "city": "Jales",
        "state": "SP",
        "district": "Jardim Paulo VI",
        "street": "Rua Roma",
        "zipcode": "15706-408"
    },
    {
        "city": "Jales",
        "state": "SP",
        "district": "Chácara Bela Vista",
        "street": "Rua Braz Polizio",
        "zipcode": "15706-230"
    },
    {
        "city": "Jales",
        "state": "SP",
        "district": "Jardim Pires de Andrade",
        "street": "Rua Adelino Lungato",
        "zipcode": "15706-004"
    },
    {
        "city": "Jales",
        "state": "SP",
        "district": "FACIP",
        "street": "Rua Geraldo de Almeida",
        "zipcode": "15704-442"
    },
    {
        "city": "Jales",
        "state": "SP",
        "district": "Vila Santa Izabel",
        "street": "Rua Braz Polizio",
        "zipcode": "15706-198"
    },
    {
        "city": "Jales",
        "state": "SP",
        "district": "Vila Nossa Senhora Aparecida da Boa Vista",
        "street": "Rua Milão",
        "zipcode": "15706-292"
    },
    {
        "city": "Jales",
        "state": "SP",
        "district": "Chácaras Bandeirantes",
        "street": "Travessa Jutai",
        "zipcode": "15706-258"
    },
    {
        "city": "Jales",
        "state": "SP",
        "district": "Vila Nossa Senhora Aparecida da Boa Vista",
        "street": "Rua Madri",
        "zipcode": "15706-320"
    },
    {
        "city": "Jales",
        "state": "SP",
        "district": "Vila Nossa Senhora Aparecida da Boa Vista",
        "street": "Rua Madri",
        "zipcode": "15706-294"
    },
    {
        "city": "Jales",
        "state": "SP",
        "district": "Vila Santa Izabel",
        "street": "Rua Deodato Batista Taveira",
        "zipcode": "15706-196"
    },
    {
        "city": "Jales",
        "state": "SP",
        "district": "Jardim das Palmeiras",
        "street": "Rua João Valente",
        "zipcode": "15706-174"
    },
    {
        "city": "Jales",
        "state": "SP",
        "district": "Jardim das Palmeiras",
        "street": "Rua Julieta de Almeida Vieira",
        "zipcode": "15706-176"
    },
    {
        "city": "Jales",
        "state": "SP",
        "district": "Chácaras Alto do Marimbondo",
        "street": "Rua Juriti",
        "zipcode": "15706-214"
    },
    {
        "city": "Jales",
        "state": "SP",
        "district": "Chácaras Alto do Marimbondo",
        "street": "Rua Juvêncio Pereira de Brito",
        "zipcode": "15706-212"
    },
    {
        "city": "Jales",
        "state": "SP",
        "district": "Jardim Pêgolo II",
        "street": "Rua Erminia Mazuco Pêgolo",
        "zipcode": "15706-260"
    },
    {
        "city": "Jales",
        "state": "SP",
        "district": "Vila Nossa Senhora Aparecida da Boa Vista",
        "street": "Rua Espanha",
        "zipcode": "15706-290"
    },
    {
        "city": "Jales",
        "state": "SP",
        "district": "Residencial São Lucas",
        "street": "Rua Figueira Grande",
        "zipcode": "15706-082"
    },
    {
        "city": "Jales",
        "state": "SP",
        "district": "Jardim Paulo VI",
        "street": "Rua Belém",
        "zipcode": "15706-414"
    },
    {
        "city": "Jales",
        "state": "SP",
        "district": "Vila Santa Izabel",
        "street": "Rua Arnold Batista Taveira",
        "zipcode": "15706-204"
    },
    {
        "city": "Jales",
        "state": "SP",
        "district": "Chácara Bela Vista",
        "street": "Rua Assunção",
        "zipcode": "15706-236"
    },
    {
        "city": "Jales",
        "state": "SP",
        "district": "Chácaras Alto do Marimbondo",
        "street": "Rua Mamoré",
        "zipcode": "15706-216"
    },
    {
        "city": "Jales",
        "state": "SP",
        "district": "Jardim Arapuã",
        "street": "Rua Turuã",
        "zipcode": "15707-142"
    },
    {
        "city": "Jales",
        "state": "SP",
        "district": "Conjunto Habitacional Jardim Arapuã",
        "street": "Rua Castro Alves",
        "zipcode": "15707-188"
    },
    {
        "city": "Jales",
        "state": "SP",
        "district": "Jardim Samambaia",
        "street": "Alameda dos Ipês",
        "zipcode": "15700-208"
    },
    {
        "city": "Jales",
        "state": "SP",
        "district": "Jardim Ipiranga",
        "street": "Rua Ipiranga",
        "zipcode": "15707-032"
    },
    {
        "city": "Jales",
        "state": "SP",
        "district": "Jardim Santo Expedito",
        "street": "Rua Jamaica",
        "zipcode": "15707-066"
    },
    {
        "city": "Jales",
        "state": "SP",
        "district": "Jardim Arapuã",
        "street": "Rua Jorge Amado",
        "zipcode": "15707-160"
    },
    {
        "city": "Jales",
        "state": "SP",
        "district": "Jardim Arapuã",
        "street": "Travessa Pitu",
        "zipcode": "15707-156"
    },
    {
        "city": "Jales",
        "state": "SP",
        "district": "Jardim Santo Expedito",
        "street": "Rua Irde Aranda Targa",
        "zipcode": "15707-064"
    },
    {
        "city": "Jales",
        "state": "SP",
        "district": "Jardim Santo Expedito",
        "street": "Rua Venezuela",
        "zipcode": "15707-086"
    },
    {
        "city": "Jales",
        "state": "SP",
        "district": "Conjunto Habitacional Jardim Arapuã",
        "street": "Rua Di Cavalcanti",
        "zipcode": "15707-182"
    },
    {
        "city": "Jales",
        "state": "SP",
        "district": "Conjunto Habitacional Jardim Arapuã",
        "street": "Rua Dias Gomes",
        "zipcode": "15707-180"
    },
    {
        "city": "Jales",
        "state": "SP",
        "district": "Conjunto Habitacional José Antonio Caparroz Bogaz II",
        "street": "Rua 14",
        "zipcode": "15707-644"
    },
    {
        "city": "Jales",
        "state": "SP",
        "district": "Jardim Novo Mundo",
        "street": "Rua 17",
        "zipcode": "15706-432"
    },
    {
        "city": "Jales",
        "state": "SP",
        "district": "Jardim Santo Expedito",
        "street": "Rua Colômbia",
        "zipcode": "15707-082"
    },
    {
        "city": "Jales",
        "state": "SP",
        "district": "Jardim Santo Expedito",
        "street": "Avenida Arapuã",
        "zipcode": "15707-100"
    },
    {
        "city": "Jales",
        "state": "SP",
        "district": "Jardim Zaffani",
        "street": "Rua Araxá",
        "zipcode": "15707-118"
    },
    {
        "city": "Jales",
        "state": "SP",
        "district": "Jardim Santo Expedito",
        "street": "Rua Argentina",
        "zipcode": "15707-090"
    },
    {
        "city": "Jales",
        "state": "SP",
        "district": "Jardim Santo Expedito",
        "street": "Rua Peru",
        "zipcode": "15707-078"
    },
    {
        "city": "Jales",
        "state": "SP",
        "district": "Conjunto Habitacional Doutor Pedro Nogueira",
        "street": "Avenida Vitória Brasil",
        "zipcode": "15707-320"
    },
    {
        "city": "Jales",
        "state": "SP",
        "district": "Conjunto Habitacional Jardim Arapuã",
        "street": "Avenida Lima Barreto",
        "zipcode": "15707-172"
    },
    {
        "city": "Jales",
        "state": "SP",
        "district": "Conjunto Habitacional José Antonio Caparroz Bogaz II",
        "street": "Rua Rio Branco",
        "zipcode": "15707-620"
    },
    {
        "city": "Jales",
        "state": "SP",
        "district": "Jardim Novo Mundo",
        "street": "Rua Roma",
        "zipcode": "15706-422"
    },
    {
        "city": "Jales",
        "state": "SP",
        "district": "Jardim Santo Expedito",
        "street": "Rua Bolívia",
        "zipcode": "15707-074"
    },
    {
        "city": "Jales",
        "state": "SP",
        "district": "Conjunto Habitacional José Antonio Caparroz Bogaz II",
        "street": "Avenida Brasília",
        "zipcode": "15707-638"
    },
    {
        "city": "Jales",
        "state": "SP",
        "district": "Conjunto Habitacional Nelzia Stellutte",
        "street": "Rua Tietê",
        "zipcode": "15704-540"
    },
    {
        "city": "Jales",
        "state": "SP",
        "district": "Conjunto Habitacional Renascer",
        "street": "Rua União",
        "zipcode": "15704-518"
    },
    {
        "city": "Jales",
        "state": "SP",
        "district": "Jardim Santo Expedito",
        "street": "Rua México",
        "zipcode": "15707-092"
    },
    {
        "city": "Jales",
        "state": "SP",
        "district": "Jardim Santo Expedito",
        "street": "Avenida Nações Unidas",
        "zipcode": "15707-062"
    },
    {
        "city": "Jales",
        "state": "SP",
        "district": "Jardim Ipiranga",
        "street": "Rua Novo Horizonte",
        "zipcode": "15707-034"
    },
    {
        "city": "Jales",
        "state": "SP",
        "district": "Jardim Santo Expedito",
        "street": "Rua Novo Horizonte",
        "zipcode": "15707-102"
    },
    {
        "city": "Jales",
        "state": "SP",
        "district": "Conjunto Habitacional José Antonio Caparroz Bogaz II",
        "street": "Rua Gilorde Eumene Garzella",
        "zipcode": "15707-654"
    },
    {
        "city": "Jales",
        "state": "SP",
        "district": "Jardim Pires de Andrade",
        "street": "Rua Maria Aparecida Brocco Muniz",
        "zipcode": "15706-000"
    },
    {
        "city": "Jales",
        "state": "SP",
        "district": "Jardim Santo Expedito",
        "street": "Rua dos Girassóis",
        "zipcode": "15707-094"
    },
    {
        "city": "Jales",
        "state": "SP",
        "district": "Jardim Paulista",
        "street": "Rua Goiás",
        "zipcode": "15700-306"
    },
    {
        "city": "Jales",
        "state": "SP",
        "district": "Jardim Zaffani",
        "street": "Rua Xingu",
        "zipcode": "15707-120"
    },
    {
        "city": "Jales",
        "state": "SP",
        "district": "Jardim Santo Expedito",
        "street": "Rua Chile",
        "zipcode": "15707-068"
    },
    {
        "city": "Jales",
        "state": "SP",
        "district": "Jardim Santo Expedito",
        "street": "Rua Equador",
        "zipcode": "15707-076"
    },
    {
        "city": "Jales",
        "state": "SP",
        "district": "Conjunto Habitacional José Antonio Caparroz Bogaz II",
        "street": "Rua Ernézio Garcia",
        "zipcode": "15707-624"
    },
    {
        "city": "Jales",
        "state": "SP",
        "district": "Jardim Paulo VI",
        "street": "Rua Fátima",
        "zipcode": "15706-419"
    },
    {
        "city": "Jales",
        "state": "SP",
        "district": "Jardim Novo Mundo",
        "street": "Rua Fátima",
        "zipcode": "15706-420"
    },
    {
        "city": "Jales",
        "state": "SP",
        "district": "Jardim Brasília",
        "street": "Rua Fátima",
        "zipcode": "15706-444"
    },
    {
        "city": "Jales",
        "state": "SP",
        "district": "Centro",
        "street": "Avenida Francisco Jales",
        "zipcode": "15700-110"
    },
    {
        "city": "Jales",
        "state": "SP",
        "district": "Conjunto Habitacional Jardim Arapuã",
        "street": "Rua Tocantins",
        "zipcode": "15707-190"
    },
    {
        "city": "Jales",
        "state": "SP",
        "district": "Conjunto Habitacional Jardim Arapuã",
        "street": "Rua Tomas Antonio Gonzaga",
        "zipcode": "15707-196"
    },
    {
        "city": "Jales",
        "state": "SP",
        "district": "Jardim Arapuã",
        "street": "Avenida Tupã",
        "zipcode": "15707-136"
    },
    {
        "city": "Jales",
        "state": "SP",
        "district": "Jardim Zaffani",
        "street": "Rua Tupi",
        "zipcode": "15707-116"
    },
    {
        "city": "Jales",
        "state": "SP",
        "district": "Conjunto Habitacional Jardim Arapuã",
        "street": "Rua Vinícius de Moraes",
        "zipcode": "15707-192"
    },
    {
        "city": "Jales",
        "state": "SP",
        "district": "Jardim Brasília",
        "street": "Rua Belém",
        "zipcode": "15706-442"
    },
    {
        "city": "Jales",
        "state": "SP",
        "district": "Jardim Arapuã",
        "street": "Rua Jari",
        "zipcode": "15707-152"
    },
    {
        "city": "Jales",
        "state": "SP",
        "district": "Conjunto Habitacional José Antonio Caparroz Bogaz II",
        "street": "Rua João Alves Viana",
        "zipcode": "15707-642"
    },
    {
        "city": "Jales",
        "state": "SP",
        "district": "Centro",
        "street": "Rua 8",
        "zipcode": "15700-066"
    },
    {
        "city": "Jales",
        "state": "SP",
        "district": "Centro",
        "street": "Rua 9",
        "zipcode": "15700-018"
    },
    {
        "city": "Jales",
        "state": "SP",
        "district": "Jardim Nova Vida",
        "street": "Rua Inglaterra",
        "zipcode": "15703-225"
    },
    {
        "city": "Jales",
        "state": "SP",
        "district": "Conjunto Habitacional José Antonio Caparroz Bogaz",
        "street": "Rua Porto Velho",
        "zipcode": "15707-712"
    },
    {
        "city": "Jales",
        "state": "SP",
        "district": "Parque Industrial II",
        "street": "Rua Projetada",
        "zipcode": "15708-008"
    },
    {
        "city": "Jales",
        "state": "SP",
        "district": "Conjunto Habitacional José Antonio Caparroz Bogaz",
        "street": "Rua Recife",
        "zipcode": "15707-696"
    },
    {
        "city": "Jales",
        "state": "SP",
        "district": "Conjunto Habitacional José Antonio Caparroz Bogaz",
        "street": "Rua Boa Vista",
        "zipcode": "15707-668"
    },
    {
        "city": "Jales",
        "state": "SP",
        "district": "Centro",
        "street": "Avenida João Amadeu",
        "zipcode": "15700-082"
    },
    {
        "city": "Jales",
        "state": "SP",
        "district": "Centro",
        "street": "Rua 12",
        "zipcode": "15700-074"
    },
    {
        "city": "Jales",
        "state": "SP",
        "district": "Centro",
        "street": "Rua 15",
        "zipcode": "15700-038"
    },
    {
        "city": "Jales",
        "state": "SP",
        "district": "Centro",
        "street": "Rua 24",
        "zipcode": "15700-102"
    },
    {
        "city": "Jales",
        "state": "SP",
        "district": "Jardim América",
        "street": "Rua Anizio Martins Ferreira",
        "zipcode": "15703-050"
    },
    {
        "city": "Jales",
        "state": "SP",
        "district": "São Judas Tadeu",
        "street": "Rua Anizio Martins Ferreira",
        "zipcode": "15700-652"
    },
    {
        "city": "Jales",
        "state": "SP",
        "district": "Conjunto Habitacional José Antonio Caparroz Bogaz",
        "street": "Rua Aracaju",
        "zipcode": "15707-688"
    },
    {
        "city": "Jales",
        "state": "SP",
        "district": "Jardim Estados Unidos",
        "street": "Rua Candido Portinari",
        "zipcode": "15700-250"
    },
    {
        "city": "Jales",
        "state": "SP",
        "district": "Conjunto Habitacional José Antonio Caparroz Bogaz",
        "street": "Rua Vitória",
        "zipcode": "15707-702"
    },
    {
        "city": "Jales",
        "state": "SP",
        "district": "Conjunto Habitacional José Antonio Caparroz Bogaz II",
        "street": "Travessa José da Silva",
        "zipcode": "15707-656"
    },
    {
        "city": "Jales",
        "state": "SP",
        "district": "Jardim Romero",
        "street": "Avenida Paulo Marcondes",
        "zipcode": "15703-160"
    },
    {
        "city": "Jales",
        "state": "SP",
        "district": "Conjunto Habitacional José Antonio Caparroz Bogaz",
        "street": "Rua Curitiba",
        "zipcode": "15707-704"
    },
    {
        "city": "Jales",
        "state": "SP",
        "district": "Conjunto Habitacional José Antonio Caparroz Bogaz",
        "street": "Rua Natal",
        "zipcode": "15707-678"
    },
    {
        "city": "Jales",
        "state": "SP",
        "district": "Conjunto Habitacional José Antonio Caparroz Bogaz",
        "street": "Rua Teresina",
        "zipcode": "15707-700"
    },
    {
        "city": "Jales",
        "state": "SP",
        "district": "Conjunto Habitacional José Antonio Caparroz Bogaz",
        "street": "Rua Niterói",
        "zipcode": "15707-682"
    },
    {
        "city": "Jales",
        "state": "SP",
        "district": "Jardim Residencial Alvorada",
        "street": "Rua Luiz Valentim Pignatari",
        "zipcode": "15707-476"
    },
    {
        "city": "Jales",
        "state": "SP",
        "district": "Vila Nossa Senhora Aparecida da Boa Vista",
        "street": "Rua Bruxelas",
        "zipcode": "15706-282"
    },
    {
        "city": "Jales",
        "state": "SP",
        "district": "Jardim Residencial Alvorada",
        "street": "Rua David Lopes",
        "zipcode": "15707-488"
    },
    {
        "city": "Jales",
        "state": "SP",
        "district": "Jardim Residencial Alvorada",
        "street": "Rua Guerino de Leão",
        "zipcode": "15707-492"
    },
    {
        "city": "Jales",
        "state": "SP",
        "district": "Jardim Residencial Alvorada",
        "street": "Rua Brasilino Tiago",
        "zipcode": "15707-472"
    },
    {
        "city": "Jales",
        "state": "SP",
        "district": "Vila Nossa Senhora Aparecida",
        "street": "Rua Nossa Senhora das Graças",
        "zipcode": "15700-710"
    },
    {
        "city": "Jales",
        "state": "SP",
        "district": "Jardim Paraíso",
        "street": "Rua Professor Rubião Meira",
        "zipcode": "15700-614"
    },
    {
        "city": "Jales",
        "state": "SP",
        "district": "Conjunto Habitacional José Antonio Caparroz Bogaz",
        "street": "Rua Santos",
        "zipcode": "15707-680"
    },
    {
        "city": "Jales",
        "state": "SP",
        "district": "Conjunto Habitacional José Antonio Caparroz Bogaz II",
        "street": "Rua Guerino Mastelari",
        "zipcode": "15707-636"
    },
    {
        "city": "Jales",
        "state": "SP",
        "district": "Conjunto Habitacional Jardim Arapuã",
        "street": "Praça Guimarães Rosa",
        "zipcode": "15707-178"
    },
    {
        "city": "Jales",
        "state": "SP",
        "district": "Jardim Residencial Alvorada",
        "street": "Rua Luiz Antonio Cavenagui",
        "zipcode": "15707-480"
    },
    {
        "city": "Jales",
        "state": "SP",
        "district": "Conjunto Habitacional José Antonio Caparroz Bogaz",
        "street": "Rua Sebastião José Salviano",
        "zipcode": "15707-666"
    },
    {
        "city": "Jales",
        "state": "SP",
        "district": "Parque Industrial II",
        "street": "Rua Waldir Lopes",
        "zipcode": "15708-006"
    },
    {
        "city": "Jales",
        "state": "SP",
        "district": "Conjunto Habitacional José Antonio Caparroz Bogaz II",
        "street": "Rua João Cardoso da Silva",
        "zipcode": "15707-658"
    },
    {
        "city": "Jales",
        "state": "SP",
        "district": "Conjunto Habitacional José Antonio Caparroz Bogaz",
        "street": "Rua João Pessoa",
        "zipcode": "15707-694"
    },
    {
        "city": "Jales",
        "state": "SP",
        "district": "Conjunto Habitacional José Antonio Caparroz Bogaz",
        "street": "Rua Macapá",
        "zipcode": "15707-686"
    },
    {
        "city": "Jales",
        "state": "SP",
        "district": "Conjunto Habitacional José Antonio Caparroz Bogaz",
        "street": "Rua Maceió",
        "zipcode": "15707-690"
    },
    {
        "city": "Jales",
        "state": "SP",
        "district": "Centro",
        "street": "Avenida Francisco Jales",
        "zipcode": "15700-112"
    },
    {
        "city": "Jales",
        "state": "SP",
        "district": "Conjunto Habitacional José Antonio Caparroz Bogaz",
        "street": "Rua Túlio Balestreiro",
        "zipcode": "15707-662"
    },
    {
        "city": "Jales",
        "state": "SP",
        "district": "Parque Industrial II",
        "street": "Rua Pedro Colavite",
        "zipcode": "15708-002"
    },
    {
        "city": "Jales",
        "state": "SP",
        "district": "São Judas Tadeu",
        "street": "Rua Iguaporé",
        "zipcode": "15700-668"
    },
    {
        "city": "Jales",
        "state": "SP",
        "district": "São Judas Tadeu",
        "street": "Rua São José",
        "zipcode": "15700-644"
    },
    {
        "city": "Jales",
        "state": "SP",
        "district": "Jardim Eldorado",
        "street": "Rua Relíquias de Miranda",
        "zipcode": "15704-322"
    },
    {
        "city": "Jales",
        "state": "SP",
        "district": "Vila Nossa Senhora Aparecida",
        "street": "Rua Joaquim Catarino",
        "zipcode": "15700-694"
    },
    {
        "city": "Jales",
        "state": "SP",
        "district": "Jardim Estados Unidos",
        "street": "Rua Alabama",
        "zipcode": "15700-276"
    },
    {
        "city": "Jales",
        "state": "SP",
        "district": "Jardim Pêgolo II",
        "street": "Rua 1",
        "zipcode": "15706-268"
    },
    {
        "city": "Jales",
        "state": "SP",
        "district": "Jardim Guarani",
        "street": "Avenida Salustiano Pupim",
        "zipcode": "15704-344"
    },
    {
        "city": "Jales",
        "state": "SP",
        "district": "Centro",
        "street": "Avenida João Amadeu",
        "zipcode": "15700-130"
    },
    {
        "city": "Jales",
        "state": "SP",
        "district": "Jardim Ana Cristina",
        "street": "Avenida João Amadeu",
        "zipcode": "15700-194"
    },
    {
        "city": "Jales",
        "state": "SP",
        "district": "Parque Industrial II",
        "street": "Rua Eduardo Luiz Rosa",
        "zipcode": "15708-026"
    },
    {
        "city": "Jales",
        "state": "SP",
        "district": "Centro",
        "street": "Rua 16",
        "zipcode": "15700-124"
    },
    {
        "city": "Jales",
        "state": "SP",
        "district": "Centro",
        "street": "Rua 17",
        "zipcode": "15700-140"
    },
    {
        "city": "Jales",
        "state": "SP",
        "district": "Vila Talma",
        "street": "Rua Santa Adélia",
        "zipcode": "15704-270"
    },
    {
        "city": "Jales",
        "state": "SP",
        "district": "Jardim Aclimação",
        "street": "Rua Cora Coralina",
        "zipcode": "15700-224"
    },
    {
        "city": "Jales",
        "state": "SP",
        "district": "Centro",
        "street": "Avenida Alfonso Rossafa Molina",
        "zipcode": "15700-152"
    },
    {
        "city": "Jales",
        "state": "SP",
        "district": "Parque Industrial II",
        "street": "Rua Alfredo de Oliveira Gonçalves",
        "zipcode": "15708-018"
    },
    {
        "city": "Jales",
        "state": "SP",
        "district": "Vila Nossa Senhora Aparecida",
        "street": "Rua Amazonas",
        "zipcode": "15700-680"
    },
    {
        "city": "Jales",
        "state": "SP",
        "district": "Conjunto Habitacional Vereador Santo Hernandes Argentina",
        "street": "Avenida Antonio Pavan",
        "zipcode": "15700-836"
    },
    {
        "city": "Jales",
        "state": "SP",
        "district": "Jardim Zaffani",
        "street": "Avenida Arapuã",
        "zipcode": "15707-110"
    },
    {
        "city": "Jales",
        "state": "SP",
        "district": "Jardim Paulista",
        "street": "Rua Maranhão",
        "zipcode": "15700-722"
    },
    {
        "city": "Jales",
        "state": "SP",
        "district": "Vila Nascimento",
        "street": "Rua das Palmeiras",
        "zipcode": "15706-040"
    },
    {
        "city": "Jales",
        "state": "SP",
        "district": "Jardim Estados Unidos",
        "street": "Rua Mississipi",
        "zipcode": "15700-268"
    },
    {
        "city": "Jales",
        "state": "SP",
        "district": "Jardim Santo Expedito",
        "street": "Avenida Nações Unidas",
        "zipcode": "15700-166"
    },
    {
        "city": "Jales",
        "state": "SP",
        "district": "Jardim Arapuã",
        "street": "Rua Novo Horizonte",
        "zipcode": "15707-148"
    },
    {
        "city": "Jales",
        "state": "SP",
        "district": "Parque Industrial II",
        "street": "Rua Geraldo Bernini",
        "zipcode": "15708-020"
    },
    {
        "city": "Jales",
        "state": "SP",
        "district": "Conjunto Habitacional Vereador Dercilio Joaquim Carvalho",
        "street": "Rua Nossa Senhora das Graças",
        "zipcode": "15700-788"
    },
    {
        "city": "Jales",
        "state": "SP",
        "district": "Jardim Paulista",
        "street": "Rua Nossa Senhora das Graças",
        "zipcode": "15700-740"
    },
    {
        "city": "Jales",
        "state": "SP",
        "district": "São Judas Tadeu",
        "street": "Rua Nossa Senhora das Graças",
        "zipcode": "15700-642"
    },
    {
        "city": "Jales",
        "state": "SP",
        "district": "Conjunto Habitacional Roque Viola",
        "street": "Rua Professor Rubião Meira",
        "zipcode": "15700-772"
    },
    {
        "city": "Jales",
        "state": "SP",
        "district": "Conjunto Habitacional Doutor Pedro Nogueira",
        "street": "Rua Dirce Reis",
        "zipcode": "15707-322"
    },
    {
        "city": "Jales",
        "state": "SP",
        "district": "Conjunto Habitacional Doutor Pedro Nogueira",
        "street": "Rua Aspásia",
        "zipcode": "15707-340"
    },
    {
        "city": "Jales",
        "state": "SP",
        "district": "Jardim Doutor Euplhy Jalles",
        "street": "Rua José Gerez Sanches",
        "zipcode": "15708-040"
    },
    {
        "city": "Jales",
        "state": "SP",
        "district": "Conjunto Habitacional Doutor Pedro Nogueira",
        "street": "Rua São Francisco",
        "zipcode": "15707-334"
    },
    {
        "city": "Jales",
        "state": "SP",
        "district": "Conjunto Habitacional Doutor Pedro Nogueira",
        "street": "Rua Palmeira DOeste",
        "zipcode": "15707-332"
    },
    {
        "city": "Jales",
        "state": "SP",
        "district": "São Judas Tadeu",
        "street": "Rua José Neres dos Santos",
        "zipcode": "15700-656"
    },
    {
        "city": "Jales",
        "state": "SP",
        "district": "IV Centenário",
        "street": "Rua Vereador João do Carmo Lisboa",
        "zipcode": "15704-038"
    },
    {
        "city": "Jales",
        "state": "SP",
        "district": "Vila Helizabeth",
        "street": "Rua João Gonçalves de Freitas",
        "zipcode": "15703-284"
    },
    {
        "city": "Jales",
        "state": "SP",
        "district": "Jardim Residencial Alvorada",
        "street": "Rua Aurélio Antonio Longo",
        "zipcode": "15707-478"
    },
    {
        "city": "Jales",
        "state": "SP",
        "district": "Parque Industrial II",
        "street": "Rua Pedro Modesto Andreo Padilha",
        "zipcode": "15708-034"
    },
    {
        "city": "Jales",
        "state": "SP",
        "district": "Parque Industrial II",
        "street": "Rua João Inácio dos Santos",
        "zipcode": "15708-010"
    },
    {
        "city": "Jales",
        "state": "SP",
        "district": "Parque Industrial II",
        "street": "Rua Julio Iglesias Osório",
        "zipcode": "15708-016"
    },
    {
        "city": "Jales",
        "state": "SP",
        "district": "Parque Industrial II",
        "street": "Rua Juventino Cardoso",
        "zipcode": "15708-024"
    },
    {
        "city": "Jales",
        "state": "SP",
        "district": "Jardim Maria Paula",
        "street": "Rua da Liberdade",
        "zipcode": "15704-106"
    },
    {
        "city": "Jales",
        "state": "SP",
        "district": "Jardim Estados Unidos",
        "street": "Avenida Engenheiro Euphly Jalles",
        "zipcode": "15700-254"
    },
    {
        "city": "Jales",
        "state": "SP",
        "district": "Parque Industrial II",
        "street": "Rua Fioravanti Meneguezzi",
        "zipcode": "15708-032"
    },
    {
        "city": "Jales",
        "state": "SP",
        "district": "Vila Rodrigues",
        "street": "Rua França",
        "zipcode": "15703-238"
    },
    {
        "city": "Jales",
        "state": "SP",
        "district": "Jardim Arapuã",
        "street": "Rua Tocantins",
        "zipcode": "15707-150"
    },
    {
        "city": "Jales",
        "state": "SP",
        "district": "Jardim Paulista",
        "street": "Rua Tupinambás",
        "zipcode": "15700-732"
    },
    {
        "city": "Jales",
        "state": "SP",
        "district": "Jardim Estados Unidos",
        "street": "Rua Arizona",
        "zipcode": "15700-284"
    },
    {
        "city": "Jales",
        "state": "SP",
        "district": "Chácara Bela Vista",
        "street": "Rua Mamoré",
        "zipcode": "15706-240"
    },
    {
        "city": "Jales",
        "state": "SP",
        "district": "Parque das Flores",
        "street": "Avenida Industrial",
        "zipcode": "15703-435"
    },
    {
        "city": "Jales",
        "state": "SP",
        "district": "Parque Industrial I",
        "street": "Avenida Industrial",
        "zipcode": "15703-362"
    },
    {
        "city": "Jales",
        "state": "SP",
        "district": "Loteamento Avenida",
        "street": "Avenida da Integração",
        "zipcode": "15703-216"
    },
    {
        "city": "Jales",
        "state": "SP",
        "district": "Jardim Nova Vida",
        "street": "Rua Itália",
        "zipcode": "15703-224"
    },
    {
        "city": "Jales",
        "state": "SP",
        "district": "Parque Industrial I",
        "street": "Travessa Francisco Maruiama",
        "zipcode": "15703-344"
    },
    {
        "city": "Jales",
        "state": "SP",
        "district": "Conjunto Habitacional Vereador Santo Hernandes Argentina",
        "street": "Rua Jaçanã",
        "zipcode": "15700-842"
    },
    {
        "city": "Jales",
        "state": "SP",
        "district": "Jardim Trianon",
        "street": "Rua Jales",
        "zipcode": "15703-108"
    },
    {
        "city": "Jales",
        "state": "SP",
        "district": "Vila Pinheiro",
        "street": "Rua 1",
        "zipcode": "15704-068"
    },
    {
        "city": "Jales",
        "state": "SP",
        "district": "Vila Norma",
        "street": "Rua 1",
        "zipcode": "15704-094"
    },
    {
        "city": "Jales",
        "state": "SP",
        "district": "Vila Rodrigues",
        "street": "Rua 2",
        "zipcode": "15703-240"
    },
    {
        "city": "Jales",
        "state": "SP",
        "district": "Jardim América",
        "street": "Rua Vicente Leporace",
        "zipcode": "15703-072"
    },
    {
        "city": "Jales",
        "state": "SP",
        "district": "Jardim Trianon",
        "street": "Rua Dirce Libano dos Santos",
        "zipcode": "15703-112"
    },
    {
        "city": "Jales",
        "state": "SP",
        "district": "IV Centenário",
        "street": "Rua 12",
        "zipcode": "15704-048"
    },
    {
        "city": "Jales",
        "state": "SP",
        "district": "Jardim Pêgolo",
        "street": "Rua 18",
        "zipcode": "15704-014"
    },
    {
        "city": "Jales",
        "state": "SP",
        "district": "Vila Norma",
        "street": "Rua dos Coqueiros",
        "zipcode": "15704-084"
    },
    {
        "city": "Jales",
        "state": "SP",
        "district": "Vila Pinheiro",
        "street": "Avenida Maria Jalles",
        "zipcode": "15704-052"
    },
    {
        "city": "Jales",
        "state": "SP",
        "district": "Jardim América",
        "street": "Rua João Batista de Melo",
        "zipcode": "15703-054"
    },
    {
        "city": "Jales",
        "state": "SP",
        "district": "Vila Santa Ignez",
        "street": "Rua Helizabeth",
        "zipcode": "15703-290"
    },
    {
        "city": "Jales",
        "state": "SP",
        "district": "Jardim Micena",
        "street": "Rua Bom Pastor",
        "zipcode": "15703-271"
    },
    {
        "city": "Jales",
        "state": "SP",
        "district": "Vila União",
        "street": "Rua Camilo Demétrio Izar",
        "zipcode": "15703-132"
    },
    {
        "city": "Jales",
        "state": "SP",
        "district": "Jardim Pêgolo II",
        "street": "Rua Maria Nipoti Belão",
        "zipcode": "15706-262"
    },
    {
        "city": "Jales",
        "state": "SP",
        "district": "Jardim Monterey",
        "street": "Rua Nova York",
        "zipcode": "15703-326"
    },
    {
        "city": "Jales",
        "state": "SP",
        "district": "Jardim América",
        "street": "Rua Professor Rubião Meira",
        "zipcode": "15703-030"
    },
    {
        "city": "Jales",
        "state": "SP",
        "district": "Jardim América",
        "street": "Rua Deputado Guilherme Gomes",
        "zipcode": "15703-040"
    },
    {
        "city": "Jales",
        "state": "SP",
        "district": "Vila Helizabeth",
        "street": "Rua Costa Rica",
        "zipcode": "15703-280"
    },
    {
        "city": "Jales",
        "state": "SP",
        "district": "Conjunto Habitacional Doutor Pedro Nogueira",
        "street": "Rua Pontalinda",
        "zipcode": "15707-328"
    },
    {
        "city": "Jales",
        "state": "SP",
        "district": "Jardim das Palmeiras",
        "street": "Rua Otávio Graziani",
        "zipcode": "15706-172"
    },
    {
        "city": "Jales",
        "state": "SP",
        "district": "Residencial Big Plaza",
        "street": "Avenida Domingos Masson",
        "zipcode": "15700-878"
    },
    {
        "city": "Jales",
        "state": "SP",
        "district": "Conjunto Habitacional Vereador Dercilio Joaquim Carvalho",
        "street": "Rua Maura Rocha Macedo",
        "zipcode": "15700-818"
    },
    {
        "city": "Jales",
        "state": "SP",
        "district": "Jardim do Bosque",
        "street": "Rua Geraldo Paulino",
        "zipcode": "15703-390"
    },
    {
        "city": "Jales",
        "state": "SP",
        "district": "Residencial Big Plaza",
        "street": "Rua Nossa Senhora das Graças",
        "zipcode": "15700-866"
    },
    {
        "city": "Jales",
        "state": "SP",
        "district": "Conjunto Habitacional Vereador Dercilio Joaquim Carvalho",
        "street": "Rua Luís Casteletti",
        "zipcode": "15700-806"
    },
    {
        "city": "Jales",
        "state": "SP",
        "district": "Jardim Doutor Euplhy Jalles",
        "street": "Rua Arthur Segantini Filho",
        "zipcode": "15708-048"
    },
    {
        "city": "Jales",
        "state": "SP",
        "district": "Jardim Castelo",
        "street": "Rua Helizabeth",
        "zipcode": "15703-304"
    },
    {
        "city": "Jales",
        "state": "SP",
        "district": "Residencial Alpha Jales",
        "street": "Rua Athenas",
        "zipcode": "15708-075"
    },
    {
        "city": "Jales",
        "state": "SP",
        "district": "Jardim do Bosque",
        "street": "Rua Altino Lourenço Cardozo",
        "zipcode": "15703-380"
    },
    {
        "city": "Jales",
        "state": "SP",
        "district": "Jardim do Bosque",
        "street": "Rua Hermínia Rosa Duarte",
        "zipcode": "15703-400"
    },
    {
        "city": "Jales",
        "state": "SP",
        "district": "Jardim Doutor Euplhy Jalles",
        "street": "Rua Carlos Chiaparini",
        "zipcode": "15708-042"
    },
    {
        "city": "Jales",
        "state": "SP",
        "district": "Conjunto Habitacional José Antonio Caparroz Bogaz",
        "street": "Travessa Neves Paulista",
        "zipcode": "15707-676"
    },
    {
        "city": "Jales",
        "state": "SP",
        "district": "Jardim América",
        "street": "Rua Apóstolo Paulo",
        "zipcode": "15703-082"
    },
    {
        "city": "Jales",
        "state": "SP",
        "district": "IV Centenário",
        "street": "Rua XV de Novembro",
        "zipcode": "15704-036"
    },
    {
        "city": "Jales",
        "state": "SP",
        "district": "Jardim América",
        "street": "Rua Júlio de Mesquita Filho",
        "zipcode": "15703-016"
    },
    {
        "city": "Jales",
        "state": "SP",
        "district": "Vila São José",
        "street": "Rua Cinturão Verde",
        "zipcode": "15704-025"
    },
    {
        "city": "Jales",
        "state": "SP",
        "district": "Jardim Pêgolo",
        "street": "Rua Cinturão Verde",
        "zipcode": "15704-004"
    },
    {
        "city": "Jales",
        "state": "SP",
        "district": "Jardim América",
        "street": "Rua do Estado",
        "zipcode": "15703-094"
    },
    {
        "city": "Jales",
        "state": "SP",
        "district": "Loteamento Avenida",
        "street": "Rua França",
        "zipcode": "15703-204"
    },
    {
        "city": "Jales",
        "state": "SP",
        "district": "Jardim Europa",
        "street": "Rua dos Bandeirantes",
        "zipcode": "15703-196"
    },
    {
        "city": "Jales",
        "state": "SP",
        "district": "Parque das Flores",
        "street": "Avenida Flamboyant",
        "zipcode": "15703-429"
    },
    {
        "city": "Jales",
        "state": "SP",
        "district": "Chácara Bela Vista",
        "street": "Rua Itararé",
        "zipcode": "15706-238"
    },
    {
        "city": "Jales",
        "state": "SP",
        "district": "Jardim Ipiranga",
        "street": "Rua Izaura Bertho Venturini",
        "zipcode": "15707-030"
    },
    {
        "city": "Jales",
        "state": "SP",
        "district": "Jardim São Jorge",
        "street": "Rua 1",
        "zipcode": "15704-218"
    },
    {
        "city": "Jales",
        "state": "SP",
        "district": "Vila Santa Izabel",
        "street": "Rua dos Sabiás",
        "zipcode": "15706-208"
    },
    {
        "city": "Jales",
        "state": "SP",
        "district": "Parque São Bernardo",
        "street": "Avenida Salustiano Pupim",
        "zipcode": "15704-380"
    },
    {
        "city": "Jales",
        "state": "SP",
        "district": "Jardim Morumbi",
        "street": "Avenida Salustiano Pupim",
        "zipcode": "15704-146"
    },
    {
        "city": "Jales",
        "state": "SP",
        "district": "Jardim Municipal",
        "street": "Rua João Benedito Alvarenga",
        "zipcode": "15704-502"
    },
    {
        "city": "Jales",
        "state": "SP",
        "district": "Jardim Brasília",
        "street": "Rua 19",
        "zipcode": "15706-440"
    },
    {
        "city": "Jales",
        "state": "SP",
        "district": "Jardim Pêgolo II",
        "street": "Rua 24",
        "zipcode": "15706-270"
    },
    {
        "city": "Jales",
        "state": "SP",
        "district": "Jardim Tangará",
        "street": "Rua Santa Adélia",
        "zipcode": "15704-284"
    },
    {
        "city": "Jales",
        "state": "SP",
        "district": "Vila Maria",
        "street": "Rua Angelo Gasparetti",
        "zipcode": "15706-392"
    },
    {
        "city": "Jales",
        "state": "SP",
        "district": "Parque São Bernardo",
        "street": "Rua Antonia Peres Bernardo",
        "zipcode": "15704-390"
    },
    {
        "city": "Jales",
        "state": "SP",
        "district": "Residencial Maria Silveira",
        "street": "Rua Antonio Martins da Silva",
        "zipcode": "15704-136"
    },
    {
        "city": "Jales",
        "state": "SP",
        "district": "Jardim Ipiranga",
        "street": "Avenida Arapuã",
        "zipcode": "15707-036"
    },
    {
        "city": "Jales",
        "state": "SP",
        "district": "Jardim Eldorado",
        "street": "Rua Margarida do Valles Tostes de Siqueira",
        "zipcode": "15704-334"
    },
    {
        "city": "Jales",
        "state": "SP",
        "district": "Jardim Tangará",
        "street": "Rua Margarida do Valles Tostes de Siqueira",
        "zipcode": "15704-292"
    },
    {
        "city": "Jales",
        "state": "SP",
        "district": "Jardim Brasil",
        "street": "Rua dos Guatambus",
        "zipcode": "15704-248"
    },
    {
        "city": "Jales",
        "state": "SP",
        "district": "Jardim Bom Jesus",
        "street": "Rua dos Guatambus",
        "zipcode": "15704-170"
    },
    {
        "city": "Jales",
        "state": "SP",
        "district": "Jardim São Jorge",
        "street": "Rua dos Guatambus",
        "zipcode": "15704-208"
    },
    {
        "city": "Jales",
        "state": "SP",
        "district": "Jardim Santo Expedito",
        "street": "Rua Canadá",
        "zipcode": "15707-088"
    },
    {
        "city": "Jales",
        "state": "SP",
        "district": "Vila Nascimento",
        "street": "Rua das Violetas",
        "zipcode": "15706-044"
    },
    {
        "city": "Jales",
        "state": "SP",
        "district": "Vila Ines",
        "street": "Rua Guido Parminonde",
        "zipcode": "15704-238"
    },
    {
        "city": "Jales",
        "state": "SP",
        "district": "Jardim Santo Expedito",
        "street": "Rua Honduras",
        "zipcode": "15707-072"
    },
    {
        "city": "Jales",
        "state": "SP",
        "district": "Jardim Primavera",
        "street": "Rua das Palmeiras",
        "zipcode": "15706-162"
    },
    {
        "city": "Jales",
        "state": "SP",
        "district": "Jardim Eldorado",
        "street": "Avenida Dejaime Antonio de Oliveira",
        "zipcode": "15704-312"
    },
    {
        "city": "Jales",
        "state": "SP",
        "district": "Vila Talma",
        "street": "Avenida Dejaime Antonio de Oliveira",
        "zipcode": "15704-274"
    },
    {
        "city": "Jales",
        "state": "SP",
        "district": "Chácaras Alto do Marimbondo",
        "street": "Rua Braz Polizio",
        "zipcode": "15706-219"
    },
    {
        "city": "Jales",
        "state": "SP",
        "district": "Jardim Bom Jesus",
        "street": "Rua Salvador",
        "zipcode": "15704-162"
    },
    {
        "city": "Jales",
        "state": "SP",
        "district": "Residencial Maria Silveira",
        "street": "Rua Salvador",
        "zipcode": "15704-126"
    },
    {
        "city": "Jales",
        "state": "SP",
        "district": "Vila Nossa Senhora Aparecida da Boa Vista",
        "street": "Rua Suécia",
        "zipcode": "15706-286"
    },
    {
        "city": "Jales",
        "state": "SP",
        "district": "Chácaras Alto do Marimbondo",
        "street": "Rua Suécia",
        "zipcode": "15706-312"
    },
    {
        "city": "Jales",
        "state": "SP",
        "district": "Residencial São Lucas",
        "street": "Rua José Pedro Gonçalves Santos",
        "zipcode": "15706-084"
    },
    {
        "city": "Jales",
        "state": "SP",
        "district": "Jardim Pires de Andrade",
        "street": "Rua Padre Renato Alves Aranha",
        "zipcode": "15706-018"
    },
    {
        "city": "Jales",
        "state": "SP",
        "district": "Alto do Ipê",
        "street": "Rua Walter da Silva",
        "zipcode": "15706-036"
    },
    {
        "city": "Jales",
        "state": "SP",
        "district": "Conjunto Habitacional Nelzia Stellutte",
        "street": "Rua Felicidade",
        "zipcode": "15704-534"
    },
    {
        "city": "Jales",
        "state": "SP",
        "district": "Residencial Duana",
        "street": "Travessa A",
        "zipcode": "15706-304"
    },
    {
        "city": "Jales",
        "state": "SP",
        "district": "Jardim Primavera",
        "street": "Rua Otávio Graziani",
        "zipcode": "15706-156"
    },
    {
        "city": "Jales",
        "state": "SP",
        "district": "Residencial Alpha Jales",
        "street": "Rua Epiro",
        "zipcode": "15708-077"
    },
    {
        "city": "Jales",
        "state": "SP",
        "district": "Vila Santa Izabel",
        "street": "Rua Angelo Scaramuzza",
        "zipcode": "15706-194"
    },
    {
        "city": "Jales",
        "state": "SP",
        "district": "Jardim do Bosque",
        "street": "Rua Arlindo Guilherme da Fonseca",
        "zipcode": "15703-396"
    },
    {
        "city": "Jales",
        "state": "SP",
        "district": "Vila Santa Izabel",
        "street": "Rua Jovita Batista Zagolin",
        "zipcode": "15706-200"
    },
    {
        "city": "Jales",
        "state": "SP",
        "district": "Vila Ines",
        "street": "Rua João Gonçalves de Freitas",
        "zipcode": "15704-228"
    },
    {
        "city": "Jales",
        "state": "SP",
        "district": "Jardim Oiti",
        "street": "Rua Julieta de Almeida Vieira",
        "zipcode": "15706-076"
    },
    {
        "city": "Jales",
        "state": "SP",
        "district": "Residencial São Lucas",
        "street": "Rua Feliciana Moreira Ramos",
        "zipcode": "15706-092"
    },
    {
        "city": "Jales",
        "state": "SP",
        "district": "Vila Maria",
        "street": "Avenida Francisco Jales",
        "zipcode": "15706-396"
    },
    {
        "city": "Jales",
        "state": "SP",
        "district": "Jardim Paulo VI",
        "street": "Avenida Francisco Jales",
        "zipcode": "15706-416"
    },
    {
        "city": "Jales",
        "state": "SP",
        "district": "Jardim São Francisco de Assis",
        "street": "Rua Santa Terezinha",
        "zipcode": "15704-404"
    },
    {
        "city": "Jales",
        "state": "SP",
        "district": "Aeroporto",
        "street": "Rua dos Aviadores",
        "zipcode": "15704-480"
    },
    {
        "city": "Jales",
        "state": "SP",
        "district": "Jardim Soraia",
        "street": "Rua dos Bancários",
        "zipcode": "15704-464"
    },
    {
        "city": "Jales",
        "state": "SP",
        "district": "Jardim Novo Mundo",
        "street": "Rua Belém",
        "zipcode": "15706-424"
    },
    {
        "city": "Jales",
        "state": "SP",
        "district": "Conjunto Habitacional Jardim Arapuã",
        "street": "Rua Carlos Drumond de Andrade",
        "zipcode": "15707-194"
    },
    {
        "city": "Jales",
        "state": "SP",
        "district": "Conjunto Habitacional Jardim Arapuã",
        "street": "Rua Oswald de Andrade",
        "zipcode": "15707-184"
    },
    {
        "city": "Jales",
        "state": "SP",
        "district": "Jardim Doutor Euplhy Jalles",
        "street": "Rua Marciano da Veiga Pimentel",
        "zipcode": "15708-046"
    },
    {
        "city": "Jales",
        "state": "SP",
        "district": "Conjunto Habitacional José Antonio Caparroz Bogaz II",
        "street": "Rua Vitória",
        "zipcode": "15707-634"
    },
    {
        "city": "Jales",
        "state": "SP",
        "district": "Jardim Zaffani",
        "street": "Rua Tapajós",
        "zipcode": "15707-122"
    },
    {
        "city": "Jales",
        "state": "SP",
        "district": "Conjunto Habitacional José Antonio Caparroz Bogaz",
        "street": "Avenida Brasília",
        "zipcode": "15707-684"
    },
    {
        "city": "Jales",
        "state": "SP",
        "district": "Conjunto Habitacional José Antonio Caparroz Bogaz",
        "street": "Rua Campinas",
        "zipcode": "15707-674"
    },
    {
        "city": "Jales",
        "state": "SP",
        "district": "Parque Industrial II",
        "street": "Rua Luiz Amadeu",
        "zipcode": "15708-004"
    },
    {
        "city": "Jales",
        "state": "SP",
        "district": "Parque Industrial II",
        "street": "Rua Francisco Maximiano",
        "zipcode": "15708-012"
    },
    {
        "city": "Jales",
        "state": "SP",
        "district": "Parque Industrial II",
        "street": "Rua Silvio Alves Balbino",
        "zipcode": "15708-030"
    },
    {
        "city": "Jales",
        "state": "SP",
        "district": "Conjunto Habitacional José Antonio Caparroz Bogaz II",
        "street": "Rua João Herrera",
        "zipcode": "15707-622"
    },
    {
        "city": "Jales",
        "state": "SP",
        "district": "Centro",
        "street": "Rua 5",
        "zipcode": "15700-010"
    },
    {
        "city": "Jales",
        "state": "SP",
        "district": "Centro",
        "street": "Rua 10",
        "zipcode": "15700-070"
    },
    {
        "city": "Jales",
        "state": "SP",
        "district": "Vila Micena",
        "street": "Rua Cristo Rei",
        "zipcode": "15703-257"
    },
    {
        "city": "Jales",
        "state": "SP",
        "district": "Conjunto Habitacional Roque Viola",
        "street": "Rua Cauã",
        "zipcode": "15700-756"
    },
    {
        "city": "Jales",
        "state": "SP",
        "district": "Loteamento Avenida",
        "street": "Rua Inglaterra",
        "zipcode": "15703-210"
    },
    {
        "city": "Jales",
        "state": "SP",
        "district": "Jardim São Francisco de Assis",
        "street": "Rua Oderço Francisco de Matos",
        "zipcode": "15704-414"
    },
    {
        "city": "Jales",
        "state": "SP",
        "district": "Jardim Paraíso",
        "street": "Rua Raphael de Andreu Blaya",
        "zipcode": "15700-616"
    },
    {
        "city": "Jales",
        "state": "SP",
        "district": "Residencial Nova Jales",
        "street": "Rua Doutor Carlos Antônio Prata",
        "zipcode": "15707-412"
    },
    {
        "city": "Jales",
        "state": "SP",
        "district": "Residencial Nova Jales",
        "street": "Rua Prefeito Honório Amadeu",
        "zipcode": "15707-402"
    },
    {
        "city": "Jales",
        "state": "SP",
        "district": "Jardim Residencial Alvorada",
        "street": "Rua Tobias Villa",
        "zipcode": "15707-490"
    },
    {
        "city": "Jales",
        "state": "SP",
        "district": "Residencial Alpha Jales",
        "street": "Rua Argos",
        "zipcode": "15708-064"
    },
    {
        "city": "Jales",
        "state": "SP",
        "district": "Residencial Alpha Jales",
        "street": "Avenida Grécia",
        "zipcode": "15708-062"
    },
    {
        "city": "Jales",
        "state": "SP",
        "district": "Jardim Residencial Alvorada",
        "street": "Rua Hermenegildo Ferrari",
        "zipcode": "15707-486"
    },
    {
        "city": "Jales",
        "state": "SP",
        "district": "Residencial Nova Jales",
        "street": "Rua João Diego Caparroz Cano",
        "zipcode": "15707-414"
    },
    {
        "city": "Jales",
        "state": "SP",
        "district": "Conjunto Habitacional José Antonio Caparroz Bogaz",
        "street": "Rua Florianópolis",
        "zipcode": "15707-708"
    },
    {
        "city": "Jales",
        "state": "SP",
        "district": "Residencial Nova Jales",
        "street": "Rua Vereador Sebastião Moraes",
        "zipcode": "15707-408"
    },
    {
        "city": "Jales",
        "state": "SP",
        "district": "Residencial Nova Jales",
        "street": "Rua Diosun Yoshida",
        "zipcode": "15707-418"
    },
    {
        "city": "Jales",
        "state": "SP",
        "district": "Residencial Alpha Jales",
        "street": "Rua Larissa",
        "zipcode": "15708-066"
    },
    {
        "city": "Jales",
        "state": "SP",
        "district": "Residencial Nova Jales",
        "street": "Rua Tomio Okajima",
        "zipcode": "15707-406"
    },
    {
        "city": "Jales",
        "state": "SP",
        "district": "Conjunto Habitacional João Batista Colodetti",
        "street": "Rua Américo Alves de Assis",
        "zipcode": "15707-358"
    },
    {
        "city": "Jales",
        "state": "SP",
        "district": "Residencial Nova Jales",
        "street": "Rua Investigador Marcelo Regis Reame",
        "zipcode": "15707-410"
    },
    {
        "city": "Jales",
        "state": "SP",
        "district": "Conjunto Habitacional João Batista Colodetti",
        "street": "Rua Mesópolis",
        "zipcode": "15707-361"
    },
    {
        "city": "Jales",
        "state": "SP",
        "district": "Residencial Nova Jales",
        "street": "Rua João Francisco de Paula",
        "zipcode": "15707-422"
    },
    {
        "city": "Jales",
        "state": "SP",
        "district": "Jardim Doutor Euplhy Jalles",
        "street": "Rua Felipe Aneste Mistilides",
        "zipcode": "15708-044"
    },
    {
        "city": "Jales",
        "state": "SP",
        "district": "Jardim Arapuã",
        "street": "Avenida Lourival de Souza",
        "zipcode": "15707-158"
    },
    {
        "city": "Jales",
        "state": "SP",
        "district": "Conjunto Habitacional João Batista Colodetti",
        "street": "Rua Ramila Lima Rosa",
        "zipcode": "15707-359"
    },
    {
        "city": "Jales",
        "state": "SP",
        "district": "Residencial Nova Jales",
        "street": "Rua Aparecido Pinheiro Faria",
        "zipcode": "15707-404"
    },
    {
        "city": "Jales",
        "state": "SP",
        "district": "Residencial Alpha Jales",
        "street": "Rua Amalias",
        "zipcode": "15708-065"
    },
    {
        "city": "Jales",
        "state": "SP",
        "district": "Residencial Nova Jales",
        "street": "Avenida Manoel Rossafa Rodrigues",
        "zipcode": "15707-424"
    },
    {
        "city": "Jales",
        "state": "SP",
        "district": "Centro",
        "street": "Rua 1",
        "zipcode": "15700-004"
    },
    {
        "city": "Jales",
        "state": "SP",
        "district": "Centro",
        "street": "Rua 2",
        "zipcode": "15700-054"
    },
    {
        "city": "Jales",
        "state": "SP",
        "district": "Centro",
        "street": "Avenida João Amadeu",
        "zipcode": "15700-128"
    },
    {
        "city": "Jales",
        "state": "SP",
        "district": "Centro",
        "street": "Avenida João Amadeu",
        "zipcode": "15700-080"
    },
    {
        "city": "Jales",
        "state": "SP",
        "district": "Parque São Bernardo",
        "street": "Rua Alzira Graziani Mazocatto",
        "zipcode": "15704-384"
    },
    {
        "city": "Jales",
        "state": "SP",
        "district": "Jardim América",
        "street": "Rua Antonio Castanheira",
        "zipcode": "15703-034"
    },
    {
        "city": "Jales",
        "state": "SP",
        "district": "Vila Norma",
        "street": "Avenida Maria Jalles",
        "zipcode": "15704-082"
    },
    {
        "city": "Jales",
        "state": "SP",
        "district": "Jardim Monterey",
        "street": "Rua Leopoldo Alberto O. Gonçalves",
        "zipcode": "15703-318"
    },
    {
        "city": "Jales",
        "state": "SP",
        "district": "Parque Industrial I",
        "street": "Avenida Paulo Marcondes",
        "zipcode": "15703-340"
    },
    {
        "city": "Jales",
        "state": "SP",
        "district": "Alto do Ipê",
        "street": "Rua das Palmeiras",
        "zipcode": "15706-030"
    },
    {
        "city": "Jales",
        "state": "SP",
        "district": "Jardim Bom Jesus",
        "street": "Rua Monções",
        "zipcode": "15704-174"
    },
    {
        "city": "Jales",
        "state": "SP",
        "district": "Jardim Bom Jesus",
        "street": "Rua da Fraternidade",
        "zipcode": "15704-160"
    },
    {
        "city": "Jales",
        "state": "SP",
        "district": "Jardim América",
        "street": "Rua Professor Rubião Meira",
        "zipcode": "15703-032"
    },
    {
        "city": "Jales",
        "state": "SP",
        "district": "Jardim Tangará",
        "street": "Rua Wladimir Sabatini Prandi",
        "zipcode": "15704-288"
    },
    {
        "city": "Jales",
        "state": "SP",
        "district": "Residencial Maria Silveira",
        "street": "Rua da Liberdade",
        "zipcode": "15704-138"
    },
    {
        "city": "Jales",
        "state": "SP",
        "district": "Jardim Aclimação",
        "street": "Avenida Engenheiro Euphly Jalles",
        "zipcode": "15700-230"
    },
    {
        "city": "Jales",
        "state": "SP",
        "district": "Conjunto Habitacional Roque Viola",
        "street": "Rua Formosa",
        "zipcode": "15700-762"
    },
    {
        "city": "Jales",
        "state": "SP",
        "district": "Centro",
        "street": "Avenida Francisco Jales",
        "zipcode": "15700-024"
    },
    {
        "city": "Jales",
        "state": "SP",
        "district": "Centro",
        "street": "Avenida Francisco Jales",
        "zipcode": "15700-022"
    },
    {
        "city": "Jales",
        "state": "SP",
        "district": "Jardim Brasil",
        "street": "Avenida Augusto de Menezes",
        "zipcode": "15704-242"
    },
    {
        "city": "Jales",
        "state": "SP",
        "district": "Jardim São Francisco de Assis",
        "street": "Rua Magé",
        "zipcode": "15704-400"
    },
    {
        "city": "Jales",
        "state": "SP",
        "district": "Centro",
        "street": "Rua 18",
        "zipcode": "15700-971"
    },
    {
        "city": "Jales",
        "state": "SP",
        "district": "Conjunto Habitacional José Antonio Caparroz Bogaz II",
        "street": "Rua Joaquim da Veiga Pimentel",
        "zipcode": "15707-626"
    },
    {
        "city": "Jales",
        "state": "SP",
        "district": "Jardim América",
        "street": "Rua 25",
        "zipcode": "15703-024"
    },
    {
        "city": "Jales",
        "state": "SP",
        "district": "Parque Industrial II",
        "street": "Avenida João Amadeu",
        "zipcode": "15708-028"
    },
    {
        "city": "Jales",
        "state": "SP",
        "district": "Jardim Novo Mundo",
        "street": "Rua 26",
        "zipcode": "15706-430"
    },
    {
        "city": "Jales",
        "state": "SP",
        "district": "Conjunto Habitacional José Antonio Caparroz Bogaz II",
        "street": "Rua Aparecida Leonércia Botton Fassa",
        "zipcode": "15707-648"
    },
    {
        "city": "Jales",
        "state": "SP",
        "district": "Jardim Arapuã",
        "street": "Avenida Arapuã",
        "zipcode": "15707-140"
    },
    {
        "city": "Jales",
        "state": "SP",
        "district": "Jardim Primavera",
        "street": "Rua João Valente",
        "zipcode": "15706-158"
    },
    {
        "city": "Jales",
        "state": "SP",
        "district": "Jardim das Palmeiras",
        "street": "Rua Francisco Fontes Parra",
        "zipcode": "15706-170"
    },
    {
        "city": "Jales",
        "state": "SP",
        "district": "Subida Preta",
        "street": "Rua Suécia",
        "zipcode": "15706-322"
    },
    {
        "city": "Jales",
        "state": "SP",
        "district": "FACIP",
        "street": "Avenida Salustiano Pupim",
        "zipcode": "15704-440"
    },
    {
        "city": "Jales",
        "state": "SP",
        "district": "Conjunto Habitacional Jardim Arapuã",
        "street": "Avenida Lourival de Souza",
        "zipcode": "15707-198"
    },
    {
        "city": "Jales",
        "state": "SP",
        "district": "Jardim do Bosque",
        "street": "Rua dos Escoteiros",
        "zipcode": "15703-382"
    },
    {
        "city": "Jales",
        "state": "SP",
        "district": "Jardim Romero",
        "street": "Rua Dyonisia Ferreira de Castilho",
        "zipcode": "15703-162"
    },
    {
        "city": "Jales",
        "state": "SP",
        "district": "Residencial Alpha Jales",
        "street": "Rua Santorini",
        "zipcode": "15708-070"
    },
    {
        "city": "Jales",
        "state": "SP",
        "district": "Conjunto Habitacional Doutor Pedro Nogueira",
        "street": "Rua Estrela DOeste",
        "zipcode": "15707-324"
    },
    {
        "city": "Jales",
        "state": "SP",
        "district": "Córrego do Açude",
        "street": "Rua Humberto Venturini",
        "zipcode": "15707-000"
    },
    {
        "city": "Jales",
        "state": "SP",
        "district": "Residencial Alpha Jales",
        "street": "Rua Corinto",
        "zipcode": "15708-067"
    },
    {
        "city": "Jales",
        "state": "SP",
        "district": "Conjunto Habitacional Doutor Pedro Nogueira",
        "street": "Rua Santa Salete",
        "zipcode": "15707-336"
    },
    {
        "city": "Jales",
        "state": "SP",
        "district": "Jardim do Bosque",
        "street": "Rua Otávio Miranda",
        "zipcode": "15703-398"
    },
    {
        "city": "Jales",
        "state": "SP",
        "district": "Conjunto Habitacional José Antonio Caparroz Bogaz II",
        "street": "Rua Particular (CAIC)",
        "zipcode": "15707-632"
    },
    {
        "city": "Jales",
        "state": "SP",
        "district": "Jardim Santo Expedito",
        "street": "Avenida Lourival de Souza",
        "zipcode": "15707-096"
    },
    {
        "city": "Jales",
        "state": "SP",
        "district": "Jardim do Bosque",
        "street": "Rua Nair Alves do Prado Fávaro",
        "zipcode": "15703-402"
    },
    {
        "city": "Jales",
        "state": "SP",
        "district": "Residencial Alpha Jales",
        "street": "Rua Ática",
        "zipcode": "15708-072"
    },
    {
        "city": "Jales",
        "state": "SP",
        "district": "Córrego do Açude",
        "street": "Rua José Bonifácio",
        "zipcode": "15707-003"
    },
    {
        "city": "Jales",
        "state": "SP",
        "district": "Residencial Big Plaza",
        "street": "Rua Hermínia Bottassin Viola",
        "zipcode": "15700-882"
    },
    {
        "city": "Jales",
        "state": "SP",
        "district": "Jardim Doutor Euplhy Jalles",
        "street": "Avenida João Amadeu",
        "zipcode": "15708-054"
    },
    {
        "city": "Jales",
        "state": "SP",
        "district": "Residencial Alpha Jales",
        "street": "Rua Mykonos",
        "zipcode": "15708-069"
    },
    {
        "city": "Jales",
        "state": "SP",
        "district": "Jardim Romero",
        "street": "Rua Presidente Tancredo Neves",
        "zipcode": "15703-172"
    },
    {
        "city": "Jales",
        "state": "SP",
        "district": "Residencial Big Plaza",
        "street": "Rua João Aparecido Gambero",
        "zipcode": "15700-874"
    },
    {
        "city": "Jales",
        "state": "SP",
        "district": "Conjunto Habitacional José Antonio Caparroz Bogaz",
        "street": "Rua Mirassol",
        "zipcode": "15707-664"
    },
    {
        "city": "Jales",
        "state": "SP",
        "district": "São Judas Tadeu",
        "street": "Rua João Batista de Melo",
        "zipcode": "15700-658"
    },
    {
        "city": "Jales",
        "state": "SP",
        "district": "Jardim Municipal",
        "street": "Rua Plácido Limeira de Souza",
        "zipcode": "15704-504"
    },
    {
        "city": "Jales",
        "state": "SP",
        "district": "Vila São José",
        "street": "Rua São Pedro",
        "zipcode": "15704-021"
    },
    {
        "city": "Jales",
        "state": "SP",
        "district": "Residencial Monte Líbano",
        "street": "Avenida Brasília",
        "zipcode": "15707-575"
    },
    {
        "city": "Jales",
        "state": "SP",
        "district": "Jardim Paulo VI",
        "street": "Avenida Doutor Shiguero Kitayama",
        "zipcode": "15706-417"
    },
    {
        "city": "Jales",
        "state": "SP",
        "district": "Parque Industrial I",
        "street": "Rua Marginal",
        "zipcode": "15703-359"
    },
    {
        "city": "Jales",
        "state": "SP",
        "district": "Conjunto Habitacional João Batista Colodetti",
        "street": "Rua Genaura Camilo de Sá",
        "zipcode": "15707-357"
    },
    {
        "city": "Jales",
        "state": "SP",
        "district": "Residencial Vila Mariana",
        "street": "Rua Falcondes Mendes de Seixas",
        "zipcode": "15707-227"
    },
    {
        "city": "Jales",
        "state": "SP",
        "district": "Residencial Vila Mariana",
        "street": "Rua Manoel Leão de Brito",
        "zipcode": "15707-234"
    },
    {
        "city": "Jales",
        "state": "SP",
        "district": "Residencial Vila Mariana",
        "street": "Rua Odair Martins Batista",
        "zipcode": "15707-233"
    },
    {
        "city": "Jales",
        "state": "SP",
        "district": "Residencial Vila Mariana",
        "street": "Rua Albino Sasso",
        "zipcode": "15707-222"
    },
    {
        "city": "Jales",
        "state": "SP",
        "district": "Residencial Alpha Jales",
        "street": "Rua Aegina",
        "zipcode": "15708-079"
    },
    {
        "city": "Jales",
        "state": "SP",
        "district": "Residencial Alpha Jales",
        "street": "Rua Milos",
        "zipcode": "15708-071"
    },
    {
        "city": "Jales",
        "state": "SP",
        "district": "Residencial Vila Mariana",
        "street": "Rua Adelino Leviani Berti",
        "zipcode": "15707-237"
    },
    {
        "city": "Jales",
        "state": "SP",
        "district": "Conjunto Habitacional Renascer",
        "street": "Rua João Alvarenga da Silva",
        "zipcode": "15704-520"
    },
    {
        "city": "Jales",
        "state": "SP",
        "district": "Vila Nossa Senhora Aparecida",
        "street": "Rua Bauru",
        "zipcode": "15700-700"
    },
    {
        "city": "Jales",
        "state": "SP",
        "district": "Residencial Vila Mariana",
        "street": "Rua Francisco Cândido Melo",
        "zipcode": "15707-223"
    },
    {
        "city": "Jales",
        "state": "SP",
        "district": "Residencial Alpha Jales",
        "street": "Rua Salônica",
        "zipcode": "15708-085"
    },
    {
        "city": "Jales",
        "state": "SP",
        "district": "Residencial Vila Mariana",
        "street": "Rua Massami Kido",
        "zipcode": "15707-239"
    },
    {
        "city": "Jales",
        "state": "SP",
        "district": "Residencial Monte Líbano",
        "street": "Rua Campo Grande",
        "zipcode": "15707-576"
    },
    {
        "city": "Jales",
        "state": "SP",
        "district": "Residencial Monte Líbano",
        "street": "Rua Rio Branco",
        "zipcode": "15707-579"
    },
    {
        "city": "Jales",
        "state": "SP",
        "district": "Residencial Monte Líbano",
        "street": "Rua Celso Gimenes Alvares",
        "zipcode": "15707-556"
    },
    {
        "city": "Jales",
        "state": "SP",
        "district": "Residencial Alpha Jales",
        "street": "Rua Delfos",
        "zipcode": "15708-088"
    },
    {
        "city": "Jales",
        "state": "SP",
        "district": "Parque Industrial I",
        "street": "Travessa José Infante",
        "zipcode": "15703-356"
    },
    {
        "city": "Jales",
        "state": "SP",
        "district": "Área Rural de Jales",
        "street": "Área Rural",
        "zipcode": "15709-899"
    },
    {
        "city": "Jales",
        "state": "SP",
        "district": "Residencial Alpha Jales",
        "street": "Avenida João Amadeu",
        "zipcode": "15708-060"
    },
    {
        "city": "Jales",
        "state": "SP",
        "district": "Residencial Alpha Jales",
        "street": "Rua Olimpo",
        "zipcode": "15708-083"
    },
    {
        "city": "Jales",
        "state": "SP",
        "district": "Residencial Alpha Jales",
        "street": "Rua Macedônia",
        "zipcode": "15708-087"
    },
    {
        "city": "Jales",
        "state": "SP",
        "district": "Conjunto Habitacional José Antonio Caparroz Bogaz II",
        "street": "Rua Aristeu Alves da Silva",
        "zipcode": "15707-630"
    },
    {
        "city": "Jales",
        "state": "SP",
        "district": "Jardim Arapuã",
        "street": "Travessa Maracá",
        "zipcode": "15707-154"
    },
    {
        "city": "Jales",
        "state": "SP",
        "district": "Residencial Alpha Jales",
        "street": "Rua Tebas",
        "zipcode": "15708-086"
    },
    {
        "city": "Jales",
        "state": "SP",
        "district": "Residencial Alpha Jales",
        "street": "Rua Patra",
        "zipcode": "15708-080"
    },
    {
        "city": "Jales",
        "state": "SP",
        "district": "Residencial Vila Mariana",
        "street": "Rua Germano Berti",
        "zipcode": "15707-241"
    },
    {
        "city": "Jales",
        "state": "SP",
        "district": "Residencial Alpha Jales",
        "street": "Rua Nigrita",
        "zipcode": "15708-081"
    },
    {
        "city": "Jales",
        "state": "SP",
        "district": "Residencial Vila Mariana",
        "street": "Rua Marisa",
        "zipcode": "15707-235"
    },
    {
        "city": "Jales",
        "state": "SP",
        "district": "Centro",
        "street": "Rua 3",
        "zipcode": "15700-008"
    },
    {
        "city": "Jales",
        "state": "SP",
        "district": "Centro",
        "street": "Rua 4",
        "zipcode": "15700-058"
    },
    {
        "city": "Jales",
        "state": "SP",
        "district": "Residencial Vila Mariana",
        "street": "Rua Maria",
        "zipcode": "15707-224"
    },
    {
        "city": "Jales",
        "state": "SP",
        "district": "Residencial Vila Mariana",
        "street": "Rua Genésio Colombo",
        "zipcode": "15707-226"
    },
    {
        "city": "Jales",
        "state": "SP",
        "district": "Residencial Monte Líbano",
        "street": "Rua Luiz Carlos Floriano da Silva",
        "zipcode": "15707-564"
    },
    {
        "city": "Jales",
        "state": "SP",
        "district": "Residencial Paineiras",
        "street": "Rua Liberato Perfetto",
        "zipcode": "15704-376"
    },
    {
        "city": "Jales",
        "state": "SP",
        "district": "Residencial Paineiras",
        "street": "Avenida Salustiano Pupim",
        "zipcode": "15704-373"
    },
    {
        "city": "Jales",
        "state": "SP",
        "district": "Residencial Monte Líbano",
        "street": "Rua Adelino Rodrigues",
        "zipcode": "15707-558"
    },
    {
        "city": "Jales",
        "state": "SP",
        "district": "Residencial Monte Líbano",
        "street": "Rua Fausto Fiscarelli",
        "zipcode": "15707-562"
    },
    {
        "city": "Jales",
        "state": "SP",
        "district": "Residencial Alpha Jales",
        "street": "Rua Peloponeso",
        "zipcode": "15708-078"
    },
    {
        "city": "Jales",
        "state": "SP",
        "district": "Residencial Vila Mariana",
        "street": "Rua Yoshio Nemoto",
        "zipcode": "15707-221"
    },
    {
        "city": "Jales",
        "state": "SP",
        "district": "Residencial Monte Líbano",
        "street": "Rua João Teodoro da Silva",
        "zipcode": "15707-584"
    },
    {
        "city": "Jales",
        "state": "SP",
        "district": "Jardim Residencial Alvorada",
        "street": "Avenida Lourival de Souza",
        "zipcode": "15707-479"
    },
    {
        "city": "Jales",
        "state": "SP",
        "district": "Jardim São Gabriel",
        "street": "Rua 1",
        "zipcode": "15700-360"
    },
    {
        "city": "Jales",
        "state": "SP",
        "district": "Residencial Vila Mariana",
        "street": "Rua José Cardoso",
        "zipcode": "15707-228"
    },
    {
        "city": "Jales",
        "state": "SP",
        "district": "Residencial Alpha Jales",
        "street": "Rua Tessalônica",
        "zipcode": "15708-074"
    },
    {
        "city": "Jales",
        "state": "SP",
        "district": "Residencial Monte Líbano",
        "street": "Rua Antônio Pereira da Silva",
        "zipcode": "15707-574"
    },
    {
        "city": "Jales",
        "state": "SP",
        "district": "Residencial Monte Líbano",
        "street": "Rua Paulo Cabelo",
        "zipcode": "15707-570"
    },
    {
        "city": "Jales",
        "state": "SP",
        "district": "Residencial Vila Mariana",
        "street": "Avenida Abrão Buchala",
        "zipcode": "15707-229"
    },
    {
        "city": "Jales",
        "state": "SP",
        "district": "Residencial Vila Mariana",
        "street": "Rua Orlando Botton",
        "zipcode": "15707-238"
    },
    {
        "city": "Jales",
        "state": "SP",
        "district": "Residencial Alpha Jales",
        "street": "Rua Rodhes",
        "zipcode": "15708-073"
    },
    {
        "city": "Jales",
        "state": "SP",
        "district": "Centro",
        "street": "Rua 4",
        "zipcode": "15700-056"
    },
    {
        "city": "Jales",
        "state": "SP",
        "district": "Jardim Maria Paula",
        "street": "Rua 6",
        "zipcode": "15704-104"
    },
    {
        "city": "Jales",
        "state": "SP",
        "district": "Residencial Maria Silveira",
        "street": "Rua 6",
        "zipcode": "15704-134"
    },
    {
        "city": "Jales",
        "state": "SP",
        "district": "Jardim Micena",
        "street": "Rua 7",
        "zipcode": "15703-265"
    },
    {
        "city": "Jales",
        "state": "SP",
        "district": "Centro",
        "street": "Rua 7",
        "zipcode": "15700-100"
    },
    {
        "city": "Jales",
        "state": "SP",
        "district": "Vila Goldoni",
        "street": "Rua 7",
        "zipcode": "15703-262"
    },
    {
        "city": "Jales",
        "state": "SP",
        "district": "Jardim Maria Paula",
        "street": "Rua 8",
        "zipcode": "15704-102"
    },
    {
        "city": "Jales",
        "state": "SP",
        "district": "Centro",
        "street": "Rua 9",
        "zipcode": "15700-104"
    },
    {
        "city": "Jales",
        "state": "SP",
        "district": "Conjunto Habitacional Jardim Arapuã",
        "street": "Rua Turuã",
        "zipcode": "15707-176"
    },
    {
        "city": "Jales",
        "state": "SP",
        "district": "Vila Nascimento",
        "street": "Rua dos Cravos",
        "zipcode": "15706-046"
    },
    {
        "city": "Jales",
        "state": "SP",
        "district": "Conjunto Habitacional Vereador Dercilio Joaquim Carvalho",
        "street": "Rua Cauã",
        "zipcode": "15700-790"
    },
    {
        "city": "Jales",
        "state": "SP",
        "district": "Jardim das Palmeiras",
        "street": "Rua José Batista Prado",
        "zipcode": "15706-178"
    },
    {
        "city": "Jales",
        "state": "SP",
        "district": "Jardim América",
        "street": "Rua José Bernini",
        "zipcode": "15703-048"
    },
    {
        "city": "Jales",
        "state": "SP",
        "district": "São Judas Tadeu",
        "street": "Rua José Bernini",
        "zipcode": "15700-650"
    },
    {
        "city": "Jales",
        "state": "SP",
        "district": "Jardim América",
        "street": "Avenida da Integração",
        "zipcode": "15703-070"
    },
    {
        "city": "Jales",
        "state": "SP",
        "district": "Jardim Maria Paula",
        "street": "Rua dos Jacarandás",
        "zipcode": "15704-112"
    },
    {
        "city": "Jales",
        "state": "SP",
        "district": "Jardim América",
        "street": "Rua Raphael de Andreu Blaya",
        "zipcode": "15703-026"
    },
    {
        "city": "Jales",
        "state": "SP",
        "district": "Vila Nossa Senhora Aparecida",
        "street": "Rua São Benedito",
        "zipcode": "15700-692"
    },
    {
        "city": "Jales",
        "state": "SP",
        "district": "Conjunto Habitacional Doutor Pedro Nogueira",
        "street": "Rua Urânia",
        "zipcode": "15707-330"
    },
    {
        "city": "Jales",
        "state": "SP",
        "district": "Jardim América",
        "street": "Rua Dirce Libano dos Santos",
        "zipcode": "15703-076"
    },
    {
        "city": "Jales",
        "state": "SP",
        "district": "Jardim Santo Expedito",
        "street": "Avenida Marginal Doutor Eduardo Ferraz Ribeiro do Valle",
        "zipcode": "15700-174"
    },
    {
        "city": "Jales",
        "state": "SP",
        "district": "Jardim Samambaia",
        "street": "Alameda das Paineiras",
        "zipcode": "15700-212"
    },
    {
        "city": "Jales",
        "state": "SP",
        "district": "Vila Nossa Senhora Aparecida da Boa Vista",
        "street": "Rua Córdoba",
        "zipcode": "15706-288"
    },
    {
        "city": "Jales",
        "state": "SP",
        "district": "Vila Nossa Senhora Aparecida",
        "street": "Rua Aimorés",
        "zipcode": "15700-712"
    },
    {
        "city": "Jales",
        "state": "SP",
        "district": "Jardim Ana Cristina",
        "street": "Avenida Alfonso Rossafa Molina",
        "zipcode": "15700-188"
    },
    {
        "city": "Jales",
        "state": "SP",
        "district": "Jardim das Palmeiras",
        "street": "Rua Angelo Scaramuzza",
        "zipcode": "15706-184"
    },
    {
        "city": "Jales",
        "state": "SP",
        "district": "Jardim Primavera",
        "street": "Rua Angelo Scaramuzza",
        "zipcode": "15706-150"
    },
    {
        "city": "Jales",
        "state": "SP",
        "district": "Jardim América",
        "street": "Rua Antonio Castanheira",
        "zipcode": "15703-004"
    },
    {
        "city": "Jales",
        "state": "SP",
        "district": "Vila São José",
        "street": "Avenida Maria Jalles",
        "zipcode": "15704-027"
    },
    {
        "city": "Jales",
        "state": "SP",
        "district": "Conjunto Habitacional José Antonio Caparroz Bogaz",
        "street": "Rua Rio Branco",
        "zipcode": "15707-714"
    },
    {
        "city": "Jales",
        "state": "SP",
        "district": "Jardim Municipal",
        "street": "Rua Idair Lopes",
        "zipcode": "15704-492"
    },
    {
        "city": "Jales",
        "state": "SP",
        "district": "Jardim Brasil",
        "street": "Rua Nova York",
        "zipcode": "15704-252"
    },
    {
        "city": "Jales",
        "state": "SP",
        "district": "Conjunto Habitacional José Antonio Caparroz Bogaz II",
        "street": "Rua Sebastião José Salviano",
        "zipcode": "15707-650"
    },
    {
        "city": "Jales",
        "state": "SP",
        "district": "Conjunto Habitacional José Antonio Caparroz Bogaz",
        "street": "Rua João Cardoso da Silva",
        "zipcode": "15707-660"
    },
    {
        "city": "Jales",
        "state": "SP",
        "district": "Jardim Morumbi",
        "street": "Rua Manoel Albuquerque",
        "zipcode": "15704-140"
    },
    {
        "city": "Jales",
        "state": "SP",
        "district": "Conjunto Habitacional Vereador Dercilio Joaquim Carvalho",
        "street": "Rua Formosa",
        "zipcode": "15700-794"
    },
    {
        "city": "Jales",
        "state": "SP",
        "district": "Jardim Morumbi",
        "street": "Rua João Altimari",
        "zipcode": "15704-152"
    },
    {
        "city": "Jales",
        "state": "SP",
        "district": "Residencial Vila Mariana",
        "street": "Rua Plínio Rodrigues Cavassana",
        "zipcode": "15707-225"
    },
    {
        "city": "Jales",
        "state": "SP",
        "district": "Residencial Vila Mariana",
        "street": "Rua Marina",
        "zipcode": "15707-236"
    },
    {
        "city": "Jales",
        "state": "SP",
        "district": "Conjunto Habitacional José Antonio Caparroz Bogaz II",
        "street": "Rua Jesus Ferreira dos Reis",
        "zipcode": "15707-646"
    },
    {
        "city": "Jales",
        "state": "SP",
        "district": "Jardim das Palmeiras",
        "street": "Rua Feliciana Moreira Ramos",
        "zipcode": "15706-182"
    },
    {
        "city": "Jales",
        "state": "SP",
        "district": "Residencial Paineiras II",
        "street": "Rua Alzira Graziani Mazocatto",
        "zipcode": "15704-367"
    },
    {
        "city": "Jales",
        "state": "SP",
        "district": "Residencial Vila Mariana",
        "street": "Rua Edmilson Jesus Bertolo",
        "zipcode": "15707-231"
    },
    {
        "city": "Jales",
        "state": "SP",
        "district": "Jardim Doutor Euplhy Jalles",
        "street": "Rua José Aydar",
        "zipcode": "15708-052"
    },
    {
        "city": "Jales",
        "state": "SP",
        "district": "Residencial Monte Líbano",
        "street": "Rua Noêmia de Carvalho",
        "zipcode": "15707-572"
    },
    {
        "city": "Jales",
        "state": "SP",
        "district": "Conjunto Habitacional José Antonio Caparroz Bogaz",
        "street": "Rua Porto Alegre",
        "zipcode": "15707-706"
    },
    {
        "city": "Jales",
        "state": "SP",
        "district": "Residencial Monte Líbano",
        "street": "Rua José Marques Silva",
        "zipcode": "15707-568"
    },
    {
        "city": "Jales",
        "state": "SP",
        "district": "Jardim Paulo VI",
        "street": "Rua Itaici",
        "zipcode": "15706-418"
    },
    {
        "city": "Jales",
        "state": "SP",
        "district": "Jardim Romero",
        "street": "Rua Giovani Missoni",
        "zipcode": "15703-166"
    },
    {
        "city": "Jales",
        "state": "SP",
        "district": "Residencial Monte Líbano",
        "street": "Rua João Pessoa",
        "zipcode": "15707-582"
    },
    {
        "city": "Jales",
        "state": "SP",
        "district": "Residencial Big Plaza",
        "street": "Rua José da Ponte",
        "zipcode": "15700-856"
    },
    {
        "city": "Jales",
        "state": "SP",
        "district": "Conjunto Habitacional Vereador Dercilio Joaquim Carvalho",
        "street": "Rua Nelson Mariano Severino",
        "zipcode": "15700-812"
    },
    {
        "city": "Jales",
        "state": "SP",
        "district": "Conjunto Habitacional Renascer",
        "street": "Rua Renascer",
        "zipcode": "15704-512"
    },
    {
        "city": "Jales",
        "state": "SP",
        "district": "Aeroporto Municipal",
        "street": "Rua Cumbica",
        "zipcode": "15703-330"
    },
    {
        "city": "Jales",
        "state": "SP",
        "district": "Subida Preta",
        "street": "Rua Adelaide Peres Gomes Santanna",
        "zipcode": "15706-324"
    },
    {
        "city": "Jales",
        "state": "SP",
        "district": "Parque Industrial II",
        "street": "Avenida Marginal Áureo Fernandes de Faria",
        "zipcode": "15708-000"
    },
    {
        "city": "Jales",
        "state": "SP",
        "district": "Residencial Monte Líbano",
        "street": "Rua Jorge Romano",
        "zipcode": "15707-560"
    },
    {
        "city": "Jales",
        "state": "SP",
        "district": "Jardim Soraia",
        "street": "Avenida Guilherme Soncini",
        "zipcode": "15704-469"
    },
    {
        "city": "Jales",
        "state": "SP",
        "district": "Jardim São Gabriel",
        "street": "Rua Benedito Carlos Tomps",
        "zipcode": "15700-358"
    },
    {
        "city": "Jales",
        "state": "SP",
        "district": "Vila São José",
        "street": "Rua Jetubás",
        "zipcode": "15704-026"
    },
    {
        "city": "Jales",
        "state": "SP",
        "district": "Residencial Big Plaza",
        "street": "Rua Simão de Souza Nobre",
        "zipcode": "15700-850"
    },
    {
        "city": "Jales",
        "state": "SP",
        "district": "Conjunto Habitacional Vereador Dercilio Joaquim Carvalho",
        "street": "Rua Juventino Lopes da Silva",
        "zipcode": "15700-826"
    },
    {
        "city": "Jales",
        "state": "SP",
        "district": "Parque Industrial I",
        "street": "Travessa Jair Vicente da Silveira",
        "zipcode": "15703-342"
    },
    {
        "city": "Jales",
        "state": "SP",
        "district": "Jardim São Gabriel",
        "street": "Rua Vereador Alexandre de Moraes",
        "zipcode": "15700-332"
    },
    {
        "city": "Jales",
        "state": "SP",
        "district": "Conjunto Habitacional José Antonio Caparroz Bogaz II",
        "street": "Rua Particular (Igreja)",
        "zipcode": "15707-640"
    },
    {
        "city": "Jales",
        "state": "SP",
        "district": "Aeroporto",
        "street": "Rua Congonhas",
        "zipcode": "15704-478"
    },
    {
        "city": "Jales",
        "state": "SP",
        "district": "Conjunto Habitacional José Antonio Caparroz Bogaz",
        "street": "Travessa Magda",
        "zipcode": "15707-672"
    },
    {
        "city": "Jales",
        "state": "SP",
        "district": "Residencial Monte Líbano",
        "street": "Rua João Cardoso da Silva",
        "zipcode": "15707-580"
    },
    {
        "city": "Jales",
        "state": "SP",
        "district": "Residencial Paineiras",
        "street": "Rua Alzira Graziani Mazocatto",
        "zipcode": "15704-374"
    },
    {
        "city": "Jales",
        "state": "SP",
        "district": "Jardim São Gabriel",
        "street": "Rua Nilton Caparroz",
        "zipcode": "15700-346"
    },
    {
        "city": "Jales",
        "state": "SP",
        "district": "Residencial Big Plaza",
        "street": "Rua Jaime Antônio de Barros",
        "zipcode": "15700-864"
    },
    {
        "city": "Jales",
        "state": "SP",
        "district": "Jardim Residencial Alvorada",
        "street": "Rua Neide Lourdes Nicolau Pêgolo",
        "zipcode": "15707-482"
    },
    {
        "city": "Jales",
        "state": "SP",
        "district": "Conjunto Habitacional Vereador Dercilio Joaquim Carvalho",
        "street": "Rua João Alves Canutto",
        "zipcode": "15700-808"
    },
    {
        "city": "Jales",
        "state": "SP",
        "district": "Jardim Pires de Andrade",
        "street": "Rua Miguel Cervantes Rodrigues",
        "zipcode": "15706-006"
    },
    {
        "city": "Jales",
        "state": "SP",
        "district": "Conjunto Habitacional Vereador Dercilio Joaquim Carvalho",
        "street": "Rua José Correia",
        "zipcode": "15700-814"
    },
    {
        "city": "Jales",
        "state": "SP",
        "district": "Residencial Nova Jales",
        "street": "Rua Elvo Pigari",
        "zipcode": "15707-416"
    },
    {
        "city": "Jales",
        "state": "SP",
        "district": "Residencial Vila Mariana",
        "street": "Rua Gilberto Nicolau",
        "zipcode": "15707-240"
    },
    {
        "city": "Jales",
        "state": "SP",
        "district": "Jardim Residencial Alvorada",
        "street": "Rua Anisio Medina",
        "zipcode": "15707-470"
    },
    {
        "city": "Jales",
        "state": "SP",
        "district": "Jardim Guarani",
        "street": "Rua Tiradentes",
        "zipcode": "15704-348"
    },
    {
        "city": "Jales",
        "state": "SP",
        "district": "Vila União",
        "street": "Rua Presidente Tancredo Neves",
        "zipcode": "15703-122"
    },
    {
        "city": "Jales",
        "state": "SP",
        "district": "Jardim do Bosque",
        "street": "Rua Otavino Pereira de Castro",
        "zipcode": "15703-378"
    },
    {
        "city": "Jales",
        "state": "SP",
        "district": "Jardim do Bosque",
        "street": "Rua Olivier de Oliveira",
        "zipcode": "15703-410"
    },
    {
        "city": "Jales",
        "state": "SP",
        "district": "Residencial Big Plaza",
        "street": "Rua Guilherme Ferreira Brito",
        "zipcode": "15700-884"
    },
    {
        "city": "Jales",
        "state": "SP",
        "district": "Conjunto Habitacional Vereador Dercilio Joaquim Carvalho",
        "street": "Rua Ângelo Volpiani",
        "zipcode": "15700-822"
    },
    {
        "city": "Jales",
        "state": "SP",
        "district": "Córrego do Açude",
        "street": "Rua Izaura Bertho Venturini",
        "zipcode": "15707-006"
    },
    {
        "city": "Jales",
        "state": "SP",
        "district": "Residencial Vila Mariana",
        "street": "Rua Sebastião Rodrigues",
        "zipcode": "15707-232"
    },
    {
        "city": "Jales",
        "state": "SP",
        "district": "Jardim Doutor Euplhy Jalles",
        "street": "Rua José Carlos Colombo",
        "zipcode": "15708-050"
    },
    {
        "city": "Jales",
        "state": "SP",
        "district": "Jardim Pires de Andrade",
        "street": "Rua Walter da Silva",
        "zipcode": "15706-020"
    },
    {
        "city": "Jales",
        "state": "SP",
        "district": "Residencial Vila Mariana",
        "street": "Rua Mariangela",
        "zipcode": "15707-230"
    },
    {
        "city": "Jales",
        "state": "SP",
        "district": "Vila Stafusa",
        "street": "Travessa dos Alecrins",
        "zipcode": "15706-052"
    },
    {
        "city": "Jales",
        "state": "SP",
        "district": "Conjunto Habitacional João Batista Colodetti",
        "street": "Rua João Bernardes Ferreira",
        "zipcode": "15707-362"
    },
    {
        "city": "Jales",
        "state": "SP",
        "district": "Chácaras Alto do Marimbondo",
        "street": "Rua Guatemala",
        "zipcode": "15706-310"
    },
    {
        "city": "Jales",
        "state": "SP",
        "district": "Conjunto Habitacional Renascer",
        "street": "Rua Renascer",
        "zipcode": "15704-532"
    },
    {
        "city": "Jales",
        "state": "SP",
        "district": "Residencial Duana",
        "street": "Travessa B",
        "zipcode": "15706-300"
    },
    {
        "city": "Jales",
        "state": "SP",
        "district": "Jardim do Bosque",
        "street": "Rua Doutor Ovídio Pinheiro",
        "zipcode": "15703-404"
    },
    {
        "city": "Jales",
        "state": "SP",
        "district": "Jardim Paulo VI",
        "street": "Rua Angelo Gasparetti",
        "zipcode": "15706-406"
    },
    {
        "city": "Jales",
        "state": "SP",
        "district": "Vila Santa Ignez",
        "street": "Rua João Gonçalves de Freitas",
        "zipcode": "15703-294"
    },
    {
        "city": "Jales",
        "state": "SP",
        "district": "Jardim Paraíso",
        "street": "Travessa João Balbino dos Santos",
        "zipcode": "15700-618"
    }
]