[
    {
        "city": "Jau",
        "state": "SP",
        "district": "Vila Industrial",
        "street": "Rua B",
        "zipcode": "17204-730"
    },
    {
        "city": "Jau",
        "state": "SP",
        "district": "Vila Netinho Prado",
        "street": "Praça Princesa Isabel",
        "zipcode": "17207-820"
    },
    {
        "city": "Jau",
        "state": "SP",
        "district": "Jardim Maria Luiza",
        "street": "Rua A",
        "zipcode": "17213-740"
    },
    {
        "city": "Jau",
        "state": "SP",
        "district": "Jardim Das Alamandas",
        "street": "Rua K",
        "zipcode": "17209-806"
    },
    {
        "city": "Jau",
        "state": "SP",
        "district": "Vila Hilst",
        "street": "Travessa Attilio Madela",
        "zipcode": "17207-210"
    },
    {
        "city": "Jau",
        "state": "SP",
        "district": "Jardim Conde Pinhal",
        "street": "Rua Enoch Camargo",
        "zipcode": "17203-210"
    },
    {
        "city": "Jau",
        "state": "SP",
        "district": "Vila Brasil",
        "street": "Rua Major Ascanio",
        "zipcode": "17202-380"
    },
    {
        "city": "Jau",
        "state": "SP",
        "district": "Vila Padre Nosso",
        "street": "Rua Antonio De Souza Amaral",
        "zipcode": "17202-290"
    },
    {
        "city": "Jau",
        "state": "SP",
        "district": "Vila Brasil",
        "street": "Rua Dr Galdino Amaral Carvalho",
        "zipcode": "17202-410"
    },
    {
        "city": "Jau",
        "state": "SP",
        "district": "Vila Nassif Name",
        "street": "Rua Maria Chiodi Lupo",
        "zipcode": "17202-500"
    },
    {
        "city": "Jau",
        "state": "SP",
        "district": "Jardim Conde Pinhal",
        "street": "Rua Luiz Piersigilli",
        "zipcode": "17203-240"
    },
    {
        "city": "Jau",
        "state": "SP",
        "district": "Jardim Conde Pinhal",
        "street": "Rua Waldir Baraldi",
        "zipcode": "17203-070"
    },
    {
        "city": "Jau",
        "state": "SP",
        "district": "Jardim Conde Pinhal",
        "street": "Rua Pedro Rosseli",
        "zipcode": "17203-220"
    },
    {
        "city": "Jau",
        "state": "SP",
        "district": "Chacara Flora",
        "street": "Rua Jose Cristiano Kuntz",
        "zipcode": "17204-360"
    },
    {
        "city": "Jau",
        "state": "SP",
        "district": "Jardim Conde Pinhal",
        "street": "Rua Angelo Molan",
        "zipcode": "17203-250"
    },
    {
        "city": "Jau",
        "state": "SP",
        "district": "Vila Brasil",
        "street": "Rua Maximo Zen",
        "zipcode": "17202-470"
    },
    {
        "city": "Jau",
        "state": "SP",
        "district": "Centro",
        "street": "Praça Jorge Tibirica",
        "zipcode": "17201-543"
    },
    {
        "city": "Jau",
        "state": "SP",
        "district": "Vila Industrial",
        "street": "Rua Joao Batista De Lima",
        "zipcode": "17204-300"
    },
    {
        "city": "Jau",
        "state": "SP",
        "district": "Jardim Santa Helena",
        "street": "Avenida Joao Antonio Martins Gomes",
        "zipcode": "17204-351"
    },
    {
        "city": "Jau",
        "state": "SP",
        "district": "Jardim Maria Luiza",
        "street": "Rua Joao Rocco",
        "zipcode": "17203-260"
    },
    {
        "city": "Jau",
        "state": "SP",
        "district": "Chacara Flora",
        "street": "Rua Felicio Norberto Rossi",
        "zipcode": "17204-400"
    },
    {
        "city": "Jau",
        "state": "SP",
        "district": "Jardim Sanzovo",
        "street": "Rua Romeu Serignolli",
        "zipcode": "17204-380"
    },
    {
        "city": "Jau",
        "state": "SP",
        "district": "Vila Industrial",
        "street": "Rua Augusto Franzolin",
        "zipcode": "17204-290"
    },
    {
        "city": "Jau",
        "state": "SP",
        "district": "Chacara Flora",
        "street": "Rua Sebastiao Ferraz Campos Junior",
        "zipcode": "17204-390"
    },
    {
        "city": "Jau",
        "state": "SP",
        "district": "Jardim Pires De Campos",
        "street": "Rua Rui Barbosa",
        "zipcode": "17209-020"
    },
    {
        "city": "Jau",
        "state": "SP",
        "district": "Vila Ivan",
        "street": "Rua Jose Valadao De Freitas",
        "zipcode": "17207-340"
    },
    {
        "city": "Jau",
        "state": "SP",
        "district": "Jardim Bela Vista",
        "street": "Avenida Julinho De Carvalho",
        "zipcode": "17207-570"
    },
    {
        "city": "Jau",
        "state": "SP",
        "district": "Vila Sampaio Bueno",
        "street": "Rua Brasilia",
        "zipcode": "17205-520"
    },
    {
        "city": "Jau",
        "state": "SP",
        "district": "Jardim Bela Vista",
        "street": "Rua Humberto Batochio",
        "zipcode": "17207-790"
    },
    {
        "city": "Jau",
        "state": "SP",
        "district": "Conj Habit Ibirapuera",
        "street": "Rua Um",
        "zipcode": "17208-360"
    },
    {
        "city": "Jau",
        "state": "SP",
        "district": "Vila Carvalho",
        "street": "Rua Amazonas",
        "zipcode": "17205-460"
    },
    {
        "city": "Jau",
        "state": "SP",
        "district": "Chacara Flora",
        "street": "Rua Antonio Sanzovo",
        "zipcode": "17204-430"
    },
    {
        "city": "Jau",
        "state": "SP",
        "district": "Jardim Netinho Prado",
        "street": "Rua Dr Antonio Neves Almeida Prado",
        "zipcode": "17208-000"
    },
    {
        "city": "Jau",
        "state": "SP",
        "district": "Vila Ivan",
        "street": "Rua Domingos Pereira Carvalho",
        "zipcode": "17207-120"
    },
    {
        "city": "Jau",
        "state": "SP",
        "district": "Jardim Alvorada",
        "street": "Praça Hamilton Perlingeiro Junior",
        "zipcode": "17210-153"
    },
    {
        "city": "Jau",
        "state": "SP",
        "district": "Vila Carvalho",
        "street": "Rua Guanabara",
        "zipcode": "17205-470"
    },
    {
        "city": "Jau",
        "state": "SP",
        "district": "Vila Ivan",
        "street": "Avenida Do Cafe",
        "zipcode": "17207-000"
    },
    {
        "city": "Jau",
        "state": "SP",
        "district": "Jardim Campos Prado",
        "street": "Rua B",
        "zipcode": "17208-757"
    },
    {
        "city": "Jau",
        "state": "SP",
        "district": "Jardim Alvorada",
        "street": "Rua Jacinto Barrientos",
        "zipcode": "17210-140"
    },
    {
        "city": "Jau",
        "state": "SP",
        "district": "Vila Hilst",
        "street": "Rua Eduardo Hilst",
        "zipcode": "17207-240"
    },
    {
        "city": "Jau",
        "state": "SP",
        "district": "Jardim Das Alamandas",
        "street": "Rua L",
        "zipcode": "17209-807"
    },
    {
        "city": "Jau",
        "state": "SP",
        "district": "Jardim Das Alamandas",
        "street": "Rua U",
        "zipcode": "17209-818"
    },
    {
        "city": "Jau",
        "state": "SP",
        "district": "Jardim Sanzovo",
        "street": "Rua Wadih Atique",
        "zipcode": "17204-480"
    },
    {
        "city": "Jau",
        "state": "SP",
        "district": "Chacara Doutor Lopes",
        "street": "Rua Santa Monica",
        "zipcode": "17208-040"
    },
    {
        "city": "Jau",
        "state": "SP",
        "district": "Vila Hilst",
        "street": "Praça Miguel Russo",
        "zipcode": "17207-231"
    },
    {
        "city": "Jau",
        "state": "SP",
        "district": "Jardim Sanzovo",
        "street": "Rua Antonio Dalpino",
        "zipcode": "17204-440"
    },
    {
        "city": "Jau",
        "state": "SP",
        "district": "Jardim Ouro Verde",
        "street": "Rua Tres (3)",
        "zipcode": "17210-813"
    },
    {
        "city": "Jau",
        "state": "SP",
        "district": "Jardim Ana Carolina",
        "street": "Rua Olivio Crozera",
        "zipcode": "17208-371"
    },
    {
        "city": "Jau",
        "state": "SP",
        "district": "Jardim Sao Caetano",
        "street": "Praça Italo Baraldi",
        "zipcode": "17205-411"
    },
    {
        "city": "Jau",
        "state": "SP",
        "district": "Jardim Campos Prado",
        "street": "Rua D",
        "zipcode": "17208-759"
    },
    {
        "city": "Jau",
        "state": "SP",
        "district": "Jardim Sao Caetano",
        "street": "Rua Silvio Pollini",
        "zipcode": "17205-230"
    },
    {
        "city": "Jau",
        "state": "SP",
        "district": "Vila Hilst",
        "street": "Rua Luiz Teixeira",
        "zipcode": "17207-350"
    },
    {
        "city": "Jau",
        "state": "SP",
        "district": "Jardim Ouro Verde",
        "street": "Rua Oito (8)",
        "zipcode": "17210-818"
    },
    {
        "city": "Jau",
        "state": "SP",
        "district": "Jardim Ouro Verde",
        "street": "Avenida Um (1)",
        "zipcode": "17210-810"
    },
    {
        "city": "Jau",
        "state": "SP",
        "district": "Jardim Carolina",
        "street": "Praça Lions Clube",
        "zipcode": "17207-571"
    },
    {
        "city": "Jau",
        "state": "SP",
        "district": "Jardim Das Alamandas",
        "street": "Rua S",
        "zipcode": "17209-816"
    },
    {
        "city": "Jau",
        "state": "SP",
        "district": "Jardim Ouro Verde",
        "street": "Rua Dois (2)",
        "zipcode": "17210-812"
    },
    {
        "city": "Jau",
        "state": "SP",
        "district": "Chacara Flora",
        "street": "Rua Conego Teobaldo",
        "zipcode": "17204-490"
    },
    {
        "city": "Jau",
        "state": "SP",
        "district": "Jardim Ouro Verde",
        "street": "Rua Seis (6)",
        "zipcode": "17210-816"
    },
    {
        "city": "Jau",
        "state": "SP",
        "district": "Jardim Das Alamandas",
        "street": "Rua T",
        "zipcode": "17209-817"
    },
    {
        "city": "Jau",
        "state": "SP",
        "district": "Jardim Das Alamandas",
        "street": "Rua O",
        "zipcode": "17209-814"
    },
    {
        "city": "Jau",
        "state": "SP",
        "district": "Jardim Carolina",
        "street": "Avenida Do Cafe",
        "zipcode": "17207-010"
    },
    {
        "city": "Jau",
        "state": "SP",
        "district": "Jardim Vila Maria",
        "street": "Avenida Gustavo Chiozzi",
        "zipcode": "17208-050"
    },
    {
        "city": "Jau",
        "state": "SP",
        "district": "Jardim Campos Prado",
        "street": "Rua L",
        "zipcode": "17208-763"
    },
    {
        "city": "Jau",
        "state": "SP",
        "district": "Vila Nassif Name",
        "street": "Rua Paissandu",
        "zipcode": "17202-510"
    },
    {
        "city": "Jau",
        "state": "SP",
        "district": "Vila Sao Judas Tadeu",
        "street": "Avenida Joaquim Ferraz De Camargo",
        "zipcode": "17207-370"
    },
    {
        "city": "Jau",
        "state": "SP",
        "district": "Chacara Braz Miraglia",
        "street": "Rua Capitao Jose Ribeiro",
        "zipcode": "17207-320"
    },
    {
        "city": "Jau",
        "state": "SP",
        "district": "Vila Hilst",
        "street": "Rua Prof. Joao Jacintho De Almeida",
        "zipcode": "17207-220"
    },
    {
        "city": "Jau",
        "state": "SP",
        "district": "Jardim Alvorada",
        "street": "Avenida Nene Galvao",
        "zipcode": "17210-030"
    },
    {
        "city": "Jau",
        "state": "SP",
        "district": "Vila Carvalho",
        "street": "Rua Torello Dinucci",
        "zipcode": "17205-480"
    },
    {
        "city": "Jau",
        "state": "SP",
        "district": "Condominio Jardim Alvorada",
        "street": "Rua Arcilio Meschini",
        "zipcode": "17210-770"
    },
    {
        "city": "Jau",
        "state": "SP",
        "district": "Jardim Sanzovo",
        "street": "Rua Paschoal Piragine Neto",
        "zipcode": "17204-470"
    },
    {
        "city": "Jau",
        "state": "SP",
        "district": "Vila Maria Cristina",
        "street": "Rua Dr Joao Costa",
        "zipcode": "17207-380"
    },
    {
        "city": "Jau",
        "state": "SP",
        "district": "Vila Hilst",
        "street": "Rua Maestro Heitor Azzi",
        "zipcode": "17207-230"
    },
    {
        "city": "Jau",
        "state": "SP",
        "district": "Jardim Ana Carolina",
        "street": "Rua Flavio Pires De Campos",
        "zipcode": "17208-381"
    },
    {
        "city": "Jau",
        "state": "SP",
        "district": "Vila Alves De Almeida",
        "street": "Rua Vinte E Quatro De Fevereiro",
        "zipcode": "17207-810"
    },
    {
        "city": "Jau",
        "state": "SP",
        "district": "Jardim Ouro Verde",
        "street": "Rua Cinco (5)",
        "zipcode": "17210-815"
    },
    {
        "city": "Jau",
        "state": "SP",
        "district": "Jardim Ouro Verde",
        "street": "Rua Um (1)",
        "zipcode": "17210-811"
    },
    {
        "city": "Jau",
        "state": "SP",
        "district": "Jardim Das Alamandas",
        "street": "Rua N",
        "zipcode": "17209-811"
    },
    {
        "city": "Jau",
        "state": "SP",
        "district": "Jardim Diamante",
        "street": "Rua Dona Maria Ometto Franceschi",
        "zipcode": "17210-160"
    },
    {
        "city": "Jau",
        "state": "SP",
        "district": "Jardim Das Alamandas",
        "street": "Rua M",
        "zipcode": "17209-810"
    },
    {
        "city": "Jau",
        "state": "SP",
        "district": "Vila Sampaio Bueno",
        "street": "Rua Aristides Colo",
        "zipcode": "17205-500"
    },
    {
        "city": "Jau",
        "state": "SP",
        "district": "Jardim Sanzovo",
        "street": "Rua Felipe Di Chiachio",
        "zipcode": "17204-450"
    },
    {
        "city": "Jau",
        "state": "SP",
        "district": "Jardim Das Alamandas",
        "street": "Rua Q",
        "zipcode": "17209-813"
    },
    {
        "city": "Jau",
        "state": "SP",
        "district": "Jardim Alvorada",
        "street": "Praça Dr Gildo Renda",
        "zipcode": "17210-143"
    },
    {
        "city": "Jau",
        "state": "SP",
        "district": "Jardim Bernardi",
        "street": "Avenida Joao Ferraz Netto",
        "zipcode": "17209-000"
    },
    {
        "city": "Jau",
        "state": "SP",
        "district": "Jardim Alvorada",
        "street": "Rua Adolfo Sormani",
        "zipcode": "17210-570"
    },
    {
        "city": "Jau",
        "state": "SP",
        "district": "Jardim Antonina",
        "street": "Praça Joao Pacheco",
        "zipcode": "17211-560"
    },
    {
        "city": "Jau",
        "state": "SP",
        "district": "Jardim Das Alamandas",
        "street": "Rua R",
        "zipcode": "17209-815"
    },
    {
        "city": "Jau",
        "state": "SP",
        "district": "Jardim Santa Rosa",
        "street": "Rua Joao Nicola",
        "zipcode": "17209-340"
    },
    {
        "city": "Jau",
        "state": "SP",
        "district": "Jardim Das Alamandas",
        "street": "Rua E",
        "zipcode": "17209-801"
    },
    {
        "city": "Jau",
        "state": "SP",
        "district": "Chacara Bela Vista",
        "street": "Rua Anisio Do Prado",
        "zipcode": "17209-143"
    },
    {
        "city": "Jau",
        "state": "SP",
        "district": "Jardim Ouro Verde",
        "street": "Rua Sete (7)",
        "zipcode": "17210-817"
    },
    {
        "city": "Jau",
        "state": "SP",
        "district": "Jardim Sao Francisco",
        "street": "Avenida Joaquim Ferraz De Almeida Prado (Dudu Ferraz)",
        "zipcode": "17209-050"
    },
    {
        "city": "Jau",
        "state": "SP",
        "district": "Jardim Jorge Atalla",
        "street": "Avenida Dr Quinzinho",
        "zipcode": "17211-070"
    },
    {
        "city": "Jau",
        "state": "SP",
        "district": "Jardim Antonina",
        "street": "Praça Sampaio Leite",
        "zipcode": "17211-580"
    },
    {
        "city": "Jau",
        "state": "SP",
        "district": "Jardim Das Paineiras",
        "street": "Praça Joao Prado De Almeida Pacheco",
        "zipcode": "17211-245"
    },
    {
        "city": "Jau",
        "state": "SP",
        "district": "Jardim Pedro Ometto",
        "street": "Rua Camilo Marchesani",
        "zipcode": "17212-710"
    },
    {
        "city": "Jau",
        "state": "SP",
        "district": "Chacara Bela Vista",
        "street": "Rua Jose Di Chiachio",
        "zipcode": "17209-135"
    },
    {
        "city": "Jau",
        "state": "SP",
        "district": "Jardim Nova Jau",
        "street": "Rua Augusto Caseiro",
        "zipcode": "17213-400"
    },
    {
        "city": "Jau",
        "state": "SP",
        "district": "Jardim Santa Rosa",
        "street": "Rua Joao Caetano",
        "zipcode": "17209-330"
    },
    {
        "city": "Jau",
        "state": "SP",
        "district": "Jardim Das Alamandas",
        "street": "Rua B",
        "zipcode": "17209-770"
    },
    {
        "city": "Jau",
        "state": "SP",
        "district": "Jardim Das Alamandas",
        "street": "Rua J",
        "zipcode": "17209-805"
    },
    {
        "city": "Jau",
        "state": "SP",
        "district": "Jardim Nova Jau",
        "street": "Rua Jose Blassioli",
        "zipcode": "17213-390"
    },
    {
        "city": "Jau",
        "state": "SP",
        "district": "Jardim Pedro Ometto",
        "street": "Rua Projetada",
        "zipcode": "17212-060"
    },
    {
        "city": "Jau",
        "state": "SP",
        "district": "Jardim Das Alamandas",
        "street": "Rua F",
        "zipcode": "17209-802"
    },
    {
        "city": "Jau",
        "state": "SP",
        "district": "Jardim Santa Rosa",
        "street": "Rua Paulo Botelho De Almeida Prado",
        "zipcode": "17209-300"
    },
    {
        "city": "Jau",
        "state": "SP",
        "district": "Jardim Pedro Ometto",
        "street": "Rua Luiz Scorsafava",
        "zipcode": "17212-730"
    },
    {
        "city": "Jau",
        "state": "SP",
        "district": "Jardim Pedro Ometto",
        "street": "Praça Julio De Mesquita Neto",
        "zipcode": "17212-673"
    },
    {
        "city": "Jau",
        "state": "SP",
        "district": "Jardim Sempre Verde",
        "street": "Alameda Um (1)",
        "zipcode": "17211-605"
    },
    {
        "city": "Jau",
        "state": "SP",
        "district": "Vila Nova Jau",
        "street": "Avenida Joao Chammas",
        "zipcode": "17213-360"
    },
    {
        "city": "Jau",
        "state": "SP",
        "district": "Jardim Conde Pinhal",
        "street": "Rua Adilio Santo",
        "zipcode": "17213-380"
    },
    {
        "city": "Jau",
        "state": "SP",
        "district": "Jardim Das Alamandas",
        "street": "Rua G",
        "zipcode": "17209-800"
    },
    {
        "city": "Jau",
        "state": "SP",
        "district": "Jardim Bernardi",
        "street": "Rua Jose Bernardi",
        "zipcode": "17209-140"
    },
    {
        "city": "Jau",
        "state": "SP",
        "district": "Chacara Bela Vista",
        "street": "Rua Augusto Biazotto",
        "zipcode": "17209-132"
    },
    {
        "city": "Jau",
        "state": "SP",
        "district": "2A Zona Industrial",
        "street": "Rodovia Comandante Joao Ribeiro Barros (Sp 225)",
        "zipcode": "17213-820"
    },
    {
        "city": "Jau",
        "state": "SP",
        "district": "Vila Nova Jau",
        "street": "Rua E",
        "zipcode": "17213-790"
    },
    {
        "city": "Jau",
        "state": "SP",
        "district": "Chacara Bela Vista",
        "street": "Rua Miguel Defani",
        "zipcode": "17209-141"
    },
    {
        "city": "Jau",
        "state": "SP",
        "district": "Jardim Jorge Atalla",
        "street": "Avenida Nene Galvao",
        "zipcode": "17211-040"
    },
    {
        "city": "Jau",
        "state": "SP",
        "district": "Jardim Das Alamandas",
        "street": "Rua I",
        "zipcode": "17209-804"
    },
    {
        "city": "Jau",
        "state": "SP",
        "district": "Jardim Das Paineiras",
        "street": "Travessa D",
        "zipcode": "17211-060"
    },
    {
        "city": "Jau",
        "state": "SP",
        "district": "Jardim Santa Rosa",
        "street": "Rua Agostinho Poloni",
        "zipcode": "17209-370"
    },
    {
        "city": "Jau",
        "state": "SP",
        "district": "Jardim Rosa Branca",
        "street": "Alameda Jose Galdino Do Amaral Carvalho",
        "zipcode": "17212-050"
    },
    {
        "city": "Jau",
        "state": "SP",
        "district": "Vila Jardim Brasilia",
        "street": "Alameda Joao Da Costa Sampaio",
        "zipcode": "17212-243"
    },
    {
        "city": "Jau",
        "state": "SP",
        "district": "Jardim Pedro Ometto",
        "street": "Rua Conego Bento",
        "zipcode": "17212-630"
    },
    {
        "city": "Jau",
        "state": "SP",
        "district": "Jardim Maria Luiza",
        "street": "Rua B",
        "zipcode": "17213-770"
    },
    {
        "city": "Jau",
        "state": "SP",
        "district": "Jardim Das Alamandas",
        "street": "Rua A",
        "zipcode": "17209-760"
    },
    {
        "city": "Jau",
        "state": "SP",
        "district": "Jardim Das Alamandas",
        "street": "Rua D",
        "zipcode": "17209-790"
    },
    {
        "city": "Jau",
        "state": "SP",
        "district": "Chacara Bela Vista",
        "street": "Rua Americo Corazza",
        "zipcode": "17209-139"
    },
    {
        "city": "Jau",
        "state": "SP",
        "district": "Jardim Pedro Ometto",
        "street": "Rua Nassib Buchala",
        "zipcode": "17212-720"
    },
    {
        "city": "Jau",
        "state": "SP",
        "district": "Vila Nossa Senhora De Fatima",
        "street": "Rua Joaquim Ferreira Do Amaral",
        "zipcode": "17211-130"
    },
    {
        "city": "Jau",
        "state": "SP",
        "district": "Chacara Peccioli",
        "street": "Rua Jose Carlos Pavanelli",
        "zipcode": "17211-550"
    },
    {
        "city": "Jau",
        "state": "SP",
        "district": "Jardim Maria Luiza",
        "street": "Rua Edgard Ferraz",
        "zipcode": "17203-000"
    },
    {
        "city": "Jau",
        "state": "SP",
        "district": "Chacara Flora",
        "street": "Rua Tito Colo",
        "zipcode": "17204-410"
    },
    {
        "city": "Jau",
        "state": "SP",
        "district": "Jardim Ana Carolina",
        "street": "Avenida Lucio De Arruda Leme",
        "zipcode": "17208-740"
    },
    {
        "city": "Jau",
        "state": "SP",
        "district": "Jardim Antonina",
        "street": "Praça Izaltino Sampaio Gois",
        "zipcode": "17211-570"
    },
    {
        "city": "Jau",
        "state": "SP",
        "district": "Vila Santa Maria",
        "street": "Rua Manoel Martins",
        "zipcode": "17205-440"
    },
    {
        "city": "Jau",
        "state": "SP",
        "district": "Jardim Netinho Prado",
        "street": "Avenida Joaquim Ferraz De Camargo",
        "zipcode": "17208-030"
    },
    {
        "city": "Jau",
        "state": "SP",
        "district": "Vila Sampaio Bueno",
        "street": "Rua Dr Anselmo Cardillo",
        "zipcode": "17205-510"
    },
    {
        "city": "Jau",
        "state": "SP",
        "district": "Jardim Das Alamandas",
        "street": "Rua H",
        "zipcode": "17209-803"
    },
    {
        "city": "Jau",
        "state": "SP",
        "district": "Chacara Bela Vista",
        "street": "Rua Marcel Maziteli Trindade",
        "zipcode": "17209-145"
    },
    {
        "city": "Jau",
        "state": "SP",
        "district": "Vila Padre Nosso",
        "street": "Rua Joao Pacheco Almeida Prado Filho",
        "zipcode": "17202-280"
    },
    {
        "city": "Jau",
        "state": "SP",
        "district": "Jardim Alvorada",
        "street": "Avenida Joao Franceschi",
        "zipcode": "17210-150"
    },
    {
        "city": "Jau",
        "state": "SP",
        "district": "Jardim Maria Luiza",
        "street": "Rua E",
        "zipcode": "17213-780"
    },
    {
        "city": "Jau",
        "state": "SP",
        "district": "Jardim Regina",
        "street": "Praça Raul Bauab",
        "zipcode": "17207-311"
    },
    {
        "city": "Jau",
        "state": "SP",
        "district": "Condominio Jardim Alvorada",
        "street": "Rua Dr Alceu Ferraz Costa",
        "zipcode": "17210-760"
    },
    {
        "city": "Jau",
        "state": "SP",
        "district": "Vila Jardim Brasilia",
        "street": "Avenida Decio Pacheco De Almeida Prado",
        "zipcode": "17212-110"
    },
    {
        "city": "Jau",
        "state": "SP",
        "district": "Jardim Das Alamandas",
        "street": "Rua C",
        "zipcode": "17209-780"
    },
    {
        "city": "Jau",
        "state": "SP",
        "district": "Jardim Conde Pinhal",
        "street": "Rua Adelino Ferrari",
        "zipcode": "17203-230"
    },
    {
        "city": "Jau",
        "state": "SP",
        "district": "Vila Assis",
        "street": "Avenida Isaltino Do Amaral Carvalho",
        "zipcode": "17210-020"
    },
    {
        "city": "Jau",
        "state": "SP",
        "district": "Vila Sao Judas Tadeu",
        "street": "Rua Leopoldo Corradi",
        "zipcode": "17207-800"
    },
    {
        "city": "Jau",
        "state": "SP",
        "district": "Jardim Ouro Verde",
        "street": "Rua Quatro (4)",
        "zipcode": "17210-814"
    },
    {
        "city": "Jau",
        "state": "SP",
        "district": "Vila Maria Cristina",
        "street": "Rua Dr Antonio Neves Almeida Prado",
        "zipcode": "17207-360"
    },
    {
        "city": "Jau",
        "state": "SP",
        "district": "Jardim Estadio",
        "street": "Avenida Anna Claudina",
        "zipcode": "17203-530"
    },
    {
        "city": "Jau",
        "state": "SP",
        "district": "Jardim Sao Caetano",
        "street": "Rua Italo Baraldi",
        "zipcode": "17205-410"
    },
    {
        "city": "Jau",
        "state": "SP",
        "district": "Condominio Jardim Alvorada",
        "street": "Rua C",
        "zipcode": "17210-840"
    },
    {
        "city": "Jau",
        "state": "SP",
        "district": "Jardim Ouro Verde",
        "street": "Rua Nove (9)",
        "zipcode": "17210-819"
    },
    {
        "city": "Jau",
        "state": "SP",
        "district": "Chacara Flora",
        "street": "Rua Wady Izar",
        "zipcode": "17204-370"
    },
    {
        "city": "Jau",
        "state": "SP",
        "district": "Chacara Bela Vista",
        "street": "Rua Elvira Meyer De Campos",
        "zipcode": "17209-137"
    },
    {
        "city": "Jau",
        "state": "SP",
        "district": "Jardim Das Paineiras",
        "street": "Avenida Jose Galdino Do Amaral Carvalho",
        "zipcode": "17211-050"
    },
    {
        "city": "Jau",
        "state": "SP",
        "district": "Chacara Itauna",
        "street": "Rodovia Deputado Amauri Barroso De Souza",
        "zipcode": "17213-800"
    },
    {
        "city": "Jau",
        "state": "SP",
        "district": "Jardim Alvorada",
        "street": "Rua Mario Sidney Franceschi",
        "zipcode": "17210-290"
    },
    {
        "city": "Jau",
        "state": "SP",
        "district": "Jardim Ferreira Dias",
        "street": "Avenida Nene Galvao",
        "zipcode": "17209-040"
    },
    {
        "city": "Jau",
        "state": "SP",
        "district": "Jardim Sanzovo",
        "street": "Rua Deolindo De Oliveira E Souza",
        "zipcode": "17204-460"
    },
    {
        "city": "Jau",
        "state": "SP",
        "district": "Jardim Nova Jau",
        "street": "Avenida Monsenhor Serra",
        "zipcode": "17213-370"
    },
    {
        "city": "Jau",
        "state": "SP",
        "district": "Jardim Sanzovo",
        "street": "Rua Ubaldo Damiano",
        "zipcode": "17204-420"
    },
    {
        "city": "Jau",
        "state": "SP",
        "district": "1A Zona Industrial",
        "street": "Avenida Deputado Zien Nassif",
        "zipcode": "17204-140"
    },
    {
        "city": "Jau",
        "state": "SP",
        "district": "Jardim Conde Pinhal",
        "street": "Avenida Joao De Moraes Prado",
        "zipcode": "17203-200"
    },
    {
        "city": "Jau",
        "state": "SP",
        "district": "1A Zona Industrial",
        "street": "Rodovia Comandante Joao Ribeiro Barros (Sp 304)",
        "zipcode": "17204-740"
    },
    {
        "city": "Jau",
        "state": "SP",
        "district": "Vila Santo Ivo",
        "street": "Rua Benedito Manoel",
        "zipcode": "17213-020"
    },
    {
        "city": "Jau",
        "state": "SP",
        "district": "Jardim Das Alamandas",
        "street": "Rua P",
        "zipcode": "17209-812"
    },
    {
        "city": "Jau",
        "state": "SP",
        "district": "Jardim Sao Caetano",
        "street": "Rua Bernardino Mosca",
        "zipcode": "17205-430"
    },
    {
        "city": "Jau",
        "state": "SP",
        "district": "Vila Nova Jau",
        "street": "Rua Jesuino Dos Santos",
        "zipcode": "17205-420"
    },
    {
        "city": "Jau",
        "state": "SP",
        "district": "Jardim Nova Jau",
        "street": "Avenida Dr Luciano Pacheco De Almeida Prado Neto",
        "zipcode": "17213-350"
    }
]