[
    {
        "city": "Jundiai",
        "state": "SP",
        "district": "Centro",
        "street": "Rua Do Rosario",
        "zipcode": "13201-784"
    },
    {
        "city": "Jundiai",
        "state": "SP",
        "district": "Centro",
        "street": "Rua Barao De Jundiai",
        "zipcode": "13201-774"
    },
    {
        "city": "Jundiai",
        "state": "SP",
        "district": "Chacara Urbana",
        "street": "Rua Socrates Fernandes De Oliveira",
        "zipcode": "13200-430"
    },
    {
        "city": "Jundiai",
        "state": "SP",
        "district": "Vila Cunha",
        "street": "Rua Floreal",
        "zipcode": "13201-131"
    },
    {
        "city": "Jundiai",
        "state": "SP",
        "district": "Ponte De Campinas",
        "street": "Rua Rincao",
        "zipcode": "13201-132"
    },
    {
        "city": "Jundiai",
        "state": "SP",
        "district": "Centro",
        "street": "Rua Jose De Oliveira Brochado",
        "zipcode": "13201-410"
    },
    {
        "city": "Jundiai",
        "state": "SP",
        "district": "Vila Argos Nova",
        "street": "Rua Pio Xii",
        "zipcode": "13201-343"
    },
    {
        "city": "Jundiai",
        "state": "SP",
        "district": "Vila Argos Nova",
        "street": "Rua Alberto Scarciofoli",
        "zipcode": "13201-344"
    },
    {
        "city": "Jundiai",
        "state": "SP",
        "district": "Centro",
        "street": "Rua Da Padroeira",
        "zipcode": "13201-470"
    },
    {
        "city": "Jundiai",
        "state": "SP",
        "district": "Anhangabau",
        "street": "Rua Do Retiro",
        "zipcode": "13201-795"
    },
    {
        "city": "Jundiai",
        "state": "SP",
        "district": "Jardim Tannus",
        "street": "Rua Manoel Fagundes Contrim",
        "zipcode": "13201-802"
    },
    {
        "city": "Jundiai",
        "state": "SP",
        "district": "Centro",
        "street": "Rua Dr Almeida",
        "zipcode": "13201-430"
    },
    {
        "city": "Jundiai",
        "state": "SP",
        "district": "Centro",
        "street": "Rua Henrique Dias",
        "zipcode": "13201-491"
    },
    {
        "city": "Jundiai",
        "state": "SP",
        "district": "Vila Santa Rosa",
        "street": "Avenida Dr Cavalcanti",
        "zipcode": "13201-500"
    },
    {
        "city": "Jundiai",
        "state": "SP",
        "district": "Ponte De Campinas",
        "street": "Rua Novo Horizonte",
        "zipcode": "13201-240"
    },
    {
        "city": "Jundiai",
        "state": "SP",
        "district": "Ponte De Campinas",
        "street": "Rua Margarida Ricon",
        "zipcode": "13201-250"
    },
    {
        "city": "Jundiai",
        "state": "SP",
        "district": "Centro",
        "street": "Rua Barao Do Triunfo",
        "zipcode": "13201-792"
    },
    {
        "city": "Jundiai",
        "state": "SP",
        "district": "Ponte De Campinas",
        "street": "Avenida Antonio Segre",
        "zipcode": "13201-050"
    },
    {
        "city": "Jundiai",
        "state": "SP",
        "district": "Centro",
        "street": "Praça Tiburcio Estevam De Siqueira",
        "zipcode": "13201-819"
    },
    {
        "city": "Jundiai",
        "state": "SP",
        "district": "Centro",
        "street": "Rua Senador Fonseca",
        "zipcode": "13201-789"
    },
    {
        "city": "Jundiai",
        "state": "SP",
        "district": "Centro",
        "street": "Rua Roma",
        "zipcode": "13201-781"
    },
    {
        "city": "Jundiai",
        "state": "SP",
        "district": "Centro",
        "street": "Rua Barao De Jundiai",
        "zipcode": "13201-777"
    },
    {
        "city": "Jundiai",
        "state": "SP",
        "district": "Centro",
        "street": "Rua Coronel Leme Da Fonseca",
        "zipcode": "13201-794"
    },
    {
        "city": "Jundiai",
        "state": "SP",
        "district": "Centro",
        "street": "Rua Major Sucupira",
        "zipcode": "13201-780"
    },
    {
        "city": "Jundiai",
        "state": "SP",
        "district": "Centro",
        "street": "Rua Bernardino De Campos",
        "zipcode": "13201-791"
    },
    {
        "city": "Jundiai",
        "state": "SP",
        "district": "Vila Progresso",
        "street": "Praça Getulio Vargas",
        "zipcode": "13202-019"
    },
    {
        "city": "Jundiai",
        "state": "SP",
        "district": "Centro",
        "street": "Rua Bartolomeu Lourenco",
        "zipcode": "13201-530"
    },
    {
        "city": "Jundiai",
        "state": "SP",
        "district": "Centro",
        "street": "Rua Sao Bento",
        "zipcode": "13201-450"
    },
    {
        "city": "Jundiai",
        "state": "SP",
        "district": "Centro",
        "street": "Rua Do Rosario",
        "zipcode": "13201-783"
    },
    {
        "city": "Jundiai",
        "state": "SP",
        "district": "Centro",
        "street": "Rua Candido Rodrigues",
        "zipcode": "13201-787"
    },
    {
        "city": "Jundiai",
        "state": "SP",
        "district": "Centro",
        "street": "Rua Secundino Veiga",
        "zipcode": "13201-782"
    },
    {
        "city": "Jundiai",
        "state": "SP",
        "district": "Centro",
        "street": "Rua Vitorio Menon",
        "zipcode": "13201-492"
    },
    {
        "city": "Jundiai",
        "state": "SP",
        "district": "Vila Arens",
        "street": "Rua Quinze De Novembro",
        "zipcode": "13201-420"
    },
    {
        "city": "Jundiai",
        "state": "SP",
        "district": "Ponte De Campinas",
        "street": "Rua Nova Europa",
        "zipcode": "13201-242"
    },
    {
        "city": "Jundiai",
        "state": "SP",
        "district": "Centro",
        "street": "Rua Jorge Zolner",
        "zipcode": "13201-824"
    },
    {
        "city": "Jundiai",
        "state": "SP",
        "district": "Centro",
        "street": "Travessa Particular (R Torres Neves)",
        "zipcode": "13201-482"
    },
    {
        "city": "Jundiai",
        "state": "SP",
        "district": "Centro",
        "street": "Praça Dr Domingos Anastacio",
        "zipcode": "13201-483"
    },
    {
        "city": "Jundiai",
        "state": "SP",
        "district": "Centro",
        "street": "Rua Dr Leonardo Cavalcanti",
        "zipcode": "13201-823"
    },
    {
        "city": "Jundiai",
        "state": "SP",
        "district": "Centro",
        "street": "Rua Barao De Jundiai",
        "zipcode": "13201-775"
    },
    {
        "city": "Jundiai",
        "state": "SP",
        "district": "Centro",
        "street": "Rua Prudente De Moraes",
        "zipcode": "13201-340"
    },
    {
        "city": "Jundiai",
        "state": "SP",
        "district": "Centro",
        "street": "Travessa Padroeira",
        "zipcode": "13201-471"
    },
    {
        "city": "Jundiai",
        "state": "SP",
        "district": "Centro",
        "street": "Rua Vigario Joao Jose Rodrigues",
        "zipcode": "13201-490"
    },
    {
        "city": "Jundiai",
        "state": "SP",
        "district": "Bela Vista",
        "street": "Rua Petronilha Antunes",
        "zipcode": "13201-799"
    },
    {
        "city": "Jundiai",
        "state": "SP",
        "district": "Centro",
        "street": "Rua Engenheiro Monlevade",
        "zipcode": "13201-510"
    },
    {
        "city": "Jundiai",
        "state": "SP",
        "district": "Centro",
        "street": "Rua Primeiro De Maio",
        "zipcode": "13201-422"
    },
    {
        "city": "Jundiai",
        "state": "SP",
        "district": "Centro",
        "street": "Rua Da Imprensa",
        "zipcode": "13201-818"
    },
    {
        "city": "Jundiai",
        "state": "SP",
        "district": "Centro",
        "street": "Rua Anthero Dos Santos",
        "zipcode": "13201-776"
    },
    {
        "city": "Jundiai",
        "state": "SP",
        "district": "Centro",
        "street": "Rua Dr Torres Neves",
        "zipcode": "13201-480"
    },
    {
        "city": "Jundiai",
        "state": "SP",
        "district": "Centro",
        "street": "Rua Benjamim Constant",
        "zipcode": "13201-350"
    },
    {
        "city": "Jundiai",
        "state": "SP",
        "district": "Centro",
        "street": "Praça Governador Pedro De Toledo",
        "zipcode": "13201-785"
    },
    {
        "city": "Jundiai",
        "state": "SP",
        "district": "Ponte De Campinas",
        "street": "Avenida Antonio Segre",
        "zipcode": "13201-842"
    },
    {
        "city": "Jundiai",
        "state": "SP",
        "district": "Vila Rafael De Oliveira",
        "street": "Rua Bartolomeu Bueno Da Silva",
        "zipcode": "13201-200"
    },
    {
        "city": "Jundiai",
        "state": "SP",
        "district": "Centro",
        "street": "Rua Candido Rodrigues",
        "zipcode": "13201-520"
    },
    {
        "city": "Jundiai",
        "state": "SP",
        "district": "Centro",
        "street": "Rua Sao Jose",
        "zipcode": "13201-790"
    },
    {
        "city": "Jundiai",
        "state": "SP",
        "district": "Ponte De Campinas",
        "street": "Avenida Nove De Julho",
        "zipcode": "13201-798"
    },
    {
        "city": "Jundiai",
        "state": "SP",
        "district": "Vila Rafael De Oliveira",
        "street": "Travessa Carlos Melato",
        "zipcode": "13201-220"
    },
    {
        "city": "Jundiai",
        "state": "SP",
        "district": "Jardim Do Lago",
        "street": "Avenida Prof. Leonita Faber Ladeira",
        "zipcode": "13202-010"
    },
    {
        "city": "Jundiai",
        "state": "SP",
        "district": "Vila Rafael De Oliveira",
        "street": "Rua Tome De Souza",
        "zipcode": "13201-282"
    },
    {
        "city": "Jundiai",
        "state": "SP",
        "district": "Centro",
        "street": "Avenida Henrique Andres",
        "zipcode": "13201-330"
    },
    {
        "city": "Jundiai",
        "state": "SP",
        "district": "Centro",
        "street": "Travessa Capitao Joao Vicente Ferreira",
        "zipcode": "13201-361"
    },
    {
        "city": "Jundiai",
        "state": "SP",
        "district": "Centro",
        "street": "Praça Frederico Ozanan",
        "zipcode": "13201-815"
    },
    {
        "city": "Jundiai",
        "state": "SP",
        "district": "Vila Municipal",
        "street": "Rua Jordao Cabral",
        "zipcode": "13201-341"
    },
    {
        "city": "Jundiai",
        "state": "SP",
        "district": "Vila Arens",
        "street": "Praça Maua",
        "zipcode": "13201-429"
    },
    {
        "city": "Jundiai",
        "state": "SP",
        "district": "Centro",
        "street": "Praça Marechal Floriano Peixoto",
        "zipcode": "13201-786"
    },
    {
        "city": "Jundiai",
        "state": "SP",
        "district": "Centro",
        "street": "Rua Conde De Parnaiba",
        "zipcode": "13201-440"
    },
    {
        "city": "Jundiai",
        "state": "SP",
        "district": "Vila Progresso",
        "street": "Rua Florianopolis",
        "zipcode": "13202-160"
    },
    {
        "city": "Jundiai",
        "state": "SP",
        "district": "Vila Isabel Eber",
        "street": "Rua Pereira Barreto",
        "zipcode": "13202-400"
    },
    {
        "city": "Jundiai",
        "state": "SP",
        "district": "Vila Arens",
        "street": "Rua Gandra",
        "zipcode": "13202-401"
    },
    {
        "city": "Jundiai",
        "state": "SP",
        "district": "Vila Progresso",
        "street": "Rua Zuferey",
        "zipcode": "13202-421"
    },
    {
        "city": "Jundiai",
        "state": "SP",
        "district": "Vila Santa Maria",
        "street": "Rua Rigo Sanguini",
        "zipcode": "13203-270"
    },
    {
        "city": "Jundiai",
        "state": "SP",
        "district": "Vila Sao Paulo",
        "street": "Rua Nossa Senhora Do Montenegro",
        "zipcode": "13203-424"
    },
    {
        "city": "Jundiai",
        "state": "SP",
        "district": "Jardim Do Lago",
        "street": "Rua Paulinia",
        "zipcode": "13203-431"
    },
    {
        "city": "Jundiai",
        "state": "SP",
        "district": "Vila Helena",
        "street": "Rua Santiago",
        "zipcode": "13206-730"
    },
    {
        "city": "Jundiai",
        "state": "SP",
        "district": "Jardim Cristina",
        "street": "Rua Veneza",
        "zipcode": "13207-431"
    },
    {
        "city": "Jundiai",
        "state": "SP",
        "district": "Centro",
        "street": "Rua Ulysses Jorge Martinho",
        "zipcode": "13201-817"
    },
    {
        "city": "Jundiai",
        "state": "SP",
        "district": "Centro",
        "street": "Rua Baronesa Do Japi",
        "zipcode": "13207-000"
    },
    {
        "city": "Jundiai",
        "state": "SP",
        "district": "Vila Arens",
        "street": "Praça General Newton Stilac Leal",
        "zipcode": "13202-009"
    },
    {
        "city": "Jundiai",
        "state": "SP",
        "district": "Vila Angelica",
        "street": "Rua Santa Marta",
        "zipcode": "13206-771"
    },
    {
        "city": "Jundiai",
        "state": "SP",
        "district": "Vila Loureiro",
        "street": "Rua Miguel Monta",
        "zipcode": "13206-681"
    },
    {
        "city": "Jundiai",
        "state": "SP",
        "district": "Vila Arens",
        "street": "Rua Dr Hegg",
        "zipcode": "13202-441"
    },
    {
        "city": "Jundiai",
        "state": "SP",
        "district": "Vila Japi",
        "street": "Travessa Noel Rosa",
        "zipcode": "13202-613"
    },
    {
        "city": "Jundiai",
        "state": "SP",
        "district": "Vila Angelica",
        "street": "Rua Artur Germano Fher",
        "zipcode": "13206-780"
    },
    {
        "city": "Jundiai",
        "state": "SP",
        "district": "Vila Progresso",
        "street": "Rua Iv Centenario",
        "zipcode": "13202-272"
    },
    {
        "city": "Jundiai",
        "state": "SP",
        "district": "Vila Santa Maria",
        "street": "Rua Tapajos",
        "zipcode": "13203-130"
    },
    {
        "city": "Jundiai",
        "state": "SP",
        "district": "Vila M Genoveva",
        "street": "Rua Aracaju",
        "zipcode": "13203-100"
    },
    {
        "city": "Jundiai",
        "state": "SP",
        "district": "Centro",
        "street": "Avenida Henrique Andres",
        "zipcode": "13201-841"
    },
    {
        "city": "Jundiai",
        "state": "SP",
        "district": "Jardim Anhanguera",
        "street": "Avenida Nove De Julho",
        "zipcode": "13208-010"
    },
    {
        "city": "Jundiai",
        "state": "SP",
        "district": "Vila Loyola",
        "street": "Rua Jacinto Borges",
        "zipcode": "13208-103"
    },
    {
        "city": "Jundiai",
        "state": "SP",
        "district": "Jardim Anhanguera",
        "street": "Rua Chideu Chicuta",
        "zipcode": "13208-450"
    },
    {
        "city": "Jundiai",
        "state": "SP",
        "district": "Vila Das Hortencias",
        "street": "Rua Do Retiro",
        "zipcode": "13209-002"
    },
    {
        "city": "Jundiai",
        "state": "SP",
        "district": "Parque Do Colegio",
        "street": "Rua Augusto Trevisan",
        "zipcode": "13209-740"
    },
    {
        "city": "Jundiai",
        "state": "SP",
        "district": "Vila Maringa",
        "street": "Rua Clayr Fernando Gatto",
        "zipcode": "13210-120"
    },
    {
        "city": "Jundiai",
        "state": "SP",
        "district": "Vila Maringa",
        "street": "Rua Apucarana",
        "zipcode": "13210-150"
    },
    {
        "city": "Jundiai",
        "state": "SP",
        "district": "Vila Maringa",
        "street": "Rua Londrina",
        "zipcode": "13210-160"
    },
    {
        "city": "Jundiai",
        "state": "SP",
        "district": "Vila Santana",
        "street": "Praça Campo Limpo",
        "zipcode": "13202-618"
    },
    {
        "city": "Jundiai",
        "state": "SP",
        "district": "Vl Della Piazza",
        "street": "Praça Mansueto Rigoni",
        "zipcode": "13207-279"
    },
    {
        "city": "Jundiai",
        "state": "SP",
        "district": "Jardim Dupre",
        "street": "Rua Secondo Martini",
        "zipcode": "13202-350"
    },
    {
        "city": "Jundiai",
        "state": "SP",
        "district": "Vila Cristo Redentor",
        "street": "Rua Emancipacao",
        "zipcode": "13203-161"
    },
    {
        "city": "Jundiai",
        "state": "SP",
        "district": "Vila Isabel Eber",
        "street": "Praça Padre Adalberto De Paula Nunes",
        "zipcode": "13202-539"
    },
    {
        "city": "Jundiai",
        "state": "SP",
        "district": "Vila Nova Jundiai",
        "street": "Rua Apolo De Almeida",
        "zipcode": "13210-550"
    },
    {
        "city": "Jundiai",
        "state": "SP",
        "district": "Jardim Messina",
        "street": "Rua Augusta",
        "zipcode": "13207-581"
    },
    {
        "city": "Jundiai",
        "state": "SP",
        "district": "Jardim Sao Bento",
        "street": "Avenida Dr Odil Campos De Saes",
        "zipcode": "13202-430"
    },
    {
        "city": "Jundiai",
        "state": "SP",
        "district": "Vila Helena",
        "street": "Rua Ernesto Lotierzo",
        "zipcode": "13206-653"
    },
    {
        "city": "Jundiai",
        "state": "SP",
        "district": "Vila Japi",
        "street": "Avenida Comandante Siqueira Campos",
        "zipcode": "13202-612"
    },
    {
        "city": "Jundiai",
        "state": "SP",
        "district": "Vila Isabel Eber",
        "street": "Rua Waldomiro Lobo Da Costa",
        "zipcode": "13202-423"
    },
    {
        "city": "Jundiai",
        "state": "SP",
        "district": "Vila Progresso",
        "street": "Rua Dona Raquel Simonsen",
        "zipcode": "13202-370"
    },
    {
        "city": "Jundiai",
        "state": "SP",
        "district": "Vila Progresso",
        "street": "Rua Major Paulo Maria Gonzaga De Lacerda",
        "zipcode": "13202-360"
    },
    {
        "city": "Jundiai",
        "state": "SP",
        "district": "Vila Santa Maria",
        "street": "Rua Ramalho",
        "zipcode": "13203-140"
    },
    {
        "city": "Jundiai",
        "state": "SP",
        "district": "Vila Arens",
        "street": "Rua Maestro Frederico Nano",
        "zipcode": "13202-310"
    },
    {
        "city": "Jundiai",
        "state": "SP",
        "district": "Jardim Cristina",
        "street": "Rua Florenca",
        "zipcode": "13207-432"
    },
    {
        "city": "Jundiai",
        "state": "SP",
        "district": "Vila Isabel Eber",
        "street": "Rua Brasil",
        "zipcode": "13202-530"
    },
    {
        "city": "Jundiai",
        "state": "SP",
        "district": "Vila Santa Maria",
        "street": "Rua Felipe Sechler Machado",
        "zipcode": "13203-120"
    },
    {
        "city": "Jundiai",
        "state": "SP",
        "district": "Vl Della Piazza",
        "street": "Rua Santos",
        "zipcode": "13207-610"
    },
    {
        "city": "Jundiai",
        "state": "SP",
        "district": "Jardim Anhanguera",
        "street": "Rua Carvalho Pinto",
        "zipcode": "13208-480"
    },
    {
        "city": "Jundiai",
        "state": "SP",
        "district": "Jardim Luciana",
        "street": "Rua Angelo Dainese",
        "zipcode": "13208-061"
    },
    {
        "city": "Jundiai",
        "state": "SP",
        "district": "Anhangabau",
        "street": "Praça Cidade De Sao Paulo",
        "zipcode": "13208-002"
    },
    {
        "city": "Jundiai",
        "state": "SP",
        "district": "Jardim Cica",
        "street": "Rua Suica",
        "zipcode": "13206-770"
    },
    {
        "city": "Jundiai",
        "state": "SP",
        "district": "Vila Pirapora",
        "street": "Rua Sao Caetano",
        "zipcode": "13207-590"
    },
    {
        "city": "Jundiai",
        "state": "SP",
        "district": "Vila Helena",
        "street": "Rua Buenos Aires",
        "zipcode": "13206-740"
    },
    {
        "city": "Jundiai",
        "state": "SP",
        "district": "Vl Della Piazza",
        "street": "Rua Pedro Massagardi",
        "zipcode": "13207-662"
    },
    {
        "city": "Jundiai",
        "state": "SP",
        "district": "Vila Santana",
        "street": "Rua Aguai",
        "zipcode": "13202-762"
    },
    {
        "city": "Jundiai",
        "state": "SP",
        "district": "Vila Progresso",
        "street": "Rua Ana Micheletti",
        "zipcode": "13202-380"
    },
    {
        "city": "Jundiai",
        "state": "SP",
        "district": "Jardim Bizarro",
        "street": "Rua Escocia",
        "zipcode": "13207-663"
    },
    {
        "city": "Jundiai",
        "state": "SP",
        "district": "Vila Maringa",
        "street": "Avenida Marginal Esquerda",
        "zipcode": "13210-140"
    },
    {
        "city": "Jundiai",
        "state": "SP",
        "district": "Vila Cacilda",
        "street": "Rua Aviador Joao Ribeiro De Barros",
        "zipcode": "13208-235"
    },
    {
        "city": "Jundiai",
        "state": "SP",
        "district": "Vila Maringa",
        "street": "Rua California",
        "zipcode": "13210-110"
    },
    {
        "city": "Jundiai",
        "state": "SP",
        "district": "Jardim Estadio",
        "street": "Avenida Gumercindo Soares De Camargo",
        "zipcode": "13203-440"
    },
    {
        "city": "Jundiai",
        "state": "SP",
        "district": "Jardim Do Lago",
        "street": "Rua Jose Adolfo",
        "zipcode": "13203-454"
    },
    {
        "city": "Jundiai",
        "state": "SP",
        "district": "Jardim Do Lago",
        "street": "Avenida Nelson Villaca",
        "zipcode": "13203-520"
    },
    {
        "city": "Jundiai",
        "state": "SP",
        "district": "Jardim Estadio",
        "street": "Rua Barueri",
        "zipcode": "13203-633"
    },
    {
        "city": "Jundiai",
        "state": "SP",
        "district": "Vila Angelica",
        "street": "Rua Cica",
        "zipcode": "13206-000"
    },
    {
        "city": "Jundiai",
        "state": "SP",
        "district": "Vila Mafalda",
        "street": "Avenida Quatorze De Dezembro",
        "zipcode": "13206-011"
    },
    {
        "city": "Jundiai",
        "state": "SP",
        "district": "Jardim Pitangueiras",
        "street": "Rua Raul Tedeschi",
        "zipcode": "13206-484"
    },
    {
        "city": "Jundiai",
        "state": "SP",
        "district": "Vila Vianelo",
        "street": "Rua Adolfo Torricelli",
        "zipcode": "13207-570"
    },
    {
        "city": "Jundiai",
        "state": "SP",
        "district": "Vila Nova Jundiainopolis",
        "street": "Rua Manoel Mendes",
        "zipcode": "13210-803"
    },
    {
        "city": "Jundiai",
        "state": "SP",
        "district": "Vila Militar",
        "street": "Rodovia Dos Bandeirantes",
        "zipcode": "13210-824"
    },
    {
        "city": "Jundiai",
        "state": "SP",
        "district": "Engordadouro",
        "street": "Via Anhanguera",
        "zipcode": "13210-821"
    },
    {
        "city": "Jundiai",
        "state": "SP",
        "district": "Jardim Petropolis",
        "street": "Rua Bom Jesus De Pirapora",
        "zipcode": "13207-661"
    },
    {
        "city": "Jundiai",
        "state": "SP",
        "district": "Vila Vioto",
        "street": "Via Anhanguera",
        "zipcode": "13210-816"
    },
    {
        "city": "Jundiai",
        "state": "SP",
        "district": "Jardim Paris",
        "street": "Rua Retiro Do",
        "zipcode": "13209-001"
    },
    {
        "city": "Jundiai",
        "state": "SP",
        "district": "Jardim Florida",
        "street": "Rua Mario Buzanelli",
        "zipcode": "13208-810"
    },
    {
        "city": "Jundiai",
        "state": "SP",
        "district": "Jardim Merc",
        "street": "Rua Wilson Vieira Chacha",
        "zipcode": "13206-360"
    },
    {
        "city": "Jundiai",
        "state": "SP",
        "district": "Vila Sao Bento",
        "street": "Rua Wenceslau De Queiros",
        "zipcode": "13206-040"
    },
    {
        "city": "Jundiai",
        "state": "SP",
        "district": "Jardim Estadio",
        "street": "Rua Osvaldo Del Nero",
        "zipcode": "13203-450"
    },
    {
        "city": "Jundiai",
        "state": "SP",
        "district": "Retiro",
        "street": "Via Anhanguera",
        "zipcode": "13210-817"
    },
    {
        "city": "Jundiai",
        "state": "SP",
        "district": "Anhangabau",
        "street": "Avenida Jundiai",
        "zipcode": "13208-000"
    },
    {
        "city": "Jundiai",
        "state": "SP",
        "district": "Chacara M Mediterranea",
        "street": "Via Anhanguera",
        "zipcode": "13210-822"
    },
    {
        "city": "Jundiai",
        "state": "SP",
        "district": "Vila Nova Jundiainopolis",
        "street": "Rua Avai",
        "zipcode": "13206-560"
    },
    {
        "city": "Jundiai",
        "state": "SP",
        "district": "Jardim Copacabana",
        "street": "Rodovia Dos Bandeirantes",
        "zipcode": "13210-825"
    },
    {
        "city": "Jundiai",
        "state": "SP",
        "district": "Jardim Europa",
        "street": "Rodovia Dos Bandeirantes",
        "zipcode": "13210-831"
    },
    {
        "city": "Jundiai",
        "state": "SP",
        "district": "Distrito Industrial",
        "street": "Rodovia Dos Bandeirantes",
        "zipcode": "13210-834"
    },
    {
        "city": "Jundiai",
        "state": "SP",
        "district": "Distrito Industrial",
        "street": "Rodovia Dos Bandeirantes",
        "zipcode": "13210-835"
    },
    {
        "city": "Jundiai",
        "state": "SP",
        "district": "Jardim Planalto",
        "street": "Travessa Joao Lopes",
        "zipcode": "13211-231"
    },
    {
        "city": "Jundiai",
        "state": "SP",
        "district": "Vila Comercial",
        "street": "Rodovia Anhanguera",
        "zipcode": "13210-811"
    },
    {
        "city": "Jundiai",
        "state": "SP",
        "district": "Vila Comercial",
        "street": "Via Anhanguera",
        "zipcode": "13211-471"
    },
    {
        "city": "Jundiai",
        "state": "SP",
        "district": "Jardim Da Serra",
        "street": "Via Anhanguera",
        "zipcode": "13211-474"
    },
    {
        "city": "Jundiai",
        "state": "SP",
        "district": "Vila Josefina",
        "street": "Rua Jatai",
        "zipcode": "13210-640"
    },
    {
        "city": "Jundiai",
        "state": "SP",
        "district": "Jardim Das Samambaias",
        "street": "Rua Mario Damasio",
        "zipcode": "13211-451"
    },
    {
        "city": "Jundiai",
        "state": "SP",
        "district": "Jardim Merc",
        "street": "Rua Garca",
        "zipcode": "13206-381"
    },
    {
        "city": "Jundiai",
        "state": "SP",
        "district": "Jardim Guarani",
        "street": "Rua Cica",
        "zipcode": "13206-001"
    },
    {
        "city": "Jundiai",
        "state": "SP",
        "district": "Jardim Itamarati",
        "street": "Via Anhanguera",
        "zipcode": "13211-472"
    },
    {
        "city": "Jundiai",
        "state": "SP",
        "district": "Engordadouro",
        "street": "Via Anhanguera",
        "zipcode": "13210-820"
    },
    {
        "city": "Jundiai",
        "state": "SP",
        "district": "Jardim Do Lago",
        "street": "Rua Breno Acioli",
        "zipcode": "13203-530"
    },
    {
        "city": "Jundiai",
        "state": "SP",
        "district": "Jardim Guanabara",
        "street": "Rua Existente",
        "zipcode": "13211-003"
    },
    {
        "city": "Jundiai",
        "state": "SP",
        "district": "Vila Rami",
        "street": "Rua Bom Jesus Do Pirapora",
        "zipcode": "13206-481"
    },
    {
        "city": "Jundiai",
        "state": "SP",
        "district": "Vila Militar",
        "street": "Via Anhanguera",
        "zipcode": "13210-810"
    },
    {
        "city": "Jundiai",
        "state": "SP",
        "district": "Jardim Merc",
        "street": "Rua Jose Manoel Lopes Rodrigues",
        "zipcode": "13206-390"
    },
    {
        "city": "Jundiai",
        "state": "SP",
        "district": "Vila Ivani",
        "street": "Rua Otelo Caiubi",
        "zipcode": "13206-762"
    },
    {
        "city": "Jundiai",
        "state": "SP",
        "district": "Jardim Merc",
        "street": "Rua Pedro Bortolini",
        "zipcode": "13206-370"
    },
    {
        "city": "Jundiai",
        "state": "SP",
        "district": "Jardim Da Serra",
        "street": "Via Anhanguera",
        "zipcode": "13210-814"
    },
    {
        "city": "Jundiai",
        "state": "SP",
        "district": "Jardim Cidapel",
        "street": "Rua Clemente Rosa",
        "zipcode": "13206-482"
    },
    {
        "city": "Jundiai",
        "state": "SP",
        "district": "Chacara Malota",
        "street": "Rodovia Dos Bandeirantes",
        "zipcode": "13210-827"
    },
    {
        "city": "Jundiai",
        "state": "SP",
        "district": "Jardim Servilha",
        "street": "Rua Julia Tartarin",
        "zipcode": "13206-520"
    },
    {
        "city": "Jundiai",
        "state": "SP",
        "district": "Jardim Das Samambaias",
        "street": "Rua Luiza Mathion",
        "zipcode": "13211-431"
    },
    {
        "city": "Jundiai",
        "state": "SP",
        "district": "Distrito Industrial",
        "street": "Via Anhanguera",
        "zipcode": "13210-819"
    },
    {
        "city": "Jundiai",
        "state": "SP",
        "district": "Jardim Itamarati",
        "street": "Via Anhanguera",
        "zipcode": "13210-812"
    },
    {
        "city": "Jundiai",
        "state": "SP",
        "district": "Vila Nova Jundiai",
        "street": "Rua Ibipora",
        "zipcode": "13210-500"
    },
    {
        "city": "Jundiai",
        "state": "SP",
        "district": "Jardim Guanabara",
        "street": "Rua Chavantes",
        "zipcode": "13211-011"
    },
    {
        "city": "Jundiai",
        "state": "SP",
        "district": "Jardim Quintas Das Videiras",
        "street": "Rodovia Dos Bandeirantes",
        "zipcode": "13210-832"
    },
    {
        "city": "Jundiai",
        "state": "SP",
        "district": "Distrito Industrial",
        "street": "Rodovia Dos Bandeirantes",
        "zipcode": "13211-558"
    },
    {
        "city": "Jundiai",
        "state": "SP",
        "district": "Jardim Copacabana",
        "street": "Rodovia Dos Bandeirantes",
        "zipcode": "13210-826"
    },
    {
        "city": "Jundiai",
        "state": "SP",
        "district": "Jardim Tereza Cristina",
        "street": "Rua Alcides Pedro Da Silva Fachini",
        "zipcode": "13212-511"
    },
    {
        "city": "Jundiai",
        "state": "SP",
        "district": "Engordadouro",
        "street": "Rodovia Anhanguera",
        "zipcode": "13213-182"
    },
    {
        "city": "Jundiai",
        "state": "SP",
        "district": "Distrito Industrial",
        "street": "Rodovia Dos Bandeirantes",
        "zipcode": "13213-190"
    },
    {
        "city": "Jundiai",
        "state": "SP",
        "district": "Distrito Industrial",
        "street": "Rodovia Dos Bandeirantes",
        "zipcode": "13213-192"
    },
    {
        "city": "Jundiai",
        "state": "SP",
        "district": "Distrito Industrial",
        "street": "Rodovia Dos Bandeirantes",
        "zipcode": "13213-193"
    },
    {
        "city": "Jundiai",
        "state": "SP",
        "district": "Distrito Industrial",
        "street": "Rodovia Dos Bandeirantes",
        "zipcode": "13213-194"
    },
    {
        "city": "Jundiai",
        "state": "SP",
        "district": "Jardim Das Tulipas",
        "street": "Rodovia Dos Bandeirantes",
        "zipcode": "13213-196"
    },
    {
        "city": "Jundiai",
        "state": "SP",
        "district": "Vila Santana",
        "street": "Rua Formosa",
        "zipcode": "13218-032"
    },
    {
        "city": "Jundiai",
        "state": "SP",
        "district": "Recanto Quarto Centenario",
        "street": "Rua Osmundo Dos Santos Pellegrini",
        "zipcode": "13211-401"
    },
    {
        "city": "Jundiai",
        "state": "SP",
        "district": "Vila Santa Marina",
        "street": "Rua Pedro Galli",
        "zipcode": "13211-800"
    },
    {
        "city": "Jundiai",
        "state": "SP",
        "district": "Vila Ana",
        "street": "Via Anhanguera",
        "zipcode": "13211-473"
    },
    {
        "city": "Jundiai",
        "state": "SP",
        "district": "Jardim Ana Maria",
        "street": "Via Anhanguera",
        "zipcode": "13211-475"
    },
    {
        "city": "Jundiai",
        "state": "SP",
        "district": "Jardim Tereza Cristina",
        "street": "Rua Reynaldo Porcari",
        "zipcode": "13212-322"
    },
    {
        "city": "Jundiai",
        "state": "SP",
        "district": "Parque Sao Luiz",
        "street": "Avenida Vitorio Pavan",
        "zipcode": "13216-760"
    },
    {
        "city": "Jundiai",
        "state": "SP",
        "district": "Jardim Ermida Ii",
        "street": "Rua O",
        "zipcode": "13212-192"
    },
    {
        "city": "Jundiai",
        "state": "SP",
        "district": "Vila Rica",
        "street": "Rua Lucia B. Passarin",
        "zipcode": "13216-210"
    },
    {
        "city": "Jundiai",
        "state": "SP",
        "district": "Jardim Tereza Cristina",
        "street": "Estrada Do Petena",
        "zipcode": "13212-480"
    },
    {
        "city": "Jundiai",
        "state": "SP",
        "district": "Distrito Industrial",
        "street": "Via Anhanguera",
        "zipcode": "13211-479"
    },
    {
        "city": "Jundiai",
        "state": "SP",
        "district": "Jardim Quintas Das Videiras",
        "street": "Rodovia Dos Bandeirantes",
        "zipcode": "13211-556"
    },
    {
        "city": "Jundiai",
        "state": "SP",
        "district": "Jardim California",
        "street": "Avenida Antonio Raymundo De Oliveira",
        "zipcode": "13216-690"
    },
    {
        "city": "Jundiai",
        "state": "SP",
        "district": "Vila Santa Marina",
        "street": "Rua Tres",
        "zipcode": "13211-801"
    },
    {
        "city": "Jundiai",
        "state": "SP",
        "district": "Recanto Quarto Centenario",
        "street": "Rodovia Dos Bandeirantes",
        "zipcode": "13211-557"
    },
    {
        "city": "Jundiai",
        "state": "SP",
        "district": "Jardim Liberdade",
        "street": "Avenida Antonio Decolo",
        "zipcode": "13215-480"
    },
    {
        "city": "Jundiai",
        "state": "SP",
        "district": "Jardim Sao Camilo Novo",
        "street": "Rua Aurelio Cegala",
        "zipcode": "13216-412"
    },
    {
        "city": "Jundiai",
        "state": "SP",
        "district": "Jardim Guanabara",
        "street": "Rua Tocantins",
        "zipcode": "13211-004"
    },
    {
        "city": "Jundiai",
        "state": "SP",
        "district": "Distrito Industrial",
        "street": "Via Anhanguera",
        "zipcode": "13211-478"
    },
    {
        "city": "Jundiai",
        "state": "SP",
        "district": "Jardim Das Samambaias",
        "street": "Avenida Ignez Zonaro Fabricio",
        "zipcode": "13211-450"
    },
    {
        "city": "Jundiai",
        "state": "SP",
        "district": "Vila Vioto",
        "street": "Via Anhanguera",
        "zipcode": "13211-476"
    },
    {
        "city": "Jundiai",
        "state": "SP",
        "district": "Traviu",
        "street": "Rodovia Dos Bandeirantes",
        "zipcode": "13213-198"
    },
    {
        "city": "Jundiai",
        "state": "SP",
        "district": "Parque Centenario",
        "street": "Rua Josefina Baldin Cervi",
        "zipcode": "13214-013"
    },
    {
        "city": "Jundiai",
        "state": "SP",
        "district": "Cidade Santos Dumont",
        "street": "Rua Oscar Salgado De Vasconcelos",
        "zipcode": "13214-341"
    },
    {
        "city": "Jundiai",
        "state": "SP",
        "district": "Parque Da Represa",
        "street": "Rua Alice Balestrim Benachio",
        "zipcode": "13214-504"
    },
    {
        "city": "Jundiai",
        "state": "SP",
        "district": "Parque Cecap",
        "street": "Rua Alceu De Toledo Pontes",
        "zipcode": "13214-700"
    },
    {
        "city": "Jundiai",
        "state": "SP",
        "district": "Jardim Bufalo",
        "street": "Rua Sao Sebastiao Do Paraiso",
        "zipcode": "13214-330"
    },
    {
        "city": "Jundiai",
        "state": "SP",
        "district": "Parque Continental",
        "street": "Rua Tres",
        "zipcode": "13214-616"
    },
    {
        "city": "Jundiai",
        "state": "SP",
        "district": "Ponte De Sao Joao",
        "street": "Rua Maria De Lima E Silva",
        "zipcode": "13218-113"
    },
    {
        "city": "Jundiai",
        "state": "SP",
        "district": "Jardim Das Samambaias",
        "street": "Avenida Dr Adilson Rodrigues",
        "zipcode": "13211-570"
    },
    {
        "city": "Jundiai",
        "state": "SP",
        "district": "Vila Marlene",
        "street": "Avenida Navarro De Andrade",
        "zipcode": "13214-011"
    },
    {
        "city": "Jundiai",
        "state": "SP",
        "district": "Parque Brasilia",
        "street": "Praça Alexandre Trevisan",
        "zipcode": "13211-009"
    },
    {
        "city": "Jundiai",
        "state": "SP",
        "district": "Vila Santa Marina",
        "street": "Rua Quatro",
        "zipcode": "13211-802"
    },
    {
        "city": "Jundiai",
        "state": "SP",
        "district": "Jardim Bufalo",
        "street": "Rua Pedro Celestino Leite Penteado",
        "zipcode": "13214-320"
    },
    {
        "city": "Jundiai",
        "state": "SP",
        "district": "Jardim America",
        "street": "Rua Prof. Emilio Mazzola",
        "zipcode": "13211-690"
    },
    {
        "city": "Jundiai",
        "state": "SP",
        "district": "Jardim Santana",
        "street": "Rua Severo Maltone",
        "zipcode": "13218-120"
    },
    {
        "city": "Jundiai",
        "state": "SP",
        "district": "Jardim Taruma",
        "street": "Rua Bolivia",
        "zipcode": "13216-304"
    },
    {
        "city": "Jundiai",
        "state": "SP",
        "district": "Jardim Ermida Ii",
        "street": "Rua N",
        "zipcode": "13212-191"
    },
    {
        "city": "Jundiai",
        "state": "SP",
        "district": "Ponte De Sao Joao",
        "street": "Praça Paulo Nicodemos De Carvalho",
        "zipcode": "13218-119"
    },
    {
        "city": "Jundiai",
        "state": "SP",
        "district": "Chacara Malota",
        "street": "Rodovia Dos Bandeirantes",
        "zipcode": "13211-554"
    },
    {
        "city": "Jundiai",
        "state": "SP",
        "district": "Jardim Bandeiras",
        "street": "Rua Dom Jaime Barros Camara",
        "zipcode": "13216-660"
    },
    {
        "city": "Jundiai",
        "state": "SP",
        "district": "Jardim Colonia",
        "street": "Travessa Egydio Matheo",
        "zipcode": "13218-117"
    },
    {
        "city": "Jundiai",
        "state": "SP",
        "district": "Jardim Colonia",
        "street": "Rua Cirilo Massa",
        "zipcode": "13218-118"
    },
    {
        "city": "Jundiai",
        "state": "SP",
        "district": "Parque Continental",
        "street": "Rua Jose Firmino Temoteo",
        "zipcode": "13214-617"
    },
    {
        "city": "Jundiai",
        "state": "SP",
        "district": "Parque Continental",
        "street": "Rua Cinco",
        "zipcode": "13214-613"
    },
    {
        "city": "Jundiai",
        "state": "SP",
        "district": "Vila Lacerda",
        "street": "Rua Itirapina",
        "zipcode": "13214-100"
    },
    {
        "city": "Jundiai",
        "state": "SP",
        "district": "Vila Lacerda",
        "street": "Rua Juarez Felix De Godoi",
        "zipcode": "13214-083"
    },
    {
        "city": "Jundiai",
        "state": "SP",
        "district": "Cidade Luiza",
        "street": "Rua Taboao Da Serra",
        "zipcode": "13214-050"
    },
    {
        "city": "Jundiai",
        "state": "SP",
        "district": "Cidade Luiza",
        "street": "Rua Conde Do Pinhal",
        "zipcode": "13214-252"
    },
    {
        "city": "Jundiai",
        "state": "SP",
        "district": "Vila Margarida",
        "street": "Rua Braz Alfano",
        "zipcode": "13215-373"
    },
    {
        "city": "Jundiai",
        "state": "SP",
        "district": "Jardim Liberdade",
        "street": "Rua Coelho Neto",
        "zipcode": "13215-411"
    },
    {
        "city": "Jundiai",
        "state": "SP",
        "district": "Jundiai Mirim",
        "street": "Avenida Augusto Mazzi",
        "zipcode": "13215-770"
    },
    {
        "city": "Jundiai",
        "state": "SP",
        "district": "Jardim Da Fonte",
        "street": "Rua Robartino Martho",
        "zipcode": "13216-190"
    },
    {
        "city": "Jundiai",
        "state": "SP",
        "district": "Jardim Santana",
        "street": "Rua Pedro Lessa",
        "zipcode": "13218-131"
    },
    {
        "city": "Jundiai",
        "state": "SP",
        "district": "Vila Aparecida",
        "street": "Rua Luiz Da Silva Camargo",
        "zipcode": "13218-472"
    },
    {
        "city": "Jundiai",
        "state": "SP",
        "district": "Jardim Angela",
        "street": "Rua Primo Filippini",
        "zipcode": "13218-510"
    },
    {
        "city": "Jundiai",
        "state": "SP",
        "district": "Jardim Tamoio",
        "street": "Rua Atibaia",
        "zipcode": "13219-300"
    },
    {
        "city": "Jundiai",
        "state": "SP",
        "district": "Vila Joaquina",
        "street": "Rua Tavares Bastos",
        "zipcode": "13219-664"
    },
    {
        "city": "Jundiai",
        "state": "SP",
        "district": "Cidade Luiza",
        "street": "Rua Ovidio Zambon",
        "zipcode": "13214-240"
    },
    {
        "city": "Jundiai",
        "state": "SP",
        "district": "Vila Aparecida",
        "street": "Rua Joao Carelli",
        "zipcode": "13218-471"
    },
    {
        "city": "Jundiai",
        "state": "SP",
        "district": "Colonia",
        "street": "Praça Dr Rafael Mauro",
        "zipcode": "13218-109"
    },
    {
        "city": "Jundiai",
        "state": "SP",
        "district": "Nucleo Colonial Barao De Jundiai",
        "street": "Rua Luis Benachio",
        "zipcode": "13219-620"
    },
    {
        "city": "Jundiai",
        "state": "SP",
        "district": "Ivoturucaia",
        "street": "Rua Maria Negrine Negro",
        "zipcode": "13218-745"
    },
    {
        "city": "Jundiai",
        "state": "SP",
        "district": "Vila Nambi",
        "street": "Rua Angelo Corradini",
        "zipcode": "13219-010"
    },
    {
        "city": "Jundiai",
        "state": "SP",
        "district": "Parque Da Represa",
        "street": "Avenida Prof. Elena Calimberti",
        "zipcode": "13214-501"
    },
    {
        "city": "Jundiai",
        "state": "SP",
        "district": "Parque Da Represa",
        "street": "Rua Gilda Bisutti Schiavo",
        "zipcode": "13214-506"
    },
    {
        "city": "Jundiai",
        "state": "SP",
        "district": "Vila Formosa",
        "street": "Avenida Prefeito Jose De Castro Marcondes",
        "zipcode": "13214-030"
    },
    {
        "city": "Jundiai",
        "state": "SP",
        "district": "Jundiai Mirim",
        "street": "Rua Tuffik Bechara Saad",
        "zipcode": "13215-773"
    },
    {
        "city": "Jundiai",
        "state": "SP",
        "district": "Parque Da Represa",
        "street": "Rua Prof. Flavio Dangieri",
        "zipcode": "13214-517"
    },
    {
        "city": "Jundiai",
        "state": "SP",
        "district": "Jardim Colonia",
        "street": "Avenida Marginal",
        "zipcode": "13218-570"
    },
    {
        "city": "Jundiai",
        "state": "SP",
        "district": "Vila Galvao",
        "street": "Rua Policial Militar Aldo Pinheiro",
        "zipcode": "13215-375"
    },
    {
        "city": "Jundiai",
        "state": "SP",
        "district": "Vila Sao Joao Batista",
        "street": "Praça Duque De Caxias",
        "zipcode": "13218-129"
    },
    {
        "city": "Jundiai",
        "state": "SP",
        "district": "Nucleo Colonial Barao De Jundiai",
        "street": "Avenida Nami Azem",
        "zipcode": "13219-610"
    },
    {
        "city": "Jundiai",
        "state": "SP",
        "district": "Vila Hortolandia",
        "street": "Rua Guatapara",
        "zipcode": "13214-251"
    },
    {
        "city": "Jundiai",
        "state": "SP",
        "district": "Vila Formosa",
        "street": "Rodovia Vereador Geraldo Dias",
        "zipcode": "13214-040"
    },
    {
        "city": "Jundiai",
        "state": "SP",
        "district": "Parque Da Represa",
        "street": "Avenida Marginal",
        "zipcode": "13214-514"
    },
    {
        "city": "Jundiai",
        "state": "SP",
        "district": "Jardim Florestal",
        "street": "Rua Tiradentes",
        "zipcode": "13215-371"
    },
    {
        "city": "Jundiai",
        "state": "SP",
        "district": "Jardim Adelia",
        "street": "Rua Fausto Roncoletta",
        "zipcode": "13218-271"
    },
    {
        "city": "Jundiai",
        "state": "SP",
        "district": "Jardim Sao Camilo",
        "street": "Rua Luiz Estevao De Siqueira",
        "zipcode": "13218-511"
    },
    {
        "city": "Jundiai",
        "state": "SP",
        "district": "Vila Hortolandia",
        "street": "Rua Rio Claro",
        "zipcode": "13214-250"
    },
    {
        "city": "Jundiai",
        "state": "SP",
        "district": "Jardim Santana",
        "street": "Rua Gregorio De Matos Guerra",
        "zipcode": "13218-130"
    },
    {
        "city": "Jundiai",
        "state": "SP",
        "district": "Jardim Das Carpas",
        "street": "Rua Araripe Junior",
        "zipcode": "13219-701"
    },
    {
        "city": "Jundiai",
        "state": "SP",
        "district": "Jardim Tamoio",
        "street": "Rua Rugendas",
        "zipcode": "13219-192"
    },
    {
        "city": "Jundiai",
        "state": "SP",
        "district": "Jardim Pacaembu",
        "street": "Rua Luis Careli",
        "zipcode": "13219-061"
    },
    {
        "city": "Jundiai",
        "state": "SP",
        "district": "Vila Galvao",
        "street": "Rua Goar Lorencini",
        "zipcode": "13215-376"
    },
    {
        "city": "Jundiai",
        "state": "SP",
        "district": "Jardim Adelia",
        "street": "Rua Humberto De Campos",
        "zipcode": "13218-282"
    },
    {
        "city": "Jundiai",
        "state": "SP",
        "district": "Jardim Tamoio",
        "street": "Rua Sergio Milliet",
        "zipcode": "13219-171"
    },
    {
        "city": "Jundiai",
        "state": "SP",
        "district": "Vila De Vito",
        "street": "Praça Armindo Colucci",
        "zipcode": "13215-029"
    },
    {
        "city": "Jundiai",
        "state": "SP",
        "district": "Jardim Caxambu",
        "street": "Avenida Comendador Antonio Borin",
        "zipcode": "13218-566"
    },
    {
        "city": "Jundiai",
        "state": "SP",
        "district": "Vila Sao Joao Batista",
        "street": "Rua Angelo Bonassi",
        "zipcode": "13218-401"
    },
    {
        "city": "Jundiai",
        "state": "SP",
        "district": "Vila Rossi",
        "street": "Rua Dr Aquiles Raspantini",
        "zipcode": "13218-512"
    },
    {
        "city": "Jundiai",
        "state": "SP",
        "district": "Jardim Das Carpas",
        "street": "Praça Jose Ponzetto",
        "zipcode": "13219-798"
    },
    {
        "city": "Jundiai",
        "state": "SP",
        "district": "Jardim Rio Branco",
        "street": "Rua Graciliano Ramos",
        "zipcode": "13215-410"
    },
    {
        "city": "Jundiai",
        "state": "SP",
        "district": "Nucleo Colonial Barao De Jundiai",
        "street": "Rua Humberto Primo",
        "zipcode": "13219-621"
    },
    {
        "city": "Jundiai",
        "state": "SP",
        "district": "Vila Aparecida",
        "street": "Rua Taurino De Araujo Coimbra",
        "zipcode": "13218-480"
    },
    {
        "city": "Jundiai",
        "state": "SP",
        "district": "Jardim Liberdade",
        "street": "Avenida Antonio Frederico Ozanan",
        "zipcode": "13215-011"
    },
    {
        "city": "Jundiai",
        "state": "SP",
        "district": "Jardim Adelia",
        "street": "Rua Hugo Brandine",
        "zipcode": "13218-270"
    },
    {
        "city": "Jundiai",
        "state": "SP",
        "district": "Nucleo Colonial Barao De Jundiai",
        "street": "Avenida Marginal",
        "zipcode": "13219-530"
    },
    {
        "city": "Jundiai",
        "state": "SP",
        "district": "Jardim Tamoio",
        "street": "Rua Joao Victor Atisani",
        "zipcode": "13219-170"
    },
    {
        "city": "Jundiai",
        "state": "SP",
        "district": "Vila Santana",
        "street": "Rua Anisio Sales Bueno",
        "zipcode": "13219-060"
    },
    {
        "city": "Jundiai",
        "state": "SP",
        "district": "Vila Aparecida",
        "street": "Rua Sao Goncalo",
        "zipcode": "13218-470"
    },
    {
        "city": "Jundiai",
        "state": "SP",
        "district": "Jardim Roma",
        "street": "Rua Prof. Benedita Siqueira De Godoy",
        "zipcode": "13218-373"
    },
    {
        "city": "Jundiai",
        "state": "SP",
        "district": "Vila Agostinho Zambom",
        "street": "Rua Itapira",
        "zipcode": "13215-024"
    },
    {
        "city": "Jundiai",
        "state": "SP",
        "district": "Jardim Colonia",
        "street": "Rua Lucio Cardoso",
        "zipcode": "13219-682"
    },
    {
        "city": "Jundiai",
        "state": "SP",
        "district": "Ponte De Sao Joao",
        "street": "Rua Carlos Gomes",
        "zipcode": "13215-020"
    },
    {
        "city": "Jundiai",
        "state": "SP",
        "district": "Jardim Italia",
        "street": "Avenida Nami Azem",
        "zipcode": "13219-611"
    },
    {
        "city": "Jundiai",
        "state": "SP",
        "district": "Vila De Vito",
        "street": "Rua Brites Figueiredo",
        "zipcode": "13215-023"
    },
    {
        "city": "Jundiai",
        "state": "SP",
        "district": "Jardim Das Carpas",
        "street": "Rua Germano Cesar",
        "zipcode": "13219-794"
    },
    {
        "city": "Jundiai",
        "state": "SP",
        "district": "Jardim Caxambu",
        "street": "Avenida Comendador Antonio Borin",
        "zipcode": "13218-564"
    },
    {
        "city": "Jundiai",
        "state": "SP",
        "district": "Jardim Boa Vista",
        "street": "Estrada Frederico Joao Martinho Wohnrath",
        "zipcode": "13218-410"
    },
    {
        "city": "Jundiai",
        "state": "SP",
        "district": "Vila Savieto",
        "street": "Rua Do Catete",
        "zipcode": "13215-100"
    },
    {
        "city": "Jundiai",
        "state": "SP",
        "district": "Vila Paulista",
        "street": "Rua Narcisa Zanata Ceccato",
        "zipcode": "13219-796"
    },
    {
        "city": "Jundiai",
        "state": "SP",
        "district": "Jardim Liberdade",
        "street": "Rua Vinicius De Moraes",
        "zipcode": "13215-425"
    },
    {
        "city": "Jundiai",
        "state": "SP",
        "district": "Vila Telles",
        "street": "Rua Santa Cecilia",
        "zipcode": "13215-775"
    },
    {
        "city": "Jundiai",
        "state": "SP",
        "district": "Colonia",
        "street": "Praça Centenario Da Imigracao Italiana",
        "zipcode": "13219-629"
    },
    {
        "city": "Jundiai",
        "state": "SP",
        "district": "Jardim Das Carpas",
        "street": "Rua Maria Marcassa Ponzetto",
        "zipcode": "13219-795"
    },
    {
        "city": "Jundiai",
        "state": "SP",
        "district": "Jardim Rosaura",
        "street": "Avenida Comendador Antonio Borin",
        "zipcode": "13218-562"
    },
    {
        "city": "Jundiai",
        "state": "SP",
        "district": "Caxambu",
        "street": "Rua Ideal Padrao",
        "zipcode": "13218-643"
    },
    {
        "city": "Jundiai",
        "state": "SP",
        "district": "Vila Argos Nova",
        "street": "Rua Angelo Ferracini",
        "zipcode": "13201-342"
    },
    {
        "city": "Jundiai",
        "state": "SP",
        "district": "Centro",
        "street": "Travessa Particular (R Xv De Novembro)",
        "zipcode": "13201-481"
    },
    {
        "city": "Jundiai",
        "state": "SP",
        "district": "Centro",
        "street": "Rua Marechal Deodoro Da Fonseca",
        "zipcode": "13201-360"
    },
    {
        "city": "Jundiai",
        "state": "SP",
        "district": "Vila Rio Branco",
        "street": "Praça Santa Terezinha",
        "zipcode": "13215-279"
    },
    {
        "city": "Jundiai",
        "state": "SP",
        "district": "Engordadouro",
        "street": "Estrada Municipal",
        "zipcode": "13214-720"
    },
    {
        "city": "Jundiai",
        "state": "SP",
        "district": "Vila Rafael De Oliveira",
        "street": "Rua Joao Melato",
        "zipcode": "13201-281"
    },
    {
        "city": "Jundiai",
        "state": "SP",
        "district": "Ivoturucaia",
        "street": "Avenida Joao Batista Spiandorello",
        "zipcode": "13218-741"
    },
    {
        "city": "Jundiai",
        "state": "SP",
        "district": "Vila Progresso",
        "street": "Avenida Samuel Martins",
        "zipcode": "13202-000"
    },
    {
        "city": "Jundiai",
        "state": "SP",
        "district": "Jardim Anhanguera",
        "street": "Avenida Marginal",
        "zipcode": "13208-470"
    },
    {
        "city": "Jundiai",
        "state": "SP",
        "district": "Vila Josefina",
        "street": "Travessa Limeira",
        "zipcode": "13210-641"
    },
    {
        "city": "Jundiai",
        "state": "SP",
        "district": "Distrito Industrial",
        "street": "Rodovia Dos Bandeirantes",
        "zipcode": "13211-559"
    },
    {
        "city": "Jundiai",
        "state": "SP",
        "district": "Jardim California",
        "street": "Rua Francisco Pedretti",
        "zipcode": "13216-694"
    },
    {
        "city": "Jundiai",
        "state": "SP",
        "district": "Vila Sao Joao Batista",
        "street": "Rua Luiz Silvestrone",
        "zipcode": "13218-116"
    },
    {
        "city": "Jundiai",
        "state": "SP",
        "district": "Jardim Adelia",
        "street": "Rua Zeferino Cosin",
        "zipcode": "13218-263"
    },
    {
        "city": "Jundiai",
        "state": "SP",
        "district": "Jardim Santa Rita De Cassia",
        "street": "Rua Ari Barroso",
        "zipcode": "13219-271"
    },
    {
        "city": "Jundiai",
        "state": "SP",
        "district": "Vila Progresso",
        "street": "Avenida Samuel Martins",
        "zipcode": "13202-001"
    },
    {
        "city": "Jundiai",
        "state": "SP",
        "district": "Vila Sao Sebastiao",
        "street": "Rua Berlim",
        "zipcode": "13202-040"
    },
    {
        "city": "Jundiai",
        "state": "SP",
        "district": "Vila Isabel Eber",
        "street": "Rua Anita Garibaldi",
        "zipcode": "13202-390"
    },
    {
        "city": "Jundiai",
        "state": "SP",
        "district": "Vila Progresso",
        "street": "Rua Capitao Curado",
        "zipcode": "13202-410"
    },
    {
        "city": "Jundiai",
        "state": "SP",
        "district": "Vila Arens",
        "street": "Rua Capote Valente",
        "zipcode": "13202-434"
    },
    {
        "city": "Jundiai",
        "state": "SP",
        "district": "Vila Santana",
        "street": "Rua Genaro De Carvalho",
        "zipcode": "13202-614"
    },
    {
        "city": "Jundiai",
        "state": "SP",
        "district": "Vila Rafael De Oliveira",
        "street": "Rua Joao Fernandes Vieira",
        "zipcode": "13201-270"
    },
    {
        "city": "Jundiai",
        "state": "SP",
        "district": "Vl Della Piazza",
        "street": "Rua Benedito Rodrigues De Carvalho",
        "zipcode": "13207-664"
    },
    {
        "city": "Jundiai",
        "state": "SP",
        "district": "Vila Vechi",
        "street": "Travessa Dr Antonio Lopes De Oliveira",
        "zipcode": "13202-290"
    },
    {
        "city": "Jundiai",
        "state": "SP",
        "district": "Vila Guarani",
        "street": "Rua Jorge Miguel Hajjar",
        "zipcode": "13209-405"
    },
    {
        "city": "Jundiai",
        "state": "SP",
        "district": "Jardim Das Carpas",
        "street": "Rua Catulo Da Paixao Cearence",
        "zipcode": "13219-720"
    },
    {
        "city": "Jundiai",
        "state": "SP",
        "district": "Centro",
        "street": "Rua Da Padroeira",
        "zipcode": "13201-793"
    },
    {
        "city": "Jundiai",
        "state": "SP",
        "district": "Vila Gotardo",
        "street": "Avenida Prof. Luiz Rosa",
        "zipcode": "13201-826"
    },
    {
        "city": "Jundiai",
        "state": "SP",
        "district": "Vila Helena",
        "street": "Rua Dr Adriano De Oliveira",
        "zipcode": "13206-750"
    },
    {
        "city": "Jundiai",
        "state": "SP",
        "district": "Retiro",
        "street": "Via Anhanguera",
        "zipcode": "13211-477"
    },
    {
        "city": "Jundiai",
        "state": "SP",
        "district": "Centro",
        "street": "Rua Siqueira De Moraes",
        "zipcode": "13201-460"
    },
    {
        "city": "Jundiai",
        "state": "SP",
        "district": "Jardim Pitangueiras",
        "street": "Rua Ricardo Favaro Fonte",
        "zipcode": "13207-271"
    },
    {
        "city": "Jundiai",
        "state": "SP",
        "district": "Centro",
        "street": "Praça Rui Barbosa",
        "zipcode": "13201-778"
    },
    {
        "city": "Jundiai",
        "state": "SP",
        "district": "Vila Sao Joao Batista",
        "street": "Rua Um",
        "zipcode": "13218-371"
    },
    {
        "city": "Jundiai",
        "state": "SP",
        "district": "Vl Della Piazza",
        "street": "Rua Bom Jesus Do Pirapora",
        "zipcode": "13207-660"
    },
    {
        "city": "Jundiai",
        "state": "SP",
        "district": "Centro",
        "street": "Praça Luiz Vicente Casserino",
        "zipcode": "13201-499"
    },
    {
        "city": "Jundiai",
        "state": "SP",
        "district": "Vila Municipal",
        "street": "Rua Dr Estevao Jose De Siqueira",
        "zipcode": "13201-170"
    },
    {
        "city": "Jundiai",
        "state": "SP",
        "district": "Centro",
        "street": "Travessa Latorre",
        "zipcode": "13201-423"
    },
    {
        "city": "Jundiai",
        "state": "SP",
        "district": "Distrito Industrial",
        "street": "Via Anhanguera",
        "zipcode": "13210-818"
    },
    {
        "city": "Jundiai",
        "state": "SP",
        "district": "Vila M Genoveva",
        "street": "Rua Salvador",
        "zipcode": "13203-110"
    },
    {
        "city": "Jundiai",
        "state": "SP",
        "district": "Jardim Do Lago",
        "street": "Rua Matao",
        "zipcode": "13203-453"
    },
    {
        "city": "Jundiai",
        "state": "SP",
        "district": "Vila Rami",
        "street": "Rua Afonso Roveri",
        "zipcode": "13206-260"
    },
    {
        "city": "Jundiai",
        "state": "SP",
        "district": "Jardim Copacabana",
        "street": "Avenida Antonio Barchetta",
        "zipcode": "13210-380"
    },
    {
        "city": "Jundiai",
        "state": "SP",
        "district": "Jardim Merc",
        "street": "Rua Aristarco Nogueira",
        "zipcode": "13206-380"
    },
    {
        "city": "Jundiai",
        "state": "SP",
        "district": "Ponte De Campinas",
        "street": "Avenida Nove De Julho",
        "zipcode": "13201-797"
    },
    {
        "city": "Jundiai",
        "state": "SP",
        "district": "Nucleo Colonial Barao De Jundiai",
        "street": "Rua Manoel Fernandes Martins",
        "zipcode": "13219-600"
    },
    {
        "city": "Jundiai",
        "state": "SP",
        "district": "Vila Nova Jundiainopolis",
        "street": "Rua Antonio Tonini",
        "zipcode": "13210-570"
    },
    {
        "city": "Jundiai",
        "state": "SP",
        "district": "Jardim Guanabara",
        "street": "Rua Guarani",
        "zipcode": "13211-010"
    },
    {
        "city": "Jundiai",
        "state": "SP",
        "district": "Chacara Malota",
        "street": "Rodovia Dos Bandeirantes",
        "zipcode": "13211-553"
    },
    {
        "city": "Jundiai",
        "state": "SP",
        "district": "Chacara M Mediterranea",
        "street": "Via Anhanguera",
        "zipcode": "13210-823"
    },
    {
        "city": "Jundiai",
        "state": "SP",
        "district": "Jardim Ana Maria",
        "street": "Avenida Manuela Lacerda De Vergueiro",
        "zipcode": "13208-020"
    },
    {
        "city": "Jundiai",
        "state": "SP",
        "district": "Vila Loureiro",
        "street": "Rua Nela Petroni",
        "zipcode": "13206-652"
    },
    {
        "city": "Jundiai",
        "state": "SP",
        "district": "Centro",
        "street": "Praça Dos Expedicionarios",
        "zipcode": "13201-816"
    },
    {
        "city": "Jundiai",
        "state": "SP",
        "district": "Jardim Messina",
        "street": "Rua Paschoal Guzzo",
        "zipcode": "13207-560"
    },
    {
        "city": "Jundiai",
        "state": "SP",
        "district": "Centro",
        "street": "Rua Engenheiro Monlevade",
        "zipcode": "13201-788"
    },
    {
        "city": "Jundiai",
        "state": "SP",
        "district": "Jardim Angela",
        "street": "Rua Carlos Drumond De Andrade",
        "zipcode": "13218-492"
    },
    {
        "city": "Jundiai",
        "state": "SP",
        "district": "Jardim Sagrado Coracao De Jesus",
        "street": "Rua Barbosa",
        "zipcode": "13219-651"
    },
    {
        "city": "Jundiai",
        "state": "SP",
        "district": "Vila Ana",
        "street": "Via Anhanguera",
        "zipcode": "13210-813"
    },
    {
        "city": "Jundiai",
        "state": "SP",
        "district": "Parque Recanto Do Parrilho",
        "street": "Rua Quatro",
        "zipcode": "13219-054"
    },
    {
        "city": "Jundiai",
        "state": "SP",
        "district": "Jardim Do Lago",
        "street": "Rua Leonor Leopardi",
        "zipcode": "13203-551"
    },
    {
        "city": "Jundiai",
        "state": "SP",
        "district": "Vila Santa Maria",
        "street": "Rua Setembrina De Queiros Telles",
        "zipcode": "13203-160"
    },
    {
        "city": "Jundiai",
        "state": "SP",
        "district": "Jardim California",
        "street": "Travessa Tres",
        "zipcode": "13216-652"
    },
    {
        "city": "Jundiai",
        "state": "SP",
        "district": "Vila Maringa",
        "street": "Avenida Marginal Direita",
        "zipcode": "13210-130"
    },
    {
        "city": "Jundiai",
        "state": "SP",
        "district": "Recanto Quarto Centenario",
        "street": "Rodovia Dos Bandeirantes",
        "zipcode": "13210-833"
    },
    {
        "city": "Jundiai",
        "state": "SP",
        "district": "Vila Arens",
        "street": "Praça Quintino Bocaiuva",
        "zipcode": "13201-770"
    },
    {
        "city": "Jundiai",
        "state": "SP",
        "district": "Chacara Malota",
        "street": "Rodovia Dos Bandeirantes",
        "zipcode": "13210-829"
    },
    {
        "city": "Jundiai",
        "state": "SP",
        "district": "Vila Garcia",
        "street": "Rua Tuiuti",
        "zipcode": "13206-002"
    },
    {
        "city": "Jundiai",
        "state": "SP",
        "district": "Jardim Das Samambaias",
        "street": "Rua Major Mario Dos Santos Pereira",
        "zipcode": "13211-460"
    },
    {
        "city": "Jundiai",
        "state": "SP",
        "district": "Engordadouro",
        "street": "Rodovia Anhanguera",
        "zipcode": "13213-181"
    },
    {
        "city": "Jundiai",
        "state": "SP",
        "district": "Distrito Industrial",
        "street": "Rodovia Dos Bandeirantes",
        "zipcode": "13213-191"
    },
    {
        "city": "Jundiai",
        "state": "SP",
        "district": "Jardim Das Tulipas",
        "street": "Rodovia Dos Bandeirantes",
        "zipcode": "13213-195"
    },
    {
        "city": "Jundiai",
        "state": "SP",
        "district": "Traviu",
        "street": "Rodovia Dos Bandeirantes",
        "zipcode": "13213-197"
    },
    {
        "city": "Jundiai",
        "state": "SP",
        "district": "Vila Bandeirantes",
        "street": "Avenida Da Liberdade",
        "zipcode": "13214-019"
    },
    {
        "city": "Jundiai",
        "state": "SP",
        "district": "Parque Da Represa",
        "street": "Rua Adolpho Gil Adolpho",
        "zipcode": "13214-516"
    },
    {
        "city": "Jundiai",
        "state": "SP",
        "district": "Jardim Liberdade",
        "street": "Rua Rocha Pita",
        "zipcode": "13215-412"
    },
    {
        "city": "Jundiai",
        "state": "SP",
        "district": "Vila Joaquina",
        "street": "Rua Reinaldo Massa",
        "zipcode": "13219-662"
    },
    {
        "city": "Jundiai",
        "state": "SP",
        "district": "Vila Margarida",
        "street": "Rua Andrea Secondo Luchini",
        "zipcode": "13215-374"
    },
    {
        "city": "Jundiai",
        "state": "SP",
        "district": "Jardim Aurelia",
        "street": "Rua Maria Maschieto Mingorance",
        "zipcode": "13203-426"
    },
    {
        "city": "Jundiai",
        "state": "SP",
        "district": "Vila Militar",
        "street": "Via Anhanguera",
        "zipcode": "13211-470"
    },
    {
        "city": "Jundiai",
        "state": "SP",
        "district": "Cidade Santos Dumont",
        "street": "Rua Joao Castilho De Andrade",
        "zipcode": "13214-412"
    },
    {
        "city": "Jundiai",
        "state": "SP",
        "district": "Jardim Carolina",
        "street": "Estrada Existente",
        "zipcode": "13212-330"
    },
    {
        "city": "Jundiai",
        "state": "SP",
        "district": "Vila Lacerda",
        "street": "Rua Salgado Sobrinho",
        "zipcode": "13214-090"
    },
    {
        "city": "Jundiai",
        "state": "SP",
        "district": "Vila Hortolandia",
        "street": "Rua Prof. Geralda Berthola Facca",
        "zipcode": "13214-270"
    },
    {
        "city": "Jundiai",
        "state": "SP",
        "district": "Jardim Servilha",
        "street": "Rua Dois",
        "zipcode": "13206-531"
    },
    {
        "city": "Jundiai",
        "state": "SP",
        "district": "Jundiai Mirim",
        "street": "Rua Maria Lucia Busato",
        "zipcode": "13215-774"
    },
    {
        "city": "Jundiai",
        "state": "SP",
        "district": "Vila Rio Branco",
        "street": "Avenida Antonio Frederico Ozanan",
        "zipcode": "13215-012"
    },
    {
        "city": "Jundiai",
        "state": "SP",
        "district": "Vila Garcia",
        "street": "Rua Alberto Roveri",
        "zipcode": "13206-483"
    },
    {
        "city": "Jundiai",
        "state": "SP",
        "district": "Jardim Ana Maria",
        "street": "Via Anhanguera",
        "zipcode": "13210-815"
    },
    {
        "city": "Jundiai",
        "state": "SP",
        "district": "Jardim Bandeiras",
        "street": "Rua Bernardo Catocci Guimaraes",
        "zipcode": "13216-693"
    },
    {
        "city": "Jundiai",
        "state": "SP",
        "district": "Vila Savieto",
        "street": "Rua Jose Linhares",
        "zipcode": "13215-094"
    },
    {
        "city": "Jundiai",
        "state": "SP",
        "district": "Anhangabau",
        "street": "Avenida Jundiai",
        "zipcode": "13208-001"
    },
    {
        "city": "Jundiai",
        "state": "SP",
        "district": "Parque Continental",
        "street": "Rua Benedito Sergio De Oliveira",
        "zipcode": "13214-614"
    },
    {
        "city": "Jundiai",
        "state": "SP",
        "district": "Jardim Pitangueiras",
        "street": "Rua Joao Ferrara",
        "zipcode": "13206-790"
    },
    {
        "city": "Jundiai",
        "state": "SP",
        "district": "Jardim California",
        "street": "Rua Eulinda Cardoso Dos Santos",
        "zipcode": "13216-691"
    },
    {
        "city": "Jundiai",
        "state": "SP",
        "district": "Vila Rami",
        "street": "Rua Doze",
        "zipcode": "13206-685"
    },
    {
        "city": "Jundiai",
        "state": "SP",
        "district": "Jardim Cidapel",
        "street": "Rua Joao Tramontina",
        "zipcode": "13206-300"
    },
    {
        "city": "Jundiai",
        "state": "SP",
        "district": "Jardim Sao Judas Tadeu",
        "street": "Rua Francisco Cervi",
        "zipcode": "13201-844"
    },
    {
        "city": "Jundiai",
        "state": "SP",
        "district": "Vila Sao Joao Batista",
        "street": "Rua Jose Demarchi",
        "zipcode": "13218-411"
    },
    {
        "city": "Jundiai",
        "state": "SP",
        "district": "Jardim Servilha",
        "street": "Rua G",
        "zipcode": "13206-512"
    },
    {
        "city": "Jundiai",
        "state": "SP",
        "district": "Jardim Roma",
        "street": "Rua Miguel Ceccato",
        "zipcode": "13218-372"
    },
    {
        "city": "Jundiai",
        "state": "SP",
        "district": "Parque Da Represa",
        "street": "Rua Prof. Maria Yone Junqueira",
        "zipcode": "13214-601"
    },
    {
        "city": "Jundiai",
        "state": "SP",
        "district": "Centro",
        "street": "Travessa General Julio Camrobert L. Da Costa",
        "zipcode": "13201-501"
    },
    {
        "city": "Jundiai",
        "state": "SP",
        "district": "Nucleo Colonial Barao De Jundiai",
        "street": "Avenida Comendador Antonio Borin",
        "zipcode": "13218-560"
    },
    {
        "city": "Jundiai",
        "state": "SP",
        "district": "Chacara Malota",
        "street": "Rodovia Dos Bandeirantes",
        "zipcode": "13210-830"
    },
    {
        "city": "Jundiai",
        "state": "SP",
        "district": "Jardim Planalto",
        "street": "Avenida Joao Antonio Meccatti",
        "zipcode": "13211-235"
    },
    {
        "city": "Jundiai",
        "state": "SP",
        "district": "Jardim Trevo",
        "street": "Rua Osmundo Dos Santos Pellegrini",
        "zipcode": "13211-400"
    },
    {
        "city": "Jundiai",
        "state": "SP",
        "district": "Ponte De Sao Joao",
        "street": "Praça Sao Joao Batista",
        "zipcode": "13215-028"
    },
    {
        "city": "Jundiai",
        "state": "SP",
        "district": "Vila Municipal",
        "street": "Rua Quinze De Novembro",
        "zipcode": "13201-421"
    },
    {
        "city": "Jundiai",
        "state": "SP",
        "district": "Vl Della Piazza",
        "street": "Rua Do Seminario",
        "zipcode": "13207-580"
    },
    {
        "city": "Jundiai",
        "state": "SP",
        "district": "Jardim Servilha",
        "street": "Rua Anita Contieri",
        "zipcode": "13206-530"
    },
    {
        "city": "Jundiai",
        "state": "SP",
        "district": "Centro",
        "street": "Avenida Paula Penteado",
        "zipcode": "13201-779"
    }
]