[
    {
        "city": "Juquitiba",
        "state": "SP",
        "district": "Centro",
        "street": "Rua Juscelino Kubitschek de Oliveira",
        "zipcode": "06950-970"
    },
    {
        "city": "Juquitiba",
        "state": "SP",
        "district": "",
        "street": "",
        "zipcode": "06950-000"
    },
    {
        "city": "Juquitiba",
        "state": "SP",
        "district": null,
        "street": "Estrada  Pedra Lisa",
        "zipcode": "06950-997"
    },
    {
        "city": "Juquitiba",
        "state": "SP",
        "district": null,
        "street": "Estrada da Palestina",
        "zipcode": "06951-995"
    },
    {
        "city": "Juquitiba",
        "state": "SP",
        "district": null,
        "street": "Praça Daniel Vaz Pereira",
        "zipcode": "06950-991"
    },
    {
        "city": "Juquitiba",
        "state": "SP",
        "district": "Barnabés",
        "street": "Rua Antonio Soares Godinho",
        "zipcode": "06950-972"
    },
    {
        "city": "Juquitiba",
        "state": "SP",
        "district": "Palmeiras",
        "street": "Rua Inácio Vieira Pinto",
        "zipcode": "06950-971"
    },
    {
        "city": "Juquitiba",
        "state": "SP",
        "district": null,
        "street": "Rua Inácio Vieira Pinto",
        "zipcode": "06950-996"
    },
    {
        "city": "Juquitiba",
        "state": "SP",
        "district": null,
        "street": "Estrada Milton Fleming",
        "zipcode": "06950-992"
    },
    {
        "city": "Juquitiba",
        "state": "SP",
        "district": null,
        "street": "Estrada das Laranjeiras",
        "zipcode": "06950-990"
    }
]