[
    {
        "city": "Leme",
        "state": "SP",
        "district": "Centro",
        "street": "Rua Batinga",
        "zipcode": "13611-482"
    },
    {
        "city": "Leme",
        "state": "SP",
        "district": "Centro",
        "street": "Praça Manoel Leme",
        "zipcode": "13610-139"
    },
    {
        "city": "Leme",
        "state": "SP",
        "district": "Barra Funda",
        "street": "Rua Juvenal Penteado",
        "zipcode": "13617-000"
    },
    {
        "city": "Leme",
        "state": "SP",
        "district": "Jardim Capitólio",
        "street": "Avenida Ana Maria",
        "zipcode": "13610-430"
    },
    {
        "city": "Leme",
        "state": "SP",
        "district": "Centro",
        "street": "Rua Coronel José Leme Franco",
        "zipcode": "13610-109"
    },
    {
        "city": "Leme",
        "state": "SP",
        "district": "Centro",
        "street": "Rua Joaquim Lopes dos Santos",
        "zipcode": "13610-029"
    },
    {
        "city": "Leme",
        "state": "SP",
        "district": "Jardim Amália",
        "street": "Rua Palmiro Ferreira Vieira",
        "zipcode": "13610-330"
    },
    {
        "city": "Leme",
        "state": "SP",
        "district": "Jardim Ariana",
        "street": "Rua Valdete Bonfogo",
        "zipcode": "13617-559"
    },
    {
        "city": "Leme",
        "state": "SP",
        "district": "Jardim Santa Paula",
        "street": "Rua Victor Curioni",
        "zipcode": "13611-011"
    },
    {
        "city": "Leme",
        "state": "SP",
        "district": "Centro",
        "street": "Rua XV de Novembro",
        "zipcode": "13610-030"
    },
    {
        "city": "Leme",
        "state": "SP",
        "district": "Jardim do Sol",
        "street": "Rua Valentim Baciotti",
        "zipcode": "13610-810"
    },
    {
        "city": "Leme",
        "state": "SP",
        "district": "Vila Bom Jesus",
        "street": "Rua Vereador Benedito Pinto da Silva",
        "zipcode": "13610-508"
    },
    {
        "city": "Leme",
        "state": "SP",
        "district": "Jardim Residencial Cambuhy",
        "street": "Rua Jayme Generoso de Godoy",
        "zipcode": "13610-880"
    },
    {
        "city": "Leme",
        "state": "SP",
        "district": "Jardim Amália",
        "street": "Rua Alair de Almeida Barros",
        "zipcode": "13610-320"
    },
    {
        "city": "Leme",
        "state": "SP",
        "district": "Jardim Capitólio",
        "street": "Avenida Albino Alves de Camargo",
        "zipcode": "13610-420"
    },
    {
        "city": "Leme",
        "state": "SP",
        "district": "Jardim Santa Rita",
        "street": "Rua Ângelo Consentino",
        "zipcode": "13611-334"
    },
    {
        "city": "Leme",
        "state": "SP",
        "district": "Jardim Residencial Saulo",
        "street": "Rua Antônio de Souza Sardinha",
        "zipcode": "13611-064"
    },
    {
        "city": "Leme",
        "state": "SP",
        "district": "Parque São Manoel",
        "street": "Rua Augusto Salciotto",
        "zipcode": "13616-530"
    },
    {
        "city": "Leme",
        "state": "SP",
        "district": "Vila Bom Jesus",
        "street": "Rua Barão do Rio Branco",
        "zipcode": "13610-499"
    },
    {
        "city": "Leme",
        "state": "SP",
        "district": "Centro",
        "street": "Avenida Benedito Landgraf",
        "zipcode": "13610-010"
    },
    {
        "city": "Leme",
        "state": "SP",
        "district": "Parque São Manoel",
        "street": "Rua Benjamin Ruas",
        "zipcode": "13616-579"
    },
    {
        "city": "Leme",
        "state": "SP",
        "district": "Jardim Nova Era",
        "street": "Rua Sebastião da Silva Leme",
        "zipcode": "13611-469"
    },
    {
        "city": "Leme",
        "state": "SP",
        "district": "Jardim Serelepe",
        "street": "Rua Angelina Zapacosta",
        "zipcode": "13611-207"
    },
    {
        "city": "Leme",
        "state": "SP",
        "district": "Vila Santa Maria",
        "street": "Praça Alan Kardec",
        "zipcode": "13611-002"
    },
    {
        "city": "Leme",
        "state": "SP",
        "district": "Jardim Letícia",
        "street": "Rua Pedro Zocoler",
        "zipcode": "13612-270"
    },
    {
        "city": "Leme",
        "state": "SP",
        "district": "Jardim Silvana",
        "street": "Rua Victório Cerbi",
        "zipcode": "13612-252"
    },
    {
        "city": "Leme",
        "state": "SP",
        "district": "Centro",
        "street": "Rua General Osório",
        "zipcode": "13610-050"
    },
    {
        "city": "Leme",
        "state": "SP",
        "district": "Cidade Jardim",
        "street": "Rua Neida Zencker Leme",
        "zipcode": "13614-240"
    },
    {
        "city": "Leme",
        "state": "SP",
        "district": "Centro",
        "street": "Avenida 29 de Agosto",
        "zipcode": "13610-900"
    },
    {
        "city": "Leme",
        "state": "SP",
        "district": "Centro",
        "street": "Avenida Carlos Bonfanti",
        "zipcode": "13610-238"
    },
    {
        "city": "Leme",
        "state": "SP",
        "district": "Centro",
        "street": "Rua Coronel José Leme Franco",
        "zipcode": "13611-480"
    },
    {
        "city": "Leme",
        "state": "SP",
        "district": "Jardim Santa Rita",
        "street": "Avenida Dom Pedro I",
        "zipcode": "13611-369"
    },
    {
        "city": "Leme",
        "state": "SP",
        "district": "Centro",
        "street": "Rua Doutor Armando Salles Oliveira",
        "zipcode": "13610-220"
    },
    {
        "city": "Leme",
        "state": "SP",
        "district": "Centro",
        "street": "Rua Doutor Gonçalves da Cunha",
        "zipcode": "13610-170"
    },
    {
        "city": "Leme",
        "state": "SP",
        "district": "Jardim Alvorada",
        "street": "Avenida Doutor Hermínio Ometto",
        "zipcode": "13611-300"
    },
    {
        "city": "Leme",
        "state": "SP",
        "district": "Centro",
        "street": "Rua Doutor Querubino Soeiro",
        "zipcode": "13610-080"
    },
    {
        "city": "Leme",
        "state": "SP",
        "district": "Jardim Santa Paula",
        "street": "Rua Francisco Anitelli",
        "zipcode": "13611-014"
    },
    {
        "city": "Leme",
        "state": "SP",
        "district": "Vila Bancária",
        "street": "Rua Hormindo de Queiroz",
        "zipcode": "13610-660"
    },
    {
        "city": "Leme",
        "state": "SP",
        "district": "Vila Bancária",
        "street": "Rua da Independência",
        "zipcode": "13610-589"
    },
    {
        "city": "Leme",
        "state": "SP",
        "district": "Vila São João",
        "street": "Rua Isacó Fioco",
        "zipcode": "13614-080"
    },
    {
        "city": "Leme",
        "state": "SP",
        "district": "Jardim São José",
        "street": "Rua Ísis Fernandes",
        "zipcode": "13611-129"
    },
    {
        "city": "Leme",
        "state": "SP",
        "district": "Jardim Santa Marta",
        "street": "Rua José Adami",
        "zipcode": "13611-091"
    },
    {
        "city": "Leme",
        "state": "SP",
        "district": "Jardim Santa Rita",
        "street": "Rua José Bonifácio de A. e Silva",
        "zipcode": "13611-370"
    },
    {
        "city": "Leme",
        "state": "SP",
        "district": "Jardim Santa Paula",
        "street": "Rua José Hilário Gurtler",
        "zipcode": "13611-013"
    },
    {
        "city": "Leme",
        "state": "SP",
        "district": "Vila Bela Vista",
        "street": "Rua José Manoel de A. Oliveira",
        "zipcode": "13611-420"
    },
    {
        "city": "Leme",
        "state": "SP",
        "district": "Jardim Santa Paula",
        "street": "Rua José Tamborim",
        "zipcode": "13611-016"
    },
    {
        "city": "Leme",
        "state": "SP",
        "district": "Jardim Santa Marta",
        "street": "Rua Ladislau Domingues Briones",
        "zipcode": "13611-110"
    },
    {
        "city": "Leme",
        "state": "SP",
        "district": "Centro",
        "street": "Rua Larissa Particular",
        "zipcode": "13610-239"
    },
    {
        "city": "Leme",
        "state": "SP",
        "district": "Centro",
        "street": "Rua Luís Clemente Sampaio",
        "zipcode": "13610-020"
    },
    {
        "city": "Leme",
        "state": "SP",
        "district": "Jardim Vila Rica",
        "street": "Jardim Vila Rica",
        "zipcode": "13613-256"
    },
    {
        "city": "Leme",
        "state": "SP",
        "district": "Loteamento Tufanin",
        "street": "Rua Luiz da Roz",
        "zipcode": "13610-280"
    },
    {
        "city": "Leme",
        "state": "SP",
        "district": "Jardim Eroísi",
        "street": "Rua Luiz Dias dos Santos",
        "zipcode": "13610-565"
    },
    {
        "city": "Leme",
        "state": "SP",
        "district": "Centro",
        "street": "Rua Major Arthur Franco Mourão",
        "zipcode": "13610-119"
    },
    {
        "city": "Leme",
        "state": "SP",
        "district": "Jardim Santa Marta",
        "street": "Rua Natal Remunhão",
        "zipcode": "13611-093"
    },
    {
        "city": "Leme",
        "state": "SP",
        "district": "Jardim Capitólio",
        "street": "Rua Newton Fior",
        "zipcode": "13610-429"
    },
    {
        "city": "Leme",
        "state": "SP",
        "district": "Centro",
        "street": "Rua Olímpio dos Santos",
        "zipcode": "13610-005"
    },
    {
        "city": "Leme",
        "state": "SP",
        "district": "Jardim Amália",
        "street": "Rua Particular Vergínio Rebessi",
        "zipcode": "13610-398"
    },
    {
        "city": "Leme",
        "state": "SP",
        "district": "Jardim Coloninha Cláudia",
        "street": "Rua Plínio Crocci",
        "zipcode": "13610-690"
    },
    {
        "city": "Leme",
        "state": "SP",
        "district": "Jardim Santa Paula",
        "street": "Rua Rita de Cássia Bueno Souza",
        "zipcode": "13611-028"
    },
    {
        "city": "Leme",
        "state": "SP",
        "district": "Jardim Coloninha Cláudia",
        "street": "Rua Ruy Rocha",
        "zipcode": "13610-700"
    },
    {
        "city": "Leme",
        "state": "SP",
        "district": "Jardim Ariana",
        "street": "Rua Segundo Facciolli",
        "zipcode": "13617-540"
    },
    {
        "city": "Leme",
        "state": "SP",
        "district": "Jardim Nova Leme",
        "street": "Rua das Papoulas",
        "zipcode": "13612-050"
    },
    {
        "city": "Leme",
        "state": "SP",
        "district": "Jardim Santa Rita",
        "street": "Rua José Silvestre de Carvalho",
        "zipcode": "13611-380"
    },
    {
        "city": "Leme",
        "state": "SP",
        "district": "Loteamento Tufanin",
        "street": "Rua Olavo Paes de Barros",
        "zipcode": "13610-289"
    },
    {
        "city": "Leme",
        "state": "SP",
        "district": "Jardim Residencial Saulo",
        "street": "Rua João Sinézio",
        "zipcode": "13611-066"
    },
    {
        "city": "Leme",
        "state": "SP",
        "district": "Serelepe",
        "street": "Rua Paschoal Pazelli",
        "zipcode": "13610-850"
    },
    {
        "city": "Leme",
        "state": "SP",
        "district": "Serelepe",
        "street": "Rua Gastão de Almeida",
        "zipcode": "13610-867"
    },
    {
        "city": "Leme",
        "state": "SP",
        "district": "Jardim do Sol",
        "street": "Rua Hormindo Klein",
        "zipcode": "13610-815"
    },
    {
        "city": "Leme",
        "state": "SP",
        "district": "Jardim do Sol",
        "street": "Rua José Luiz Quaglia",
        "zipcode": "13610-826"
    },
    {
        "city": "Leme",
        "state": "SP",
        "district": "Jardim Florença",
        "street": "Rua Três",
        "zipcode": "13612-205"
    },
    {
        "city": "Leme",
        "state": "SP",
        "district": "Jardim Florença",
        "street": "Rua Quatro",
        "zipcode": "13612-207"
    },
    {
        "city": "Leme",
        "state": "SP",
        "district": "Barra Funda",
        "street": "Rua Alcino Bastos",
        "zipcode": "13617-090"
    },
    {
        "city": "Leme",
        "state": "SP",
        "district": "Jardim Nova Leme",
        "street": "Rua das Amarilis",
        "zipcode": "13612-020"
    },
    {
        "city": "Leme",
        "state": "SP",
        "district": "Cidade Jardim",
        "street": "Rua Ângelo Cândido",
        "zipcode": "13614-290"
    },
    {
        "city": "Leme",
        "state": "SP",
        "district": "Vila Santucci",
        "street": "Rua Antônio Dellai",
        "zipcode": "13614-165"
    },
    {
        "city": "Leme",
        "state": "SP",
        "district": "Chácara Saúde",
        "street": "Rua Archimedes Bertão",
        "zipcode": "13612-610"
    },
    {
        "city": "Leme",
        "state": "SP",
        "district": "Desmembramento Vila Nova",
        "street": "Rua Arthur Camilo",
        "zipcode": "13611-660"
    },
    {
        "city": "Leme",
        "state": "SP",
        "district": "Jardim Vila Verde",
        "street": "Rua Benedito Batista",
        "zipcode": "13612-379"
    },
    {
        "city": "Leme",
        "state": "SP",
        "district": "Jardim Presidente",
        "street": "Rua Cabreúva",
        "zipcode": "13616-098"
    },
    {
        "city": "Leme",
        "state": "SP",
        "district": "Jardim Santa Inês",
        "street": "Avenida Joaquim Lopes Aguila",
        "zipcode": "13614-002"
    },
    {
        "city": "Leme",
        "state": "SP",
        "district": "Vila São João",
        "street": "Avenida Joaquim Lopes Aguila",
        "zipcode": "13614-086"
    },
    {
        "city": "Leme",
        "state": "SP",
        "district": "Vila São Jorge",
        "street": "Avenida Joaquim Lopes Aguila",
        "zipcode": "13615-002"
    },
    {
        "city": "Leme",
        "state": "SP",
        "district": "Jardim Portal do Bosque",
        "street": "Rua Nair Maradei Dellai",
        "zipcode": "13613-236"
    },
    {
        "city": "Leme",
        "state": "SP",
        "district": "Jardim do Bosque",
        "street": "Rua Carlos Fatuto",
        "zipcode": "13613-110"
    },
    {
        "city": "Leme",
        "state": "SP",
        "district": "Parque São Manoel",
        "street": "Rua Carlos Paes de Barros",
        "zipcode": "13616-460"
    },
    {
        "city": "Leme",
        "state": "SP",
        "district": "Jardim Nova Leme",
        "street": "Rua dos Cravos",
        "zipcode": "13612-039"
    },
    {
        "city": "Leme",
        "state": "SP",
        "district": "Jardim Nova Leme",
        "street": "Rua dos Crisântemos",
        "zipcode": "13612-030"
    },
    {
        "city": "Leme",
        "state": "SP",
        "district": "Jardim Primavera",
        "street": "Rua Elias Jorge Mansur",
        "zipcode": "13616-130"
    },
    {
        "city": "Leme",
        "state": "SP",
        "district": "Cidade Jardim",
        "street": "Rua Eugênio Guerra",
        "zipcode": "13614-380"
    },
    {
        "city": "Leme",
        "state": "SP",
        "district": "Parque São Manoel",
        "street": "Rua Evaristo de Marchi",
        "zipcode": "13616-469"
    },
    {
        "city": "Leme",
        "state": "SP",
        "district": "Vila São João",
        "street": "Rua Francisco Habermann",
        "zipcode": "13614-070"
    },
    {
        "city": "Leme",
        "state": "SP",
        "district": "Jardim Governador",
        "street": "Rua Francisco Lopes Silva",
        "zipcode": "13616-190"
    },
    {
        "city": "Leme",
        "state": "SP",
        "district": "Jardim São Joaquim",
        "street": "Rua das Gaivotas",
        "zipcode": "13615-620"
    },
    {
        "city": "Leme",
        "state": "SP",
        "district": "Jardim Santana",
        "street": "Rua Guilherme de Almeida",
        "zipcode": "13616-420"
    },
    {
        "city": "Leme",
        "state": "SP",
        "district": "Jardim Presidente",
        "street": "Rua Jacarandá",
        "zipcode": "13616-100"
    },
    {
        "city": "Leme",
        "state": "SP",
        "district": "Jardim do Bosque",
        "street": "Rua João Costa",
        "zipcode": "13613-050"
    },
    {
        "city": "Leme",
        "state": "SP",
        "district": "Vila Joest",
        "street": "Rua José Duarte de Mattos",
        "zipcode": "13614-111"
    },
    {
        "city": "Leme",
        "state": "SP",
        "district": "Cidade Jardim",
        "street": "Rua José Massucatto",
        "zipcode": "13614-280"
    },
    {
        "city": "Leme",
        "state": "SP",
        "district": "Barra Funda",
        "street": "Rua Luiz Canequiolli",
        "zipcode": "13617-068"
    },
    {
        "city": "Leme",
        "state": "SP",
        "district": "Centro",
        "street": "Rua Major Arthur Franco Mourão",
        "zipcode": "13611-490"
    },
    {
        "city": "Leme",
        "state": "SP",
        "district": "Vila Joest",
        "street": "Avenida Maximiano Villa Rios",
        "zipcode": "13614-110"
    },
    {
        "city": "Leme",
        "state": "SP",
        "district": "Jardim do Bosque",
        "street": "Rua Moacir Pinto",
        "zipcode": "13613-180"
    },
    {
        "city": "Leme",
        "state": "SP",
        "district": "Jardim Palmeiras",
        "street": "Rua Professora Maria Arruda Pacheco",
        "zipcode": "13615-500"
    },
    {
        "city": "Leme",
        "state": "SP",
        "district": "Jardim Presidente",
        "street": "Rua Quaresmeira",
        "zipcode": "13616-080"
    },
    {
        "city": "Leme",
        "state": "SP",
        "district": "Jardim Travagin",
        "street": "Rua Antonio Fio Klein",
        "zipcode": "13610-834"
    },
    {
        "city": "Leme",
        "state": "SP",
        "district": "Retiro Velho",
        "street": "Rua Rita Baccaro",
        "zipcode": "13613-019"
    },
    {
        "city": "Leme",
        "state": "SP",
        "district": "Jardim Nova Leme",
        "street": "Rua das Rosas",
        "zipcode": "13612-089"
    },
    {
        "city": "Leme",
        "state": "SP",
        "district": "Vila Santucci",
        "street": "Rua Santa Cruz",
        "zipcode": "13614-210"
    },
    {
        "city": "Leme",
        "state": "SP",
        "district": "Jardim Nova Santa Rita",
        "street": "Rua Pedro Álvares Cabral",
        "zipcode": "13611-600"
    },
    {
        "city": "Leme",
        "state": "SP",
        "district": "Vila Sumaré",
        "street": "Rua Guilherme Bonfanti",
        "zipcode": "13615-140"
    },
    {
        "city": "Leme",
        "state": "SP",
        "district": "Barra Funda",
        "street": "Rua Miguel José",
        "zipcode": "13617-039"
    },
    {
        "city": "Leme",
        "state": "SP",
        "district": "Cidade Jardim",
        "street": "Rua Professor Mário Zini",
        "zipcode": "13614-230"
    },
    {
        "city": "Leme",
        "state": "SP",
        "district": "Jardim Palmeiras",
        "street": "Rua Florêncio Villa Rios",
        "zipcode": "13615-530"
    },
    {
        "city": "Leme",
        "state": "SP",
        "district": "Jardim Renascença",
        "street": "Rua Antônio Carlos Guadagnini",
        "zipcode": "13612-232"
    },
    {
        "city": "Leme",
        "state": "SP",
        "district": "Jardim Alto da Glória",
        "street": "Rua Sylvio Di Camillo",
        "zipcode": "13616-691"
    },
    {
        "city": "Leme",
        "state": "SP",
        "district": "Jardim Angélica",
        "street": "Rua 8",
        "zipcode": "13615-724"
    },
    {
        "city": "Leme",
        "state": "SP",
        "district": "Conjunto Habitacional Francisco Coelho",
        "street": "Rua Sebastião de Calli",
        "zipcode": "13611-750"
    },
    {
        "city": "Leme",
        "state": "SP",
        "district": "Conjunto Habitacional Francisco Coelho",
        "street": "Rua Albert U. Faggion",
        "zipcode": "13611-768"
    },
    {
        "city": "Leme",
        "state": "SP",
        "district": "Jardim Clube do Bosque",
        "street": "Rua Gilmar Luiz Sebastião",
        "zipcode": "13613-412"
    },
    {
        "city": "Leme",
        "state": "SP",
        "district": "Taquari Ponte",
        "street": "Rua Juca Balduino",
        "zipcode": "13615-693"
    },
    {
        "city": "Leme",
        "state": "SP",
        "district": "Jardim Eloísa",
        "street": "Rua Antônio José Moro",
        "zipcode": "13617-640"
    },
    {
        "city": "Leme",
        "state": "SP",
        "district": "Centro",
        "street": "Rua Antônio Mourão",
        "zipcode": "13610-090"
    },
    {
        "city": "Leme",
        "state": "SP",
        "district": "Parque São Manoel",
        "street": "Rua Antônio Padovan",
        "zipcode": "13616-560"
    },
    {
        "city": "Leme",
        "state": "SP",
        "district": "Barra Funda",
        "street": "Rua Antônio Scherma",
        "zipcode": "13617-269"
    },
    {
        "city": "Leme",
        "state": "SP",
        "district": "Jardim Bonsucesso",
        "street": "Rua Aparecida Mattos Ravanini",
        "zipcode": "13617-616"
    },
    {
        "city": "Leme",
        "state": "SP",
        "district": "Centro",
        "street": "Rua Bernardino de Campos",
        "zipcode": "13610-060"
    },
    {
        "city": "Leme",
        "state": "SP",
        "district": "Centro",
        "street": "Rua Cantidiano Moreira Queiroz",
        "zipcode": "13610-089"
    },
    {
        "city": "Leme",
        "state": "SP",
        "district": "Centro",
        "street": "Rua Carlos Koch",
        "zipcode": "13610-040"
    },
    {
        "city": "Leme",
        "state": "SP",
        "district": "Jardim Ariana",
        "street": "Avenida Doutor Hermínio Ometto",
        "zipcode": "13617-565"
    },
    {
        "city": "Leme",
        "state": "SP",
        "district": "Jardim Ana Lúcia",
        "street": "Rua Armando Franco da Silva Leme",
        "zipcode": "13617-741"
    },
    {
        "city": "Leme",
        "state": "SP",
        "district": "Jardim Ana Lúcia",
        "street": "Rua Octávio Bertin",
        "zipcode": "13617-739"
    },
    {
        "city": "Leme",
        "state": "SP",
        "district": "Jardim Adelina",
        "street": "Avenida Joaquim Adolfo Amadeu",
        "zipcode": "13617-664"
    },
    {
        "city": "Leme",
        "state": "SP",
        "district": "Jardim Eloísa",
        "street": "Rua Doutor João Elias de Souza",
        "zipcode": "13617-657"
    },
    {
        "city": "Leme",
        "state": "SP",
        "district": "Jardim Nova Leme",
        "street": "Rua Doutor Ranulpho Mourão",
        "zipcode": "13613-005"
    },
    {
        "city": "Leme",
        "state": "SP",
        "district": "Jardim Bonsucesso",
        "street": "Rua Gildo Donadelli",
        "zipcode": "13617-605"
    },
    {
        "city": "Leme",
        "state": "SP",
        "district": "Quinta do Vale Verde",
        "street": "Avenida Brigadeiro Eduardo Gomes",
        "zipcode": "13613-900"
    },
    {
        "city": "Leme",
        "state": "SP",
        "district": "Barra Funda",
        "street": "Rua Henrique Waldvogel",
        "zipcode": "13617-300"
    },
    {
        "city": "Leme",
        "state": "SP",
        "district": "Barra Funda",
        "street": "Rua Imperatriz Leopoldina",
        "zipcode": "13617-230"
    },
    {
        "city": "Leme",
        "state": "SP",
        "district": "Jardim Nova Granada",
        "street": "Rua João Corrêa Sampaio",
        "zipcode": "13617-432"
    },
    {
        "city": "Leme",
        "state": "SP",
        "district": "Barra Funda",
        "street": "Rua João Ferreira Grosso",
        "zipcode": "13617-290"
    },
    {
        "city": "Leme",
        "state": "SP",
        "district": "Jardim Ariana",
        "street": "Rua João Galo",
        "zipcode": "13617-556"
    },
    {
        "city": "Leme",
        "state": "SP",
        "district": "Jardim Vanessa",
        "street": "Rua João Januário da Luz",
        "zipcode": "13617-539"
    },
    {
        "city": "Leme",
        "state": "SP",
        "district": "Centro",
        "street": "Rua João Pessoa",
        "zipcode": "13610-110"
    },
    {
        "city": "Leme",
        "state": "SP",
        "district": "Centro",
        "street": "Rua Joaquim de Góes",
        "zipcode": "13610-108"
    },
    {
        "city": "Leme",
        "state": "SP",
        "district": "Centro",
        "street": "Rua Joaquim Mourão",
        "zipcode": "13610-070"
    },
    {
        "city": "Leme",
        "state": "SP",
        "district": "Centro",
        "street": "Rua Major Rafael Leme",
        "zipcode": "13610-130"
    },
    {
        "city": "Leme",
        "state": "SP",
        "district": "Parque Residencial Itamaraty",
        "street": "Rua Manoel Marques Patarra",
        "zipcode": "13617-511"
    },
    {
        "city": "Leme",
        "state": "SP",
        "district": "Jardim Isabel Cristina",
        "street": "Rua Nelson Gonçalves dos Santos",
        "zipcode": "13611-199"
    },
    {
        "city": "Leme",
        "state": "SP",
        "district": "Centro",
        "street": "Rua Newton Prado",
        "zipcode": "13610-120"
    },
    {
        "city": "Leme",
        "state": "SP",
        "district": "Jardim Bonsucesso",
        "street": "Rua Octaviano Leme Godoy",
        "zipcode": "13617-607"
    },
    {
        "city": "Leme",
        "state": "SP",
        "district": "Parque Residencial Itamaraty",
        "street": "Rua Octaviano Sardinha",
        "zipcode": "13617-435"
    },
    {
        "city": "Leme",
        "state": "SP",
        "district": "Loteamento Grossklauss",
        "street": "Rua Otto Francisco C. Grossklaus",
        "zipcode": "13617-520"
    },
    {
        "city": "Leme",
        "state": "SP",
        "district": "Vila Santucci",
        "street": "Rua Professor Henrique Eignheer",
        "zipcode": "13614-169"
    },
    {
        "city": "Leme",
        "state": "SP",
        "district": "Jardim Nova Granada",
        "street": "Rua Serafino Piva",
        "zipcode": "13617-427"
    },
    {
        "city": "Leme",
        "state": "SP",
        "district": "Jardim Vista Alegre",
        "street": "Rua Vicente Farago",
        "zipcode": "13616-390"
    },
    {
        "city": "Leme",
        "state": "SP",
        "district": "Jardim São Francisco",
        "street": "Avenida Visconde de Nova Granada",
        "zipcode": "13617-400"
    },
    {
        "city": "Leme",
        "state": "SP",
        "district": "Jardim Nova Santa Rita",
        "street": "Rua Vitório Lourencetti",
        "zipcode": "13611-630"
    },
    {
        "city": "Leme",
        "state": "SP",
        "district": "Jardim Universitário",
        "street": "Rua Santa Guimarães",
        "zipcode": "13615-175"
    },
    {
        "city": "Leme",
        "state": "SP",
        "district": "Vila Santucci",
        "street": "Rua José Santoro",
        "zipcode": "13614-161"
    },
    {
        "city": "Leme",
        "state": "SP",
        "district": "Barra Funda",
        "street": "Rua Deodelina Camargo Ferreira",
        "zipcode": "13617-089"
    },
    {
        "city": "Leme",
        "state": "SP",
        "district": "Parque São Manoel",
        "street": "Estrada Municipal Taquari",
        "zipcode": "13615-685"
    },
    {
        "city": "Leme",
        "state": "SP",
        "district": "Chácara Saúde",
        "street": "Rua Carlos Franco",
        "zipcode": "13612-630"
    },
    {
        "city": "Leme",
        "state": "SP",
        "district": "Parque Residencial Itamaraty",
        "street": "Rua Malaque M. Paulo",
        "zipcode": "13617-475"
    },
    {
        "city": "Leme",
        "state": "SP",
        "district": "Centro",
        "street": "Rua Professor Domingos Cambiaghi",
        "zipcode": "13610-129"
    },
    {
        "city": "Leme",
        "state": "SP",
        "district": "Jardim Ana Lúcia",
        "street": "Rua José Amaral",
        "zipcode": "13617-735"
    },
    {
        "city": "Leme",
        "state": "SP",
        "district": "Jardim Residencial Quáglia",
        "street": "Rua Joaquim Veríssimo da Rocha",
        "zipcode": "13617-755"
    },
    {
        "city": "Leme",
        "state": "SP",
        "district": "Jardim Residencial Quáglia",
        "street": "Rua Octávio Da Roz",
        "zipcode": "13617-763"
    },
    {
        "city": "Leme",
        "state": "SP",
        "district": "Jardim Imperial",
        "street": "Rua Renato Leme de Arruda",
        "zipcode": "13617-850"
    },
    {
        "city": "Leme",
        "state": "SP",
        "district": "Jardim Residencial Quáglia",
        "street": "Rua Armando Scagion",
        "zipcode": "13617-771"
    },
    {
        "city": "Leme",
        "state": "SP",
        "district": "Jardim do Sol",
        "street": "Rua Geni Panaggio Ciccone",
        "zipcode": "13610-825"
    },
    {
        "city": "Leme",
        "state": "SP",
        "district": "Jardim Residencial Pavani",
        "street": "Rua Sylvia de O. Lima Curi",
        "zipcode": "13617-805"
    },
    {
        "city": "Leme",
        "state": "SP",
        "district": "Jardim Santa Paula",
        "street": "Rua Alberto Adolfo Amadeu",
        "zipcode": "13611-017"
    },
    {
        "city": "Leme",
        "state": "SP",
        "district": "Jardim Santa Paula",
        "street": "Rua Alcino Lino de Souza",
        "zipcode": "13611-010"
    },
    {
        "city": "Leme",
        "state": "SP",
        "district": "Jardim Santa Paula",
        "street": "Rua Alexandre Piccolli",
        "zipcode": "13611-027"
    },
    {
        "city": "Leme",
        "state": "SP",
        "district": "Jardim Capitólio",
        "street": "Rua Ângelo Capobianco",
        "zipcode": "13610-439"
    },
    {
        "city": "Leme",
        "state": "SP",
        "district": "Jardim Residencial Saulo",
        "street": "Rua Augusto de Souza Sardinha",
        "zipcode": "13611-065"
    },
    {
        "city": "Leme",
        "state": "SP",
        "district": "Jardim Santa Paula",
        "street": "Rua Benedito Leme Franco",
        "zipcode": "13611-020"
    },
    {
        "city": "Leme",
        "state": "SP",
        "district": "Vila Bom Jesus",
        "street": "Rua Carlos Gomes",
        "zipcode": "13610-480"
    },
    {
        "city": "Leme",
        "state": "SP",
        "district": "Jardim Santa Paula",
        "street": "Rua Carlos Leme Penteado",
        "zipcode": "13611-012"
    },
    {
        "city": "Leme",
        "state": "SP",
        "district": "Centro",
        "street": "Rua Coronel João Franco Mourão",
        "zipcode": "13610-180"
    },
    {
        "city": "Leme",
        "state": "SP",
        "district": "Jardim Eroísi",
        "street": "Rua Domingos Tavanielli",
        "zipcode": "13610-510"
    },
    {
        "city": "Leme",
        "state": "SP",
        "district": "Centro",
        "street": "Avenida Doutor Jambeiro Costa",
        "zipcode": "13610-236"
    },
    {
        "city": "Leme",
        "state": "SP",
        "district": "Vila Terezinha",
        "street": "Rua Duque de Caxias",
        "zipcode": "13610-240"
    },
    {
        "city": "Leme",
        "state": "SP",
        "district": "Jardim Coloninha Cláudia",
        "street": "Rua Elias Mardegan",
        "zipcode": "13610-740"
    },
    {
        "city": "Leme",
        "state": "SP",
        "district": "Vila Bancária",
        "street": "Rua Euclides Figueiredo",
        "zipcode": "13610-648"
    },
    {
        "city": "Leme",
        "state": "SP",
        "district": "Jardim Eroísi",
        "street": "Rua Francisco Lombardi",
        "zipcode": "13610-561"
    },
    {
        "city": "Leme",
        "state": "SP",
        "district": "Jardim Amália",
        "street": "Rua Frederico Hildebrand",
        "zipcode": "13610-370"
    },
    {
        "city": "Leme",
        "state": "SP",
        "district": "Loteamento Tufanin",
        "street": "Rua Frei Donato",
        "zipcode": "13610-290"
    },
    {
        "city": "Leme",
        "state": "SP",
        "district": "Vila Zarif",
        "street": "Rua Gandhi",
        "zipcode": "13610-566"
    },
    {
        "city": "Leme",
        "state": "SP",
        "district": "Vila Terezinha",
        "street": "Rua Getúlio Vargas",
        "zipcode": "13610-260"
    },
    {
        "city": "Leme",
        "state": "SP",
        "district": "Jardim Amália",
        "street": "Rua Giacomo Fior",
        "zipcode": "13610-340"
    },
    {
        "city": "Leme",
        "state": "SP",
        "district": "Vila Bancária",
        "street": "Rua Ipiranga",
        "zipcode": "13610-619"
    },
    {
        "city": "Leme",
        "state": "SP",
        "district": "Jardim Capitólio",
        "street": "Rua Jacinto Zorzo",
        "zipcode": "13610-419"
    },
    {
        "city": "Leme",
        "state": "SP",
        "district": "Jardim Eroísi",
        "street": "Rua José Lopes Silva",
        "zipcode": "13610-530"
    },
    {
        "city": "Leme",
        "state": "SP",
        "district": "Jardim Residencial Saulo",
        "street": "Rua José Mansur",
        "zipcode": "13611-059"
    },
    {
        "city": "Leme",
        "state": "SP",
        "district": "Jardim Residencial Saulo",
        "street": "Rua José Paschoal",
        "zipcode": "13611-060"
    },
    {
        "city": "Leme",
        "state": "SP",
        "district": "Jardim Capitólio",
        "street": "Rua José Rosolem",
        "zipcode": "13610-418"
    },
    {
        "city": "Leme",
        "state": "SP",
        "district": "Vila Rauter",
        "street": "Rua José Tonolli",
        "zipcode": "13610-445"
    },
    {
        "city": "Leme",
        "state": "SP",
        "district": "Jardim Coloninha Cláudia",
        "street": "Rua Manfredo Barbi",
        "zipcode": "13610-730"
    },
    {
        "city": "Leme",
        "state": "SP",
        "district": "Vila Terezinha",
        "street": "Rua Marechal Castello Branco",
        "zipcode": "13610-250"
    },
    {
        "city": "Leme",
        "state": "SP",
        "district": "Vila Zarif",
        "street": "Rua Marechal Rondon",
        "zipcode": "13610-567"
    },
    {
        "city": "Leme",
        "state": "SP",
        "district": "Jardim Eroísi",
        "street": "Rua Maria Aparecida Arrais Kock",
        "zipcode": "13610-520"
    },
    {
        "city": "Leme",
        "state": "SP",
        "district": "Vila Bancária",
        "street": "Rua Maristela",
        "zipcode": "13610-600"
    },
    {
        "city": "Leme",
        "state": "SP",
        "district": "Vila Bancária",
        "street": "Rua Mmdc",
        "zipcode": "13610-579"
    },
    {
        "city": "Leme",
        "state": "SP",
        "district": "Vila Bancária",
        "street": "Rua Paulo Bregaro",
        "zipcode": "13610-580"
    },
    {
        "city": "Leme",
        "state": "SP",
        "district": "Vila Bancária",
        "street": "Rua dos Povos",
        "zipcode": "13610-649"
    },
    {
        "city": "Leme",
        "state": "SP",
        "district": "Centro",
        "street": "Rua Rafael de Barros",
        "zipcode": "13610-200"
    },
    {
        "city": "Leme",
        "state": "SP",
        "district": "Loteamento Tufanin",
        "street": "Rua Rita Ismael",
        "zipcode": "13610-295"
    },
    {
        "city": "Leme",
        "state": "SP",
        "district": "Jardim Residencial Saulo",
        "street": "Rua Roldão Francisco Ferreira",
        "zipcode": "13611-061"
    },
    {
        "city": "Leme",
        "state": "SP",
        "district": "Vila Bom Jesus",
        "street": "Rua Salgado Filho",
        "zipcode": "13610-470"
    },
    {
        "city": "Leme",
        "state": "SP",
        "district": "Jardim Capitólio",
        "street": "Rua Um",
        "zipcode": "13610-411"
    },
    {
        "city": "Leme",
        "state": "SP",
        "district": "Loteamento Tufanin",
        "street": "Rua Vitório Luppi",
        "zipcode": "13610-296"
    },
    {
        "city": "Leme",
        "state": "SP",
        "district": "Centro",
        "street": "Avenida 29 de Agosto",
        "zipcode": "13610-210"
    },
    {
        "city": "Leme",
        "state": "SP",
        "district": "Vila Santa Maria",
        "street": "Rua André Luiz",
        "zipcode": "13611-001"
    },
    {
        "city": "Leme",
        "state": "SP",
        "district": "Jardim Amália",
        "street": "Rua João Donadel",
        "zipcode": "13610-350"
    },
    {
        "city": "Leme",
        "state": "SP",
        "district": "Jardim Amália",
        "street": "Rua Ricardo Vigatto",
        "zipcode": "13610-399"
    },
    {
        "city": "Leme",
        "state": "SP",
        "district": "Jardim Amália",
        "street": "Rua Ângelo Pavan",
        "zipcode": "13610-390"
    },
    {
        "city": "Leme",
        "state": "SP",
        "district": "Vila Bancária",
        "street": "Rua do Grito",
        "zipcode": "13610-629"
    },
    {
        "city": "Leme",
        "state": "SP",
        "district": "Jardim Imperial",
        "street": "Rua B",
        "zipcode": "13617-851"
    },
    {
        "city": "Leme",
        "state": "SP",
        "district": "Serelepe",
        "street": "Rua Paulo Pinto",
        "zipcode": "13610-840"
    },
    {
        "city": "Leme",
        "state": "SP",
        "district": "Serelepe",
        "street": "Estrada Municipal",
        "zipcode": "13610-845"
    },
    {
        "city": "Leme",
        "state": "SP",
        "district": "Serelepe",
        "street": "Rua Francisco Porcelana",
        "zipcode": "13610-861"
    },
    {
        "city": "Leme",
        "state": "SP",
        "district": "Serelepe",
        "street": "Rua Dante Dalbo",
        "zipcode": "13610-865"
    },
    {
        "city": "Leme",
        "state": "SP",
        "district": "Serelepe",
        "street": "Rua José Gama",
        "zipcode": "13610-872"
    },
    {
        "city": "Leme",
        "state": "SP",
        "district": "Jardim do Sol",
        "street": "Rua Maria Fercem",
        "zipcode": "13610-827"
    },
    {
        "city": "Leme",
        "state": "SP",
        "district": "Jardim Isabel Cristina",
        "street": "Rua Aurélio Donadel",
        "zipcode": "13611-149"
    },
    {
        "city": "Leme",
        "state": "SP",
        "district": "Jardim Nova Santa Rita",
        "street": "Rua Bartolomeu Dias",
        "zipcode": "13611-620"
    },
    {
        "city": "Leme",
        "state": "SP",
        "district": "Jardim São José",
        "street": "Rua Benedita Passelli",
        "zipcode": "13611-121"
    },
    {
        "city": "Leme",
        "state": "SP",
        "district": "Jardim Residencial Santa Maria",
        "street": "Rua Bezerra de Menezes",
        "zipcode": "13611-241"
    },
    {
        "city": "Leme",
        "state": "SP",
        "district": "Centro",
        "street": "Rua Brigadeiro Vicente Faria Lima",
        "zipcode": "13611-485"
    },
    {
        "city": "Leme",
        "state": "SP",
        "district": "Jardim Nova Santa Rita",
        "street": "Rua Caramuru",
        "zipcode": "13611-610"
    },
    {
        "city": "Leme",
        "state": "SP",
        "district": "Jardim Residencial Santa Maria",
        "street": "Rua Cristiano Harder",
        "zipcode": "13611-240"
    },
    {
        "city": "Leme",
        "state": "SP",
        "district": "Vila Bela Vista",
        "street": "Rua Emílio Violin",
        "zipcode": "13611-412"
    },
    {
        "city": "Leme",
        "state": "SP",
        "district": "Jardim Santa Marta",
        "street": "Rua Francisco dos Reis",
        "zipcode": "13611-094"
    },
    {
        "city": "Leme",
        "state": "SP",
        "district": "Jardim Alvorada",
        "street": "Rua Francisco Piccolo",
        "zipcode": "13611-307"
    },
    {
        "city": "Leme",
        "state": "SP",
        "district": "Jardim Nova Leme",
        "street": "Rua dos Girassóis",
        "zipcode": "13612-040"
    },
    {
        "city": "Leme",
        "state": "SP",
        "district": "Jardim Nova Leme",
        "street": "Rua dos Gradiolos",
        "zipcode": "13612-100"
    },
    {
        "city": "Leme",
        "state": "SP",
        "district": "Jardim Nova Leme",
        "street": "Rua dos Hemerócalis",
        "zipcode": "13612-000"
    },
    {
        "city": "Leme",
        "state": "SP",
        "district": "Jardim Santa Marta",
        "street": "Rua Hermógenes Roel",
        "zipcode": "13611-090"
    },
    {
        "city": "Leme",
        "state": "SP",
        "district": "Jardim Santa Marta",
        "street": "Rua Hinocêncio Bertogna",
        "zipcode": "13611-092"
    },
    {
        "city": "Leme",
        "state": "SP",
        "district": "Vila Bancária",
        "street": "Rua Humberto de Campos",
        "zipcode": "13611-460"
    },
    {
        "city": "Leme",
        "state": "SP",
        "district": "Jardim Nova Leme",
        "street": "Rua dos Jasmins",
        "zipcode": "13612-080"
    },
    {
        "city": "Leme",
        "state": "SP",
        "district": "Vila Hilsdorf",
        "street": "Rua Jorge Hilsdorf",
        "zipcode": "13611-400"
    },
    {
        "city": "Leme",
        "state": "SP",
        "district": "Jardim Nova Leme",
        "street": "Rua dos Lírios",
        "zipcode": "13612-088"
    },
    {
        "city": "Leme",
        "state": "SP",
        "district": "Jardim São José",
        "street": "Avenida Luciano Milanello",
        "zipcode": "13611-123"
    },
    {
        "city": "Leme",
        "state": "SP",
        "district": "Jardim Serelepe",
        "street": "Rua Pedro Michelotto",
        "zipcode": "13611-205"
    },
    {
        "city": "Leme",
        "state": "SP",
        "district": "Jardim Nova Leme",
        "street": "Rua das Malvas",
        "zipcode": "13612-070"
    },
    {
        "city": "Leme",
        "state": "SP",
        "district": "Jardim Isabel Cristina",
        "street": "Rua Manoel Vieira Sardinha",
        "zipcode": "13611-151"
    },
    {
        "city": "Leme",
        "state": "SP",
        "district": "Jardim Nova Leme",
        "street": "Rua das Margaridas",
        "zipcode": "13612-099"
    },
    {
        "city": "Leme",
        "state": "SP",
        "district": "Jardim Santa Rita",
        "street": "Rua Monteiro Lobato",
        "zipcode": "13611-330"
    },
    {
        "city": "Leme",
        "state": "SP",
        "district": "Jardim Santa Rita",
        "street": "Rua Padre Anchieta",
        "zipcode": "13611-359"
    },
    {
        "city": "Leme",
        "state": "SP",
        "district": "Jardim Santa Rita",
        "street": "Avenida Papa João XXIII",
        "zipcode": "13611-332"
    },
    {
        "city": "Leme",
        "state": "SP",
        "district": "Desmembramento Davi Comi",
        "street": "Rua Particular",
        "zipcode": "13611-639"
    },
    {
        "city": "Leme",
        "state": "SP",
        "district": "Jardim Isabel Cristina",
        "street": "Rua Pedro Pagliari",
        "zipcode": "13611-165"
    },
    {
        "city": "Leme",
        "state": "SP",
        "district": "Vila Bela Vista",
        "street": "Rua Rafael Maradei",
        "zipcode": "13611-440"
    },
    {
        "city": "Leme",
        "state": "SP",
        "district": "Jardim Nova Era",
        "street": "Rua Rafael Urban",
        "zipcode": "13611-479"
    },
    {
        "city": "Leme",
        "state": "SP",
        "district": "Jardim Alvorada",
        "street": "Rua Santina de Domenico Seródio",
        "zipcode": "13611-320"
    },
    {
        "city": "Leme",
        "state": "SP",
        "district": "Jardim Santa Rita",
        "street": "Rua Santos Dumond",
        "zipcode": "13611-335"
    },
    {
        "city": "Leme",
        "state": "SP",
        "district": "Vila Nova",
        "street": "Rua Serafin Simarelli",
        "zipcode": "13611-650"
    },
    {
        "city": "Leme",
        "state": "SP",
        "district": "Jardim São José",
        "street": "Rua Vinte e Nove de Agosto",
        "zipcode": "13611-122"
    },
    {
        "city": "Leme",
        "state": "SP",
        "district": "Jardim Nova Leme",
        "street": "Rua das Azaléias",
        "zipcode": "13612-029"
    },
    {
        "city": "Leme",
        "state": "SP",
        "district": "Jardim Santa Rita",
        "street": "Rua Constantino Afonso Pinck",
        "zipcode": "13611-390"
    },
    {
        "city": "Leme",
        "state": "SP",
        "district": "Jardim Residencial Saulo",
        "street": "Rua Demétrio Uzum",
        "zipcode": "13611-079"
    },
    {
        "city": "Leme",
        "state": "SP",
        "district": "Jardim Santa Marta",
        "street": "Rua Lourenço Zani",
        "zipcode": "13611-095"
    },
    {
        "city": "Leme",
        "state": "SP",
        "district": "Jardim São José",
        "street": "Rua Luiz Pavan",
        "zipcode": "13611-125"
    },
    {
        "city": "Leme",
        "state": "SP",
        "district": "Jardim Santa Rita",
        "street": "Rua Tomé de Souza",
        "zipcode": "13611-365"
    },
    {
        "city": "Leme",
        "state": "SP",
        "district": "Jardim Renascença",
        "street": "Rua Domingos Pecora Júnior",
        "zipcode": "13612-231"
    },
    {
        "city": "Leme",
        "state": "SP",
        "district": "Jardim Renascença",
        "street": "Rua Sebastião de Oliveira Gusmão",
        "zipcode": "13612-230"
    },
    {
        "city": "Leme",
        "state": "SP",
        "district": "Conjunto Habitacional Francisco Coelho",
        "street": "Rua José Travagin",
        "zipcode": "13611-751"
    },
    {
        "city": "Leme",
        "state": "SP",
        "district": "Jardim do Sol",
        "street": "Rua João Trottmann",
        "zipcode": "13610-811"
    },
    {
        "city": "Leme",
        "state": "SP",
        "district": "Conjunto Habitacional Francisco Coelho",
        "street": "Rua Manoel Franco da Silva",
        "zipcode": "13611-761"
    },
    {
        "city": "Leme",
        "state": "SP",
        "district": "Conjunto Habitacional Francisco Coelho",
        "street": "Rua do Benedito Leandro do Valle",
        "zipcode": "13611-765"
    },
    {
        "city": "Leme",
        "state": "SP",
        "district": "Conjunto Habitacional Francisco Coelho",
        "street": "Rua Lázaro Lopes de Siqueira",
        "zipcode": "13611-767"
    },
    {
        "city": "Leme",
        "state": "SP",
        "district": "Conjunto Habitacional Francisco Coelho",
        "street": "Rua Carlos Mourão",
        "zipcode": "13611-769"
    },
    {
        "city": "Leme",
        "state": "SP",
        "district": "Jardim Travagin",
        "street": "Rua Anibal Travagin",
        "zipcode": "13610-836"
    },
    {
        "city": "Leme",
        "state": "SP",
        "district": "Conjunto Habitacional Francisco Coelho",
        "street": "Rua Sebastião Denofre",
        "zipcode": "13611-770"
    },
    {
        "city": "Leme",
        "state": "SP",
        "district": "Jardim Santa Rita",
        "street": "Rua Almirante Tamandaré",
        "zipcode": "13611-336"
    },
    {
        "city": "Leme",
        "state": "SP",
        "district": "Jardim do Bosque",
        "street": "Avenida André Terossi",
        "zipcode": "13613-080"
    },
    {
        "city": "Leme",
        "state": "SP",
        "district": "Jardim do Bosque",
        "street": "Rua Ângelo Faggion",
        "zipcode": "13613-070"
    },
    {
        "city": "Leme",
        "state": "SP",
        "district": "Jardim do Bosque",
        "street": "Rua Benjamin Donadelli",
        "zipcode": "13613-060"
    },
    {
        "city": "Leme",
        "state": "SP",
        "district": "Vila Joest",
        "street": "Avenida Berta Buhrhein",
        "zipcode": "13614-100"
    },
    {
        "city": "Leme",
        "state": "SP",
        "district": "Centro",
        "street": "Rua Capitão João Pacheco Júnior",
        "zipcode": "13614-030"
    },
    {
        "city": "Leme",
        "state": "SP",
        "district": "Jardim Santa Inês",
        "street": "Rua Durvalino Franco da Silva",
        "zipcode": "13614-025"
    },
    {
        "city": "Leme",
        "state": "SP",
        "district": "Recanto do Sol",
        "street": "Rua Eduardo Scanavini",
        "zipcode": "13613-199"
    },
    {
        "city": "Leme",
        "state": "SP",
        "district": "Jardim do Bosque",
        "street": "Rua Emília Lopes da Roz",
        "zipcode": "13613-140"
    },
    {
        "city": "Leme",
        "state": "SP",
        "district": "Jardim Silvana",
        "street": "Rua Mauro Zamboni",
        "zipcode": "13612-250"
    },
    {
        "city": "Leme",
        "state": "SP",
        "district": "Jardim Residencial Crishmara",
        "street": "Rua Vereador Martins Modesto",
        "zipcode": "13613-432"
    },
    {
        "city": "Leme",
        "state": "SP",
        "district": "Jardim Residencial Crishmara",
        "street": "Rua Dimas Gaino",
        "zipcode": "13613-436"
    },
    {
        "city": "Leme",
        "state": "SP",
        "district": "Jardim Residencial Crishmara",
        "street": "Rua Virgílio Fornazin",
        "zipcode": "13613-438"
    },
    {
        "city": "Leme",
        "state": "SP",
        "district": "Jardim Residencial Crishmara",
        "street": "Rua Arcides Bercke",
        "zipcode": "13613-440"
    },
    {
        "city": "Leme",
        "state": "SP",
        "district": "Jardim Residencial Crishmara",
        "street": "Rua Armando Pultz",
        "zipcode": "13613-444"
    },
    {
        "city": "Leme",
        "state": "SP",
        "district": "Jardim Portal do Bosque",
        "street": "Rua Anna Villa Rios Maradei",
        "zipcode": "13613-232"
    },
    {
        "city": "Leme",
        "state": "SP",
        "district": "Jardim Portal do Bosque",
        "street": "Rua Sylvio Zapacosta",
        "zipcode": "13613-240"
    },
    {
        "city": "Leme",
        "state": "SP",
        "district": "Retiro Velho",
        "street": "Rua Felício Zanobia",
        "zipcode": "13613-009"
    },
    {
        "city": "Leme",
        "state": "SP",
        "district": "Vila Joest",
        "street": "Rua Francisco Alves de Oliveira",
        "zipcode": "13614-129"
    },
    {
        "city": "Leme",
        "state": "SP",
        "district": "Jardim Santa Inês",
        "street": "Rua Gabriel Penteado",
        "zipcode": "13614-020"
    },
    {
        "city": "Leme",
        "state": "SP",
        "district": "Jardim Santa Inês",
        "street": "Rua João Braz Filho",
        "zipcode": "13614-009"
    },
    {
        "city": "Leme",
        "state": "SP",
        "district": "Jardim Santa Inês",
        "street": "Rua José Franco da Silva Leme",
        "zipcode": "13614-027"
    },
    {
        "city": "Leme",
        "state": "SP",
        "district": "Vila Joest",
        "street": "Rua José Krempel",
        "zipcode": "13614-109"
    },
    {
        "city": "Leme",
        "state": "SP",
        "district": "Jardim do Bosque",
        "street": "Rua Luiz de Moraes Rêgo",
        "zipcode": "13613-100"
    },
    {
        "city": "Leme",
        "state": "SP",
        "district": "Jardim do Bosque",
        "street": "Rua Manoel Luiz do Amaral",
        "zipcode": "13613-150"
    },
    {
        "city": "Leme",
        "state": "SP",
        "district": "Jardim do Bosque",
        "street": "Avenida Melvin Jones",
        "zipcode": "13613-030"
    },
    {
        "city": "Leme",
        "state": "SP",
        "district": "Fazenda Santo Antônio",
        "street": "Estrada Municipal",
        "zipcode": "13613-260"
    },
    {
        "city": "Leme",
        "state": "SP",
        "district": "Vila Bela Vista",
        "street": "Rua Jose Augusto de Arruda Leme",
        "zipcode": "13611-450"
    },
    {
        "city": "Leme",
        "state": "SP",
        "district": "Jardim Residencial Altos da Santa Rita",
        "street": "Rua Orlando Pires",
        "zipcode": "13611-793"
    },
    {
        "city": "Leme",
        "state": "SP",
        "district": "Jardim Residencial Altos da Santa Rita",
        "street": "Rua André Poletti",
        "zipcode": "13611-791"
    },
    {
        "city": "Leme",
        "state": "SP",
        "district": "Recanto da Colina",
        "street": "Estrada Municipal",
        "zipcode": "13613-400"
    },
    {
        "city": "Leme",
        "state": "SP",
        "district": "Vila Bela Vista",
        "street": "Rua Nelson Polo",
        "zipcode": "13611-410"
    },
    {
        "city": "Leme",
        "state": "SP",
        "district": "Jardim do Bosque",
        "street": "Avenida Paul Harris",
        "zipcode": "13613-190"
    },
    {
        "city": "Leme",
        "state": "SP",
        "district": "Vila Joest",
        "street": "Rua Professor Arlindo Favaro",
        "zipcode": "13614-130"
    },
    {
        "city": "Leme",
        "state": "SP",
        "district": "Jardim Nova Era",
        "street": "Rua Sebastião Martinetti",
        "zipcode": "13611-470"
    },
    {
        "city": "Leme",
        "state": "SP",
        "district": "Vila Bela Vista",
        "street": "Rua Vitório Thomazotti",
        "zipcode": "13611-413"
    },
    {
        "city": "Leme",
        "state": "SP",
        "district": "Jardim do Bosque",
        "street": "Rua Dionízio Gilberto",
        "zipcode": "13613-170"
    },
    {
        "city": "Leme",
        "state": "SP",
        "district": "Jardim do Bosque",
        "street": "Avenida José Antunes de Lisboa",
        "zipcode": "13613-130"
    },
    {
        "city": "Leme",
        "state": "SP",
        "district": "Jardim Renascença",
        "street": "Rua José Luiz Andrelli",
        "zipcode": "13612-240"
    },
    {
        "city": "Leme",
        "state": "SP",
        "district": "Conjunto Habitacional Francisco Coelho",
        "street": "Rua Alfredo Stefani",
        "zipcode": "13611-762"
    },
    {
        "city": "Leme",
        "state": "SP",
        "district": "Distrito Industrial",
        "street": "Rua Francisco Leme da Silva",
        "zipcode": "13612-380"
    },
    {
        "city": "Leme",
        "state": "SP",
        "district": "Distrito Industrial",
        "street": "Rua Oswaldo Sachi",
        "zipcode": "13612-383"
    },
    {
        "city": "Leme",
        "state": "SP",
        "district": "Vila São João",
        "street": "Rua Santa Cruz",
        "zipcode": "13614-084"
    },
    {
        "city": "Leme",
        "state": "SP",
        "district": "Distrito Industrial",
        "street": "Rua Armando Coelho",
        "zipcode": "13612-394"
    },
    {
        "city": "Leme",
        "state": "SP",
        "district": "Jardim Clube do Bosque",
        "street": "Rua Paulo Felizatti",
        "zipcode": "13613-415"
    },
    {
        "city": "Leme",
        "state": "SP",
        "district": "Vila Santucci",
        "street": "Rua Álvaro Pacheco Silveira",
        "zipcode": "13614-170"
    },
    {
        "city": "Leme",
        "state": "SP",
        "district": "Jardim São Joaquim",
        "street": "Rua das Andorinhas",
        "zipcode": "13615-680"
    },
    {
        "city": "Leme",
        "state": "SP",
        "district": "Jardim Residencial Altos da Santa Rita",
        "street": "Rua Attilio de Barros",
        "zipcode": "13611-798"
    },
    {
        "city": "Leme",
        "state": "SP",
        "district": "Conjunto Habitacional Francisco Coelho",
        "street": "Rua Henrique Coelho",
        "zipcode": "13611-764"
    },
    {
        "city": "Leme",
        "state": "SP",
        "district": "Jardim Residencial Altos da Santa Rita",
        "street": "Rua Paulo Lopes",
        "zipcode": "13611-796"
    },
    {
        "city": "Leme",
        "state": "SP",
        "district": "Jardim Residencial Altos da Santa Rita",
        "street": "Rua André Rodrigues",
        "zipcode": "13611-797"
    },
    {
        "city": "Leme",
        "state": "SP",
        "district": "Jardim Anteghini",
        "street": "Rua Irene Quito Ramazzini",
        "zipcode": "13611-266"
    },
    {
        "city": "Leme",
        "state": "SP",
        "district": "Vila Sumaré",
        "street": "Rua Ângelo Donadel",
        "zipcode": "13615-070"
    },
    {
        "city": "Leme",
        "state": "SP",
        "district": "Jardim Palmeiras",
        "street": "Rua Ângelo Marchi",
        "zipcode": "13615-460"
    },
    {
        "city": "Leme",
        "state": "SP",
        "district": "Jardim Palmeiras",
        "street": "Rua Antônio Rosa",
        "zipcode": "13615-470"
    },
    {
        "city": "Leme",
        "state": "SP",
        "district": "Jardim São Joaquim",
        "street": "Rua das Arapongas",
        "zipcode": "13615-600"
    },
    {
        "city": "Leme",
        "state": "SP",
        "district": "Jardim Palmeiras",
        "street": "Rua Arthur Dellai",
        "zipcode": "13615-450"
    },
    {
        "city": "Leme",
        "state": "SP",
        "district": "Cidade Jardim",
        "street": "Rua Biazo Vicentim",
        "zipcode": "13614-330"
    },
    {
        "city": "Leme",
        "state": "SP",
        "district": "Jardim São Joaquim",
        "street": "Rua dos Cardeais",
        "zipcode": "13615-610"
    },
    {
        "city": "Leme",
        "state": "SP",
        "district": "Chácara Saúde",
        "street": "Rua Carlos Franco Camargo",
        "zipcode": "13612-640"
    },
    {
        "city": "Leme",
        "state": "SP",
        "district": "Cidade Jardim",
        "street": "Rua Custódio Pereira",
        "zipcode": "13614-270"
    },
    {
        "city": "Leme",
        "state": "SP",
        "district": "Vila Sumaré",
        "street": "Rua Eduardo Villa Rios",
        "zipcode": "13615-080"
    },
    {
        "city": "Leme",
        "state": "SP",
        "district": "Vila Santucci",
        "street": "Rua Ezio José Molinari",
        "zipcode": "13614-190"
    },
    {
        "city": "Leme",
        "state": "SP",
        "district": "Cidade Jardim",
        "street": "Avenida Felipe Kater",
        "zipcode": "13614-358"
    },
    {
        "city": "Leme",
        "state": "SP",
        "district": "Cidade Jardim",
        "street": "Rua Flávio Zillo",
        "zipcode": "13614-310"
    },
    {
        "city": "Leme",
        "state": "SP",
        "district": "Vila Sumaré",
        "street": "Rua João Bonfanti",
        "zipcode": "13615-130"
    },
    {
        "city": "Leme",
        "state": "SP",
        "district": "Cidade Jardim",
        "street": "Avenida José Antônio Fercem",
        "zipcode": "13614-239"
    },
    {
        "city": "Leme",
        "state": "SP",
        "district": "Vila Santucci",
        "street": "Rua José Bonfanti",
        "zipcode": "13614-200"
    },
    {
        "city": "Leme",
        "state": "SP",
        "district": "Vila Santucci",
        "street": "Rua José Crocci",
        "zipcode": "13614-166"
    },
    {
        "city": "Leme",
        "state": "SP",
        "district": "Barra Funda",
        "street": "Rua José de Góes Pinto",
        "zipcode": "13615-290"
    },
    {
        "city": "Leme",
        "state": "SP",
        "district": "Vila Santucci",
        "street": "Rua Lázaro Kinock",
        "zipcode": "13615-300"
    },
    {
        "city": "Leme",
        "state": "SP",
        "district": "Taquari Ponte",
        "street": "Estrada Municipal Orlando Leme Franco",
        "zipcode": "13615-686"
    },
    {
        "city": "Leme",
        "state": "SP",
        "district": "Jardim Palmeiras",
        "street": "Rua Nícola Frugis",
        "zipcode": "13615-420"
    },
    {
        "city": "Leme",
        "state": "SP",
        "district": "Jardim do Bosque",
        "street": "Avenida Padre Gregório Westrupp",
        "zipcode": "13613-119"
    },
    {
        "city": "Leme",
        "state": "SP",
        "district": "Jardim Portal do Bosque",
        "street": "Rua Nelson José Maradei",
        "zipcode": "13613-230"
    },
    {
        "city": "Leme",
        "state": "SP",
        "district": "Jardim Portal do Bosque",
        "street": "Rua Nelson Maradei",
        "zipcode": "13613-242"
    },
    {
        "city": "Leme",
        "state": "SP",
        "district": "Distrito Industrial",
        "street": "Avenida Antonio Carrera",
        "zipcode": "13612-385"
    },
    {
        "city": "Leme",
        "state": "SP",
        "district": "Cidade Jardim",
        "street": "Rua Paulo Rebessi",
        "zipcode": "13614-260"
    },
    {
        "city": "Leme",
        "state": "SP",
        "district": "Vila São João",
        "street": "Rua Próspero Grisi",
        "zipcode": "13614-060"
    },
    {
        "city": "Leme",
        "state": "SP",
        "district": "Jardim São Joaquim",
        "street": "Praça Raul Krempel",
        "zipcode": "13615-609"
    },
    {
        "city": "Leme",
        "state": "SP",
        "district": "Vila São Jorge",
        "street": "Rua Rodrigues Alves",
        "zipcode": "13615-030"
    },
    {
        "city": "Leme",
        "state": "SP",
        "district": "Vila Sumaré",
        "street": "Rua Salomão Mattar",
        "zipcode": "13615-120"
    },
    {
        "city": "Leme",
        "state": "SP",
        "district": "Vila São Jorge",
        "street": "Rua Tiradentes",
        "zipcode": "13615-010"
    },
    {
        "city": "Leme",
        "state": "SP",
        "district": "Jardim São Joaquim",
        "street": "Rua dos Uirapurus",
        "zipcode": "13615-670"
    },
    {
        "city": "Leme",
        "state": "SP",
        "district": "Vila São Jorge",
        "street": "Rua Wenceslau Braz",
        "zipcode": "13615-020"
    },
    {
        "city": "Leme",
        "state": "SP",
        "district": "Jardim Santa Rita",
        "street": "Rua Almirante Barbosa",
        "zipcode": "13611-355"
    },
    {
        "city": "Leme",
        "state": "SP",
        "district": "Quinta do Vale Verde",
        "street": "Rua das Dálias",
        "zipcode": "13613-370"
    },
    {
        "city": "Leme",
        "state": "SP",
        "district": "Jardim São Joaquim",
        "street": "Rua das Garças",
        "zipcode": "13615-650"
    },
    {
        "city": "Leme",
        "state": "SP",
        "district": "Cidade Jardim",
        "street": "Rua Cornélio Tonolli",
        "zipcode": "13614-250"
    },
    {
        "city": "Leme",
        "state": "SP",
        "district": "Cidade Jardim",
        "street": "Rua Luiz Galhardi",
        "zipcode": "13614-360"
    },
    {
        "city": "Leme",
        "state": "SP",
        "district": "Vila Sumaré",
        "street": "Rua Santo Antônio",
        "zipcode": "13615-090"
    },
    {
        "city": "Leme",
        "state": "SP",
        "district": "Cidade Jardim",
        "street": "Rua Plínio Picardi",
        "zipcode": "13614-350"
    },
    {
        "city": "Leme",
        "state": "SP",
        "district": "Vila Joest",
        "street": "Rua Vitório de Marchi",
        "zipcode": "13614-150"
    },
    {
        "city": "Leme",
        "state": "SP",
        "district": "Jardim Letícia",
        "street": "Rua Raul de Marchi",
        "zipcode": "13612-272"
    },
    {
        "city": "Leme",
        "state": "SP",
        "district": "Jardim Letícia",
        "street": "Rua Pedro Lani Boff",
        "zipcode": "13612-282"
    },
    {
        "city": "Leme",
        "state": "SP",
        "district": "Jardim Angélica",
        "street": "Rua 7",
        "zipcode": "13615-723"
    },
    {
        "city": "Leme",
        "state": "SP",
        "district": "Jardim Clube do Bosque",
        "street": "Rua Sérgio Tambolini",
        "zipcode": "13613-410"
    },
    {
        "city": "Leme",
        "state": "SP",
        "district": "Jardim Clube do Bosque",
        "street": "Rua Renato Gonçalves de Andrade",
        "zipcode": "13613-414"
    },
    {
        "city": "Leme",
        "state": "SP",
        "district": "Jardim Presidente",
        "street": "Rua Alfeneiro",
        "zipcode": "13616-099"
    },
    {
        "city": "Leme",
        "state": "SP",
        "district": "Jardim Santana",
        "street": "Rua Ana Neri",
        "zipcode": "13616-400"
    },
    {
        "city": "Leme",
        "state": "SP",
        "district": "Vila São Jorge",
        "street": "Rua Anita Garibaldi",
        "zipcode": "13616-369"
    },
    {
        "city": "Leme",
        "state": "SP",
        "district": "Jardim Presidente",
        "street": "Rua Bauínia",
        "zipcode": "13616-040"
    },
    {
        "city": "Leme",
        "state": "SP",
        "district": "Parque São Manoel",
        "street": "Rua Cândido Murer",
        "zipcode": "13616-490"
    },
    {
        "city": "Leme",
        "state": "SP",
        "district": "Jardim Letícia",
        "street": "Rua Emílio Benedini",
        "zipcode": "13612-283"
    },
    {
        "city": "Leme",
        "state": "SP",
        "district": "Fazenda Palmeiras",
        "street": "Antiga Estrada de Pirassununga",
        "zipcode": "13615-210"
    },
    {
        "city": "Leme",
        "state": "SP",
        "district": "Vila Joest",
        "street": "Praça Antônio Hilsdorf",
        "zipcode": "13614-138"
    },
    {
        "city": "Leme",
        "state": "SP",
        "district": "Vale Verde",
        "street": "Rua dos Flamboaiãs",
        "zipcode": "13613-340"
    },
    {
        "city": "Leme",
        "state": "SP",
        "district": "Chácara Saúde",
        "street": "Rua da República",
        "zipcode": "13612-605"
    },
    {
        "city": "Leme",
        "state": "SP",
        "district": "Parque São Manoel",
        "street": "Rua Carlos Rauter",
        "zipcode": "13616-480"
    },
    {
        "city": "Leme",
        "state": "SP",
        "district": "Jardim Presidente",
        "street": "Rua Cássia",
        "zipcode": "13616-010"
    },
    {
        "city": "Leme",
        "state": "SP",
        "district": "Jardim Santana",
        "street": "Rua Castro Alves",
        "zipcode": "13616-440"
    },
    {
        "city": "Leme",
        "state": "SP",
        "district": "Parque São Manoel",
        "street": "Rua Cláudio José Tamborim",
        "zipcode": "13616-479"
    },
    {
        "city": "Leme",
        "state": "SP",
        "district": "Parque São Manoel",
        "street": "Rua Constantino Michael",
        "zipcode": "13616-470"
    },
    {
        "city": "Leme",
        "state": "SP",
        "district": "Jardim Primavera",
        "street": "Rua Décio Maradei",
        "zipcode": "13616-170"
    },
    {
        "city": "Leme",
        "state": "SP",
        "district": "Jardim Primavera",
        "street": "Rua Ernesto Grossklauss",
        "zipcode": "13616-175"
    },
    {
        "city": "Leme",
        "state": "SP",
        "district": "Jardim Primavera",
        "street": "Rua Etori Silenci",
        "zipcode": "13616-110"
    },
    {
        "city": "Leme",
        "state": "SP",
        "district": "Jardim Santana",
        "street": "Rua Euclides da Cunha",
        "zipcode": "13616-430"
    },
    {
        "city": "Leme",
        "state": "SP",
        "district": "Jardim Primavera",
        "street": "Rua Evaristo Harder",
        "zipcode": "13616-140"
    },
    {
        "city": "Leme",
        "state": "SP",
        "district": "Jardim Governador",
        "street": "Rua Francisco Medeiros",
        "zipcode": "13616-200"
    },
    {
        "city": "Leme",
        "state": "SP",
        "district": "Jardim Governador",
        "street": "Rua Francisco Ortiz",
        "zipcode": "13616-180"
    },
    {
        "city": "Leme",
        "state": "SP",
        "district": "Jardim Novo Horizonte",
        "street": "Rua Francisco R. Sotero Pupo",
        "zipcode": "13616-220"
    },
    {
        "city": "Leme",
        "state": "SP",
        "district": "Jardim Novo Horizonte",
        "street": "Rua Francisco Sampaio Neto",
        "zipcode": "13616-229"
    },
    {
        "city": "Leme",
        "state": "SP",
        "district": "Jardim Santana",
        "street": "Rua da Glória",
        "zipcode": "13616-445"
    },
    {
        "city": "Leme",
        "state": "SP",
        "district": "Jardim Presidente",
        "street": "Rua Guarantã",
        "zipcode": "13616-020"
    },
    {
        "city": "Leme",
        "state": "SP",
        "district": "Jardim Vista Alegre",
        "street": "Rua Guerino Gueldini",
        "zipcode": "13616-399"
    },
    {
        "city": "Leme",
        "state": "SP",
        "district": "Residencial Rocco Lenci",
        "street": "Rua Augusto Stencio",
        "zipcode": "13616-107"
    },
    {
        "city": "Leme",
        "state": "SP",
        "district": "Jardim Vista Alegre",
        "street": "Rua Guilherme Arthur Pommer",
        "zipcode": "13616-389"
    },
    {
        "city": "Leme",
        "state": "SP",
        "district": "Jardim Vista Alegre",
        "street": "Rua Guilherme Kock",
        "zipcode": "13616-397"
    },
    {
        "city": "Leme",
        "state": "SP",
        "district": "Barra Funda",
        "street": "Rua Jacob Klein",
        "zipcode": "13615-280"
    },
    {
        "city": "Leme",
        "state": "SP",
        "district": "Cidade Jardim",
        "street": "Avenida Jorge Hildebrand Primo",
        "zipcode": "13614-359"
    },
    {
        "city": "Leme",
        "state": "SP",
        "district": "Jardim Presidente",
        "street": "Avenida Manoel Lopes Troya",
        "zipcode": "13616-101"
    },
    {
        "city": "Leme",
        "state": "SP",
        "district": "Jardim Presidente",
        "street": "Rua Oiti",
        "zipcode": "13616-097"
    },
    {
        "city": "Leme",
        "state": "SP",
        "district": "Jardim Presidente",
        "street": "Avenida Santa Isabel",
        "zipcode": "13616-095"
    },
    {
        "city": "Leme",
        "state": "SP",
        "district": "Parque São Manoel",
        "street": "Rua Siqueira Campos",
        "zipcode": "13616-450"
    },
    {
        "city": "Leme",
        "state": "SP",
        "district": "Jardim Primavera",
        "street": "Rua Vicente Benedine",
        "zipcode": "13616-150"
    },
    {
        "city": "Leme",
        "state": "SP",
        "district": "Vila Sumaré",
        "street": "Avenida Washington Luiz",
        "zipcode": "13615-050"
    },
    {
        "city": "Leme",
        "state": "SP",
        "district": "Jardim Palmeiras",
        "street": "Rua Ângelo Facciolli",
        "zipcode": "13615-440"
    },
    {
        "city": "Leme",
        "state": "SP",
        "district": "Jardim Presidente",
        "street": "Rua dos Ypes",
        "zipcode": "13616-096"
    },
    {
        "city": "Leme",
        "state": "SP",
        "district": "Jardim Santana",
        "street": "Praça Nove de Julho",
        "zipcode": "13616-402"
    },
    {
        "city": "Leme",
        "state": "SP",
        "district": "Jardim Eldorado",
        "street": "Rua Américo Zancheta",
        "zipcode": "13616-672"
    },
    {
        "city": "Leme",
        "state": "SP",
        "district": "Jardim Alto da Glória",
        "street": "Rua Nazir Soubihe",
        "zipcode": "13616-680"
    },
    {
        "city": "Leme",
        "state": "SP",
        "district": "Jardim Dibi",
        "street": "Rua Armando Pereira",
        "zipcode": "13616-379"
    },
    {
        "city": "Leme",
        "state": "SP",
        "district": "Jardim Letícia",
        "street": "Rua Valter Antonio Paccelli",
        "zipcode": "13612-281"
    },
    {
        "city": "Leme",
        "state": "SP",
        "district": "Jardim Universitário",
        "street": "Rua João Terossi",
        "zipcode": "13615-183"
    },
    {
        "city": "Leme",
        "state": "SP",
        "district": "Quinta do Vale Verde",
        "street": "Avenida Brigadeiro Eduardo Gomes",
        "zipcode": "13613-300"
    },
    {
        "city": "Leme",
        "state": "SP",
        "district": "Jardim Angélica",
        "street": "Rua 5",
        "zipcode": "13615-721"
    },
    {
        "city": "Leme",
        "state": "SP",
        "district": "Jardim Angélica",
        "street": "Rua 1",
        "zipcode": "13615-730"
    },
    {
        "city": "Leme",
        "state": "SP",
        "district": "Jardim Angélica",
        "street": "Rua 2",
        "zipcode": "13615-731"
    },
    {
        "city": "Leme",
        "state": "SP",
        "district": "Jardim Angélica",
        "street": "Rua 3",
        "zipcode": "13615-732"
    },
    {
        "city": "Leme",
        "state": "SP",
        "district": "Jardim Alto da Boa Vista",
        "street": "Rua Cláudio Domingos Alvares",
        "zipcode": "13615-702"
    },
    {
        "city": "Leme",
        "state": "SP",
        "district": "Taquari",
        "street": "Rua Carlos Baldin",
        "zipcode": "13615-766"
    },
    {
        "city": "Leme",
        "state": "SP",
        "district": "Taquari",
        "street": "Rua Olho DAgua",
        "zipcode": "13615-758"
    },
    {
        "city": "Leme",
        "state": "SP",
        "district": "Taquari",
        "street": "Rua Fortunato Girotto",
        "zipcode": "13615-768"
    },
    {
        "city": "Leme",
        "state": "SP",
        "district": "Taquari Ponte",
        "street": "Rua Felipe Aranha de Albuquerque",
        "zipcode": "13615-691"
    },
    {
        "city": "Leme",
        "state": "SP",
        "district": "Taquari Ponte",
        "street": "Rua Ricieri Baldin",
        "zipcode": "13615-690"
    },
    {
        "city": "Leme",
        "state": "SP",
        "district": "Taquari Ponte",
        "street": "Rua Fortunato Guido Baldin",
        "zipcode": "13615-695"
    },
    {
        "city": "Leme",
        "state": "SP",
        "district": "Taquari Ponte",
        "street": "Rua Ary Rodrigues Cunha",
        "zipcode": "13615-698"
    },
    {
        "city": "Leme",
        "state": "SP",
        "district": "Taquari Ponte",
        "street": "Rua Oscar Tisher",
        "zipcode": "13615-699"
    },
    {
        "city": "Leme",
        "state": "SP",
        "district": "Taquari Ponte",
        "street": "Rua João Lourenzen",
        "zipcode": "13615-689"
    },
    {
        "city": "Leme",
        "state": "SP",
        "district": "Jardim São Francisco",
        "street": "Rua Altamira Pincke",
        "zipcode": "13617-409"
    },
    {
        "city": "Leme",
        "state": "SP",
        "district": "Jardim Dibi",
        "street": "Rua Benedito Barreto Mourão",
        "zipcode": "13616-371"
    },
    {
        "city": "Leme",
        "state": "SP",
        "district": "Jardim Universitário",
        "street": "Rua Antonio Jorge Mansur",
        "zipcode": "13615-181"
    },
    {
        "city": "Leme",
        "state": "SP",
        "district": "Jardim Palmeiras",
        "street": "Rua Projetada",
        "zipcode": "13615-429"
    },
    {
        "city": "Leme",
        "state": "SP",
        "district": "Jardim Universitário",
        "street": "Rua Mansur Taufic",
        "zipcode": "13615-177"
    },
    {
        "city": "Leme",
        "state": "SP",
        "district": "Jardim Casarão",
        "street": "Rua Coronel Antonio Abade",
        "zipcode": "13616-308"
    },
    {
        "city": "Leme",
        "state": "SP",
        "district": "Jardim Dibi",
        "street": "Rua Oswayr Antunes",
        "zipcode": "13616-375"
    },
    {
        "city": "Leme",
        "state": "SP",
        "district": "Jardim São Joaquim",
        "street": "Estrada Municipal 7 Lagoas",
        "zipcode": "13615-678"
    },
    {
        "city": "Leme",
        "state": "SP",
        "district": "Barra Funda",
        "street": "Rua Antônio Baccarin",
        "zipcode": "13617-029"
    },
    {
        "city": "Leme",
        "state": "SP",
        "district": "Jardim Juana",
        "street": "Rua Arnaldo Habermann",
        "zipcode": "13617-355"
    },
    {
        "city": "Leme",
        "state": "SP",
        "district": "Barra Funda",
        "street": "Rua Bazílio Villa Rios",
        "zipcode": "13617-060"
    },
    {
        "city": "Leme",
        "state": "SP",
        "district": "Barra Funda",
        "street": "Rua Cônego Manoel Simões de Lima",
        "zipcode": "13617-270"
    },
    {
        "city": "Leme",
        "state": "SP",
        "district": "Barra Funda",
        "street": "Rua Emílio Andrielli",
        "zipcode": "13617-100"
    },
    {
        "city": "Leme",
        "state": "SP",
        "district": "Barra Funda",
        "street": "Rua Emílio Manfrin",
        "zipcode": "13617-066"
    },
    {
        "city": "Leme",
        "state": "SP",
        "district": "Barra Funda",
        "street": "Rua Helcias Hermínio Vieira",
        "zipcode": "13617-310"
    },
    {
        "city": "Leme",
        "state": "SP",
        "district": "Barra Funda",
        "street": "Rua Irmã Sílvia Raubuch",
        "zipcode": "13617-067"
    },
    {
        "city": "Leme",
        "state": "SP",
        "district": "Jardim São Francisco",
        "street": "Rua João de Paula Ramos",
        "zipcode": "13617-407"
    },
    {
        "city": "Leme",
        "state": "SP",
        "district": "Parque Residencial Itamaraty",
        "street": "Rua João Dellai",
        "zipcode": "13617-512"
    },
    {
        "city": "Leme",
        "state": "SP",
        "district": "Jardim Nova Granada",
        "street": "Rua João Fogo",
        "zipcode": "13617-429"
    },
    {
        "city": "Leme",
        "state": "SP",
        "district": "Jardim Nova Granada",
        "street": "Rua João Podboi",
        "zipcode": "13617-423"
    },
    {
        "city": "Leme",
        "state": "SP",
        "district": "Parque Residencial Itamaraty",
        "street": "Rua Joaquim Silveira Filho",
        "zipcode": "13617-513"
    },
    {
        "city": "Leme",
        "state": "SP",
        "district": "Barra Funda",
        "street": "Rua José de Abreu",
        "zipcode": "13617-079"
    },
    {
        "city": "Leme",
        "state": "SP",
        "district": "Parque Residencial Itamaraty",
        "street": "Rua José de Alencar",
        "zipcode": "13617-437"
    },
    {
        "city": "Leme",
        "state": "SP",
        "district": "Jardim São Francisco",
        "street": "Rua José Pariz",
        "zipcode": "13617-403"
    },
    {
        "city": "Leme",
        "state": "SP",
        "district": "Jardim Nova Granada",
        "street": "Rua Luiz Guadanini",
        "zipcode": "13617-420"
    },
    {
        "city": "Leme",
        "state": "SP",
        "district": "Parque Residencial Itamaraty",
        "street": "Rua Luiz Imposseto",
        "zipcode": "13617-510"
    },
    {
        "city": "Leme",
        "state": "SP",
        "district": "Parque Residencial Itamaraty",
        "street": "Rua Luiz Palermo Maradei",
        "zipcode": "13617-507"
    },
    {
        "city": "Leme",
        "state": "SP",
        "district": "Barra Funda",
        "street": "Rua Manoel Abade",
        "zipcode": "13617-020"
    },
    {
        "city": "Leme",
        "state": "SP",
        "district": "Parque Residencial Itamaraty",
        "street": "Rua Manoel Krempel",
        "zipcode": "13617-465"
    },
    {
        "city": "Leme",
        "state": "SP",
        "district": "Barra Funda",
        "street": "Avenida Joaquim Lopes Aguila",
        "zipcode": "13617-002"
    },
    {
        "city": "Leme",
        "state": "SP",
        "district": "Jardim Juana",
        "street": "Avenida João Arrais Seródio Filho",
        "zipcode": "13617-372"
    },
    {
        "city": "Leme",
        "state": "SP",
        "district": "Parque Residencial Itamaraty",
        "street": "Rua Marcelo C. Paes de Barros",
        "zipcode": "13617-500"
    },
    {
        "city": "Leme",
        "state": "SP",
        "district": "Parque Residencial Itamaraty",
        "street": "Rua Martha Denzin",
        "zipcode": "13617-455"
    },
    {
        "city": "Leme",
        "state": "SP",
        "district": "Parque Residencial Itamaraty",
        "street": "Rua Martinho Hilsdorf",
        "zipcode": "13617-445"
    },
    {
        "city": "Leme",
        "state": "SP",
        "district": "Jardim Juana",
        "street": "Rua Maura Sardinha Bonfanti",
        "zipcode": "13617-350"
    },
    {
        "city": "Leme",
        "state": "SP",
        "district": "Barra Funda",
        "street": "Rua dos Operários",
        "zipcode": "13617-210"
    },
    {
        "city": "Leme",
        "state": "SP",
        "district": "Parque Residencial Itamaraty",
        "street": "Rua Ormindo Ferreira",
        "zipcode": "13617-433"
    },
    {
        "city": "Leme",
        "state": "SP",
        "district": "Parque Residencial Itamaraty",
        "street": "Rua Oscar Schuenger",
        "zipcode": "13617-495"
    },
    {
        "city": "Leme",
        "state": "SP",
        "district": "Barra Funda",
        "street": "Rua Pedro Blumer",
        "zipcode": "13617-049"
    },
    {
        "city": "Leme",
        "state": "SP",
        "district": "Loteamento Grossklauss",
        "street": "Rua Pedro Calixto",
        "zipcode": "13617-525"
    },
    {
        "city": "Leme",
        "state": "SP",
        "district": "Loteamento Grossklauss",
        "street": "Rua Portinari",
        "zipcode": "13617-530"
    },
    {
        "city": "Leme",
        "state": "SP",
        "district": "Barra Funda",
        "street": "Rua Princesa Isabel",
        "zipcode": "13617-279"
    },
    {
        "city": "Leme",
        "state": "SP",
        "district": "Parque Residencial Itamaraty",
        "street": "Rua Professor Vítor Romano",
        "zipcode": "13617-480"
    },
    {
        "city": "Leme",
        "state": "SP",
        "district": "Parque Residencial Itamaraty",
        "street": "Rua Professora Durvalina Cantinho",
        "zipcode": "13617-515"
    },
    {
        "city": "Leme",
        "state": "SP",
        "district": "Barra Funda",
        "street": "Rua Romão Alves Morales",
        "zipcode": "13617-010"
    },
    {
        "city": "Leme",
        "state": "SP",
        "district": "Barra Funda",
        "street": "Rua Santa Cecília",
        "zipcode": "13617-240"
    },
    {
        "city": "Leme",
        "state": "SP",
        "district": "Barra Funda",
        "street": "Rua João Arrais Seródio",
        "zipcode": "13617-260"
    },
    {
        "city": "Leme",
        "state": "SP",
        "district": "Jardim Eldorado",
        "street": "Rua César Bacarin",
        "zipcode": "13616-673"
    },
    {
        "city": "Leme",
        "state": "SP",
        "district": "Jardim Alto da Glória",
        "street": "Rua Pedro Ottieri",
        "zipcode": "13616-682"
    },
    {
        "city": "Leme",
        "state": "SP",
        "district": "Jardim Alto da Glória",
        "street": "Rua Rubens Andielli",
        "zipcode": "13616-684"
    },
    {
        "city": "Leme",
        "state": "SP",
        "district": "Jardim Bonsucesso",
        "street": "Rua Amadeu de Jesus Pacheco",
        "zipcode": "13617-619"
    },
    {
        "city": "Leme",
        "state": "SP",
        "district": "Jardim Eroísi",
        "street": "Rua Amélio da Roz",
        "zipcode": "13610-549"
    },
    {
        "city": "Leme",
        "state": "SP",
        "district": "Jardim Eroísi",
        "street": "Rua Américo Bergamasco",
        "zipcode": "13617-646"
    },
    {
        "city": "Leme",
        "state": "SP",
        "district": "Vila Bancária",
        "street": "Rua dos Bandeirantes",
        "zipcode": "13610-639"
    },
    {
        "city": "Leme",
        "state": "SP",
        "district": "Centro",
        "street": "Rua Capitão Alberto Mendes Júnior",
        "zipcode": "13610-100"
    },
    {
        "city": "Leme",
        "state": "SP",
        "district": "Vila Bom Jesus",
        "street": "Rua Celestino de Marchi",
        "zipcode": "13610-509"
    },
    {
        "city": "Leme",
        "state": "SP",
        "district": "Jardim Eloísa",
        "street": "Rua Constantino Augusto Pinck",
        "zipcode": "13617-625"
    },
    {
        "city": "Leme",
        "state": "SP",
        "district": "Jardim Santana",
        "street": "Rua Ibrain Nobre",
        "zipcode": "13616-410"
    },
    {
        "city": "Leme",
        "state": "SP",
        "district": "Centro",
        "street": "Rua Coronel Augusto César",
        "zipcode": "13610-190"
    },
    {
        "city": "Leme",
        "state": "SP",
        "district": "Centro",
        "street": "Travessa da Avenida Doutor Jambeiro Costa",
        "zipcode": "13610-235"
    },
    {
        "city": "Leme",
        "state": "SP",
        "district": "Jardim Eloísa",
        "street": "Rua Domingos Cechinatto",
        "zipcode": "13617-630"
    },
    {
        "city": "Leme",
        "state": "SP",
        "district": "Jardim Ariana",
        "street": "Rua Ermelino Nery",
        "zipcode": "13617-555"
    },
    {
        "city": "Leme",
        "state": "SP",
        "district": "Jardim Eloísa",
        "street": "Rua Eufrosino Corrêa",
        "zipcode": "13617-635"
    },
    {
        "city": "Leme",
        "state": "SP",
        "district": "Jardim Bonsucesso",
        "street": "Rua Frederico Habermann",
        "zipcode": "13617-603"
    },
    {
        "city": "Leme",
        "state": "SP",
        "district": "Jardim Residencial Saulo",
        "street": "Rua Giacomo Barbi",
        "zipcode": "13611-062"
    },
    {
        "city": "Leme",
        "state": "SP",
        "district": "Jardim São Francisco",
        "street": "Rua Ignácio Zago Villa",
        "zipcode": "13617-579"
    },
    {
        "city": "Leme",
        "state": "SP",
        "district": "Jardim Eroísi",
        "street": "Rua Jacinto Fiocco",
        "zipcode": "13610-540"
    },
    {
        "city": "Leme",
        "state": "SP",
        "district": "Centro",
        "street": "Rua João Batista Prado",
        "zipcode": "13610-150"
    },
    {
        "city": "Leme",
        "state": "SP",
        "district": "Jardim Bonsucesso",
        "street": "Rua João Tamborim",
        "zipcode": "13617-618"
    },
    {
        "city": "Leme",
        "state": "SP",
        "district": "Jardim Eloísa",
        "street": "Rua Joaquim Ortiz de Camargo",
        "zipcode": "13617-647"
    },
    {
        "city": "Leme",
        "state": "SP",
        "district": "Vila Santa Maria",
        "street": "Avenida José Moreira de Queiroz",
        "zipcode": "13611-000"
    },
    {
        "city": "Leme",
        "state": "SP",
        "district": "Jardim Eloísa",
        "street": "Rua José Schimidt",
        "zipcode": "13617-648"
    },
    {
        "city": "Leme",
        "state": "SP",
        "district": "Jardim Nova Granada",
        "street": "Rua Juan Troya",
        "zipcode": "13617-430"
    },
    {
        "city": "Leme",
        "state": "SP",
        "district": "Jardim Ariana",
        "street": "Rua Lázaro Cândido",
        "zipcode": "13617-557"
    },
    {
        "city": "Leme",
        "state": "SP",
        "district": "Jardim Bonsucesso",
        "street": "Rua Liberato Monezzi",
        "zipcode": "13617-610"
    },
    {
        "city": "Leme",
        "state": "SP",
        "district": "Jardim Bonsucesso",
        "street": "Rua Luiz Negro",
        "zipcode": "13617-613"
    },
    {
        "city": "Leme",
        "state": "SP",
        "district": "Jardim Capitólio",
        "street": "Avenida Maria Helena",
        "zipcode": "13610-410"
    },
    {
        "city": "Leme",
        "state": "SP",
        "district": "Jardim Adelina",
        "street": "Rua Miguel Jesus Ferreira",
        "zipcode": "13617-675"
    },
    {
        "city": "Leme",
        "state": "SP",
        "district": "Jardim Jequitibá",
        "street": "Rua Ernesto Lazzarini",
        "zipcode": "13617-747"
    },
    {
        "city": "Leme",
        "state": "SP",
        "district": "Jardim Jequitibá",
        "street": "Rua Armando Franco da Silva Leme",
        "zipcode": "13617-742"
    },
    {
        "city": "Leme",
        "state": "SP",
        "district": "Jardim Ana Lúcia",
        "street": "Rua José Costenaro",
        "zipcode": "13617-732"
    },
    {
        "city": "Leme",
        "state": "SP",
        "district": "Jardim Jequitibá",
        "street": "Rua José Costenaro",
        "zipcode": "13617-746"
    },
    {
        "city": "Leme",
        "state": "SP",
        "district": "Jardim Jequitibá",
        "street": "Rua Lúcia Antunes",
        "zipcode": "13617-749"
    },
    {
        "city": "Leme",
        "state": "SP",
        "district": "Jardim Ana Lúcia",
        "street": "Rua Floriano Vieira Sardinha",
        "zipcode": "13617-730"
    },
    {
        "city": "Leme",
        "state": "SP",
        "district": "Jardim Alto da Boa Vista",
        "street": "Rua Francisco Margonar",
        "zipcode": "13615-708"
    },
    {
        "city": "Leme",
        "state": "SP",
        "district": "Centro",
        "street": "Rua Padre Julião",
        "zipcode": "13610-230"
    },
    {
        "city": "Leme",
        "state": "SP",
        "district": "Jardim Bonsucesso",
        "street": "Rua Paschoal Peluzo",
        "zipcode": "13617-614"
    },
    {
        "city": "Leme",
        "state": "SP",
        "district": "Jardim Eloísa",
        "street": "Rua Patista Antônio Thomaz",
        "zipcode": "13617-620"
    },
    {
        "city": "Leme",
        "state": "SP",
        "district": "Jardim Eroísi",
        "street": "Rua Ricardo Hildebrand",
        "zipcode": "13610-562"
    },
    {
        "city": "Leme",
        "state": "SP",
        "district": "Jardim Amália",
        "street": "Rua da Roz Bortolo",
        "zipcode": "13610-310"
    },
    {
        "city": "Leme",
        "state": "SP",
        "district": "Vila Bancária",
        "street": "Rua do Sesquicentenário",
        "zipcode": "13610-570"
    },
    {
        "city": "Leme",
        "state": "SP",
        "district": "Vila Bom Jesus",
        "street": "Rua Valentim Zaccariotto",
        "zipcode": "13610-450"
    },
    {
        "city": "Leme",
        "state": "SP",
        "district": "Jardim Ariana",
        "street": "Rua Zarif Faiad Mansur",
        "zipcode": "13617-560"
    },
    {
        "city": "Leme",
        "state": "SP",
        "district": "Jardim Ariana",
        "street": "Rua Cândido Antônio Máximo",
        "zipcode": "13617-553"
    },
    {
        "city": "Leme",
        "state": "SP",
        "district": "Jardim Amália",
        "street": "Rua Ida Morales",
        "zipcode": "13610-380"
    },
    {
        "city": "Leme",
        "state": "SP",
        "district": "Jardim Amália",
        "street": "Rua Ernesto Gatto",
        "zipcode": "13610-360"
    },
    {
        "city": "Leme",
        "state": "SP",
        "district": "Jardim Ana Lúcia",
        "street": "Rua Sete",
        "zipcode": "13617-733"
    },
    {
        "city": "Leme",
        "state": "SP",
        "district": "Jardim Ana Lúcia",
        "street": "Rua Doze",
        "zipcode": "13617-736"
    },
    {
        "city": "Leme",
        "state": "SP",
        "district": "Jardim Ana Lúcia",
        "street": "Rua João Scherma Sobrinho",
        "zipcode": "13617-740"
    },
    {
        "city": "Leme",
        "state": "SP",
        "district": "Jardim Residencial Quáglia",
        "street": "Rua Alessandro Baldin",
        "zipcode": "13617-760"
    },
    {
        "city": "Leme",
        "state": "SP",
        "district": "Jardim Eloísa",
        "street": "Rua Benedito Parroti",
        "zipcode": "13617-661"
    },
    {
        "city": "Leme",
        "state": "SP",
        "district": "Jardim Alvorada",
        "street": "Rua Ângelo Rodrigues",
        "zipcode": "13611-309"
    },
    {
        "city": "Leme",
        "state": "SP",
        "district": "Cidade Jardim",
        "street": "Rodovia Anhangüera",
        "zipcode": "13614-320"
    },
    {
        "city": "Leme",
        "state": "SP",
        "district": "Jardim Adelina",
        "street": "Rua Antônio Fiocco",
        "zipcode": "13617-670"
    },
    {
        "city": "Leme",
        "state": "SP",
        "district": "Jardim Palmeiras",
        "street": "Rua Antônio Santucci",
        "zipcode": "13615-520"
    },
    {
        "city": "Leme",
        "state": "SP",
        "district": "Vila Bela Vista",
        "street": "Rua Carlos Albers",
        "zipcode": "13611-411"
    },
    {
        "city": "Leme",
        "state": "SP",
        "district": "Jardim Santa Rita",
        "street": "Praça Custódio Ângelo de Lima",
        "zipcode": "13611-333"
    },
    {
        "city": "Leme",
        "state": "SP",
        "district": "Jardim Santa Rita",
        "street": "Avenida Doutor Eurico Arrais Seródio",
        "zipcode": "13611-331"
    },
    {
        "city": "Leme",
        "state": "SP",
        "district": "Jardim Isabel Cristina",
        "street": "Rua Doutor João Carlos Pink",
        "zipcode": "13611-150"
    },
    {
        "city": "Leme",
        "state": "SP",
        "district": "Vila Bela Vista",
        "street": "Rua Doutor Peixe Abade",
        "zipcode": "13611-430"
    },
    {
        "city": "Leme",
        "state": "SP",
        "district": "Jardim Nova Era",
        "street": "Rua Doutor Roberto Mercatelli",
        "zipcode": "13611-468"
    },
    {
        "city": "Leme",
        "state": "SP",
        "district": "Jardim São José",
        "street": "Rua Etelvina Sardinha Violin",
        "zipcode": "13611-124"
    },
    {
        "city": "Leme",
        "state": "SP",
        "district": "Jardim Santa Paula",
        "street": "Rua Evaristo Lissoni",
        "zipcode": "13611-050"
    },
    {
        "city": "Leme",
        "state": "SP",
        "district": "Jardim São José",
        "street": "Rua Gustavo Habermann",
        "zipcode": "13611-120"
    },
    {
        "city": "Leme",
        "state": "SP",
        "district": "Jardim São José",
        "street": "Rua Jorge Miguel Mansur",
        "zipcode": "13611-130"
    },
    {
        "city": "Leme",
        "state": "SP",
        "district": "Desmembramento Orlando Anteghini",
        "street": "Rua João Costenaro Fortunato",
        "zipcode": "13610-440"
    },
    {
        "city": "Leme",
        "state": "SP",
        "district": "Estrada Municipal Caju",
        "street": "Estrada Municipal Cajú",
        "zipcode": "13617-577"
    },
    {
        "city": "Leme",
        "state": "SP",
        "district": "Jardim Isabel Cristina",
        "street": "Rua José Marques de Oliveira",
        "zipcode": "13611-180"
    },
    {
        "city": "Leme",
        "state": "SP",
        "district": "Jardim Santa Paula",
        "street": "Rua Luiz Ramazini",
        "zipcode": "13611-018"
    },
    {
        "city": "Leme",
        "state": "SP",
        "district": "Jardim Nova Leme",
        "street": "Rua das Primaveras",
        "zipcode": "13612-060"
    },
    {
        "city": "Leme",
        "state": "SP",
        "district": "Jardim Residencial Saulo",
        "street": "Rua José de Souza Bueno",
        "zipcode": "13611-063"
    },
    {
        "city": "Leme",
        "state": "SP",
        "district": "Jardim Ana Lúcia",
        "street": "Rua Vereador Alcides Baciotti",
        "zipcode": "13617-731"
    },
    {
        "city": "Leme",
        "state": "SP",
        "district": "Jardim Residencial Quáglia",
        "street": "Rua Doutora Haine Maria Aparecida Vasconcellos de Moraes",
        "zipcode": "13617-752"
    },
    {
        "city": "Leme",
        "state": "SP",
        "district": "Jardim Residencial Quáglia",
        "street": "Rua Francisco Travertino",
        "zipcode": "13617-754"
    },
    {
        "city": "Leme",
        "state": "SP",
        "district": "Jardim Residencial Quáglia",
        "street": "Rua João Bozza",
        "zipcode": "13617-757"
    },
    {
        "city": "Leme",
        "state": "SP",
        "district": "Jardim Residencial Pavani",
        "street": "Rua Professora Maria Luiza da Roz",
        "zipcode": "13617-801"
    },
    {
        "city": "Leme",
        "state": "SP",
        "district": "Jardim Residencial Pavani",
        "street": "Rua Sete",
        "zipcode": "13617-802"
    },
    {
        "city": "Leme",
        "state": "SP",
        "district": "Jardim Residencial Quáglia",
        "street": "Rua Antonio Correa de Almeida",
        "zipcode": "13617-761"
    },
    {
        "city": "Leme",
        "state": "SP",
        "district": "Jardim Residencial Quáglia",
        "street": "Rua Antonio Bilatto",
        "zipcode": "13617-764"
    },
    {
        "city": "Leme",
        "state": "SP",
        "district": "Jardim Residencial Quáglia",
        "street": "Rua Cândido Zorzo",
        "zipcode": "13617-765"
    },
    {
        "city": "Leme",
        "state": "SP",
        "district": "Jardim Serelepe",
        "street": "Rua José Bacarin",
        "zipcode": "13611-209"
    },
    {
        "city": "Leme",
        "state": "SP",
        "district": "Jardim Serelepe",
        "street": "Rua Euclibas Gonçalves da Silva",
        "zipcode": "13611-215"
    },
    {
        "city": "Leme",
        "state": "SP",
        "district": "Jardim Residencial Mariana",
        "street": "Rua Albino Roel",
        "zipcode": "13611-220"
    },
    {
        "city": "Leme",
        "state": "SP",
        "district": "Jardim Residencial Mariana",
        "street": "Rua Maria Aparecida Calori Zuba",
        "zipcode": "13611-224"
    },
    {
        "city": "Leme",
        "state": "SP",
        "district": "Centro",
        "street": "Rua Doutor Querubino Soeiro",
        "zipcode": "13610-904"
    },
    {
        "city": "Leme",
        "state": "SP",
        "district": "Centro",
        "street": "Rua Bernardino de Campos",
        "zipcode": "13610-901"
    },
    {
        "city": "Leme",
        "state": "SP",
        "district": "Centro",
        "street": "Rua Doutor Armando Salles Oliveira",
        "zipcode": "13610-903"
    },
    {
        "city": "Leme",
        "state": "SP",
        "district": "Serelepe",
        "street": "Rua Vereador João Cesar Gaino",
        "zipcode": "13610-860"
    },
    {
        "city": "Leme",
        "state": "SP",
        "district": "Jardim Imperial",
        "street": "Rua Roberto Gallo",
        "zipcode": "13617-853"
    },
    {
        "city": "Leme",
        "state": "SP",
        "district": "Jardim Residencial Quáglia",
        "street": "Rua Cezino Mardegan",
        "zipcode": "13617-770"
    },
    {
        "city": "Leme",
        "state": "SP",
        "district": "Jardim Alto da Boa Vista",
        "street": "Rua Aécio Turola",
        "zipcode": "13615-700"
    },
    {
        "city": "Leme",
        "state": "SP",
        "district": "Jardim Residencial Quáglia",
        "street": "Rua Lázaro de Carvalho",
        "zipcode": "13617-773"
    },
    {
        "city": "Leme",
        "state": "SP",
        "district": "Jardim Residencial Quáglia",
        "street": "Rua Arthur Ferreira",
        "zipcode": "13617-774"
    },
    {
        "city": "Leme",
        "state": "SP",
        "district": "Jardim do Sol",
        "street": "Rua José Parizoto",
        "zipcode": "13610-812"
    },
    {
        "city": "Leme",
        "state": "SP",
        "district": "Jardim do Sol",
        "street": "Rua Otávio Habbermann",
        "zipcode": "13610-820"
    },
    {
        "city": "Leme",
        "state": "SP",
        "district": "Conjunto Habitacional Francisco Coelho",
        "street": "Rua Primo Bergamasco",
        "zipcode": "13611-763"
    },
    {
        "city": "Leme",
        "state": "SP",
        "district": "Distrito Industrial",
        "street": "Rua Fábio Franzo",
        "zipcode": "13612-390"
    },
    {
        "city": "Leme",
        "state": "SP",
        "district": "Distrito Industrial",
        "street": "Rua Professor José Gomes Caetano",
        "zipcode": "13612-392"
    },
    {
        "city": "Leme",
        "state": "SP",
        "district": "Jardim Clube do Bosque",
        "street": "Rua Nair Pavan Landgraf",
        "zipcode": "13613-413"
    },
    {
        "city": "Leme",
        "state": "SP",
        "district": "Jardim do Bosque",
        "street": "Rodovia Anhangüera",
        "zipcode": "13613-090"
    },
    {
        "city": "Leme",
        "state": "SP",
        "district": "Jardim Palmeiras",
        "street": "Rua Atílio Bertão",
        "zipcode": "13615-400"
    },
    {
        "city": "Leme",
        "state": "SP",
        "district": "Jardim Angélica",
        "street": "Avenida Projetada",
        "zipcode": "13615-725"
    },
    {
        "city": "Leme",
        "state": "SP",
        "district": "Jardim Residencial Quáglia",
        "street": "Rua Laércio de Lucca",
        "zipcode": "13617-775"
    },
    {
        "city": "Leme",
        "state": "SP",
        "district": "Vila Santucci",
        "street": "Rua Bernardino de Campos",
        "zipcode": "13614-180"
    },
    {
        "city": "Leme",
        "state": "SP",
        "district": "Jardim do Bosque",
        "street": "Rua Carlos Krempel",
        "zipcode": "13613-040"
    },
    {
        "city": "Leme",
        "state": "SP",
        "district": "Cidade Jardim",
        "street": "Rua Demézio Nabarreti",
        "zipcode": "13614-300"
    },
    {
        "city": "Leme",
        "state": "SP",
        "district": "Jardim Adelina",
        "street": "Avenida Doutor Hermínio Ometto",
        "zipcode": "13617-710"
    },
    {
        "city": "Leme",
        "state": "SP",
        "district": "Jardim Santana",
        "street": "Rua Doutor João F. Domenico Seródio",
        "zipcode": "13616-405"
    },
    {
        "city": "Leme",
        "state": "SP",
        "district": "Barra Funda",
        "street": "Rua Doutor Mário A. Teixeira Freitas",
        "zipcode": "13617-340"
    },
    {
        "city": "Leme",
        "state": "SP",
        "district": "Vila Sumaré",
        "street": "Rua Francisco José de Mori",
        "zipcode": "13615-060"
    },
    {
        "city": "Leme",
        "state": "SP",
        "district": "Jardim do Bosque",
        "street": "Rua Hugo Anteghini",
        "zipcode": "13613-160"
    },
    {
        "city": "Leme",
        "state": "SP",
        "district": "Vila Sumaré",
        "street": "Rua Irmã Diva Patarra",
        "zipcode": "13615-170"
    },
    {
        "city": "Leme",
        "state": "SP",
        "district": "Jardim do Bosque",
        "street": "Rua José Valle",
        "zipcode": "13613-120"
    },
    {
        "city": "Leme",
        "state": "SP",
        "district": "Barra Funda",
        "street": "Rua Lourenço Leme",
        "zipcode": "13617-070"
    },
    {
        "city": "Leme",
        "state": "SP",
        "district": "Vila Sumaré",
        "street": "Rua Lourenço Leme",
        "zipcode": "13615-110"
    },
    {
        "city": "Leme",
        "state": "SP",
        "district": "Vila Joest",
        "street": "Rua Manoel Sardinha",
        "zipcode": "13614-090"
    },
    {
        "city": "Leme",
        "state": "SP",
        "district": "Jardim Novo Horizonte",
        "street": "Rua Maria Antônia Crocci",
        "zipcode": "13616-210"
    },
    {
        "city": "Leme",
        "state": "SP",
        "district": "Fazenda Capitólio",
        "street": "Estrada Municipal",
        "zipcode": "13612-300"
    },
    {
        "city": "Leme",
        "state": "SP",
        "district": "Jardim Universitário",
        "street": "Rua José Torales de Gismenes",
        "zipcode": "13615-185"
    },
    {
        "city": "Leme",
        "state": "SP",
        "district": "Jardim Vila Verde",
        "street": "Rua Pedro Dellosso",
        "zipcode": "13612-310"
    },
    {
        "city": "Leme",
        "state": "SP",
        "district": "Jardim Nova Leme",
        "street": "Rua das Petúnias",
        "zipcode": "13612-038"
    },
    {
        "city": "Leme",
        "state": "SP",
        "district": "Cidade Jardim",
        "street": "Rua Waldemar Saturnino Domingue",
        "zipcode": "13614-340"
    },
    {
        "city": "Leme",
        "state": "SP",
        "district": "Cidade Jardim",
        "street": "Rua Waldemar Silenci",
        "zipcode": "13614-370"
    },
    {
        "city": "Leme",
        "state": "SP",
        "district": "Jardim Bonsucesso",
        "street": "Rua Wladimir de Moraes",
        "zipcode": "13617-615"
    },
    {
        "city": "Leme",
        "state": "SP",
        "district": "Vila Joest",
        "street": "Rua XV de Novembro",
        "zipcode": "13614-140"
    },
    {
        "city": "Leme",
        "state": "SP",
        "district": "Centro",
        "street": "Rua Professor Domingos Cambiaghi",
        "zipcode": "13611-510"
    },
    {
        "city": "Leme",
        "state": "SP",
        "district": "Parque Residencial Itamaraty",
        "street": "Avenida Joaquim Lopes Aguila",
        "zipcode": "13617-493"
    },
    {
        "city": "Leme",
        "state": "SP",
        "district": "Vila Santucci",
        "street": "Avenida Joaquim Lopes Aguila",
        "zipcode": "13614-162"
    },
    {
        "city": "Leme",
        "state": "SP",
        "district": "Jardim Imperial II",
        "street": "Rua Marcio Roberto Carrara",
        "zipcode": "13617-884"
    },
    {
        "city": "Leme",
        "state": "SP",
        "district": "Jardim Residencial Crishmara",
        "street": "Avenida Maria Adelaide Anteghini da Silva",
        "zipcode": "13613-430"
    },
    {
        "city": "Leme",
        "state": "SP",
        "district": "Jardim Residencial Crishmara",
        "street": "Rua Paulo Bertin",
        "zipcode": "13613-442"
    },
    {
        "city": "Leme",
        "state": "SP",
        "district": "Jardim Portal do Bosque",
        "street": "Rua Julio Pedro Bonfogo",
        "zipcode": "13613-234"
    },
    {
        "city": "Leme",
        "state": "SP",
        "district": "Jardim Eloísa",
        "street": "Avenida Joaquim Adolfo Amadeu",
        "zipcode": "13613-189"
    },
    {
        "city": "Leme",
        "state": "SP",
        "district": "Centro",
        "street": "Avenida Joaquim Lopes Aguila",
        "zipcode": "13614-032"
    },
    {
        "city": "Leme",
        "state": "SP",
        "district": "Jardim Imperial",
        "street": "Rua João Batista Bonato",
        "zipcode": "13617-865"
    },
    {
        "city": "Leme",
        "state": "SP",
        "district": "Jardim Renascença",
        "street": "Rua Balbino Ferreira da Silva",
        "zipcode": "13612-241"
    },
    {
        "city": "Leme",
        "state": "SP",
        "district": "Jardim Imperial",
        "street": "Rua Adelino Bortolatto",
        "zipcode": "13617-852"
    },
    {
        "city": "Leme",
        "state": "SP",
        "district": "Jardim Residencial Quáglia",
        "street": "Rua Rinaldo Mancini",
        "zipcode": "13617-769"
    },
    {
        "city": "Leme",
        "state": "SP",
        "district": "Jardim Imperial",
        "street": "Rua Manoel Pacheco",
        "zipcode": "13617-875"
    },
    {
        "city": "Leme",
        "state": "SP",
        "district": "Conjunto Habitacional Francisco Coelho",
        "street": "Rua Aparecida M. Mano",
        "zipcode": "13611-760"
    },
    {
        "city": "Leme",
        "state": "SP",
        "district": "Conjunto Habitacional Francisco Coelho",
        "street": "Rua Antonio Tamborim",
        "zipcode": "13611-766"
    },
    {
        "city": "Leme",
        "state": "SP",
        "district": "Distrito Industrial",
        "street": "Rua Antenor Xavier da Silva",
        "zipcode": "13612-381"
    },
    {
        "city": "Leme",
        "state": "SP",
        "district": "Distrito Industrial",
        "street": "Rua Aparecida Tufanin Anitelli",
        "zipcode": "13612-393"
    },
    {
        "city": "Leme",
        "state": "SP",
        "district": "Jardim Residencial Cambuhy",
        "street": "Rua Angelo Stefano",
        "zipcode": "13610-883"
    },
    {
        "city": "Leme",
        "state": "SP",
        "district": "Barra Funda",
        "street": "Rua Abade Ambrosina",
        "zipcode": "13617-099"
    },
    {
        "city": "Leme",
        "state": "SP",
        "district": "Jardim Nova Granada",
        "street": "Rua Antônio Fior",
        "zipcode": "13617-425"
    },
    {
        "city": "Leme",
        "state": "SP",
        "district": "Jardim Palmeiras",
        "street": "Rua Antônio Villa Rios",
        "zipcode": "13615-430"
    },
    {
        "city": "Leme",
        "state": "SP",
        "district": "Parque São Manoel",
        "street": "Rua Bernardo Garcia",
        "zipcode": "13616-570"
    },
    {
        "city": "Leme",
        "state": "SP",
        "district": "Jardim Adelina",
        "street": "Rua Bruno Lazarine",
        "zipcode": "13617-663"
    },
    {
        "city": "Leme",
        "state": "SP",
        "district": "Barra Funda",
        "street": "Rua Calógero Chinicci",
        "zipcode": "13617-220"
    },
    {
        "city": "Leme",
        "state": "SP",
        "district": "Jardim Eloísa",
        "street": "Rua Constantino Denófrio",
        "zipcode": "13617-621"
    },
    {
        "city": "Leme",
        "state": "SP",
        "district": "Jardim Ariana",
        "street": "Rua Dionízio Gomes",
        "zipcode": "13617-554"
    },
    {
        "city": "Leme",
        "state": "SP",
        "district": "Parque Residencial Itamaraty",
        "street": "Rua Doutor Oscar Ulson",
        "zipcode": "13617-490"
    },
    {
        "city": "Leme",
        "state": "SP",
        "district": "Jardim Graminha",
        "street": "Rua José Piccolo",
        "zipcode": "13617-790"
    },
    {
        "city": "Leme",
        "state": "SP",
        "district": "Pólo Industrial Paulo Kinock II",
        "street": "Rua Vinte e Sete de Outubro",
        "zipcode": "13612-460"
    },
    {
        "city": "Leme",
        "state": "SP",
        "district": "Jardim Residencial Altos da Santa Rita",
        "street": "Rua Orlando Anteghini",
        "zipcode": "13611-800"
    },
    {
        "city": "Leme",
        "state": "SP",
        "district": "Quinta do Vale Verde",
        "street": "Rua dos Gerânios",
        "zipcode": "13613-399"
    },
    {
        "city": "Leme",
        "state": "SP",
        "district": "Jardim Primavera",
        "street": "Rua Durval Baccaro",
        "zipcode": "13616-160"
    },
    {
        "city": "Leme",
        "state": "SP",
        "district": "Jardim Primavera",
        "street": "Rua Floriano Heiffig",
        "zipcode": "13616-177"
    },
    {
        "city": "Leme",
        "state": "SP",
        "district": "Barra Funda",
        "street": "Avenida Francisco Chinicci",
        "zipcode": "13617-280"
    },
    {
        "city": "Leme",
        "state": "SP",
        "district": "Jardim Governador",
        "street": "Rua Francisco Mascarim",
        "zipcode": "13616-205"
    },
    {
        "city": "Leme",
        "state": "SP",
        "district": "Barra Funda",
        "street": "Rua Francisco Podboi",
        "zipcode": "13617-028"
    },
    {
        "city": "Leme",
        "state": "SP",
        "district": "Jardim Eloísa",
        "street": "Rua Henrique Margonar",
        "zipcode": "13617-645"
    },
    {
        "city": "Leme",
        "state": "SP",
        "district": "Jardim Vista Alegre",
        "street": "Rua Hilda Torres Donadel",
        "zipcode": "13616-398"
    },
    {
        "city": "Leme",
        "state": "SP",
        "district": "Barra Funda",
        "street": "Rua João Luppi",
        "zipcode": "13617-065"
    },
    {
        "city": "Leme",
        "state": "SP",
        "district": "Jardim Bonsucesso",
        "street": "Rua João Neto de Oliveira",
        "zipcode": "13617-611"
    },
    {
        "city": "Leme",
        "state": "SP",
        "district": "Jardim Bonsucesso",
        "street": "Rua José Baldim",
        "zipcode": "13617-600"
    },
    {
        "city": "Leme",
        "state": "SP",
        "district": "Conjunto Habitacional Victório Bonfanti",
        "street": "Rua José da Costa",
        "zipcode": "13615-550"
    },
    {
        "city": "Leme",
        "state": "SP",
        "district": "Jardim Juana",
        "street": "Rua Júlia Boy Mancini",
        "zipcode": "13617-360"
    },
    {
        "city": "Leme",
        "state": "SP",
        "district": "Jardim Graminha",
        "street": "Rua Francisco Sartor",
        "zipcode": "13617-793"
    },
    {
        "city": "Leme",
        "state": "SP",
        "district": "Quinta do Vale Verde",
        "street": "Rua das Paineiras",
        "zipcode": "13613-360"
    },
    {
        "city": "Leme",
        "state": "SP",
        "district": "Jardim Residencial Altos da Santa Rita",
        "street": "Rua Arlindo Godoy",
        "zipcode": "13611-790"
    },
    {
        "city": "Leme",
        "state": "SP",
        "district": "Jardim Graminha",
        "street": "Rua José Picardi",
        "zipcode": "13617-789"
    },
    {
        "city": "Leme",
        "state": "SP",
        "district": "Jardim Graminha",
        "street": "Rua Ernesto Rauter",
        "zipcode": "13617-791"
    },
    {
        "city": "Leme",
        "state": "SP",
        "district": "Barra Funda",
        "street": "Rua Júlio Prestes",
        "zipcode": "13617-040"
    },
    {
        "city": "Leme",
        "state": "SP",
        "district": "Estrada Particular Ibicatu",
        "street": "Estrada Leme",
        "zipcode": "13617-570"
    },
    {
        "city": "Leme",
        "state": "SP",
        "district": "Parque Residencial Itamaraty",
        "street": "Rua Machado de Assis",
        "zipcode": "13617-440"
    },
    {
        "city": "Leme",
        "state": "SP",
        "district": "Jardim Presidente",
        "street": "Rua Magnólia",
        "zipcode": "13616-030"
    },
    {
        "city": "Leme",
        "state": "SP",
        "district": "Parque Residencial Itamaraty",
        "street": "Rua Maria Abade Ulson",
        "zipcode": "13617-460"
    },
    {
        "city": "Leme",
        "state": "SP",
        "district": "Jardim Ariana",
        "street": "Rua Moacir Galo",
        "zipcode": "13617-558"
    },
    {
        "city": "Leme",
        "state": "SP",
        "district": "Parque São Manoel",
        "street": "Rua Prestes Maia",
        "zipcode": "13616-520"
    },
    {
        "city": "Leme",
        "state": "SP",
        "district": "Barra Funda",
        "street": "Rua Professor Gusmão",
        "zipcode": "13617-330"
    },
    {
        "city": "Leme",
        "state": "SP",
        "district": "Barra Funda",
        "street": "Rua Professor Zulingo",
        "zipcode": "13615-270"
    },
    {
        "city": "Leme",
        "state": "SP",
        "district": "Jardim São Joaquim",
        "street": "Rua dos Sabiás",
        "zipcode": "13615-640"
    },
    {
        "city": "Leme",
        "state": "SP",
        "district": "Jardim Eloísa",
        "street": "Rua Sebastião Guadanhini",
        "zipcode": "13617-649"
    },
    {
        "city": "Leme",
        "state": "SP",
        "district": "Jardim Presidente",
        "street": "Rua Spadotia",
        "zipcode": "13616-090"
    },
    {
        "city": "Leme",
        "state": "SP",
        "district": "Jardim Santana",
        "street": "Avenida 7 de Setembro",
        "zipcode": "13616-443"
    },
    {
        "city": "Leme",
        "state": "SP",
        "district": "Jardim Imperial II",
        "street": "Rua André Rodrigues",
        "zipcode": "13617-882"
    },
    {
        "city": "Leme",
        "state": "SP",
        "district": "Jardim Imperial II",
        "street": "Rua Joaquim Ratto",
        "zipcode": "13617-886"
    },
    {
        "city": "Leme",
        "state": "SP",
        "district": "Jardim Ana Lúcia",
        "street": "Rua Lúcia Antunes",
        "zipcode": "13617-734"
    },
    {
        "city": "Leme",
        "state": "SP",
        "district": "Jardim São Rafael",
        "street": "Rua Victório de Souza",
        "zipcode": "13615-562"
    },
    {
        "city": "Leme",
        "state": "SP",
        "district": "Jardim São Rafael",
        "street": "Rua Theobaldo de Castro Meira",
        "zipcode": "13615-564"
    },
    {
        "city": "Leme",
        "state": "SP",
        "district": "Parque São Manoel",
        "street": "Rua Antônio Volpi",
        "zipcode": "13616-650"
    },
    {
        "city": "Leme",
        "state": "SP",
        "district": "Jardim São Francisco",
        "street": "Rua Doutor Paulo Meytre",
        "zipcode": "13617-405"
    },
    {
        "city": "Leme",
        "state": "SP",
        "district": "Conjunto Habitacional Victório Bonfanti",
        "street": "Rua Francisco Garcia",
        "zipcode": "13615-540"
    },
    {
        "city": "Leme",
        "state": "SP",
        "district": "Jardim Eldorado",
        "street": "Rua Benedito Leme da Silva",
        "zipcode": "13616-660"
    },
    {
        "city": "Leme",
        "state": "SP",
        "district": "Jardim Eldorado",
        "street": "Rua Nelson Nilo Gianco",
        "zipcode": "13616-670"
    },
    {
        "city": "Leme",
        "state": "SP",
        "district": "Jardim Residencial Quáglia",
        "street": "Rua Octavio Mauricio Pommer",
        "zipcode": "13617-751"
    },
    {
        "city": "Leme",
        "state": "SP",
        "district": "Jardim Residencial Quáglia",
        "street": "Rua Antonio Frederico Ozanan",
        "zipcode": "13617-756"
    },
    {
        "city": "Leme",
        "state": "SP",
        "district": "Jardim Alto da Glória",
        "street": "Rua Luiz Maradei",
        "zipcode": "13616-681"
    },
    {
        "city": "Leme",
        "state": "SP",
        "district": "Jardim Angélica",
        "street": "Rua 6",
        "zipcode": "13615-722"
    },
    {
        "city": "Leme",
        "state": "SP",
        "district": "Jardim Imperial",
        "street": "Rua Antônia A. de Godoi Poletti",
        "zipcode": "13617-870"
    },
    {
        "city": "Leme",
        "state": "SP",
        "district": "Jardim Residencial Cambuhy",
        "street": "Rua Antonio dos Santos Mano",
        "zipcode": "13610-887"
    },
    {
        "city": "Leme",
        "state": "SP",
        "district": "Jardim Residencial Cambuhy",
        "street": "Rua Geraldo Vincentim",
        "zipcode": "13610-889"
    },
    {
        "city": "Leme",
        "state": "SP",
        "district": "Jardim Residencial Cambuhy",
        "street": "Rua Ademar Monteiro",
        "zipcode": "13610-893"
    },
    {
        "city": "Leme",
        "state": "SP",
        "district": "Jardim Residencial Cambuhy",
        "street": "Rua Setsu Shimizu",
        "zipcode": "13610-894"
    },
    {
        "city": "Leme",
        "state": "SP",
        "district": "Jardim Residencial Cambuhy",
        "street": "Rua Waldemar Zillo",
        "zipcode": "13610-895"
    },
    {
        "city": "Leme",
        "state": "SP",
        "district": "Villagio DItalia",
        "street": "Rua Rachel Partezan Zapacosta",
        "zipcode": "13612-330"
    },
    {
        "city": "Leme",
        "state": "SP",
        "district": "Villagio DItalia",
        "street": "Rua Renato Sergio Pietsch Cunha",
        "zipcode": "13612-331"
    },
    {
        "city": "Leme",
        "state": "SP",
        "district": "Parque São Manoel",
        "street": "Rua Benjamin Arrais Seródio",
        "zipcode": "13616-580"
    },
    {
        "city": "Leme",
        "state": "SP",
        "district": "Parque Residencial Itamaraty",
        "street": "Rua Doutor Mário Figueira de Mello",
        "zipcode": "13617-444"
    },
    {
        "city": "Leme",
        "state": "SP",
        "district": "Vale Verde",
        "street": "Rua das Dracenas",
        "zipcode": "13613-330"
    },
    {
        "city": "Leme",
        "state": "SP",
        "district": "Jardim Eloísa",
        "street": "Avenida Eufrosino Bald da Silva",
        "zipcode": "13617-650"
    },
    {
        "city": "Leme",
        "state": "SP",
        "district": "Jardim Primavera",
        "street": "Rua Eugênio Ravanini",
        "zipcode": "13616-120"
    },
    {
        "city": "Leme",
        "state": "SP",
        "district": "Jardim Nova Leme",
        "street": "Rua das Hortências",
        "zipcode": "13612-090"
    },
    {
        "city": "Leme",
        "state": "SP",
        "district": "Conjunto Habitacional Ferdinando Marchi",
        "street": "Rua João Dionízio Villa",
        "zipcode": "13616-270"
    },
    {
        "city": "Leme",
        "state": "SP",
        "district": "Barra Funda",
        "street": "Rua Marcondes Filho",
        "zipcode": "13617-069"
    },
    {
        "city": "Leme",
        "state": "SP",
        "district": "Vila Santa Maria",
        "street": "Praça Orlando Braghin",
        "zipcode": "13611-004"
    },
    {
        "city": "Leme",
        "state": "SP",
        "district": "Barra Funda",
        "street": "Rua Otto Berger",
        "zipcode": "13617-349"
    },
    {
        "city": "Leme",
        "state": "SP",
        "district": "Conjunto Habitacional Victório Bonfanti",
        "street": "Rua Pedro Carvalho",
        "zipcode": "13615-549"
    },
    {
        "city": "Leme",
        "state": "SP",
        "district": "Jardim Santa Inês",
        "street": "Rua Professora Maria L. Pacheco Bozza",
        "zipcode": "13614-010"
    },
    {
        "city": "Leme",
        "state": "SP",
        "district": "Conjunto Habitacional Victório Bonfanti",
        "street": "Rua Roberto Schwenger",
        "zipcode": "13615-548"
    },
    {
        "city": "Leme",
        "state": "SP",
        "district": "Jardim Nova Leme",
        "street": "Avenida da Saudade",
        "zipcode": "13613-000"
    },
    {
        "city": "Leme",
        "state": "SP",
        "district": "Vila São João",
        "street": "Avenida Albino da Cruz",
        "zipcode": "13614-085"
    },
    {
        "city": "Leme",
        "state": "SP",
        "district": "Jardim Universitário",
        "street": "Rua Nelson Taufic Nassif",
        "zipcode": "13615-179"
    },
    {
        "city": "Leme",
        "state": "SP",
        "district": "Quinta Vila Verde",
        "street": "Avenida Taufic Nacif Mansur",
        "zipcode": "13613-020"
    },
    {
        "city": "Leme",
        "state": "SP",
        "district": "Jardim Palmeiras",
        "street": "Rua Aníbal Paes de Barros",
        "zipcode": "13615-480"
    },
    {
        "city": "Leme",
        "state": "SP",
        "district": "Parque Residencial Itamaraty",
        "street": "Rua Doutor Leônidas Castro Mendes",
        "zipcode": "13617-505"
    },
    {
        "city": "Leme",
        "state": "SP",
        "district": "Vila Santucci",
        "street": "Rua Maria Rebessi Pereira",
        "zipcode": "13614-160"
    },
    {
        "city": "Leme",
        "state": "SP",
        "district": "Jardim Imperial",
        "street": "Rua Armando Pacagnella",
        "zipcode": "13617-854"
    },
    {
        "city": "Leme",
        "state": "SP",
        "district": "Jardim Juana",
        "street": "Avenida Joaquim Lopes Aguila",
        "zipcode": "13617-362"
    },
    {
        "city": "Leme",
        "state": "SP",
        "district": "Jardim Imperial II",
        "street": "Rua José Benedicto de Moraes",
        "zipcode": "13617-888"
    },
    {
        "city": "Leme",
        "state": "SP",
        "district": "Jardim Imperial II",
        "street": "Rua Soldado",
        "zipcode": "13617-890"
    },
    {
        "city": "Leme",
        "state": "SP",
        "district": "Jardim Clube do Bosque",
        "street": "Rua Antonio Luiz Dellai",
        "zipcode": "13613-416"
    },
    {
        "city": "Leme",
        "state": "SP",
        "district": "Jardim Lívia",
        "street": "Rua Antonio Polette",
        "zipcode": "13617-720"
    },
    {
        "city": "Leme",
        "state": "SP",
        "district": "Jardim Nova Leme",
        "street": "Rua Lídia Schiavon Roel",
        "zipcode": "13612-011"
    },
    {
        "city": "Leme",
        "state": "SP",
        "district": "Centro",
        "street": "Largo Doutor José Domingues dos Santos",
        "zipcode": "13610-137"
    },
    {
        "city": "Leme",
        "state": "SP",
        "district": "Centro",
        "street": "Rua Rafael de Barros",
        "zipcode": "13610-972"
    },
    {
        "city": "Leme",
        "state": "SP",
        "district": "Centro",
        "street": "Rua Major Arthur Franco Mourão",
        "zipcode": "13611-970"
    },
    {
        "city": "Leme",
        "state": "SP",
        "district": "Centro",
        "street": "Avenida 29 de Agosto",
        "zipcode": "13610-971"
    },
    {
        "city": "Leme",
        "state": "SP",
        "district": "Centro",
        "street": "Rua Rafael de Barros",
        "zipcode": "13610-970"
    },
    {
        "city": "Leme",
        "state": "SP",
        "district": "Jardim Jequitibá",
        "street": "Rua Angelo Baccarin",
        "zipcode": "13617-745"
    },
    {
        "city": "Leme",
        "state": "SP",
        "district": "Jardim Residencial Quáglia",
        "street": "Rua José Ferreira Gonçalves",
        "zipcode": "13617-750"
    },
    {
        "city": "Leme",
        "state": "SP",
        "district": "Jardim Residencial Pavani",
        "street": "Rua José de Carvalho",
        "zipcode": "13617-800"
    },
    {
        "city": "Leme",
        "state": "SP",
        "district": "Jardim Alto da Glória",
        "street": "Rua Affonso Gimenez",
        "zipcode": "13616-683"
    },
    {
        "city": "Leme",
        "state": "SP",
        "district": "Jardim Residencial Quáglia",
        "street": "Rua Germano Picardi",
        "zipcode": "13617-766"
    },
    {
        "city": "Leme",
        "state": "SP",
        "district": "Jardim Residencial Quáglia",
        "street": "Rua João Antonio Marchi",
        "zipcode": "13617-767"
    },
    {
        "city": "Leme",
        "state": "SP",
        "district": "Conjunto Habitacional Francisco Coelho",
        "street": "Rua Ângelo Facciolli Netto",
        "zipcode": "13611-775"
    },
    {
        "city": "Leme",
        "state": "SP",
        "district": "Conjunto Habitacional Francisco Coelho",
        "street": "Rua Dárcio Tambolini",
        "zipcode": "13611-780"
    },
    {
        "city": "Leme",
        "state": "SP",
        "district": "Taquari",
        "street": "Rua São Caetano",
        "zipcode": "13615-752"
    },
    {
        "city": "Leme",
        "state": "SP",
        "district": "Taquari Ponte",
        "street": "Rua João da Cunha",
        "zipcode": "13615-697"
    },
    {
        "city": "Leme",
        "state": "SP",
        "district": "Villagio DItalia",
        "street": "Rua Sergio Antonio Antunes",
        "zipcode": "13612-332"
    },
    {
        "city": "Leme",
        "state": "SP",
        "district": "Villagio DItalia",
        "street": "Rua Sebastião Parizotto",
        "zipcode": "13612-333"
    },
    {
        "city": "Leme",
        "state": "SP",
        "district": "Jardim Royal Ville",
        "street": "Rua Paulo Roberto Faccioli",
        "zipcode": "13617-291"
    },
    {
        "city": "Leme",
        "state": "SP",
        "district": "Área Rural de Leme",
        "street": "Área Rural",
        "zipcode": "13624-899"
    },
    {
        "city": "Leme",
        "state": "SP",
        "district": "Conjunto Habitacional Victório Bonfanti",
        "street": "Rua Belarmino Bueno",
        "zipcode": "13615-547"
    },
    {
        "city": "Leme",
        "state": "SP",
        "district": "Vale Verde",
        "street": "Rua das Camélias",
        "zipcode": "13613-350"
    },
    {
        "city": "Leme",
        "state": "SP",
        "district": "Jardim Capitólio",
        "street": "Avenida Durval Thomazotti",
        "zipcode": "13610-431"
    },
    {
        "city": "Leme",
        "state": "SP",
        "district": "Jardim Coloninha Cláudia",
        "street": "Rua Ephrain Rodrigues Alves",
        "zipcode": "13610-720"
    },
    {
        "city": "Leme",
        "state": "SP",
        "district": "Barra Funda",
        "street": "Travessa Finau Bagnatori",
        "zipcode": "13617-064"
    },
    {
        "city": "Leme",
        "state": "SP",
        "district": "Conjunto Habitacional Ferdinando Marchi",
        "street": "Rua João Poletti",
        "zipcode": "13616-280"
    },
    {
        "city": "Leme",
        "state": "SP",
        "district": "Jardim Eroísi",
        "street": "Rua Maurício Pommer",
        "zipcode": "13610-564"
    },
    {
        "city": "Leme",
        "state": "SP",
        "district": "Jardim Nova Era",
        "street": "Rua Paulo de Barros",
        "zipcode": "13611-467"
    },
    {
        "city": "Leme",
        "state": "SP",
        "district": "Jardim Graminha",
        "street": "Rua Orlando Bueno",
        "zipcode": "13617-792"
    },
    {
        "city": "Leme",
        "state": "SP",
        "district": "Jardim São Francisco",
        "street": "Rua João dos Santos Alcatrão",
        "zipcode": "13617-402"
    },
    {
        "city": "Leme",
        "state": "SP",
        "district": "Jardim Imperial II",
        "street": "Rua Jenoepha Sassioto Peliçari",
        "zipcode": "13617-880"
    },
    {
        "city": "Leme",
        "state": "SP",
        "district": "Jardim São Joaquim",
        "street": "Rua dos Pintassilgos",
        "zipcode": "13615-630"
    },
    {
        "city": "Leme",
        "state": "SP",
        "district": "Jardim Palmeiras",
        "street": "Rua Vicente Crocci",
        "zipcode": "13615-510"
    },
    {
        "city": "Leme",
        "state": "SP",
        "district": "Jardim Imperial",
        "street": "Avenida Omar Travagin",
        "zipcode": "13617-860"
    },
    {
        "city": "Leme",
        "state": "SP",
        "district": "Jardim Eldorado",
        "street": "Rua Alcides Bacarin",
        "zipcode": "13616-671"
    },
    {
        "city": "Leme",
        "state": "SP",
        "district": "Jardim Residencial Quáglia",
        "street": "Rua José Gaetano Baccarin",
        "zipcode": "13617-753"
    },
    {
        "city": "Leme",
        "state": "SP",
        "district": "Jardim Residencial Quáglia",
        "street": "Rua Antonio Parisotto Filho",
        "zipcode": "13617-762"
    },
    {
        "city": "Leme",
        "state": "SP",
        "district": "Jardim Alto da Glória",
        "street": "Rua Aparecida Taufic Nassif Mansur Naif",
        "zipcode": "13616-690"
    },
    {
        "city": "Leme",
        "state": "SP",
        "district": "Jardim Serelepe",
        "street": "Rua Ciro Zapacosta",
        "zipcode": "13611-201"
    },
    {
        "city": "Leme",
        "state": "SP",
        "district": "Jardim Serelepe",
        "street": "Rua Hormindo Boy",
        "zipcode": "13611-217"
    },
    {
        "city": "Leme",
        "state": "SP",
        "district": "Jardim Jequitibá",
        "street": "Rua Anna da Silva Camargo",
        "zipcode": "13617-743"
    },
    {
        "city": "Leme",
        "state": "SP",
        "district": "Jardim Portal do Bosque",
        "street": "Rua Salomão Chain",
        "zipcode": "13613-238"
    },
    {
        "city": "Leme",
        "state": "SP",
        "district": "Jardim Santa Paula",
        "street": "Rua Pedro Piratelli",
        "zipcode": "13611-015"
    },
    {
        "city": "Leme",
        "state": "SP",
        "district": "Jardim Residencial Altos da Santa Rita",
        "street": "Rua Nilson Luiz Fiôr",
        "zipcode": "13611-799"
    },
    {
        "city": "Leme",
        "state": "SP",
        "district": "Jardim Portal do Bosque",
        "street": "Rua Neide Aparecida Malaman",
        "zipcode": "13613-244"
    },
    {
        "city": "Leme",
        "state": "SP",
        "district": "Jardim Ariana",
        "street": "Rua Antonio Polette",
        "zipcode": "13617-549"
    },
    {
        "city": "Leme",
        "state": "SP",
        "district": "Jardim Ana Lúcia",
        "street": "Avenida Doutor José de Souza Queiroz Filho",
        "zipcode": "13617-738"
    },
    {
        "city": "Leme",
        "state": "SP",
        "district": "Jardim Nova Leme",
        "street": "Estrada Municipal Luiz Fernando Marchi",
        "zipcode": "13613-002"
    },
    {
        "city": "Leme",
        "state": "SP",
        "district": "Jardim Amália",
        "street": "Rua Philomena Iatauro Rebessi",
        "zipcode": "13610-397"
    },
    {
        "city": "Leme",
        "state": "SP",
        "district": "Jardim São Rafael",
        "street": "Rua Alexandre Roberto Durante",
        "zipcode": "13615-560"
    },
    {
        "city": "Leme",
        "state": "SP",
        "district": "Jardim Residencial Mariana",
        "street": "Rua José de Góes Trottmann",
        "zipcode": "13611-225"
    },
    {
        "city": "Leme",
        "state": "SP",
        "district": "Serelepe",
        "street": "Rua José Claudio Grosselaus",
        "zipcode": "13610-870"
    },
    {
        "city": "Leme",
        "state": "SP",
        "district": "Jardim Residencial Quáglia",
        "street": "Rua Pedro Theodoro Bueno",
        "zipcode": "13617-772"
    },
    {
        "city": "Leme",
        "state": "SP",
        "district": "Jardim Alto da Boa Vista",
        "street": "Rua Fernando Nery",
        "zipcode": "13615-701"
    },
    {
        "city": "Leme",
        "state": "SP",
        "district": "Conjunto Habitacional Francisco Coelho",
        "street": "Rua João Felizatti",
        "zipcode": "13611-755"
    },
    {
        "city": "Leme",
        "state": "SP",
        "district": "Jardim Alto da Boa Vista",
        "street": "Rua José Thomaz de Godoy",
        "zipcode": "13615-705"
    },
    {
        "city": "Leme",
        "state": "SP",
        "district": "Jardim Clube do Bosque",
        "street": "Rua João Roberto Sacchi",
        "zipcode": "13613-411"
    },
    {
        "city": "Leme",
        "state": "SP",
        "district": "Vila Bela Vista",
        "street": "Avenida Doutor Mario Covas Junior",
        "zipcode": "13611-445"
    },
    {
        "city": "Leme",
        "state": "SP",
        "district": "Vila São Jorge",
        "street": "Rua Prudente de Moraes",
        "zipcode": "13615-040"
    },
    {
        "city": "Leme",
        "state": "SP",
        "district": "Vila Bancária",
        "street": "Rua Arnold Zencker",
        "zipcode": "13610-590"
    },
    {
        "city": "Leme",
        "state": "SP",
        "district": "Jardim Casarão",
        "street": "Rua Ely",
        "zipcode": "13617-387"
    },
    {
        "city": "Leme",
        "state": "SP",
        "district": "Jardim Eroísi",
        "street": "Rua Ângelo Bacciotti",
        "zipcode": "13610-560"
    },
    {
        "city": "Leme",
        "state": "SP",
        "district": "Centro",
        "street": "Rua Doutor Fernando Costa",
        "zipcode": "13610-160"
    },
    {
        "city": "Leme",
        "state": "SP",
        "district": "Jardim Nova Leme",
        "street": "Rua dos Agaphantos",
        "zipcode": "13612-010"
    },
    {
        "city": "Leme",
        "state": "SP",
        "district": "Jardim Residencial Cambuhy",
        "street": "Rua Aparecida Catarina Baldeja Goulart Gallo",
        "zipcode": "13610-888"
    },
    {
        "city": "Leme",
        "state": "SP",
        "district": "Barra Funda",
        "street": "Rua Salvador do Nascimento",
        "zipcode": "13617-289"
    },
    {
        "city": "Leme",
        "state": "SP",
        "district": "Taquari",
        "street": "Rua Amazilio Pinheiro de Oliveira",
        "zipcode": "13615-754"
    },
    {
        "city": "Leme",
        "state": "SP",
        "district": "Taquari",
        "street": "Rua Nove de Julho",
        "zipcode": "13615-760"
    },
    {
        "city": "Leme",
        "state": "SP",
        "district": "Taquari",
        "street": "Rua dos Marianos",
        "zipcode": "13615-762"
    },
    {
        "city": "Leme",
        "state": "SP",
        "district": "Taquari",
        "street": "Rua São Sebastião",
        "zipcode": "13615-750"
    },
    {
        "city": "Leme",
        "state": "SP",
        "district": "Taquari",
        "street": "Rua João de Souza Sardinha",
        "zipcode": "13615-764"
    },
    {
        "city": "Leme",
        "state": "SP",
        "district": "Taquari Ponte",
        "street": "Avenida Esmeraldino Vieira das Neves",
        "zipcode": "13615-688"
    },
    {
        "city": "Leme",
        "state": "SP",
        "district": "Taquari Ponte",
        "street": "Rua Antonio da Cunha",
        "zipcode": "13615-694"
    },
    {
        "city": "Leme",
        "state": "SP",
        "district": "Taquari Ponte",
        "street": "Rua Augusto da Cunha",
        "zipcode": "13615-692"
    },
    {
        "city": "Leme",
        "state": "SP",
        "district": "Taquari",
        "street": "Rua Otávio Vieira das Neves",
        "zipcode": "13615-767"
    },
    {
        "city": "Leme",
        "state": "SP",
        "district": "Taquari Ponte",
        "street": "Rua Marco Antonio Dias",
        "zipcode": "13615-696"
    },
    {
        "city": "Leme",
        "state": "SP",
        "district": "Jardim São José",
        "street": "Rua Dionizio Ravanini",
        "zipcode": "13611-126"
    },
    {
        "city": "Leme",
        "state": "SP",
        "district": "Jardim Florença",
        "street": "Rua Um",
        "zipcode": "13612-201"
    },
    {
        "city": "Leme",
        "state": "SP",
        "district": "Distrito Industrial",
        "street": "Avenida Ferdinando Marchi",
        "zipcode": "13612-410"
    },
    {
        "city": "Leme",
        "state": "SP",
        "district": "Jardim Residencial Cambuhy",
        "street": "Rua Waldemar Oswaldo Pommer",
        "zipcode": "13610-881"
    },
    {
        "city": "Leme",
        "state": "SP",
        "district": "Villagio DItalia",
        "street": "Rua Plínio Picardi Neto",
        "zipcode": "13612-334"
    },
    {
        "city": "Leme",
        "state": "SP",
        "district": "Vila São Jorge",
        "street": "Condomínio Alzira Maria de Marchi",
        "zipcode": "13615-025"
    },
    {
        "city": "Leme",
        "state": "SP",
        "district": "Jardim Travagin",
        "street": "Rua Fernando Bergamim",
        "zipcode": "13610-832"
    },
    {
        "city": "Leme",
        "state": "SP",
        "district": "Jardim Anteghini",
        "street": "Rua José Curioni",
        "zipcode": "13611-269"
    },
    {
        "city": "Leme",
        "state": "SP",
        "district": "Cidade Jardim",
        "street": "Avenida Amália de Oliveira Lima",
        "zipcode": "13614-400"
    },
    {
        "city": "Leme",
        "state": "SP",
        "district": "Jardim Travagin",
        "street": "Rua Sylvio Canevari",
        "zipcode": "13610-830"
    },
    {
        "city": "Leme",
        "state": "SP",
        "district": "Jardim Royal Ville",
        "street": "Rua Orlando Fiocco",
        "zipcode": "13617-292"
    },
    {
        "city": "Leme",
        "state": "SP",
        "district": "Jardim Residencial Cambuhy",
        "street": "Rua Matheus Ciccone",
        "zipcode": "13610-882"
    },
    {
        "city": "Leme",
        "state": "SP",
        "district": "Jardim Residencial Cambuhy",
        "street": "Rua Aparecido Marques de Oliveira",
        "zipcode": "13610-890"
    },
    {
        "city": "Leme",
        "state": "SP",
        "district": "Jardim Serelepe",
        "street": "Rua Márcio Rodrigues Menezes",
        "zipcode": "13611-210"
    },
    {
        "city": "Leme",
        "state": "SP",
        "district": "Villagio DItalia",
        "street": "Rua Israel Ferreira Eloy",
        "zipcode": "13612-335"
    },
    {
        "city": "Leme",
        "state": "SP",
        "district": "Jardim Residencial Cambuhy",
        "street": "Rua Antonio Bonfogo",
        "zipcode": "13610-886"
    },
    {
        "city": "Leme",
        "state": "SP",
        "district": "Jardim Florença",
        "street": "Rua Dois",
        "zipcode": "13612-203"
    },
    {
        "city": "Leme",
        "state": "SP",
        "district": "Jardim dos Ypês",
        "street": "Rua João Sebastião",
        "zipcode": "13611-632"
    },
    {
        "city": "Leme",
        "state": "SP",
        "district": "Jardim Travagin",
        "street": "Rua Paulo Roberto Carignato Travagin",
        "zipcode": "13610-835"
    },
    {
        "city": "Leme",
        "state": "SP",
        "district": "Jardim Residencial Altos da Santa Rita",
        "street": "Rua Ignácio Musumeci",
        "zipcode": "13611-801"
    },
    {
        "city": "Leme",
        "state": "SP",
        "district": "Arcindo Rinaldi",
        "street": "Rua Carlos Fernando Mourão",
        "zipcode": "13617-711"
    },
    {
        "city": "Leme",
        "state": "SP",
        "district": "Taquari Ponte",
        "street": "Estrada Taquari Ponte",
        "zipcode": "13615-687"
    },
    {
        "city": "Leme",
        "state": "SP",
        "district": "Jardim Travagin",
        "street": "Rua Cláudio Aparecido Monteiro",
        "zipcode": "13610-831"
    },
    {
        "city": "Leme",
        "state": "SP",
        "district": "Jardim Universitário",
        "street": "Rua Evelin Casseb Taufic",
        "zipcode": "13615-173"
    },
    {
        "city": "Leme",
        "state": "SP",
        "district": "Jardim Empyreo",
        "street": "Rua Waldemar de Souza",
        "zipcode": "13611-820"
    },
    {
        "city": "Leme",
        "state": "SP",
        "district": "Jardim Empyreo",
        "street": "Rua Reginaldo Amorim dos Santos",
        "zipcode": "13611-822"
    },
    {
        "city": "Leme",
        "state": "SP",
        "district": "Jardim Empyreo",
        "street": "Rua Wagner Ouro Preto",
        "zipcode": "13611-823"
    },
    {
        "city": "Leme",
        "state": "SP",
        "district": "Jardim Empyreo",
        "street": "Rua Constantino Parolin",
        "zipcode": "13611-825"
    },
    {
        "city": "Leme",
        "state": "SP",
        "district": "Jardim Empyreo",
        "street": "Rua Professor Antonio Roversi",
        "zipcode": "13611-826"
    },
    {
        "city": "Leme",
        "state": "SP",
        "district": "Jardim Empyreo",
        "street": "Rua Gisele de Fátima Martini Lyra",
        "zipcode": "13611-828"
    },
    {
        "city": "Leme",
        "state": "SP",
        "district": "Jardim Empyreo",
        "street": "Rua Mateus Oliveira Lagares",
        "zipcode": "13611-829"
    },
    {
        "city": "Leme",
        "state": "SP",
        "district": "Jardim Empyreo",
        "street": "Avenida Sebastião Rodrigues de Lara",
        "zipcode": "13611-830"
    },
    {
        "city": "Leme",
        "state": "SP",
        "district": "Jardim Empyreo",
        "street": "Rua Sebastião Osório Martins",
        "zipcode": "13611-832"
    },
    {
        "city": "Leme",
        "state": "SP",
        "district": "Jardim Empyreo",
        "street": "Rua José Colodete",
        "zipcode": "13611-833"
    },
    {
        "city": "Leme",
        "state": "SP",
        "district": "Centro",
        "street": "Avenida Carlos Bonfanti",
        "zipcode": "13610-270"
    },
    {
        "city": "Leme",
        "state": "SP",
        "district": "Jardim Santa Paula",
        "street": "Rua Carlos Leme Penteado",
        "zipcode": "13611-208"
    },
    {
        "city": "Leme",
        "state": "SP",
        "district": "Jardim Santa Paula",
        "street": "Rua Luiz Ramazini",
        "zipcode": "13611-270"
    },
    {
        "city": "Leme",
        "state": "SP",
        "district": "Jardim Residencial Saulo",
        "street": "Rua Roldao Francisco Ferreira",
        "zipcode": "13611-040"
    },
    {
        "city": "Leme",
        "state": "SP",
        "district": "Jardim Residencial Saulo",
        "street": "Rua Augusto De Souza Sardinha",
        "zipcode": "13611-169"
    },
    {
        "city": "Leme",
        "state": "SP",
        "district": "Jardim Eroisi",
        "street": "Rua Francisco Lombardi",
        "zipcode": "13610-640"
    },
    {
        "city": "Leme",
        "state": "SP",
        "district": "Jardim Residencial Saulo",
        "street": "Rua Giacomo Barbi",
        "zipcode": "13611-140"
    },
    {
        "city": "Leme",
        "state": "SP",
        "district": "Jardim Eroisi",
        "street": "Rua Luiz Dias Dos Santos",
        "zipcode": "13610-680"
    },
    {
        "city": "Leme",
        "state": "SP",
        "district": "Jardim Nova Leme",
        "street": "Rua Dr Ranulpho Mourao",
        "zipcode": "13613-010"
    },
    {
        "city": "Leme",
        "state": "SP",
        "district": "Jardim Eloisa",
        "street": "Avenida Joao Arrais Serodio Filho",
        "zipcode": "13617-660"
    },
    {
        "city": "Leme",
        "state": "SP",
        "district": "Vila Rauter",
        "street": "Rua Jose Tonolli",
        "zipcode": "13610-438"
    },
    {
        "city": "Leme",
        "state": "SP",
        "district": "Jardim Vila Suíça",
        "street": "Rua 3",
        "zipcode": "13616-382"
    },
    {
        "city": "Leme",
        "state": "SP",
        "district": "Jardim dos Ypês",
        "street": "Rua Oito",
        "zipcode": "13611-638"
    },
    {
        "city": "Leme",
        "state": "SP",
        "district": "Centro",
        "street": "Rua Capitao Joao Pacheco Junior",
        "zipcode": "13614-019"
    },
    {
        "city": "Leme",
        "state": "SP",
        "district": "Jardim Residencial Saulo",
        "street": "Rua Jose De Souza Bueno",
        "zipcode": "13611-167"
    },
    {
        "city": "Leme",
        "state": "SP",
        "district": "Jardim Santa Rita",
        "street": "Avenida Papa Joao Xxiii",
        "zipcode": "13611-540"
    },
    {
        "city": "Leme",
        "state": "SP",
        "district": "Centro",
        "street": "Avenida Dr Jambeiro Costa",
        "zipcode": "13610-500"
    },
    {
        "city": "Leme",
        "state": "SP",
        "district": "Jardim Santa Paula",
        "street": "Rua Pedro Piratelli",
        "zipcode": "13611-230"
    },
    {
        "city": "Leme",
        "state": "SP",
        "district": "Jardim  Santa Maria",
        "street": "Rua Bezerra De Menezes",
        "zipcode": "13611-360"
    },
    {
        "city": "Leme",
        "state": "SP",
        "district": "Centro",
        "street": "Travessa Da Avenida Dr Jambeiro Costa",
        "zipcode": "13610-469"
    },
    {
        "city": "Leme",
        "state": "SP",
        "district": "Jardim dos Ypês",
        "street": "Rua Cinco",
        "zipcode": "13611-635"
    },
    {
        "city": "Leme",
        "state": "SP",
        "district": "Loteamento Tufanin",
        "street": "Rua Vitorio Luppi",
        "zipcode": "13610-620"
    },
    {
        "city": "Leme",
        "state": "SP",
        "district": "Jardim Santa Rita",
        "street": "Praça Custodio Angelo De Lima",
        "zipcode": "13611-549"
    },
    {
        "city": "Leme",
        "state": "SP",
        "district": "Centro",
        "street": "Rua Batinga",
        "zipcode": "13611-449"
    },
    {
        "city": "Leme",
        "state": "SP",
        "district": "Vila Sao Joao",
        "street": "Avenida Joaquim Lopes Aguila",
        "zipcode": "13614-000"
    },
    {
        "city": "Leme",
        "state": "SP",
        "district": "Vila Santucci",
        "street": "Rua Jose Crocci",
        "zipcode": "13614-050"
    },
    {
        "city": "Leme",
        "state": "SP",
        "district": "Jardim Residencial Saulo",
        "street": "Rua Antonio De Souza Sardinha",
        "zipcode": "13611-168"
    },
    {
        "city": "Leme",
        "state": "SP",
        "district": "Jardim Santa Paula",
        "street": "Rua Jose Tamborim",
        "zipcode": "13611-250"
    },
    {
        "city": "Leme",
        "state": "SP",
        "district": "Jardim Santa Marta",
        "street": "Rua Jose Adami",
        "zipcode": "13611-070"
    },
    {
        "city": "Leme",
        "state": "SP",
        "district": "Jardim Sao Jose",
        "street": "Rua Luiz Pavan",
        "zipcode": "13611-164"
    },
    {
        "city": "Leme",
        "state": "SP",
        "district": "Vila Bela Vista",
        "street": "Rua Vitorio Thomazotti",
        "zipcode": "13611-530"
    },
    {
        "city": "Leme",
        "state": "SP",
        "district": "Jardim Santa Rita",
        "street": "Rua Angelo Consentino",
        "zipcode": "13611-550"
    },
    {
        "city": "Leme",
        "state": "SP",
        "district": "Jardim Vila Suíça",
        "street": "Rua 2",
        "zipcode": "13616-381"
    },
    {
        "city": "Leme",
        "state": "SP",
        "district": "Jardim Santa Marta",
        "street": "Rua Lourenco Zani",
        "zipcode": "13611-219"
    },
    {
        "city": "Leme",
        "state": "SP",
        "district": "Vila Zarif",
        "street": "Rua Marechal Rondon",
        "zipcode": "13610-669"
    },
    {
        "city": "Leme",
        "state": "SP",
        "district": "Vila Bela Vista",
        "street": "Rua Carlos Albers",
        "zipcode": "13611-520"
    },
    {
        "city": "Leme",
        "state": "SP",
        "district": "Jardim dos Ypês",
        "street": "Rua Sete",
        "zipcode": "13611-637"
    },
    {
        "city": "Leme",
        "state": "SP",
        "district": "Jardim dos Ypês",
        "street": "Rua Quatro",
        "zipcode": "13611-634"
    },
    {
        "city": "Leme",
        "state": "SP",
        "district": "Vila Santa Maria",
        "street": "Praça Alan Kardec",
        "zipcode": "13611-349"
    },
    {
        "city": "Leme",
        "state": "SP",
        "district": "Chacara Saude",
        "street": "Rua Arquimede Beltrao",
        "zipcode": "13612-620"
    },
    {
        "city": "Leme",
        "state": "SP",
        "district": "Vila Santucci",
        "street": "Rua Antonio Dellai",
        "zipcode": "13614-040"
    },
    {
        "city": "Leme",
        "state": "SP",
        "district": "Vila Santa Maria",
        "street": "Praça Orlando Braghin",
        "zipcode": "13611-368"
    },
    {
        "city": "Leme",
        "state": "SP",
        "district": "Jardim Isabel Cristina",
        "street": "Rua Manoel Vieira Sardinha",
        "zipcode": "13611-100"
    },
    {
        "city": "Leme",
        "state": "SP",
        "district": "Jardim Sao Jose",
        "street": "Rua 544 Vinte E Nove De Agosto",
        "zipcode": "13611-029"
    },
    {
        "city": "Leme",
        "state": "SP",
        "district": "Morada Sol",
        "street": "Rua Dos Abacateiros",
        "zipcode": "13613-309"
    },
    {
        "city": "Leme",
        "state": "SP",
        "district": "Jardim Capitolio",
        "street": "Rua Um",
        "zipcode": "13610-008"
    },
    {
        "city": "Leme",
        "state": "SP",
        "district": "Vila Zarif",
        "street": "Rua Gandhi",
        "zipcode": "13610-559"
    },
    {
        "city": "Leme",
        "state": "SP",
        "district": "Vila Bela Vista",
        "street": "Rua Emilio Violin",
        "zipcode": "13611-529"
    },
    {
        "city": "Leme",
        "state": "SP",
        "district": "Jardim Capitolio",
        "street": "Rua Jose Lourencetti",
        "zipcode": "13610-009"
    },
    {
        "city": "Leme",
        "state": "SP",
        "district": "Loteamento Tufanin",
        "street": "Rua Rita Ismael",
        "zipcode": "13610-610"
    },
    {
        "city": "Leme",
        "state": "SP",
        "district": "Taquari Ponte",
        "street": "Estrada Municipal Orlando Leme Franco",
        "zipcode": "13615-677"
    },
    {
        "city": "Leme",
        "state": "SP",
        "district": "Jardim Primavera",
        "street": "Rua Ernesto Grossklauss",
        "zipcode": "13616-240"
    },
    {
        "city": "Leme",
        "state": "SP",
        "district": "Jardim Presidente",
        "street": "Rua Oiti",
        "zipcode": "13616-309"
    },
    {
        "city": "Leme",
        "state": "SP",
        "district": "Jardim Presidente",
        "street": "Rua Alfeneiro",
        "zipcode": "13616-350"
    },
    {
        "city": "Leme",
        "state": "SP",
        "district": "Barra Funda",
        "street": "Avenida 7 De Setembro",
        "zipcode": "13617-080"
    },
    {
        "city": "Leme",
        "state": "SP",
        "district": "Jardim Santa Rita",
        "street": "Rua Santos Dumond",
        "zipcode": "13611-560"
    },
    {
        "city": "Leme",
        "state": "SP",
        "district": "Jardim Primavera",
        "street": "Rua Abílio Correa Sampaio",
        "zipcode": "13616-173"
    },
    {
        "city": "Leme",
        "state": "SP",
        "district": "Jardim Palmeiras",
        "street": "Rua Abílio Lopes Silva",
        "zipcode": "13615-410"
    },
    {
        "city": "Leme",
        "state": "SP",
        "district": "Centro",
        "street": "Rua Abraão Jorge Mansur",
        "zipcode": "13610-079"
    },
    {
        "city": "Leme",
        "state": "SP",
        "district": "Jardim Nova Leme",
        "street": "Rua das Açucenas",
        "zipcode": "13612-019"
    },
    {
        "city": "Leme",
        "state": "SP",
        "district": "Barra Funda",
        "street": "Rua Adão Leme",
        "zipcode": "13617-030"
    },
    {
        "city": "Leme",
        "state": "SP",
        "district": "Centro",
        "street": "Rua Adelino Gomes Caetano",
        "zipcode": "13611-481"
    },
    {
        "city": "Leme",
        "state": "SP",
        "district": "Jardim Coloninha Cláudia",
        "street": "Rua Adolfo Lodi",
        "zipcode": "13610-710"
    },
    {
        "city": "Leme",
        "state": "SP",
        "district": "Jardim Amália",
        "street": "Rua Albano Vieira Sardinha",
        "zipcode": "13610-300"
    },
    {
        "city": "Leme",
        "state": "SP",
        "district": "Jardim Presidente",
        "street": "Rua Alecrin",
        "zipcode": "13616-050"
    },
    {
        "city": "Leme",
        "state": "SP",
        "district": "Vila Sumaré",
        "street": "Rua Alfredo Ladwig",
        "zipcode": "13615-100"
    },
    {
        "city": "Leme",
        "state": "SP",
        "district": "Loteamento Grossklauss",
        "street": "Rua Almeida Júnior",
        "zipcode": "13617-533"
    },
    {
        "city": "Leme",
        "state": "SP",
        "district": "Jardim Juana",
        "street": "Rua Almira Arrais de Almeida",
        "zipcode": "13617-370"
    },
    {
        "city": "Leme",
        "state": "SP",
        "district": "Chácara Saúde",
        "street": "Rua Abade Álvaro",
        "zipcode": "13612-600"
    },
    {
        "city": "Leme",
        "state": "SP",
        "district": "Jardim Residencial Saulo",
        "street": "Rua André Veris",
        "zipcode": "13611-080"
    },
    {
        "city": "Leme",
        "state": "SP",
        "district": "Jardim Vila Verde",
        "street": "Rua Antônio Cazella",
        "zipcode": "13612-320"
    },
    {
        "city": "Leme",
        "state": "SP",
        "district": "Jardim Bonsucesso",
        "street": "Rua Antônio Giassi",
        "zipcode": "13617-617"
    },
    {
        "city": "Leme",
        "state": "SP",
        "district": "Jardim Palmeiras",
        "street": "Rua Antônio Porto",
        "zipcode": "13615-490"
    },
    {
        "city": "Leme",
        "state": "SP",
        "district": "Jardim São José",
        "street": "Rua Carlos Guilherme Habermann",
        "zipcode": "13610-750"
    },
    {
        "city": "Leme",
        "state": "SP",
        "district": "Barra Funda",
        "street": "Rua Coronel Antonio Abade",
        "zipcode": "13617-200"
    },
    {
        "city": "Leme",
        "state": "SP",
        "district": "Jardim Alvorada",
        "street": "Rua Coronel Antônio Jorge Hildebrando",
        "zipcode": "13611-310"
    },
    {
        "city": "Leme",
        "state": "SP",
        "district": "Jardim São José",
        "street": "Avenida Doutor Hermínio Ometto",
        "zipcode": "13610-760"
    },
    {
        "city": "Leme",
        "state": "SP",
        "district": "Jardim Santa Rita",
        "street": "Rua Fernão Dias Paes Leme",
        "zipcode": "13611-340"
    },
    {
        "city": "Leme",
        "state": "SP",
        "district": "Jardim Adelina",
        "street": "Rua Francisco Santucci",
        "zipcode": "13617-665"
    },
    {
        "city": "Leme",
        "state": "SP",
        "district": "Jardim São Francisco",
        "street": "Rua Gilson Manoel L. de Arruda",
        "zipcode": "13617-416"
    },
    {
        "city": "Leme",
        "state": "SP",
        "district": "Jardim São Joaquim",
        "street": "Rua dos Jaburús",
        "zipcode": "13615-660"
    },
    {
        "city": "Leme",
        "state": "SP",
        "district": "Parque Residencial Itamaraty",
        "street": "Rua João Tufanin",
        "zipcode": "13617-434"
    },
    {
        "city": "Leme",
        "state": "SP",
        "district": "Parque Residencial Itamaraty",
        "street": "Rua Manoel Jacinto de Carvalho",
        "zipcode": "13617-514"
    },
    {
        "city": "Leme",
        "state": "SP",
        "district": "Parque São Manoel",
        "street": "Rua Paulo Bonfanti",
        "zipcode": "13616-540"
    },
    {
        "city": "Leme",
        "state": "SP",
        "district": "Jardim Residencial Quáglia",
        "street": "Rua Josimar Daniel Stefano",
        "zipcode": "13617-768"
    },
    {
        "city": "Leme",
        "state": "SP",
        "district": "Jardim do Sol",
        "street": "Rua Gilberto de Magalhães",
        "zipcode": "13610-801"
    },
    {
        "city": "Leme",
        "state": "SP",
        "district": "Distrito Industrial",
        "street": "Rua José Soares Penteado",
        "zipcode": "13612-382"
    },
    {
        "city": "Leme",
        "state": "SP",
        "district": "Taquari Ponte",
        "street": "Estrada Taquari Ponte",
        "zipcode": "13615-679"
    },
    {
        "city": "Leme",
        "state": "SP",
        "district": "Fazenda Palmeiras",
        "street": "Estrada Antiga Estrada Para Pirassununga",
        "zipcode": "13614-450"
    },
    {
        "city": "Leme",
        "state": "SP",
        "district": "Vila Santa Maria",
        "street": "Rua Andre Luiz",
        "zipcode": "13611-350"
    },
    {
        "city": "Leme",
        "state": "SP",
        "district": "Jardim Presidente",
        "street": "Avenida Joaquim Lopes Aguila",
        "zipcode": "13616-000"
    },
    {
        "city": "Leme",
        "state": "SP",
        "district": "Jardim Bonsucesso",
        "street": "Rua Joao Neto De Oliveira",
        "zipcode": "13617-655"
    },
    {
        "city": "Leme",
        "state": "SP",
        "district": "Morada Sol",
        "street": "Rua dos Abacateiros",
        "zipcode": "13613-291"
    },
    {
        "city": "Leme",
        "state": "SP",
        "district": "Jardim Presidente",
        "street": "Rua Cabreuva",
        "zipcode": "13616-320"
    },
    {
        "city": "Leme",
        "state": "SP",
        "district": "Distrito Industrial",
        "street": "Rua Maria Aparecida Sampaio Valente",
        "zipcode": "13612-400"
    },
    {
        "city": "Leme",
        "state": "SP",
        "district": "Jardim Vanessa",
        "street": "Rua Joao Januario Da Luz",
        "zipcode": "13617-550"
    },
    {
        "city": "Leme",
        "state": "SP",
        "district": "Jardim Santana",
        "street": "Rua Da Gloria",
        "zipcode": "13616-510"
    },
    {
        "city": "Leme",
        "state": "SP",
        "district": "Estrada Particular Ibicatu",
        "street": "Estrada Particular Ibicatu",
        "zipcode": "13617-578"
    },
    {
        "city": "Leme",
        "state": "SP",
        "district": "Jardim Santana",
        "street": "Avenida 7 De Setembro",
        "zipcode": "13616-500"
    },
    {
        "city": "Leme",
        "state": "SP",
        "district": "Jardim Presidente",
        "street": "Rua Jacaranda",
        "zipcode": "13616-359"
    },
    {
        "city": "Leme",
        "state": "SP",
        "district": "Conj Habit Ferdinando Marchi",
        "street": "Rua Joao Poletti",
        "zipcode": "13618-280"
    },
    {
        "city": "Leme",
        "state": "SP",
        "district": "Barra Funda",
        "street": "Avenida Joaquim Lopes Aguila",
        "zipcode": "13617-050"
    },
    {
        "city": "Leme",
        "state": "SP",
        "district": "Jardim Governador",
        "street": "Rua Francisco Mascarim",
        "zipcode": "13616-260"
    },
    {
        "city": "Leme",
        "state": "SP",
        "district": "Jardim Ariana",
        "street": "Avenida Dr Herminio Ometto",
        "zipcode": "13617-700"
    },
    {
        "city": "Leme",
        "state": "SP",
        "district": "Vila Sao Joao",
        "street": "Avenida Albino Da Cruz",
        "zipcode": "13614-220"
    },
    {
        "city": "Leme",
        "state": "SP",
        "district": "Vila Sao Jorge",
        "street": "Avenida Joaquim Lopes Aguila",
        "zipcode": "13615-000"
    },
    {
        "city": "Leme",
        "state": "SP",
        "district": "Jardim do Sol",
        "street": "Rua Farah Kater",
        "zipcode": "13610-813"
    },
    {
        "city": "Leme",
        "state": "SP",
        "district": "Residencial Rocco Lenci",
        "street": "Rua Antonio Di Fusco",
        "zipcode": "13616-103"
    },
    {
        "city": "Leme",
        "state": "SP",
        "district": "Residencial Rocco Lenci",
        "street": "Rua Marta Aparecida Ozelo",
        "zipcode": "13616-105"
    },
    {
        "city": "Leme",
        "state": "SP",
        "district": "Residencial Rocco Lenci",
        "street": "Rua Casemiro Comin",
        "zipcode": "13616-109"
    },
    {
        "city": "Leme",
        "state": "SP",
        "district": "Jardim Residencial Quáglia",
        "street": "Avenida Armanda Sandoval",
        "zipcode": "13617-778"
    },
    {
        "city": "Leme",
        "state": "SP",
        "district": "Jardim Casarão",
        "street": "Rua Fabiana",
        "zipcode": "13617-377"
    },
    {
        "city": "Leme",
        "state": "SP",
        "district": "Jardim Casarão",
        "street": "Rua Fulvia",
        "zipcode": "13617-385"
    },
    {
        "city": "Leme",
        "state": "SP",
        "district": "Jardim Casarão",
        "street": "Rua Izabel",
        "zipcode": "13617-389"
    },
    {
        "city": "Leme",
        "state": "SP",
        "district": "Jardim Residencial Quáglia",
        "street": "Rua José Visentim",
        "zipcode": "13617-776"
    },
    {
        "city": "Leme",
        "state": "SP",
        "district": "Jardim Presidente",
        "street": "Avenida Joaquim Lopes Aguila",
        "zipcode": "13616-002"
    },
    {
        "city": "Leme",
        "state": "SP",
        "district": "Jardim Serelepe",
        "street": "Rua Eber Michelin Prudente",
        "zipcode": "13611-203"
    },
    {
        "city": "Leme",
        "state": "SP",
        "district": "Jardim Serelepe",
        "street": "Rua Amélio Boff",
        "zipcode": "13611-213"
    },
    {
        "city": "Leme",
        "state": "SP",
        "district": "Jardim Serelepe",
        "street": "Rua Reinaldo Lima dos Santos",
        "zipcode": "13611-211"
    },
    {
        "city": "Leme",
        "state": "SP",
        "district": "Jardim Ana Lúcia",
        "street": "Rua Ernesto Lazzarini",
        "zipcode": "13617-737"
    },
    {
        "city": "Leme",
        "state": "SP",
        "district": "Serelepe",
        "street": "Rua Giacomo Petruz",
        "zipcode": "13610-855"
    },
    {
        "city": "Leme",
        "state": "SP",
        "district": "Jardim Residencial Crishmara",
        "street": "Rua Avelino Leme da Silva",
        "zipcode": "13613-434"
    },
    {
        "city": "Leme",
        "state": "SP",
        "district": "Jardim Residencial Mariana",
        "street": "Rua José Gilberto Penteado",
        "zipcode": "13611-222"
    },
    {
        "city": "Leme",
        "state": "SP",
        "district": "Jardim dos Ypês",
        "street": "Rua Sebastião Máximo",
        "zipcode": "13611-631"
    },
    {
        "city": "Leme",
        "state": "SP",
        "district": "Jardim Empyreo",
        "street": "Rua Doutor Raul Schwinden",
        "zipcode": "13611-821"
    },
    {
        "city": "Leme",
        "state": "SP",
        "district": "Jardim Empyreo",
        "street": "Rua Abilio Zanca",
        "zipcode": "13611-824"
    },
    {
        "city": "Leme",
        "state": "SP",
        "district": "Jardim Empyreo",
        "street": "Rua Alessandro Aparecido Lourenço Franco",
        "zipcode": "13611-827"
    },
    {
        "city": "Leme",
        "state": "SP",
        "district": "Jardim Empyreo",
        "street": "Rua Cicera Sueli de Andrade",
        "zipcode": "13611-831"
    },
    {
        "city": "Leme",
        "state": "SP",
        "district": "Jardim Empyreo",
        "street": "Rua Esmeraldo Ramos",
        "zipcode": "13611-834"
    },
    {
        "city": "Leme",
        "state": "SP",
        "district": "Jardim Sao Jose",
        "street": "Rua Etelvina Sardinha Violin",
        "zipcode": "13611-160"
    },
    {
        "city": "Leme",
        "state": "SP",
        "district": "Jardim Santa Paula",
        "street": "Rua Victor Curioni",
        "zipcode": "13611-200"
    },
    {
        "city": "Leme",
        "state": "SP",
        "district": "Jardim Nova Era",
        "street": "Rua Sebastiao Martinetti",
        "zipcode": "13611-329"
    },
    {
        "city": "Leme",
        "state": "SP",
        "district": "Jardim Vista Alegre",
        "street": "Rua Guilherme Arthur Pommer",
        "zipcode": "13616-310"
    },
    {
        "city": "Leme",
        "state": "SP",
        "district": "Jardim Bonsucesso",
        "street": "Rua Liberato Monezzi",
        "zipcode": "13617-654"
    },
    {
        "city": "Leme",
        "state": "SP",
        "district": "Centro",
        "street": "Avenida Joaquim Lopes Aguila",
        "zipcode": "13610-140"
    },
    {
        "city": "Leme",
        "state": "SP",
        "district": "Jardim Santa Rita",
        "street": "Rua Almirante Tamandare",
        "zipcode": "13611-570"
    },
    {
        "city": "Leme",
        "state": "SP",
        "district": "Jardim Primavera",
        "street": "Rua Abilio Correa Sampaio",
        "zipcode": "13616-230"
    },
    {
        "city": "Leme",
        "state": "SP",
        "district": "Jardim dos Ypês",
        "street": "Rua Antonio Bithencourt",
        "zipcode": "13611-636"
    },
    {
        "city": "Leme",
        "state": "SP",
        "district": "Jardim Santa Ines",
        "street": "Rua Jose Franco Da Silva Leme",
        "zipcode": "13614-139"
    },
    {
        "city": "Leme",
        "state": "SP",
        "district": "Jardim Santa Rita",
        "street": "Avenida Dr Eurico Arrais Serodio",
        "zipcode": "13611-500"
    },
    {
        "city": "Leme",
        "state": "SP",
        "district": "Jardim Santana",
        "street": "Rua Dr Joao F. Domenico Serodio",
        "zipcode": "13616-360"
    },
    {
        "city": "Leme",
        "state": "SP",
        "district": "Jardim Capitolio",
        "street": "Avenida Durval Thomazotti",
        "zipcode": "13610-490"
    },
    {
        "city": "Leme",
        "state": "SP",
        "district": "Jardim Santa Marta",
        "street": "Rua Hinocencio Bertogna",
        "zipcode": "13611-238"
    },
    {
        "city": "Leme",
        "state": "SP",
        "district": "Jardim Sao Jose",
        "street": "Rua Benedita Passelli",
        "zipcode": "13611-026"
    },
    {
        "city": "Leme",
        "state": "SP",
        "district": "Jardim Universitário",
        "street": "Avenida Estevam José Ciccone",
        "zipcode": "13615-171"
    },
    {
        "city": "Leme",
        "state": "SP",
        "district": "Jardim Alvorada",
        "street": "Rua Benedito Pereira De Moraes",
        "zipcode": "13611-308"
    },
    {
        "city": "Leme",
        "state": "SP",
        "district": "Jardim Casarão",
        "street": "Rua Tania Lucia",
        "zipcode": "13617-379"
    },
    {
        "city": "Leme",
        "state": "SP",
        "district": "Recanto Da Colina",
        "street": "Estrada Municipal",
        "zipcode": "13613-398"
    },
    {
        "city": "Leme",
        "state": "SP",
        "district": "Parque Sao Manoel",
        "street": "Estrada Municipal Taquari",
        "zipcode": "13615-676"
    },
    {
        "city": "Leme",
        "state": "SP",
        "district": "Jardim Juana",
        "street": "Rua Arnaldo Habermann",
        "zipcode": "13617-320"
    },
    {
        "city": "Leme",
        "state": "SP",
        "district": "Jardim Letícia",
        "street": "Rua Luiz Corrêa Almeida",
        "zipcode": "13612-280"
    },
    {
        "city": "Leme",
        "state": "SP",
        "district": "Jardim Residencial Saulo",
        "street": "Rua Joao Sinezio",
        "zipcode": "13611-190"
    },
    {
        "city": "Leme",
        "state": "SP",
        "district": "Jardim Eroisi",
        "street": "Rua Mauricio Pommer",
        "zipcode": "13610-670"
    },
    {
        "city": "Leme",
        "state": "SP",
        "district": "Jardim Residencial Altos da Santa Rita",
        "street": "Rua Antonio de Souza",
        "zipcode": "13611-794"
    },
    {
        "city": "Leme",
        "state": "SP",
        "district": "Jardim Ariana",
        "street": "Rua Zarif Faiad Mansur",
        "zipcode": "13617-599"
    },
    {
        "city": "Leme",
        "state": "SP",
        "district": "Jardim dos Ypês",
        "street": "Rua Três",
        "zipcode": "13611-633"
    },
    {
        "city": "Leme",
        "state": "SP",
        "district": "Jardim Casarão",
        "street": "Avenida Joaquim Lopes Aguila",
        "zipcode": "13617-383"
    },
    {
        "city": "Leme",
        "state": "SP",
        "district": "Jardim Dibi",
        "street": "Avenida Joaquim Lopes Aguila",
        "zipcode": "13616-377"
    },
    {
        "city": "Leme",
        "state": "SP",
        "district": "Barra Funda",
        "street": "Rua Américo Braghin",
        "zipcode": "13617-278"
    },
    {
        "city": "Leme",
        "state": "SP",
        "district": "Jardim Residencial Altos da Santa Rita",
        "street": "Rua Roberto Martani",
        "zipcode": "13611-795"
    },
    {
        "city": "Leme",
        "state": "SP",
        "district": "Jardim Sao Jose",
        "street": "Avenida Luciano Milanello",
        "zipcode": "13611-030"
    },
    {
        "city": "Leme",
        "state": "SP",
        "district": "Jardim Amália",
        "street": "Rua Gabriel Franco da Silveira",
        "zipcode": "13610-379"
    },
    {
        "city": "Leme",
        "state": "SP",
        "district": "Jardim Residencial Mariana",
        "street": "Rua Benedito Aparecido Remonhão",
        "zipcode": "13611-226"
    },
    {
        "city": "Leme",
        "state": "SP",
        "district": "Jardim Letícia",
        "street": "Rua Antonio Gonçalves da Silva",
        "zipcode": "13612-271"
    },
    {
        "city": "Leme",
        "state": "SP",
        "district": "Jardim do Bosque",
        "street": "Praça José Gallo",
        "zipcode": "13613-079"
    },
    {
        "city": "Leme",
        "state": "SP",
        "district": "Jardim Capitólio",
        "street": "Rua José Lourencetti",
        "zipcode": "13610-412"
    },
    {
        "city": "Leme",
        "state": "SP",
        "district": "Jardim Santa Ines",
        "street": "Rua Durvalino Franco Da Silva",
        "zipcode": "13614-120"
    },
    {
        "city": "Leme",
        "state": "SP",
        "district": "Jardim Anteghini",
        "street": "Rua Benedicto Pereira de Moraes",
        "zipcode": "13611-263"
    },
    {
        "city": "Leme",
        "state": "SP",
        "district": "Jardim Santa Marta",
        "street": "Rua Natal Remunhao",
        "zipcode": "13611-280"
    },
    {
        "city": "Leme",
        "state": "SP",
        "district": "Estrada Particular Ibicatu",
        "street": "Estrada Particular Ibicatú",
        "zipcode": "13617-571"
    },
    {
        "city": "Leme",
        "state": "SP",
        "district": "Jardim Primavera",
        "street": "Rua Floriano Heiffig",
        "zipcode": "13616-250"
    },
    {
        "city": "Leme",
        "state": "SP",
        "district": "Jardim Residencial Altos da Santa Rita",
        "street": "Rua Carlos Francisco Sbarai",
        "zipcode": "13611-792"
    },
    {
        "city": "Leme",
        "state": "SP",
        "district": "Quinta do Vale Verde",
        "street": "Avenida Taufic Nacif Mansur",
        "zipcode": "13613-331"
    },
    {
        "city": "Leme",
        "state": "SP",
        "district": "Jardim Dibi",
        "street": "Rua Eduardo Cardoso",
        "zipcode": "13616-373"
    },
    {
        "city": "Leme",
        "state": "SP",
        "district": "Jardim Eloísa",
        "street": "Rua Benedito Domingos Parrotti",
        "zipcode": "13617-788"
    },
    {
        "city": "Leme",
        "state": "SP",
        "district": "Quinta do Vale Verde",
        "street": "Rua das Figueiras",
        "zipcode": "13613-380"
    },
    {
        "city": "Leme",
        "state": "SP",
        "district": "Jardim Vila Suíça",
        "street": "Rua Apparecida Grecco de Oliveira",
        "zipcode": "13616-380"
    },
    {
        "city": "Leme",
        "state": "SP",
        "district": "Vila São João",
        "street": "Avenida Belta Burhein",
        "zipcode": "13614-083"
    },
    {
        "city": "Leme",
        "state": "SP",
        "district": "Jardim Nova Leme",
        "street": "Praça Emedi Maximino Vizzotto",
        "zipcode": "13612-012"
    },
    {
        "city": "Leme",
        "state": "SP",
        "district": "Jardim Presidente",
        "street": "Rua Dos Ypes",
        "zipcode": "13616-300"
    },
    {
        "city": "Leme",
        "state": "SP",
        "district": "Jardim Nova Leme",
        "street": "Estrada da República",
        "zipcode": "13612-049"
    },
    {
        "city": "Leme",
        "state": "SP",
        "district": "Quinta do Vale Verde",
        "street": "Avenida das Lidia Zaniqueli Simarelli",
        "zipcode": "13613-390"
    },
    {
        "city": "Leme",
        "state": "SP",
        "district": "Jardim Nova Leme",
        "street": "Rodovia Anhangüera",
        "zipcode": "13612-200"
    },
    {
        "city": "Leme",
        "state": "SP",
        "district": "Jardim Casarão",
        "street": "Rua Carmem Lucia",
        "zipcode": "13617-381"
    },
    {
        "city": "Leme",
        "state": "SP",
        "district": "Jardim Angélica",
        "street": "Rua 4",
        "zipcode": "13615-720"
    },
    {
        "city": "Leme",
        "state": "SP",
        "district": "Centro",
        "street": "Rua Rafael de Barros",
        "zipcode": "13610-902"
    },
    {
        "city": "Leme",
        "state": "SP",
        "district": "Jardim Anteghini",
        "street": "Rua Emilia Cariane de Souza",
        "zipcode": "13611-260"
    },
    {
        "city": "Leme",
        "state": "SP",
        "district": "Jardim Eroisi",
        "street": "Rua Ricardo Hildebrand",
        "zipcode": "13610-650"
    }
]