[
    {
        "city": "Lencois Paulista",
        "state": "SP",
        "district": "Centro",
        "street": "Rua Projetada Ii",
        "zipcode": "18680-300"
    },
    {
        "city": "Lencois Paulista",
        "state": "SP",
        "district": "Vila Repke",
        "street": "Rua Otto Repke",
        "zipcode": "18681-260"
    },
    {
        "city": "Lencois Paulista",
        "state": "SP",
        "district": "Conj Habit Lencois Paulista",
        "street": "Rua Umberto Peregrino",
        "zipcode": "18681-500"
    },
    {
        "city": "Lencois Paulista",
        "state": "SP",
        "district": "Vila Contente",
        "street": "Praça Cristo Rei",
        "zipcode": "18680-283"
    },
    {
        "city": "Lencois Paulista",
        "state": "SP",
        "district": "Jardim Ubirama",
        "street": "Avenida Padre Salustio Rodrigues Machado",
        "zipcode": "18683-660"
    },
    {
        "city": "Lencois Paulista",
        "state": "SP",
        "district": "Vila Mamedina",
        "street": "Rua Quinze De Novembro",
        "zipcode": "18681-100"
    },
    {
        "city": "Lencois Paulista",
        "state": "SP",
        "district": "Centro",
        "street": "Rua Treze De Maio",
        "zipcode": "18682-730"
    },
    {
        "city": "Lencois Paulista",
        "state": "SP",
        "district": "Vila Mamedina",
        "street": "Rua Coronel Fernando Prestes",
        "zipcode": "18681-060"
    },
    {
        "city": "Lencois Paulista",
        "state": "SP",
        "district": "Jardim Alvorada",
        "street": "Rua Uruguai",
        "zipcode": "18680-580"
    },
    {
        "city": "Lencois Paulista",
        "state": "SP",
        "district": "Jardim Village",
        "street": "Rua Da Abolicao",
        "zipcode": "18683-680"
    },
    {
        "city": "Lencois Paulista",
        "state": "SP",
        "district": "Vila Cachoeirinha",
        "street": "Rua Caetes",
        "zipcode": "18682-780"
    },
    {
        "city": "Lencois Paulista",
        "state": "SP",
        "district": "Parque Residencial Sao Jose",
        "street": "Rua Jose Paccola",
        "zipcode": "18681-841"
    },
    {
        "city": "Lencois Paulista",
        "state": "SP",
        "district": "Vila Santa Cecilia",
        "street": "Rua Carlos Trecenti",
        "zipcode": "18683-670"
    },
    {
        "city": "Lencois Paulista",
        "state": "SP",
        "district": "Centro",
        "street": "Rua Major Esperidiao De Oliveira Lima Machado",
        "zipcode": "18683-650"
    },
    {
        "city": "Lencois Paulista",
        "state": "SP",
        "district": "Conj Habit Lencois Paulista",
        "street": "Rua Marcos Vinicius Vilaca",
        "zipcode": "18681-530"
    },
    {
        "city": "Lencois Paulista",
        "state": "SP",
        "district": "Centro",
        "street": "Rua Helio De Aguiar",
        "zipcode": "18680-290"
    },
    {
        "city": "Lencois Paulista",
        "state": "SP",
        "district": "Centro",
        "street": "Praça Oswaldo Cruz",
        "zipcode": "18682-733"
    },
    {
        "city": "Lencois Paulista",
        "state": "SP",
        "district": "Vila Repke",
        "street": "Rua Projetada",
        "zipcode": "18681-300"
    },
    {
        "city": "Lencois Paulista",
        "state": "SP",
        "district": "Conj Habit Lencois Paulista",
        "street": "Rua Cora Coralina",
        "zipcode": "18681-580"
    },
    {
        "city": "Lencois Paulista",
        "state": "SP",
        "district": "Vila Repke",
        "street": "Rua Carlos Fuganholi",
        "zipcode": "18681-280"
    },
    {
        "city": "Lencois Paulista",
        "state": "SP",
        "district": "Vila Antonieta Ii",
        "street": "Avenida Papa Joao Paulo Ii",
        "zipcode": "18681-040"
    },
    {
        "city": "Lencois Paulista",
        "state": "SP",
        "district": "Vila Santa Cecilia",
        "street": "Rua Cezar Giacomini",
        "zipcode": "18683-100"
    },
    {
        "city": "Lencois Paulista",
        "state": "SP",
        "district": "Centro",
        "street": "Praça Papa Joao Paulo I",
        "zipcode": "18683-433"
    },
    {
        "city": "Lencois Paulista",
        "state": "SP",
        "district": "Vila Baccili",
        "street": "Rua Cristovao Colombo",
        "zipcode": "18680-260"
    },
    {
        "city": "Lencois Paulista",
        "state": "SP",
        "district": "Conj Habit Lencois Paulista",
        "street": "Rua Olavo Brasil De Lima Junior",
        "zipcode": "18681-540"
    },
    {
        "city": "Lencois Paulista",
        "state": "SP",
        "district": "Vila Santa Cecilia",
        "street": "Rua Vinte E Oito De Abril",
        "zipcode": "18683-120"
    },
    {
        "city": "Lencois Paulista",
        "state": "SP",
        "district": "Conj Habit Lencois Paulista",
        "street": "Rua Danilo Gomes",
        "zipcode": "18681-810"
    },
    {
        "city": "Lencois Paulista",
        "state": "SP",
        "district": "Vila Repke",
        "street": "Rua Jose Giraldi",
        "zipcode": "18681-250"
    },
    {
        "city": "Lencois Paulista",
        "state": "SP",
        "district": "Jardim Alvorada",
        "street": "Rua Paraguai",
        "zipcode": "18680-570"
    },
    {
        "city": "Lencois Paulista",
        "state": "SP",
        "district": "Centro",
        "street": "Rua Anita Garibaldi",
        "zipcode": "18682-520"
    },
    {
        "city": "Lencois Paulista",
        "state": "SP",
        "district": "Nucleo Habit Luis Zillo",
        "street": "Rua Assad Feres",
        "zipcode": "18685-820"
    },
    {
        "city": "Lencois Paulista",
        "state": "SP",
        "district": "Vila Virgilio Capoani",
        "street": "Rua Dos Trilhos",
        "zipcode": "18683-280"
    },
    {
        "city": "Lencois Paulista",
        "state": "SP",
        "district": "Conj Habit Lencois Paulista",
        "street": "Rua Vicente Themudo Lessa",
        "zipcode": "18681-550"
    },
    {
        "city": "Lencois Paulista",
        "state": "SP",
        "district": "Jardim Village",
        "street": "Rua Jalisco",
        "zipcode": "18682-830"
    },
    {
        "city": "Lencois Paulista",
        "state": "SP",
        "district": "Jardim Alvorada",
        "street": "Rua Chile",
        "zipcode": "18680-560"
    },
    {
        "city": "Lencois Paulista",
        "state": "SP",
        "district": "Jardim Das Nacoes",
        "street": "Avenida Prefeito Jacomo Nicolau Paccola",
        "zipcode": "18685-000"
    },
    {
        "city": "Lencois Paulista",
        "state": "SP",
        "district": "Vila Santa Cecilia",
        "street": "Rua Quinze De Novembro",
        "zipcode": "18683-110"
    },
    {
        "city": "Lencois Paulista",
        "state": "SP",
        "district": "Vila Repke",
        "street": "Rua Carlos Paccola",
        "zipcode": "18681-310"
    },
    {
        "city": "Lencois Paulista",
        "state": "SP",
        "district": "Centro",
        "street": "Rua Sao Pedro",
        "zipcode": "18680-720"
    },
    {
        "city": "Lencois Paulista",
        "state": "SP",
        "district": "Centro",
        "street": "Rua Edy Euripedes Coneglian",
        "zipcode": "18682-802"
    },
    {
        "city": "Lencois Paulista",
        "state": "SP",
        "district": "Vila Mamedina",
        "street": "Rua Expedicionarios",
        "zipcode": "18681-070"
    },
    {
        "city": "Lencois Paulista",
        "state": "SP",
        "district": "Vila Paccola",
        "street": "Rua Santos Dumont",
        "zipcode": "18682-680"
    },
    {
        "city": "Lencois Paulista",
        "state": "SP",
        "district": "Centro",
        "street": "Rua Joaquim De Oliveira Lima",
        "zipcode": "18683-640"
    },
    {
        "city": "Lencois Paulista",
        "state": "SP",
        "district": "Centro",
        "street": "Rua Sao Vicente De Paula",
        "zipcode": "18680-310"
    },
    {
        "city": "Lencois Paulista",
        "state": "SP",
        "district": "Centro",
        "street": "Rua Dona Januaria",
        "zipcode": "18680-690"
    },
    {
        "city": "Lencois Paulista",
        "state": "SP",
        "district": "Vila Marimbondo",
        "street": "Travessa Monteiro Lobato",
        "zipcode": "18683-710"
    },
    {
        "city": "Lencois Paulista",
        "state": "SP",
        "district": "Vila Contente",
        "street": "Rua Pedro Alvares Cabral",
        "zipcode": "18680-270"
    },
    {
        "city": "Lencois Paulista",
        "state": "SP",
        "district": "Jardim Granville",
        "street": "Rua Noel Nutels",
        "zipcode": "18683-700"
    },
    {
        "city": "Lencois Paulista",
        "state": "SP",
        "district": "Conj Habit Lencois Paulista",
        "street": "Rua Dr Narciso Coelho Netto",
        "zipcode": "18681-520"
    },
    {
        "city": "Lencois Paulista",
        "state": "SP",
        "district": "Conj Habit Lencois Paulista",
        "street": "Rua Afranio Coutinho",
        "zipcode": "18681-510"
    },
    {
        "city": "Lencois Paulista",
        "state": "SP",
        "district": "Jardim Alvorada",
        "street": "Rua Bolivia",
        "zipcode": "18680-670"
    },
    {
        "city": "Lencois Paulista",
        "state": "SP",
        "district": "Vila Repke",
        "street": "Rua Afonso Amilcar Andretto",
        "zipcode": "18681-270"
    },
    {
        "city": "Lencois Paulista",
        "state": "SP",
        "district": "Parque Residencial Sao Jose",
        "street": "Rua Prof. Lina Bosi Canova",
        "zipcode": "18681-370"
    },
    {
        "city": "Lencois Paulista",
        "state": "SP",
        "district": "Jardim Ubirama",
        "street": "Rua Marechal Rondon",
        "zipcode": "18683-690"
    },
    {
        "city": "Lencois Paulista",
        "state": "SP",
        "district": "Jardim Sao Joao",
        "street": "Rua Primo Casagrande",
        "zipcode": "18680-710"
    },
    {
        "city": "Lencois Paulista",
        "state": "SP",
        "district": "Centro",
        "street": "Rua Coronel Virgilio Rocha",
        "zipcode": "18683-460"
    },
    {
        "city": "Lencois Paulista",
        "state": "SP",
        "district": "Parque Residencial Rondon",
        "street": "Rua Lafayette Muller Leal",
        "zipcode": "18685-010"
    },
    {
        "city": "Lencois Paulista",
        "state": "SP",
        "district": "Centro",
        "street": "Rua Jose Do Patrocinio",
        "zipcode": "18682-750"
    },
    {
        "city": "Lencois Paulista",
        "state": "SP",
        "district": "Vila Antonieta Ii",
        "street": "Rua Lourivaldo Euclides Moretto",
        "zipcode": "18681-820"
    },
    {
        "city": "Lencois Paulista",
        "state": "SP",
        "district": "Conj Habit Lencois Paulista",
        "street": "Rua Nelida Pinon",
        "zipcode": "18681-590"
    },
    {
        "city": "Lencois Paulista",
        "state": "SP",
        "district": "Vila Repke",
        "street": "Rua Miguel Palombo",
        "zipcode": "18681-290"
    },
    {
        "city": "Lencois Paulista",
        "state": "SP",
        "district": "Vila Antonieta I",
        "street": "Rua Luiz Victor Borin",
        "zipcode": "18682-840"
    },
    {
        "city": "Lencois Paulista",
        "state": "SP",
        "district": "Vila Contente",
        "street": "Rua Padre Manoel Da Nobrega",
        "zipcode": "18680-280"
    },
    {
        "city": "Lencois Paulista",
        "state": "SP",
        "district": "Jardim Da Prata",
        "street": "Rua Evaristo Canova",
        "zipcode": "18682-690"
    },
    {
        "city": "Lencois Paulista",
        "state": "SP",
        "district": "Centro",
        "street": "Avenida Vinte E Cinco De Janeiro",
        "zipcode": "18681-050"
    },
    {
        "city": "Lencois Paulista",
        "state": "SP",
        "district": "Vila Antonieta I",
        "street": "Rua Leopoldo Klein",
        "zipcode": "18682-805"
    }
]