[
    {
        "city": "Marilia",
        "state": "SP",
        "district": "Jardim America",
        "street": "Rua Joao Brino",
        "zipcode": "17505-580"
    },
    {
        "city": "Marilia",
        "state": "SP",
        "district": "Marilia",
        "street": "Avenida Republica",
        "zipcode": "17509-030"
    },
    {
        "city": "Marilia",
        "state": "SP",
        "district": "Fragata",
        "street": "Rua Horacio Raineri",
        "zipcode": "17519-620"
    },
    {
        "city": "Marilia",
        "state": "SP",
        "district": "Parque Sao Jorge",
        "street": "Rua Gildo Casadei",
        "zipcode": "17520-400"
    },
    {
        "city": "Marilia",
        "state": "SP",
        "district": "Alto Cafezal",
        "street": "Rua Padre Jose De Anchieta",
        "zipcode": "17504-340"
    },
    {
        "city": "Marilia",
        "state": "SP",
        "district": "Alto Cafezal",
        "street": "Rua Arco Verde",
        "zipcode": "17504-350"
    },
    {
        "city": "Marilia",
        "state": "SP",
        "district": "Alto Cafezal",
        "street": "Praça Da Biblia",
        "zipcode": "17504-371"
    },
    {
        "city": "Marilia",
        "state": "SP",
        "district": "Mariana",
        "street": "Avenida Pedro De Toledo",
        "zipcode": "17510-010"
    },
    {
        "city": "Marilia",
        "state": "SP",
        "district": "Jardim Marajo",
        "street": "Rua Pedro Banzato",
        "zipcode": "17521-030"
    },
    {
        "city": "Marilia",
        "state": "SP",
        "district": "Jardim Aquarius",
        "street": "Avenida Aquarius",
        "zipcode": "17507-055"
    },
    {
        "city": "Marilia",
        "state": "SP",
        "district": "Alto Cafezal",
        "street": "Rua Prudente De Morais",
        "zipcode": "17504-380"
    },
    {
        "city": "Marilia",
        "state": "SP",
        "district": "Quarto Centenario",
        "street": "Rua Amador Bueno",
        "zipcode": "17503-120"
    },
    {
        "city": "Marilia",
        "state": "SP",
        "district": "Jardim Parati",
        "street": "Rua Moyses Pedrosa",
        "zipcode": "17519-290"
    },
    {
        "city": "Marilia",
        "state": "SP",
        "district": "Cavalieri",
        "street": "Rodovia Carlos Tononi",
        "zipcode": "17504-390"
    },
    {
        "city": "Marilia",
        "state": "SP",
        "district": "Canaa",
        "street": "Rua Machado De Assis",
        "zipcode": "17510-030"
    },
    {
        "city": "Marilia",
        "state": "SP",
        "district": "Palmital",
        "street": "Rua Goncalves Ledo",
        "zipcode": "17511-210"
    },
    {
        "city": "Marilia",
        "state": "SP",
        "district": "Palmital",
        "street": "Rua Hermes Da Fonseca",
        "zipcode": "17511-220"
    },
    {
        "city": "Marilia",
        "state": "SP",
        "district": "Palmital",
        "street": "Rua Luiz Delicato",
        "zipcode": "17511-231"
    },
    {
        "city": "Marilia",
        "state": "SP",
        "district": "Alto Cafezal",
        "street": "Rua Coroados",
        "zipcode": "17502-110"
    },
    {
        "city": "Marilia",
        "state": "SP",
        "district": "Alto Cafezal",
        "street": "Rua Santa Cecilia",
        "zipcode": "17502-130"
    },
    {
        "city": "Marilia",
        "state": "SP",
        "district": "Alto Cafezal",
        "street": "Rua Taquaritinga",
        "zipcode": "17504-290"
    },
    {
        "city": "Marilia",
        "state": "SP",
        "district": "Alto Cafezal",
        "street": "Rua Piratininga",
        "zipcode": "17504-310"
    },
    {
        "city": "Marilia",
        "state": "SP",
        "district": "Alto Cafezal",
        "street": "Rua Paes Leme",
        "zipcode": "17504-370"
    },
    {
        "city": "Marilia",
        "state": "SP",
        "district": "Marilia",
        "street": "Avenida Brasil",
        "zipcode": "17509-010"
    },
    {
        "city": "Marilia",
        "state": "SP",
        "district": "Jardim America",
        "street": "Avenida Dr Jose Guimaraes Toni",
        "zipcode": "17505-590"
    },
    {
        "city": "Marilia",
        "state": "SP",
        "district": "Jardim Maria Martha",
        "street": "Rua Salvador Brabo",
        "zipcode": "17507-580"
    },
    {
        "city": "Marilia",
        "state": "SP",
        "district": "Jardim America",
        "street": "Rua Romano Crepaldi",
        "zipcode": "17505-430"
    },
    {
        "city": "Marilia",
        "state": "SP",
        "district": "Somenzari",
        "street": "Rua Manoel De Oliveira",
        "zipcode": "17506-150"
    },
    {
        "city": "Marilia",
        "state": "SP",
        "district": "Bosque",
        "street": "Avenida Sampaio Vidal",
        "zipcode": "17501-050"
    },
    {
        "city": "Marilia",
        "state": "SP",
        "district": "Bassan",
        "street": "Rua Dr Gelas",
        "zipcode": "17506-050"
    },
    {
        "city": "Marilia",
        "state": "SP",
        "district": "Santa Tereza",
        "street": "Avenida Sanches Cibantos",
        "zipcode": "17507-405"
    },
    {
        "city": "Marilia",
        "state": "SP",
        "district": "Barbosa",
        "street": "Avenida Sampaio Vidal",
        "zipcode": "17501-040"
    },
    {
        "city": "Marilia",
        "state": "SP",
        "district": "Jardim America",
        "street": "Rua Mauro Antonio De Souza",
        "zipcode": "17505-570"
    },
    {
        "city": "Marilia",
        "state": "SP",
        "district": "Palmital",
        "street": "Rua Cincinato Braga",
        "zipcode": "17509-230"
    },
    {
        "city": "Marilia",
        "state": "SP",
        "district": "Marilia",
        "street": "Avenida Das Industrias",
        "zipcode": "17509-280"
    },
    {
        "city": "Marilia",
        "state": "SP",
        "district": "Jardim America",
        "street": "Rua Raul Pimazoni",
        "zipcode": "17505-440"
    },
    {
        "city": "Marilia",
        "state": "SP",
        "district": "Quarto Centenario",
        "street": "Rua Nossa Senhora Da Aparecida",
        "zipcode": "17503-130"
    },
    {
        "city": "Marilia",
        "state": "SP",
        "district": "Sao Jose",
        "street": "Rua Wilson Morozini",
        "zipcode": "17503-340"
    },
    {
        "city": "Marilia",
        "state": "SP",
        "district": "Senador Salgado Filho",
        "street": "Praça Fernando Costa",
        "zipcode": "17502-641"
    },
    {
        "city": "Marilia",
        "state": "SP",
        "district": "Jardim Bandeirantes",
        "street": "Rua Francisco De Oliveira Santos",
        "zipcode": "17505-410"
    },
    {
        "city": "Marilia",
        "state": "SP",
        "district": "Palmital",
        "street": "Avenida Nelson Spielmann",
        "zipcode": "17509-000"
    },
    {
        "city": "Marilia",
        "state": "SP",
        "district": "Alto Cafezal",
        "street": "Rua Almirante Tamandare",
        "zipcode": "17502-120"
    },
    {
        "city": "Marilia",
        "state": "SP",
        "district": "Professor Jose Augusto Da Silva Ribeiro",
        "street": "Rua Massahar Hokumura",
        "zipcode": "17511-810"
    },
    {
        "city": "Marilia",
        "state": "SP",
        "district": "Souza",
        "street": "Praça Carlos De Campos",
        "zipcode": "17503-370"
    },
    {
        "city": "Marilia",
        "state": "SP",
        "district": "Jardim Das Perolas",
        "street": "Rua Cesario Polido",
        "zipcode": "17505-340"
    },
    {
        "city": "Marilia",
        "state": "SP",
        "district": "Palmital",
        "street": "Rua Bernardino De Campos",
        "zipcode": "17509-240"
    },
    {
        "city": "Marilia",
        "state": "SP",
        "district": "Mirante",
        "street": "Estrada Do Pombo",
        "zipcode": "17503-110"
    },
    {
        "city": "Marilia",
        "state": "SP",
        "district": "Jardim Maria Martha",
        "street": "Rua Cesar Mesquita Serva",
        "zipcode": "17507-570"
    },
    {
        "city": "Marilia",
        "state": "SP",
        "district": "Jardim Maria Martha",
        "street": "Rua Felix Mansur",
        "zipcode": "17507-590"
    },
    {
        "city": "Marilia",
        "state": "SP",
        "district": "Nucleo Habit Jardim Bela Vista",
        "street": "Praça Vera Marilda Seren Cortarelli",
        "zipcode": "17504-283"
    },
    {
        "city": "Marilia",
        "state": "SP",
        "district": "Senador Salgado Filho",
        "street": "Rua Tupa",
        "zipcode": "17502-630"
    },
    {
        "city": "Marilia",
        "state": "SP",
        "district": "Nucleo Habit Juscelino Kubitschek",
        "street": "Rua Antonio Ribeiro Dos Santos",
        "zipcode": "17511-710"
    },
    {
        "city": "Marilia",
        "state": "SP",
        "district": "Jardim America",
        "street": "Rua Francisco Bassan",
        "zipcode": "17505-560"
    },
    {
        "city": "Marilia",
        "state": "SP",
        "district": "Jardim America",
        "street": "Rua Nelson Macera",
        "zipcode": "17505-550"
    },
    {
        "city": "Marilia",
        "state": "SP",
        "district": "Senador Salgado Filho",
        "street": "Rua Tabajara",
        "zipcode": "17502-610"
    },
    {
        "city": "Marilia",
        "state": "SP",
        "district": "Senador Salgado Filho",
        "street": "Praça Aratas",
        "zipcode": "17502-001"
    },
    {
        "city": "Marilia",
        "state": "SP",
        "district": "Jardim Presidente",
        "street": "Avenida Republica",
        "zipcode": "17512-000"
    },
    {
        "city": "Marilia",
        "state": "SP",
        "district": "Palmital",
        "street": "Rua Pedro Dos Santos",
        "zipcode": "17511-690"
    },
    {
        "city": "Marilia",
        "state": "SP",
        "district": "Senador Salgado Filho",
        "street": "Rua Ida Artencio Muzy",
        "zipcode": "17502-590"
    },
    {
        "city": "Marilia",
        "state": "SP",
        "district": "Nucleo Habit Cecap",
        "street": "Praça Zezinho Magalhaes Prado",
        "zipcode": "17507-230"
    },
    {
        "city": "Marilia",
        "state": "SP",
        "district": "Lorenzetti",
        "street": "Avenida Dr Calim Gadia",
        "zipcode": "17506-110"
    },
    {
        "city": "Marilia",
        "state": "SP",
        "district": "Jardim Sao Geraldo",
        "street": "Rua Dr Gabriel Dos Santos",
        "zipcode": "17501-170"
    },
    {
        "city": "Marilia",
        "state": "SP",
        "district": "Barbosa",
        "street": "Rua Lupercio Garrido",
        "zipcode": "17501-130"
    },
    {
        "city": "Marilia",
        "state": "SP",
        "district": "Jardim America",
        "street": "Rua Manoel Furtado De Rezende",
        "zipcode": "17505-540"
    },
    {
        "city": "Marilia",
        "state": "SP",
        "district": "Senador Salgado Filho",
        "street": "Rua Dr Luiz Hilario Garcia",
        "zipcode": "17502-650"
    },
    {
        "city": "Marilia",
        "state": "SP",
        "district": "Jardim Sao Geraldo",
        "street": "Rua Jose Alvares Castro",
        "zipcode": "17501-060"
    },
    {
        "city": "Marilia",
        "state": "SP",
        "district": "Jardim America",
        "street": "Rodovia Carlos Tononi",
        "zipcode": "17505-600"
    },
    {
        "city": "Marilia",
        "state": "SP",
        "district": "Jardim Sao Geraldo",
        "street": "Rua Teodoto Nogueira",
        "zipcode": "17501-160"
    },
    {
        "city": "Marilia",
        "state": "SP",
        "district": "Jardim Perola",
        "street": "Rua Benedito Antonio Pinto",
        "zipcode": "17505-420"
    },
    {
        "city": "Marilia",
        "state": "SP",
        "district": "Senador Salgado Filho",
        "street": "Rua Ruth Mamede Godoy",
        "zipcode": "17502-600"
    },
    {
        "city": "Marilia",
        "state": "SP",
        "district": "Palmeira",
        "street": "Rua Carmelia Ricci",
        "zipcode": "17503-330"
    },
    {
        "city": "Marilia",
        "state": "SP",
        "district": "Senador Salgado Filho",
        "street": "Rua Aimores",
        "zipcode": "17502-640"
    },
    {
        "city": "Marilia",
        "state": "SP",
        "district": "Palmital",
        "street": "Rua Thomaz Alcalde",
        "zipcode": "17511-680"
    },
    {
        "city": "Marilia",
        "state": "SP",
        "district": "Fragata",
        "street": "Rua Hosuke Uchida",
        "zipcode": "17519-801"
    },
    {
        "city": "Marilia",
        "state": "SP",
        "district": "Jardim Maria Izabel",
        "street": "Rua Dr Augusto Barreto",
        "zipcode": "17516-610"
    },
    {
        "city": "Marilia",
        "state": "SP",
        "district": "Professor Jose Augusto Da Silva Ribeiro",
        "street": "Rua Tres (03)",
        "zipcode": "17511-338"
    },
    {
        "city": "Marilia",
        "state": "SP",
        "district": "Jardim Tangara",
        "street": "Rua Domingos Bazzo",
        "zipcode": "17516-110"
    },
    {
        "city": "Marilia",
        "state": "SP",
        "district": "Palmital",
        "street": "Rua Abel Ferreira De Carvalho",
        "zipcode": "17511-550"
    },
    {
        "city": "Marilia",
        "state": "SP",
        "district": "Jardim Casadei",
        "street": "Rua Leo Zimmerman",
        "zipcode": "17519-760"
    },
    {
        "city": "Marilia",
        "state": "SP",
        "district": "Palmital",
        "street": "Rua Dermanio Da Silva Lima",
        "zipcode": "17510-220"
    },
    {
        "city": "Marilia",
        "state": "SP",
        "district": "Mariana",
        "street": "Rua Voluntarios Da Patria",
        "zipcode": "17510-035"
    },
    {
        "city": "Marilia",
        "state": "SP",
        "district": "Jardim Sao Domingos",
        "street": "Avenida Antonio Borella",
        "zipcode": "17514-690"
    },
    {
        "city": "Marilia",
        "state": "SP",
        "district": "Jardim Aeroporto",
        "street": "Rua Edson Anselmo",
        "zipcode": "17514-570"
    },
    {
        "city": "Marilia",
        "state": "SP",
        "district": "Palmital",
        "street": "Rua Arthur Villa",
        "zipcode": "17511-650"
    },
    {
        "city": "Marilia",
        "state": "SP",
        "district": "Palmital",
        "street": "Praça Presidente Kennedy",
        "zipcode": "17510-301"
    },
    {
        "city": "Marilia",
        "state": "SP",
        "district": "Palmital",
        "street": "Rua Lazarino Casadei",
        "zipcode": "17510-331"
    },
    {
        "city": "Marilia",
        "state": "SP",
        "district": "Residencial Vale Verde",
        "street": "Rua Francisco Galina",
        "zipcode": "17514-220"
    },
    {
        "city": "Marilia",
        "state": "SP",
        "district": "Fragata",
        "street": "Avenida Archimedes Manhaes",
        "zipcode": "17519-650"
    },
    {
        "city": "Marilia",
        "state": "SP",
        "district": "Palmital",
        "street": "Praça Dos Operarios",
        "zipcode": "17510-141"
    },
    {
        "city": "Marilia",
        "state": "SP",
        "district": "Jardim Portal Do Sol",
        "street": "Rua Domingos Garcia Castilho",
        "zipcode": "17519-792"
    },
    {
        "city": "Marilia",
        "state": "SP",
        "district": "Parque Sao Jorge",
        "street": "Praça Monsenhor Adauto Rocha",
        "zipcode": "17520-401"
    },
    {
        "city": "Marilia",
        "state": "SP",
        "district": "Barros",
        "street": "Rua Trinta E Um De Marco",
        "zipcode": "17510-350"
    },
    {
        "city": "Marilia",
        "state": "SP",
        "district": "Jardim Portal Do Sol",
        "street": "Rua Maria Ferreira Furlanetto",
        "zipcode": "17519-794"
    },
    {
        "city": "Marilia",
        "state": "SP",
        "district": "Palmital",
        "street": "Praça Octavio Barreto Prado",
        "zipcode": "17510-243"
    },
    {
        "city": "Marilia",
        "state": "SP",
        "district": "Jardim Aeroporto",
        "street": "Avenida Dr Helio Gomes Gouveia",
        "zipcode": "17514-540"
    },
    {
        "city": "Marilia",
        "state": "SP",
        "district": "Parque Sao Jorge",
        "street": "Rua Pascoal Bitonti",
        "zipcode": "17520-410"
    },
    {
        "city": "Marilia",
        "state": "SP",
        "district": "Palmital",
        "street": "Rua Carlos Rodrigues De Oliveira",
        "zipcode": "17510-230"
    },
    {
        "city": "Marilia",
        "state": "SP",
        "district": "Parque Sao Jorge",
        "street": "Rua Dr Manhaes",
        "zipcode": "17520-370"
    },
    {
        "city": "Marilia",
        "state": "SP",
        "district": "Palmital",
        "street": "Rua Alvorada",
        "zipcode": "17510-210"
    },
    {
        "city": "Marilia",
        "state": "SP",
        "district": "Residencial Vale Verde",
        "street": "Rua Felice Peron",
        "zipcode": "17514-240"
    },
    {
        "city": "Marilia",
        "state": "SP",
        "district": "Jardim Maria Izabel",
        "street": "Rua Liberdade",
        "zipcode": "17516-640"
    },
    {
        "city": "Marilia",
        "state": "SP",
        "district": "Jardim Tangara",
        "street": "Rua Antonio Barbosa Junior",
        "zipcode": "17516-140"
    },
    {
        "city": "Marilia",
        "state": "SP",
        "district": "Palmital",
        "street": "Rua Francisco Coelho Campino",
        "zipcode": "17511-610"
    },
    {
        "city": "Marilia",
        "state": "SP",
        "district": "Jardim Maria Izabel",
        "street": "Rua Braganca",
        "zipcode": "17516-630"
    },
    {
        "city": "Marilia",
        "state": "SP",
        "district": "Jardim Itamarati",
        "street": "Rua Aldino Grassi",
        "zipcode": "17514-660"
    },
    {
        "city": "Marilia",
        "state": "SP",
        "district": "Palmital",
        "street": "Rua Eduardo Tognoli",
        "zipcode": "17510-400"
    },
    {
        "city": "Marilia",
        "state": "SP",
        "district": "Parque Sao Jorge",
        "street": "Rua Oscar Duarte",
        "zipcode": "17520-090"
    },
    {
        "city": "Marilia",
        "state": "SP",
        "district": "Cascata",
        "street": "Rua Santa Helena",
        "zipcode": "17513-000"
    },
    {
        "city": "Marilia",
        "state": "SP",
        "district": "Fragata",
        "street": "Avenida Carlos Artencio",
        "zipcode": "17519-660"
    },
    {
        "city": "Marilia",
        "state": "SP",
        "district": "Palmital",
        "street": "Avenida Washington Luiz",
        "zipcode": "17510-150"
    },
    {
        "city": "Marilia",
        "state": "SP",
        "district": "Vila Romana",
        "street": "Rua Carlos Alberto Franchin",
        "zipcode": "17514-630"
    },
    {
        "city": "Marilia",
        "state": "SP",
        "district": "Palmital",
        "street": "Rua Francisco Martineli",
        "zipcode": "17511-590"
    },
    {
        "city": "Marilia",
        "state": "SP",
        "district": "Parque Sao Jorge",
        "street": "Rua Olar Durigheto",
        "zipcode": "17520-380"
    },
    {
        "city": "Marilia",
        "state": "SP",
        "district": "Palmital",
        "street": "Rua Mariapolis",
        "zipcode": "17511-670"
    },
    {
        "city": "Marilia",
        "state": "SP",
        "district": "Barros",
        "street": "Rua Nilo Pecanha",
        "zipcode": "17510-340"
    },
    {
        "city": "Marilia",
        "state": "SP",
        "district": "Jardim Maria Izabel",
        "street": "Rua Dos Bancarios",
        "zipcode": "17516-620"
    },
    {
        "city": "Marilia",
        "state": "SP",
        "district": "Jardim Tangara",
        "street": "Rua Santo Doretto",
        "zipcode": "17516-150"
    },
    {
        "city": "Marilia",
        "state": "SP",
        "district": "Fragata",
        "street": "Rua Ramiro Mendes Rosa",
        "zipcode": "17519-640"
    },
    {
        "city": "Marilia",
        "state": "SP",
        "district": "Jardim Tangara",
        "street": "Rua Das Safiras",
        "zipcode": "17516-130"
    },
    {
        "city": "Marilia",
        "state": "SP",
        "district": "Palmital",
        "street": "Rua Dezesseis De Setembro",
        "zipcode": "17510-240"
    },
    {
        "city": "Marilia",
        "state": "SP",
        "district": "Palmital",
        "street": "Rua America",
        "zipcode": "17510-200"
    },
    {
        "city": "Marilia",
        "state": "SP",
        "district": "Jardim Alvorada",
        "street": "Rua Leonidas De Oliveira",
        "zipcode": "17513-400"
    },
    {
        "city": "Marilia",
        "state": "SP",
        "district": "Palmital",
        "street": "Rua Brasilia",
        "zipcode": "17510-140"
    },
    {
        "city": "Marilia",
        "state": "SP",
        "district": "Palmital",
        "street": "Rua Herminio Scarabotolo",
        "zipcode": "17511-560"
    },
    {
        "city": "Marilia",
        "state": "SP",
        "district": "Palmital",
        "street": "Rua Jose Matheus Carlos",
        "zipcode": "17511-570"
    },
    {
        "city": "Marilia",
        "state": "SP",
        "district": "Palmital",
        "street": "Rua Evaristo Da Veiga",
        "zipcode": "17510-280"
    },
    {
        "city": "Marilia",
        "state": "SP",
        "district": "Jardim Luciana",
        "street": "Rua Jose Costa De Oliveira",
        "zipcode": "17514-390"
    },
    {
        "city": "Marilia",
        "state": "SP",
        "district": "Jardim Portal Do Sol",
        "street": "Rua Antonio Coercio",
        "zipcode": "17519-790"
    },
    {
        "city": "Marilia",
        "state": "SP",
        "district": "Fragata",
        "street": "Rua Hidekichi Nomura",
        "zipcode": "17519-800"
    },
    {
        "city": "Marilia",
        "state": "SP",
        "district": "Parque Sao Jorge",
        "street": "Rua Carlos Santili",
        "zipcode": "17520-390"
    },
    {
        "city": "Marilia",
        "state": "SP",
        "district": "Jardim Jequitiba",
        "street": "Rua Venancio Souza",
        "zipcode": "17514-250"
    },
    {
        "city": "Marilia",
        "state": "SP",
        "district": "Residencial Vale Verde",
        "street": "Rua Georgina Soares Barreto",
        "zipcode": "17514-210"
    },
    {
        "city": "Marilia",
        "state": "SP",
        "district": "Jardim Continental",
        "street": "Rua Abrao Pedro Badiz",
        "zipcode": "17524-270"
    },
    {
        "city": "Marilia",
        "state": "SP",
        "district": "Parque Dos Ipes",
        "street": "Rua Comendador Christino Altenfelder E Silva",
        "zipcode": "17523-383"
    },
    {
        "city": "Marilia",
        "state": "SP",
        "district": "Jardim Aeroporto",
        "street": "Rua Maria Cecilia Schuwenck Bayer",
        "zipcode": "17514-550"
    },
    {
        "city": "Marilia",
        "state": "SP",
        "district": "Jardim Cavallari",
        "street": "Rua Joao Furlanetto",
        "zipcode": "17526-180"
    },
    {
        "city": "Marilia",
        "state": "SP",
        "district": "Joquei Clube",
        "street": "Rua Francisco Fernandes Filho",
        "zipcode": "17521-470"
    },
    {
        "city": "Marilia",
        "state": "SP",
        "district": "Jardim Cavallari",
        "street": "Rua Humberto Degani",
        "zipcode": "17526-120"
    },
    {
        "city": "Marilia",
        "state": "SP",
        "district": "Luiz Homero Zaninotto",
        "street": "Rua Alexandre Chaia",
        "zipcode": "17521-020"
    },
    {
        "city": "Marilia",
        "state": "SP",
        "district": "Jardim Planalto",
        "street": "Rua Bartolo Bassalobre",
        "zipcode": "17523-210"
    },
    {
        "city": "Marilia",
        "state": "SP",
        "district": "Chacara Eliana",
        "street": "Rua Amador Bueno",
        "zipcode": "17527-000"
    },
    {
        "city": "Marilia",
        "state": "SP",
        "district": "Conj Habit Monsenhor Joao Batista Toffoli",
        "street": "Rua Samuel Monteiro Da Silva",
        "zipcode": "17524-040"
    },
    {
        "city": "Marilia",
        "state": "SP",
        "district": "Jardim Continental",
        "street": "Rua Manoel Brazil Camargo",
        "zipcode": "17524-300"
    },
    {
        "city": "Marilia",
        "state": "SP",
        "district": "Luiz Homero Zaninotto",
        "street": "Rua Jose Pelegrine",
        "zipcode": "17521-010"
    },
    {
        "city": "Marilia",
        "state": "SP",
        "district": "Jardim Teotonio Vilela",
        "street": "Rua Fernando Antonio Amorim",
        "zipcode": "17523-620"
    },
    {
        "city": "Marilia",
        "state": "SP",
        "district": "Jardim Continental",
        "street": "Rua Jose Lupino De Aguiar",
        "zipcode": "17524-200"
    },
    {
        "city": "Marilia",
        "state": "SP",
        "district": "Joquei Clube",
        "street": "Rua Guilherme Scheffer Netto",
        "zipcode": "17520-650"
    },
    {
        "city": "Marilia",
        "state": "SP",
        "district": "Jardim Monte Castelo",
        "street": "Rua Domingos Jorge Velho",
        "zipcode": "17523-520"
    },
    {
        "city": "Marilia",
        "state": "SP",
        "district": "Jardim Cavallari",
        "street": "Rua Darci Pinheiro",
        "zipcode": "17526-110"
    },
    {
        "city": "Marilia",
        "state": "SP",
        "district": "Jardim Monte Castelo",
        "street": "Avenida Martim Afonso",
        "zipcode": "17522-800"
    },
    {
        "city": "Marilia",
        "state": "SP",
        "district": "Jardim Continental",
        "street": "Rua Clotilde Calabresi Magalhaes",
        "zipcode": "17524-290"
    },
    {
        "city": "Marilia",
        "state": "SP",
        "district": "Hipica Paulista",
        "street": "Rua Celio Scarasati",
        "zipcode": "17520-470"
    },
    {
        "city": "Marilia",
        "state": "SP",
        "district": "Jardim Continental",
        "street": "Rua Dr Antonio Sylvio Cunha Bueno",
        "zipcode": "17524-260"
    },
    {
        "city": "Marilia",
        "state": "SP",
        "district": "Jardim Monte Castelo",
        "street": "Rua Carlos De Campos",
        "zipcode": "17522-810"
    },
    {
        "city": "Marilia",
        "state": "SP",
        "district": "Parque Dos Ipes",
        "street": "Rua Arlindo Borges",
        "zipcode": "17523-830"
    },
    {
        "city": "Marilia",
        "state": "SP",
        "district": "Jardim Continental",
        "street": "Avenida Sampaio Vidal",
        "zipcode": "17524-010"
    },
    {
        "city": "Marilia",
        "state": "SP",
        "district": "Nucleo Habit Nova Marilia",
        "street": "Avenida Joao Ramalho",
        "zipcode": "17522-000"
    },
    {
        "city": "Marilia",
        "state": "SP",
        "district": "Jardim Continental",
        "street": "Rua Adolfo Luis Viana",
        "zipcode": "17524-280"
    },
    {
        "city": "Marilia",
        "state": "SP",
        "district": "Jardim Teotonio Vilela",
        "street": "Rua Humberto Molica",
        "zipcode": "17523-540"
    },
    {
        "city": "Marilia",
        "state": "SP",
        "district": "Conj Habit Monsenhor Joao Batista Toffoli",
        "street": "Rua Gregorio Francozo",
        "zipcode": "17524-060"
    },
    {
        "city": "Marilia",
        "state": "SP",
        "district": "Hipica Paulista",
        "street": "Rua Francisco Laurelli",
        "zipcode": "17520-490"
    },
    {
        "city": "Marilia",
        "state": "SP",
        "district": "Parque Dos Ipes",
        "street": "Rua Abdo Haddad Filho",
        "zipcode": "17523-840"
    },
    {
        "city": "Marilia",
        "state": "SP",
        "district": "Jardim Continental",
        "street": "Rua Benjamin Ribeiro De Castro",
        "zipcode": "17524-130"
    },
    {
        "city": "Marilia",
        "state": "SP",
        "district": "Jardim Fontanelli",
        "street": "Rua Manoel Candido Batista",
        "zipcode": "17527-170"
    },
    {
        "city": "Marilia",
        "state": "SP",
        "district": "Jardim Monte Castelo",
        "street": "Avenida Mem De Sa",
        "zipcode": "17524-000"
    },
    {
        "city": "Marilia",
        "state": "SP",
        "district": "Jardim Marajo",
        "street": "Rua Tilfrid Hallgrem",
        "zipcode": "17521-040"
    },
    {
        "city": "Marilia",
        "state": "SP",
        "district": "Jardim Cavallari",
        "street": "Rua Arminda Dos Reis Gomes",
        "zipcode": "17526-130"
    },
    {
        "city": "Marilia",
        "state": "SP",
        "district": "Jardim Cavallari",
        "street": "Rua Izaias Profeta Do Espirito Santo",
        "zipcode": "17526-170"
    },
    {
        "city": "Marilia",
        "state": "SP",
        "district": "Jardim Fontanelli",
        "street": "Rodovia Carlos Tononi",
        "zipcode": "17527-550"
    },
    {
        "city": "Marilia",
        "state": "SP",
        "district": "Jardim Continental",
        "street": "Avenida Tome De Souza",
        "zipcode": "17524-310"
    },
    {
        "city": "Marilia",
        "state": "SP",
        "district": "Jardim Cavallari",
        "street": "Rua Joao Antonio Rodini",
        "zipcode": "17526-150"
    },
    {
        "city": "Marilia",
        "state": "SP",
        "district": "Distrito Industrial Santo Barion",
        "street": "Rua Josephina Nazari",
        "zipcode": "17512-267"
    },
    {
        "city": "Marilia",
        "state": "SP",
        "district": "Conj Habit Monsenhor Joao Batista Toffoli",
        "street": "Rua Yutaka Kamakura",
        "zipcode": "17524-050"
    },
    {
        "city": "Marilia",
        "state": "SP",
        "district": "Jardim Marajo",
        "street": "Rua Carlos Ferreira De Souza",
        "zipcode": "17521-050"
    },
    {
        "city": "Marilia",
        "state": "SP",
        "district": "Hipica Paulista",
        "street": "Rua Joao Gatto",
        "zipcode": "17520-480"
    },
    {
        "city": "Marilia",
        "state": "SP",
        "district": "Jardim Monte Castelo",
        "street": "Praça Monte Cassino",
        "zipcode": "17522-001"
    },
    {
        "city": "Marilia",
        "state": "SP",
        "district": "Jardim Continental",
        "street": "Rua Albino Ferreira",
        "zipcode": "17524-250"
    },
    {
        "city": "Marilia",
        "state": "SP",
        "district": "Jardim Marajo",
        "street": "Rua Kintaro Mitsuka",
        "zipcode": "17521-070"
    },
    {
        "city": "Marilia",
        "state": "SP",
        "district": "Palmital",
        "street": "Rua Jose Bonifacio",
        "zipcode": "17509-220"
    },
    {
        "city": "Marilia",
        "state": "SP",
        "district": "Alto Cafezal",
        "street": "Rua Rodrigues Alves",
        "zipcode": "17502-100"
    },
    {
        "city": "Marilia",
        "state": "SP",
        "district": "Alto Cafezal",
        "street": "Rua Catanduva",
        "zipcode": "17504-300"
    },
    {
        "city": "Marilia",
        "state": "SP",
        "district": "Alto Cafezal",
        "street": "Rua Araraquara",
        "zipcode": "17504-330"
    },
    {
        "city": "Marilia",
        "state": "SP",
        "district": "Alto Cafezal",
        "street": "Rua Campos Salles",
        "zipcode": "17504-360"
    },
    {
        "city": "Marilia",
        "state": "SP",
        "district": "Jardim Parati",
        "street": "Rua Antonio Gregorio",
        "zipcode": "17519-280"
    },
    {
        "city": "Marilia",
        "state": "SP",
        "district": "Parque Sao Jorge",
        "street": "Praça Padre Cristina",
        "zipcode": "17520-381"
    },
    {
        "city": "Marilia",
        "state": "SP",
        "district": "Conj Habit Monsenhor Joao Batista Toffoli",
        "street": "Rua Jovina De Baptista Raineri",
        "zipcode": "17524-030"
    },
    {
        "city": "Marilia",
        "state": "SP",
        "district": "Jardim Virginia",
        "street": "Rua Francisco Ardito",
        "zipcode": "17505-290"
    },
    {
        "city": "Marilia",
        "state": "SP",
        "district": "Somenzari",
        "street": "Rua Benjamin Pereira De Souza",
        "zipcode": "17506-140"
    },
    {
        "city": "Marilia",
        "state": "SP",
        "district": "Jardim Esplanada",
        "street": "Rua Azarias Carvalho Leme",
        "zipcode": "17521-000"
    },
    {
        "city": "Marilia",
        "state": "SP",
        "district": "Jardim Maria Izabel",
        "street": "Rua Das Agatas",
        "zipcode": "17516-600"
    },
    {
        "city": "Marilia",
        "state": "SP",
        "district": "Jardim Marajo",
        "street": "Rua Jose Pedro Pecegato",
        "zipcode": "17521-060"
    },
    {
        "city": "Marilia",
        "state": "SP",
        "district": "Sao Jose",
        "street": "Travessa Joao Fostinger",
        "zipcode": "17503-350"
    },
    {
        "city": "Marilia",
        "state": "SP",
        "district": "Jardim America",
        "street": "Rua Alfredo De Souza E Silva",
        "zipcode": "17507-660"
    },
    {
        "city": "Marilia",
        "state": "SP",
        "district": "Jardim Alvorada",
        "street": "Rua Antonio Vasquez Carrion",
        "zipcode": "17513-010"
    },
    {
        "city": "Marilia",
        "state": "SP",
        "district": "Parque Sao Jorge",
        "street": "Praça Ayrton Senna Da Silva",
        "zipcode": "17520-413"
    },
    {
        "city": "Marilia",
        "state": "SP",
        "district": "Nucleo Habit Cecap",
        "street": "Rua Jose Cimino",
        "zipcode": "17507-231"
    },
    {
        "city": "Marilia",
        "state": "SP",
        "district": "Jardim Aeroporto",
        "street": "Rua Engenheiro Joao Baptista Meiller",
        "zipcode": "17514-560"
    },
    {
        "city": "Marilia",
        "state": "SP",
        "district": "Jardim Teotonio Vilela",
        "street": "Rua Jose Cunha De Oliveira",
        "zipcode": "17523-633"
    },
    {
        "city": "Marilia",
        "state": "SP",
        "district": "Jardim Virginia",
        "street": "Rua Miguel Aguillar",
        "zipcode": "17505-400"
    },
    {
        "city": "Marilia",
        "state": "SP",
        "district": "Jardim Nacional",
        "street": "Rua Hermolino Rodrigues De Carvalho",
        "zipcode": "17523-373"
    },
    {
        "city": "Marilia",
        "state": "SP",
        "district": "Nucleo Habit Eliana Dias Mota",
        "street": "Rua Felix Jose Domingues",
        "zipcode": "17524-320"
    },
    {
        "city": "Marilia",
        "state": "SP",
        "district": "Jardim America",
        "street": "Rua Paulo Centrone",
        "zipcode": "17505-450"
    },
    {
        "city": "Marilia",
        "state": "SP",
        "district": "Nucleo Habit Juscelino Kubitschek",
        "street": "Rua Jose Gaundencio De Moura",
        "zipcode": "17511-700"
    },
    {
        "city": "Marilia",
        "state": "SP",
        "district": "Jardim Itaipu",
        "street": "Rua Diogo Terrao Fernandes",
        "zipcode": "17519-600"
    },
    {
        "city": "Marilia",
        "state": "SP",
        "district": "Residencial Vale Verde",
        "street": "Rua Jose Freire Sobrinho",
        "zipcode": "17514-230"
    },
    {
        "city": "Marilia",
        "state": "SP",
        "district": "Jardim Portal Do Sol",
        "street": "Rua Guido Cola",
        "zipcode": "17519-793"
    },
    {
        "city": "Marilia",
        "state": "SP",
        "district": "Jardim Iv Centenario",
        "street": "Praça Antonio Carlos Arias Fiorini",
        "zipcode": "17524-251"
    },
    {
        "city": "Marilia",
        "state": "SP",
        "district": "Cavalieri",
        "street": "Rua Angelo Fortunato",
        "zipcode": "17504-240"
    },
    {
        "city": "Marilia",
        "state": "SP",
        "district": "Nucleo Habit Helena Bernardes",
        "street": "Rua Laudelino Goncalves De Andrade",
        "zipcode": "17522-010"
    },
    {
        "city": "Marilia",
        "state": "SP",
        "district": "Jardim Tangara",
        "street": "Rua Leonel De Souza Barros",
        "zipcode": "17516-120"
    },
    {
        "city": "Marilia",
        "state": "SP",
        "district": "Palmital",
        "street": "Rua Gaspar De Lemos",
        "zipcode": "17511-200"
    },
    {
        "city": "Marilia",
        "state": "SP",
        "district": "Quarto Centenario",
        "street": "Praça Dos Pioneiros",
        "zipcode": "17503-003"
    },
    {
        "city": "Marilia",
        "state": "SP",
        "district": "Senador Salgado Filho",
        "street": "Rua Caicara",
        "zipcode": "17502-620"
    },
    {
        "city": "Marilia",
        "state": "SP",
        "district": "Canaa",
        "street": "Travessa Moyses Pedro Boassali",
        "zipcode": "17510-033"
    },
    {
        "city": "Marilia",
        "state": "SP",
        "district": "Fragata",
        "street": "Praça Do Contabilista",
        "zipcode": "17519-810"
    },
    {
        "city": "Marilia",
        "state": "SP",
        "district": "Palmital",
        "street": "Rua Joao Batista Detregiachi",
        "zipcode": "17511-580"
    },
    {
        "city": "Marilia",
        "state": "SP",
        "district": "Barbosa",
        "street": "Rua Floriano Peixoto",
        "zipcode": "17501-120"
    },
    {
        "city": "Marilia",
        "state": "SP",
        "district": "Fragata",
        "street": "Rua Carlos Ribeiro De Assis",
        "zipcode": "17519-670"
    },
    {
        "city": "Marilia",
        "state": "SP",
        "district": "Palmital",
        "street": "Praça Monsenhor Bicudo",
        "zipcode": "17510-201"
    },
    {
        "city": "Marilia",
        "state": "SP",
        "district": "Palmital",
        "street": "Rua Francisco Rodrigues Souto",
        "zipcode": "17511-620"
    },
    {
        "city": "Marilia",
        "state": "SP",
        "district": "Nucleo Habit Chico Mendes",
        "street": "Rua Guinetti Grassi",
        "zipcode": "17527-330"
    },
    {
        "city": "Marilia",
        "state": "SP",
        "district": "Jardim Santa Antonieta*",
        "street": "Rua Manoel Martins Seabra",
        "zipcode": "17512-070"
    },
    {
        "city": "Marilia",
        "state": "SP",
        "district": "Mariana",
        "street": "Avenida Republica",
        "zipcode": "17510-000"
    },
    {
        "city": "Marilia",
        "state": "SP",
        "district": "Palmital",
        "street": "Rua Padre Francisco Rodrigues De Camargo",
        "zipcode": "17511-225"
    },
    {
        "city": "Marilia",
        "state": "SP",
        "district": "Barros",
        "street": "Rua Afonso Pena",
        "zipcode": "17510-330"
    },
    {
        "city": "Marilia",
        "state": "SP",
        "district": "Palmital",
        "street": "Praça Tetsuo Okamoto",
        "zipcode": "17510-231"
    },
    {
        "city": "Marilia",
        "state": "SP",
        "district": "Higienopolis",
        "street": "Avenida Maria Fernandes Cavallari",
        "zipcode": "17526-160"
    },
    {
        "city": "Marilia",
        "state": "SP",
        "district": "Jardim Monte Castelo",
        "street": "Rua Jose De Alencar",
        "zipcode": "17522-820"
    },
    {
        "city": "Marilia",
        "state": "SP",
        "district": "Alto Cafezal",
        "street": "Rua Sao Carlos",
        "zipcode": "17504-320"
    },
    {
        "city": "Marilia",
        "state": "SP",
        "district": "Fragata",
        "street": "Praça Uriel Ruiz Etelli",
        "zipcode": "17501-111"
    },
    {
        "city": "Marilia",
        "state": "SP",
        "district": "Jardim Portal Do Sol",
        "street": "Avenida Sampaio Vidal",
        "zipcode": "17519-550"
    },
    {
        "city": "Marilia",
        "state": "SP",
        "district": "Jardim Vista Alegre",
        "street": "Rua Alcindo Saul Amaral",
        "zipcode": "17520-060"
    },
    {
        "city": "Marilia",
        "state": "SP",
        "district": "Jardim Teotonio Vilela",
        "street": "Rua Joao Correa De Carvalho",
        "zipcode": "17523-630"
    },
    {
        "city": "Marilia",
        "state": "SP",
        "district": "Jardim Portal Do Sol",
        "street": "Rua Otavio Luiz Bonato",
        "zipcode": "17519-791"
    },
    {
        "city": "Marilia",
        "state": "SP",
        "district": "Fragata",
        "street": "Rua Raul Torres",
        "zipcode": "17519-630"
    },
    {
        "city": "Marilia",
        "state": "SP",
        "district": "Nucleo Habit Chico Mendes",
        "street": "Rua Anna Saraiva Pavarini",
        "zipcode": "17527-320"
    },
    {
        "city": "Marilia",
        "state": "SP",
        "district": "Distrito Industrial Santo Barion",
        "street": "Avenida Yusaburo Sasazaki",
        "zipcode": "17512-263"
    },
    {
        "city": "Marilia",
        "state": "SP",
        "district": "Palmital",
        "street": "Rua Etelvina Teixeira Da Silva",
        "zipcode": "17511-600"
    },
    {
        "city": "Marilia",
        "state": "SP",
        "district": "Jardim Parati",
        "street": "Rua Stephano Mattiuzzo",
        "zipcode": "17519-360"
    },
    {
        "city": "Marilia",
        "state": "SP",
        "district": "Jardim Tangara",
        "street": "Rua Braz Sampieri",
        "zipcode": "17516-160"
    },
    {
        "city": "Marilia",
        "state": "SP",
        "district": "Alto Cafezal",
        "street": "Rua Dr Joaquim De Abreu Sampaio Vidal",
        "zipcode": "17504-280"
    },
    {
        "city": "Marilia",
        "state": "SP",
        "district": "Jardim Casadei",
        "street": "Rua Eleudino Regadas Garcia",
        "zipcode": "17519-770"
    },
    {
        "city": "Marilia",
        "state": "SP",
        "district": "Palmital",
        "street": "Rua Rui Barbosa",
        "zipcode": "17509-360"
    },
    {
        "city": "Marilia",
        "state": "SP",
        "district": "Jardim Polyana",
        "street": "Avenida Ermelinda Clarice Sanches Casarini",
        "zipcode": "17527-540"
    },
    {
        "city": "Marilia",
        "state": "SP",
        "district": "Sao Jose",
        "street": "Rua Joao Batista De Freitas Neto",
        "zipcode": "17502-470"
    },
    {
        "city": "Marilia",
        "state": "SP",
        "district": "Jardim Cavallari",
        "street": "Rua Arlindo Joaquim Lopes",
        "zipcode": "17526-140"
    },
    {
        "city": "Marilia",
        "state": "SP",
        "district": "Distrito Industrial Santo Barion",
        "street": "Rua Raquel Atallah Spressao",
        "zipcode": "17512-265"
    }
]