[
    {
        "city": "Mococa",
        "state": "SP",
        "district": "Jardim Nova Mococa",
        "street": "Rua Rio Grande Do Norte",
        "zipcode": "13731-190"
    },
    {
        "city": "Mococa",
        "state": "SP",
        "district": "Vila Santa Rosa",
        "street": "Praça Miguel Scovini",
        "zipcode": "13731-289"
    },
    {
        "city": "Mococa",
        "state": "SP",
        "district": "Portal da Cidade",
        "street": "Rua José Mazieiro",
        "zipcode": "13733-468"
    },
    {
        "city": "Mococa",
        "state": "SP",
        "district": "Jardim Lavínia",
        "street": "Rua Equador",
        "zipcode": "13736-269"
    },
    {
        "city": "Mococa",
        "state": "SP",
        "district": "Jardim Lavínia",
        "street": "Rua Panamá",
        "zipcode": "13738-230"
    },
    {
        "city": "Mococa",
        "state": "SP",
        "district": "Jardim Gatolândia",
        "street": "Rua Professora Zenaide Pereira Ribeiro Rocha",
        "zipcode": "13731-360"
    },
    {
        "city": "Mococa",
        "state": "SP",
        "district": "Jardim Gatolândia",
        "street": "Rodovia SP",
        "zipcode": "13731-450"
    },
    {
        "city": "Mococa",
        "state": "SP",
        "district": "Jardim Santa Maria",
        "street": "Rua Francisco Antonio Corrêa",
        "zipcode": "13730-286"
    },
    {
        "city": "Mococa",
        "state": "SP",
        "district": "Jardim São Domingos",
        "street": "Praça João Batista Caixeta",
        "zipcode": "13733-109"
    },
    {
        "city": "Mococa",
        "state": "SP",
        "district": "Portal da Cidade",
        "street": "Rua Antonio Carlos Peixeiro",
        "zipcode": "13733-465"
    },
    {
        "city": "Mococa",
        "state": "SP",
        "district": "Vila Maria",
        "street": "Avenida José Vieira Barreto Júnior",
        "zipcode": "13730-450"
    },
    {
        "city": "Mococa",
        "state": "SP",
        "district": "Jardim Maziero",
        "street": "Rua Edmundo Dante Calió",
        "zipcode": "13733-441"
    },
    {
        "city": "Mococa",
        "state": "SP",
        "district": "Jardim Santa Cecília",
        "street": "Rua Major Benjamin Coelho Moreira Magalhães",
        "zipcode": "13733-060"
    },
    {
        "city": "Mococa",
        "state": "SP",
        "district": "Portal da Cidade",
        "street": "Rua Milton Gonçalves Dias",
        "zipcode": "13733-474"
    },
    {
        "city": "Mococa",
        "state": "SP",
        "district": "Jardim Maziero",
        "street": "Rua Julieta Camparotto Prini",
        "zipcode": "13733-446"
    },
    {
        "city": "Mococa",
        "state": "SP",
        "district": "Jardim Alvorada",
        "street": "Rua Raul Garib",
        "zipcode": "13732-520"
    },
    {
        "city": "Mococa",
        "state": "SP",
        "district": "Jardim São Domingos",
        "street": "Rua Tufi João Domingos",
        "zipcode": "13733-390"
    },
    {
        "city": "Mococa",
        "state": "SP",
        "district": "Jardim Alvorada",
        "street": "Rua Caetano Calio",
        "zipcode": "13732-549"
    },
    {
        "city": "Mococa",
        "state": "SP",
        "district": "Residencial Carlito Quilici",
        "street": "Rua Leodora Cândida da Silva Ventura",
        "zipcode": "13733-520"
    },
    {
        "city": "Mococa",
        "state": "SP",
        "district": "Loteamento Residencial e Comercial Jardim Lago dos Ipês",
        "street": "Rua Agnelo Gomes",
        "zipcode": "13735-707"
    },
    {
        "city": "Mococa",
        "state": "SP",
        "district": "Conjunto Habitacional Nelson Niero",
        "street": "Avenida Professora Maria Leite Cunha Pereira",
        "zipcode": "13734-577"
    },
    {
        "city": "Mococa",
        "state": "SP",
        "district": "Jardim da Paineira",
        "street": "Avenida Orozimbo Bernardes",
        "zipcode": "13735-090"
    },
    {
        "city": "Mococa",
        "state": "SP",
        "district": "Cecap I",
        "street": "Rua Alexandre Cunali",
        "zipcode": "13732-090"
    },
    {
        "city": "Mococa",
        "state": "SP",
        "district": "Jardim Alvorada",
        "street": "Praça Professor João Cid de Godoy",
        "zipcode": "13732-545"
    },
    {
        "city": "Mococa",
        "state": "SP",
        "district": "Aparecida",
        "street": "Rua Antônio Souza Lima",
        "zipcode": "13735-068"
    },
    {
        "city": "Mococa",
        "state": "SP",
        "district": "Jardim Santa Clara",
        "street": "Rua Catulo da Paixão Cearense",
        "zipcode": "13735-350"
    },
    {
        "city": "Mococa",
        "state": "SP",
        "district": "Residencial Mais Parque Mococa",
        "street": "Rua Catulo da Paixão Cearense",
        "zipcode": "13735-354"
    },
    {
        "city": "Mococa",
        "state": "SP",
        "district": "Jardim Alcebiades Quilice",
        "street": "Rua Benedito José de Souza",
        "zipcode": "13736-884"
    },
    {
        "city": "Mococa",
        "state": "SP",
        "district": "Condomínio Casas do Monte Belo",
        "street": "Rua Doutor Calixto José Pereira",
        "zipcode": "13737-165"
    },
    {
        "city": "Mococa",
        "state": "SP",
        "district": "Vila Maria",
        "street": "Rua Capitão Emílio de Toledo",
        "zipcode": "13730-460"
    },
    {
        "city": "Mococa",
        "state": "SP",
        "district": "Cecap I",
        "street": "Rua Coelho Netto",
        "zipcode": "13732-088"
    },
    {
        "city": "Mococa",
        "state": "SP",
        "district": "Residencial Barra Feita",
        "street": "Rua Gabriel Alves Madeira",
        "zipcode": "13735-704"
    },
    {
        "city": "Mococa",
        "state": "SP",
        "district": "Loteamento Residencial e Comercial Jardim Lago dos Ipês",
        "street": "Rua Éder Ferreira da Costa",
        "zipcode": "13735-722"
    },
    {
        "city": "Mococa",
        "state": "SP",
        "district": "Vila Quintino",
        "street": "Rua Florianópolis",
        "zipcode": "13736-200"
    },
    {
        "city": "Mococa",
        "state": "SP",
        "district": "Conjunto Habitacional Nelson Niero",
        "street": "Rua Milton Gonçalves Dias",
        "zipcode": "13734-572"
    },
    {
        "city": "Mococa",
        "state": "SP",
        "district": "Jardim São Luiz",
        "street": "Rua Mário Bedin",
        "zipcode": "13735-057"
    },
    {
        "city": "Mococa",
        "state": "SP",
        "district": "Residencial Mais Parque Mococa",
        "street": "Rua Maria José Máximo",
        "zipcode": "13735-374"
    },
    {
        "city": "Mococa",
        "state": "SP",
        "district": "Loteamento Residencial e Comercial Jardim Lago dos Ipês",
        "street": "Rua Lina Leopoldina Pinheiro",
        "zipcode": "13735-706"
    },
    {
        "city": "Mococa",
        "state": "SP",
        "district": "Chácara do Vale",
        "street": "Rua das Jabuticabeiras",
        "zipcode": "13735-550"
    },
    {
        "city": "Mococa",
        "state": "SP",
        "district": "Residencial Itálico Maziero",
        "street": "Rua José Olympio de Melo",
        "zipcode": "13736-680"
    },
    {
        "city": "Mococa",
        "state": "SP",
        "district": "Jardim Lavínia",
        "street": "Rua Peru",
        "zipcode": "13736-229"
    },
    {
        "city": "Mococa",
        "state": "SP",
        "district": "Loteamento Residencial Vale Verde",
        "street": "Rua Nelson Honório Purcino",
        "zipcode": "13737-263"
    },
    {
        "city": "Mococa",
        "state": "SP",
        "district": "Jardim Santa Clara",
        "street": "Rua Juarez Quintino Pereira",
        "zipcode": "13735-320"
    },
    {
        "city": "Mococa",
        "state": "SP",
        "district": "Loteamento Residencial e Comercial Jardim Lago dos Ipês",
        "street": "Rua Antônio Gilberto Lúcio",
        "zipcode": "13735-714"
    },
    {
        "city": "Mococa",
        "state": "SP",
        "district": "Jardim São José",
        "street": "Rua Anestaro Antonio Ferreira",
        "zipcode": "13736-623"
    },
    {
        "city": "Mococa",
        "state": "SP",
        "district": "Residencial Itálico Maziero",
        "street": "Rua Carolina dos Santos Dias",
        "zipcode": "13736-682"
    },
    {
        "city": "Mococa",
        "state": "SP",
        "district": "Residencial Itálico Maziero",
        "street": "Rua João de Souza Dias",
        "zipcode": "13736-686"
    },
    {
        "city": "Mococa",
        "state": "SP",
        "district": "Loteamento Residencial Jardim Padre Demósthenes",
        "street": "Rua Manuel Gabriel",
        "zipcode": "13736-896"
    },
    {
        "city": "Mococa",
        "state": "SP",
        "district": "Terras de Santa Marina",
        "street": "Rua Augusto Xavier de Souza",
        "zipcode": "13737-058"
    },
    {
        "city": "Mococa",
        "state": "SP",
        "district": "Loteamento Residencial Vale Verde",
        "street": "Rua Joaquim Leal Filho",
        "zipcode": "13737-278"
    },
    {
        "city": "Mococa",
        "state": "SP",
        "district": "Loteamento Residencial Vale Verde",
        "street": "Rua Maria José Leoncio Cristino",
        "zipcode": "13737-284"
    },
    {
        "city": "Mococa",
        "state": "SP",
        "district": "Conjunto Habitacional Gilberto Rossetti",
        "street": "Rua Professora Eliza Maia Norte",
        "zipcode": "13737-300"
    },
    {
        "city": "Mococa",
        "state": "SP",
        "district": "Conjunto Habitacional Gilberto Rossetti",
        "street": "Rua Giordano Dal Rio",
        "zipcode": "13737-350"
    },
    {
        "city": "Mococa",
        "state": "SP",
        "district": "Conjunto Habitacional Gilberto Rossetti",
        "street": "Rua Caetano Scarparo",
        "zipcode": "13737-367"
    },
    {
        "city": "Mococa",
        "state": "SP",
        "district": "Conjunto Habitacional Gilberto Rossetti",
        "street": "Rua Adolfo Maziero",
        "zipcode": "13737-380"
    },
    {
        "city": "Mococa",
        "state": "SP",
        "district": "Chácara Palmeirinha",
        "street": "Rua Brejauba",
        "zipcode": "13737-435"
    },
    {
        "city": "Mococa",
        "state": "SP",
        "district": "Conjunto Habitacional Luiz Fernandes Dias",
        "street": "Rua Doutor José Eduardo Ferraz de Siqueira",
        "zipcode": "13737-503"
    },
    {
        "city": "Mococa",
        "state": "SP",
        "district": "Conjunto Habitacional Gilberto Rossetti",
        "street": "Rua Antônio Santolin",
        "zipcode": "13737-647"
    },
    {
        "city": "Mococa",
        "state": "SP",
        "district": "Conjunto Habitacional Gilberto Rossetti",
        "street": "Rua Secondo Brisighello",
        "zipcode": "13737-660"
    },
    {
        "city": "Mococa",
        "state": "SP",
        "district": "Conjunto Habitacional Gilberto Rossetti",
        "street": "Rua Fernando Fraissat",
        "zipcode": "13737-664"
    },
    {
        "city": "Mococa",
        "state": "SP",
        "district": "Conjunto Habitacional Gilberto Rossetti",
        "street": "Rua José Boaratti",
        "zipcode": "13737-673"
    },
    {
        "city": "Mococa",
        "state": "SP",
        "district": "Chácara dos Ipês",
        "street": "Rua Dois",
        "zipcode": "13737-685"
    },
    {
        "city": "Mococa",
        "state": "SP",
        "district": "Conjunto Habitacional Gildo Geraldo",
        "street": "Avenida Roque Alegretti",
        "zipcode": "13737-785"
    },
    {
        "city": "Mococa",
        "state": "SP",
        "district": "Chácara Bela Vista",
        "street": "Rua Leônidas Horta Marcedo",
        "zipcode": "13738-310"
    },
    {
        "city": "Mococa",
        "state": "SP",
        "district": "Jardim Riachuelo II",
        "street": "Rua Dona Jova Espanha",
        "zipcode": "13738-534"
    },
    {
        "city": "Mococa",
        "state": "SP",
        "district": "Jardim Riachuelo II",
        "street": "Rua Ademar Custódio de Freitas",
        "zipcode": "13738-536"
    },
    {
        "city": "Mococa",
        "state": "SP",
        "district": "Jardim Boa Vista",
        "street": "Rua Antonio Fernandes",
        "zipcode": "13735-130"
    },
    {
        "city": "Mococa",
        "state": "SP",
        "district": "Aparecida",
        "street": "Rua Coronel Carvalhães",
        "zipcode": "13735-067"
    },
    {
        "city": "Mococa",
        "state": "SP",
        "district": "Jardim Planalto Verde",
        "street": "Rua Antônio José de Souza",
        "zipcode": "13736-355"
    },
    {
        "city": "Mococa",
        "state": "SP",
        "district": "Jardim da Paineira",
        "street": "Rua João Batista Pereira",
        "zipcode": "13735-100"
    },
    {
        "city": "Mococa",
        "state": "SP",
        "district": "Jardim Santa Clara",
        "street": "Rua João Anzaloni Filho",
        "zipcode": "13735-200"
    },
    {
        "city": "Mococa",
        "state": "SP",
        "district": "Jardim da Paineira",
        "street": "Rua Julio de Oliveira",
        "zipcode": "13735-108"
    },
    {
        "city": "Mococa",
        "state": "SP",
        "district": "Loteamento Residencial e Comercial Jardim Lago dos Ipês",
        "street": "Rua Luzia Santurbano Uliam",
        "zipcode": "13735-720"
    },
    {
        "city": "Mococa",
        "state": "SP",
        "district": "Jardim Chico Piscina",
        "street": "Rua Maximiliano Adreoli",
        "zipcode": "13736-490"
    },
    {
        "city": "Mococa",
        "state": "SP",
        "district": "Santa Helena",
        "street": "Rua José Nasser",
        "zipcode": "13736-514"
    },
    {
        "city": "Mococa",
        "state": "SP",
        "district": "Jardim da Paineira",
        "street": "Rua Roberto Converso",
        "zipcode": "13735-092"
    },
    {
        "city": "Mococa",
        "state": "SP",
        "district": "Jardim Primavera",
        "street": "Rua João Goulart",
        "zipcode": "13738-570"
    },
    {
        "city": "Mococa",
        "state": "SP",
        "district": "Parque dos Manacás I",
        "street": "Rua Frederico Verzolla",
        "zipcode": "13739-123"
    },
    {
        "city": "Mococa",
        "state": "SP",
        "district": "Parque dos Manacás I",
        "street": "Rua Olímpio Meireles de Andrade",
        "zipcode": "13739-129"
    },
    {
        "city": "Mococa",
        "state": "SP",
        "district": "Parque dos Manacás I",
        "street": "Rua Paulo Rezende de Carvalho",
        "zipcode": "13739-139"
    },
    {
        "city": "Mococa",
        "state": "SP",
        "district": "Condomínio Boa Vista",
        "street": "Rua Alvino Laurenço",
        "zipcode": "13740-002"
    },
    {
        "city": "Mococa",
        "state": "SP",
        "district": "Jardim Santa Cecília",
        "street": "Avenida João Batista Lima Figueiredo",
        "zipcode": "13733-045"
    },
    {
        "city": "Mococa",
        "state": "SP",
        "district": "Jardim Maziero",
        "street": "Rua Antonia Madalena Copani Maziero",
        "zipcode": "13733-443"
    },
    {
        "city": "Mococa",
        "state": "SP",
        "district": "Vila Santa Cruz",
        "street": "Rua José Lima Pedreira de Freitas",
        "zipcode": "13734-240"
    },
    {
        "city": "Mococa",
        "state": "SP",
        "district": "Jardim São Luiz",
        "street": "Rua Marcelo Garcia de Figueiredo",
        "zipcode": "13735-042"
    },
    {
        "city": "Mococa",
        "state": "SP",
        "district": "Jardim São Luiz",
        "street": "Rua Luiz Antônio Fernandes Dias",
        "zipcode": "13735-059"
    },
    {
        "city": "Mococa",
        "state": "SP",
        "district": "Residencial Mais Parque Mococa",
        "street": "Rua Francisco Manuel da Silva",
        "zipcode": "13735-352"
    },
    {
        "city": "Mococa",
        "state": "SP",
        "district": "Loteamento Altos do Vale",
        "street": "Rua Gabriel Alves Madeira",
        "zipcode": "13735-652"
    },
    {
        "city": "Mococa",
        "state": "SP",
        "district": "Loteamento Residencial e Comercial Jardim Lago dos Ipês",
        "street": "Rua Doutor Aureliano Duarte",
        "zipcode": "13735-715"
    },
    {
        "city": "Mococa",
        "state": "SP",
        "district": "Núcleo Habitacional Nenê Pereira Lima",
        "street": "Rua Varo Borges dos Reis",
        "zipcode": "13732-410"
    },
    {
        "city": "Mococa",
        "state": "SP",
        "district": "Núcleo Habitacional Nenê Pereira Lima",
        "street": "Rua Raul Roberto Campos",
        "zipcode": "13732-419"
    },
    {
        "city": "Mococa",
        "state": "SP",
        "district": "Jardim Botânico",
        "street": "Rua Antonio Fernando Pereira de Carvalho",
        "zipcode": "13733-565"
    },
    {
        "city": "Mococa",
        "state": "SP",
        "district": "Santa Terezinha I",
        "street": "Rua Benedito Luiz de Moraes",
        "zipcode": "13736-658"
    },
    {
        "city": "Mococa",
        "state": "SP",
        "district": "Loteamento Residencial Vale Verde",
        "street": "Rua Luiz Carlos Quintino Batista",
        "zipcode": "13737-270"
    },
    {
        "city": "Mococa",
        "state": "SP",
        "district": "Loteamento Residencial Vale Verde",
        "street": "Avenida Waldemar Moreira da Silva",
        "zipcode": "13737-274"
    },
    {
        "city": "Mococa",
        "state": "SP",
        "district": "Loteamento Residencial Vale Verde",
        "street": "Rua José Benedito Silvério",
        "zipcode": "13737-291"
    },
    {
        "city": "Mococa",
        "state": "SP",
        "district": "Conjunto Habitacional Gilberto Rossetti",
        "street": "Rua José Ribeiro",
        "zipcode": "13737-313"
    },
    {
        "city": "Mococa",
        "state": "SP",
        "district": "Chácara Palmeirinha",
        "street": "Avenida Gilberto Vergueiro da Silva",
        "zipcode": "13737-460"
    },
    {
        "city": "Mococa",
        "state": "SP",
        "district": "Chácara Palmeirinha",
        "street": "Rua Tucumã",
        "zipcode": "13737-475"
    },
    {
        "city": "Mococa",
        "state": "SP",
        "district": "Conjunto Habitacional Gilberto Rossetti",
        "street": "Rua Pedro Converso",
        "zipcode": "13737-607"
    },
    {
        "city": "Mococa",
        "state": "SP",
        "district": "Conjunto Habitacional Gilberto Rossetti",
        "street": "Rua Natal Batistela",
        "zipcode": "13737-617"
    },
    {
        "city": "Mococa",
        "state": "SP",
        "district": "Conjunto Habitacional Gilberto Rossetti",
        "street": "Rua Antônio Marchesini",
        "zipcode": "13737-640"
    },
    {
        "city": "Mococa",
        "state": "SP",
        "district": "Conjunto Habitacional Gildo Geraldo",
        "street": "Rua José do Carmo Silva",
        "zipcode": "13737-760"
    },
    {
        "city": "Mococa",
        "state": "SP",
        "district": "Conjunto Habitacional Gildo Geraldo",
        "street": "Praça Álvaro Lima Guedes",
        "zipcode": "13737-810"
    },
    {
        "city": "Mococa",
        "state": "SP",
        "district": "Jardim Morro Azul",
        "street": "Rua das Quaresmeiras",
        "zipcode": "13738-058"
    },
    {
        "city": "Mococa",
        "state": "SP",
        "district": "Jardim Riachuelo",
        "street": "Rua Agustinho Baptistela",
        "zipcode": "13738-500"
    },
    {
        "city": "Mococa",
        "state": "SP",
        "district": "Jardim Riachuelo II",
        "street": "Rua Dante Marobi",
        "zipcode": "13738-532"
    },
    {
        "city": "Mococa",
        "state": "SP",
        "district": "Jardim Primavera",
        "street": "Rua Arthur Bernardes",
        "zipcode": "13738-550"
    },
    {
        "city": "Mococa",
        "state": "SP",
        "district": "Jardim Primavera",
        "street": "Rua Getúlio Vargas",
        "zipcode": "13738-575"
    },
    {
        "city": "Mococa",
        "state": "SP",
        "district": "Jardim São Domingos",
        "street": "Rua Sílvio Costa Lima",
        "zipcode": "13733-220"
    },
    {
        "city": "Mococa",
        "state": "SP",
        "district": "Vila Quintino",
        "street": "Rua Manaus",
        "zipcode": "13736-130"
    },
    {
        "city": "Mococa",
        "state": "SP",
        "district": "Jardim Chico Piscina",
        "street": "Rua Pedro Picoli",
        "zipcode": "13736-410"
    },
    {
        "city": "Mococa",
        "state": "SP",
        "district": "Jardim Chico Piscina",
        "street": "Rua Doutor João Bravo Caldeira",
        "zipcode": "13736-430"
    },
    {
        "city": "Mococa",
        "state": "SP",
        "district": "Loteamento Residencial Vale Verde",
        "street": "Rua Francisco de Assis e Souza",
        "zipcode": "13737-281"
    },
    {
        "city": "Mococa",
        "state": "SP",
        "district": "Conjunto Habitacional Luiz Fernandes Dias",
        "street": "Rua Oswaldo de Souza Dias",
        "zipcode": "13737-505"
    },
    {
        "city": "Mococa",
        "state": "SP",
        "district": "Conjunto Habitacional Gildo Geraldo",
        "street": "Rua Luiz Pires de Camargo",
        "zipcode": "13737-770"
    },
    {
        "city": "Mococa",
        "state": "SP",
        "district": "Jardim Morro Azul",
        "street": "Rua dos Alecrins",
        "zipcode": "13738-055"
    },
    {
        "city": "Mococa",
        "state": "SP",
        "district": "Jardim Morro Azul",
        "street": "Rua das Amendoeiras",
        "zipcode": "13738-067"
    },
    {
        "city": "Mococa",
        "state": "SP",
        "district": "Jardim Riachuelo",
        "street": "Rua Dante Marobi",
        "zipcode": "13738-520"
    },
    {
        "city": "Mococa",
        "state": "SP",
        "district": "Jardim Riachuelo II",
        "street": "Avenida Rodrigues Alves",
        "zipcode": "13738-530"
    },
    {
        "city": "Mococa",
        "state": "SP",
        "district": "Jardim Primavera",
        "street": "Avenida Rodrigues Alves",
        "zipcode": "13738-580"
    },
    {
        "city": "Mococa",
        "state": "SP",
        "district": "Conjunto Habitacional Nelson Niero",
        "street": "Rua Edmundo Dante Calió",
        "zipcode": "13734-570"
    },
    {
        "city": "Mococa",
        "state": "SP",
        "district": "Jardim Chico Piscina",
        "street": "Rua Francisco Garofalo",
        "zipcode": "13736-459"
    },
    {
        "city": "Mococa",
        "state": "SP",
        "district": "Terras de Santa Marina",
        "street": "Rua Francisco Gabriel Fernandes",
        "zipcode": "13737-062"
    },
    {
        "city": "Mococa",
        "state": "SP",
        "district": "Conjunto Habitacional Luiz Fernandes Dias",
        "street": "Rua Plínio Silva",
        "zipcode": "13737-507"
    },
    {
        "city": "Mococa",
        "state": "SP",
        "district": "Conjunto Habitacional Gilberto Rossetti",
        "street": "Avenida Monsenhor Demosthenes Paraná Brasil Pontes",
        "zipcode": "13737-632"
    },
    {
        "city": "Mococa",
        "state": "SP",
        "district": "Jardim São Domingos",
        "street": "Rua João Batista de Carvalho",
        "zipcode": "13732-670"
    },
    {
        "city": "Mococa",
        "state": "SP",
        "district": "Vila Quintino",
        "street": "Rua Goiânia",
        "zipcode": "13736-078"
    },
    {
        "city": "Mococa",
        "state": "SP",
        "district": "Conjunto Habitacional Gildo Geraldo",
        "street": "Avenida Paulo Zerbinatti",
        "zipcode": "13737-780"
    },
    {
        "city": "Mococa",
        "state": "SP",
        "district": "Jardim Progresso",
        "street": "Rua Professora Zezé Barreto",
        "zipcode": "13736-382"
    },
    {
        "city": "Mococa",
        "state": "SP",
        "district": "Centro",
        "street": "Avenida da Saudade",
        "zipcode": "13730-240"
    },
    {
        "city": "Mococa",
        "state": "SP",
        "district": "Residencial Samambaia",
        "street": "Rua Caetano Spadaro",
        "zipcode": "13734-276"
    },
    {
        "city": "Mococa",
        "state": "SP",
        "district": "Portal da Cidade",
        "street": "Rua Alzira Della Coleta Januário",
        "zipcode": "13733-464"
    },
    {
        "city": "Mococa",
        "state": "SP",
        "district": "Portal da Cidade",
        "street": "Rua Antônio Carlos Seixas",
        "zipcode": "13733-473"
    },
    {
        "city": "Mococa",
        "state": "SP",
        "district": "Conjunto Habitacional Nelson Niero",
        "street": "Avenida Professora Maria Leite Cunha Pereira",
        "zipcode": "13734-578"
    },
    {
        "city": "Mococa",
        "state": "SP",
        "district": "Jardim Itália",
        "street": "Rua Antonia Apparecida Borges Bidin",
        "zipcode": "13734-594"
    },
    {
        "city": "Mococa",
        "state": "SP",
        "district": "Jardim Itália",
        "street": "Avenida Professora Maria Leite Cunha Pereira",
        "zipcode": "13734-597"
    },
    {
        "city": "Mococa",
        "state": "SP",
        "district": "Jardim Boa Vista",
        "street": "Rua Antonio Carlos da Costa",
        "zipcode": "13735-136"
    },
    {
        "city": "Mococa",
        "state": "SP",
        "district": "Portal da Cidade",
        "street": "Rua Benedito Franzoni",
        "zipcode": "13733-460"
    },
    {
        "city": "Mococa",
        "state": "SP",
        "district": "Portal da Cidade",
        "street": "Rua Antonio Salomão",
        "zipcode": "13733-469"
    },
    {
        "city": "Mococa",
        "state": "SP",
        "district": "Residencial Mais Parque Mococa",
        "street": "Rua Bárbara Lucia de Magalhães Cavellani",
        "zipcode": "13735-366"
    },
    {
        "city": "Mococa",
        "state": "SP",
        "district": "Jardim das Figueiras",
        "street": "Rua Dante Marobi",
        "zipcode": "13737-113"
    },
    {
        "city": "Mococa",
        "state": "SP",
        "district": "Loteamento Residencial e Comercial Jardim Lago dos Ipês",
        "street": "Rua Alípio Jorge Naufel",
        "zipcode": "13735-711"
    },
    {
        "city": "Mococa",
        "state": "SP",
        "district": "Loteamento Residencial Vale Verde",
        "street": "Rua Antonia Uga Vital",
        "zipcode": "13737-271"
    },
    {
        "city": "Mococa",
        "state": "SP",
        "district": "Loteamento Residencial Vale Verde",
        "street": "Rua Anisio Ferreira de Resende",
        "zipcode": "13737-282"
    },
    {
        "city": "Mococa",
        "state": "SP",
        "district": "Parque dos Manacás I",
        "street": "Avenida Olga Pinheiro Barison",
        "zipcode": "13739-121"
    },
    {
        "city": "Mococa",
        "state": "SP",
        "district": "Condomínio Boa Vista",
        "street": "Avenida Marcelo Ananias",
        "zipcode": "13740-004"
    },
    {
        "city": "Mococa",
        "state": "SP",
        "district": "Loteamento Residencial e Comercial Jardim Lago dos Ipês",
        "street": "Rua Antonio Del Pintor",
        "zipcode": "13735-710"
    },
    {
        "city": "Mococa",
        "state": "SP",
        "district": "Loteamento Residencial e Comercial Jardim Lago dos Ipês",
        "street": "Rua Adevair Rosa",
        "zipcode": "13735-725"
    },
    {
        "city": "Mococa",
        "state": "SP",
        "district": "Loteamento Residencial Vale Verde",
        "street": "Rua Angelo Abeline",
        "zipcode": "13737-266"
    },
    {
        "city": "Mococa",
        "state": "SP",
        "district": "Loteamento Residencial Vale Verde",
        "street": "Rua Luiz Gino Spinelli",
        "zipcode": "13737-287"
    },
    {
        "city": "Mococa",
        "state": "SP",
        "district": "Loteamento Residencial Vale Verde",
        "street": "Rua Ana Beatriz Suano",
        "zipcode": "13737-290"
    },
    {
        "city": "Mococa",
        "state": "SP",
        "district": "Loteamento Residencial Vale Verde",
        "street": "Rua Alípio João",
        "zipcode": "13737-292"
    },
    {
        "city": "Mococa",
        "state": "SP",
        "district": "Condomínio Boa Vista",
        "street": "Estrada Alexandre Cunali",
        "zipcode": "13740-000"
    },
    {
        "city": "Mococa",
        "state": "SP",
        "district": "Portal da Cidade",
        "street": "Rua Antonio Trambini",
        "zipcode": "13733-461"
    },
    {
        "city": "Mococa",
        "state": "SP",
        "district": "Jardim Santa Clara",
        "street": "Praça João XXIII",
        "zipcode": "13735-219"
    },
    {
        "city": "Mococa",
        "state": "SP",
        "district": "Residencial Barra Feita",
        "street": "Alameda Fernando Cozol Martins",
        "zipcode": "13735-700"
    },
    {
        "city": "Mococa",
        "state": "SP",
        "district": "Santa Terezinha I",
        "street": "Avenida Francisco José Dias Lima",
        "zipcode": "13736-654"
    },
    {
        "city": "Mococa",
        "state": "SP",
        "district": "Chácara Bela Vista",
        "street": "Rodovia SP",
        "zipcode": "13738-600"
    },
    {
        "city": "Mococa",
        "state": "SP",
        "district": "Jardim Chico Piscina",
        "street": "Praça Luzia Borgheti Minchueli",
        "zipcode": "13736-495"
    },
    {
        "city": "Mococa",
        "state": "SP",
        "district": "Jardim Boa Vista",
        "street": "Rua Alcides Michelin",
        "zipcode": "13735-122"
    },
    {
        "city": "Mococa",
        "state": "SP",
        "district": "Residencial Mais Parque Mococa",
        "street": "Rua Antônio Ramalho",
        "zipcode": "13735-378"
    },
    {
        "city": "Mococa",
        "state": "SP",
        "district": "Santa Terezinha II",
        "street": "Rua Carolina dos Santos Dias",
        "zipcode": "13736-670"
    },
    {
        "city": "Mococa",
        "state": "SP",
        "district": "Jardim Alcebiades Quilice",
        "street": "Rua Dinorah Miguel Ribeiro",
        "zipcode": "13736-882"
    },
    {
        "city": "Mococa",
        "state": "SP",
        "district": "Jardim Alcebiades Quilice",
        "street": "Rua Antonio Zulli",
        "zipcode": "13736-885"
    },
    {
        "city": "Mococa",
        "state": "SP",
        "district": "Santa Terezinha I",
        "street": "Rua Carolina dos Santos Dias",
        "zipcode": "13736-652"
    },
    {
        "city": "Mococa",
        "state": "SP",
        "district": "Portal da Cidade",
        "street": "Rua Gilberto Bedin",
        "zipcode": "13733-471"
    },
    {
        "city": "Mococa",
        "state": "SP",
        "district": "Portal da Cidade",
        "street": "Rua Joaquim de Souza Gomes",
        "zipcode": "13733-472"
    },
    {
        "city": "Mococa",
        "state": "SP",
        "district": "Portal da Cidade",
        "street": "Rua Edson Abrão",
        "zipcode": "13733-463"
    },
    {
        "city": "Mococa",
        "state": "SP",
        "district": "Portal da Cidade",
        "street": "Rua Josepha Garcia Alamino",
        "zipcode": "13733-462"
    },
    {
        "city": "Mococa",
        "state": "SP",
        "district": "Portal da Cidade",
        "street": "Rua José Duarte Canerossi",
        "zipcode": "13733-467"
    },
    {
        "city": "Mococa",
        "state": "SP",
        "district": "Portal da Cidade",
        "street": "Rua Miguel de Souza",
        "zipcode": "13733-470"
    },
    {
        "city": "Mococa",
        "state": "SP",
        "district": "Loteamento Residencial Vale Verde",
        "street": "Rua Nicolau Paione",
        "zipcode": "13737-260"
    },
    {
        "city": "Mococa",
        "state": "SP",
        "district": "Jardim Alcebiades Quilice",
        "street": "Rua José Posatti",
        "zipcode": "13736-883"
    },
    {
        "city": "Mococa",
        "state": "SP",
        "district": "Loteamento Residencial Jardim Padre Demósthenes",
        "street": "Rua José Posatti",
        "zipcode": "13736-895"
    },
    {
        "city": "Mococa",
        "state": "SP",
        "district": "Loteamento Residencial Vale Verde",
        "street": "Rua Olezio Hortelan",
        "zipcode": "13737-272"
    },
    {
        "city": "Mococa",
        "state": "SP",
        "district": "Loteamento Residencial Vale Verde",
        "street": "Rua Luís Paiva",
        "zipcode": "13737-273"
    },
    {
        "city": "Mococa",
        "state": "SP",
        "district": "Loteamento Residencial Vale Verde",
        "street": "Rua Francisco Benedito Denubila",
        "zipcode": "13737-277"
    },
    {
        "city": "Mococa",
        "state": "SP",
        "district": "Loteamento Residencial Vale Verde",
        "street": "Rua Nair Fogarin Modolo",
        "zipcode": "13737-280"
    },
    {
        "city": "Mococa",
        "state": "SP",
        "district": "Loteamento Residencial Vale Verde",
        "street": "Rua Maria Benedicta Amâncio",
        "zipcode": "13737-283"
    },
    {
        "city": "Mococa",
        "state": "SP",
        "district": "Loteamento Residencial Vale Verde",
        "street": "Rua Olivia Balbino",
        "zipcode": "13737-285"
    },
    {
        "city": "Mococa",
        "state": "SP",
        "district": "Jardim Santa Clara",
        "street": "Rua Doutor Miguel Ferreira da Silva Neto",
        "zipcode": "13735-322"
    },
    {
        "city": "Mococa",
        "state": "SP",
        "district": "Alta Vista",
        "street": "Rua Jacinto Belarmino da Silva",
        "zipcode": "13735-646"
    },
    {
        "city": "Mococa",
        "state": "SP",
        "district": "Loteamento Residencial e Comercial Jardim Lago dos Ipês",
        "street": "Rua Ercilia Moraes Dias",
        "zipcode": "13735-712"
    },
    {
        "city": "Mococa",
        "state": "SP",
        "district": "Loteamento Residencial e Comercial Jardim Lago dos Ipês",
        "street": "Rua Mirtes Aparecida Fávero Taques",
        "zipcode": "13735-713"
    },
    {
        "city": "Mococa",
        "state": "SP",
        "district": "Loteamento Residencial e Comercial Jardim Lago dos Ipês",
        "street": "Rua Izaias Francisco de Oliveira",
        "zipcode": "13735-716"
    },
    {
        "city": "Mococa",
        "state": "SP",
        "district": "Loteamento Residencial e Comercial Jardim Lago dos Ipês",
        "street": "Rua Mário Lucio",
        "zipcode": "13735-719"
    },
    {
        "city": "Mococa",
        "state": "SP",
        "district": "Loteamento Residencial e Comercial Jardim Lago dos Ipês",
        "street": "Rua José Jerônimo Floriano da Silva",
        "zipcode": "13735-724"
    },
    {
        "city": "Mococa",
        "state": "SP",
        "district": "Loteamento Residencial Vale Verde",
        "street": "Rua Miguel Garófalo Sobrinho",
        "zipcode": "13737-265"
    },
    {
        "city": "Mococa",
        "state": "SP",
        "district": "Loteamento Residencial Vale Verde",
        "street": "Rua Domingos Passotti",
        "zipcode": "13737-286"
    },
    {
        "city": "Mococa",
        "state": "SP",
        "district": "Loteamento Residencial Vale Verde",
        "street": "Rua Joaquim Faria da Costa",
        "zipcode": "13737-289"
    },
    {
        "city": "Mococa",
        "state": "SP",
        "district": "Loteamento Residencial Vale Verde",
        "street": "Rua José Arlindo Santiago",
        "zipcode": "13737-293"
    },
    {
        "city": "Mococa",
        "state": "SP",
        "district": "Jardim Colina Verde",
        "street": "Rua Leodoro Patheis dos Santos",
        "zipcode": "13737-034"
    },
    {
        "city": "Mococa",
        "state": "SP",
        "district": "Loteamento Residencial Vale Verde",
        "street": "Rua Maria Benvinda dos Santos",
        "zipcode": "13737-269"
    },
    {
        "city": "Mococa",
        "state": "SP",
        "district": "Jardim Alcebiades Quilice",
        "street": "Rua Nelson Mandela",
        "zipcode": "13736-887"
    },
    {
        "city": "Mococa",
        "state": "SP",
        "district": "Loteamento Residencial e Comercial Jardim Lago dos Ipês",
        "street": "Rua Doutor Abrão Venturi Filho",
        "zipcode": "13735-721"
    },
    {
        "city": "Mococa",
        "state": "SP",
        "district": "Alta Vista",
        "street": "Rua Joel Miranda Salomão",
        "zipcode": "13735-638"
    },
    {
        "city": "Mococa",
        "state": "SP",
        "district": "Loteamento Residencial e Comercial Jardim Lago dos Ipês",
        "street": "Rua João Issa",
        "zipcode": "13735-708"
    },
    {
        "city": "Mococa",
        "state": "SP",
        "district": "Loteamento Residencial e Comercial Jardim Lago dos Ipês",
        "street": "Rua Edgard Vieira Carvalho",
        "zipcode": "13735-709"
    },
    {
        "city": "Mococa",
        "state": "SP",
        "district": "Loteamento Residencial e Comercial Jardim Lago dos Ipês",
        "street": "Rua João Silvério",
        "zipcode": "13735-723"
    },
    {
        "city": "Mococa",
        "state": "SP",
        "district": "Jardim Progresso",
        "street": "Rua João Buzzo",
        "zipcode": "13736-384"
    },
    {
        "city": "Mococa",
        "state": "SP",
        "district": "Santa Terezinha I",
        "street": "Rua João Buzzo",
        "zipcode": "13736-650"
    },
    {
        "city": "Mococa",
        "state": "SP",
        "district": "Jardim Alcebiades Quilice",
        "street": "Rua João Buzzo",
        "zipcode": "13736-880"
    },
    {
        "city": "Mococa",
        "state": "SP",
        "district": "Residencial Mais Parque Mococa",
        "street": "Rua Juarez Quintino Pereira",
        "zipcode": "13735-356"
    },
    {
        "city": "Mococa",
        "state": "SP",
        "district": "Residencial Itálico Maziero",
        "street": "Rua Mário Lauria",
        "zipcode": "13736-684"
    },
    {
        "city": "Mococa",
        "state": "SP",
        "district": "Jardim Boa Vista",
        "street": "Rua Maria Tereza Rivaoli Fogarin",
        "zipcode": "13735-120"
    },
    {
        "city": "Mococa",
        "state": "SP",
        "district": "Alta Vista",
        "street": "Rua José Guimarães Carneiro",
        "zipcode": "13735-644"
    },
    {
        "city": "Mococa",
        "state": "SP",
        "district": "Portal da Cidade",
        "street": "Rua Osvaldo Apolinário",
        "zipcode": "13733-466"
    },
    {
        "city": "Mococa",
        "state": "SP",
        "district": "Jardim Itália",
        "street": "Rua Pastor Bento da Costa Pereira",
        "zipcode": "13734-596"
    },
    {
        "city": "Mococa",
        "state": "SP",
        "district": "Jardim Boa Vista",
        "street": "Rua Selim Naufel",
        "zipcode": "13735-124"
    },
    {
        "city": "Mococa",
        "state": "SP",
        "district": "Jardim Boa Vista",
        "street": "Rua Sergio Cirielli",
        "zipcode": "13735-128"
    },
    {
        "city": "Mococa",
        "state": "SP",
        "district": "Jardim Boa Vista",
        "street": "Rua Pedro Miranda Goulart",
        "zipcode": "13735-138"
    },
    {
        "city": "Mococa",
        "state": "SP",
        "district": "Residencial Mais Parque Mococa",
        "street": "Rua Vito Orlandi",
        "zipcode": "13735-358"
    },
    {
        "city": "Mococa",
        "state": "SP",
        "district": "Loteamento Residencial Vale Verde",
        "street": "Rua Orlando Mariotto",
        "zipcode": "13737-262"
    },
    {
        "city": "Mococa",
        "state": "SP",
        "district": "Jardim Itália",
        "street": "Rua Wilson Angelo Peretto",
        "zipcode": "13734-592"
    },
    {
        "city": "Mococa",
        "state": "SP",
        "district": "Jardim Boa Vista",
        "street": "Rua Zoraide Soares Pereto",
        "zipcode": "13735-142"
    },
    {
        "city": "Mococa",
        "state": "SP",
        "district": "Residencial Mais Parque Mococa",
        "street": "Rua Wilson José Biasin Fernandes",
        "zipcode": "13735-360"
    },
    {
        "city": "Mococa",
        "state": "SP",
        "district": "Residencial Mais Parque Mococa",
        "street": "Rua Wilson Penteado",
        "zipcode": "13735-362"
    },
    {
        "city": "Mococa",
        "state": "SP",
        "district": "Loteamento Residencial Vale Verde",
        "street": "Rua Vera Lúcia Greghi Boraschi",
        "zipcode": "13737-276"
    },
    {
        "city": "Mococa",
        "state": "SP",
        "district": "Loteamento Residencial Vale Verde",
        "street": "Rua Renato Binocoski",
        "zipcode": "13737-279"
    },
    {
        "city": "Mococa",
        "state": "SP",
        "district": "Loteamento Residencial Vale Verde",
        "street": "Rua Professor Oscar Augusto Guelli",
        "zipcode": "13737-288"
    },
    {
        "city": "Mococa",
        "state": "SP",
        "district": "Jardim Boa Vista",
        "street": "Rua Sebastião Iorio",
        "zipcode": "13735-126"
    },
    {
        "city": "Mococa",
        "state": "SP",
        "district": "Loteamento Residencial e Comercial Jardim Lago dos Ipês",
        "street": "Rua Orlando Roberto Lúcio",
        "zipcode": "13735-718"
    },
    {
        "city": "Mococa",
        "state": "SP",
        "district": "Loteamento Residencial Vale Verde",
        "street": "Rua Tobias do Carmo Silva",
        "zipcode": "13737-264"
    },
    {
        "city": "Mococa",
        "state": "SP",
        "district": "Loteamento Residencial Vale Verde",
        "street": "Rua Tereza Scarparo Maciel",
        "zipcode": "13737-268"
    },
    {
        "city": "Mococa",
        "state": "SP",
        "district": "Residencial Mais Parque Mococa",
        "street": "Rua Sebastião Alves dos Santos",
        "zipcode": "13735-364"
    },
    {
        "city": "Mococa",
        "state": "SP",
        "district": "Residencial Mais Parque Mococa",
        "street": "Rua Pascoal Danti Martins",
        "zipcode": "13735-370"
    },
    {
        "city": "Mococa",
        "state": "SP",
        "district": "Residencial Mais Parque Mococa",
        "street": "Rua Rodolfo de Assis",
        "zipcode": "13735-372"
    },
    {
        "city": "Mococa",
        "state": "SP",
        "district": "Alta Vista",
        "street": "Rua Pedro Moreira",
        "zipcode": "13735-640"
    },
    {
        "city": "Mococa",
        "state": "SP",
        "district": "Alta Vista",
        "street": "Rua Vitor Batista da Silva",
        "zipcode": "13735-642"
    },
    {
        "city": "Mococa",
        "state": "SP",
        "district": "Alta Vista",
        "street": "Rua Sinésio Costa Longa",
        "zipcode": "13735-648"
    },
    {
        "city": "Mococa",
        "state": "SP",
        "district": "Jardim Alcebiades Quilice",
        "street": "Rua Rosa Latorraca Mendonça",
        "zipcode": "13736-881"
    },
    {
        "city": "Mococa",
        "state": "SP",
        "district": "Jardim Alcebiades Quilice",
        "street": "Rua Roberto Aparecido Beluomo",
        "zipcode": "13736-886"
    },
    {
        "city": "Mococa",
        "state": "SP",
        "district": "Jardim Boa Vista",
        "street": "Rua Pastor João Maria Rodrigues",
        "zipcode": "13735-140"
    },
    {
        "city": "Mococa",
        "state": "SP",
        "district": "Jardim Boa Vista",
        "street": "Rua Zilda Donizetti Ananias Bergamini",
        "zipcode": "13735-134"
    },
    {
        "city": "Mococa",
        "state": "SP",
        "district": "Jardim Primavera",
        "street": "Rua Eurico Dutra",
        "zipcode": "13738-565"
    },
    {
        "city": "Mococa",
        "state": "SP",
        "district": "Jardim Santa Maria",
        "street": "Rua Riad Jauhar",
        "zipcode": "13730-277"
    },
    {
        "city": "Mococa",
        "state": "SP",
        "district": "Nova Carvalho",
        "street": "Rua Nelson Moraes de Lima",
        "zipcode": "13735-412"
    },
    {
        "city": "Mococa",
        "state": "SP",
        "district": "Centro",
        "street": "Praça Epitácio Pessoa",
        "zipcode": "13730-037"
    },
    {
        "city": "Mococa",
        "state": "SP",
        "district": "Jardim Nova Mococa",
        "street": "Rua Santa Catarina",
        "zipcode": "13731-310"
    },
    {
        "city": "Mococa",
        "state": "SP",
        "district": "Jardim Santa Luzia",
        "street": "Rua Helena Catarina da Silva",
        "zipcode": "13737-215"
    },
    {
        "city": "Mococa",
        "state": "SP",
        "district": "Centro",
        "street": "Rua Costa Pereira",
        "zipcode": "13730-360"
    },
    {
        "city": "Mococa",
        "state": "SP",
        "district": "Centro",
        "street": "Rua Estébio Ribeiro",
        "zipcode": "13730-300"
    },
    {
        "city": "Mococa",
        "state": "SP",
        "district": "Vila Santa Rosa",
        "street": "Rua Ceará",
        "zipcode": "13731-260"
    },
    {
        "city": "Mococa",
        "state": "SP",
        "district": "Vila Mariana",
        "street": "Rua Capitão Miguel Ferreira",
        "zipcode": "13730-971"
    },
    {
        "city": "Mococa",
        "state": "SP",
        "district": "Centro",
        "street": "Rua Carmo Taliberti",
        "zipcode": "13730-970"
    },
    {
        "city": "Mococa",
        "state": "SP",
        "district": "Centro",
        "street": "Rua Doutor Adolfo Barreto",
        "zipcode": "13730-120"
    },
    {
        "city": "Mococa",
        "state": "SP",
        "district": "Centro",
        "street": "Rua Iria Josefa",
        "zipcode": "13730-080"
    },
    {
        "city": "Mococa",
        "state": "SP",
        "district": "Centro",
        "street": "Rua José Bonifácio",
        "zipcode": "13730-210"
    },
    {
        "city": "Mococa",
        "state": "SP",
        "district": "Centro",
        "street": "Rua Sete de Setembro",
        "zipcode": "13730-046"
    },
    {
        "city": "Mococa",
        "state": "SP",
        "district": "Jardim Santa Maria",
        "street": "Rua Tapiratiba",
        "zipcode": "13730-150"
    },
    {
        "city": "Mococa",
        "state": "SP",
        "district": "Centro",
        "street": "Rua Tenente José Ferraz",
        "zipcode": "13730-200"
    },
    {
        "city": "Mococa",
        "state": "SP",
        "district": "Jardim Santa Cecília",
        "street": "Rua Antônio Carlos Seixas",
        "zipcode": "13733-090"
    },
    {
        "city": "Mococa",
        "state": "SP",
        "district": "Jardim São Domingos",
        "street": "Rua Mário José Franco",
        "zipcode": "13732-699"
    },
    {
        "city": "Mococa",
        "state": "SP",
        "district": "Jardim Santa Cecília",
        "street": "Rua Rosa Benedetti",
        "zipcode": "13733-009"
    },
    {
        "city": "Mococa",
        "state": "SP",
        "district": "Jardim São Domingos",
        "street": "Rua Doutor Carmo Pricoli",
        "zipcode": "13733-250"
    },
    {
        "city": "Mococa",
        "state": "SP",
        "district": "Centro",
        "street": "Rua Benjamin Constant",
        "zipcode": "13730-009"
    },
    {
        "city": "Mococa",
        "state": "SP",
        "district": "Jardim Colina Verde",
        "street": "Rua Ítalo Pucciarelli",
        "zipcode": "13737-025"
    },
    {
        "city": "Mococa",
        "state": "SP",
        "district": "Vila Santa Rosa",
        "street": "Rua Maria de Lourdes Faustino",
        "zipcode": "13731-105"
    },
    {
        "city": "Mococa",
        "state": "SP",
        "district": "Jardim Botânico",
        "street": "Avenida Tiradentes",
        "zipcode": "13733-551"
    },
    {
        "city": "Mococa",
        "state": "SP",
        "district": "Vila Santa Cruz",
        "street": "Praça Santa Cruz",
        "zipcode": "13734-235"
    },
    {
        "city": "Mococa",
        "state": "SP",
        "district": "Santa Helena",
        "street": "Avenida dos Reis Magos",
        "zipcode": "13736-510"
    },
    {
        "city": "Mococa",
        "state": "SP",
        "district": "Jardim Rigobelo",
        "street": "Praça Princesa Isabel",
        "zipcode": "13730-248"
    },
    {
        "city": "Mococa",
        "state": "SP",
        "district": "Jardim Santa Maria",
        "street": "Praça Bruno Giorgi",
        "zipcode": "13730-279"
    },
    {
        "city": "Mococa",
        "state": "SP",
        "district": "Vila Mariana",
        "street": "Praça Madre Caprini",
        "zipcode": "13730-330"
    },
    {
        "city": "Mococa",
        "state": "SP",
        "district": "Jardim Gatolândia",
        "street": "Praça Cruzeiro do Sul",
        "zipcode": "13731-348"
    },
    {
        "city": "Mococa",
        "state": "SP",
        "district": "Núcleo Habitacional Nenê Pereira Lima",
        "street": "Avenida Jacintho Pizani",
        "zipcode": "13732-365"
    },
    {
        "city": "Mococa",
        "state": "SP",
        "district": "Jardim Santa Cecília",
        "street": "Avenida Tiradentes",
        "zipcode": "13733-015"
    },
    {
        "city": "Mococa",
        "state": "SP",
        "district": "Jardim Santa Cecília",
        "street": "Praça João Costa Chavarria",
        "zipcode": "13733-029"
    },
    {
        "city": "Mococa",
        "state": "SP",
        "district": "Distrito Industrial I",
        "street": "Avenida Tiradentes",
        "zipcode": "13733-415"
    },
    {
        "city": "Mococa",
        "state": "SP",
        "district": "Jardim Lavínia",
        "street": "Praça Rotary",
        "zipcode": "13736-259"
    },
    {
        "city": "Mococa",
        "state": "SP",
        "district": "Centro",
        "street": "Rua Capitão Francisco Muniz Barreto",
        "zipcode": "13730-310"
    },
    {
        "city": "Mococa",
        "state": "SP",
        "district": "Centro",
        "street": "Rua Carmo Taliberti",
        "zipcode": "13730-010"
    },
    {
        "city": "Mococa",
        "state": "SP",
        "district": "Jardim São Domingos",
        "street": "Rua Antônio Rabelo Cysterna",
        "zipcode": "13733-110"
    },
    {
        "city": "Mococa",
        "state": "SP",
        "district": "Jardim São Domingos",
        "street": "Rua Doutor Gastão de Paula Leitão",
        "zipcode": "13733-170"
    },
    {
        "city": "Mococa",
        "state": "SP",
        "district": "Jardim Maziero",
        "street": "Rua Arlindo Valério",
        "zipcode": "13733-440"
    },
    {
        "city": "Mococa",
        "state": "SP",
        "district": "Jardim Maziero",
        "street": "Rua Celso Maziero",
        "zipcode": "13733-442"
    },
    {
        "city": "Mococa",
        "state": "SP",
        "district": "Anita Venturi Prícoli",
        "street": "Rua Aristóteles Antonio Ferreira Costa",
        "zipcode": "13737-236"
    },
    {
        "city": "Mococa",
        "state": "SP",
        "district": "Vila Maria",
        "street": "Rua Francisco Demasi",
        "zipcode": "13730-430"
    },
    {
        "city": "Mococa",
        "state": "SP",
        "district": "Conjunto Habitacional Gabriel do Ó",
        "street": "Rua Hermógenes Pires dos Santos",
        "zipcode": "13732-599"
    },
    {
        "city": "Mococa",
        "state": "SP",
        "district": "Jardim Santa Maria",
        "street": "Rua Monte Santo de Minas",
        "zipcode": "13730-280"
    },
    {
        "city": "Mococa",
        "state": "SP",
        "district": "Vila Lambari",
        "street": "Rua Mato Grosso do Sul",
        "zipcode": "13731-030"
    },
    {
        "city": "Mococa",
        "state": "SP",
        "district": "Jardim São Domingos",
        "street": "Rua Mário José Faraco",
        "zipcode": "13733-125"
    },
    {
        "city": "Mococa",
        "state": "SP",
        "district": "Vila Santa Rosa",
        "street": "Rua Piauí",
        "zipcode": "13731-170"
    },
    {
        "city": "Mococa",
        "state": "SP",
        "district": "Jardim Nova Mococa",
        "street": "Rua Tocantins",
        "zipcode": "13731-285"
    },
    {
        "city": "Mococa",
        "state": "SP",
        "district": "Jardim Nova Mococa",
        "street": "Rua Rio Grande do Sul",
        "zipcode": "13731-300"
    },
    {
        "city": "Mococa",
        "state": "SP",
        "district": "Centro",
        "street": "Rua Paschoal Ranieri Mazili",
        "zipcode": "13730-059"
    },
    {
        "city": "Mococa",
        "state": "SP",
        "district": "Vila Lambari",
        "street": "Rua Odon Carlos Figueiredo Ferraz",
        "zipcode": "13731-010"
    },
    {
        "city": "Mococa",
        "state": "SP",
        "district": "Vila Santa Rosa",
        "street": "Rua Paraná",
        "zipcode": "13731-160"
    },
    {
        "city": "Mococa",
        "state": "SP",
        "district": "Vila Santa Rosa",
        "street": "Rua Pará",
        "zipcode": "13731-220"
    },
    {
        "city": "Mococa",
        "state": "SP",
        "district": "Parque das Canoas",
        "street": "Rua Ricardo Mônaco",
        "zipcode": "13731-510"
    },
    {
        "city": "Mococa",
        "state": "SP",
        "district": "Núcleo Habitacional Nenê Pereira Lima",
        "street": "Rua Rodolfo Jesus Pontes",
        "zipcode": "13732-350"
    },
    {
        "city": "Mococa",
        "state": "SP",
        "district": "Jardim São Domingos",
        "street": "Rua Professor Antônio Carrara",
        "zipcode": "13732-625"
    },
    {
        "city": "Mococa",
        "state": "SP",
        "district": "Vila Carvalho",
        "street": "Rua Capitão José Cristovam de Lima",
        "zipcode": "13735-430"
    },
    {
        "city": "Mococa",
        "state": "SP",
        "district": "Ari Estevão",
        "street": "Rua Fortunato Michelin",
        "zipcode": "13734-679"
    },
    {
        "city": "Mococa",
        "state": "SP",
        "district": "Vila Carvalho",
        "street": "Praça Galdino de Siqueira",
        "zipcode": "13735-439"
    },
    {
        "city": "Mococa",
        "state": "SP",
        "district": "Vila Carvalho",
        "street": "Rua Heroino Machado",
        "zipcode": "13735-489"
    },
    {
        "city": "Mococa",
        "state": "SP",
        "district": "Brás",
        "street": "Rua João Batista Giacoia",
        "zipcode": "13735-017"
    },
    {
        "city": "Mococa",
        "state": "SP",
        "district": "Vila Carvalho",
        "street": "Rua João Falarini",
        "zipcode": "13735-508"
    },
    {
        "city": "Mococa",
        "state": "SP",
        "district": "Chácara do Vale",
        "street": "Rua das Laranjeiras",
        "zipcode": "13735-580"
    },
    {
        "city": "Mococa",
        "state": "SP",
        "district": "Vila Carvalho",
        "street": "Rua Lina Leopoldina Pinheiro",
        "zipcode": "13735-450"
    },
    {
        "city": "Mococa",
        "state": "SP",
        "district": "Centro",
        "street": "Rua Doutor Munis Barretto",
        "zipcode": "13730-040"
    },
    {
        "city": "Mococa",
        "state": "SP",
        "district": "Vila Naufel",
        "street": "Rua Miguel Naufel",
        "zipcode": "13734-030"
    },
    {
        "city": "Mococa",
        "state": "SP",
        "district": "Jardim Lavínia",
        "street": "Rua Guiana",
        "zipcode": "13736-270"
    },
    {
        "city": "Mococa",
        "state": "SP",
        "district": "Jardim Chico Piscina",
        "street": "Rua Domingos Zini",
        "zipcode": "13736-480"
    },
    {
        "city": "Mococa",
        "state": "SP",
        "district": "Jardim Colina Verde",
        "street": "Rua João Teodoro Mariano",
        "zipcode": "13737-030"
    },
    {
        "city": "Mococa",
        "state": "SP",
        "district": "Cecap I",
        "street": "Rua Gonçalves Dias",
        "zipcode": "13732-080"
    },
    {
        "city": "Mococa",
        "state": "SP",
        "district": "Loteamento Santa Emília",
        "street": "Rua Benedito Burrone",
        "zipcode": "13732-466"
    },
    {
        "city": "Mococa",
        "state": "SP",
        "district": "Jardim Morro Azul",
        "street": "Rua dos Flamboyants",
        "zipcode": "13738-060"
    },
    {
        "city": "Mococa",
        "state": "SP",
        "district": "Jardim Lavínia",
        "street": "Avenida Américo Pereira Lima",
        "zipcode": "13736-260"
    },
    {
        "city": "Mococa",
        "state": "SP",
        "district": "Centro",
        "street": "Rua Alferes Pedrosa",
        "zipcode": "13730-030"
    },
    {
        "city": "Mococa",
        "state": "SP",
        "district": "Centro",
        "street": "Praça Doutor Jeferson Ferraz",
        "zipcode": "13730-119"
    },
    {
        "city": "Mococa",
        "state": "SP",
        "district": "Jardim Santa Maria",
        "street": "Praça Oscar Villares",
        "zipcode": "13730-158"
    },
    {
        "city": "Mococa",
        "state": "SP",
        "district": "Centro",
        "street": "Praça Antônio Prado",
        "zipcode": "13730-036"
    },
    {
        "city": "Mococa",
        "state": "SP",
        "district": "Centro",
        "street": "Praça Major José Pedro",
        "zipcode": "13730-038"
    },
    {
        "city": "Mococa",
        "state": "SP",
        "district": "Centro",
        "street": "Praça Marechal Deodoro",
        "zipcode": "13730-047"
    },
    {
        "city": "Mococa",
        "state": "SP",
        "district": "Centro",
        "street": "Praça José Manoel",
        "zipcode": "13730-089"
    },
    {
        "city": "Mococa",
        "state": "SP",
        "district": "Jardim São Francisco",
        "street": "Rua Adolfo Fernandes Pinheiro",
        "zipcode": "13734-360"
    },
    {
        "city": "Mococa",
        "state": "SP",
        "district": "Jardim São Francisco",
        "street": "Avenida Professora Maria Leite Cunha Pereira",
        "zipcode": "13734-370"
    },
    {
        "city": "Mococa",
        "state": "SP",
        "district": "Conjunto Habitacional Gabriel do Ó",
        "street": "Rua Antônio de Lima Figueiredo",
        "zipcode": "13732-570"
    },
    {
        "city": "Mococa",
        "state": "SP",
        "district": "Jardim São Domingos",
        "street": "Rua Agenor de Oliveira Andrade",
        "zipcode": "13733-260"
    },
    {
        "city": "Mococa",
        "state": "SP",
        "district": "Descanso",
        "street": "Praça da Maçonaria Universal",
        "zipcode": "13735-038"
    },
    {
        "city": "Mococa",
        "state": "SP",
        "district": "Jardim São Luiz",
        "street": "Praça Eduardo Baptista Ferreira",
        "zipcode": "13735-047"
    },
    {
        "city": "Mococa",
        "state": "SP",
        "district": "Jardim Santa Clara",
        "street": "Praça Diogo Garcia da Cruz",
        "zipcode": "13735-309"
    },
    {
        "city": "Mococa",
        "state": "SP",
        "district": "Jardim Chico Piscina",
        "street": "Rua Alexandre Guisso",
        "zipcode": "13736-450"
    },
    {
        "city": "Mococa",
        "state": "SP",
        "district": "Centro",
        "street": "Rua Augusto Barreto",
        "zipcode": "13730-129"
    },
    {
        "city": "Mococa",
        "state": "SP",
        "district": "Centro",
        "street": "Rua Capitão José Gomes",
        "zipcode": "13730-060"
    },
    {
        "city": "Mococa",
        "state": "SP",
        "district": "Jardim José Justi",
        "street": "Rua Benedito Pereira Nascimento",
        "zipcode": "13734-500"
    },
    {
        "city": "Mococa",
        "state": "SP",
        "district": "Mocoquinha",
        "street": "Rua Capitão José Joaquim",
        "zipcode": "13734-140"
    },
    {
        "city": "Mococa",
        "state": "SP",
        "district": "Aparecida",
        "street": "Rua Coronel Diogo",
        "zipcode": "13735-080"
    },
    {
        "city": "Mococa",
        "state": "SP",
        "district": "Jardim Central Prícoli",
        "street": "Rua Antônio Ulian",
        "zipcode": "13736-555"
    },
    {
        "city": "Mococa",
        "state": "SP",
        "district": "Jardim São Domingos",
        "street": "Rua Hélio Franzoni",
        "zipcode": "13733-360"
    },
    {
        "city": "Mococa",
        "state": "SP",
        "district": "Jardim Alvorada",
        "street": "Rua Galileu de Luna",
        "zipcode": "13732-512"
    },
    {
        "city": "Mococa",
        "state": "SP",
        "district": "Conjunto Habitacional Nelson Niero",
        "street": "Rua João Grilo Filho",
        "zipcode": "13734-580"
    },
    {
        "city": "Mococa",
        "state": "SP",
        "district": "Conjunto Habitacional Francisco Garófalo",
        "street": "Rua José Amato",
        "zipcode": "13736-810"
    },
    {
        "city": "Mococa",
        "state": "SP",
        "district": "Núcleo Habitacional Nenê Pereira Lima",
        "street": "Rua Gianna Beretta Molla",
        "zipcode": "13732-448"
    },
    {
        "city": "Mococa",
        "state": "SP",
        "district": "Vila Quintino",
        "street": "Rua Maria Juliana Pereira",
        "zipcode": "13736-030"
    },
    {
        "city": "Mococa",
        "state": "SP",
        "district": "Centro",
        "street": "Rua Riachuelo",
        "zipcode": "13730-070"
    },
    {
        "city": "Mococa",
        "state": "SP",
        "district": "Distrito Industrial I",
        "street": "Rua São Caetano do Sul",
        "zipcode": "13733-410"
    },
    {
        "city": "Mococa",
        "state": "SP",
        "district": "Jardim Maziero",
        "street": "Rua Orlando Espanha",
        "zipcode": "13733-448"
    },
    {
        "city": "Mococa",
        "state": "SP",
        "district": "Residencial Carlito Quilici",
        "street": "Rua Professor Paulo Giudice de Godoy",
        "zipcode": "13733-536"
    },
    {
        "city": "Mococa",
        "state": "SP",
        "district": "Jardim São Luiz",
        "street": "Rua Primo Favero",
        "zipcode": "13735-055"
    },
    {
        "city": "Mococa",
        "state": "SP",
        "district": "Aparecida",
        "street": "Rua Visconde do Rio Branco",
        "zipcode": "13735-070"
    },
    {
        "city": "Mococa",
        "state": "SP",
        "district": "Jardim Alvorada",
        "street": "Rua Renato Palladini",
        "zipcode": "13732-539"
    },
    {
        "city": "Mococa",
        "state": "SP",
        "district": "Jardim Santa Clara",
        "street": "Rua Pedro Daniel",
        "zipcode": "13735-240"
    },
    {
        "city": "Mococa",
        "state": "SP",
        "district": "Centro",
        "street": "Rua Antônio Teófilo",
        "zipcode": "13730-290"
    },
    {
        "city": "Mococa",
        "state": "SP",
        "district": "Vila Santa Rosa",
        "street": "Rua Humberto Cunali",
        "zipcode": "13731-089"
    },
    {
        "city": "Mococa",
        "state": "SP",
        "district": "Vila Santa Rosa",
        "street": "Rua Mato Grosso",
        "zipcode": "13731-130"
    },
    {
        "city": "Mococa",
        "state": "SP",
        "district": "Conjunto Habitacional Francisco Garófalo",
        "street": "Rua Sidney dos Santos",
        "zipcode": "13736-855"
    },
    {
        "city": "Mococa",
        "state": "SP",
        "district": "Conjunto Habitacional Gilberto Rossetti",
        "street": "Rua Luiz Quilici",
        "zipcode": "13737-325"
    },
    {
        "city": "Mococa",
        "state": "SP",
        "district": "Conjunto Habitacional Gilberto Rossetti",
        "street": "Rua Chrispim Bastos Sobrinho",
        "zipcode": "13737-360"
    },
    {
        "city": "Mococa",
        "state": "SP",
        "district": "Conjunto Habitacional Gilberto Rossetti",
        "street": "Rua Padre Argílio Malatesta",
        "zipcode": "13737-410"
    },
    {
        "city": "Mococa",
        "state": "SP",
        "district": "Chácara Palmeirinha",
        "street": "Rua Bacuri",
        "zipcode": "13737-430"
    },
    {
        "city": "Mococa",
        "state": "SP",
        "district": "Conjunto Habitacional Gilberto Rossetti",
        "street": "Rua Miguel Pricoli Sobrinho",
        "zipcode": "13737-630"
    },
    {
        "city": "Mococa",
        "state": "SP",
        "district": "Conjunto Habitacional Gilberto Rossetti",
        "street": "Rua Máximo Mafeo",
        "zipcode": "13737-658"
    },
    {
        "city": "Mococa",
        "state": "SP",
        "district": "Chácara dos Ipês",
        "street": "Rua Quatro",
        "zipcode": "13737-695"
    },
    {
        "city": "Mococa",
        "state": "SP",
        "district": "Distrito Industrial II",
        "street": "Rua Lemberg Criscuolo",
        "zipcode": "13739-025"
    },
    {
        "city": "Mococa",
        "state": "SP",
        "district": "Distrito Industrial II",
        "street": "Rua Dez",
        "zipcode": "13739-079"
    },
    {
        "city": "Mococa",
        "state": "SP",
        "district": "Vila Quintino",
        "street": "Rua Belo Horizonte",
        "zipcode": "13736-050"
    },
    {
        "city": "Mococa",
        "state": "SP",
        "district": "Vila Quintino",
        "street": "Rua Salvador",
        "zipcode": "13736-060"
    },
    {
        "city": "Mococa",
        "state": "SP",
        "district": "Chácara Palmeirinha",
        "street": "Rua Carnaúba",
        "zipcode": "13737-455"
    },
    {
        "city": "Mococa",
        "state": "SP",
        "district": "Conjunto Habitacional Gilberto Rossetti",
        "street": "Rua José Geraldo",
        "zipcode": "13737-625"
    },
    {
        "city": "Mococa",
        "state": "SP",
        "district": "Jardim Morro Azul",
        "street": "Rua dos Suinãs",
        "zipcode": "13738-009"
    },
    {
        "city": "Mococa",
        "state": "SP",
        "district": "Jardim Residencial do Bosque",
        "street": "Rua Merchid Naufel",
        "zipcode": "13738-030"
    },
    {
        "city": "Mococa",
        "state": "SP",
        "district": "Jardim Lavínia",
        "street": "Rua El Salvador",
        "zipcode": "13738-309"
    },
    {
        "city": "Mococa",
        "state": "SP",
        "district": "Jardim Riachuelo",
        "street": "Rua Guanabara",
        "zipcode": "13738-505"
    },
    {
        "city": "Mococa",
        "state": "SP",
        "district": "Jardim Chico Piscina",
        "street": "Rua Nicarágua",
        "zipcode": "13736-320"
    },
    {
        "city": "Mococa",
        "state": "SP",
        "district": "Jardim Residencial do Bosque",
        "street": "Rua Nelson Niero",
        "zipcode": "13738-040"
    },
    {
        "city": "Mococa",
        "state": "SP",
        "district": "Vila Quintino",
        "street": "Rua Natal",
        "zipcode": "13736-140"
    },
    {
        "city": "Mococa",
        "state": "SP",
        "district": "Vila Lambari",
        "street": "Rua Acre",
        "zipcode": "13731-040"
    },
    {
        "city": "Mococa",
        "state": "SP",
        "district": "Jardim Nova Mococa",
        "street": "Praça Felício Costi",
        "zipcode": "13731-329"
    },
    {
        "city": "Mococa",
        "state": "SP",
        "district": "Vila Lambari",
        "street": "Avenida São Paulo",
        "zipcode": "13731-020"
    },
    {
        "city": "Mococa",
        "state": "SP",
        "district": "Vila Lambari",
        "street": "Rua Alagoas",
        "zipcode": "13731-050"
    },
    {
        "city": "Mococa",
        "state": "SP",
        "district": "Vila Santa Rosa",
        "street": "Praça João Augusto de Souza",
        "zipcode": "13731-139"
    },
    {
        "city": "Mococa",
        "state": "SP",
        "district": "Conjunto Habitacional Francisco Garófalo",
        "street": "Rua Antenor Calió",
        "zipcode": "13736-825"
    },
    {
        "city": "Mococa",
        "state": "SP",
        "district": "Centro",
        "street": "Rua Antenor Silva",
        "zipcode": "13730-049"
    },
    {
        "city": "Mococa",
        "state": "SP",
        "district": "Jardim Santa Maria",
        "street": "Rua Arceburgo",
        "zipcode": "13730-159"
    },
    {
        "city": "Mococa",
        "state": "SP",
        "district": "Centro",
        "street": "Rua Coronel José Pereira Lima",
        "zipcode": "13730-220"
    },
    {
        "city": "Mococa",
        "state": "SP",
        "district": "Centro",
        "street": "Rua Coronel Diogo",
        "zipcode": "13730-260"
    },
    {
        "city": "Mococa",
        "state": "SP",
        "district": "Vila Mariana",
        "street": "Rua Capitão Miguel Ferreira",
        "zipcode": "13730-335"
    },
    {
        "city": "Mococa",
        "state": "SP",
        "district": "Jardim Santa Maria",
        "street": "Rua Cajuru",
        "zipcode": "13730-273"
    },
    {
        "city": "Mococa",
        "state": "SP",
        "district": "Jardim Santa Maria",
        "street": "Rua Eugênio Xavier de Souza",
        "zipcode": "13730-160"
    },
    {
        "city": "Mococa",
        "state": "SP",
        "district": "Centro",
        "street": "Rua Irmãos Nicola",
        "zipcode": "13730-369"
    },
    {
        "city": "Mococa",
        "state": "SP",
        "district": "Centro",
        "street": "Rua João G Barreto Filho",
        "zipcode": "13730-410"
    },
    {
        "city": "Mococa",
        "state": "SP",
        "district": "Jardim Gatolândia",
        "street": "Rua Ilha do Bananal",
        "zipcode": "13731-347"
    },
    {
        "city": "Mococa",
        "state": "SP",
        "district": "Jardim Gatolândia",
        "street": "Rua Fernando de Noronha",
        "zipcode": "13731-350"
    },
    {
        "city": "Mococa",
        "state": "SP",
        "district": "Vila Maria",
        "street": "Rua Imaculada Conceição",
        "zipcode": "13730-420"
    },
    {
        "city": "Mococa",
        "state": "SP",
        "district": "Vila Lambari",
        "street": "Rua Goiás",
        "zipcode": "13731-080"
    },
    {
        "city": "Mococa",
        "state": "SP",
        "district": "Vila Santa Rosa",
        "street": "Rua Guanabara",
        "zipcode": "13731-110"
    },
    {
        "city": "Mococa",
        "state": "SP",
        "district": "Vila Quintino",
        "street": "Rua João Pelozi",
        "zipcode": "13736-020"
    },
    {
        "city": "Mococa",
        "state": "SP",
        "district": "Jardim Gatolândia",
        "street": "Rua Marajó",
        "zipcode": "13731-409"
    },
    {
        "city": "Mococa",
        "state": "SP",
        "district": "Anita Venturi Prícoli",
        "street": "Rua Lázaro Rodrigues da Silva",
        "zipcode": "13737-244"
    },
    {
        "city": "Mococa",
        "state": "SP",
        "district": "Jardim Central Prícoli",
        "street": "Rua Leonardo Prícoli Sobrinho",
        "zipcode": "13736-560"
    },
    {
        "city": "Mococa",
        "state": "SP",
        "district": "Jardim São José",
        "street": "Rua Luiz Gomes de Faria",
        "zipcode": "13736-640"
    },
    {
        "city": "Mococa",
        "state": "SP",
        "district": "Jardim Santa Maria",
        "street": "Rua Rui Barbosa",
        "zipcode": "13730-170"
    },
    {
        "city": "Mococa",
        "state": "SP",
        "district": "Jardim Santa Maria",
        "street": "Rua Tambaú",
        "zipcode": "13730-275"
    },
    {
        "city": "Mococa",
        "state": "SP",
        "district": "Vila Santa Rosa",
        "street": "Rua Pernambuco",
        "zipcode": "13731-250"
    },
    {
        "city": "Mococa",
        "state": "SP",
        "district": "Jardim Nova Mococa",
        "street": "Rua Rondônia",
        "zipcode": "13731-330"
    },
    {
        "city": "Mococa",
        "state": "SP",
        "district": "Vila Santa Rosa",
        "street": "Rua Amapá",
        "zipcode": "13731-210"
    },
    {
        "city": "Mococa",
        "state": "SP",
        "district": "Cecap II",
        "street": "Rua Paulo Setúbal",
        "zipcode": "13732-040"
    },
    {
        "city": "Mococa",
        "state": "SP",
        "district": "Núcleo Habitacional Nenê Pereira Lima",
        "street": "Rua da Fé",
        "zipcode": "13732-420"
    },
    {
        "city": "Mococa",
        "state": "SP",
        "district": "Jardim Alvorada",
        "street": "Rua Hugo Magri",
        "zipcode": "13732-547"
    },
    {
        "city": "Mococa",
        "state": "SP",
        "district": "Conjunto Habitacional Gabriel do Ó",
        "street": "Avenida Gabriel do Ó",
        "zipcode": "13732-620"
    },
    {
        "city": "Mococa",
        "state": "SP",
        "district": "Residencial Carlito Quilici",
        "street": "Rua Carmelina Potensa",
        "zipcode": "13733-544"
    },
    {
        "city": "Mococa",
        "state": "SP",
        "district": "Chácara Palmeirinha",
        "street": "Rua Butia",
        "zipcode": "13737-445"
    },
    {
        "city": "Mococa",
        "state": "SP",
        "district": "Centro",
        "street": "Rua Francisco Gomes",
        "zipcode": "13730-320"
    },
    {
        "city": "Mococa",
        "state": "SP",
        "district": "Residencial Samambaia",
        "street": "Rua Olinto Francisco Bueno",
        "zipcode": "13734-290"
    },
    {
        "city": "Mococa",
        "state": "SP",
        "district": "Condomínio Casas do Monte Belo",
        "street": "Rua Sílvio Esmeraldo Paulino",
        "zipcode": "13737-155"
    },
    {
        "city": "Mococa",
        "state": "SP",
        "district": "Vila Lambari",
        "street": "Avenida Christovam Lima Guedes",
        "zipcode": "13731-000"
    },
    {
        "city": "Mococa",
        "state": "SP",
        "district": "Vila Santa Rosa",
        "street": "Praça Miguel Scovini",
        "zipcode": "13731-280"
    },
    {
        "city": "Mococa",
        "state": "SP",
        "district": "Jardim Gatolândia",
        "street": "Avenida Transamazônica",
        "zipcode": "13731-400"
    },
    {
        "city": "Mococa",
        "state": "SP",
        "district": "Núcleo Habitacional Nenê Pereira Lima",
        "street": "Rua Afonsina B. S. da Silva",
        "zipcode": "13732-428"
    },
    {
        "city": "Mococa",
        "state": "SP",
        "district": "Núcleo Habitacional Nenê Pereira Lima",
        "street": "Rua André Somagio",
        "zipcode": "13732-459"
    },
    {
        "city": "Mococa",
        "state": "SP",
        "district": "Conjunto Habitacional Gabriel do Ó",
        "street": "Rua Antônio Anzoloni",
        "zipcode": "13732-609"
    },
    {
        "city": "Mococa",
        "state": "SP",
        "district": "Conjunto Habitacional Gabriel do Ó",
        "street": "Praça do Advogado",
        "zipcode": "13732-618"
    },
    {
        "city": "Mococa",
        "state": "SP",
        "district": "Jardim São Domingos",
        "street": "Rua Américo Alves",
        "zipcode": "13732-660"
    },
    {
        "city": "Mococa",
        "state": "SP",
        "district": "Vila Santa Rosa",
        "street": "Rua Distrito Federal",
        "zipcode": "13731-200"
    },
    {
        "city": "Mococa",
        "state": "SP",
        "district": "Jardim Alvorada",
        "street": "Rua Cândido Trilho",
        "zipcode": "13732-500"
    },
    {
        "city": "Mococa",
        "state": "SP",
        "district": "Jardim Maziero",
        "street": "Rua Clóvis Santos Silva",
        "zipcode": "13733-449"
    },
    {
        "city": "Mococa",
        "state": "SP",
        "district": "Centro",
        "street": "Rua Barão de Monte Santo",
        "zipcode": "13730-230"
    },
    {
        "city": "Mococa",
        "state": "SP",
        "district": "Parque das Canoas",
        "street": "Rua Fortunato Cozzolino",
        "zipcode": "13731-500"
    },
    {
        "city": "Mococa",
        "state": "SP",
        "district": "Mocoquinha",
        "street": "Rua João Scarparo",
        "zipcode": "13734-139"
    },
    {
        "city": "Mococa",
        "state": "SP",
        "district": "Núcleo Habitacional Nenê Pereira Lima",
        "street": "Rua Hilário Peixeiro Santos",
        "zipcode": "13732-390"
    },
    {
        "city": "Mococa",
        "state": "SP",
        "district": "Jardim Alvorada",
        "street": "Rua Fernando Criscuolo",
        "zipcode": "13732-510"
    },
    {
        "city": "Mococa",
        "state": "SP",
        "district": "Jardim Alvorada",
        "street": "Rua Fortunato Negri",
        "zipcode": "13732-529"
    },
    {
        "city": "Mococa",
        "state": "SP",
        "district": "Conjunto Habitacional Gabriel do Ó",
        "street": "Rua João Augusto Filho",
        "zipcode": "13732-600"
    },
    {
        "city": "Mococa",
        "state": "SP",
        "district": "Jardim São Domingos",
        "street": "Rua Ivone Pereira Rotta",
        "zipcode": "13732-640"
    },
    {
        "city": "Mococa",
        "state": "SP",
        "district": "Jardim Rigobelo",
        "street": "Rua Fortunato Rigobelo",
        "zipcode": "13730-247"
    },
    {
        "city": "Mococa",
        "state": "SP",
        "district": "Vila Naufel",
        "street": "Rua Jorge Naufel",
        "zipcode": "13734-040"
    },
    {
        "city": "Mococa",
        "state": "SP",
        "district": "Altos do Vale II",
        "street": "Rua José Alves Furquim",
        "zipcode": "13735-676"
    },
    {
        "city": "Mococa",
        "state": "SP",
        "district": "Jardim Santa Luzia",
        "street": "Rua Evaristo Rodrigues da Silva",
        "zipcode": "13737-210"
    },
    {
        "city": "Mococa",
        "state": "SP",
        "district": "Cecap II",
        "street": "Rua Mário de Andrade",
        "zipcode": "13732-020"
    },
    {
        "city": "Mococa",
        "state": "SP",
        "district": "Cecap II",
        "street": "Rua Machado de Assis",
        "zipcode": "13732-030"
    },
    {
        "city": "Mococa",
        "state": "SP",
        "district": "Cecap I",
        "street": "Rua Monteiro Lobato",
        "zipcode": "13732-089"
    },
    {
        "city": "Mococa",
        "state": "SP",
        "district": "Núcleo Habitacional Nenê Pereira Lima",
        "street": "Rua Maria Helena S. Converso",
        "zipcode": "13732-417"
    },
    {
        "city": "Mococa",
        "state": "SP",
        "district": "Núcleo Habitacional Nenê Pereira Lima",
        "street": "Rua José Ribeiro dos Santos",
        "zipcode": "13732-438"
    },
    {
        "city": "Mococa",
        "state": "SP",
        "district": "Jardim Alvorada",
        "street": "Rua Natal Cominato",
        "zipcode": "13732-530"
    },
    {
        "city": "Mococa",
        "state": "SP",
        "district": "Conjunto Habitacional Gabriel do Ó",
        "street": "Rua Manoel Oca",
        "zipcode": "13732-589"
    },
    {
        "city": "Mococa",
        "state": "SP",
        "district": "Jardim São Domingos",
        "street": "Rua José Giuntini",
        "zipcode": "13732-639"
    },
    {
        "city": "Mococa",
        "state": "SP",
        "district": "Jardim São Francisco",
        "street": "Rua Maestro Paschoal Gagliardi",
        "zipcode": "13734-400"
    },
    {
        "city": "Mococa",
        "state": "SP",
        "district": "Aparecida",
        "street": "Rua Munis Ferreira",
        "zipcode": "13735-069"
    },
    {
        "city": "Mococa",
        "state": "SP",
        "district": "Vila Santa Rosa",
        "street": "Rua Paraíba",
        "zipcode": "13731-150"
    },
    {
        "city": "Mococa",
        "state": "SP",
        "district": "Jardim Nova Mococa",
        "street": "Rua Rio de Janeiro",
        "zipcode": "13731-290"
    },
    {
        "city": "Mococa",
        "state": "SP",
        "district": "Jardim Nova Mococa",
        "street": "Rua Sergipe",
        "zipcode": "13731-320"
    },
    {
        "city": "Mococa",
        "state": "SP",
        "district": "Cecap II",
        "street": "Rua Tomaz Antônio Gonzaga",
        "zipcode": "13732-070"
    },
    {
        "city": "Mococa",
        "state": "SP",
        "district": "Cecap I",
        "street": "Rua Olavo Bilac",
        "zipcode": "13732-100"
    },
    {
        "city": "Mococa",
        "state": "SP",
        "district": "Núcleo Habitacional Nenê Pereira Lima",
        "street": "Rua Vicente Soares",
        "zipcode": "13732-418"
    },
    {
        "city": "Mococa",
        "state": "SP",
        "district": "Núcleo Habitacional Nenê Pereira Lima",
        "street": "Rua Orestes Nicolau Luz",
        "zipcode": "13732-429"
    },
    {
        "city": "Mococa",
        "state": "SP",
        "district": "Jardim Planalto Verde",
        "street": "Rua Sebastião Lúcio Cardoso",
        "zipcode": "13736-358"
    },
    {
        "city": "Mococa",
        "state": "SP",
        "district": "Centro",
        "street": "Rua Prudente de Moraes",
        "zipcode": "13730-400"
    },
    {
        "city": "Mococa",
        "state": "SP",
        "district": "Conjunto Habitacional Gilberto Rossetti",
        "street": "Rua Filomena Brunhara",
        "zipcode": "13737-649"
    },
    {
        "city": "Mococa",
        "state": "SP",
        "district": "Distrito Industrial II",
        "street": "Rua Algemiro Lopes",
        "zipcode": "13739-120"
    },
    {
        "city": "Mococa",
        "state": "SP",
        "district": "Jardim Progresso",
        "street": "Rua José Marques da Silva",
        "zipcode": "13736-390"
    },
    {
        "city": "Mococa",
        "state": "SP",
        "district": "Jardim Santa Cecília",
        "street": "Rua Tucunaré",
        "zipcode": "13733-019"
    },
    {
        "city": "Mococa",
        "state": "SP",
        "district": "Jardim São Domingos",
        "street": "Rua Adalberto S. Figueiredo",
        "zipcode": "13733-130"
    },
    {
        "city": "Mococa",
        "state": "SP",
        "district": "Jardim São Domingos",
        "street": "Praça Orlanda Scarparo Oca",
        "zipcode": "13733-159"
    },
    {
        "city": "Mococa",
        "state": "SP",
        "district": "Jardim São Benedito",
        "street": "Avenida José Justi",
        "zipcode": "13732-475"
    },
    {
        "city": "Mococa",
        "state": "SP",
        "district": "Conjunto Habitacional Gabriel do Ó",
        "street": "Avenida Pedro Cunali",
        "zipcode": "13732-560"
    },
    {
        "city": "Mococa",
        "state": "SP",
        "district": "Jardim São Domingos",
        "street": "Praça João Trombini",
        "zipcode": "13733-259"
    },
    {
        "city": "Mococa",
        "state": "SP",
        "district": "Jardim São Domingos",
        "street": "Rua Anísio Vianna Ferraz",
        "zipcode": "13733-300"
    },
    {
        "city": "Mococa",
        "state": "SP",
        "district": "Núcleo Habitacional Nenê Pereira Lima",
        "street": "Rua Colombo Zerbinati",
        "zipcode": "13732-450"
    },
    {
        "city": "Mococa",
        "state": "SP",
        "district": "Jardim Santa Cecília",
        "street": "Rua Coronel Francisco Soares Camargo",
        "zipcode": "13733-070"
    },
    {
        "city": "Mococa",
        "state": "SP",
        "district": "Mocoquinha",
        "street": "Rua Benedito Ribeiro",
        "zipcode": "13734-110"
    },
    {
        "city": "Mococa",
        "state": "SP",
        "district": "Núcleo Habitacional Nenê Pereira Lima",
        "street": "Rua Belchior de Souza",
        "zipcode": "13732-439"
    },
    {
        "city": "Mococa",
        "state": "SP",
        "district": "Jardim São Domingos",
        "street": "Rua Doutor Alcindo Figueiredo",
        "zipcode": "13733-160"
    },
    {
        "city": "Mococa",
        "state": "SP",
        "district": "Jardim São Domingos",
        "street": "Rua Doutor Gilberto Rossetti",
        "zipcode": "13733-200"
    },
    {
        "city": "Mococa",
        "state": "SP",
        "district": "Jardim São Domingos",
        "street": "Rua Carmo Lauria",
        "zipcode": "13733-279"
    },
    {
        "city": "Mococa",
        "state": "SP",
        "district": "Anita Venturi Prícoli",
        "street": "Rua Belmiro Vicinança",
        "zipcode": "13737-238"
    },
    {
        "city": "Mococa",
        "state": "SP",
        "district": "Jardim São Domingos",
        "street": "Rua Estela Marani Smecelato",
        "zipcode": "13732-680"
    },
    {
        "city": "Mococa",
        "state": "SP",
        "district": "Jardim São Domingos",
        "street": "Rua Francisco Manini",
        "zipcode": "13732-698"
    },
    {
        "city": "Mococa",
        "state": "SP",
        "district": "Jardim Santa Cecília",
        "street": "Rua Eugênio O. da Silva",
        "zipcode": "13733-020"
    },
    {
        "city": "Mococa",
        "state": "SP",
        "district": "Jardim São Domingos",
        "street": "Rua Francisco Pedrosa Filho",
        "zipcode": "13733-105"
    },
    {
        "city": "Mococa",
        "state": "SP",
        "district": "Jardim São Domingos",
        "street": "Rua Doutor José Paione",
        "zipcode": "13733-310"
    },
    {
        "city": "Mococa",
        "state": "SP",
        "district": "Jardim São Domingos",
        "street": "Rua Emílio Luchesi",
        "zipcode": "13733-320"
    },
    {
        "city": "Mococa",
        "state": "SP",
        "district": "Vila Naufel",
        "street": "Rua Herberto Figueredo Santos",
        "zipcode": "13734-010"
    },
    {
        "city": "Mococa",
        "state": "SP",
        "district": "Conjunto Habitacional Gabriel do Ó",
        "street": "Rua Joaquim Leme do Prado",
        "zipcode": "13732-590"
    },
    {
        "city": "Mococa",
        "state": "SP",
        "district": "Jardim São Domingos",
        "street": "Rua Doutor José Pedro Carvalho Lima",
        "zipcode": "13733-230"
    },
    {
        "city": "Mococa",
        "state": "SP",
        "district": "Jardim São Domingos",
        "street": "Rua Joaquim de Lima Camargo",
        "zipcode": "13733-240"
    },
    {
        "city": "Mococa",
        "state": "SP",
        "district": "Jardim São Domingos",
        "street": "Rua Gentil Ferreira Silva",
        "zipcode": "13733-340"
    },
    {
        "city": "Mococa",
        "state": "SP",
        "district": "Jardim São Domingos",
        "street": "Rua Francisco Maglioca",
        "zipcode": "13733-370"
    },
    {
        "city": "Mococa",
        "state": "SP",
        "district": "Núcleo Habitacional Nenê Pereira Lima",
        "street": "Rua José Vaccillotto",
        "zipcode": "13732-400"
    },
    {
        "city": "Mococa",
        "state": "SP",
        "district": "Jardim Santa Cecília",
        "street": "Rua Lourenço Paroli",
        "zipcode": "13733-080"
    },
    {
        "city": "Mococa",
        "state": "SP",
        "district": "Jardim São Domingos",
        "street": "Rua Major Albertin Nogueira",
        "zipcode": "13733-140"
    },
    {
        "city": "Mococa",
        "state": "SP",
        "district": "Vila Santa Cruz",
        "street": "Rua Manoel Leite de Camargo",
        "zipcode": "13734-220"
    },
    {
        "city": "Mococa",
        "state": "SP",
        "district": "Vila Santa Cruz",
        "street": "Rua Major João Ferraz de Siqueira",
        "zipcode": "13734-250"
    },
    {
        "city": "Mococa",
        "state": "SP",
        "district": "Jardim São Francisco",
        "street": "Rua Luciano Marchesi",
        "zipcode": "13734-310"
    },
    {
        "city": "Mococa",
        "state": "SP",
        "district": "Chácara São Domingos Shop",
        "street": "Rua Manoel Antônio de Lima",
        "zipcode": "13734-445"
    },
    {
        "city": "Mococa",
        "state": "SP",
        "district": "Núcleo Habitacional Nenê Pereira Lima",
        "street": "Rua Maria Mega Mônaco",
        "zipcode": "13732-458"
    },
    {
        "city": "Mococa",
        "state": "SP",
        "district": "Jardim Alvorada",
        "street": "Rua Luiz Amato",
        "zipcode": "13732-509"
    },
    {
        "city": "Mococa",
        "state": "SP",
        "district": "Jardim Colina Verde",
        "street": "Rua Mauro Lima Dias",
        "zipcode": "13737-035"
    },
    {
        "city": "Mococa",
        "state": "SP",
        "district": "Cecap I",
        "street": "Rua José de Alencar",
        "zipcode": "13732-087"
    },
    {
        "city": "Mococa",
        "state": "SP",
        "district": "Jardim Santa Cecília",
        "street": "Rua Pedro Zamarian",
        "zipcode": "13733-040"
    },
    {
        "city": "Mococa",
        "state": "SP",
        "district": "Distrito Industrial I",
        "street": "Rua São Bernardo",
        "zipcode": "13733-420"
    },
    {
        "city": "Mococa",
        "state": "SP",
        "district": "Mocoquinha",
        "street": "Rua Roque Pezzo",
        "zipcode": "13734-100"
    },
    {
        "city": "Mococa",
        "state": "SP",
        "district": "Mocoquinha",
        "street": "Rua Venerando Ribeiro",
        "zipcode": "13734-120"
    },
    {
        "city": "Mococa",
        "state": "SP",
        "district": "Jardim Santa Cecília",
        "street": "Rua Paulo Rigobello",
        "zipcode": "13733-049"
    },
    {
        "city": "Mococa",
        "state": "SP",
        "district": "Núcleo Habitacional Nenê Pereira Lima",
        "street": "Rua Waldemar Fernandes",
        "zipcode": "13732-360"
    },
    {
        "city": "Mococa",
        "state": "SP",
        "district": "Vila Santa Cruz",
        "street": "Travessa Fé",
        "zipcode": "13734-259"
    },
    {
        "city": "Mococa",
        "state": "SP",
        "district": "Jardim São Francisco",
        "street": "Rua Wenceslau Braz",
        "zipcode": "13734-320"
    },
    {
        "city": "Mococa",
        "state": "SP",
        "district": "Jardim São Francisco",
        "street": "Rua Gilberto Bedin",
        "zipcode": "13734-399"
    },
    {
        "city": "Mococa",
        "state": "SP",
        "district": "Ari Estevão",
        "street": "Rua Gildo Geraldo",
        "zipcode": "13734-668"
    },
    {
        "city": "Mococa",
        "state": "SP",
        "district": "Ari Estevão",
        "street": "Rua Januário Valério",
        "zipcode": "13734-667"
    },
    {
        "city": "Mococa",
        "state": "SP",
        "district": "Ari Estevão",
        "street": "Rua João Ramos",
        "zipcode": "13734-670"
    },
    {
        "city": "Mococa",
        "state": "SP",
        "district": "Brás",
        "street": "Praça Nove de Julho",
        "zipcode": "13735-007"
    },
    {
        "city": "Mococa",
        "state": "SP",
        "district": "Ari Estevão",
        "street": "Rua Rovail Rodrigues Silva",
        "zipcode": "13734-660"
    },
    {
        "city": "Mococa",
        "state": "SP",
        "district": "Brás",
        "street": "Rua Capitão Luis Pena",
        "zipcode": "13735-010"
    },
    {
        "city": "Mococa",
        "state": "SP",
        "district": "Jardim Bianchesi",
        "street": "Rua Clodoaldo Santos Figueiredo",
        "zipcode": "13735-520"
    },
    {
        "city": "Mococa",
        "state": "SP",
        "district": "Vila Carvalho",
        "street": "Rua Domiciano Custódio Dias",
        "zipcode": "13735-420"
    },
    {
        "city": "Mococa",
        "state": "SP",
        "district": "Brás",
        "street": "Rua Domingos Giglio",
        "zipcode": "13735-019"
    },
    {
        "city": "Mococa",
        "state": "SP",
        "district": "Aparecida",
        "street": "Avenida Governador Pedro de Toledo",
        "zipcode": "13735-074"
    },
    {
        "city": "Mococa",
        "state": "SP",
        "district": "Jardim São Luiz",
        "street": "Rua João Canciano",
        "zipcode": "13735-043"
    },
    {
        "city": "Mococa",
        "state": "SP",
        "district": "Jardim Santa Clara",
        "street": "Rua Alberto Pisani",
        "zipcode": "13735-300"
    },
    {
        "city": "Mococa",
        "state": "SP",
        "district": "Chácara São Domingos Shop",
        "street": "Avenida Primo Quilice",
        "zipcode": "13734-450"
    },
    {
        "city": "Mococa",
        "state": "SP",
        "district": "Jardim José Justi",
        "street": "Rua Orlando Cortossi",
        "zipcode": "13734-470"
    },
    {
        "city": "Mococa",
        "state": "SP",
        "district": "Jardim José Justi",
        "street": "Rua José Justi",
        "zipcode": "13734-475"
    },
    {
        "city": "Mococa",
        "state": "SP",
        "district": "Jardim São Domingos",
        "street": "Praça Madre Clélia Merloni",
        "zipcode": "13733-265"
    },
    {
        "city": "Mococa",
        "state": "SP",
        "district": "Jardim São Domingos",
        "street": "Rua Francisco Monteiro Dias",
        "zipcode": "13733-379"
    },
    {
        "city": "Mococa",
        "state": "SP",
        "district": "Vila Naufel",
        "street": "Rua Pedro Granito",
        "zipcode": "13734-020"
    },
    {
        "city": "Mococa",
        "state": "SP",
        "district": "Vila Santa Cruz",
        "street": "Rua João Moreira Salles",
        "zipcode": "13734-210"
    },
    {
        "city": "Mococa",
        "state": "SP",
        "district": "Jardim São Domingos",
        "street": "Rua Augusto Finardi",
        "zipcode": "13733-380"
    },
    {
        "city": "Mococa",
        "state": "SP",
        "district": "Mocoquinha",
        "street": "Rua Humberto de Queiroz",
        "zipcode": "13734-150"
    },
    {
        "city": "Mococa",
        "state": "SP",
        "district": "Jardim Santa Clara",
        "street": "Rua Zequinha de Abreu",
        "zipcode": "13735-290"
    },
    {
        "city": "Mococa",
        "state": "SP",
        "district": "Jardim José Justi",
        "street": "Rua Angelim Carrara",
        "zipcode": "13734-490"
    },
    {
        "city": "Mococa",
        "state": "SP",
        "district": "Jardim São Luiz",
        "street": "Avenida José Alves Pinto",
        "zipcode": "13735-044"
    },
    {
        "city": "Mococa",
        "state": "SP",
        "district": "Jardim São Luiz",
        "street": "Praça Francisco Matheus Filho",
        "zipcode": "13735-058"
    },
    {
        "city": "Mococa",
        "state": "SP",
        "district": "Aparecida",
        "street": "Praça Nossa Senhora Aparecida",
        "zipcode": "13735-077"
    },
    {
        "city": "Mococa",
        "state": "SP",
        "district": "Jardim Santa Clara",
        "street": "Rua Antônio Carlos Gomes",
        "zipcode": "13735-280"
    },
    {
        "city": "Mococa",
        "state": "SP",
        "district": "Jardim São Francisco",
        "street": "Estrada para Aceburgo",
        "zipcode": "13734-355"
    },
    {
        "city": "Mococa",
        "state": "SP",
        "district": "Jardim São Domingos",
        "street": "Rua dos Mocoquenses Anônimos",
        "zipcode": "13733-135"
    },
    {
        "city": "Mococa",
        "state": "SP",
        "district": "Descanso",
        "street": "Rua Coronel José Pereira",
        "zipcode": "13735-035"
    },
    {
        "city": "Mococa",
        "state": "SP",
        "district": "Descanso",
        "street": "Rua Campos Salles",
        "zipcode": "13735-037"
    },
    {
        "city": "Mococa",
        "state": "SP",
        "district": "Jardim São Luiz",
        "street": "Rua Bezerra de Menezes",
        "zipcode": "13735-053"
    },
    {
        "city": "Mococa",
        "state": "SP",
        "district": "Jardim Santa Clara",
        "street": "Rua Domingos Pricoli",
        "zipcode": "13735-209"
    },
    {
        "city": "Mococa",
        "state": "SP",
        "district": "Descanso",
        "street": "Rua João Bento",
        "zipcode": "13735-040"
    },
    {
        "city": "Mococa",
        "state": "SP",
        "district": "Jardim São Domingos",
        "street": "Rua Elisa de Castro Greghi",
        "zipcode": "13733-118"
    },
    {
        "city": "Mococa",
        "state": "SP",
        "district": "Jardim Santa Clara",
        "street": "Rua Erasmo Souza Ribeiro",
        "zipcode": "13735-220"
    },
    {
        "city": "Mococa",
        "state": "SP",
        "district": "Jardim Santa Clara",
        "street": "Rua Francisco Manuel da Silva",
        "zipcode": "13735-329"
    },
    {
        "city": "Mococa",
        "state": "SP",
        "district": "Jardim Santa Clara",
        "street": "Rua Heitor Villa Lobos",
        "zipcode": "13735-340"
    },
    {
        "city": "Mococa",
        "state": "SP",
        "district": "Núcleo Habitacional Nenê Pereira Lima",
        "street": "Rua Isaías Vaccillotto",
        "zipcode": "13732-430"
    },
    {
        "city": "Mococa",
        "state": "SP",
        "district": "Jardim Santa Clara",
        "street": "Rua Joaquim Custódio Dias",
        "zipcode": "13735-270"
    },
    {
        "city": "Mococa",
        "state": "SP",
        "district": "Descanso",
        "street": "Rua José de Souza",
        "zipcode": "13735-039"
    },
    {
        "city": "Mococa",
        "state": "SP",
        "district": "Jardim José Justi",
        "street": "Rua José Pedro de Oliveira",
        "zipcode": "13734-487"
    },
    {
        "city": "Mococa",
        "state": "SP",
        "district": "Conjunto Habitacional Nelson Niero",
        "street": "Rua Menoti Pratali",
        "zipcode": "13734-590"
    },
    {
        "city": "Mococa",
        "state": "SP",
        "district": "Jardim Santa Clara",
        "street": "Rua Julieta Lima Dias",
        "zipcode": "13735-310"
    },
    {
        "city": "Mococa",
        "state": "SP",
        "district": "Aparecida",
        "street": "Rua Maestro Pedro Camin",
        "zipcode": "13735-078"
    },
    {
        "city": "Mococa",
        "state": "SP",
        "district": "Jardim São Domingos",
        "street": "Rua Vitório Segundo Greghi",
        "zipcode": "13733-119"
    },
    {
        "city": "Mococa",
        "state": "SP",
        "district": "Distrito Industrial I",
        "street": "Rua Santo André",
        "zipcode": "13733-430"
    },
    {
        "city": "Mococa",
        "state": "SP",
        "district": "Descanso",
        "street": "Rua Urias Gonçalves dos Santos",
        "zipcode": "13735-034"
    },
    {
        "city": "Mococa",
        "state": "SP",
        "district": "Jardim São Luiz",
        "street": "Rua Orlando Pereto",
        "zipcode": "13735-050"
    },
    {
        "city": "Mococa",
        "state": "SP",
        "district": "Jardim São Luiz",
        "street": "Rua Pedro Siqueira",
        "zipcode": "13735-056"
    },
    {
        "city": "Mococa",
        "state": "SP",
        "district": "Aparecida",
        "street": "Rua Oswaldo Cruz",
        "zipcode": "13735-079"
    },
    {
        "city": "Mococa",
        "state": "SP",
        "district": "Jardim Santa Clara",
        "street": "Rua Sinval Souza Ribeiro",
        "zipcode": "13735-230"
    },
    {
        "city": "Mococa",
        "state": "SP",
        "district": "Jardim Bianchesi",
        "street": "Rua Jayme Rehder",
        "zipcode": "13735-522"
    },
    {
        "city": "Mococa",
        "state": "SP",
        "district": "Vila Carvalho",
        "street": "Rua João Espanha",
        "zipcode": "13735-500"
    },
    {
        "city": "Mococa",
        "state": "SP",
        "district": "Vila Carvalho",
        "street": "Rua João Pretinho",
        "zipcode": "13735-409"
    },
    {
        "city": "Mococa",
        "state": "SP",
        "district": "Vila Carvalho",
        "street": "Rua José de Castro Figueiredo",
        "zipcode": "13735-410"
    },
    {
        "city": "Mococa",
        "state": "SP",
        "district": "Vila Carvalho",
        "street": "Rua Maestro João Balan",
        "zipcode": "13735-459"
    },
    {
        "city": "Mococa",
        "state": "SP",
        "district": "Vila Carvalho",
        "street": "Rua Major Antônio Xavier de Souza",
        "zipcode": "13735-440"
    },
    {
        "city": "Mococa",
        "state": "SP",
        "district": "Vila Carvalho",
        "street": "Rua Manuel Anzaloni",
        "zipcode": "13735-447"
    },
    {
        "city": "Mococa",
        "state": "SP",
        "district": "Vila Carvalho",
        "street": "Travessa Nossa Senhora de Fátima",
        "zipcode": "13735-419"
    },
    {
        "city": "Mococa",
        "state": "SP",
        "district": "Brás",
        "street": "Rua Paschoal Ranieri",
        "zipcode": "13735-029"
    },
    {
        "city": "Mococa",
        "state": "SP",
        "district": "Vila Carvalho",
        "street": "Praça Tarciso Cândido da Cruz",
        "zipcode": "13735-479"
    },
    {
        "city": "Mococa",
        "state": "SP",
        "district": "Vila Carvalho",
        "street": "Rua Antônio Gilberto Lúcio",
        "zipcode": "13735-470"
    },
    {
        "city": "Mococa",
        "state": "SP",
        "district": "Brás",
        "street": "Rua João Brisighello",
        "zipcode": "13735-009"
    },
    {
        "city": "Mococa",
        "state": "SP",
        "district": "Brás",
        "street": "Rua Quintino Bocaiúva",
        "zipcode": "13735-008"
    },
    {
        "city": "Mococa",
        "state": "SP",
        "district": "Vila Carvalho",
        "street": "Rua Otávio dos Santos",
        "zipcode": "13735-435"
    },
    {
        "city": "Mococa",
        "state": "SP",
        "district": "Residencial Jardim José Justi II",
        "street": "Rua Ana Ramos Guisso",
        "zipcode": "13734-540"
    },
    {
        "city": "Mococa",
        "state": "SP",
        "district": "Residencial Jardim José Justi II",
        "street": "Rua Adelaide Alves Magri",
        "zipcode": "13734-536"
    },
    {
        "city": "Mococa",
        "state": "SP",
        "district": "Jardim Lavínia",
        "street": "Avenida Brasil",
        "zipcode": "13736-230"
    },
    {
        "city": "Mococa",
        "state": "SP",
        "district": "Vila Quintino",
        "street": "Praça Pacífico da Costa Lima",
        "zipcode": "13736-000"
    },
    {
        "city": "Mococa",
        "state": "SP",
        "district": "Vila Quintino",
        "street": "Rua Porto Alegre",
        "zipcode": "13736-040"
    },
    {
        "city": "Mococa",
        "state": "SP",
        "district": "Jardim São José",
        "street": "Rua Carlos Panizza",
        "zipcode": "13736-605"
    },
    {
        "city": "Mococa",
        "state": "SP",
        "district": "Vila Quintino",
        "street": "Rua Curitiba",
        "zipcode": "13736-070"
    },
    {
        "city": "Mococa",
        "state": "SP",
        "district": "Vila Quintino",
        "street": "Rua Cuiabá",
        "zipcode": "13736-120"
    },
    {
        "city": "Mococa",
        "state": "SP",
        "district": "Jardim Chico Piscina",
        "street": "Avenida dos Reis Magos",
        "zipcode": "13736-500"
    },
    {
        "city": "Mococa",
        "state": "SP",
        "district": "Jardim São Domingos",
        "street": "Rua Agilberto de Figueredo Santos",
        "zipcode": "13733-330"
    },
    {
        "city": "Mococa",
        "state": "SP",
        "district": "Residencial Jardim José Justi II",
        "street": "Rua Alfredo Grande",
        "zipcode": "13734-530"
    },
    {
        "city": "Mococa",
        "state": "SP",
        "district": "Vila Quintino",
        "street": "Praça Frei Inácio Stenico",
        "zipcode": "13736-059"
    },
    {
        "city": "Mococa",
        "state": "SP",
        "district": "Jardim Santa Luzia",
        "street": "Rua Adélia de Oliveira",
        "zipcode": "13737-200"
    },
    {
        "city": "Mococa",
        "state": "SP",
        "district": "Residencial Jardim José Justi II",
        "street": "Rua Alvim Leite",
        "zipcode": "13734-526"
    },
    {
        "city": "Mococa",
        "state": "SP",
        "district": "Aparecida",
        "street": "Praça Thomaz Alberto Whately",
        "zipcode": "13735-065"
    },
    {
        "city": "Mococa",
        "state": "SP",
        "district": "Jardim Alvorada",
        "street": "Rua Antônio Paschoalino",
        "zipcode": "13732-528"
    },
    {
        "city": "Mococa",
        "state": "SP",
        "district": "Jardim José Justi",
        "street": "Rua Benedito Teodoro Souza",
        "zipcode": "13734-505"
    },
    {
        "city": "Mococa",
        "state": "SP",
        "district": "Residencial Jardim José Justi II",
        "street": "Rua Antonio Grotto",
        "zipcode": "13734-538"
    },
    {
        "city": "Mococa",
        "state": "SP",
        "district": "Vila Quintino",
        "street": "Rua Cândido Desuo",
        "zipcode": "13736-010"
    },
    {
        "city": "Mococa",
        "state": "SP",
        "district": "Jardim Lavínia",
        "street": "Rua Chile",
        "zipcode": "13736-210"
    },
    {
        "city": "Mococa",
        "state": "SP",
        "district": "Jardim Lavínia",
        "street": "Rua Bolívia",
        "zipcode": "13736-299"
    },
    {
        "city": "Mococa",
        "state": "SP",
        "district": "Jardim Lavínia",
        "street": "Rua Canadá",
        "zipcode": "13736-340"
    },
    {
        "city": "Mococa",
        "state": "SP",
        "district": "Jardim Lavínia",
        "street": "Rua Costa Rica",
        "zipcode": "13736-350"
    },
    {
        "city": "Mococa",
        "state": "SP",
        "district": "Jardim Planalto Verde",
        "street": "Rua Antônio Viotto",
        "zipcode": "13736-360"
    },
    {
        "city": "Mococa",
        "state": "SP",
        "district": "Jardim Planalto Verde",
        "street": "Rua Benedito Martins",
        "zipcode": "13736-365"
    },
    {
        "city": "Mococa",
        "state": "SP",
        "district": "Jardim Lavínia",
        "street": "Rua Colômbia",
        "zipcode": "13736-290"
    },
    {
        "city": "Mococa",
        "state": "SP",
        "district": "Jardim José Justi",
        "street": "Rua João Carrara",
        "zipcode": "13734-520"
    },
    {
        "city": "Mococa",
        "state": "SP",
        "district": "Vila Quintino",
        "street": "Rua Fortaleza",
        "zipcode": "13736-079"
    },
    {
        "city": "Mococa",
        "state": "SP",
        "district": "Jardim Chico Piscina",
        "street": "Rua Edgar Freitas",
        "zipcode": "13736-440"
    },
    {
        "city": "Mococa",
        "state": "SP",
        "district": "Jardim José Justi",
        "street": "Rua Gustavo Coelho Dias",
        "zipcode": "13734-515"
    },
    {
        "city": "Mococa",
        "state": "SP",
        "district": "Jardim Chico Piscina",
        "street": "Rua Guatemala",
        "zipcode": "13736-460"
    },
    {
        "city": "Mococa",
        "state": "SP",
        "district": "Jardim Chico Piscina",
        "street": "Rua Luiz Righetti",
        "zipcode": "13736-509"
    },
    {
        "city": "Mococa",
        "state": "SP",
        "district": "Vila Quintino",
        "street": "Rua Recife",
        "zipcode": "13736-039"
    },
    {
        "city": "Mococa",
        "state": "SP",
        "district": "Jardim Lavínia",
        "street": "Rua Venezuela",
        "zipcode": "13736-220"
    },
    {
        "city": "Mococa",
        "state": "SP",
        "district": "Jardim Lavínia",
        "street": "Rua Uruguai",
        "zipcode": "13736-240"
    },
    {
        "city": "Mococa",
        "state": "SP",
        "district": "Jardim Lavínia",
        "street": "Rua Paraguai",
        "zipcode": "13736-278"
    },
    {
        "city": "Mococa",
        "state": "SP",
        "district": "Jardim Chico Piscina",
        "street": "Rua Salvador Mollo",
        "zipcode": "13736-400"
    },
    {
        "city": "Mococa",
        "state": "SP",
        "district": "Jardim Chico Piscina",
        "street": "Rua Paulo Barros Whitaker",
        "zipcode": "13736-420"
    },
    {
        "city": "Mococa",
        "state": "SP",
        "district": "Residencial Jardim José Justi II",
        "street": "Rua 4",
        "zipcode": "13734-532"
    },
    {
        "city": "Mococa",
        "state": "SP",
        "district": "Jardim São José",
        "street": "Rua Adhemar Otaviano Machado",
        "zipcode": "13736-600"
    },
    {
        "city": "Mococa",
        "state": "SP",
        "district": "Jardim São José",
        "street": "Rua Joana da Silva Carreira",
        "zipcode": "13736-625"
    },
    {
        "city": "Mococa",
        "state": "SP",
        "district": "Jardim São José",
        "street": "Rua Eugênio Greghi",
        "zipcode": "13736-643"
    },
    {
        "city": "Mococa",
        "state": "SP",
        "district": "Jardim São José",
        "street": "Rua Nicola Menechino",
        "zipcode": "13736-645"
    },
    {
        "city": "Mococa",
        "state": "SP",
        "district": "Conjunto Habitacional Francisco Garófalo",
        "street": "Rua José Arroio",
        "zipcode": "13736-775"
    },
    {
        "city": "Mococa",
        "state": "SP",
        "district": "Conjunto Habitacional Francisco Garófalo",
        "street": "Rua Carolina dos Santos Dias",
        "zipcode": "13736-840"
    },
    {
        "city": "Mococa",
        "state": "SP",
        "district": "Jardim das Figueiras",
        "street": "Rua Agustinho Baptistela",
        "zipcode": "13737-110"
    },
    {
        "city": "Mococa",
        "state": "SP",
        "district": "Conjunto Habitacional Gilberto Rossetti",
        "street": "Rua Mariano Niero",
        "zipcode": "13737-305"
    },
    {
        "city": "Mococa",
        "state": "SP",
        "district": "Conjunto Habitacional Gilberto Rossetti",
        "street": "Rua Eliezer Pereira do Lago",
        "zipcode": "13737-310"
    },
    {
        "city": "Mococa",
        "state": "SP",
        "district": "Conjunto Habitacional Gilberto Rossetti",
        "street": "Rua Henrique Brisighello",
        "zipcode": "13737-330"
    },
    {
        "city": "Mococa",
        "state": "SP",
        "district": "Conjunto Habitacional Gilberto Rossetti",
        "street": "Praça da Paz",
        "zipcode": "13737-335"
    },
    {
        "city": "Mococa",
        "state": "SP",
        "district": "Conjunto Habitacional Gilberto Rossetti",
        "street": "Rua João Murari",
        "zipcode": "13737-340"
    },
    {
        "city": "Mococa",
        "state": "SP",
        "district": "Conjunto Habitacional Gilberto Rossetti",
        "street": "Rua Joaquim Ribeiro",
        "zipcode": "13737-370"
    },
    {
        "city": "Mococa",
        "state": "SP",
        "district": "Conjunto Habitacional Gilberto Rossetti",
        "street": "Rua Eduardo Garcia",
        "zipcode": "13737-375"
    },
    {
        "city": "Mococa",
        "state": "SP",
        "district": "Conjunto Habitacional Gilberto Rossetti",
        "street": "Rua Maurício de Mendonça",
        "zipcode": "13737-385"
    },
    {
        "city": "Mococa",
        "state": "SP",
        "district": "Conjunto Habitacional Gilberto Rossetti",
        "street": "Rua Nicolau Paione",
        "zipcode": "13737-420"
    },
    {
        "city": "Mococa",
        "state": "SP",
        "district": "Chácara Palmeirinha",
        "street": "Rua Babaçu",
        "zipcode": "13737-425"
    },
    {
        "city": "Mococa",
        "state": "SP",
        "district": "Conjunto Habitacional Gilberto Rossetti",
        "street": "Rua Pedro Lúcio",
        "zipcode": "13737-379"
    },
    {
        "city": "Mococa",
        "state": "SP",
        "district": "Conjunto Habitacional Gilberto Rossetti",
        "street": "Rua Antônio Amadio",
        "zipcode": "13737-390"
    },
    {
        "city": "Mococa",
        "state": "SP",
        "district": "Chácara Palmeirinha",
        "street": "Rua Buriti",
        "zipcode": "13737-440"
    },
    {
        "city": "Mococa",
        "state": "SP",
        "district": "Condomínio Casas do Monte Belo",
        "street": "Rua Maria Zélia Palma Mazziero",
        "zipcode": "13737-180"
    },
    {
        "city": "Mococa",
        "state": "SP",
        "district": "Jardim Alvorada",
        "street": "Rua Luiz Spinelli",
        "zipcode": "13732-540"
    },
    {
        "city": "Mococa",
        "state": "SP",
        "district": "Conjunto Habitacional Francisco Garófalo",
        "street": "Rua Antônio Fogarin",
        "zipcode": "13736-830"
    },
    {
        "city": "Mococa",
        "state": "SP",
        "district": "Anita Venturi Prícoli",
        "street": "Rua Adaltton Pereira do Lago",
        "zipcode": "13737-230"
    },
    {
        "city": "Mococa",
        "state": "SP",
        "district": "Cecap I",
        "street": "Rua Castro Alves",
        "zipcode": "13732-086"
    },
    {
        "city": "Mococa",
        "state": "SP",
        "district": "Jardim José André de Lima",
        "street": "Rua Arthur de Lima Neto",
        "zipcode": "13736-725"
    },
    {
        "city": "Mococa",
        "state": "SP",
        "district": "Conjunto Habitacional Francisco Garófalo",
        "street": "Rua Antônio Luiz Bora",
        "zipcode": "13736-835"
    },
    {
        "city": "Mococa",
        "state": "SP",
        "district": "Jardim das Figueiras",
        "street": "Rua Dom Tomaz Vaqueiro",
        "zipcode": "13737-115"
    },
    {
        "city": "Mococa",
        "state": "SP",
        "district": "Jardim Santa Luzia",
        "street": "Rua Benedito José da Silva",
        "zipcode": "13737-205"
    },
    {
        "city": "Mococa",
        "state": "SP",
        "district": "Jardim São José",
        "street": "Rua Joanna Zatur Naufel",
        "zipcode": "13736-630"
    },
    {
        "city": "Mococa",
        "state": "SP",
        "district": "Jardim José André de Lima",
        "street": "Rua Eduardo Figueiredo Lima",
        "zipcode": "13736-735"
    },
    {
        "city": "Mococa",
        "state": "SP",
        "district": "Conjunto Habitacional Francisco Garófalo",
        "street": "Rua João Pinheiro da Costa",
        "zipcode": "13736-788"
    },
    {
        "city": "Mococa",
        "state": "SP",
        "district": "Conjunto Habitacional Francisco Garófalo",
        "street": "Rua Joaquim Egéas Martins",
        "zipcode": "13736-850"
    },
    {
        "city": "Mococa",
        "state": "SP",
        "district": "Condomínio Casas do Monte Belo",
        "street": "Rua Ernesto Cilino",
        "zipcode": "13737-170"
    },
    {
        "city": "Mococa",
        "state": "SP",
        "district": "Jardim São José",
        "street": "Rua Hortência Freire Machado",
        "zipcode": "13736-620"
    },
    {
        "city": "Mococa",
        "state": "SP",
        "district": "Jardim São Luiz",
        "street": "Rua Manoel Esmerino Ribeiro Lima",
        "zipcode": "13735-045"
    },
    {
        "city": "Mococa",
        "state": "SP",
        "district": "Jardim José André de Lima",
        "street": "Rua Lucindo Pereira Lima",
        "zipcode": "13736-745"
    },
    {
        "city": "Mococa",
        "state": "SP",
        "district": "Jardim José André de Lima",
        "street": "Rua Manoel Martins Pierri",
        "zipcode": "13736-750"
    },
    {
        "city": "Mococa",
        "state": "SP",
        "district": "Anita Venturi Prícoli",
        "street": "Rua Lauro Grespan",
        "zipcode": "13737-234"
    },
    {
        "city": "Mococa",
        "state": "SP",
        "district": "Jardim Central Prícoli",
        "street": "Rua Rosina Stavale Prícoli",
        "zipcode": "13736-565"
    },
    {
        "city": "Mococa",
        "state": "SP",
        "district": "Jardim José André de Lima",
        "street": "Rua Projetada",
        "zipcode": "13736-715"
    },
    {
        "city": "Mococa",
        "state": "SP",
        "district": "Jardim José André de Lima",
        "street": "Rua Paulo Fernando Figueiredo Santos Marchese",
        "zipcode": "13736-720"
    },
    {
        "city": "Mococa",
        "state": "SP",
        "district": "Jardim José André de Lima",
        "street": "Rua Nelson Di Ruza",
        "zipcode": "13736-755"
    },
    {
        "city": "Mococa",
        "state": "SP",
        "district": "Conjunto Habitacional Francisco Garófalo",
        "street": "Rua Pedro Saes Molina",
        "zipcode": "13736-790"
    },
    {
        "city": "Mococa",
        "state": "SP",
        "district": "Conjunto Habitacional Francisco Garófalo",
        "street": "Rua Oscar Souza Dias",
        "zipcode": "13736-805"
    },
    {
        "city": "Mococa",
        "state": "SP",
        "district": "Residencial Jardim José Justi II",
        "street": "Rua 2",
        "zipcode": "13734-534"
    },
    {
        "city": "Mococa",
        "state": "SP",
        "district": "Conjunto Habitacional Gilberto Rossetti",
        "street": "Rua Waldemar Miachon",
        "zipcode": "13737-315"
    },
    {
        "city": "Mococa",
        "state": "SP",
        "district": "Conjunto Habitacional Nelson Niero",
        "street": "Rua Milton Gonçalves Dias",
        "zipcode": "13734-595"
    },
    {
        "city": "Mococa",
        "state": "SP",
        "district": "Jardim Colina Verde",
        "street": "Rua Américo Ferraz Dias",
        "zipcode": "13737-000"
    },
    {
        "city": "Mococa",
        "state": "SP",
        "district": "Jardim Colina Verde",
        "street": "Rua Antônio Marco Pazote",
        "zipcode": "13737-005"
    },
    {
        "city": "Mococa",
        "state": "SP",
        "district": "Jardim Colina Verde",
        "street": "Rua Carlos Codógno",
        "zipcode": "13737-010"
    },
    {
        "city": "Mococa",
        "state": "SP",
        "district": "Jardim Colina Verde",
        "street": "Avenida Geraldo Patti",
        "zipcode": "13737-015"
    },
    {
        "city": "Mococa",
        "state": "SP",
        "district": "Jardim das Figueiras",
        "street": "Rua José Vieira Santos Neto",
        "zipcode": "13737-125"
    },
    {
        "city": "Mococa",
        "state": "SP",
        "district": "Jardim das Figueiras",
        "street": "Praça João Tucunduva de Campos",
        "zipcode": "13737-132"
    },
    {
        "city": "Mococa",
        "state": "SP",
        "district": "Conjunto Habitacional Gilberto Rossetti",
        "street": "Rua Antônio Marcelo Lipi",
        "zipcode": "13737-365"
    },
    {
        "city": "Mococa",
        "state": "SP",
        "district": "Chácara Palmeirinha",
        "street": "Rua Carandri",
        "zipcode": "13737-450"
    },
    {
        "city": "Mococa",
        "state": "SP",
        "district": "Conjunto Habitacional Gilberto Rossetti",
        "street": "Rua Professor Manoel Vaz Lobo",
        "zipcode": "13737-600"
    },
    {
        "city": "Mococa",
        "state": "SP",
        "district": "Conjunto Habitacional Gilberto Rossetti",
        "street": "Rua Marcelo Coelho Ribeiro Rocha",
        "zipcode": "13737-605"
    },
    {
        "city": "Mococa",
        "state": "SP",
        "district": "Conjunto Habitacional Gilberto Rossetti",
        "street": "Rua Roque Marchese",
        "zipcode": "13737-615"
    },
    {
        "city": "Mococa",
        "state": "SP",
        "district": "Conjunto Habitacional Gilberto Rossetti",
        "street": "Rua Elisa Vita",
        "zipcode": "13737-618"
    },
    {
        "city": "Mococa",
        "state": "SP",
        "district": "Conjunto Habitacional Gilberto Rossetti",
        "street": "Rua José Coimbra Duarte",
        "zipcode": "13737-619"
    },
    {
        "city": "Mococa",
        "state": "SP",
        "district": "Conjunto Habitacional Gilberto Rossetti",
        "street": "Rua José Thiago de Siqueira Júnior",
        "zipcode": "13737-626"
    },
    {
        "city": "Mococa",
        "state": "SP",
        "district": "Vila Carvalho",
        "street": "Rua Fuad Dib João",
        "zipcode": "13735-425"
    },
    {
        "city": "Mococa",
        "state": "SP",
        "district": "Conjunto Habitacional Gilberto Rossetti",
        "street": "Rua Marcos Fogarin",
        "zipcode": "13737-645"
    },
    {
        "city": "Mococa",
        "state": "SP",
        "district": "Conjunto Habitacional Gilberto Rossetti",
        "street": "Rua João Vita",
        "zipcode": "13737-646"
    },
    {
        "city": "Mococa",
        "state": "SP",
        "district": "Conjunto Habitacional Gilberto Rossetti",
        "street": "Rua José de Freitas Filho",
        "zipcode": "13737-648"
    },
    {
        "city": "Mococa",
        "state": "SP",
        "district": "Conjunto Habitacional Gilberto Rossetti",
        "street": "Rua José Luiz Constantino",
        "zipcode": "13737-652"
    },
    {
        "city": "Mococa",
        "state": "SP",
        "district": "Conjunto Habitacional Gilberto Rossetti",
        "street": "Rua Cezar Vicinanca",
        "zipcode": "13737-655"
    },
    {
        "city": "Mococa",
        "state": "SP",
        "district": "Conjunto Habitacional Gilberto Rossetti",
        "street": "Rua Thomaz Fuschilo",
        "zipcode": "13737-657"
    },
    {
        "city": "Mococa",
        "state": "SP",
        "district": "Conjunto Habitacional Gilberto Rossetti",
        "street": "Rua Gino Borone",
        "zipcode": "13737-662"
    },
    {
        "city": "Mococa",
        "state": "SP",
        "district": "Conjunto Habitacional Gilberto Rossetti",
        "street": "Rua Pedro Boaratti",
        "zipcode": "13737-663"
    },
    {
        "city": "Mococa",
        "state": "SP",
        "district": "Conjunto Habitacional Gilberto Rossetti",
        "street": "Rua Bahyg Jauhar",
        "zipcode": "13737-667"
    },
    {
        "city": "Mococa",
        "state": "SP",
        "district": "Chácara Bela Vista",
        "street": "Rua João Oliveira Carvalho",
        "zipcode": "13737-670"
    },
    {
        "city": "Mococa",
        "state": "SP",
        "district": "Chácara dos Ipês",
        "street": "Rua Três",
        "zipcode": "13737-690"
    },
    {
        "city": "Mococa",
        "state": "SP",
        "district": "Jardim do Imperador",
        "street": "Rua Gilberto Baságlia",
        "zipcode": "13737-720"
    },
    {
        "city": "Mococa",
        "state": "SP",
        "district": "Jardim do Imperador",
        "street": "Rua Antônio Ramalho",
        "zipcode": "13737-725"
    },
    {
        "city": "Mococa",
        "state": "SP",
        "district": "Jardim Residencial do Bosque",
        "street": "Rua Vicente Dorgan",
        "zipcode": "13738-020"
    },
    {
        "city": "Mococa",
        "state": "SP",
        "district": "Conjunto Habitacional Gilberto Rossetti",
        "street": "Rua Rodolfo Serafim",
        "zipcode": "13737-373"
    },
    {
        "city": "Mococa",
        "state": "SP",
        "district": "Conjunto Habitacional Gilberto Rossetti",
        "street": "Rua Antônio Gonçalves Soares",
        "zipcode": "13737-610"
    },
    {
        "city": "Mococa",
        "state": "SP",
        "district": "Conjunto Habitacional Gilberto Rossetti",
        "street": "Rua João José Vita",
        "zipcode": "13737-620"
    },
    {
        "city": "Mococa",
        "state": "SP",
        "district": "Conjunto Habitacional Nelson Niero",
        "street": "Rua Antônio Dias Costa Barros",
        "zipcode": "13734-555"
    },
    {
        "city": "Mococa",
        "state": "SP",
        "district": "Jardim das Figueiras",
        "street": "Rua Heloísa de Figueiredo Ferraz",
        "zipcode": "13737-120"
    },
    {
        "city": "Mococa",
        "state": "SP",
        "district": "Condomínio Casas do Monte Belo",
        "street": "Rua João Vieira",
        "zipcode": "13737-175"
    },
    {
        "city": "Mococa",
        "state": "SP",
        "district": "Jardim Morro Azul",
        "street": "Rua dos Guapuruvús",
        "zipcode": "13738-000"
    },
    {
        "city": "Mococa",
        "state": "SP",
        "district": "Jardim Morro Azul",
        "street": "Rua dos Jacarandás",
        "zipcode": "13738-029"
    },
    {
        "city": "Mococa",
        "state": "SP",
        "district": "Condomínio Casas do Monte Belo",
        "street": "Rua Arlindo Pucciarelli",
        "zipcode": "13737-160"
    },
    {
        "city": "Mococa",
        "state": "SP",
        "district": "Jardim Santa Maria",
        "street": "Avenida Eugênio Xavier",
        "zipcode": "13730-285"
    },
    {
        "city": "Mococa",
        "state": "SP",
        "district": "Centro",
        "street": "Rua Antônio Cristovam",
        "zipcode": "13730-110"
    },
    {
        "city": "Mococa",
        "state": "SP",
        "district": "Centro",
        "street": "Praça Antônio G. Siqueira",
        "zipcode": "13730-118"
    },
    {
        "city": "Mococa",
        "state": "SP",
        "district": "Centro",
        "street": "Praça Ademar de Barros",
        "zipcode": "13730-048"
    },
    {
        "city": "Mococa",
        "state": "SP",
        "district": "Centro",
        "street": "Rua Campos Salles",
        "zipcode": "13730-229"
    },
    {
        "city": "Mococa",
        "state": "SP",
        "district": "Anita Venturi Prícoli",
        "street": "Rua Carlos Adalberto de Lima",
        "zipcode": "13737-242"
    },
    {
        "city": "Mococa",
        "state": "SP",
        "district": "Jardim Rigobelo",
        "street": "Rua João Sukadolnik",
        "zipcode": "13730-249"
    },
    {
        "city": "Mococa",
        "state": "SP",
        "district": "Centro",
        "street": "Rua Gabriel Pinheiro",
        "zipcode": "13730-090"
    },
    {
        "city": "Mococa",
        "state": "SP",
        "district": "Jardim da Paineira",
        "street": "Rua Maria Miranda Mariano",
        "zipcode": "13735-094"
    },
    {
        "city": "Mococa",
        "state": "SP",
        "district": "Centro",
        "street": "Rua Padre Anchieta",
        "zipcode": "13730-044"
    },
    {
        "city": "Mococa",
        "state": "SP",
        "district": "Conjunto Habitacional Gildo Geraldo",
        "street": "Rua Claudio Antonio Ferreira",
        "zipcode": "13737-740"
    },
    {
        "city": "Mococa",
        "state": "SP",
        "district": "Conjunto Habitacional Gildo Geraldo",
        "street": "Rua Gonçalo Vieira",
        "zipcode": "13737-745"
    },
    {
        "city": "Mococa",
        "state": "SP",
        "district": "Conjunto Habitacional Gildo Geraldo",
        "street": "Rua Ida Greghi",
        "zipcode": "13737-775"
    },
    {
        "city": "Mococa",
        "state": "SP",
        "district": "Conjunto Habitacional Gildo Geraldo",
        "street": "Rua Expedito Bernardo",
        "zipcode": "13737-790"
    },
    {
        "city": "Mococa",
        "state": "SP",
        "district": "Conjunto Habitacional Gildo Geraldo",
        "street": "Rua José Josino da Costa",
        "zipcode": "13737-805"
    },
    {
        "city": "Mococa",
        "state": "SP",
        "district": "Jardim Morro Azul",
        "street": "Rua das Paineiras",
        "zipcode": "13738-050"
    },
    {
        "city": "Mococa",
        "state": "SP",
        "district": "Jardim Lavínia",
        "street": "Rua Honduras",
        "zipcode": "13738-220"
    },
    {
        "city": "Mococa",
        "state": "SP",
        "district": "Jardim Primavera",
        "street": "Rua Café Filho",
        "zipcode": "13738-595"
    },
    {
        "city": "Mococa",
        "state": "SP",
        "district": "Distrito Industrial II",
        "street": "Rodovia Manoel Barbosa",
        "zipcode": "13739-010"
    },
    {
        "city": "Mococa",
        "state": "SP",
        "district": "Distrito Industrial II",
        "street": "Rua João Zamariam",
        "zipcode": "13739-020"
    },
    {
        "city": "Mococa",
        "state": "SP",
        "district": "Distrito Industrial II",
        "street": "Avenida Geraldo Marra",
        "zipcode": "13739-030"
    },
    {
        "city": "Mococa",
        "state": "SP",
        "district": "Distrito Industrial II",
        "street": "Avenida Nelo Pisani",
        "zipcode": "13739-050"
    },
    {
        "city": "Mococa",
        "state": "SP",
        "district": "Distrito Industrial II",
        "street": "Rua José Luiz Fogarim",
        "zipcode": "13739-060"
    },
    {
        "city": "Mococa",
        "state": "SP",
        "district": "Distrito Industrial II",
        "street": "Rua José Oleto",
        "zipcode": "13739-070"
    },
    {
        "city": "Mococa",
        "state": "SP",
        "district": "Distrito Industrial II",
        "street": "Rua João Siqueira Mesquita",
        "zipcode": "13739-090"
    },
    {
        "city": "Mococa",
        "state": "SP",
        "district": "Distrito Industrial II",
        "street": "Rua Orlando Rimoli",
        "zipcode": "13739-100"
    },
    {
        "city": "Mococa",
        "state": "SP",
        "district": "Conjunto Habitacional Gilberto Rossetti",
        "street": "Rua Paschoal Pisani Filho",
        "zipcode": "13737-606"
    },
    {
        "city": "Mococa",
        "state": "SP",
        "district": "Jardim Residencial do Bosque",
        "street": "Rua João Cilani",
        "zipcode": "13738-037"
    },
    {
        "city": "Mococa",
        "state": "SP",
        "district": "Jardim Lavínia",
        "street": "Rua Estados Unidos",
        "zipcode": "13738-210"
    },
    {
        "city": "Mococa",
        "state": "SP",
        "district": "Chácara Bela Vista",
        "street": "Rua Nelson de O. Carvalho",
        "zipcode": "13738-330"
    },
    {
        "city": "Mococa",
        "state": "SP",
        "district": "Jardim Riachuelo",
        "street": "Rua Maranhão",
        "zipcode": "13738-510"
    },
    {
        "city": "Mococa",
        "state": "SP",
        "district": "Jardim Riachuelo",
        "street": "Rua Caetano de Vito",
        "zipcode": "13738-515"
    },
    {
        "city": "Mococa",
        "state": "SP",
        "district": "Jardim Primavera",
        "street": "Rua Afonso Pena",
        "zipcode": "13738-555"
    },
    {
        "city": "Mococa",
        "state": "SP",
        "district": "Conjunto Habitacional Gilberto Rossetti",
        "street": "Rua Abrahão Venturi",
        "zipcode": "13737-635"
    },
    {
        "city": "Mococa",
        "state": "SP",
        "district": "Conjunto Habitacional Gildo Geraldo",
        "street": "Rua Fioravante Prinholato",
        "zipcode": "13737-800"
    },
    {
        "city": "Mococa",
        "state": "SP",
        "district": "Jardim Residencial do Bosque",
        "street": "Rua Ruela Particular",
        "zipcode": "13738-034"
    },
    {
        "city": "Mococa",
        "state": "SP",
        "district": "Jardim Morro Azul",
        "street": "Rua das Cássias",
        "zipcode": "13738-056"
    },
    {
        "city": "Mococa",
        "state": "SP",
        "district": "Jardim Morro Azul",
        "street": "Rua das Sibipirunas",
        "zipcode": "13738-057"
    },
    {
        "city": "Mococa",
        "state": "SP",
        "district": "Jardim Morro Azul",
        "street": "Rua das Bisnagueiras",
        "zipcode": "13738-065"
    },
    {
        "city": "Mococa",
        "state": "SP",
        "district": "Vila Maria",
        "street": "Praça José Otaviano de Figueiredo",
        "zipcode": "13730-421"
    },
    {
        "city": "Mococa",
        "state": "SP",
        "district": "Vila Lambari",
        "street": "Praça Olímpio Garcia de Figueiredo",
        "zipcode": "13731-087"
    },
    {
        "city": "Mococa",
        "state": "SP",
        "district": "Núcleo Habitacional Nenê Pereira Lima",
        "street": "Rua Alberto Xavier Soares",
        "zipcode": "13732-427"
    },
    {
        "city": "Mococa",
        "state": "SP",
        "district": "Jardim Alvorada",
        "street": "Rua Américo Assolini",
        "zipcode": "13732-550"
    },
    {
        "city": "Mococa",
        "state": "SP",
        "district": "Cecap II",
        "street": "Rua Cláudio Manoel da Costa",
        "zipcode": "13732-010"
    },
    {
        "city": "Mococa",
        "state": "SP",
        "district": "Núcleo Habitacional Nenê Pereira Lima",
        "street": "Rua Claudemiro Rodrigues dos Santos",
        "zipcode": "13732-440"
    },
    {
        "city": "Mococa",
        "state": "SP",
        "district": "Jardim São Domingos",
        "street": "Rua Geraldo Carlos Santiago",
        "zipcode": "13732-690"
    },
    {
        "city": "Mococa",
        "state": "SP",
        "district": "Jardim Santa Cecília",
        "street": "Rua Doutor Luiz Capriglioni",
        "zipcode": "13733-010"
    },
    {
        "city": "Mococa",
        "state": "SP",
        "district": "Jardim Santa Cecília",
        "street": "Rua João Pereira Lima",
        "zipcode": "13733-030"
    },
    {
        "city": "Mococa",
        "state": "SP",
        "district": "Vila Santa Rosa",
        "street": "Rua Maranhão",
        "zipcode": "13731-120"
    },
    {
        "city": "Mococa",
        "state": "SP",
        "district": "Cecap II",
        "street": "Rua Manoel Bandeira",
        "zipcode": "13732-050"
    },
    {
        "city": "Mococa",
        "state": "SP",
        "district": "Conjunto Habitacional Gabriel do Ó",
        "street": "Rua José Procópio da Silva",
        "zipcode": "13732-580"
    },
    {
        "city": "Mococa",
        "state": "SP",
        "district": "Jardim Nova Mococa",
        "street": "Rua Rio Grande do Norte",
        "zipcode": "13731-295"
    },
    {
        "city": "Mococa",
        "state": "SP",
        "district": "Jardim Nova Mococa",
        "street": "Rua Roraima",
        "zipcode": "13731-340"
    },
    {
        "city": "Mococa",
        "state": "SP",
        "district": "Jardim São Domingos",
        "street": "Rua Pedro Guilherme da Costa",
        "zipcode": "13732-630"
    },
    {
        "city": "Mococa",
        "state": "SP",
        "district": "Jardim Primavera",
        "street": "Rua Washington Luiz",
        "zipcode": "13738-560"
    },
    {
        "city": "Mococa",
        "state": "SP",
        "district": "Conjunto Habitacional Gabriel do Ó",
        "street": "Rua Professor Antônio Carrara",
        "zipcode": "13732-901"
    },
    {
        "city": "Mococa",
        "state": "SP",
        "district": "Centro",
        "street": "Rua Gabriel Pinheiro",
        "zipcode": "13730-902"
    },
    {
        "city": "Mococa",
        "state": "SP",
        "district": "Distrito Industrial II",
        "street": "Avenida Geraldo Marra",
        "zipcode": "13730-903"
    },
    {
        "city": "Mococa",
        "state": "SP",
        "district": "Centro",
        "street": "Rua Quinze de Novembro",
        "zipcode": "13730-900"
    },
    {
        "city": "Mococa",
        "state": "SP",
        "district": "Vila Santa Cruz",
        "street": "Rua Major Alvino Silva",
        "zipcode": "13734-200"
    },
    {
        "city": "Mococa",
        "state": "SP",
        "district": "Jardim José Justi",
        "street": "Rua Matheus Dário Andreoli",
        "zipcode": "13734-465"
    },
    {
        "city": "Mococa",
        "state": "SP",
        "district": "Vila Santa Rosa",
        "street": "Rua Francisco Baldineti",
        "zipcode": "13731-088"
    },
    {
        "city": "Mococa",
        "state": "SP",
        "district": "Vila Lambari",
        "street": "Rua Amazonas",
        "zipcode": "13731-060"
    },
    {
        "city": "Mococa",
        "state": "SP",
        "district": "Jardim Morro Azul",
        "street": "Praça Ferdinando Giorgi",
        "zipcode": "13738-054"
    },
    {
        "city": "Mococa",
        "state": "SP",
        "district": "Jardim Lavínia",
        "street": "Rua Senador José Ermirio de Moraes",
        "zipcode": "13738-300"
    },
    {
        "city": "Mococa",
        "state": "SP",
        "district": "Jardim Primavera",
        "street": "Rua Juscelino Kubitschek",
        "zipcode": "13738-590"
    },
    {
        "city": "Mococa",
        "state": "SP",
        "district": "Distrito Industrial II",
        "street": "Rua Albino Alves de Souza",
        "zipcode": "13739-105"
    },
    {
        "city": "Mococa",
        "state": "SP",
        "district": "Vila Santa Rosa",
        "street": "Rua Bahia",
        "zipcode": "13731-230"
    },
    {
        "city": "Mococa",
        "state": "SP",
        "district": "Conjunto Habitacional Gilberto Rossetti",
        "street": "Rodovia SP",
        "zipcode": "13737-627"
    },
    {
        "city": "Mococa",
        "state": "SP",
        "district": "Jardim São Francisco",
        "street": "Avenida Presidente Castelo Branco",
        "zipcode": "13734-350"
    },
    {
        "city": "Mococa",
        "state": "SP",
        "district": "Chácara São Domingos Shop",
        "street": "Rua Adolpho Santolin",
        "zipcode": "13734-430"
    },
    {
        "city": "Mococa",
        "state": "SP",
        "district": "Jardim José Justi",
        "street": "Rua Adriano Macedo Zeferino",
        "zipcode": "13734-485"
    },
    {
        "city": "Mococa",
        "state": "SP",
        "district": "Jardim Alvorada",
        "street": "Rua Alcides Zanchi",
        "zipcode": "13732-508"
    },
    {
        "city": "Mococa",
        "state": "SP",
        "district": "Jardim São Luiz",
        "street": "Rua Allan Kardec",
        "zipcode": "13735-041"
    },
    {
        "city": "Mococa",
        "state": "SP",
        "district": "Jardim Lavínia",
        "street": "Rua Antilhas",
        "zipcode": "13736-330"
    },
    {
        "city": "Mococa",
        "state": "SP",
        "district": "Jardim São Domingos",
        "street": "Rua Doutor Carlos Lima Dias",
        "zipcode": "13733-150"
    },
    {
        "city": "Mococa",
        "state": "SP",
        "district": "Jardim São Domingos",
        "street": "Rua Doutor Gabriel Pinheiro Figueiredo",
        "zipcode": "13733-270"
    },
    {
        "city": "Mococa",
        "state": "SP",
        "district": "Residencial Carlito Quilici",
        "street": "Rua dos Metalúrgicos",
        "zipcode": "13733-516"
    },
    {
        "city": "Mococa",
        "state": "SP",
        "district": "Residencial Carlito Quilici",
        "street": "Rua Doracy Carlos Maziero",
        "zipcode": "13733-526"
    },
    {
        "city": "Mococa",
        "state": "SP",
        "district": "Residencial Carlito Quilici",
        "street": "Rua Crélia Ferracin Bacci",
        "zipcode": "13733-530"
    },
    {
        "city": "Mococa",
        "state": "SP",
        "district": "Residencial Carlito Quilici",
        "street": "Rua Belmiro Simoni",
        "zipcode": "13733-540"
    },
    {
        "city": "Mococa",
        "state": "SP",
        "district": "Mocoquinha",
        "street": "Rua Cônego Bento",
        "zipcode": "13734-130"
    },
    {
        "city": "Mococa",
        "state": "SP",
        "district": "Chácara São Domingos Shop",
        "street": "Rua Celeste Paladini Pucciareli",
        "zipcode": "13734-440"
    },
    {
        "city": "Mococa",
        "state": "SP",
        "district": "Jardim Alvorada",
        "street": "Rua Arthur Rossi",
        "zipcode": "13732-519"
    },
    {
        "city": "Mococa",
        "state": "SP",
        "district": "Residencial Carlito Quilici",
        "street": "Rua Divina Olímpio da Silva",
        "zipcode": "13733-528"
    },
    {
        "city": "Mococa",
        "state": "SP",
        "district": "Jardim da Paineira",
        "street": "Rua Antonio Romeiro",
        "zipcode": "13735-096"
    },
    {
        "city": "Mococa",
        "state": "SP",
        "district": "Residencial Carlito Quilici",
        "street": "Rua Doutor Saulo Pereira Lima",
        "zipcode": "13733-518"
    },
    {
        "city": "Mococa",
        "state": "SP",
        "district": "Residencial Carlito Quilici",
        "street": "Rua João Batista Ferreira",
        "zipcode": "13733-522"
    },
    {
        "city": "Mococa",
        "state": "SP",
        "district": "Residencial Samambaia",
        "street": "Rua Eugênio Busso",
        "zipcode": "13734-278"
    },
    {
        "city": "Mococa",
        "state": "SP",
        "district": "Residencial Samambaia",
        "street": "Rua Felix Porcel",
        "zipcode": "13734-280"
    },
    {
        "city": "Mococa",
        "state": "SP",
        "district": "Jardim José Justi",
        "street": "Rua Joaquim Firmino Costa",
        "zipcode": "13734-525"
    },
    {
        "city": "Mococa",
        "state": "SP",
        "district": "Mocoquinha",
        "street": "Rua Francisco Trepador",
        "zipcode": "13734-050"
    },
    {
        "city": "Mococa",
        "state": "SP",
        "district": "Jardim São Domingos",
        "street": "Rua Monsenhor João Laureano",
        "zipcode": "13733-100"
    },
    {
        "city": "Mococa",
        "state": "SP",
        "district": "Residencial Carlito Quilici",
        "street": "Rua Manoel José Pereira",
        "zipcode": "13733-524"
    },
    {
        "city": "Mococa",
        "state": "SP",
        "district": "Residencial Carlito Quilici",
        "street": "Rua José Wilson Scafi",
        "zipcode": "13733-534"
    },
    {
        "city": "Mococa",
        "state": "SP",
        "district": "Residencial Carlito Quilici",
        "street": "Rua Manoel Quessada Rodrigues",
        "zipcode": "13733-538"
    },
    {
        "city": "Mococa",
        "state": "SP",
        "district": "Residencial Carlito Quilici",
        "street": "Rua Manoel Martin",
        "zipcode": "13733-542"
    },
    {
        "city": "Mococa",
        "state": "SP",
        "district": "Vila Santa Cruz",
        "street": "Rua Manoel Carlos Siqueira",
        "zipcode": "13734-230"
    },
    {
        "city": "Mococa",
        "state": "SP",
        "district": "Residencial Samambaia",
        "street": "Rua Maurício Marcicano",
        "zipcode": "13734-284"
    },
    {
        "city": "Mococa",
        "state": "SP",
        "district": "Residencial Samambaia",
        "street": "Rua Menarda Correa da Silva",
        "zipcode": "13734-286"
    },
    {
        "city": "Mococa",
        "state": "SP",
        "district": "Residencial Samambaia",
        "street": "Rua Maria de Lourdes Perri Falarini",
        "zipcode": "13734-288"
    },
    {
        "city": "Mococa",
        "state": "SP",
        "district": "Jardim São Francisco",
        "street": "Rua Monsenhor Félix Brand",
        "zipcode": "13734-300"
    },
    {
        "city": "Mococa",
        "state": "SP",
        "district": "Descanso",
        "street": "Rua José Bonifácio",
        "zipcode": "13735-036"
    },
    {
        "city": "Mococa",
        "state": "SP",
        "district": "Jardim São Domingos",
        "street": "Rua José Ferraz Siqueira",
        "zipcode": "13733-350"
    },
    {
        "city": "Mococa",
        "state": "SP",
        "district": "Jardim São Domingos",
        "street": "Rua José Paulo Jacintho",
        "zipcode": "13733-389"
    },
    {
        "city": "Mococa",
        "state": "SP",
        "district": "Residencial Samambaia",
        "street": "Rua Sebastiana Queranza Daniel",
        "zipcode": "13734-292"
    },
    {
        "city": "Mococa",
        "state": "SP",
        "district": "Loteamento Santa Emília",
        "street": "Rua Orchiza de Figueiredo",
        "zipcode": "13732-468"
    },
    {
        "city": "Mococa",
        "state": "SP",
        "district": "Loteamento Santa Emília",
        "street": "Rua Sebastião Micael de Souza",
        "zipcode": "13732-464"
    },
    {
        "city": "Mococa",
        "state": "SP",
        "district": "Jardim Santa Clara",
        "street": "Rua Juarez Quintino Pereira",
        "zipcode": "13735-900"
    },
    {
        "city": "Mococa",
        "state": "SP",
        "district": "Ari Estevão",
        "street": "Rua Geraldo de Mello Costal",
        "zipcode": "13734-669"
    },
    {
        "city": "Mococa",
        "state": "SP",
        "district": "Brás",
        "street": "Avenida João Batista Lima Figueiredo",
        "zipcode": "13735-000"
    },
    {
        "city": "Mococa",
        "state": "SP",
        "district": "Vila Carvalho",
        "street": "Rua João José Chines",
        "zipcode": "13735-490"
    },
    {
        "city": "Mococa",
        "state": "SP",
        "district": "Chácara do Vale",
        "street": "Rua das Mangueiras",
        "zipcode": "13735-570"
    },
    {
        "city": "Mococa",
        "state": "SP",
        "district": "Jardim Santa Clara",
        "street": "Avenida Pedro II",
        "zipcode": "13735-400"
    },
    {
        "city": "Mococa",
        "state": "SP",
        "district": "Brás",
        "street": "Rua Treze de Maio",
        "zipcode": "13735-018"
    },
    {
        "city": "Mococa",
        "state": "SP",
        "district": "Vila Carvalho",
        "street": "Rua Vítor de Assis Lima",
        "zipcode": "13735-449"
    },
    {
        "city": "Mococa",
        "state": "SP",
        "district": "Brás",
        "street": "Rua Coronel Diogo",
        "zipcode": "13735-027"
    },
    {
        "city": "Mococa",
        "state": "SP",
        "district": "Altos do Vale II",
        "street": "Rua Roberto Roque",
        "zipcode": "13735-682"
    },
    {
        "city": "Mococa",
        "state": "SP",
        "district": "Conjunto Habitacional Francisco Garófalo",
        "street": "Rua José Manoel Luchesi",
        "zipcode": "13736-780"
    },
    {
        "city": "Mococa",
        "state": "SP",
        "district": "Jardim Colina Verde",
        "street": "Rua Humberto Benedetti",
        "zipcode": "13737-020"
    },
    {
        "city": "Mococa",
        "state": "SP",
        "district": "Jardim Colina Verde",
        "street": "Rua Ovídio Mazieiro",
        "zipcode": "13737-040"
    },
    {
        "city": "Mococa",
        "state": "SP",
        "district": "Terras de Santa Marina",
        "street": "Rua Nicolino Mega",
        "zipcode": "13737-056"
    },
    {
        "city": "Mococa",
        "state": "SP",
        "district": "Jardim Morro Azul",
        "street": "Praça Paschoal Paione",
        "zipcode": "13738-063"
    },
    {
        "city": "Mococa",
        "state": "SP",
        "district": "Residencial Carlito Quilici",
        "street": "Rua Mauro Cândido",
        "zipcode": "13733-550"
    },
    {
        "city": "Mococa",
        "state": "SP",
        "district": "Residencial Samambaia",
        "street": "Rua Ary Monteiro Dias",
        "zipcode": "13734-270"
    },
    {
        "city": "Mococa",
        "state": "SP",
        "district": "Jardim Lavínia",
        "street": "Rua Argentina",
        "zipcode": "13736-250"
    },
    {
        "city": "Mococa",
        "state": "SP",
        "district": "Vila Quintino",
        "street": "Rua Niterói",
        "zipcode": "13736-150"
    },
    {
        "city": "Mococa",
        "state": "SP",
        "district": "Jardim Planalto Verde",
        "street": "Rua José Eugênio Filho",
        "zipcode": "13736-370"
    },
    {
        "city": "Mococa",
        "state": "SP",
        "district": "Conjunto Habitacional Francisco Garófalo",
        "street": "Avenida Francisco José Dias Lima",
        "zipcode": "13736-845"
    },
    {
        "city": "Mococa",
        "state": "SP",
        "district": "Terras de Santa Marina",
        "street": "Alameda Luiz de Figueiredo Barretto",
        "zipcode": "13737-050"
    },
    {
        "city": "Mococa",
        "state": "SP",
        "district": "Terras de Santa Marina",
        "street": "Alameda Marina Lerro Barretto",
        "zipcode": "13737-052"
    },
    {
        "city": "Mococa",
        "state": "SP",
        "district": "Aparecida",
        "street": "Rua André Masili",
        "zipcode": "13735-066"
    },
    {
        "city": "Mococa",
        "state": "SP",
        "district": "Loteamento Altos do Vale",
        "street": "Rua Alice Maria de Silva",
        "zipcode": "13735-654"
    },
    {
        "city": "Mococa",
        "state": "SP",
        "district": "Altos do Vale II",
        "street": "Rua Antonio Aparecido Madeira",
        "zipcode": "13735-674"
    },
    {
        "city": "Mococa",
        "state": "SP",
        "district": "Conjunto Habitacional Francisco Garófalo",
        "street": "Rua Ângelo Bertoldo Rocha",
        "zipcode": "13736-820"
    },
    {
        "city": "Mococa",
        "state": "SP",
        "district": "Jardim Santa Clara",
        "street": "Praça Pastor Jesuíno José Silva",
        "zipcode": "13735-229"
    },
    {
        "city": "Mococa",
        "state": "SP",
        "district": "Aparecida",
        "street": "Rua Barão de Monte Santo",
        "zipcode": "13735-060"
    },
    {
        "city": "Mococa",
        "state": "SP",
        "district": "Vila Quintino",
        "street": "Rua Belém",
        "zipcode": "13736-100"
    },
    {
        "city": "Mococa",
        "state": "SP",
        "district": "Aparecida",
        "street": "Rua Doutor João Gomes",
        "zipcode": "13735-076"
    },
    {
        "city": "Mococa",
        "state": "SP",
        "district": "Aparecida",
        "street": "Rua Doutor Miguel Ferreira da Silva Neto",
        "zipcode": "13735-064"
    },
    {
        "city": "Mococa",
        "state": "SP",
        "district": "Loteamento Altos do Vale",
        "street": "Rua João Luiz Leopoldo Honorato",
        "zipcode": "13735-650"
    },
    {
        "city": "Mococa",
        "state": "SP",
        "district": "Altos do Vale II",
        "street": "Rua Farnese Pereira da Fonseca",
        "zipcode": "13735-684"
    },
    {
        "city": "Mococa",
        "state": "SP",
        "district": "Jardim José André de Lima",
        "street": "Rua Ibsen Belmudes Toledo",
        "zipcode": "13736-740"
    },
    {
        "city": "Mococa",
        "state": "SP",
        "district": "Terras de Santa Marina",
        "street": "Rua Gustavo Miachon Santos",
        "zipcode": "13737-054"
    },
    {
        "city": "Mococa",
        "state": "SP",
        "district": "Jardim da Paineira",
        "street": "Rua João Ananias",
        "zipcode": "13735-112"
    },
    {
        "city": "Mococa",
        "state": "SP",
        "district": "Jardim São José",
        "street": "Rua Giovani Delduque",
        "zipcode": "13736-615"
    },
    {
        "city": "Mococa",
        "state": "SP",
        "district": "Jardim Chico Piscina",
        "street": "Rua México",
        "zipcode": "13736-300"
    },
    {
        "city": "Mococa",
        "state": "SP",
        "district": "Jardim Lavínia",
        "street": "Rua José Luzzi",
        "zipcode": "13736-332"
    },
    {
        "city": "Mococa",
        "state": "SP",
        "district": "Jardim Progresso",
        "street": "Rua Maria Dolores Martins Viotto",
        "zipcode": "13736-388"
    },
    {
        "city": "Mococa",
        "state": "SP",
        "district": "Conjunto Habitacional Francisco Garófalo",
        "street": "Rua Mário Lauria",
        "zipcode": "13736-847"
    },
    {
        "city": "Mococa",
        "state": "SP",
        "district": "Jardim Colina Verde",
        "street": "Rua Laércio Pereira",
        "zipcode": "13737-033"
    },
    {
        "city": "Mococa",
        "state": "SP",
        "district": "Altos do Vale II",
        "street": "Rua Luiz Lourencini",
        "zipcode": "13735-680"
    },
    {
        "city": "Mococa",
        "state": "SP",
        "district": "Jardim São José",
        "street": "Rua José Ricardo Ribeiro Costa",
        "zipcode": "13736-635"
    },
    {
        "city": "Mococa",
        "state": "SP",
        "district": "Altos do Vale II",
        "street": "Rua Orlando Barbosa",
        "zipcode": "13735-678"
    },
    {
        "city": "Mococa",
        "state": "SP",
        "district": "Jardim Lavínia",
        "street": "Rua Romeu Verzola",
        "zipcode": "13736-336"
    },
    {
        "city": "Mococa",
        "state": "SP",
        "district": "Jardim José André de Lima",
        "street": "Rua Otávio Pereira Lima",
        "zipcode": "13736-760"
    },
    {
        "city": "Mococa",
        "state": "SP",
        "district": "Jardim Santa Clara",
        "street": "Rua Paschoal Pisani",
        "zipcode": "13735-250"
    },
    {
        "city": "Mococa",
        "state": "SP",
        "district": "Residencial Jardim José Justi II",
        "street": "Rua 7",
        "zipcode": "13734-542"
    },
    {
        "city": "Mococa",
        "state": "SP",
        "district": "Altos do Vale II",
        "street": "Rua Walter Antonio Becker",
        "zipcode": "13735-670"
    },
    {
        "city": "Mococa",
        "state": "SP",
        "district": "Conjunto Habitacional Francisco Garófalo",
        "street": "Rua Wilson de Figueiredo Souza",
        "zipcode": "13736-860"
    },
    {
        "city": "Mococa",
        "state": "SP",
        "district": "Centro",
        "street": "Rua Capitão José Caetano de Figueiredo",
        "zipcode": "13730-050"
    },
    {
        "city": "Mococa",
        "state": "SP",
        "district": "Jardim Botânico",
        "street": "Rua Rosa Espanha Greghi",
        "zipcode": "13733-556"
    },
    {
        "city": "Mococa",
        "state": "SP",
        "district": "Terras de Santa Marina",
        "street": "Praça Benedito Messias de Paiva",
        "zipcode": "13737-064"
    },
    {
        "city": "Mococa",
        "state": "SP",
        "district": "Jardim das Figueiras",
        "street": "Praça Jussara Cristina de Souza",
        "zipcode": "13737-134"
    },
    {
        "city": "Mococa",
        "state": "SP",
        "district": "Conjunto Habitacional Gilberto Rossetti",
        "street": "Rua Eufrosino Germano Martins",
        "zipcode": "13737-320"
    },
    {
        "city": "Mococa",
        "state": "SP",
        "district": "Conjunto Habitacional Gilberto Rossetti",
        "street": "Rua Domingos Antônio Pagoti",
        "zipcode": "13737-345"
    },
    {
        "city": "Mococa",
        "state": "SP",
        "district": "Conjunto Habitacional Gilberto Rossetti",
        "street": "Rua Júlio Garofalo",
        "zipcode": "13737-383"
    },
    {
        "city": "Mococa",
        "state": "SP",
        "district": "Chácara Palmeirinha",
        "street": "Rua Guariroba",
        "zipcode": "13737-465"
    },
    {
        "city": "Mococa",
        "state": "SP",
        "district": "Conjunto Habitacional Gilberto Rossetti",
        "street": "Rua Antônio Bruno Biazin",
        "zipcode": "13737-613"
    },
    {
        "city": "Mococa",
        "state": "SP",
        "district": "Conjunto Habitacional Gilberto Rossetti",
        "street": "Rua Padre João Bueno Gonçalves",
        "zipcode": "13737-650"
    },
    {
        "city": "Mococa",
        "state": "SP",
        "district": "Conjunto Habitacional Gilberto Rossetti",
        "street": "Rua Sidney Conceição",
        "zipcode": "13737-669"
    },
    {
        "city": "Mococa",
        "state": "SP",
        "district": "Chácara dos Ipês",
        "street": "Rua Cinco",
        "zipcode": "13737-700"
    },
    {
        "city": "Mococa",
        "state": "SP",
        "district": "Conjunto Habitacional Gildo Geraldo",
        "street": "Rua Maximiliano Manzini",
        "zipcode": "13737-765"
    },
    {
        "city": "Mococa",
        "state": "SP",
        "district": "Jardim Residencial do Bosque",
        "street": "Rua Doutor Túlio Ribeiro Rocha",
        "zipcode": "13738-033"
    },
    {
        "city": "Mococa",
        "state": "SP",
        "district": "Altos do Vale II",
        "street": "Rua Nair Paulo da Silva",
        "zipcode": "13735-688"
    },
    {
        "city": "Mococa",
        "state": "SP",
        "district": "Terras de Santa Marina",
        "street": "Praça Maria de Lourdes Apoliario Mathias",
        "zipcode": "13737-066"
    },
    {
        "city": "Mococa",
        "state": "SP",
        "district": "Conjunto Habitacional Gilberto Rossetti",
        "street": "Rua Natal Salvador",
        "zipcode": "13737-603"
    },
    {
        "city": "Mococa",
        "state": "SP",
        "district": "Conjunto Habitacional Gilberto Rossetti",
        "street": "Rua Onófrio Ferreira Pinto",
        "zipcode": "13737-659"
    },
    {
        "city": "Mococa",
        "state": "SP",
        "district": "Jardim Morro Azul",
        "street": "Rua dos Cedrinhos",
        "zipcode": "13738-010"
    },
    {
        "city": "Mococa",
        "state": "SP",
        "district": "Jardim Santa Luzia",
        "street": "Rua Agripino Pinheiro da Costa",
        "zipcode": "13737-220"
    },
    {
        "city": "Mococa",
        "state": "SP",
        "district": "Jardim Residencial do Bosque",
        "street": "Rua Orazília Rezende Ramos",
        "zipcode": "13738-035"
    },
    {
        "city": "Mococa",
        "state": "SP",
        "district": "Centro",
        "street": "Avenida João Batista Lima Figueiredo",
        "zipcode": "13730-005"
    },
    {
        "city": "Mococa",
        "state": "SP",
        "district": "Jardim Santa Maria",
        "street": "Praça Dois de Novembro",
        "zipcode": "13730-156"
    },
    {
        "city": "Mococa",
        "state": "SP",
        "district": "Jardim Botânico",
        "street": "Avenida João de Sisto",
        "zipcode": "13733-552"
    },
    {
        "city": "Mococa",
        "state": "SP",
        "district": "Jardim da Paineira",
        "street": "Rua Ana Valeria Alarmino Garcia",
        "zipcode": "13735-102"
    },
    {
        "city": "Mococa",
        "state": "SP",
        "district": "Jardim Santa Maria",
        "street": "Rua Domingos Ferreira de Resende",
        "zipcode": "13730-140"
    },
    {
        "city": "Mococa",
        "state": "SP",
        "district": "Jardim Maziero",
        "street": "Rua Aparecida Donizeti Moreira Laureano",
        "zipcode": "13733-447"
    },
    {
        "city": "Mococa",
        "state": "SP",
        "district": "Jardim Maziero",
        "street": "Rua Fernando Pinheiro",
        "zipcode": "13733-444"
    },
    {
        "city": "Mococa",
        "state": "SP",
        "district": "Jardim da Paineira",
        "street": "Rua Francisco Manuel de Camargo Figueiredo",
        "zipcode": "13735-104"
    },
    {
        "city": "Mococa",
        "state": "SP",
        "district": "Vila Lambari",
        "street": "Rua Espírito Santo",
        "zipcode": "13731-070"
    },
    {
        "city": "Mococa",
        "state": "SP",
        "district": "Jardim São Domingos",
        "street": "Rua José de Souza e Silva",
        "zipcode": "13733-210"
    },
    {
        "city": "Mococa",
        "state": "SP",
        "district": "Jardim Maziero",
        "street": "Rua Julio Guedes de Brito",
        "zipcode": "13733-445"
    },
    {
        "city": "Mococa",
        "state": "SP",
        "district": "Jardim Botânico",
        "street": "Rua José Luiz Sukadolnik",
        "zipcode": "13733-554"
    },
    {
        "city": "Mococa",
        "state": "SP",
        "district": "Jardim Botânico",
        "street": "Rua José Antonio Paganote",
        "zipcode": "13733-557"
    },
    {
        "city": "Mococa",
        "state": "SP",
        "district": "Jardim Botânico",
        "street": "Rua Marinaldo de Melo Gomes",
        "zipcode": "13733-561"
    },
    {
        "city": "Mococa",
        "state": "SP",
        "district": "Jardim Botânico",
        "street": "Rua Luiz Armando Peres",
        "zipcode": "13733-559"
    },
    {
        "city": "Mococa",
        "state": "SP",
        "district": "Jardim da Paineira",
        "street": "Rua Luiz Braulino Martins",
        "zipcode": "13735-110"
    },
    {
        "city": "Mococa",
        "state": "SP",
        "district": "Jardim das Figueiras",
        "street": "Rua Marcos Luiz Gonzaga Barreto",
        "zipcode": "13737-130"
    },
    {
        "city": "Mococa",
        "state": "SP",
        "district": "Jardim Botânico",
        "street": "Rua José Vieira Neto",
        "zipcode": "13733-560"
    },
    {
        "city": "Mococa",
        "state": "SP",
        "district": "Jardim Botânico",
        "street": "Rua José Pedro Ferreira",
        "zipcode": "13733-562"
    },
    {
        "city": "Mococa",
        "state": "SP",
        "district": "Jardim da Paineira",
        "street": "Rua Maria Teresa Carvalho Giacoia",
        "zipcode": "13735-106"
    },
    {
        "city": "Mococa",
        "state": "SP",
        "district": "Centro",
        "street": "Rua Saldanha Marinho",
        "zipcode": "13730-100"
    },
    {
        "city": "Mococa",
        "state": "SP",
        "district": "Parque das Canoas",
        "street": "Rua Rodrigo Lima Silva Elias",
        "zipcode": "13731-515"
    },
    {
        "city": "Mococa",
        "state": "SP",
        "district": "Jardim Santa Cecília",
        "street": "Rua Padre Manoel Joaquim das Dores",
        "zipcode": "13733-050"
    },
    {
        "city": "Mococa",
        "state": "SP",
        "district": "Residencial Carlito Quilici",
        "street": "Rua Professor João Rotta",
        "zipcode": "13733-546"
    },
    {
        "city": "Mococa",
        "state": "SP",
        "district": "Jardim Botânico",
        "street": "Rua Paulo Abelardi",
        "zipcode": "13733-555"
    },
    {
        "city": "Mococa",
        "state": "SP",
        "district": "Parque das Canoas",
        "street": "Rua Zilda Pazote",
        "zipcode": "13731-520"
    },
    {
        "city": "Mococa",
        "state": "SP",
        "district": "Terras de Santa Marina",
        "street": "Rua Wilson Paschoal Neto",
        "zipcode": "13737-060"
    },
    {
        "city": "Mococa",
        "state": "SP",
        "district": "Santa Helena",
        "street": "Rua Silvia Helena Nasser de Araujo",
        "zipcode": "13736-512"
    },
    {
        "city": "Mococa",
        "state": "SP",
        "district": "Santa Terezinha II",
        "street": "Rua Octávio Amâncio",
        "zipcode": "13736-672"
    },
    {
        "city": "Mococa",
        "state": "SP",
        "district": "Conjunto Habitacional Gilberto Rossetti",
        "street": "Rua Crispim Bastos Sobrinho",
        "zipcode": "13737-415"
    },
    {
        "city": "Mococa",
        "state": "SP",
        "district": "Chácara Palmeirinha",
        "street": "Rua Macaúba",
        "zipcode": "13737-470"
    },
    {
        "city": "Mococa",
        "state": "SP",
        "district": "Chácara dos Ipês",
        "street": "Rua Hum",
        "zipcode": "13737-680"
    },
    {
        "city": "Mococa",
        "state": "SP",
        "district": "Jardim Riachuelo II",
        "street": "Rua Leone Requenati do Prado",
        "zipcode": "13738-538"
    },
    {
        "city": "Mococa",
        "state": "SP",
        "district": "Jardim Riachuelo II",
        "street": "Rua José Antonio Pereira",
        "zipcode": "13738-540"
    },
    {
        "city": "Mococa",
        "state": "SP",
        "district": "Jardim Primavera",
        "street": "Rua Hermes da Fonseca",
        "zipcode": "13738-585"
    },
    {
        "city": "Mococa",
        "state": "SP",
        "district": "Distrito Industrial II",
        "street": "Rua Lourival Furlan",
        "zipcode": "13739-080"
    },
    {
        "city": "Mococa",
        "state": "SP",
        "district": "Distrito Industrial II",
        "street": "Rua Sassaki Massao",
        "zipcode": "13739-110"
    },
    {
        "city": "Mococa",
        "state": "SP",
        "district": "Parque dos Manacás I",
        "street": "Rua Michel Jonata Furquim",
        "zipcode": "13739-125"
    },
    {
        "city": "Mococa",
        "state": "SP",
        "district": "Parque dos Manacás I",
        "street": "Rua Cláudio Pereira Lima Amato",
        "zipcode": "13739-127"
    },
    {
        "city": "Mococa",
        "state": "SP",
        "district": "Parque dos Manacás I",
        "street": "Rua Luiz Bergo Filho",
        "zipcode": "13739-133"
    },
    {
        "city": "Mococa",
        "state": "SP",
        "district": "Parque dos Manacás I",
        "street": "Rua Alfio Mussara",
        "zipcode": "13739-137"
    },
    {
        "city": "Mococa",
        "state": "SP",
        "district": "Vila Santa Rosa",
        "street": "Rua Minas Gerais",
        "zipcode": "13731-140"
    },
    {
        "city": "Mococa",
        "state": "SP",
        "district": "Jardim São Francisco",
        "street": "Rua Professor José Germano da Silva",
        "zipcode": "13734-380"
    },
    {
        "city": "Mococa",
        "state": "SP",
        "district": "Loteamento Santa Emília",
        "street": "Rua Gilda de Queirós Telles Cunali",
        "zipcode": "13732-460"
    },
    {
        "city": "Mococa",
        "state": "SP",
        "district": "Jardim Botânico",
        "street": "Rua José Morellini",
        "zipcode": "13733-553"
    },
    {
        "city": "Mococa",
        "state": "SP",
        "district": "Anita Venturi Prícoli",
        "street": "Rua Albino Rotta",
        "zipcode": "13737-232"
    },
    {
        "city": "Mococa",
        "state": "SP",
        "district": "Conjunto Habitacional Gildo Geraldo",
        "street": "Rua Catharina Pisani Bedin",
        "zipcode": "13737-735"
    },
    {
        "city": "Mococa",
        "state": "SP",
        "district": "Jardim Morro Azul",
        "street": "Rua das Tipuanas",
        "zipcode": "13738-059"
    },
    {
        "city": "Mococa",
        "state": "SP",
        "district": "Jardim Lavínia",
        "street": "Rua República Dominicana",
        "zipcode": "13738-308"
    },
    {
        "city": "Mococa",
        "state": "SP",
        "district": "Chácara Bela Vista",
        "street": "Rua Francisco T. Almeida Magalhães",
        "zipcode": "13738-340"
    },
    {
        "city": "Mococa",
        "state": "SP",
        "district": "Jardim Lavínia",
        "street": "Rua Suriname",
        "zipcode": "13738-200"
    },
    {
        "city": "Mococa",
        "state": "SP",
        "district": "Jardim da Paineira",
        "street": "Rua Nicanor Caetano da Silva",
        "zipcode": "13735-098"
    },
    {
        "city": "Mococa",
        "state": "SP",
        "district": "Jardim Botânico",
        "street": "Rua Zenon Secundo de Oliveira",
        "zipcode": "13733-563"
    },
    {
        "city": "Mococa",
        "state": "SP",
        "district": "Centro",
        "street": "Praça José Quintino Pereira",
        "zipcode": "13730-370"
    },
    {
        "city": "Mococa",
        "state": "SP",
        "district": "Centro",
        "street": "Praça Bárbara Eufrausina de Lima",
        "zipcode": "13730-380"
    },
    {
        "city": "Mococa",
        "state": "SP",
        "district": "Mocoquinha",
        "street": "Rua Antônia Tattidepieri",
        "zipcode": "13730-045"
    },
    {
        "city": "Mococa",
        "state": "SP",
        "district": "Jardim Nova Mococa",
        "street": "Praça Professor Oscar Leonhardt",
        "zipcode": "13731-288"
    },
    {
        "city": "Mococa",
        "state": "SP",
        "district": "Residencial Samambaia",
        "street": "Rua André Contreras",
        "zipcode": "13734-272"
    },
    {
        "city": "Mococa",
        "state": "SP",
        "district": "Chácara São Domingos Shop",
        "street": "Rua Adutora",
        "zipcode": "13734-435"
    },
    {
        "city": "Mococa",
        "state": "SP",
        "district": "Residencial Samambaia",
        "street": "Rua Antonia Maria Ferraz de Siqueira",
        "zipcode": "13734-274"
    },
    {
        "city": "Mococa",
        "state": "SP",
        "district": "Santa Terezinha I",
        "street": "Rua Amélio Ferreira Pinto",
        "zipcode": "13736-656"
    },
    {
        "city": "Mococa",
        "state": "SP",
        "district": "Centro",
        "street": "Rua Conceição Barison de Lima",
        "zipcode": "13730-015"
    },
    {
        "city": "Mococa",
        "state": "SP",
        "district": "Jardim José Justi",
        "street": "Rua Carlos Humberto Verzola",
        "zipcode": "13734-510"
    },
    {
        "city": "Mococa",
        "state": "SP",
        "district": "Jardim Botânico",
        "street": "Rua Domingos Genaro",
        "zipcode": "13733-564"
    },
    {
        "city": "Mococa",
        "state": "SP",
        "district": "Jardim Santa Clara",
        "street": "Rua Cândido Portinari",
        "zipcode": "13735-299"
    },
    {
        "city": "Mococa",
        "state": "SP",
        "district": "Jardim Progresso",
        "street": "Rua Aristeu Campos",
        "zipcode": "13736-380"
    },
    {
        "city": "Mococa",
        "state": "SP",
        "district": "Residencial Itálico Maziero",
        "street": "Rua Antonio Gonçalves Dias",
        "zipcode": "13736-688"
    },
    {
        "city": "Mococa",
        "state": "SP",
        "district": "Residencial Jardim Miguel Gomes",
        "street": "Rua Apregilda Gomes Ferreira Pinto",
        "zipcode": "13736-870"
    },
    {
        "city": "Mococa",
        "state": "SP",
        "district": "Residencial Jardim Miguel Gomes",
        "street": "Rua Carlos Alberto Orestes",
        "zipcode": "13736-873"
    },
    {
        "city": "Mococa",
        "state": "SP",
        "district": "Jardim Santa Clara",
        "street": "Rua Guilherme de Almeida",
        "zipcode": "13735-330"
    },
    {
        "city": "Mococa",
        "state": "SP",
        "district": "Jardim Lavínia",
        "street": "Rua Hermenegildo Picoli Neto",
        "zipcode": "13736-334"
    },
    {
        "city": "Mococa",
        "state": "SP",
        "district": "Jardim Progresso",
        "street": "Rua Geraldo Fogarin",
        "zipcode": "13736-386"
    },
    {
        "city": "Mococa",
        "state": "SP",
        "district": "Jardim São José",
        "street": "Rua Eunice Possato Fávero",
        "zipcode": "13736-610"
    },
    {
        "city": "Mococa",
        "state": "SP",
        "district": "Parque das Canoas",
        "street": "Rua Maria Pillar Benedetti",
        "zipcode": "13731-505"
    },
    {
        "city": "Mococa",
        "state": "SP",
        "district": "Residencial Jardim José Justi II",
        "street": "Rua José Caetano Guisso",
        "zipcode": "13734-528"
    },
    {
        "city": "Mococa",
        "state": "SP",
        "district": "Jardim da Paineira",
        "street": "Rua José Michelin Neto",
        "zipcode": "13735-116"
    },
    {
        "city": "Mococa",
        "state": "SP",
        "district": "Conjunto Habitacional Francisco Garófalo",
        "street": "Rua Lino Guedes de Brito",
        "zipcode": "13736-785"
    },
    {
        "city": "Mococa",
        "state": "SP",
        "district": "Jardim da Paineira",
        "street": "Rua Luiz dos Santos",
        "zipcode": "13735-114"
    },
    {
        "city": "Mococa",
        "state": "SP",
        "district": "Jardim Botânico",
        "street": "Rua Eduardo Figueiredo Lima Filho",
        "zipcode": "13733-558"
    },
    {
        "city": "Mococa",
        "state": "SP",
        "district": "Jardim José André de Lima",
        "street": "Rua Serafina Alberti Prícoli",
        "zipcode": "13736-710"
    },
    {
        "city": "Mococa",
        "state": "SP",
        "district": "Conjunto Habitacional Gilberto Rossetti",
        "street": "Rua João Bruno Biazin",
        "zipcode": "13737-303"
    },
    {
        "city": "Mococa",
        "state": "SP",
        "district": "Conjunto Habitacional Gilberto Rossetti",
        "street": "Rua Albertino Mazzieiro",
        "zipcode": "13737-355"
    },
    {
        "city": "Mococa",
        "state": "SP",
        "district": "Conjunto Habitacional Gilberto Rossetti",
        "street": "Rua Honório Ferreira Pinto",
        "zipcode": "13737-395"
    },
    {
        "city": "Mococa",
        "state": "SP",
        "district": "Jardim Morro Azul",
        "street": "Rua dos Ipês",
        "zipcode": "13738-053"
    },
    {
        "city": "Mococa",
        "state": "SP",
        "district": "Conjunto Habitacional Gilberto Rossetti",
        "street": "Rua Sílvio Dal Rio",
        "zipcode": "13737-346"
    },
    {
        "city": "Mococa",
        "state": "SP",
        "district": "Jardim Morro Azul",
        "street": "Rua das Bauhinias",
        "zipcode": "13738-019"
    },
    {
        "city": "Mococa",
        "state": "SP",
        "district": "Parque dos Manacás I",
        "street": "Rua João Vecchio",
        "zipcode": "13739-135"
    },
    {
        "city": "Mococa",
        "state": "SP",
        "district": "Parque dos Manacás I",
        "street": "Rua Professor Mario Yamada",
        "zipcode": "13739-131"
    },
    {
        "city": "Mococa",
        "state": "SP",
        "district": "Santa Helena",
        "street": "Rua Mara Lucia Bittencourt Avelar Dias",
        "zipcode": "13736-516"
    },
    {
        "city": "Mococa",
        "state": "SP",
        "district": "Jardim São Domingos",
        "street": "Rodovia SP",
        "zipcode": "13732-405"
    },
    {
        "city": "Mococa",
        "state": "SP",
        "district": "Jardim José Justi",
        "street": "Avenida José Pereira Lima Filho",
        "zipcode": "13734-460"
    },
    {
        "city": "Mococa",
        "state": "SP",
        "district": "Jardim Santa Clara",
        "street": "Praça Professor Domingos Angerami",
        "zipcode": "13735-319"
    },
    {
        "city": "Mococa",
        "state": "SP",
        "district": "Jardim José Justi",
        "street": "Rua Antônio Souza Lima Figueiredo",
        "zipcode": "13734-495"
    },
    {
        "city": "Mococa",
        "state": "SP",
        "district": "Loteamento Santa Emília",
        "street": "Rua Apparecida Irene Luciano da Silva",
        "zipcode": "13732-462"
    },
    {
        "city": "Mococa",
        "state": "SP",
        "district": "Altos do Vale II",
        "street": "Rua Benedito Barbosa",
        "zipcode": "13735-686"
    },
    {
        "city": "Mococa",
        "state": "SP",
        "district": "Cecap II",
        "street": "Rua Hamilton Leite da Silva",
        "zipcode": "13732-060"
    },
    {
        "city": "Mococa",
        "state": "SP",
        "district": "Residencial Carlito Quilici",
        "street": "Rua Joaquim Ventura",
        "zipcode": "13733-512"
    },
    {
        "city": "Mococa",
        "state": "SP",
        "district": "Residencial Samambaia",
        "street": "Rua Januário Batista",
        "zipcode": "13734-282"
    },
    {
        "city": "Mococa",
        "state": "SP",
        "district": "Jardim José Justi",
        "street": "Rua Joaquim Cândido Ribeiro",
        "zipcode": "13734-480"
    },
    {
        "city": "Mococa",
        "state": "SP",
        "district": "Conjunto Habitacional Nelson Niero",
        "street": "Rua João Batista Brisighello Neto",
        "zipcode": "13734-575"
    },
    {
        "city": "Mococa",
        "state": "SP",
        "district": "Jardim São Domingos",
        "street": "Rua José Maria Luciano",
        "zipcode": "13733-115"
    },
    {
        "city": "Mococa",
        "state": "SP",
        "district": "Residencial Carlito Quilici",
        "street": "Rua José Balbino",
        "zipcode": "13733-514"
    },
    {
        "city": "Mococa",
        "state": "SP",
        "district": "Jardim Botânico",
        "street": "Rua Luis Afonso Sukadolnik",
        "zipcode": "13733-566"
    },
    {
        "city": "Mococa",
        "state": "SP",
        "district": "Conjunto Habitacional Nelson Niero",
        "street": "Rua José Duarte Canerossi",
        "zipcode": "13734-585"
    },
    {
        "city": "Mococa",
        "state": "SP",
        "district": "Centro",
        "street": "Rua Professor Rodolfo Garcia Rosa",
        "zipcode": "13730-035"
    },
    {
        "city": "Mococa",
        "state": "SP",
        "district": "Centro",
        "street": "Rua José Cunha",
        "zipcode": "13730-039"
    },
    {
        "city": "Mococa",
        "state": "SP",
        "district": "Residencial Carlito Quilici",
        "street": "Rua Venília Quilice Lopes",
        "zipcode": "13733-548"
    },
    {
        "city": "Mococa",
        "state": "SP",
        "district": "Chácara São Pelegrino",
        "street": "Rua Natal Trepador",
        "zipcode": "13734-160"
    },
    {
        "city": "Mococa",
        "state": "SP",
        "district": "Chácara do Vale",
        "street": "Avenida das Amoreiras",
        "zipcode": "13735-600"
    },
    {
        "city": "Mococa",
        "state": "SP",
        "district": "Brás",
        "street": "Rua Antônio Pricoli",
        "zipcode": "13735-020"
    },
    {
        "city": "Mococa",
        "state": "SP",
        "district": "Vila Carvalho",
        "street": "Rua Assis Chateaubriand",
        "zipcode": "13735-460"
    },
    {
        "city": "Mococa",
        "state": "SP",
        "district": "Vila Carvalho",
        "street": "Rua Aureliano Duarte",
        "zipcode": "13735-480"
    },
    {
        "city": "Mococa",
        "state": "SP",
        "district": "Brás",
        "street": "Rua Bernardino de Campos",
        "zipcode": "13735-030"
    },
    {
        "city": "Mococa",
        "state": "SP",
        "district": "Vila Carvalho",
        "street": "Rua Fad Dib João",
        "zipcode": "13735-448"
    },
    {
        "city": "Mococa",
        "state": "SP",
        "district": "Brás",
        "street": "Rua Floriano Peixoto",
        "zipcode": "13735-006"
    },
    {
        "city": "Mococa",
        "state": "SP",
        "district": "Vila Carvalho",
        "street": "Rua Pedro Giuntini",
        "zipcode": "13735-509"
    },
    {
        "city": "Mococa",
        "state": "SP",
        "district": "Centro",
        "street": "Rua Coronel Diogo",
        "zipcode": "13730-972"
    },
    {
        "city": "Mococa",
        "state": "SP",
        "district": "Centro",
        "street": "Rua Quinze de Novembro",
        "zipcode": "13730-020"
    },
    {
        "city": "Mococa",
        "state": "SP",
        "district": "Centro",
        "street": "Rua Visconde do Rio Branco",
        "zipcode": "13730-250"
    },
    {
        "city": "Mococa",
        "state": "SP",
        "district": "Jardim Santa Maria",
        "street": "Rua Alexandre Cunali",
        "zipcode": "13730-270"
    },
    {
        "city": "Mococa",
        "state": "SP",
        "district": "Cecap II",
        "street": "Praça da Bíblia",
        "zipcode": "13732-000"
    },
    {
        "city": "Mococa",
        "state": "SP",
        "district": "Centro",
        "street": "Rua Professor José Barreto Coelho",
        "zipcode": "13730-029"
    },
    {
        "city": "Mococa",
        "state": "SP",
        "district": "Jardim São Domingos",
        "street": "Rua Doutor Manoel Radamanto Figueiredo Ferraz",
        "zipcode": "13733-120"
    },
    {
        "city": "Mococa",
        "state": "SP",
        "district": "Residencial Carlito Quilici",
        "street": "Rua Altamiro Soares Perucello",
        "zipcode": "13733-510"
    },
    {
        "city": "Mococa",
        "state": "SP",
        "district": "Jardim São Francisco",
        "street": "Rua Pedro Costal Pecin",
        "zipcode": "13734-390"
    },
    {
        "city": "Mococa",
        "state": "SP",
        "district": "Conjunto Habitacional Nelson Niero",
        "street": "Rua Cosme Rímole",
        "zipcode": "13734-565"
    },
    {
        "city": "Mococa",
        "state": "SP",
        "district": "Conjunto Habitacional Nelson Niero",
        "street": "Rua Gilberto Bedin",
        "zipcode": "13734-574"
    },
    {
        "city": "Mococa",
        "state": "SP",
        "district": "Jardim Boa Vista",
        "street": "Rua Paschoalino Adalberto Greghi",
        "zipcode": "13735-132"
    },
    {
        "city": "Mococa",
        "state": "SP",
        "district": "Residencial Mais Parque Mococa",
        "street": "Rua Arlindo Bernardes",
        "zipcode": "13735-368"
    },
    {
        "city": "Mococa",
        "state": "SP",
        "district": "Residencial Mais Parque Mococa",
        "street": "Rua Luiz Décio Finardi",
        "zipcode": "13735-376"
    },
    {
        "city": "Mococa",
        "state": "SP",
        "district": "Altos do Vale II",
        "street": "Rua João Bento da Silva",
        "zipcode": "13735-672"
    },
    {
        "city": "Mococa",
        "state": "SP",
        "district": "Jardim Lavínia",
        "street": "Praça Lions Clube",
        "zipcode": "13736-279"
    },
    {
        "city": "Mococa",
        "state": "SP",
        "district": "Conjunto Habitacional Francisco Garófalo",
        "street": "Rua José Alves",
        "zipcode": "13736-815"
    },
    {
        "city": "Mococa",
        "state": "SP",
        "district": "Jardim José André de Lima",
        "street": "Rua Cláudio de Souza Xavier",
        "zipcode": "13736-730"
    },
    {
        "city": "Mococa",
        "state": "SP",
        "district": "Conjunto Habitacional Francisco Garófalo",
        "street": "Praça Ettore Bosco",
        "zipcode": "13736-865"
    },
    {
        "city": "Mococa",
        "state": "SP",
        "district": "Loteamento Residencial Vale Verde",
        "street": "Rua Sebastiana Ribeiro Caixeta",
        "zipcode": "13737-267"
    },
    {
        "city": "Mococa",
        "state": "SP",
        "district": "Conjunto Habitacional Luiz Fernandes Dias",
        "street": "Rua José Cícero Casado",
        "zipcode": "13737-510"
    },
    {
        "city": "Mococa",
        "state": "SP",
        "district": "Jardim do Imperador",
        "street": "Rua Domingos Santurbano",
        "zipcode": "13737-730"
    },
    {
        "city": "Mococa",
        "state": "SP",
        "district": "Conjunto Habitacional Gildo Geraldo",
        "street": "Rua Roque Timoteo de Almeida",
        "zipcode": "13737-750"
    },
    {
        "city": "Mococa",
        "state": "SP",
        "district": "Conjunto Habitacional Gildo Geraldo",
        "street": "Rua Anísia de Souza Lima",
        "zipcode": "13737-795"
    },
    {
        "city": "Mococa",
        "state": "SP",
        "district": "Jardim Santa Clara",
        "street": "Rua Francisco Lima Souza Dias",
        "zipcode": "13735-205"
    },
    {
        "city": "Mococa",
        "state": "SP",
        "district": "Conj Habit Gabriel Do O",
        "street": "Avenida Gabriel Do O",
        "zipcode": "13732-700"
    },
    {
        "city": "Mococa",
        "state": "SP",
        "district": "Distrito Industrial Ii",
        "street": "Rua Lemberg Criscuolo",
        "zipcode": "13735-046"
    },
    {
        "city": "Mococa",
        "state": "SP",
        "district": "Jardim Alvorada",
        "street": "Praça Prof. Joao Cid De Godoy",
        "zipcode": "13732-569"
    },
    {
        "city": "Mococa",
        "state": "SP",
        "district": "Jardim Santa Cecilia",
        "street": "Avenida Joao Batista Lima Figueiredo",
        "zipcode": "13733-450"
    },
    {
        "city": "Mococa",
        "state": "SP",
        "district": "Descanso",
        "street": "Rua Joao Bento",
        "zipcode": "13735-049"
    },
    {
        "city": "Mococa",
        "state": "SP",
        "district": "Vila Mariana",
        "street": "Rua Capitao Miguel Ferreira",
        "zipcode": "13730-130"
    },
    {
        "city": "Mococa",
        "state": "SP",
        "district": "Jardim Alvorada",
        "street": "Rua Galileu De Luna",
        "zipcode": "13734-588"
    },
    {
        "city": "Mococa",
        "state": "SP",
        "district": "Jardim Santa Clara",
        "street": "Rua Paschoal Disani",
        "zipcode": "13735-260"
    },
    {
        "city": "Mococa",
        "state": "SP",
        "district": "Chácara do Vale",
        "street": "Rua Gabriel Alves Madeira",
        "zipcode": "13735-555"
    },
    {
        "city": "Mococa",
        "state": "SP",
        "district": "Vila Carvalho",
        "street": "Avenida Pedro Boarati",
        "zipcode": "13735-499"
    },
    {
        "city": "Mococa",
        "state": "SP",
        "district": "Jardim Rigobelo",
        "street": "Rua Fortunado Rigobelo",
        "zipcode": "13730-149"
    },
    {
        "city": "Mococa",
        "state": "SP",
        "district": "Jardim Bianchesi",
        "street": "Rua Clodoaldo Santos Figueiredo",
        "zipcode": "13735-498"
    },
    {
        "city": "Mococa",
        "state": "SP",
        "district": "Jardim Alvorada",
        "street": "Rua Hugo Magri",
        "zipcode": "13732-650"
    },
    {
        "city": "Mococa",
        "state": "SP",
        "district": "Conjunto Habitacional Luiz Fernandes Dias",
        "street": "Rua Agripino Pinheiro da Costa",
        "zipcode": "13737-500"
    },
    {
        "city": "Mococa",
        "state": "SP",
        "district": "Vila Carvalho",
        "street": "Travessa Francisco Dal Monte",
        "zipcode": "13735-408"
    },
    {
        "city": "Mococa",
        "state": "SP",
        "district": "Jardim Santa Maria",
        "street": "Rua Tambau",
        "zipcode": "13730-340"
    },
    {
        "city": "Mococa",
        "state": "SP",
        "district": "Descanso",
        "street": "Rua Urias Goncalves Dos Santos",
        "zipcode": "13735-048"
    },
    {
        "city": "Mococa",
        "state": "SP",
        "district": "Vila Maria",
        "street": "Praça Jose Olimpio De Figueiredo",
        "zipcode": "13730-109"
    },
    {
        "city": "Mococa",
        "state": "SP",
        "district": "Vila Santa Cruz",
        "street": "Praça Santa Cruz",
        "zipcode": "13734-129"
    },
    {
        "city": "Mococa",
        "state": "SP",
        "district": "Chácara do Vale",
        "street": "Rua dos Limoeiros",
        "zipcode": "13735-560"
    },
    {
        "city": "Mococa",
        "state": "SP",
        "district": "Conjunto Habitacional Luiz Fernandes Dias",
        "street": "Rua José Olympio de Melo",
        "zipcode": "13737-513"
    },
    {
        "city": "Mococa",
        "state": "SP",
        "district": "Conjunto Habitacional Gildo Geraldo",
        "street": "Rua Maria da Conceição Coelho Falarini",
        "zipcode": "13737-755"
    },
    {
        "city": "Mococa",
        "state": "SP",
        "district": "Chácara Bela Vista",
        "street": "Rua Francisco Figueiredo Barretto",
        "zipcode": "13738-320"
    },
    {
        "city": "Mococa",
        "state": "SP",
        "district": "Vila Naufel",
        "street": "Avenida Doutor Francisco Pereira Lima",
        "zipcode": "13734-000"
    },
    {
        "city": "Mococa",
        "state": "SP",
        "district": "Núcleo Habitacional Nenê Pereira Lima",
        "street": "Rua Adolpho Martela",
        "zipcode": "13732-355"
    },
    {
        "city": "Mococa",
        "state": "SP",
        "district": "Conjunto Habitacional Gabriel do Ó",
        "street": "Praça Pedro Bertasso",
        "zipcode": "13732-619"
    },
    {
        "city": "Mococa",
        "state": "SP",
        "district": "Conjunto Habitacional Gabriel do Ó",
        "street": "Rua Capitão Antônio F. Pinheiro",
        "zipcode": "13732-610"
    },
    {
        "city": "Mococa",
        "state": "SP",
        "district": "Jardim Santa Clara",
        "street": "Rua Doutor Jacinto Taliberti",
        "zipcode": "13735-210"
    },
    {
        "city": "Mococa",
        "state": "SP",
        "district": "Conjunto Habitacional Nelson Niero",
        "street": "Rua Clóvis Gonçalves Dias",
        "zipcode": "13734-560"
    },
    {
        "city": "Mococa",
        "state": "SP",
        "district": "Altos do Vale II",
        "street": "Rua Gabriel Alves Madeira",
        "zipcode": "13735-690"
    },
    {
        "city": "Mococa",
        "state": "SP",
        "district": "Loteamento Residencial e Comercial Jardim Lago dos Ipês",
        "street": "Rua Messias de Oliveira",
        "zipcode": "13735-717"
    },
    {
        "city": "Mococa",
        "state": "SP",
        "district": "Conjunto Habitacional Francisco Garófalo",
        "street": "Rua Milton Mazieiro",
        "zipcode": "13736-800"
    },
    {
        "city": "Mococa",
        "state": "SP",
        "district": "Anita Venturi Prícoli",
        "street": "Rua Julio Correia da Silva",
        "zipcode": "13737-240"
    },
    {
        "city": "Mococa",
        "state": "SP",
        "district": "Núcleo Habitacional Nenê Pereira Lima",
        "street": "Rua Severino Trombini",
        "zipcode": "13732-370"
    },
    {
        "city": "Mococa",
        "state": "SP",
        "district": "Núcleo Habitacional Nenê Pereira Lima",
        "street": "Rua Otávio Erasmo Santiago",
        "zipcode": "13732-375"
    },
    {
        "city": "Mococa",
        "state": "SP",
        "district": "Jardim Santa Cecília",
        "street": "Rua Saldanha Marinho",
        "zipcode": "13733-000"
    },
    {
        "city": "Mococa",
        "state": "SP",
        "district": "Residencial Carlito Quilici",
        "street": "Rua Vitor Cândido",
        "zipcode": "13733-532"
    },
    {
        "city": "Mococa",
        "state": "SP",
        "district": "Conjunto Habitacional Francisco Garófalo",
        "street": "Rua Salvador Roviello",
        "zipcode": "13736-795"
    },
    {
        "city": "Mococa",
        "state": "SP",
        "district": "Loteamento Residencial Jardim Padre Demósthenes",
        "street": "Rua Vera Ribeiro Lima de Toledo",
        "zipcode": "13736-897"
    },
    {
        "city": "Mococa",
        "state": "SP",
        "district": "Jardim Bianchesi",
        "street": "Rua Jaymer Rehder",
        "zipcode": "13735-507"
    },
    {
        "city": "Mococa",
        "state": "SP",
        "district": "Jardim Bianchesi",
        "street": "Rua Fernando Cassimiro Bianchesi",
        "zipcode": "13735-506"
    },
    {
        "city": "Mococa",
        "state": "SP",
        "district": "Jardim Nova Mococa",
        "street": "Rua Tocantins",
        "zipcode": "13731-270"
    },
    {
        "city": "Mococa",
        "state": "SP",
        "district": "Jardim Santa Cecilia",
        "street": "Avenida Tiradentes",
        "zipcode": "13733-400"
    },
    {
        "city": "Mococa",
        "state": "SP",
        "district": "Jardim Rigobelo",
        "street": "Praça Princesa Isabel",
        "zipcode": "13730-157"
    },
    {
        "city": "Mococa",
        "state": "SP",
        "district": "Jardim Sao Francisco",
        "street": "Estrada Para Aceburgo",
        "zipcode": "13734-680"
    },
    {
        "city": "Mococa",
        "state": "SP",
        "district": "Chácara do Vale",
        "street": "Rua das Limeiras",
        "zipcode": "13735-590"
    },
    {
        "city": "Mococa",
        "state": "SP",
        "district": "Chácara do Vale",
        "street": "Estrada Municipal Doutor Gentil Ferreira da Silva",
        "zipcode": "13735-565"
    },
    {
        "city": "Mococa",
        "state": "SP",
        "district": "Jardim Santa Maria",
        "street": "Rua Cajuru",
        "zipcode": "13730-350"
    },
    {
        "city": "Mococa",
        "state": "SP",
        "district": "Vila Carvalho",
        "street": "Praça Mãe Preta",
        "zipcode": "13735-458"
    },
    {
        "city": "Mococa",
        "state": "SP",
        "district": "Vila Carvalho",
        "street": "Rua Francisco Dalmonte",
        "zipcode": "13735-415"
    },
    {
        "city": "Mococa",
        "state": "SP",
        "district": "Jardim Nova Mococa",
        "street": "Rua Rio De Janeiro",
        "zipcode": "13731-180"
    },
    {
        "city": "Mococa",
        "state": "SP",
        "district": "Jardim Bianchesi",
        "street": "Rua Fernando Cassimiro Bianchesi",
        "zipcode": "13735-521"
    },
    {
        "city": "Mococa",
        "state": "SP",
        "district": "Área Rural de Mococa",
        "street": "Área Rural",
        "zipcode": "13749-899"
    },
    {
        "city": "Mococa",
        "state": "SP",
        "district": "Vila Carvalho",
        "street": "Rua Crescêncio Alegrette",
        "zipcode": "13735-452"
    },
    {
        "city": "Mococa",
        "state": "SP",
        "district": "Chácara do Vale",
        "street": "Rua dos Pessegueiros",
        "zipcode": "13735-610"
    }
]