[
    {
        "city": "Mogi Das Cruzes",
        "state": "SP",
        "district": "Chacara Cruzeiro Do Sul",
        "street": "Rua Pera",
        "zipcode": "08845-120"
    },
    {
        "city": "Mogi Das Cruzes",
        "state": "SP",
        "district": "Centro",
        "street": "Rua Presidente Campos Salles",
        "zipcode": "08710-630"
    },
    {
        "city": "Mogi Das Cruzes",
        "state": "SP",
        "district": "Jundiapeba",
        "street": "Rua Honduras",
        "zipcode": "08750-240"
    },
    {
        "city": "Mogi Das Cruzes",
        "state": "SP",
        "district": "Jundiapeba",
        "street": "Estrada Das Varinhas",
        "zipcode": "08750-680"
    },
    {
        "city": "Mogi Das Cruzes",
        "state": "SP",
        "district": "Vila Sao Paulo",
        "street": "Rua Vicente De Carvalho",
        "zipcode": "08840-590"
    },
    {
        "city": "Mogi Das Cruzes",
        "state": "SP",
        "district": "Chacara Cruzeiro Do Sul",
        "street": "Avenida Pessego",
        "zipcode": "08845-130"
    },
    {
        "city": "Mogi Das Cruzes",
        "state": "SP",
        "district": "Chacara Cruzeiro Do Sul",
        "street": "Rua Caju",
        "zipcode": "08845-000"
    },
    {
        "city": "Mogi Das Cruzes",
        "state": "SP",
        "district": "Jardim Avenida",
        "street": "Avenida Vereador Narciso Yague Guimaraes",
        "zipcode": "08735-010"
    },
    {
        "city": "Mogi Das Cruzes",
        "state": "SP",
        "district": "Jundiapeba",
        "street": "Rua Coreia",
        "zipcode": "08750-750"
    },
    {
        "city": "Mogi Das Cruzes",
        "state": "SP",
        "district": "Taiacupeba",
        "street": "Loteamento Barroso",
        "zipcode": "08767-000"
    },
    {
        "city": "Mogi Das Cruzes",
        "state": "SP",
        "district": "Chacara Cruzeiro Do Sul",
        "street": "Avenida Tamarino",
        "zipcode": "08845-140"
    },
    {
        "city": "Mogi Das Cruzes",
        "state": "SP",
        "district": "Taiacupeba",
        "street": "Loteamento Pindorama",
        "zipcode": "08768-000"
    },
    {
        "city": "Mogi Das Cruzes",
        "state": "SP",
        "district": "Jundiapeba",
        "street": "Loteamento Parque Das Varinhas",
        "zipcode": "08754-000"
    },
    {
        "city": "Mogi Das Cruzes",
        "state": "SP",
        "district": "Vila Pomar",
        "street": "Rua Estados Unidos",
        "zipcode": "08738-430"
    },
    {
        "city": "Mogi Das Cruzes",
        "state": "SP",
        "district": "Chacara Cruzeiro Do Sul",
        "street": "Rua Goiaba",
        "zipcode": "08845-020"
    },
    {
        "city": "Mogi Das Cruzes",
        "state": "SP",
        "district": "Chacara Cruzeiro Do Sul",
        "street": "Avenida Maracuja",
        "zipcode": "08845-100"
    },
    {
        "city": "Mogi Das Cruzes",
        "state": "SP",
        "district": "Conj Habit Sao Sebastiao",
        "street": "Rua Gleba (Um)",
        "zipcode": "08725-590"
    },
    {
        "city": "Mogi Das Cruzes",
        "state": "SP",
        "district": "Jundiapeba",
        "street": "Loteamento Parque Sao Martinho",
        "zipcode": "08755-000"
    },
    {
        "city": "Mogi Das Cruzes",
        "state": "SP",
        "district": "Vila Partenio",
        "street": "Rua Antenor Leite Da Cunha",
        "zipcode": "08780-440"
    },
    {
        "city": "Mogi Das Cruzes",
        "state": "SP",
        "district": "Chacara Cruzeiro Do Sul",
        "street": "Rua Morango",
        "zipcode": "08845-110"
    },
    {
        "city": "Mogi Das Cruzes",
        "state": "SP",
        "district": "Jundiapeba",
        "street": "Loteamento Jardim Nove De Julho",
        "zipcode": "08753-000"
    },
    {
        "city": "Mogi Das Cruzes",
        "state": "SP",
        "district": "Parque Santana",
        "street": "Rua Antonio Bento De Souza",
        "zipcode": "08730-770"
    },
    {
        "city": "Mogi Das Cruzes",
        "state": "SP",
        "district": "Chacara Cruzeiro Do Sul",
        "street": "Rua Jaca",
        "zipcode": "08845-060"
    }
]