[
    {
        "city": "Nova Odessa",
        "state": "SP",
        "district": "Centro",
        "street": "Rua Riachuelo",
        "zipcode": "13380-015"
    },
    {
        "city": "Nova Odessa",
        "state": "SP",
        "district": "Jardim da Alvorada",
        "street": "Rua Manacá",
        "zipcode": "13382-486"
    },
    {
        "city": "Nova Odessa",
        "state": "SP",
        "district": "Jardim Dona Maria Azenha",
        "street": "Rua Eduardo Leekning",
        "zipcode": "13380-490"
    },
    {
        "city": "Nova Odessa",
        "state": "SP",
        "district": "Parque Industrial Harmonia",
        "street": "Avenida José Rodrigues",
        "zipcode": "13380-304"
    },
    {
        "city": "Nova Odessa",
        "state": "SP",
        "district": "Jardim Santa Rita II",
        "street": "Avenida São Gonçalo",
        "zipcode": "13386-090"
    },
    {
        "city": "Nova Odessa",
        "state": "SP",
        "district": "Jardim das Palmeiras I",
        "street": "Rua dos Jacarandás",
        "zipcode": "13382-432"
    },
    {
        "city": "Nova Odessa",
        "state": "SP",
        "district": "Jardim da Alvorada",
        "street": "Rua das Imbuias",
        "zipcode": "13382-478"
    },
    {
        "city": "Nova Odessa",
        "state": "SP",
        "district": "Centro",
        "street": "Praça Sud Menuci",
        "zipcode": "13380-019"
    },
    {
        "city": "Nova Odessa",
        "state": "SP",
        "district": "Centro",
        "street": "Avenida João Pessoa",
        "zipcode": "13380-017"
    },
    {
        "city": "Nova Odessa",
        "state": "SP",
        "district": "Parque Residencial Klavin",
        "street": "Rua Rafaela Manzi Piconi",
        "zipcode": "13382-336"
    },
    {
        "city": "Nova Odessa",
        "state": "SP",
        "district": "Jardim Santa Rosa",
        "street": "Rua Waldemar Sniker",
        "zipcode": "13385-090"
    },
    {
        "city": "Nova Odessa",
        "state": "SP",
        "district": "Residencial Santa Luiza I",
        "street": "Rua Cezarina Constâncio Bordon",
        "zipcode": "13387-722"
    },
    {
        "city": "Nova Odessa",
        "state": "SP",
        "district": "Vila Letônia",
        "street": "Rua Capitão Francisco Sergio de Toledo",
        "zipcode": "13385-418"
    },
    {
        "city": "Nova Odessa",
        "state": "SP",
        "district": "Jardim Altos do Klavin",
        "street": "Rua Higino Bassora",
        "zipcode": "13382-386"
    },
    {
        "city": "Nova Odessa",
        "state": "SP",
        "district": "Bosque dos Cedros",
        "street": "Rua Wanda Blanco Pereira",
        "zipcode": "13380-082"
    },
    {
        "city": "Nova Odessa",
        "state": "SP",
        "district": "Jardim Bela Vista",
        "street": "Rua Augusto Peterlevitz",
        "zipcode": "13385-008"
    },
    {
        "city": "Nova Odessa",
        "state": "SP",
        "district": "Centro",
        "street": "Rua Washington Luiz",
        "zipcode": "13380-023"
    },
    {
        "city": "Nova Odessa",
        "state": "SP",
        "district": "Parque Residencial Klavin",
        "street": "Avenida Rodolfo Kivitz",
        "zipcode": "13382-342"
    },
    {
        "city": "Nova Odessa",
        "state": "SP",
        "district": "Residencial Santa Luiza I",
        "street": "Rua Arlindo Casassa",
        "zipcode": "13387-732"
    },
    {
        "city": "Nova Odessa",
        "state": "SP",
        "district": "Green Village",
        "street": "Rua Fioravante Martins",
        "zipcode": "13385-500"
    },
    {
        "city": "Nova Odessa",
        "state": "SP",
        "district": "Jardim Eneides Industrial",
        "street": "Avenida Ampélio Gazzetta",
        "zipcode": "13380-320"
    },
    {
        "city": "Nova Odessa",
        "state": "SP",
        "district": "Centro",
        "street": "Rua Ernesto Mauerberg",
        "zipcode": "13380-033"
    },
    {
        "city": "Nova Odessa",
        "state": "SP",
        "district": "Bosque dos Cedros",
        "street": "Rua Roque Vicente dos Santos",
        "zipcode": "13380-090"
    },
    {
        "city": "Nova Odessa",
        "state": "SP",
        "district": "Centro",
        "street": "Rua Professor Carlos Liepin",
        "zipcode": "13380-031"
    },
    {
        "city": "Nova Odessa",
        "state": "SP",
        "district": "Jardim Santa Rita I",
        "street": "Rua Geraldo Soares da Rocha",
        "zipcode": "13386-068"
    },
    {
        "city": "Nova Odessa",
        "state": "SP",
        "district": "Jardim Europa",
        "street": "Rua Gilberto Lovatti",
        "zipcode": "13380-102"
    },
    {
        "city": "Nova Odessa",
        "state": "SP",
        "district": "Bosque dos Eucaliptos",
        "street": "Rua Jesus Roza de Oliveira",
        "zipcode": "13381-062"
    },
    {
        "city": "Nova Odessa",
        "state": "SP",
        "district": "Centro",
        "street": "Rua Anchieta",
        "zipcode": "13380-009"
    },
    {
        "city": "Nova Odessa",
        "state": "SP",
        "district": "Jardim São Manoel",
        "street": "Rua Maria de Oliveira Piconi",
        "zipcode": "13386-032"
    },
    {
        "city": "Nova Odessa",
        "state": "SP",
        "district": "Centro",
        "street": "Rua Heitor Penteado",
        "zipcode": "13380-011"
    },
    {
        "city": "Nova Odessa",
        "state": "SP",
        "district": "Jardim Primavera",
        "street": "Rua das Alfazemas",
        "zipcode": "13380-598"
    },
    {
        "city": "Nova Odessa",
        "state": "SP",
        "district": "Centro",
        "street": "Rua Aristeu Valente",
        "zipcode": "13380-021"
    },
    {
        "city": "Nova Odessa",
        "state": "SP",
        "district": "Jardim Capuava",
        "street": "Rua dos Eucaliptos",
        "zipcode": "13382-520"
    },
    {
        "city": "Nova Odessa",
        "state": "SP",
        "district": "Jardim Eneides Industrial",
        "street": "Rua Joaquim Carvalho",
        "zipcode": "13380-322"
    },
    {
        "city": "Nova Odessa",
        "state": "SP",
        "district": "Centro",
        "street": "Rua Duque de Caxias",
        "zipcode": "13380-007"
    },
    {
        "city": "Nova Odessa",
        "state": "SP",
        "district": "Centro",
        "street": "Rua Aristides Zaramello",
        "zipcode": "13380-027"
    },
    {
        "city": "Nova Odessa",
        "state": "SP",
        "district": "Jardim Mathilde Berzin",
        "street": "Rua Rosalina Whitehead Barufaldi",
        "zipcode": "13380-228"
    },
    {
        "city": "Nova Odessa",
        "state": "SP",
        "district": "Jardim Mathilde Berzin",
        "street": "Rua Manoel Antonio Vilella",
        "zipcode": "13380-222"
    },
    {
        "city": "Nova Odessa",
        "state": "SP",
        "district": "Parque Fabrício",
        "street": "Rua Karlis Burse",
        "zipcode": "13380-178"
    },
    {
        "city": "Nova Odessa",
        "state": "SP",
        "district": "Jardim Mathilde Berzin",
        "street": "Rua Georgina de Toledo Martins",
        "zipcode": "13380-230"
    },
    {
        "city": "Nova Odessa",
        "state": "SP",
        "district": "Jardim Marajoara",
        "street": "Rua Joaquim Lourenço da Silva",
        "zipcode": "13380-416"
    },
    {
        "city": "Nova Odessa",
        "state": "SP",
        "district": "Parque Industrial Fritz Bersin",
        "street": "Rua Antenor de Vivo",
        "zipcode": "13380-250"
    },
    {
        "city": "Nova Odessa",
        "state": "SP",
        "district": "Jardim Capuava",
        "street": "Rua Marfim",
        "zipcode": "13382-506"
    },
    {
        "city": "Nova Odessa",
        "state": "SP",
        "district": "Chácaras Acapulco",
        "street": "Rua das Pérolas",
        "zipcode": "13389-212"
    },
    {
        "city": "Nova Odessa",
        "state": "SP",
        "district": "Jardim Santa Rosa",
        "street": "Rua Joaquim Sanches",
        "zipcode": "13385-040"
    },
    {
        "city": "Nova Odessa",
        "state": "SP",
        "district": "Bosque dos Cedros",
        "street": "Rua Presidente Juscelino Kubitschek de Oliveira",
        "zipcode": "13380-088"
    },
    {
        "city": "Nova Odessa",
        "state": "SP",
        "district": "Parque Industrial Recanto",
        "street": "Rua João Bosco",
        "zipcode": "13380-366"
    },
    {
        "city": "Nova Odessa",
        "state": "SP",
        "district": "Parque Residencial Klavin",
        "street": "Rua Alexandre David",
        "zipcode": "13382-316"
    },
    {
        "city": "Nova Odessa",
        "state": "SP",
        "district": "Centro",
        "street": "Rua Rio Branco",
        "zipcode": "13380-003"
    },
    {
        "city": "Nova Odessa",
        "state": "SP",
        "district": "Jardim Santa Rosa",
        "street": "Rua Rio Branco",
        "zipcode": "13385-052"
    },
    {
        "city": "Nova Odessa",
        "state": "SP",
        "district": "Jardim da Alvorada",
        "street": "Rua Cambará",
        "zipcode": "13382-456"
    },
    {
        "city": "Nova Odessa",
        "state": "SP",
        "district": "Jardim Planalto",
        "street": "Rua Presidente Juscelino Kubitschek de Oliveira",
        "zipcode": "13380-196"
    },
    {
        "city": "Nova Odessa",
        "state": "SP",
        "district": "Jardim São Jorge",
        "street": "Rua Niterói",
        "zipcode": "13387-648"
    },
    {
        "city": "Nova Odessa",
        "state": "SP",
        "district": "Jardim São Manoel",
        "street": "Rua Manoel Tendoro",
        "zipcode": "13386-006"
    },
    {
        "city": "Nova Odessa",
        "state": "SP",
        "district": "Green Village",
        "street": "Rua Alzira Delegá",
        "zipcode": "13385-496"
    },
    {
        "city": "Nova Odessa",
        "state": "SP",
        "district": "Jardim Santa Rita I",
        "street": "Rua José Casassa",
        "zipcode": "13386-070"
    },
    {
        "city": "Nova Odessa",
        "state": "SP",
        "district": "Jardim Capuava",
        "street": "Rua Flamboyant",
        "zipcode": "13382-502"
    },
    {
        "city": "Nova Odessa",
        "state": "SP",
        "district": "Jardim das Palmeiras I",
        "street": "Rua das Nogueiras",
        "zipcode": "13382-434"
    },
    {
        "city": "Nova Odessa",
        "state": "SP",
        "district": "Jardim São Jorge",
        "street": "Rua Belém",
        "zipcode": "13387-642"
    },
    {
        "city": "Nova Odessa",
        "state": "SP",
        "district": "Chácaras Reunidas Anhanguera",
        "street": "Avenida Um",
        "zipcode": "13388-690"
    },
    {
        "city": "Nova Odessa",
        "state": "SP",
        "district": "Residencial dos Ipês",
        "street": "Rua Dezesseis",
        "zipcode": "13386-215"
    },
    {
        "city": "Nova Odessa",
        "state": "SP",
        "district": "Jardim Santa Rosa",
        "street": "Avenida Ampélio Gazzetta",
        "zipcode": "13385-043"
    },
    {
        "city": "Nova Odessa",
        "state": "SP",
        "district": "Jardim Santa Rita II",
        "street": "Rua Doutor Sidney de Souza Almeida",
        "zipcode": "13386-096"
    },
    {
        "city": "Nova Odessa",
        "state": "SP",
        "district": "Jardim Santa Rosa",
        "street": "Rua Carlos Pinto Camargo",
        "zipcode": "13385-074"
    },
    {
        "city": "Nova Odessa",
        "state": "SP",
        "district": "Jardim São Jorge",
        "street": "Rua Natal",
        "zipcode": "13387-636"
    },
    {
        "city": "Nova Odessa",
        "state": "SP",
        "district": "Jardim Bela Vista",
        "street": "Avenida Doutor Eddy de Freitas Crissiuma",
        "zipcode": "13385-020"
    },
    {
        "city": "Nova Odessa",
        "state": "SP",
        "district": "Jardim Monte das Oliveiras",
        "street": "Rua Antonio Berni",
        "zipcode": "13386-120"
    },
    {
        "city": "Nova Odessa",
        "state": "SP",
        "district": "Jardim São Manoel",
        "street": "Rua Amaro Soares de Oliveira",
        "zipcode": "13386-002"
    },
    {
        "city": "Nova Odessa",
        "state": "SP",
        "district": "Jardim da Alvorada",
        "street": "Rua Seringueira",
        "zipcode": "13382-466"
    },
    {
        "city": "Nova Odessa",
        "state": "SP",
        "district": "Jardim Santa Rosa",
        "street": "Rua Alvina Maria Adamson",
        "zipcode": "13385-084"
    },
    {
        "city": "Nova Odessa",
        "state": "SP",
        "district": "Jardim Nossa Senhora de Fátima",
        "street": "Rua Silvio de Paula",
        "zipcode": "13387-600"
    },
    {
        "city": "Nova Odessa",
        "state": "SP",
        "district": "Jardim dos Lagos",
        "street": "Rua Dez",
        "zipcode": "13386-162"
    },
    {
        "city": "Nova Odessa",
        "state": "SP",
        "district": "Jardim São Manoel",
        "street": "Rua Maria Alaide Aguiar Alves",
        "zipcode": "13386-042"
    },
    {
        "city": "Nova Odessa",
        "state": "SP",
        "district": "Jardim Altos do Klavin",
        "street": "Rua Benicio Antonio de Souza",
        "zipcode": "13382-358"
    },
    {
        "city": "Nova Odessa",
        "state": "SP",
        "district": "Residencial Vale dos Lírios",
        "street": "Avenida Marginal Leontina Dionisio da Rocha",
        "zipcode": "13383-644"
    },
    {
        "city": "Nova Odessa",
        "state": "SP",
        "district": "Jardim Altos do Klavin",
        "street": "Rua Sylvio Thomé",
        "zipcode": "13382-370"
    },
    {
        "city": "Nova Odessa",
        "state": "SP",
        "district": "Jardim Santa Rita I",
        "street": "Rua Carlos Eduardo Martins",
        "zipcode": "13386-064"
    },
    {
        "city": "Nova Odessa",
        "state": "SP",
        "district": "Jardim Campos Verdes",
        "street": "Rua Vanderley Willis Klava",
        "zipcode": "13385-740"
    },
    {
        "city": "Nova Odessa",
        "state": "SP",
        "district": "Jardim Santa Rita I",
        "street": "Avenida Pascoal Piconi",
        "zipcode": "13386-066"
    },
    {
        "city": "Nova Odessa",
        "state": "SP",
        "district": "Jardim Conceição",
        "street": "Rua Emília Maria Antonio",
        "zipcode": "13385-434"
    },
    {
        "city": "Nova Odessa",
        "state": "SP",
        "district": "Jardim Santa Rita I",
        "street": "Rua Walter Klava",
        "zipcode": "13386-084"
    },
    {
        "city": "Nova Odessa",
        "state": "SP",
        "district": "Jardim Monte das Oliveiras",
        "street": "Rua Oscar Araium",
        "zipcode": "13386-130"
    },
    {
        "city": "Nova Odessa",
        "state": "SP",
        "district": "Vila Azenha",
        "street": "Rua Joaquim Rodrigues Azenha",
        "zipcode": "13387-084"
    },
    {
        "city": "Nova Odessa",
        "state": "SP",
        "district": "Jardim Capuava",
        "street": "Rua das Mangabeiras",
        "zipcode": "13382-524"
    },
    {
        "city": "Nova Odessa",
        "state": "SP",
        "district": "Parque dos Pinheiros",
        "street": "Rua das Orquídeas",
        "zipcode": "13381-122"
    },
    {
        "city": "Nova Odessa",
        "state": "SP",
        "district": "Jardim Bela Vista",
        "street": "Rua Professor Carlos Liepin",
        "zipcode": "13385-000"
    },
    {
        "city": "Nova Odessa",
        "state": "SP",
        "district": "Jardim Conceição",
        "street": "Rua Luzia Afonso de Meira",
        "zipcode": "13385-438"
    },
    {
        "city": "Nova Odessa",
        "state": "SP",
        "district": "Vila Azenha",
        "street": "Rua Dante Gazzetta",
        "zipcode": "13387-060"
    },
    {
        "city": "Nova Odessa",
        "state": "SP",
        "district": "Parque Residencial Klavin",
        "street": "Rua José de Camargo",
        "zipcode": "13382-340"
    },
    {
        "city": "Nova Odessa",
        "state": "SP",
        "district": "Jardim São Jorge",
        "street": "Rua Recife",
        "zipcode": "13387-632"
    },
    {
        "city": "Nova Odessa",
        "state": "SP",
        "district": "Jardim Fadel",
        "street": "Rua Antonio Oliveira",
        "zipcode": "13387-124"
    },
    {
        "city": "Nova Odessa",
        "state": "SP",
        "district": "Jardim Campos Verdes",
        "street": "Rua Geni Marques de Oliveira",
        "zipcode": "13385-748"
    },
    {
        "city": "Nova Odessa",
        "state": "SP",
        "district": "Jardim Maria Helena",
        "street": "Rua Geraldo de Oliveira",
        "zipcode": "13385-328"
    },
    {
        "city": "Nova Odessa",
        "state": "SP",
        "district": "Jardim São Manoel",
        "street": "Rua Joaquim Leite de Camargo",
        "zipcode": "13386-034"
    },
    {
        "city": "Nova Odessa",
        "state": "SP",
        "district": "Jardim Flórida",
        "street": "Rua Valentin Beato",
        "zipcode": "13387-048"
    },
    {
        "city": "Nova Odessa",
        "state": "SP",
        "district": "Jardim Maria Helena",
        "street": "Rua Antonio Júlio Ferreira de Campos",
        "zipcode": "13385-344"
    },
    {
        "city": "Nova Odessa",
        "state": "SP",
        "district": "Jardim Fadel",
        "street": "Rua João Barbosa",
        "zipcode": "13387-120"
    },
    {
        "city": "Nova Odessa",
        "state": "SP",
        "district": "Jardim São Francisco",
        "street": "Rua Edélcio Cavalcante",
        "zipcode": "13388-162"
    },
    {
        "city": "Nova Odessa",
        "state": "SP",
        "district": "Jardim São Francisco",
        "street": "Rua Roberto Bentinho Finisguerra",
        "zipcode": "13388-172"
    },
    {
        "city": "Nova Odessa",
        "state": "SP",
        "district": "Jardim Monte das Oliveiras",
        "street": "Rua Angelo Cocato",
        "zipcode": "13386-134"
    },
    {
        "city": "Nova Odessa",
        "state": "SP",
        "district": "Jardim São Manoel",
        "street": "Rua Eduardo Hansen",
        "zipcode": "13386-026"
    },
    {
        "city": "Nova Odessa",
        "state": "SP",
        "district": "Jardim Flórida",
        "street": "Rua Gertrudes Ximenes Carrion",
        "zipcode": "13387-044"
    },
    {
        "city": "Nova Odessa",
        "state": "SP",
        "district": "Jardim Campos Verdes",
        "street": "Rua Helena Peterson Valente",
        "zipcode": "13385-744"
    },
    {
        "city": "Nova Odessa",
        "state": "SP",
        "district": "Jardim Nossa Senhora de Fátima",
        "street": "Rua José Carreon",
        "zipcode": "13387-592"
    },
    {
        "city": "Nova Odessa",
        "state": "SP",
        "district": "Parque Industrial Experts",
        "street": "Rua Seis",
        "zipcode": "13387-796"
    },
    {
        "city": "Nova Odessa",
        "state": "SP",
        "district": "Jardim Gleba B",
        "street": "Rua Oito",
        "zipcode": "13387-808"
    },
    {
        "city": "Nova Odessa",
        "state": "SP",
        "district": "Jardim Residencial Fibra",
        "street": "Rua da Bondade",
        "zipcode": "13387-768"
    },
    {
        "city": "Nova Odessa",
        "state": "SP",
        "district": "Jardim dos Lagos",
        "street": "Rua Catorze",
        "zipcode": "13386-166"
    },
    {
        "city": "Nova Odessa",
        "state": "SP",
        "district": "Chácaras Acapulco",
        "street": "Rua dos Berílios",
        "zipcode": "13389-216"
    },
    {
        "city": "Nova Odessa",
        "state": "SP",
        "district": "Jardim São Francisco",
        "street": "Rua Lourenço Chohfi",
        "zipcode": "13388-160"
    },
    {
        "city": "Nova Odessa",
        "state": "SP",
        "district": "Jardim Flórida",
        "street": "Rua Maria Consuelo Cobos Lanzoni",
        "zipcode": "13387-046"
    },
    {
        "city": "Nova Odessa",
        "state": "SP",
        "district": "Residencial dos Ipês",
        "street": "Rua Catorze",
        "zipcode": "13386-213"
    },
    {
        "city": "Nova Odessa",
        "state": "SP",
        "district": "Jardim Nossa Senhora de Fátima",
        "street": "Avenida Marginal Frederico Hansen",
        "zipcode": "13387-596"
    },
    {
        "city": "Nova Odessa",
        "state": "SP",
        "district": "Residencial Jardins da Cidade",
        "street": "Via Marginal A",
        "zipcode": "13387-820"
    },
    {
        "city": "Nova Odessa",
        "state": "SP",
        "district": "Jardim Monte das Oliveiras",
        "street": "Rua Anésio Apparecido Soares",
        "zipcode": "13386-144"
    },
    {
        "city": "Nova Odessa",
        "state": "SP",
        "district": "Jardim Gleba B",
        "street": "Rua Três",
        "zipcode": "13387-803"
    },
    {
        "city": "Nova Odessa",
        "state": "SP",
        "district": "Jardim Residencial Fibra",
        "street": "Alameda dos Sonhos",
        "zipcode": "13387-778"
    },
    {
        "city": "Nova Odessa",
        "state": "SP",
        "district": "Residencial Santa Luiza I",
        "street": "Rua Norma Bassora",
        "zipcode": "13387-728"
    },
    {
        "city": "Nova Odessa",
        "state": "SP",
        "district": "Residencial dos Ipês",
        "street": "Rua Quatro",
        "zipcode": "13386-204"
    },
    {
        "city": "Nova Odessa",
        "state": "SP",
        "district": "Residencial Jardins da Cidade",
        "street": "Alameda Vila Romana",
        "zipcode": "13387-826"
    },
    {
        "city": "Nova Odessa",
        "state": "SP",
        "district": "Jardim dos Lagos",
        "street": "Avenida José Vieira de Souza",
        "zipcode": "13386-150"
    },
    {
        "city": "Nova Odessa",
        "state": "SP",
        "district": "Vila Azenha",
        "street": "Rua Luiz Delbem",
        "zipcode": "13387-064"
    },
    {
        "city": "Nova Odessa",
        "state": "SP",
        "district": "Jardim São Francisco",
        "street": "Rua Benedicto Crempe",
        "zipcode": "13388-168"
    },
    {
        "city": "Nova Odessa",
        "state": "SP",
        "district": "Parque Residencial Triunfo",
        "street": "Rua Virgilio Bodini",
        "zipcode": "13387-678"
    },
    {
        "city": "Nova Odessa",
        "state": "SP",
        "district": "Jardim dos Lagos",
        "street": "Rua Dezesseis",
        "zipcode": "13386-170"
    },
    {
        "city": "Nova Odessa",
        "state": "SP",
        "district": "Jardim Nossa Senhora de Fátima",
        "street": "Rua Alexandre Bassora",
        "zipcode": "13387-582"
    },
    {
        "city": "Nova Odessa",
        "state": "SP",
        "district": "Jardim São Jorge",
        "street": "Rua Salvador",
        "zipcode": "13387-630"
    },
    {
        "city": "Nova Odessa",
        "state": "SP",
        "district": "Jardim São Francisco",
        "street": "Rua Ana Beato Felippe",
        "zipcode": "13388-166"
    },
    {
        "city": "Nova Odessa",
        "state": "SP",
        "district": "Chácaras Acapulco",
        "street": "Rua dos Rubis",
        "zipcode": "13389-202"
    },
    {
        "city": "Nova Odessa",
        "state": "SP",
        "district": "Jardim Fadel",
        "street": "Rua Henrique Felix",
        "zipcode": "13387-114"
    },
    {
        "city": "Nova Odessa",
        "state": "SP",
        "district": "Jardim Residencial Fibra",
        "street": "Rua da Vitória",
        "zipcode": "13387-784"
    },
    {
        "city": "Nova Odessa",
        "state": "SP",
        "district": "Recanto Las Palmas",
        "street": "Rua Dois",
        "zipcode": "13389-242"
    },
    {
        "city": "Nova Odessa",
        "state": "SP",
        "district": "Residencial dos Ipês",
        "street": "Rua Um",
        "zipcode": "13386-200"
    },
    {
        "city": "Nova Odessa",
        "state": "SP",
        "district": "Residencial dos Ipês",
        "street": "Rua Seis",
        "zipcode": "13386-203"
    },
    {
        "city": "Nova Odessa",
        "state": "SP",
        "district": "Jardim Fadel",
        "street": "Rua Pedro Sniker",
        "zipcode": "13387-118"
    },
    {
        "city": "Nova Odessa",
        "state": "SP",
        "district": "Parque Residencial Triunfo",
        "street": "Rua Sebastião da Cruz Prata",
        "zipcode": "13387-654"
    },
    {
        "city": "Nova Odessa",
        "state": "SP",
        "district": "Jardim Santa Rita II",
        "street": "Rua Vilhelms Rosenbergs",
        "zipcode": "13386-106"
    },
    {
        "city": "Nova Odessa",
        "state": "SP",
        "district": "Jardim São Jorge",
        "street": "Rua Porto Alegre",
        "zipcode": "13387-620"
    },
    {
        "city": "Nova Odessa",
        "state": "SP",
        "district": "Jardim Residencial Fibra",
        "street": "Rua Celeste Cereser Paulão",
        "zipcode": "13387-760"
    },
    {
        "city": "Nova Odessa",
        "state": "SP",
        "district": "Residencial Santa Luiza II",
        "street": "Rua Arlindo Casassa",
        "zipcode": "13387-694"
    },
    {
        "city": "Nova Odessa",
        "state": "SP",
        "district": "Jardim dos Lagos",
        "street": "Rua Treze",
        "zipcode": "13386-165"
    },
    {
        "city": "Nova Odessa",
        "state": "SP",
        "district": "Jardim Gleba B",
        "street": "Rua Dez",
        "zipcode": "13387-810"
    },
    {
        "city": "Nova Odessa",
        "state": "SP",
        "district": "Residencial Santa Luiza I",
        "street": "Rua José Porfírio dos Santos",
        "zipcode": "13387-730"
    },
    {
        "city": "Nova Odessa",
        "state": "SP",
        "district": "Chácaras Acapulco",
        "street": "Rua das Águas Marinhas",
        "zipcode": "13389-210"
    },
    {
        "city": "Nova Odessa",
        "state": "SP",
        "district": "Residencial Jardins da Cidade",
        "street": "Alameda Jardim Jussara",
        "zipcode": "13387-835"
    },
    {
        "city": "Nova Odessa",
        "state": "SP",
        "district": "Vila Azenha",
        "street": "Rua Antonio Oliveira",
        "zipcode": "13387-070"
    },
    {
        "city": "Nova Odessa",
        "state": "SP",
        "district": "Jardim Santa Rita II",
        "street": "Rua Olympio Gazzetta",
        "zipcode": "13386-102"
    },
    {
        "city": "Nova Odessa",
        "state": "SP",
        "district": "Jardim Fadel",
        "street": "Rua João Adamson",
        "zipcode": "13387-106"
    },
    {
        "city": "Nova Odessa",
        "state": "SP",
        "district": "Jardim São Jorge",
        "street": "Rua Manaus",
        "zipcode": "13387-640"
    },
    {
        "city": "Nova Odessa",
        "state": "SP",
        "district": "Jardim São Francisco",
        "street": "Rua Antonio Turcato",
        "zipcode": "13388-164"
    },
    {
        "city": "Nova Odessa",
        "state": "SP",
        "district": null,
        "street": null,
        "zipcode": "13460-000"
    },
    {
        "city": "Nova Odessa",
        "state": "SP",
        "district": "Centro",
        "street": "Avenida Doutor Eddy de Freitas Crissiuma",
        "zipcode": "13380-039"
    },
    {
        "city": "Nova Odessa",
        "state": "SP",
        "district": "Jardim Bela Vista",
        "street": "Rua Wadih Bufarah",
        "zipcode": "13385-010"
    },
    {
        "city": "Nova Odessa",
        "state": "SP",
        "district": "INDUSPARK Nova Odessa",
        "street": "Avenida Projetada 1 A",
        "zipcode": "13388-081"
    },
    {
        "city": "Nova Odessa",
        "state": "SP",
        "district": "Jardim Maria Helena",
        "street": "Rua Dionísio Zulian",
        "zipcode": "13385-350"
    },
    {
        "city": "Nova Odessa",
        "state": "SP",
        "district": "INDUSPARK Nova Odessa",
        "street": "Acesso 1 A",
        "zipcode": "13388-071"
    },
    {
        "city": "Nova Odessa",
        "state": "SP",
        "district": "Jardim Fadel",
        "street": "Rua Dona Maria Raposeiro Azenha",
        "zipcode": "13387-116"
    },
    {
        "city": "Nova Odessa",
        "state": "SP",
        "district": "Chácaras Recanto Solar",
        "street": "Rua Shano Jorge Sprogis",
        "zipcode": "13383-870"
    },
    {
        "city": "Nova Odessa",
        "state": "SP",
        "district": "INDUSPARK Nova Odessa",
        "street": "Rua Projetada 1",
        "zipcode": "13388-073"
    },
    {
        "city": "Nova Odessa",
        "state": "SP",
        "district": "Jardim dos Lagos",
        "street": "Rua Oito",
        "zipcode": "13386-160"
    },
    {
        "city": "Nova Odessa",
        "state": "SP",
        "district": "Jardim Santa Rosa",
        "street": "Avenida Doutor Ernesto Sprogis",
        "zipcode": "13385-086"
    },
    {
        "city": "Nova Odessa",
        "state": "SP",
        "district": "INDUSPARK Nova Odessa",
        "street": "Rua Projetada 5",
        "zipcode": "13388-082"
    },
    {
        "city": "Nova Odessa",
        "state": "SP",
        "district": "INDUSPARK Nova Odessa",
        "street": "Rua Projetada 4",
        "zipcode": "13388-088"
    },
    {
        "city": "Nova Odessa",
        "state": "SP",
        "district": "Jardim Primavera",
        "street": "Rua dos Agapantos",
        "zipcode": "13380-574"
    },
    {
        "city": "Nova Odessa",
        "state": "SP",
        "district": "INDUSPARK Nova Odessa",
        "street": "Rua Projetada 2",
        "zipcode": "13388-074"
    },
    {
        "city": "Nova Odessa",
        "state": "SP",
        "district": "Parque dos Pinheiros",
        "street": "Rua das Violetas",
        "zipcode": "13381-132"
    },
    {
        "city": "Nova Odessa",
        "state": "SP",
        "district": "INDUSPARK Nova Odessa",
        "street": "Avenida Projetada 1 B",
        "zipcode": "13388-070"
    },
    {
        "city": "Nova Odessa",
        "state": "SP",
        "district": "INDUSPARK Nova Odessa",
        "street": "Rua Projetada 3",
        "zipcode": "13388-075"
    },
    {
        "city": "Nova Odessa",
        "state": "SP",
        "district": "Jardim São Francisco",
        "street": "Rua Louis Francescon",
        "zipcode": "13388-170"
    },
    {
        "city": "Nova Odessa",
        "state": "SP",
        "district": "Jardim Gleba B",
        "street": "Rua Seis",
        "zipcode": "13387-806"
    },
    {
        "city": "Nova Odessa",
        "state": "SP",
        "district": "Parque Fabrício",
        "street": "Avenida Brasil",
        "zipcode": "13380-174"
    },
    {
        "city": "Nova Odessa",
        "state": "SP",
        "district": "Jardim Primavera",
        "street": "Rua das Camélias",
        "zipcode": "13380-584"
    },
    {
        "city": "Nova Odessa",
        "state": "SP",
        "district": "Jardim de Éden",
        "street": "Avenida Doutor Ernesto Sprogis",
        "zipcode": "13382-020"
    },
    {
        "city": "Nova Odessa",
        "state": "SP",
        "district": "Jardim das Palmeiras I",
        "street": "Rua Vitório Crispin",
        "zipcode": "13382-438"
    },
    {
        "city": "Nova Odessa",
        "state": "SP",
        "district": "Parque Residencial Triunfo",
        "street": "Rua Professor Antonio Fernandes Gonçalves",
        "zipcode": "13387-656"
    },
    {
        "city": "Nova Odessa",
        "state": "SP",
        "district": "Jardim São Manoel",
        "street": "Rua Waldemar Augusto",
        "zipcode": "13386-038"
    },
    {
        "city": "Nova Odessa",
        "state": "SP",
        "district": "Jardim Eneides Residencial",
        "street": "Rua Santa Bárbara DOeste",
        "zipcode": "13380-314"
    },
    {
        "city": "Nova Odessa",
        "state": "SP",
        "district": "Jardim das Palmeiras",
        "street": "Rua dos Cedros",
        "zipcode": "13382-424"
    },
    {
        "city": "Nova Odessa",
        "state": "SP",
        "district": "Área Rural de Nova Odessa",
        "street": "Área Rural",
        "zipcode": "13389-899"
    },
    {
        "city": "Nova Odessa",
        "state": "SP",
        "district": "Jardim Santa Rosa",
        "street": "Rua Roberto Sprogis",
        "zipcode": "13385-078"
    },
    {
        "city": "Nova Odessa",
        "state": "SP",
        "district": "Jardim Campos Verdes",
        "street": "Rua Marino Lima Braga",
        "zipcode": "13385-750"
    },
    {
        "city": "Nova Odessa",
        "state": "SP",
        "district": "Residencial Santa Luiza I",
        "street": "Rua Virgilio Bodini",
        "zipcode": "13387-736"
    },
    {
        "city": "Nova Odessa",
        "state": "SP",
        "district": "Residencial Imigrantes",
        "street": "Rua Dante Oliveira Leite",
        "zipcode": "13380-514"
    },
    {
        "city": "Nova Odessa",
        "state": "SP",
        "district": "INDUSPARK Nova Odessa",
        "street": "Rua Projetada 4",
        "zipcode": "13388-076"
    },
    {
        "city": "Nova Odessa",
        "state": "SP",
        "district": "Residencial Imigrantes",
        "street": "Rua Victor Museneck",
        "zipcode": "13380-502"
    },
    {
        "city": "Nova Odessa",
        "state": "SP",
        "district": "Residencial Vale dos Lírios",
        "street": "Rua Antonio Vazzoler",
        "zipcode": "13383-632"
    },
    {
        "city": "Nova Odessa",
        "state": "SP",
        "district": "Jardim São Jorge",
        "street": "Rua Vitória",
        "zipcode": "13387-634"
    },
    {
        "city": "Nova Odessa",
        "state": "SP",
        "district": "Residencial Imigrantes",
        "street": "Rua Augusto Tiene",
        "zipcode": "13380-524"
    },
    {
        "city": "Nova Odessa",
        "state": "SP",
        "district": "Jardim Primavera",
        "street": "Rua das Papoulas",
        "zipcode": "13380-604"
    },
    {
        "city": "Nova Odessa",
        "state": "SP",
        "district": "Jardim São Manoel",
        "street": "Rua Vitório Crispin",
        "zipcode": "13386-022"
    },
    {
        "city": "Nova Odessa",
        "state": "SP",
        "district": "Parque Residencial Francisco Lopes Iglesia",
        "street": "Rua Anielo Piconi",
        "zipcode": "13385-518"
    },
    {
        "city": "Nova Odessa",
        "state": "SP",
        "district": "INDUSPARK Nova Odessa",
        "street": "Rua Projetada 3",
        "zipcode": "13388-087"
    },
    {
        "city": "Nova Odessa",
        "state": "SP",
        "district": "INDUSPARK Nova Odessa",
        "street": "Rua Projetada 2",
        "zipcode": "13388-086"
    },
    {
        "city": "Nova Odessa",
        "state": "SP",
        "district": "INDUSPARK Nova Odessa",
        "street": "Rua Projetada 1",
        "zipcode": "13388-085"
    },
    {
        "city": "Nova Odessa",
        "state": "SP",
        "district": "Green Village",
        "street": "Rua Júlio Moreira de Morais",
        "zipcode": "13385-498"
    },
    {
        "city": "Nova Odessa",
        "state": "SP",
        "district": "INDUSPARK Nova Odessa",
        "street": "Avenida Projetada 1 B",
        "zipcode": "13388-080"
    },
    {
        "city": "Nova Odessa",
        "state": "SP",
        "district": "Jardim Europa",
        "street": "Rua Aristides Bassora",
        "zipcode": "13380-110"
    },
    {
        "city": "Nova Odessa",
        "state": "SP",
        "district": "Jardim Primavera",
        "street": "Rua das Bromélias",
        "zipcode": "13380-588"
    },
    {
        "city": "Nova Odessa",
        "state": "SP",
        "district": "Residencial Vale dos Lírios",
        "street": "Avenida Raul Dirceu Lopes Ribeiro",
        "zipcode": "13383-620"
    },
    {
        "city": "Nova Odessa",
        "state": "SP",
        "district": "Jardim Marajoara",
        "street": "Rua Vitório Fadel",
        "zipcode": "13380-428"
    },
    {
        "city": "Nova Odessa",
        "state": "SP",
        "district": "Campo Belo",
        "street": "Rua Adelaide Sperche Torelli",
        "zipcode": "13382-658"
    },
    {
        "city": "Nova Odessa",
        "state": "SP",
        "district": "INDUSPARK Nova Odessa",
        "street": "Acesso 1 A",
        "zipcode": "13388-084"
    },
    {
        "city": "Nova Odessa",
        "state": "SP",
        "district": "Jardim Primavera",
        "street": "Rua das Petúnias",
        "zipcode": "13380-570"
    },
    {
        "city": "Nova Odessa",
        "state": "SP",
        "district": "Residencial Santa Luiza II",
        "street": "Rua Frederico Lanzoni",
        "zipcode": "13387-706"
    },
    {
        "city": "Nova Odessa",
        "state": "SP",
        "district": "INDUSPARK Nova Odessa",
        "street": "Acesso 1 B",
        "zipcode": "13388-083"
    },
    {
        "city": "Nova Odessa",
        "state": "SP",
        "district": "Zona Predominantemente Residencial Dois ( ZPR 2)",
        "street": "Avenida Rodolfo Kivitz",
        "zipcode": "13380-530"
    },
    {
        "city": "Nova Odessa",
        "state": "SP",
        "district": "Parque Industrial Recanto",
        "street": "Avenida Industrial Oscar Berggren",
        "zipcode": "13380-360"
    },
    {
        "city": "Nova Odessa",
        "state": "SP",
        "district": "Jardim São Jorge",
        "street": "Rua Maceió",
        "zipcode": "13387-646"
    },
    {
        "city": "Nova Odessa",
        "state": "SP",
        "district": "Chácaras Central",
        "street": "Rua Seis",
        "zipcode": "13383-404"
    },
    {
        "city": "Nova Odessa",
        "state": "SP",
        "district": "Jardim Eneides Residencial",
        "street": "Avenida José Rodrigues",
        "zipcode": "13380-310"
    },
    {
        "city": "Nova Odessa",
        "state": "SP",
        "district": "Zona de Produção Industrial Dois (ZPI",
        "street": "Rodovia Astrônomo Jean Nicolini",
        "zipcode": "13387-130"
    },
    {
        "city": "Nova Odessa",
        "state": "SP",
        "district": "Parque Residencial Triunfo",
        "street": "Rua Cícero Ferreira",
        "zipcode": "13387-652"
    },
    {
        "city": "Nova Odessa",
        "state": "SP",
        "district": "Parque Industrial Harmonia",
        "street": "Avenida Roberto Agostinetto",
        "zipcode": "13380-302"
    },
    {
        "city": "Nova Odessa",
        "state": "SP",
        "district": "Jardim Mathilde Berzin",
        "street": "Avenida Brasil",
        "zipcode": "13380-210"
    },
    {
        "city": "Nova Odessa",
        "state": "SP",
        "district": "Jardim Eneides Residencial",
        "street": "Avenida Ampélio Gazzetta",
        "zipcode": "13380-318"
    },
    {
        "city": "Nova Odessa",
        "state": "SP",
        "district": "Loteamento Industrial Fechado Jardim Dona Esther",
        "street": "Avenida Natália Klava Muth",
        "zipcode": "13385-730"
    },
    {
        "city": "Nova Odessa",
        "state": "SP",
        "district": "Jardim Flórida",
        "street": "Rua Dante Gazzetta",
        "zipcode": "13387-056"
    },
    {
        "city": "Nova Odessa",
        "state": "SP",
        "district": "Recanto Las Palmas",
        "street": "Rua Seis",
        "zipcode": "13389-238"
    },
    {
        "city": "Nova Odessa",
        "state": "SP",
        "district": "Jardim Santa Rita I",
        "street": "Rua Pedro Camondá",
        "zipcode": "13386-076"
    },
    {
        "city": "Nova Odessa",
        "state": "SP",
        "district": "Jardim Fadel",
        "street": "Rua Alexandre Fadel",
        "zipcode": "13387-102"
    },
    {
        "city": "Nova Odessa",
        "state": "SP",
        "district": "Jardim Bela Vista",
        "street": "Rua Antonio Zanaga",
        "zipcode": "13385-014"
    },
    {
        "city": "Nova Odessa",
        "state": "SP",
        "district": "Green Village",
        "street": "Avenida Pedro de Oliveira",
        "zipcode": "13385-490"
    },
    {
        "city": "Nova Odessa",
        "state": "SP",
        "district": "Jardim Residencial Fibra",
        "street": "Rua Virgilio Bodini",
        "zipcode": "13387-752"
    },
    {
        "city": "Nova Odessa",
        "state": "SP",
        "district": "Jardim Mathilde Berzin",
        "street": "Avenida Ampélio Gazzetta",
        "zipcode": "13380-226"
    },
    {
        "city": "Nova Odessa",
        "state": "SP",
        "district": "Green Village",
        "street": "Avenida Ampélio Gazzetta",
        "zipcode": "13385-508"
    },
    {
        "city": "Nova Odessa",
        "state": "SP",
        "district": "Jardim Planalto",
        "street": "Avenida Brasil",
        "zipcode": "13380-204"
    },
    {
        "city": "Nova Odessa",
        "state": "SP",
        "district": "Green Village",
        "street": "Avenida Natália Klava Muth",
        "zipcode": "13385-504"
    },
    {
        "city": "Nova Odessa",
        "state": "SP",
        "district": "Jardim Monte das Oliveiras",
        "street": "Rua Antonio José Ciol",
        "zipcode": "13386-128"
    },
    {
        "city": "Nova Odessa",
        "state": "SP",
        "district": "Zona de Produção Agrícola",
        "street": null,
        "zipcode": "13383-412"
    },
    {
        "city": "Nova Odessa",
        "state": "SP",
        "district": "Parque Industrial Harmonia",
        "street": "Avenida Ampélio Gazzetta",
        "zipcode": "13380-290"
    },
    {
        "city": "Nova Odessa",
        "state": "SP",
        "district": "Residencial Jardins da Cidade",
        "street": "Alameda Recanto Anastácio",
        "zipcode": "13387-836"
    },
    {
        "city": "Nova Odessa",
        "state": "SP",
        "district": "Jardim Primavera",
        "street": "Avenida Rodolfo Kivitz",
        "zipcode": "13380-560"
    },
    {
        "city": "Nova Odessa",
        "state": "SP",
        "district": "Residencial Jardins da Cidade",
        "street": "Alameda Pacaembu",
        "zipcode": "13387-822"
    },
    {
        "city": "Nova Odessa",
        "state": "SP",
        "district": "Parque Industrial Fritz Bersin",
        "street": "Avenida Brasil",
        "zipcode": "13380-242"
    },
    {
        "city": "Nova Odessa",
        "state": "SP",
        "district": "Jardim Dona Maria Azenha",
        "street": "Rua Antonio Constâncio",
        "zipcode": "13380-486"
    },
    {
        "city": "Nova Odessa",
        "state": "SP",
        "district": "Jardim São Manoel",
        "street": "Rua Olívio Belinate",
        "zipcode": "13386-020"
    },
    {
        "city": "Nova Odessa",
        "state": "SP",
        "district": "Parque Industrial Tânia Maria Covalenco",
        "street": "Rodovia Arnaldo Julio Mauerberg",
        "zipcode": "13388-090"
    },
    {
        "city": "Nova Odessa",
        "state": "SP",
        "district": "Residencial Jardins da Cidade",
        "street": "Alameda Vila Leopoldina",
        "zipcode": "13387-832"
    },
    {
        "city": "Nova Odessa",
        "state": "SP",
        "district": "Chácaras Recanto Solar",
        "street": "Avenida Faustino de Moraes",
        "zipcode": "13383-864"
    },
    {
        "city": "Nova Odessa",
        "state": "SP",
        "district": "Jardim São Jorge",
        "street": "Rua Cuiabá",
        "zipcode": "13387-628"
    },
    {
        "city": "Nova Odessa",
        "state": "SP",
        "district": "Chácaras Recanto Solar",
        "street": "Rua Benedito de Camargo",
        "zipcode": "13383-874"
    },
    {
        "city": "Nova Odessa",
        "state": "SP",
        "district": "Parque Industrial Recanto",
        "street": "Avenida Carlos Rosenfeld",
        "zipcode": "13380-374"
    },
    {
        "city": "Nova Odessa",
        "state": "SP",
        "district": "Jardim Bela Vista",
        "street": "Avenida Ampélio Gazzetta",
        "zipcode": "13385-019"
    },
    {
        "city": "Nova Odessa",
        "state": "SP",
        "district": "Chácaras Recanto Solar",
        "street": "Estrada Municipal Antonio Prado",
        "zipcode": "13383-880"
    },
    {
        "city": "Nova Odessa",
        "state": "SP",
        "district": "Jardim Santa Rita II",
        "street": "Rua Antonio Berni",
        "zipcode": "13386-110"
    },
    {
        "city": "Nova Odessa",
        "state": "SP",
        "district": "Parque Industrial Fritz Bersin",
        "street": "Avenida Ampélio Gazzetta",
        "zipcode": "13380-240"
    },
    {
        "city": "Nova Odessa",
        "state": "SP",
        "district": "Jardim Capuava",
        "street": "Rua dos Ingas",
        "zipcode": "13382-522"
    },
    {
        "city": "Nova Odessa",
        "state": "SP",
        "district": "Parque Industrial Fritz Bersin",
        "street": "Rua André Luiz Vilela",
        "zipcode": "13380-246"
    },
    {
        "city": "Nova Odessa",
        "state": "SP",
        "district": "Jardim da Alvorada",
        "street": "Rua Araucária",
        "zipcode": "13382-464"
    },
    {
        "city": "Nova Odessa",
        "state": "SP",
        "district": "Vila Novos Horizontes",
        "street": "Avenida Brasil",
        "zipcode": "13380-440"
    },
    {
        "city": "Nova Odessa",
        "state": "SP",
        "district": "Recanto da Fazenda",
        "street": "Avenida Um Esquerda",
        "zipcode": "13381-018"
    },
    {
        "city": "Nova Odessa",
        "state": "SP",
        "district": "Jardim Fadel",
        "street": "Rua Abrão Delegá",
        "zipcode": "13387-100"
    },
    {
        "city": "Nova Odessa",
        "state": "SP",
        "district": "Jardim São Francisco",
        "street": "Rua Adriano Felippe",
        "zipcode": "13388-176"
    },
    {
        "city": "Nova Odessa",
        "state": "SP",
        "district": "Loteamento Industrial Fechado Jardim Dona Esther",
        "street": "Avenida José Roque da Silva",
        "zipcode": "13385-732"
    },
    {
        "city": "Nova Odessa",
        "state": "SP",
        "district": "Jardim Maria Helena",
        "street": "Rua Armando Frizoni",
        "zipcode": "13385-324"
    },
    {
        "city": "Nova Odessa",
        "state": "SP",
        "district": "Bosque dos Cedros",
        "street": "Avenida Doutor Eddy de Freitas Crissiuma",
        "zipcode": "13380-080"
    },
    {
        "city": "Nova Odessa",
        "state": "SP",
        "district": "Jardim Dona Maria Azenha",
        "street": "Avenida Doutor Eddy de Freitas Crissiuma",
        "zipcode": "13380-492"
    },
    {
        "city": "Nova Odessa",
        "state": "SP",
        "district": "Jardim de Éden",
        "street": "Rua Alvina Maria Adamson",
        "zipcode": "13382-018"
    },
    {
        "city": "Nova Odessa",
        "state": "SP",
        "district": "Chácaras Recanto Solar",
        "street": "Rua Alberto Bartolo",
        "zipcode": "13383-862"
    },
    {
        "city": "Nova Odessa",
        "state": "SP",
        "district": "Jardim Planalto",
        "street": "Avenida José Penachione",
        "zipcode": "13380-194"
    },
    {
        "city": "Nova Odessa",
        "state": "SP",
        "district": "Jardim Conceição",
        "street": "Rua Augusto Vieira de Souza",
        "zipcode": "13385-430"
    },
    {
        "city": "Nova Odessa",
        "state": "SP",
        "district": "Jardim dos Lagos",
        "street": "Rua Cinco",
        "zipcode": "13386-157"
    },
    {
        "city": "Nova Odessa",
        "state": "SP",
        "district": "Parque Industrial Fritz Bersin",
        "street": "Rua Antonio de Micheli",
        "zipcode": "13380-244"
    },
    {
        "city": "Nova Odessa",
        "state": "SP",
        "district": "Parque Industrial Experts",
        "street": "Avenida Marginal",
        "zipcode": "13387-790"
    },
    {
        "city": "Nova Odessa",
        "state": "SP",
        "district": "Jardim Santa Rosa",
        "street": "Rua Calisto Clise Barolo",
        "zipcode": "13385-064"
    },
    {
        "city": "Nova Odessa",
        "state": "SP",
        "district": "Jardim Bela Vista",
        "street": "Rua Anchieta",
        "zipcode": "13385-004"
    },
    {
        "city": "Nova Odessa",
        "state": "SP",
        "district": "Vila Letônia",
        "street": "Rua Arnolds F Alkschbirs",
        "zipcode": "13385-416"
    },
    {
        "city": "Nova Odessa",
        "state": "SP",
        "district": "Jardim Altos do Klavin",
        "street": "Avenida Rodolfo Kivitz",
        "zipcode": "13382-350"
    },
    {
        "city": "Nova Odessa",
        "state": "SP",
        "district": "Jardim Capuava",
        "street": "Avenida São Gonçalo",
        "zipcode": "13382-500"
    },
    {
        "city": "Nova Odessa",
        "state": "SP",
        "district": "Jardim Marajoara",
        "street": "Avenida Brasil",
        "zipcode": "13380-410"
    },
    {
        "city": "Nova Odessa",
        "state": "SP",
        "district": "Jardim São Manoel",
        "street": "Rua Avelino Lobão",
        "zipcode": "13386-010"
    },
    {
        "city": "Nova Odessa",
        "state": "SP",
        "district": "Bosque dos Eucaliptos",
        "street": "Avenida Cinco",
        "zipcode": "13381-060"
    },
    {
        "city": "Nova Odessa",
        "state": "SP",
        "district": "Jardim Santa Rosa",
        "street": "Avenida Ampélio Gazzetta",
        "zipcode": "13385-042"
    },
    {
        "city": "Nova Odessa",
        "state": "SP",
        "district": "Residencial Imigrantes",
        "street": "Avenida Doutor Eddy de Freitas Crissiuma",
        "zipcode": "13380-500"
    },
    {
        "city": "Nova Odessa",
        "state": "SP",
        "district": "Residencial Vale dos Lírios",
        "street": "Avenida Flávio Bicudo Welsch",
        "zipcode": "13383-630"
    },
    {
        "city": "Nova Odessa",
        "state": "SP",
        "district": "Jardim Santa Rita I",
        "street": "Rua Cyro Barufaldi",
        "zipcode": "13386-080"
    },
    {
        "city": "Nova Odessa",
        "state": "SP",
        "district": "Estância Hípica",
        "street": "Avenida Rodolfo Kivitz",
        "zipcode": "13382-630"
    },
    {
        "city": "Nova Odessa",
        "state": "SP",
        "district": "Jardim São Jorge",
        "street": "Rua Curitiba",
        "zipcode": "13387-626"
    },
    {
        "city": "Nova Odessa",
        "state": "SP",
        "district": "Jardim dos Lagos",
        "street": "Avenida Maurílio Bagne da Silva",
        "zipcode": "13386-151"
    },
    {
        "city": "Nova Odessa",
        "state": "SP",
        "district": "Parque Residencial Francisco Lopes Iglesia",
        "street": "Rua Alfredo Leite de Camargo",
        "zipcode": "13385-514"
    },
    {
        "city": "Nova Odessa",
        "state": "SP",
        "district": "Estância Hípica",
        "street": "Rua Árabe",
        "zipcode": "13382-634"
    },
    {
        "city": "Nova Odessa",
        "state": "SP",
        "district": "Jardim Campos Verdes",
        "street": "Rua Benedito Gomes",
        "zipcode": "13385-764"
    },
    {
        "city": "Nova Odessa",
        "state": "SP",
        "district": "Jardim Bela Vista",
        "street": "Rua Cida Carrion",
        "zipcode": "13385-002"
    },
    {
        "city": "Nova Odessa",
        "state": "SP",
        "district": "Vila Letônia",
        "street": "Avenida Pedro de Oliveira",
        "zipcode": "13385-422"
    },
    {
        "city": "Nova Odessa",
        "state": "SP",
        "district": "Parque Residencial Francisco Lopes Iglesia",
        "street": "Rua Angelina Franciscangelis Piconi",
        "zipcode": "13385-512"
    },
    {
        "city": "Nova Odessa",
        "state": "SP",
        "district": "Jardim São Manoel",
        "street": "Avenida Pascoal Piconi",
        "zipcode": "13386-036"
    },
    {
        "city": "Nova Odessa",
        "state": "SP",
        "district": "Jardim Santa Rita II",
        "street": "Avenida João Bento Carneiro",
        "zipcode": "13386-092"
    },
    {
        "city": "Nova Odessa",
        "state": "SP",
        "district": "Jardim Bela Vista",
        "street": "Rua Alice Gazzetta",
        "zipcode": "13385-022"
    },
    {
        "city": "Nova Odessa",
        "state": "SP",
        "district": "Campo Belo",
        "street": "Rua Bruno Constante Brunelli",
        "zipcode": "13382-654"
    },
    {
        "city": "Nova Odessa",
        "state": "SP",
        "district": "Jardim dos Lagos",
        "street": "Rua Dezenove",
        "zipcode": "13386-155"
    },
    {
        "city": "Nova Odessa",
        "state": "SP",
        "district": "Vila Letônia",
        "street": "Rua Alzira Delegá",
        "zipcode": "13385-414"
    },
    {
        "city": "Nova Odessa",
        "state": "SP",
        "district": "Residencial Vale dos Lírios",
        "street": "Rua Clemente Francisco Faria",
        "zipcode": "13383-638"
    },
    {
        "city": "Nova Odessa",
        "state": "SP",
        "district": "Jardim da Alvorada",
        "street": "Rua Carnaúba",
        "zipcode": "13382-474"
    },
    {
        "city": "Nova Odessa",
        "state": "SP",
        "district": "Zona de Produção Agrícola",
        "street": null,
        "zipcode": "13383-410"
    },
    {
        "city": "Nova Odessa",
        "state": "SP",
        "district": "Jardim Monte das Oliveiras",
        "street": "Rua Aristides Resteo",
        "zipcode": "13386-146"
    },
    {
        "city": "Nova Odessa",
        "state": "SP",
        "district": "Zona de Produção Industrial Cinco (ZPI",
        "street": "Rodovia Walter Manzato",
        "zipcode": "13385-450"
    },
    {
        "city": "Nova Odessa",
        "state": "SP",
        "district": "Jardim Dona Maria Azenha",
        "street": "Rua Alice Gazzetta",
        "zipcode": "13380-480"
    },
    {
        "city": "Nova Odessa",
        "state": "SP",
        "district": "Chácaras Central",
        "street": "Estrada Municipal Eduardo da Silva (Dodozinho)",
        "zipcode": "13383-390"
    },
    {
        "city": "Nova Odessa",
        "state": "SP",
        "district": "Recanto da Fazenda",
        "street": "Estrada Municipal Eduardo Karklis",
        "zipcode": "13381-010"
    },
    {
        "city": "Nova Odessa",
        "state": "SP",
        "district": "Jardim Altos do Klavin",
        "street": "Rua Alzira Delicoli Silva",
        "zipcode": "13382-360"
    },
    {
        "city": "Nova Odessa",
        "state": "SP",
        "district": "Engenho Velho",
        "street": "Avenida Rodolfo Kivitz",
        "zipcode": "13382-100"
    },
    {
        "city": "Nova Odessa",
        "state": "SP",
        "district": "Conjunto Habitacional 23 de Maio",
        "street": "Rua Curió",
        "zipcode": "13382-192"
    },
    {
        "city": "Nova Odessa",
        "state": "SP",
        "district": "Jardim Fadel",
        "street": "Rua Dante Gazzetta",
        "zipcode": "13387-110"
    },
    {
        "city": "Nova Odessa",
        "state": "SP",
        "district": "Jardim Capuava",
        "street": "Avenida Rodolfo Kivitz",
        "zipcode": "13382-526"
    },
    {
        "city": "Nova Odessa",
        "state": "SP",
        "district": "Jardim da Alvorada",
        "street": "Rua Canela",
        "zipcode": "13382-454"
    },
    {
        "city": "Nova Odessa",
        "state": "SP",
        "district": "Conjunto Habitacional 23 de Maio",
        "street": "Avenida Uirapurú",
        "zipcode": "13382-190"
    },
    {
        "city": "Nova Odessa",
        "state": "SP",
        "district": "Jardim Maria Helena",
        "street": "Rua Alice Gazzetta",
        "zipcode": "13385-316"
    },
    {
        "city": "Nova Odessa",
        "state": "SP",
        "district": "Campo Belo",
        "street": "Avenida Rodolfo Kivitz",
        "zipcode": "13382-650"
    },
    {
        "city": "Nova Odessa",
        "state": "SP",
        "district": "Jardim Monte das Oliveiras",
        "street": "Rua Alcides Gonçalves Sobrinho",
        "zipcode": "13386-140"
    },
    {
        "city": "Nova Odessa",
        "state": "SP",
        "district": "Parque Industrial Harmonia",
        "street": "Rua Christiano Kilmeyers",
        "zipcode": "13380-296"
    },
    {
        "city": "Nova Odessa",
        "state": "SP",
        "district": "Jardim São Manoel",
        "street": "Rua Ana Júlia de Oliveira",
        "zipcode": "13386-028"
    },
    {
        "city": "Nova Odessa",
        "state": "SP",
        "district": "Recanto da Fazenda",
        "street": "Avenida Um Direita",
        "zipcode": "13381-016"
    },
    {
        "city": "Nova Odessa",
        "state": "SP",
        "district": "Jardim de Éden",
        "street": "Rua Benedito de Paula",
        "zipcode": "13382-030"
    },
    {
        "city": "Nova Odessa",
        "state": "SP",
        "district": "Jardim da Alvorada",
        "street": "Rua Caviuna",
        "zipcode": "13382-462"
    },
    {
        "city": "Nova Odessa",
        "state": "SP",
        "district": "Residencial dos Ipês",
        "street": "Rua Dois",
        "zipcode": "13386-202"
    },
    {
        "city": "Nova Odessa",
        "state": "SP",
        "district": "Jardim Maria Helena",
        "street": "Rua Benedito José Pereira",
        "zipcode": "13385-314"
    },
    {
        "city": "Nova Odessa",
        "state": "SP",
        "district": "Jardim da Alvorada",
        "street": "Rua dos Angicos",
        "zipcode": "13382-476"
    },
    {
        "city": "Nova Odessa",
        "state": "SP",
        "district": "Jardim Santa Rosa",
        "street": "Rua Alberto Eichman",
        "zipcode": "13385-092"
    },
    {
        "city": "Nova Odessa",
        "state": "SP",
        "district": "Vila Novos Horizontes",
        "street": "Rua Almir Alves Pessoa",
        "zipcode": "13380-456"
    },
    {
        "city": "Nova Odessa",
        "state": "SP",
        "district": "Jardim das Palmeiras",
        "street": "Rua do Tamboril",
        "zipcode": "13382-400"
    },
    {
        "city": "Nova Odessa",
        "state": "SP",
        "district": "Parque Fabrício",
        "street": "Rua Augusto Lovatti",
        "zipcode": "13380-186"
    },
    {
        "city": "Nova Odessa",
        "state": "SP",
        "district": "Residencial dos Ipês",
        "street": "Rua Cinco",
        "zipcode": "13386-205"
    },
    {
        "city": "Nova Odessa",
        "state": "SP",
        "district": "Jardim Dona Maria Azenha",
        "street": "Rua Caetano Benincasa",
        "zipcode": "13380-482"
    },
    {
        "city": "Nova Odessa",
        "state": "SP",
        "district": "Jardim Mathilde Berzin",
        "street": "Rua Benedito dos Santos",
        "zipcode": "13380-232"
    },
    {
        "city": "Nova Odessa",
        "state": "SP",
        "district": "Estância Hípica",
        "street": "Rua Appaloosa",
        "zipcode": "13382-640"
    },
    {
        "city": "Nova Odessa",
        "state": "SP",
        "district": "Jardim de Éden",
        "street": "Rua Benedito José Pereira",
        "zipcode": "13382-026"
    },
    {
        "city": "Nova Odessa",
        "state": "SP",
        "district": "Estância Hípica",
        "street": "Rua Andaluz",
        "zipcode": "13382-638"
    },
    {
        "city": "Nova Odessa",
        "state": "SP",
        "district": "Parque dos Pinheiros",
        "street": "Rua dos Cravos",
        "zipcode": "13381-134"
    },
    {
        "city": "Nova Odessa",
        "state": "SP",
        "district": "Residencial Santa Luiza I",
        "street": "Rua Celeste Cereser Paulão",
        "zipcode": "13387-724"
    },
    {
        "city": "Nova Odessa",
        "state": "SP",
        "district": "Jardim dos Lagos",
        "street": "Rua Dois",
        "zipcode": "13386-153"
    },
    {
        "city": "Nova Odessa",
        "state": "SP",
        "district": "Conjunto Habitacional 23 de Maio",
        "street": "Rua Andorinha",
        "zipcode": "13382-194"
    },
    {
        "city": "Nova Odessa",
        "state": "SP",
        "district": "Recanto do Guaraparí",
        "street": "Rua Armando Claudio Preto",
        "zipcode": "13383-284"
    },
    {
        "city": "Nova Odessa",
        "state": "SP",
        "district": "Estância Hípica",
        "street": "Rua Campolina",
        "zipcode": "13382-636"
    },
    {
        "city": "Nova Odessa",
        "state": "SP",
        "district": "Jardim Maria Helena",
        "street": "Rua Alfredo Kavalas",
        "zipcode": "13385-342"
    },
    {
        "city": "Nova Odessa",
        "state": "SP",
        "district": "Parque Industrial Recanto",
        "street": "Rua Anibal Tanganelli",
        "zipcode": "13380-370"
    },
    {
        "city": "Nova Odessa",
        "state": "SP",
        "district": "Conjunto Habitacional 23 de Maio",
        "street": "Rua Cardeal",
        "zipcode": "13382-196"
    },
    {
        "city": "Nova Odessa",
        "state": "SP",
        "district": "Residencial Santa Luiza II",
        "street": "Rua Celeste Cereser Paulão",
        "zipcode": "13387-704"
    },
    {
        "city": "Nova Odessa",
        "state": "SP",
        "district": "Chácaras Acapulco",
        "street": "Rua das Esmeraldas",
        "zipcode": "13389-218"
    },
    {
        "city": "Nova Odessa",
        "state": "SP",
        "district": "Parque Residencial Klavin",
        "street": "Rua Arlindo Gonçalez",
        "zipcode": "13382-334"
    },
    {
        "city": "Nova Odessa",
        "state": "SP",
        "district": "Jardim Santa Rosa",
        "street": "Rua Azil Martins",
        "zipcode": "13385-062"
    },
    {
        "city": "Nova Odessa",
        "state": "SP",
        "district": "Jardim Flórida",
        "street": "Rua Antonio Mauerberg",
        "zipcode": "13387-052"
    },
    {
        "city": "Nova Odessa",
        "state": "SP",
        "district": "Jardim Primavera",
        "street": "Rua dos Amarílis",
        "zipcode": "13380-590"
    },
    {
        "city": "Nova Odessa",
        "state": "SP",
        "district": "Parque dos Pinheiros",
        "street": "Rua das Margaridas",
        "zipcode": "13381-136"
    },
    {
        "city": "Nova Odessa",
        "state": "SP",
        "district": "Jardim da Alvorada",
        "street": "Rua das Paineiras",
        "zipcode": "13382-482"
    },
    {
        "city": "Nova Odessa",
        "state": "SP",
        "district": "Jardim Capuava",
        "street": "Rua dos Coqueiros",
        "zipcode": "13382-518"
    },
    {
        "city": "Nova Odessa",
        "state": "SP",
        "district": "Bosque dos Cedros",
        "street": "Rua Aristides Bassora",
        "zipcode": "13380-086"
    },
    {
        "city": "Nova Odessa",
        "state": "SP",
        "district": "Jardim Bela Vista",
        "street": "Rua George Hunter",
        "zipcode": "13385-024"
    },
    {
        "city": "Nova Odessa",
        "state": "SP",
        "district": "Jardim São Manoel",
        "street": "Rua Emilia Pelison Fadel",
        "zipcode": "13386-046"
    },
    {
        "city": "Nova Odessa",
        "state": "SP",
        "district": "Jardim das Palmeiras I",
        "street": "Rua dos Cedros",
        "zipcode": "13382-430"
    },
    {
        "city": "Nova Odessa",
        "state": "SP",
        "district": "Jardim da Alvorada",
        "street": "Rua do Tamboril",
        "zipcode": "13382-450"
    },
    {
        "city": "Nova Odessa",
        "state": "SP",
        "district": "Parque Fabrício",
        "street": "Rua Benedito Capelato",
        "zipcode": "13380-176"
    },
    {
        "city": "Nova Odessa",
        "state": "SP",
        "district": "Jardim Campos Verdes",
        "street": "Rua Eurypedes Valente",
        "zipcode": "13385-742"
    },
    {
        "city": "Nova Odessa",
        "state": "SP",
        "district": "Jardim São Manoel",
        "street": "Rua Fioravante Martins",
        "zipcode": "13386-000"
    },
    {
        "city": "Nova Odessa",
        "state": "SP",
        "district": "Residencial Imigrantes",
        "street": "Rua Elias Alves Ferreira",
        "zipcode": "13380-518"
    },
    {
        "city": "Nova Odessa",
        "state": "SP",
        "district": "Jardim São Jorge",
        "street": "Rua Aracajú",
        "zipcode": "13387-638"
    },
    {
        "city": "Nova Odessa",
        "state": "SP",
        "district": "Vila Novos Horizontes",
        "street": "Rua Benedito Moreira",
        "zipcode": "13380-454"
    },
    {
        "city": "Nova Odessa",
        "state": "SP",
        "district": "Jardim das Palmeiras",
        "street": "Rua das Paineiras",
        "zipcode": "13382-406"
    },
    {
        "city": "Nova Odessa",
        "state": "SP",
        "district": "Jardim Planalto",
        "street": "Rua Augusto Lovatti",
        "zipcode": "13380-198"
    },
    {
        "city": "Nova Odessa",
        "state": "SP",
        "district": "Jardim dos Lagos",
        "street": "Rua Doze",
        "zipcode": "13386-164"
    },
    {
        "city": "Nova Odessa",
        "state": "SP",
        "district": "Jardim Campos Verdes",
        "street": "Rua Edmundo Zorzetto",
        "zipcode": "13385-768"
    },
    {
        "city": "Nova Odessa",
        "state": "SP",
        "district": "Jardim Primavera",
        "street": "Rua dos Lírios",
        "zipcode": "13380-594"
    },
    {
        "city": "Nova Odessa",
        "state": "SP",
        "district": "Jardim das Palmeiras",
        "street": "Rua das Aroeiras",
        "zipcode": "13382-416"
    },
    {
        "city": "Nova Odessa",
        "state": "SP",
        "district": "Jardim Primavera",
        "street": "Rua das Hortênsias",
        "zipcode": "13380-564"
    },
    {
        "city": "Nova Odessa",
        "state": "SP",
        "district": "Green Village",
        "street": "Rua Erick Ralf Klavin",
        "zipcode": "13385-494"
    },
    {
        "city": "Nova Odessa",
        "state": "SP",
        "district": "Jardim Maria Helena",
        "street": "Rua Doutor Atayde Gomes",
        "zipcode": "13385-338"
    },
    {
        "city": "Nova Odessa",
        "state": "SP",
        "district": "Residencial dos Ipês",
        "street": "Rua Doze",
        "zipcode": "13386-211"
    },
    {
        "city": "Nova Odessa",
        "state": "SP",
        "district": "Parque dos Pinheiros",
        "street": "Rua dos Crisântemos",
        "zipcode": "13381-126"
    },
    {
        "city": "Nova Odessa",
        "state": "SP",
        "district": "Jardim São Manoel",
        "street": "Rua Gicondo Siorlim",
        "zipcode": "13386-040"
    },
    {
        "city": "Nova Odessa",
        "state": "SP",
        "district": "Parque Residencial Klavin",
        "street": "Rua Geraldo Leme",
        "zipcode": "13382-328"
    },
    {
        "city": "Nova Odessa",
        "state": "SP",
        "district": "Residencial Vale dos Lírios",
        "street": "Rua Elvira Helena Schnoor Piconi",
        "zipcode": "13383-646"
    },
    {
        "city": "Nova Odessa",
        "state": "SP",
        "district": "Jardim das Palmeiras",
        "street": "Rua das Perobas",
        "zipcode": "13382-408"
    },
    {
        "city": "Nova Odessa",
        "state": "SP",
        "district": "Jardim Capuava",
        "street": "Rua dos Cajueiros",
        "zipcode": "13382-516"
    },
    {
        "city": "Nova Odessa",
        "state": "SP",
        "district": "Jardim Bela Vista",
        "street": "Rua Francisco de Souza",
        "zipcode": "13385-012"
    },
    {
        "city": "Nova Odessa",
        "state": "SP",
        "district": "Jardim das Palmeiras I",
        "street": "Rua das Cerejeiras",
        "zipcode": "13382-442"
    },
    {
        "city": "Nova Odessa",
        "state": "SP",
        "district": "Jardim das Palmeiras",
        "street": "Rua das Acácias",
        "zipcode": "13382-418"
    },
    {
        "city": "Nova Odessa",
        "state": "SP",
        "district": "Campo Belo",
        "street": "Rua dos Idosos",
        "zipcode": "13382-652"
    },
    {
        "city": "Nova Odessa",
        "state": "SP",
        "district": "Vila Letônia",
        "street": "Rua Erick Ralf Klavin",
        "zipcode": "13385-410"
    },
    {
        "city": "Nova Odessa",
        "state": "SP",
        "district": "Parque dos Pinheiros",
        "street": "Rua das Rosas",
        "zipcode": "13381-138"
    },
    {
        "city": "Nova Odessa",
        "state": "SP",
        "district": "Jardim das Palmeiras",
        "street": "Rua das Cerejeiras",
        "zipcode": "13382-422"
    },
    {
        "city": "Nova Odessa",
        "state": "SP",
        "district": "Jardim Primavera",
        "street": "Rua das Begônias",
        "zipcode": "13380-602"
    },
    {
        "city": "Nova Odessa",
        "state": "SP",
        "district": "Chácaras Recanto Solar",
        "street": "Rua Fausto de Moraes",
        "zipcode": "13383-868"
    },
    {
        "city": "Nova Odessa",
        "state": "SP",
        "district": "Jardim Primavera",
        "street": "Rua das Gérberas",
        "zipcode": "13380-572"
    },
    {
        "city": "Nova Odessa",
        "state": "SP",
        "district": "Jardim São Manoel",
        "street": "Rua Eurypedes Valente",
        "zipcode": "13386-014"
    },
    {
        "city": "Nova Odessa",
        "state": "SP",
        "district": "Jardim Primavera",
        "street": "Rua das Dracenas",
        "zipcode": "13380-566"
    },
    {
        "city": "Nova Odessa",
        "state": "SP",
        "district": "Jardim Capuava",
        "street": "Rua dos Alecrins",
        "zipcode": "13382-512"
    },
    {
        "city": "Nova Odessa",
        "state": "SP",
        "district": "Parque dos Pinheiros",
        "street": "Rua das Azaléias",
        "zipcode": "13381-124"
    },
    {
        "city": "Nova Odessa",
        "state": "SP",
        "district": "Jardim Primavera",
        "street": "Rua dos Gêranios",
        "zipcode": "13380-578"
    },
    {
        "city": "Nova Odessa",
        "state": "SP",
        "district": "Jardim Flórida",
        "street": "Rua Daniel Empk",
        "zipcode": "13387-032"
    },
    {
        "city": "Nova Odessa",
        "state": "SP",
        "district": "Jardim Nossa Senhora de Fátima",
        "street": "Rua das Crianças",
        "zipcode": "13387-598"
    },
    {
        "city": "Nova Odessa",
        "state": "SP",
        "district": "Green Village",
        "street": "Rua Frederico Bassora",
        "zipcode": "13385-492"
    },
    {
        "city": "Nova Odessa",
        "state": "SP",
        "district": "Vila Novos Horizontes",
        "street": "Rua Aurélia de Paula Belinatti",
        "zipcode": "13380-458"
    },
    {
        "city": "Nova Odessa",
        "state": "SP",
        "district": "Campo Belo",
        "street": "Rua Galdino Augusto Pereira",
        "zipcode": "13382-660"
    },
    {
        "city": "Nova Odessa",
        "state": "SP",
        "district": "Jardim Primavera",
        "street": "Rua das Palmas",
        "zipcode": "13380-586"
    },
    {
        "city": "Nova Odessa",
        "state": "SP",
        "district": "Recanto do Guaraparí",
        "street": "Rua Edwim Peterlevitz",
        "zipcode": "13383-274"
    },
    {
        "city": "Nova Odessa",
        "state": "SP",
        "district": "Jardim das Palmeiras",
        "street": "Rua dos Ipês",
        "zipcode": "13382-404"
    },
    {
        "city": "Nova Odessa",
        "state": "SP",
        "district": "Jardim Altos do Klavin",
        "street": "Rua Isaura Vieira Torelli",
        "zipcode": "13382-374"
    },
    {
        "city": "Nova Odessa",
        "state": "SP",
        "district": "Jardim Marajoara",
        "street": "Rua Guilherme Klavin",
        "zipcode": "13380-412"
    },
    {
        "city": "Nova Odessa",
        "state": "SP",
        "district": "Jardim da Alvorada",
        "street": "Rua Figueira",
        "zipcode": "13382-470"
    },
    {
        "city": "Nova Odessa",
        "state": "SP",
        "district": "Jardim das Palmeiras I",
        "street": "Rua das Cabreuvas",
        "zipcode": "13382-444"
    },
    {
        "city": "Nova Odessa",
        "state": "SP",
        "district": "Jardim Flórida",
        "street": "Rua Francisco Carrion",
        "zipcode": "13387-054"
    },
    {
        "city": "Nova Odessa",
        "state": "SP",
        "district": "Jardim Altos do Klavin",
        "street": "Rua Emílio Bassora",
        "zipcode": "13382-372"
    },
    {
        "city": "Nova Odessa",
        "state": "SP",
        "district": "Parque dos Pinheiros",
        "street": "Rua das Dálias",
        "zipcode": "13381-130"
    },
    {
        "city": "Nova Odessa",
        "state": "SP",
        "district": "Parque Residencial Klavin",
        "street": "Rua Higino Bassora",
        "zipcode": "13382-312"
    },
    {
        "city": "Nova Odessa",
        "state": "SP",
        "district": "Jardim Dona Maria Azenha",
        "street": "Rua Doutor André Miguel Liekning",
        "zipcode": "13380-484"
    },
    {
        "city": "Nova Odessa",
        "state": "SP",
        "district": "Jardim São Manoel",
        "street": "Rua João Severiano da Silva",
        "zipcode": "13386-050"
    },
    {
        "city": "Nova Odessa",
        "state": "SP",
        "district": "Parque Residencial Klavin",
        "street": "Rua João Antonio de Camargo",
        "zipcode": "13382-322"
    },
    {
        "city": "Nova Odessa",
        "state": "SP",
        "district": "Parque Residencial Klavin",
        "street": "Rua Emílio Bassora",
        "zipcode": "13382-332"
    },
    {
        "city": "Nova Odessa",
        "state": "SP",
        "district": "Jardim da Alvorada",
        "street": "Rua Guarantã",
        "zipcode": "13382-490"
    },
    {
        "city": "Nova Odessa",
        "state": "SP",
        "district": "Jardim Maria Helena",
        "street": "Rua Heitor Cibin",
        "zipcode": "13385-310"
    },
    {
        "city": "Nova Odessa",
        "state": "SP",
        "district": "Jardim da Alvorada",
        "street": "Rua Jequitibá",
        "zipcode": "13382-452"
    },
    {
        "city": "Nova Odessa",
        "state": "SP",
        "district": "Vila Novos Horizontes",
        "street": "Rua Emygdio Pierozzi",
        "zipcode": "13380-452"
    },
    {
        "city": "Nova Odessa",
        "state": "SP",
        "district": "Residencial Santa Luiza II",
        "street": "Rua Joaquim Gomes",
        "zipcode": "13387-702"
    },
    {
        "city": "Nova Odessa",
        "state": "SP",
        "district": "Jardim Bela Vista",
        "street": "Rua Joaquim Sanches",
        "zipcode": "13385-030"
    },
    {
        "city": "Nova Odessa",
        "state": "SP",
        "district": "Jardim São Manoel",
        "street": "Rua Jaime Marmille",
        "zipcode": "13386-044"
    },
    {
        "city": "Nova Odessa",
        "state": "SP",
        "district": "Jardim das Palmeiras",
        "street": "Rua dos Jacarandás",
        "zipcode": "13382-426"
    },
    {
        "city": "Nova Odessa",
        "state": "SP",
        "district": "Jardim da Alvorada",
        "street": "Rua dos Mognos",
        "zipcode": "13382-472"
    },
    {
        "city": "Nova Odessa",
        "state": "SP",
        "district": "Parque Residencial Klavin",
        "street": "Rua João Rodrigues Magalhães",
        "zipcode": "13382-330"
    },
    {
        "city": "Nova Odessa",
        "state": "SP",
        "district": "Recanto do Guaraparí",
        "street": "Rua Eugenia Gruntman Peterlevitz",
        "zipcode": "13383-278"
    },
    {
        "city": "Nova Odessa",
        "state": "SP",
        "district": "Chácaras Recanto Solar",
        "street": "Rua dos Soldados Constitucionalistas",
        "zipcode": "13383-860"
    },
    {
        "city": "Nova Odessa",
        "state": "SP",
        "district": "Vila Azenha",
        "street": "Rua João Adamson",
        "zipcode": "13387-092"
    },
    {
        "city": "Nova Odessa",
        "state": "SP",
        "district": "Jardim Santa Rita I",
        "street": "Rua João Severiano da Silva",
        "zipcode": "13386-060"
    },
    {
        "city": "Nova Odessa",
        "state": "SP",
        "district": "Residencial Imigrantes",
        "street": "Rua Francisco Tank",
        "zipcode": "13380-504"
    },
    {
        "city": "Nova Odessa",
        "state": "SP",
        "district": "Recanto do Guaraparí",
        "street": "Rua Eduardo Peterlevitz",
        "zipcode": "13383-276"
    },
    {
        "city": "Nova Odessa",
        "state": "SP",
        "district": "Jardim Primavera",
        "street": "Rua dos Antúrios",
        "zipcode": "13380-576"
    },
    {
        "city": "Nova Odessa",
        "state": "SP",
        "district": "Jardim Capuava",
        "street": "Rua Jequitibá",
        "zipcode": "13382-508"
    },
    {
        "city": "Nova Odessa",
        "state": "SP",
        "district": "Jardim das Palmeiras",
        "street": "Rua dos Mognos",
        "zipcode": "13382-414"
    },
    {
        "city": "Nova Odessa",
        "state": "SP",
        "district": "Vila Azenha",
        "street": "Rua João Thienne",
        "zipcode": "13387-086"
    },
    {
        "city": "Nova Odessa",
        "state": "SP",
        "district": "Jardim Santa Rosa",
        "street": "Rua Ernesto Araium",
        "zipcode": "13385-080"
    },
    {
        "city": "Nova Odessa",
        "state": "SP",
        "district": "Jardim Santa Rita II",
        "street": "Rua José Assad Sallum",
        "zipcode": "13386-098"
    },
    {
        "city": "Nova Odessa",
        "state": "SP",
        "district": "Jardim Primavera",
        "street": "Rua das Angélicas",
        "zipcode": "13380-582"
    },
    {
        "city": "Nova Odessa",
        "state": "SP",
        "district": "Jardim Altos do Klavin",
        "street": "Rua Dosmari Custódio de Mello",
        "zipcode": "13382-382"
    },
    {
        "city": "Nova Odessa",
        "state": "SP",
        "district": "Jardim Primavera",
        "street": "Rua dos Hibiscos",
        "zipcode": "13380-596"
    },
    {
        "city": "Nova Odessa",
        "state": "SP",
        "district": "Jardim da Alvorada",
        "street": "Rua dos Ipês",
        "zipcode": "13382-484"
    },
    {
        "city": "Nova Odessa",
        "state": "SP",
        "district": "Bosque dos Eucaliptos",
        "street": "Rua Francisco da Costa Coelho",
        "zipcode": "13381-066"
    },
    {
        "city": "Nova Odessa",
        "state": "SP",
        "district": "Parque Industrial Harmonia",
        "street": "Rua Francisco Cassaçola",
        "zipcode": "13380-294"
    },
    {
        "city": "Nova Odessa",
        "state": "SP",
        "district": "Recanto da Fazenda",
        "street": "Rua Edison Pavan",
        "zipcode": "13381-022"
    },
    {
        "city": "Nova Odessa",
        "state": "SP",
        "district": "Jardim Primavera",
        "street": "Rua das Açucenas",
        "zipcode": "13380-592"
    },
    {
        "city": "Nova Odessa",
        "state": "SP",
        "district": "Jardim Nossa Senhora de Fátima",
        "street": "Rua Jordano Milani",
        "zipcode": "13387-602"
    },
    {
        "city": "Nova Odessa",
        "state": "SP",
        "district": "Jardim Primavera",
        "street": "Rua das Gardênias",
        "zipcode": "13380-562"
    },
    {
        "city": "Nova Odessa",
        "state": "SP",
        "district": "Jardim Santa Rita II",
        "street": "Rua Joaquim Carlos de Oliveira",
        "zipcode": "13386-108"
    },
    {
        "city": "Nova Odessa",
        "state": "SP",
        "district": "Parque Industrial Harmonia",
        "street": "Rua José Constancio",
        "zipcode": "13380-300"
    },
    {
        "city": "Nova Odessa",
        "state": "SP",
        "district": "Jardim Dona Maria Azenha",
        "street": "Rua João Bassora",
        "zipcode": "13380-496"
    },
    {
        "city": "Nova Odessa",
        "state": "SP",
        "district": "Residencial Santa Luiza II",
        "street": "Rua Maximiliano Dalmedico",
        "zipcode": "13387-708"
    },
    {
        "city": "Nova Odessa",
        "state": "SP",
        "district": "Jardim Santa Rosa",
        "street": "Rua João Bassora",
        "zipcode": "13385-076"
    },
    {
        "city": "Nova Odessa",
        "state": "SP",
        "district": "Jardim Planalto",
        "street": "Rua João Bolzan",
        "zipcode": "13380-190"
    },
    {
        "city": "Nova Odessa",
        "state": "SP",
        "district": "Jardim de Éden",
        "street": "Rua Maria Aparecida Bellinati Piconi",
        "zipcode": "13382-028"
    },
    {
        "city": "Nova Odessa",
        "state": "SP",
        "district": "Parque Industrial Experts",
        "street": "Rua Oito",
        "zipcode": "13387-798"
    },
    {
        "city": "Nova Odessa",
        "state": "SP",
        "district": "Jardim Altos do Klavin",
        "street": "Rua Maria Imaculada Pereira Marmilli",
        "zipcode": "13382-352"
    },
    {
        "city": "Nova Odessa",
        "state": "SP",
        "district": "Residencial Santa Luiza II",
        "street": "Rua José Porfírio dos Santos",
        "zipcode": "13387-710"
    },
    {
        "city": "Nova Odessa",
        "state": "SP",
        "district": "Jardim Maria Helena",
        "street": "Rua Manoel Morais Filho",
        "zipcode": "13385-334"
    },
    {
        "city": "Nova Odessa",
        "state": "SP",
        "district": "Jardim Santa Rosa",
        "street": "Rua Herman Jankovitz",
        "zipcode": "13385-054"
    },
    {
        "city": "Nova Odessa",
        "state": "SP",
        "district": "Parque Industrial Recanto",
        "street": "Rua João Lazaro Bellinatti",
        "zipcode": "13380-368"
    },
    {
        "city": "Nova Odessa",
        "state": "SP",
        "district": "Jardim de Éden",
        "street": "Rua João Bassora",
        "zipcode": "13382-000"
    },
    {
        "city": "Nova Odessa",
        "state": "SP",
        "district": "Jardim Mathilde Berzin",
        "street": "Rua José Pereira",
        "zipcode": "13380-224"
    },
    {
        "city": "Nova Odessa",
        "state": "SP",
        "district": "Parque Fabrício",
        "street": "Rua João Bolzan",
        "zipcode": "13380-188"
    },
    {
        "city": "Nova Odessa",
        "state": "SP",
        "district": "Vila Novos Horizontes",
        "street": "Rua Joaquim Lourenço da Silva",
        "zipcode": "13380-448"
    },
    {
        "city": "Nova Odessa",
        "state": "SP",
        "district": "Jardim Conceição",
        "street": "Rua Manoel Pedro Antonio",
        "zipcode": "13385-436"
    },
    {
        "city": "Nova Odessa",
        "state": "SP",
        "district": "Recanto do Guaraparí",
        "street": "Rua João Ozolin",
        "zipcode": "13383-286"
    },
    {
        "city": "Nova Odessa",
        "state": "SP",
        "district": "Residencial Vale dos Lírios",
        "street": "Travessa João Vitor da Cruz",
        "zipcode": "13383-624"
    },
    {
        "city": "Nova Odessa",
        "state": "SP",
        "district": "Jardim Conceição",
        "street": "Rua João José Sobrinho",
        "zipcode": "13385-440"
    },
    {
        "city": "Nova Odessa",
        "state": "SP",
        "district": "Vila Novos Horizontes",
        "street": "Rua Guilherme Klavin",
        "zipcode": "13380-444"
    },
    {
        "city": "Nova Odessa",
        "state": "SP",
        "district": "Jardim Nossa Senhora de Fátima",
        "street": "Rua Joaquim Gomes",
        "zipcode": "13387-584"
    },
    {
        "city": "Nova Odessa",
        "state": "SP",
        "district": "Conjunto Habitacional 23 de Maio",
        "street": "Rua Jurití",
        "zipcode": "13382-198"
    },
    {
        "city": "Nova Odessa",
        "state": "SP",
        "district": "Green Village",
        "street": "Rua Jeronymo David",
        "zipcode": "13385-502"
    },
    {
        "city": "Nova Odessa",
        "state": "SP",
        "district": "Jardim Altos do Klavin",
        "street": "Rua Maria Apparecida Guimarães Jirschik",
        "zipcode": "13382-366"
    },
    {
        "city": "Nova Odessa",
        "state": "SP",
        "district": "Jardim Altos do Klavin",
        "street": "Rua Nelson Adorno",
        "zipcode": "13382-378"
    },
    {
        "city": "Nova Odessa",
        "state": "SP",
        "district": "Jardim Mathilde Berzin",
        "street": "Rua Jahnis Ozolin",
        "zipcode": "13380-214"
    },
    {
        "city": "Nova Odessa",
        "state": "SP",
        "district": "Jardim Bela Vista",
        "street": "Rua João Bassora",
        "zipcode": "13385-026"
    },
    {
        "city": "Nova Odessa",
        "state": "SP",
        "district": "Jardim de Éden",
        "street": "Rua João Teixeira de Camargo",
        "zipcode": "13382-012"
    },
    {
        "city": "Nova Odessa",
        "state": "SP",
        "district": "Parque Residencial Klavin",
        "street": "Rua José Pizzo",
        "zipcode": "13382-314"
    },
    {
        "city": "Nova Odessa",
        "state": "SP",
        "district": "Jardim Altos do Klavin",
        "street": "Rua Maria Ferreira da Paschoa",
        "zipcode": "13382-376"
    },
    {
        "city": "Nova Odessa",
        "state": "SP",
        "district": "Recanto do Guaraparí",
        "street": "Rua José Roberto Lanzoni",
        "zipcode": "13383-280"
    },
    {
        "city": "Nova Odessa",
        "state": "SP",
        "district": "Jardim Santa Rita I",
        "street": "Rua José Roberto Muniz",
        "zipcode": "13386-082"
    },
    {
        "city": "Nova Odessa",
        "state": "SP",
        "district": "Jardim Maria Helena",
        "street": "Rua Nathalina Lemma",
        "zipcode": "13385-332"
    },
    {
        "city": "Nova Odessa",
        "state": "SP",
        "district": "Jardim Marajoara",
        "street": "Rua Emygdio Pierozzi",
        "zipcode": "13380-420"
    },
    {
        "city": "Nova Odessa",
        "state": "SP",
        "district": "Jardim Fadel",
        "street": "Rua José Soares da Silva",
        "zipcode": "13387-104"
    },
    {
        "city": "Nova Odessa",
        "state": "SP",
        "district": "Jardim Europa",
        "street": "Rua Francisco Bueno",
        "zipcode": "13380-120"
    },
    {
        "city": "Nova Odessa",
        "state": "SP",
        "district": "Jardim de Éden",
        "street": "Rua Jorge Penariol",
        "zipcode": "13382-008"
    },
    {
        "city": "Nova Odessa",
        "state": "SP",
        "district": "Jardim de Éden",
        "street": "Rua Hermann Janait",
        "zipcode": "13382-006"
    },
    {
        "city": "Nova Odessa",
        "state": "SP",
        "district": "Jardim Marajoara",
        "street": "Rua José Carlos de Oliveira",
        "zipcode": "13380-414"
    },
    {
        "city": "Nova Odessa",
        "state": "SP",
        "district": "Recanto da Fazenda",
        "street": "Rua João Prado",
        "zipcode": "13381-014"
    },
    {
        "city": "Nova Odessa",
        "state": "SP",
        "district": "Vila Azenha",
        "street": "Rua Mário Valente",
        "zipcode": "13387-062"
    },
    {
        "city": "Nova Odessa",
        "state": "SP",
        "district": "Jardim dos Lagos",
        "street": "Rua Liliam Miriam Mauerberg Nakaoka",
        "zipcode": "13386-167"
    },
    {
        "city": "Nova Odessa",
        "state": "SP",
        "district": "Jardim Mathilde Berzin",
        "street": "Rua João Bolzan",
        "zipcode": "13380-218"
    },
    {
        "city": "Nova Odessa",
        "state": "SP",
        "district": "Jardim São Manoel",
        "street": "Rua Manuel de Oliveira Azenha",
        "zipcode": "13386-048"
    },
    {
        "city": "Nova Odessa",
        "state": "SP",
        "district": "Jardim Flórida",
        "street": "Rua Ilda Bagne da Silva",
        "zipcode": "13387-030"
    },
    {
        "city": "Nova Odessa",
        "state": "SP",
        "district": "Vila Novos Horizontes",
        "street": "Rua José Carlos de Oliveira",
        "zipcode": "13380-446"
    },
    {
        "city": "Nova Odessa",
        "state": "SP",
        "district": "Jardim Maria Helena",
        "street": "Rua Luiz Zorzetto",
        "zipcode": "13385-346"
    },
    {
        "city": "Nova Odessa",
        "state": "SP",
        "district": "Jardim Santa Rita II",
        "street": "Rua Orlando de Moraes",
        "zipcode": "13386-094"
    },
    {
        "city": "Nova Odessa",
        "state": "SP",
        "district": "Jardim Santa Rosa",
        "street": "Rua José Esteves",
        "zipcode": "13385-070"
    },
    {
        "city": "Nova Odessa",
        "state": "SP",
        "district": "Parque Residencial Klavin",
        "street": "Rua Olívio Belinate",
        "zipcode": "13382-310"
    },
    {
        "city": "Nova Odessa",
        "state": "SP",
        "district": "Jardim Santa Rita I",
        "street": "Rua Paschoal Paulon",
        "zipcode": "13386-072"
    },
    {
        "city": "Nova Odessa",
        "state": "SP",
        "district": "Vila Azenha",
        "street": "Rua Paulo Isnard de Souza Nogueira",
        "zipcode": "13387-090"
    },
    {
        "city": "Nova Odessa",
        "state": "SP",
        "district": "Jardim Planalto",
        "street": "Rua João Antonio de Moraes",
        "zipcode": "13380-192"
    },
    {
        "city": "Nova Odessa",
        "state": "SP",
        "district": "Parque Industrial Recanto",
        "street": "Rua Odiwaldo Bosco",
        "zipcode": "13380-364"
    },
    {
        "city": "Nova Odessa",
        "state": "SP",
        "district": "Chácaras Central",
        "street": "Rua Pastor Ilgonis Janaitz",
        "zipcode": "13383-402"
    },
    {
        "city": "Nova Odessa",
        "state": "SP",
        "district": "Chácaras de Recreio Represa",
        "street": "Rua Rio Capivari",
        "zipcode": "13389-462"
    },
    {
        "city": "Nova Odessa",
        "state": "SP",
        "district": "Chácaras de Recreio Represa",
        "street": "Rua Rio Piracicaba",
        "zipcode": "13389-454"
    },
    {
        "city": "Nova Odessa",
        "state": "SP",
        "district": "Parque Fabrício",
        "street": "Rua Olivio Rampazzo",
        "zipcode": "13380-184"
    },
    {
        "city": "Nova Odessa",
        "state": "SP",
        "district": "Estância Hípica",
        "street": "Rua Mangalarga",
        "zipcode": "13382-632"
    },
    {
        "city": "Nova Odessa",
        "state": "SP",
        "district": "Jardim Santa Rosa",
        "street": "Rua Olimpio Budini",
        "zipcode": "13385-058"
    },
    {
        "city": "Nova Odessa",
        "state": "SP",
        "district": "Chácaras de Recreio Represa",
        "street": "Rua Rio Atibaia",
        "zipcode": "13389-460"
    },
    {
        "city": "Nova Odessa",
        "state": "SP",
        "district": "Residencial Imigrantes",
        "street": "Rua Luiz Longhi",
        "zipcode": "13380-506"
    },
    {
        "city": "Nova Odessa",
        "state": "SP",
        "district": "Jardim Campos Verdes",
        "street": "Rua Lourival Leite da Silva",
        "zipcode": "13385-756"
    },
    {
        "city": "Nova Odessa",
        "state": "SP",
        "district": "Jardim Campos Verdes",
        "street": "Rua Leonel Guedes",
        "zipcode": "13385-752"
    },
    {
        "city": "Nova Odessa",
        "state": "SP",
        "district": "Chácaras Central",
        "street": "Rua Pastor Andrejs Ceruks",
        "zipcode": "13383-394"
    },
    {
        "city": "Nova Odessa",
        "state": "SP",
        "district": "Jardim dos Lagos",
        "street": "Rua Onze",
        "zipcode": "13386-163"
    },
    {
        "city": "Nova Odessa",
        "state": "SP",
        "district": "Residencial Imigrantes",
        "street": "Rua Lázaro Delmiglio",
        "zipcode": "13380-510"
    },
    {
        "city": "Nova Odessa",
        "state": "SP",
        "district": "Chácaras de Recreio Represa",
        "street": "Rua Rio Jundiaí",
        "zipcode": "13389-456"
    },
    {
        "city": "Nova Odessa",
        "state": "SP",
        "district": "Jardim Flórida",
        "street": "Rua Olympia Moreira Camonda",
        "zipcode": "13387-040"
    },
    {
        "city": "Nova Odessa",
        "state": "SP",
        "district": "Parque Residencial Francisco Lopes Iglesia",
        "street": "Rua José Maria Bellinate",
        "zipcode": "13385-520"
    },
    {
        "city": "Nova Odessa",
        "state": "SP",
        "district": "Residencial Imigrantes",
        "street": "Rua Karlis Arajs",
        "zipcode": "13380-508"
    },
    {
        "city": "Nova Odessa",
        "state": "SP",
        "district": "Jardim São Jorge",
        "street": "Rua São Luiz",
        "zipcode": "13387-644"
    },
    {
        "city": "Nova Odessa",
        "state": "SP",
        "district": "Residencial dos Ipês",
        "street": "Rua Onze",
        "zipcode": "13386-210"
    },
    {
        "city": "Nova Odessa",
        "state": "SP",
        "district": "Jardim Altos do Klavin",
        "street": "Rua Sebastião Bechis",
        "zipcode": "13382-364"
    },
    {
        "city": "Nova Odessa",
        "state": "SP",
        "district": "Parque Residencial Triunfo",
        "street": "Rua Sebastião Cardoso",
        "zipcode": "13387-664"
    },
    {
        "city": "Nova Odessa",
        "state": "SP",
        "district": "Residencial Imigrantes",
        "street": "Rua Pedro Coev",
        "zipcode": "13380-512"
    },
    {
        "city": "Nova Odessa",
        "state": "SP",
        "district": "Jardim Mathilde Berzin",
        "street": "Rua Pastor Alfredo Klava",
        "zipcode": "13380-212"
    },
    {
        "city": "Nova Odessa",
        "state": "SP",
        "district": "Jardim dos Lagos",
        "street": "Rua Vinte e Dois",
        "zipcode": "13386-173"
    },
    {
        "city": "Nova Odessa",
        "state": "SP",
        "district": "Jardim Maria Helena",
        "street": "Rua Romeu David",
        "zipcode": "13385-330"
    },
    {
        "city": "Nova Odessa",
        "state": "SP",
        "district": "Parque Fabrício",
        "street": "Rua José de Paiva",
        "zipcode": "13380-180"
    },
    {
        "city": "Nova Odessa",
        "state": "SP",
        "district": "Bosque dos Eucaliptos",
        "street": "Rua Maria Skaidrite Marinos",
        "zipcode": "13381-064"
    },
    {
        "city": "Nova Odessa",
        "state": "SP",
        "district": "Jardim São Jorge",
        "street": "Rua Rio de Janeiro",
        "zipcode": "13387-616"
    },
    {
        "city": "Nova Odessa",
        "state": "SP",
        "district": "Residencial Vale dos Lírios",
        "street": "Rua Manoelina de Jesus Moura",
        "zipcode": "13383-626"
    },
    {
        "city": "Nova Odessa",
        "state": "SP",
        "district": "Chácaras de Recreio Represa",
        "street": "Rua Rio Jaguari",
        "zipcode": "13389-450"
    },
    {
        "city": "Nova Odessa",
        "state": "SP",
        "district": "Chácaras Recanto Solar",
        "street": "Rua Martholindo Teixeira Filho",
        "zipcode": "13383-866"
    },
    {
        "city": "Nova Odessa",
        "state": "SP",
        "district": "Jardim Planalto",
        "street": "Rua Maria Tigani Tognella",
        "zipcode": "13380-200"
    },
    {
        "city": "Nova Odessa",
        "state": "SP",
        "district": "Residencial dos Ipês",
        "street": "Rua Quinze",
        "zipcode": "13386-214"
    },
    {
        "city": "Nova Odessa",
        "state": "SP",
        "district": "Jardim Santa Rosa",
        "street": "Rua Pedro Bassora",
        "zipcode": "13385-066"
    },
    {
        "city": "Nova Odessa",
        "state": "SP",
        "district": "Jardim dos Lagos",
        "street": "Rua Quinze",
        "zipcode": "13386-169"
    },
    {
        "city": "Nova Odessa",
        "state": "SP",
        "district": "Jardim de Éden",
        "street": "Rua Maria Pisoni Benincasa",
        "zipcode": "13382-002"
    },
    {
        "city": "Nova Odessa",
        "state": "SP",
        "district": "Jardim Gleba B",
        "street": "Rua Onze",
        "zipcode": "13387-811"
    },
    {
        "city": "Nova Odessa",
        "state": "SP",
        "district": "Parque Industrial Fritz Bersin",
        "street": "Rua José Francisco da Silva",
        "zipcode": "13380-248"
    },
    {
        "city": "Nova Odessa",
        "state": "SP",
        "district": "Jardim Campos Verdes",
        "street": "Rua Sonia Solange Moraes",
        "zipcode": "13385-754"
    },
    {
        "city": "Nova Odessa",
        "state": "SP",
        "district": "Centro",
        "street": "Rua Rio Branco",
        "zipcode": "13380-972"
    },
    {
        "city": "Nova Odessa",
        "state": "SP",
        "district": "Recanto Las Palmas",
        "street": "Rua Quatro",
        "zipcode": "13389-234"
    },
    {
        "city": "Nova Odessa",
        "state": "SP",
        "district": "Estância Hípica",
        "street": "Rua Mustang",
        "zipcode": "13382-642"
    },
    {
        "city": "Nova Odessa",
        "state": "SP",
        "district": "Jardim Santa Rita II",
        "street": "Rua Oscar Araium",
        "zipcode": "13386-104"
    },
    {
        "city": "Nova Odessa",
        "state": "SP",
        "district": "Jardim Monte das Oliveiras",
        "street": "Rua Pastor Cláudio Almeida",
        "zipcode": "13386-132"
    },
    {
        "city": "Nova Odessa",
        "state": "SP",
        "district": "Parque Residencial Triunfo",
        "street": "Rua Tarcisio Sebastião Diniz",
        "zipcode": "13387-666"
    },
    {
        "city": "Nova Odessa",
        "state": "SP",
        "district": "Jardim dos Lagos",
        "street": "Rua Um",
        "zipcode": "13386-152"
    },
    {
        "city": "Nova Odessa",
        "state": "SP",
        "district": "Chácaras Central",
        "street": "Rua Pastor Carlos Kraul",
        "zipcode": "13383-396"
    },
    {
        "city": "Nova Odessa",
        "state": "SP",
        "district": "Chácaras Central",
        "street": "Rua Pastor Emílio Veidmann",
        "zipcode": "13383-392"
    },
    {
        "city": "Nova Odessa",
        "state": "SP",
        "district": "Jardim Monte das Oliveiras",
        "street": "Rua Rosalina Izidoro Brazilino",
        "zipcode": "13386-142"
    },
    {
        "city": "Nova Odessa",
        "state": "SP",
        "district": "Parque Industrial Experts",
        "street": "Rua Três",
        "zipcode": "13387-793"
    },
    {
        "city": "Nova Odessa",
        "state": "SP",
        "district": "Jardim Campos Verdes",
        "street": "Rua Pastor Manoel Amaro da Silva",
        "zipcode": "13385-762"
    },
    {
        "city": "Nova Odessa",
        "state": "SP",
        "district": "Parque Industrial Experts",
        "street": "Rua Um",
        "zipcode": "13387-791"
    },
    {
        "city": "Nova Odessa",
        "state": "SP",
        "district": "Vila Novos Horizontes",
        "street": "Rua Vicente Lemma",
        "zipcode": "13380-450"
    },
    {
        "city": "Nova Odessa",
        "state": "SP",
        "district": "Jardim Campos Verdes",
        "street": "Rua Rosário Sacca",
        "zipcode": "13385-746"
    },
    {
        "city": "Nova Odessa",
        "state": "SP",
        "district": "Chácaras Reunidas Anhanguera",
        "street": "Estrada Francisco de Paula Martins",
        "zipcode": "13388-682"
    },
    {
        "city": "Nova Odessa",
        "state": "SP",
        "district": "Residencial Santa Luiza II",
        "street": "Rua Virgilio Bodini",
        "zipcode": "13387-690"
    },
    {
        "city": "Nova Odessa",
        "state": "SP",
        "district": "Vila Letônia",
        "street": "Rua Ricardo Mendes",
        "zipcode": "13385-420"
    },
    {
        "city": "Nova Odessa",
        "state": "SP",
        "district": "Chácaras Recanto Solar",
        "street": "Rua Um",
        "zipcode": "13383-878"
    },
    {
        "city": "Nova Odessa",
        "state": "SP",
        "district": "Jardim dos Lagos",
        "street": "Rua Vinte",
        "zipcode": "13386-171"
    },
    {
        "city": "Nova Odessa",
        "state": "SP",
        "district": "Parque Industrial Tânia Maria Covalenco",
        "street": "Avenida Tânia Maria Covalenco",
        "zipcode": "13388-092"
    },
    {
        "city": "Nova Odessa",
        "state": "SP",
        "district": "Jardim Campos Verdes",
        "street": "Rua Pastor Manoel Nascimento Pimentel",
        "zipcode": "13385-772"
    },
    {
        "city": "Nova Odessa",
        "state": "SP",
        "district": "Zona de Produção Industrial Um (ZPI",
        "street": "Rodovia Anhanguera",
        "zipcode": "13388-220"
    },
    {
        "city": "Nova Odessa",
        "state": "SP",
        "district": "Parque Industrial Recanto",
        "street": "Rua Seis",
        "zipcode": "13380-372"
    },
    {
        "city": "Nova Odessa",
        "state": "SP",
        "district": "Residencial Imigrantes",
        "street": "Rua Onze",
        "zipcode": "13380-516"
    },
    {
        "city": "Nova Odessa",
        "state": "SP",
        "district": "Chácaras Central",
        "street": "Rua Pastor Ricardo Inke",
        "zipcode": "13383-398"
    },
    {
        "city": "Nova Odessa",
        "state": "SP",
        "district": "Residencial dos Ipês",
        "street": "Rua Treze",
        "zipcode": "13386-212"
    },
    {
        "city": "Nova Odessa",
        "state": "SP",
        "district": "Jardim dos Lagos",
        "street": "Rua Toshihiko Nakaoka",
        "zipcode": "13386-168"
    },
    {
        "city": "Nova Odessa",
        "state": "SP",
        "district": "Recanto Las Palmas",
        "street": "Rua Um",
        "zipcode": "13389-240"
    },
    {
        "city": "Nova Odessa",
        "state": "SP",
        "district": "Jardim Altos do Klavin",
        "street": "Rua Rosana Adelia Marchetti de Castro",
        "zipcode": "13382-354"
    },
    {
        "city": "Nova Odessa",
        "state": "SP",
        "district": "Residencial Jardins da Cidade",
        "street": "Alameda Caxingui",
        "zipcode": "13387-833"
    },
    {
        "city": "Nova Odessa",
        "state": "SP",
        "district": "Jardim da Alvorada",
        "street": "Rua Pau",
        "zipcode": "13382-468"
    },
    {
        "city": "Nova Odessa",
        "state": "SP",
        "district": "Jardim Maria Helena",
        "street": "Rua Olívio Domingos Casazza",
        "zipcode": "13385-322"
    },
    {
        "city": "Nova Odessa",
        "state": "SP",
        "district": "Chácaras Recanto Solar",
        "street": "Rua Roberto Whitehead",
        "zipcode": "13383-876"
    },
    {
        "city": "Nova Odessa",
        "state": "SP",
        "district": "Recanto Las Palmas",
        "street": "Rua Três",
        "zipcode": "13389-232"
    },
    {
        "city": "Nova Odessa",
        "state": "SP",
        "district": "Residencial dos Ipês",
        "street": "Rua Três",
        "zipcode": "13386-201"
    },
    {
        "city": "Nova Odessa",
        "state": "SP",
        "district": "Residencial Jardins da Cidade",
        "street": "Alameda Jardim Guedala",
        "zipcode": "13387-827"
    },
    {
        "city": "Nova Odessa",
        "state": "SP",
        "district": "Jardim Industrial Dante Siani",
        "street": "Rua Um",
        "zipcode": "13388-100"
    },
    {
        "city": "Nova Odessa",
        "state": "SP",
        "district": "Vila Azenha",
        "street": "Rua Valentin Beato",
        "zipcode": "13387-072"
    },
    {
        "city": "Nova Odessa",
        "state": "SP",
        "district": "Jardim São Manoel",
        "street": "Rua Primo Agostinho",
        "zipcode": "13386-004"
    },
    {
        "city": "Nova Odessa",
        "state": "SP",
        "district": "Jardim Residencial Fibra",
        "street": "Praça da Liberdade",
        "zipcode": "13387-780"
    },
    {
        "city": "Nova Odessa",
        "state": "SP",
        "district": "Jardim Altos do Klavin",
        "street": "Rua Pedro Motta",
        "zipcode": "13382-368"
    },
    {
        "city": "Nova Odessa",
        "state": "SP",
        "district": "Jardim Gleba B",
        "street": "Rua Um",
        "zipcode": "13387-801"
    },
    {
        "city": "Nova Odessa",
        "state": "SP",
        "district": "Jardim Santa Rita I",
        "street": "Rua Santo Pasini",
        "zipcode": "13386-078"
    },
    {
        "city": "Nova Odessa",
        "state": "SP",
        "district": "Jardim Bela Vista",
        "street": "Rua Riachuelo",
        "zipcode": "13385-006"
    },
    {
        "city": "Nova Odessa",
        "state": "SP",
        "district": "Jardim Gleba B",
        "street": "Rua Cinco",
        "zipcode": "13387-805"
    },
    {
        "city": "Nova Odessa",
        "state": "SP",
        "district": "Jardim São Jorge",
        "street": "Rua São Paulo",
        "zipcode": "13387-612"
    },
    {
        "city": "Nova Odessa",
        "state": "SP",
        "district": "Jardim Santa Rosa",
        "street": "Rua Riachuelo",
        "zipcode": "13385-046"
    },
    {
        "city": "Nova Odessa",
        "state": "SP",
        "district": "Vila Azenha",
        "street": "Avenida Antonio Rodrigues Azenha",
        "zipcode": "13387-074"
    },
    {
        "city": "Nova Odessa",
        "state": "SP",
        "district": "Parque Residencial Triunfo",
        "street": "Rua Antonio Aprizio Zucca",
        "zipcode": "13387-668"
    },
    {
        "city": "Nova Odessa",
        "state": "SP",
        "district": "Jardim Altos do Klavin",
        "street": "Rua Terezinha Alves de Souza",
        "zipcode": "13382-380"
    },
    {
        "city": "Nova Odessa",
        "state": "SP",
        "district": "Residencial Jardins da Cidade",
        "street": "Alameda Nova Tupi",
        "zipcode": "13387-830"
    },
    {
        "city": "Nova Odessa",
        "state": "SP",
        "district": "Jardim São Manoel",
        "street": "Rua Valter Pereira Diniz",
        "zipcode": "13386-018"
    },
    {
        "city": "Nova Odessa",
        "state": "SP",
        "district": "Jardim dos Lagos",
        "street": "Rua Vinte e Um",
        "zipcode": "13386-172"
    },
    {
        "city": "Nova Odessa",
        "state": "SP",
        "district": "Parque Residencial Triunfo",
        "street": "Rua Arlindo David",
        "zipcode": "13387-660"
    },
    {
        "city": "Nova Odessa",
        "state": "SP",
        "district": "Jardim dos Lagos",
        "street": "Rua Seis",
        "zipcode": "13386-158"
    },
    {
        "city": "Nova Odessa",
        "state": "SP",
        "district": "Jardim Campos Verdes",
        "street": "Rua Pastor Raimundo Moreira Costa",
        "zipcode": "13385-770"
    },
    {
        "city": "Nova Odessa",
        "state": "SP",
        "district": "Jardim Industrial Dante Siani",
        "street": "Avenida Jaime Rodrigues Azenha",
        "zipcode": "13388-102"
    },
    {
        "city": "Nova Odessa",
        "state": "SP",
        "district": "Residencial Jardins da Cidade",
        "street": "Alameda Butantã",
        "zipcode": "13387-823"
    },
    {
        "city": "Nova Odessa",
        "state": "SP",
        "district": "Parque Industrial Experts",
        "street": "Rua Dois",
        "zipcode": "13387-792"
    },
    {
        "city": "Nova Odessa",
        "state": "SP",
        "district": "Jardim Santa Rosa",
        "street": "Rua Ucillo Matiolli",
        "zipcode": "13385-068"
    },
    {
        "city": "Nova Odessa",
        "state": "SP",
        "district": "Parque Residencial Klavin",
        "street": "Rua Theodoro Klavin",
        "zipcode": "13382-324"
    },
    {
        "city": "Nova Odessa",
        "state": "SP",
        "district": "Jardim Residencial Fibra",
        "street": "Rua da Esperança",
        "zipcode": "13387-766"
    },
    {
        "city": "Nova Odessa",
        "state": "SP",
        "district": "Jardim Residencial Fibra",
        "street": "Rua da Harmonia",
        "zipcode": "13387-762"
    },
    {
        "city": "Nova Odessa",
        "state": "SP",
        "district": "Parque Residencial Triunfo",
        "street": "Rua Antonio Bueno de Camargo",
        "zipcode": "13387-670"
    },
    {
        "city": "Nova Odessa",
        "state": "SP",
        "district": "Residencial Santa Luiza I",
        "street": "Rua Angelo Piconi",
        "zipcode": "13387-742"
    },
    {
        "city": "Nova Odessa",
        "state": "SP",
        "district": "Jardim Maria Helena",
        "street": "Rua Rubens Peres",
        "zipcode": "13385-340"
    },
    {
        "city": "Nova Odessa",
        "state": "SP",
        "district": "Jardim Monte das Oliveiras",
        "street": "Rua Vilhelms Rosenbergs",
        "zipcode": "13386-124"
    },
    {
        "city": "Nova Odessa",
        "state": "SP",
        "district": "Parque Residencial Triunfo",
        "street": "Rua Dolvir Oioli",
        "zipcode": "13387-680"
    },
    {
        "city": "Nova Odessa",
        "state": "SP",
        "district": "Residencial Vale dos Lírios",
        "street": "Travessa Luiz Antonio Tognella",
        "zipcode": "13383-636"
    },
    {
        "city": "Nova Odessa",
        "state": "SP",
        "district": "Chácaras Reunidas Anhanguera",
        "street": "Estrada Waldemar Santinatto",
        "zipcode": "13388-684"
    },
    {
        "city": "Nova Odessa",
        "state": "SP",
        "district": "Parque Residencial Triunfo",
        "street": "Rua Antônio Ferreira Freire",
        "zipcode": "13387-662"
    },
    {
        "city": "Nova Odessa",
        "state": "SP",
        "district": "Jardim Santa Rosa",
        "street": "Avenida Carlos Botelho",
        "zipcode": "13385-060"
    },
    {
        "city": "Nova Odessa",
        "state": "SP",
        "district": "Conjunto Habitacional 23 de Maio",
        "street": "Rua Rouxinol",
        "zipcode": "13382-202"
    },
    {
        "city": "Nova Odessa",
        "state": "SP",
        "district": "Jardim Residencial Fibra",
        "street": "Rua da Mocidade",
        "zipcode": "13387-770"
    },
    {
        "city": "Nova Odessa",
        "state": "SP",
        "district": "Jardim Dona Maria Azenha",
        "street": "Rua Tulio Thiene",
        "zipcode": "13380-488"
    },
    {
        "city": "Nova Odessa",
        "state": "SP",
        "district": "Residencial Vale dos Lírios",
        "street": "Rua Três",
        "zipcode": "13383-642"
    },
    {
        "city": "Nova Odessa",
        "state": "SP",
        "district": "Chácaras Acapulco",
        "street": "Rua dos Brilhantes",
        "zipcode": "13389-200"
    },
    {
        "city": "Nova Odessa",
        "state": "SP",
        "district": "Recanto da Fazenda",
        "street": "Rua Um",
        "zipcode": "13381-024"
    },
    {
        "city": "Nova Odessa",
        "state": "SP",
        "district": "Campo Belo",
        "street": "Rua Sebastião Sartori Stante",
        "zipcode": "13382-664"
    },
    {
        "city": "Nova Odessa",
        "state": "SP",
        "district": "Jardim dos Lagos",
        "street": "Rua Antônio Donizeti Baldin",
        "zipcode": "13386-154"
    },
    {
        "city": "Nova Odessa",
        "state": "SP",
        "district": "Jardim Gleba B",
        "street": "Avenida Um Gleba B1",
        "zipcode": "13387-800"
    },
    {
        "city": "Nova Odessa",
        "state": "SP",
        "district": "Vila Azenha",
        "street": "Rua Antonio Carrion",
        "zipcode": "13387-088"
    },
    {
        "city": "Nova Odessa",
        "state": "SP",
        "district": "Zona de Produção Industrial Dois (ZPI",
        "street": "Rua Ivy Reibel",
        "zipcode": "13387-160"
    },
    {
        "city": "Nova Odessa",
        "state": "SP",
        "district": "Parque Residencial Francisco Lopes Iglesia",
        "street": "Avenida Ampélio Gazzetta",
        "zipcode": "13385-511"
    },
    {
        "city": "Nova Odessa",
        "state": "SP",
        "district": "Residencial Santa Luiza I",
        "street": "Rua Antonio Dozzo Sobrinho",
        "zipcode": "13387-738"
    },
    {
        "city": "Nova Odessa",
        "state": "SP",
        "district": "Vila Azenha",
        "street": "Rua João Bordon",
        "zipcode": "13387-082"
    },
    {
        "city": "Nova Odessa",
        "state": "SP",
        "district": "Jardim Residencial Fibra",
        "street": "Rua da Conquista",
        "zipcode": "13387-782"
    },
    {
        "city": "Nova Odessa",
        "state": "SP",
        "district": "Jardim da Alvorada",
        "street": "Rua Taiúva",
        "zipcode": "13382-488"
    },
    {
        "city": "Nova Odessa",
        "state": "SP",
        "district": "Jardim Residencial Fibra",
        "street": "Rua da Alegria",
        "zipcode": "13387-772"
    },
    {
        "city": "Nova Odessa",
        "state": "SP",
        "district": "Chácaras Reunidas Anhanguera",
        "street": "Avenida Friedrich Karl Heinrich Becker",
        "zipcode": "13388-688"
    },
    {
        "city": "Nova Odessa",
        "state": "SP",
        "district": "Jardim Nossa Senhora de Fátima",
        "street": "Rua Augusto Klava",
        "zipcode": "13387-588"
    },
    {
        "city": "Nova Odessa",
        "state": "SP",
        "district": "Jardim Eneides Residencial",
        "street": "Rua Sumaré",
        "zipcode": "13380-316"
    },
    {
        "city": "Nova Odessa",
        "state": "SP",
        "district": "Residencial Santa Luiza I",
        "street": "Rua Joaquim Leite da Cunha",
        "zipcode": "13387-734"
    },
    {
        "city": "Nova Odessa",
        "state": "SP",
        "district": "Residencial Vale dos Lírios",
        "street": "Rua Sebastião Lanzoni",
        "zipcode": "13383-648"
    },
    {
        "city": "Nova Odessa",
        "state": "SP",
        "district": "Recanto Las Palmas",
        "street": "Rua Sete",
        "zipcode": "13389-236"
    },
    {
        "city": "Nova Odessa",
        "state": "SP",
        "district": "Residencial Vale dos Lírios",
        "street": "Rua Umeo Nakashima",
        "zipcode": "13383-622"
    },
    {
        "city": "Nova Odessa",
        "state": "SP",
        "district": "Jardim Gleba B",
        "street": "Rua Doze",
        "zipcode": "13387-812"
    },
    {
        "city": "Nova Odessa",
        "state": "SP",
        "district": "Bosque dos Eucaliptos",
        "street": "Rua Theophilo Ricardo Peterlevitz",
        "zipcode": "13381-068"
    },
    {
        "city": "Nova Odessa",
        "state": "SP",
        "district": "Parque Industrial Experts",
        "street": "Rua Cinco",
        "zipcode": "13387-795"
    },
    {
        "city": "Nova Odessa",
        "state": "SP",
        "district": "Chácaras Acapulco",
        "street": "Rua das Safiras",
        "zipcode": "13389-220"
    },
    {
        "city": "Nova Odessa",
        "state": "SP",
        "district": "Jardim Campos Verdes",
        "street": "Rua Octávio Guedes",
        "zipcode": "13385-760"
    },
    {
        "city": "Nova Odessa",
        "state": "SP",
        "district": "Residencial Santa Luiza II",
        "street": "Rua Batista Boldrini",
        "zipcode": "13387-698"
    },
    {
        "city": "Nova Odessa",
        "state": "SP",
        "district": "Residencial Vale dos Lírios",
        "street": "Travessa Doze",
        "zipcode": "13383-628"
    },
    {
        "city": "Nova Odessa",
        "state": "SP",
        "district": "Jardim Maria Helena",
        "street": "Avenida Carlos Eduardo Dextro Mauerberg",
        "zipcode": "13385-326"
    },
    {
        "city": "Nova Odessa",
        "state": "SP",
        "district": "Chácaras Acapulco",
        "street": "Rua dos Diamantes",
        "zipcode": "13389-204"
    },
    {
        "city": "Nova Odessa",
        "state": "SP",
        "district": "Chácaras Recanto Solar",
        "street": "Rua Theodomiro Delegá",
        "zipcode": "13383-872"
    },
    {
        "city": "Nova Odessa",
        "state": "SP",
        "district": "Jardim Gleba B",
        "street": "Rua Sete",
        "zipcode": "13387-807"
    },
    {
        "city": "Nova Odessa",
        "state": "SP",
        "district": "Jardim São Jorge",
        "street": "Rua Goiânia",
        "zipcode": "13387-624"
    },
    {
        "city": "Nova Odessa",
        "state": "SP",
        "district": "Residencial Vale dos Lírios",
        "street": "Travessa Trinta e Um",
        "zipcode": "13383-640"
    },
    {
        "city": "Nova Odessa",
        "state": "SP",
        "district": "Residencial dos Ipês",
        "street": "Rua Sete",
        "zipcode": "13386-207"
    },
    {
        "city": "Nova Odessa",
        "state": "SP",
        "district": "Jardim de Éden",
        "street": "Rua João Brasilence",
        "zipcode": "13382-022"
    },
    {
        "city": "Nova Odessa",
        "state": "SP",
        "district": "Residencial Santa Luiza II",
        "street": "Rua Irineu José Bordon",
        "zipcode": "13387-692"
    },
    {
        "city": "Nova Odessa",
        "state": "SP",
        "district": "Jardim Residencial Fibra",
        "street": "Rua da Paz",
        "zipcode": "13387-750"
    },
    {
        "city": "Nova Odessa",
        "state": "SP",
        "district": "Jardim Marajoara",
        "street": "Rua Rute Klavin Grikis",
        "zipcode": "13380-424"
    },
    {
        "city": "Nova Odessa",
        "state": "SP",
        "district": "Jardim São Jorge",
        "street": "Rua Brasília",
        "zipcode": "13387-614"
    },
    {
        "city": "Nova Odessa",
        "state": "SP",
        "district": "Jardim Residencial Fibra",
        "street": "Rua Norma Bassora",
        "zipcode": "13387-756"
    },
    {
        "city": "Nova Odessa",
        "state": "SP",
        "district": "Jardim das Palmeiras",
        "street": "Rua dos Pinheiros",
        "zipcode": "13382-402"
    },
    {
        "city": "Nova Odessa",
        "state": "SP",
        "district": "Jardim Maria Helena",
        "street": "Rua Nelson Colato",
        "zipcode": "13385-348"
    },
    {
        "city": "Nova Odessa",
        "state": "SP",
        "district": "Parque Residencial Triunfo",
        "street": "Rua João Batista de Almeida",
        "zipcode": "13387-676"
    },
    {
        "city": "Nova Odessa",
        "state": "SP",
        "district": "Chácaras Acapulco",
        "street": "Rua dos Onix",
        "zipcode": "13389-214"
    },
    {
        "city": "Nova Odessa",
        "state": "SP",
        "district": "Jardim São Jorge",
        "street": "Avenida Guadalajara",
        "zipcode": "13387-622"
    },
    {
        "city": "Nova Odessa",
        "state": "SP",
        "district": "Chácaras Acapulco",
        "street": "Rua dos Topázios",
        "zipcode": "13389-206"
    },
    {
        "city": "Nova Odessa",
        "state": "SP",
        "district": "Parque Residencial Triunfo",
        "street": "Rua Antonio Dozzo Sobrinho",
        "zipcode": "13387-658"
    },
    {
        "city": "Nova Odessa",
        "state": "SP",
        "district": "Parque Industrial Experts",
        "street": "Rua Sete",
        "zipcode": "13387-797"
    },
    {
        "city": "Nova Odessa",
        "state": "SP",
        "district": "Jardim Residencial Fibra",
        "street": "Rua da Amizade",
        "zipcode": "13387-764"
    },
    {
        "city": "Nova Odessa",
        "state": "SP",
        "district": "Parque Industrial Experts",
        "street": "Rua Quatro",
        "zipcode": "13387-794"
    },
    {
        "city": "Nova Odessa",
        "state": "SP",
        "district": "Residencial Santa Luiza I",
        "street": "Rua Francisco Leite de Camargo",
        "zipcode": "13387-720"
    },
    {
        "city": "Nova Odessa",
        "state": "SP",
        "district": "Vila Letônia",
        "street": "Rua Frederico Bassora",
        "zipcode": "13385-412"
    },
    {
        "city": "Nova Odessa",
        "state": "SP",
        "district": "Residencial dos Ipês",
        "street": "Rua Dez",
        "zipcode": "13386-209"
    },
    {
        "city": "Nova Odessa",
        "state": "SP",
        "district": "Jardim Nossa Senhora de Fátima",
        "street": "Rua Jeronymo Cataneo",
        "zipcode": "13387-604"
    },
    {
        "city": "Nova Odessa",
        "state": "SP",
        "district": "Vila Azenha",
        "street": "Rua Bento Toledo Rodovallo",
        "zipcode": "13387-076"
    },
    {
        "city": "Nova Odessa",
        "state": "SP",
        "district": "Jardim Nossa Senhora de Fátima",
        "street": "Rua Basílio Germano",
        "zipcode": "13387-594"
    },
    {
        "city": "Nova Odessa",
        "state": "SP",
        "district": "Jardim São Manoel",
        "street": "Avenida Belizário Rodrigues Mendes",
        "zipcode": "13386-008"
    },
    {
        "city": "Nova Odessa",
        "state": "SP",
        "district": "Jardim Flórida",
        "street": "Rua Antonio Bazan",
        "zipcode": "13387-038"
    },
    {
        "city": "Nova Odessa",
        "state": "SP",
        "district": "Jardim Gleba B",
        "street": "Rua Nove",
        "zipcode": "13387-809"
    },
    {
        "city": "Nova Odessa",
        "state": "SP",
        "district": "Jardim Nossa Senhora de Fátima",
        "street": "Rua Francisco Leite de Camargo",
        "zipcode": "13387-580"
    },
    {
        "city": "Nova Odessa",
        "state": "SP",
        "district": "Jardim Fadel",
        "street": "Rua Bento Toledo Rodovallo",
        "zipcode": "13387-122"
    },
    {
        "city": "Nova Odessa",
        "state": "SP",
        "district": "Residencial Santa Luiza I",
        "street": "Rua Joaquim Gomes",
        "zipcode": "13387-726"
    },
    {
        "city": "Nova Odessa",
        "state": "SP",
        "district": "Residencial Vale dos Lírios",
        "street": "Travessa Delphino do Amaral",
        "zipcode": "13383-650"
    },
    {
        "city": "Nova Odessa",
        "state": "SP",
        "district": "Residencial Santa Luiza II",
        "street": "Rua Norma Bassora",
        "zipcode": "13387-700"
    },
    {
        "city": "Nova Odessa",
        "state": "SP",
        "district": "Residencial Santa Luiza II",
        "street": "Rua Francisco Leite de Camargo",
        "zipcode": "13387-712"
    },
    {
        "city": "Nova Odessa",
        "state": "SP",
        "district": "Vila Azenha",
        "street": "Rua Antonio Mauerberg",
        "zipcode": "13387-068"
    },
    {
        "city": "Nova Odessa",
        "state": "SP",
        "district": "Vila Azenha",
        "street": "Rua Dona Maria Raposeiro Azenha",
        "zipcode": "13387-080"
    },
    {
        "city": "Nova Odessa",
        "state": "SP",
        "district": "Chácaras Acapulco",
        "street": "Rua das Ágatas",
        "zipcode": "13389-208"
    },
    {
        "city": "Nova Odessa",
        "state": "SP",
        "district": "Jardim Conceição",
        "street": "Rua Quatro",
        "zipcode": "13385-432"
    },
    {
        "city": "Nova Odessa",
        "state": "SP",
        "district": "Jardim Capuava",
        "street": "Rua Guarantã",
        "zipcode": "13382-504"
    },
    {
        "city": "Nova Odessa",
        "state": "SP",
        "district": "Recanto da Fazenda",
        "street": "Rua Domingos Torelli",
        "zipcode": "13381-020"
    },
    {
        "city": "Nova Odessa",
        "state": "SP",
        "district": "Jardim das Palmeiras I",
        "street": "Rua Donizete Aparecido Cordeiro",
        "zipcode": "13382-440"
    },
    {
        "city": "Nova Odessa",
        "state": "SP",
        "district": "Jardim Nossa Senhora de Fátima",
        "street": "Rua Norma Bassora",
        "zipcode": "13387-586"
    },
    {
        "city": "Nova Odessa",
        "state": "SP",
        "district": "Loteamento Industrial Fechado Jardim Dona Esther",
        "street": "Avenida Emília Valente Kerper",
        "zipcode": "13385-734"
    },
    {
        "city": "Nova Odessa",
        "state": "SP",
        "district": "Jardim Residencial Fibra",
        "street": "Rua Joaquim Gomes",
        "zipcode": "13387-758"
    },
    {
        "city": "Nova Odessa",
        "state": "SP",
        "district": "Engenho Velho",
        "street": "Rua Projetada Um",
        "zipcode": "13382-103"
    },
    {
        "city": "Nova Odessa",
        "state": "SP",
        "district": "Centro",
        "street": "Rua 1º de Janeiro",
        "zipcode": "13380-013"
    },
    {
        "city": "Nova Odessa",
        "state": "SP",
        "district": "Bosque dos Cedros",
        "street": "Rua Waldemar Ignowski",
        "zipcode": "13380-084"
    },
    {
        "city": "Nova Odessa",
        "state": "SP",
        "district": "Parque Residencial Francisco Lopes Iglesia",
        "street": "Rua Júlio Moreira de Morais",
        "zipcode": "13385-524"
    },
    {
        "city": "Nova Odessa",
        "state": "SP",
        "district": "Campo Belo",
        "street": "Rua Ariovaldo José Carvalho (Seu Lito)",
        "zipcode": "13382-656"
    },
    {
        "city": "Nova Odessa",
        "state": "SP",
        "district": "Centro",
        "street": "Rua 15 de Novembro",
        "zipcode": "13380-005"
    },
    {
        "city": "Nova Odessa",
        "state": "SP",
        "district": "Jardim Santa Rita I",
        "street": "Rua Caviuna",
        "zipcode": "13386-086"
    },
    {
        "city": "Nova Odessa",
        "state": "SP",
        "district": "Recanto do Guaraparí",
        "street": "Rua Armando Peterlevitz",
        "zipcode": "13383-272"
    },
    {
        "city": "Nova Odessa",
        "state": "SP",
        "district": "Parque Fabrício",
        "street": "Rua Ângelo Principe Padella",
        "zipcode": "13380-172"
    },
    {
        "city": "Nova Odessa",
        "state": "SP",
        "district": "Centro",
        "street": "Rua 13 de Maio",
        "zipcode": "13380-029"
    },
    {
        "city": "Nova Odessa",
        "state": "SP",
        "district": "Jardim Gleba B",
        "street": "Rua Quatro",
        "zipcode": "13387-804"
    },
    {
        "city": "Nova Odessa",
        "state": "SP",
        "district": "Jardim São Jorge",
        "street": "Rua Florianópolis",
        "zipcode": "13387-610"
    },
    {
        "city": "Nova Odessa",
        "state": "SP",
        "district": "Jardim das Palmeiras",
        "street": "Rua das Cabreuvas",
        "zipcode": "13382-420"
    },
    {
        "city": "Nova Odessa",
        "state": "SP",
        "district": "Jardim Capuava",
        "street": "Rua das Castanheiras",
        "zipcode": "13382-514"
    },
    {
        "city": "Nova Odessa",
        "state": "SP",
        "district": "Jardim Mathilde Berzin",
        "street": "Rua Constantino Piconi",
        "zipcode": "13380-220"
    },
    {
        "city": "Nova Odessa",
        "state": "SP",
        "district": "Jardim Flórida",
        "street": "Rua Carlos Roberto Fraschetti",
        "zipcode": "13387-042"
    },
    {
        "city": "Nova Odessa",
        "state": "SP",
        "district": "Recanto Las Palmas",
        "street": "Rua das Safiras",
        "zipcode": "13389-230"
    },
    {
        "city": "Nova Odessa",
        "state": "SP",
        "district": "Jardim Capuava",
        "street": "Rua do Tamboril",
        "zipcode": "13382-510"
    },
    {
        "city": "Nova Odessa",
        "state": "SP",
        "district": "Engenho Velho",
        "street": "Rua Projetada Dois",
        "zipcode": "13382-104"
    },
    {
        "city": "Nova Odessa",
        "state": "SP",
        "district": "Jardim Santa Rosa",
        "street": "Rua Anchieta",
        "zipcode": "13385-048"
    },
    {
        "city": "Nova Odessa",
        "state": "SP",
        "district": "Jardim Marajoara",
        "street": "Rua João Castanheira Pedroza",
        "zipcode": "13380-426"
    },
    {
        "city": "Nova Odessa",
        "state": "SP",
        "district": "Vila Azenha",
        "street": "Rua Francisco Carrion",
        "zipcode": "13387-066"
    },
    {
        "city": "Nova Odessa",
        "state": "SP",
        "district": "Jardim Marajoara",
        "street": "Rua Jovita de Jesus Garcia",
        "zipcode": "13380-430"
    },
    {
        "city": "Nova Odessa",
        "state": "SP",
        "district": "Residencial dos Ipês",
        "street": "Rua Nove",
        "zipcode": "13386-208"
    },
    {
        "city": "Nova Odessa",
        "state": "SP",
        "district": "Jardim dos Lagos",
        "street": "Rua Sete",
        "zipcode": "13386-159"
    },
    {
        "city": "Nova Odessa",
        "state": "SP",
        "district": "Jardim Monte das Oliveiras",
        "street": "Rua Joaquim Carlos de Oliveira",
        "zipcode": "13386-122"
    },
    {
        "city": "Nova Odessa",
        "state": "SP",
        "district": "Bosque dos Cedros",
        "street": "Rua Marcos Antonio Busnardo",
        "zipcode": "13380-092"
    },
    {
        "city": "Nova Odessa",
        "state": "SP",
        "district": "Jardim de Éden",
        "street": "Rua Júlio Marmile",
        "zipcode": "13382-010"
    },
    {
        "city": "Nova Odessa",
        "state": "SP",
        "district": "Conjunto Habitacional 23 de Maio",
        "street": "Rua João de Barro",
        "zipcode": "13382-200"
    },
    {
        "city": "Nova Odessa",
        "state": "SP",
        "district": "Jardim Bela Vista",
        "street": "Rua Júlio Marmile",
        "zipcode": "13385-028"
    },
    {
        "city": "Nova Odessa",
        "state": "SP",
        "district": "Vila Novos Horizontes",
        "street": "Rua Jovita de Jesus Garcia",
        "zipcode": "13380-442"
    },
    {
        "city": "Nova Odessa",
        "state": "SP",
        "district": "Engenho Velho",
        "street": "Rua Projetada Três",
        "zipcode": "13382-105"
    },
    {
        "city": "Nova Odessa",
        "state": "SP",
        "district": "Jardim Santa Rosa",
        "street": "Rua João Jankovitz",
        "zipcode": "13385-072"
    },
    {
        "city": "Nova Odessa",
        "state": "SP",
        "district": "Jardim Planalto",
        "street": "Rua José de Paiva",
        "zipcode": "13380-202"
    },
    {
        "city": "Nova Odessa",
        "state": "SP",
        "district": "Jardim dos Lagos",
        "street": "Rua Nove",
        "zipcode": "13386-161"
    },
    {
        "city": "Nova Odessa",
        "state": "SP",
        "district": "Jardim Mathilde Berzin",
        "street": "Rua Augusto Lovatti",
        "zipcode": "13380-216"
    },
    {
        "city": "Nova Odessa",
        "state": "SP",
        "district": "Conjunto Habitacional 23 de Maio",
        "street": "Rua Higino Bassora",
        "zipcode": "13382-206"
    },
    {
        "city": "Nova Odessa",
        "state": "SP",
        "district": "Jardim Santa Rosa",
        "street": "Rua José Whitehead",
        "zipcode": "13385-056"
    },
    {
        "city": "Nova Odessa",
        "state": "SP",
        "district": "Parque Fabrício",
        "street": "Rua Luiz Brolo",
        "zipcode": "13380-182"
    },
    {
        "city": "Nova Odessa",
        "state": "SP",
        "district": "Parque Residencial Triunfo",
        "street": "Rua Basílio Germano",
        "zipcode": "13387-650"
    },
    {
        "city": "Nova Odessa",
        "state": "SP",
        "district": "Recanto do Guaraparí",
        "street": "Rua Frederico Puke",
        "zipcode": "13383-270"
    },
    {
        "city": "Nova Odessa",
        "state": "SP",
        "district": "Jardim Bela Vista",
        "street": "Rua Eduardo Leekning",
        "zipcode": "13385-016"
    },
    {
        "city": "Nova Odessa",
        "state": "SP",
        "district": "Parque Industrial Harmonia",
        "street": "Rua Darcy Carrion",
        "zipcode": "13380-298"
    },
    {
        "city": "Nova Odessa",
        "state": "SP",
        "district": "Residencial Imigrantes",
        "street": "Rua João Cortez Sobrinho",
        "zipcode": "13380-520"
    },
    {
        "city": "Nova Odessa",
        "state": "SP",
        "district": "Jardim Europa",
        "street": "Rua Wanda Blanco Pereira",
        "zipcode": "13380-100"
    },
    {
        "city": "Nova Odessa",
        "state": "SP",
        "district": "Jardim Santa Rita I",
        "street": "Rua Professor Walter Manzato (Corvinho)",
        "zipcode": "13386-074"
    },
    {
        "city": "Nova Odessa",
        "state": "SP",
        "district": "Centro",
        "street": "Rua Aristeu Valente 201",
        "zipcode": "13460-971"
    },
    {
        "city": "Nova Odessa",
        "state": "SP",
        "district": "Centro",
        "street": "Rua Rio Branco 468",
        "zipcode": "13460-970"
    },
    {
        "city": "Nova Odessa",
        "state": "SP",
        "district": "Engenho Velho",
        "street": "Rua Projetada Cinco",
        "zipcode": "13382-107"
    },
    {
        "city": "Nova Odessa",
        "state": "SP",
        "district": "Parque Residencial Klavin",
        "street": "Rua Luiz Augusto Gonçalves",
        "zipcode": "13382-326"
    },
    {
        "city": "Nova Odessa",
        "state": "SP",
        "district": "Jardim Europa",
        "street": "Rua Carmine Piconi",
        "zipcode": "13380-118"
    },
    {
        "city": "Nova Odessa",
        "state": "SP",
        "district": "Centro",
        "street": "Rua Aristeu Valente",
        "zipcode": "13380-971"
    },
    {
        "city": "Nova Odessa",
        "state": "SP",
        "district": "Jardim Nossa Senhora de Fátima",
        "street": "Rua Virgilio Bodini",
        "zipcode": "13387-590"
    },
    {
        "city": "Nova Odessa",
        "state": "SP",
        "district": "Jardim Altos do Klavin",
        "street": "Rua Sete",
        "zipcode": "13382-381"
    },
    {
        "city": "Nova Odessa",
        "state": "SP",
        "district": "Jardim Altos do Klavin",
        "street": "Rua dos Alecrins",
        "zipcode": "13382-388"
    },
    {
        "city": "Nova Odessa",
        "state": "SP",
        "district": "Engenho Velho",
        "street": "Rua Projetada Quatro",
        "zipcode": "13382-106"
    },
    {
        "city": "Nova Odessa",
        "state": "SP",
        "district": "Jardim Campos Verdes",
        "street": "Rua Eliana de Oliveira Bueno",
        "zipcode": "13385-766"
    },
    {
        "city": "Nova Odessa",
        "state": "SP",
        "district": "Jardim Primavera",
        "street": "Rua das Magnólias",
        "zipcode": "13380-600"
    },
    {
        "city": "Nova Odessa",
        "state": "SP",
        "district": "Jardim Fadel",
        "street": "Rua Pedro Pinheiro Alves",
        "zipcode": "13387-112"
    },
    {
        "city": "Nova Odessa",
        "state": "SP",
        "district": "Residencial Vale dos Lírios",
        "street": "Travessa Setenta e Três",
        "zipcode": "13383-654"
    },
    {
        "city": "Nova Odessa",
        "state": "SP",
        "district": "Conjunto Habitacional 23 de Maio",
        "street": "Rua Sabiá",
        "zipcode": "13382-204"
    },
    {
        "city": "Nova Odessa",
        "state": "SP",
        "district": "Residencial Imigrantes",
        "street": "Rua José Blanco",
        "zipcode": "13380-522"
    },
    {
        "city": "Nova Odessa",
        "state": "SP",
        "district": "Jardim Primavera",
        "street": "Rua dos Girassóis",
        "zipcode": "13380-568"
    },
    {
        "city": "Nova Odessa",
        "state": "SP",
        "district": "Jardim Eneides Industrial",
        "street": "Rua Francisco Cassaçola",
        "zipcode": "13380-324"
    },
    {
        "city": "Nova Odessa",
        "state": "SP",
        "district": "Jardim de Éden",
        "street": "Rua Sigesmundo Andermann",
        "zipcode": "13382-014"
    },
    {
        "city": "Nova Odessa",
        "state": "SP",
        "district": "Parque Residencial Klavin",
        "street": "Rua Pedro Rosa",
        "zipcode": "13382-318"
    },
    {
        "city": "Nova Odessa",
        "state": "SP",
        "district": "Jardim Europa",
        "street": "Rua Jerônimo Menardo",
        "zipcode": "13380-106"
    },
    {
        "city": "Nova Odessa",
        "state": "SP",
        "district": "Jardim São Francisco",
        "street": "Rua Porphirio Antonio Preto",
        "zipcode": "13388-174"
    },
    {
        "city": "Nova Odessa",
        "state": "SP",
        "district": "Residencial Santa Luiza I",
        "street": "Rua Joana Gonçalves Nascimento",
        "zipcode": "13387-740"
    },
    {
        "city": "Nova Odessa",
        "state": "SP",
        "district": "Jardim São Jorge",
        "street": "Rua Belo Horizonte",
        "zipcode": "13387-618"
    },
    {
        "city": "Nova Odessa",
        "state": "SP",
        "district": "Jardim dos Lagos",
        "street": "Rua Quatro",
        "zipcode": "13386-156"
    },
    {
        "city": "Nova Odessa",
        "state": "SP",
        "district": "Jardim Europa",
        "street": "Rua Abel Morello",
        "zipcode": "13380-108"
    },
    {
        "city": "Nova Odessa",
        "state": "SP",
        "district": "Jardim Altos do Klavin",
        "street": "Rua Shirley de Jesus",
        "zipcode": "13382-362"
    },
    {
        "city": "Nova Odessa",
        "state": "SP",
        "district": "Jardim Primavera",
        "street": "Rua das Tulipas",
        "zipcode": "13380-580"
    },
    {
        "city": "Nova Odessa",
        "state": "SP",
        "district": "Jardim das Palmeiras I",
        "street": "Rua Valdiney Guariento",
        "zipcode": "13382-436"
    },
    {
        "city": "Nova Odessa",
        "state": "SP",
        "district": "Jardim Europa",
        "street": "Avenida Ampélio Gazzetta",
        "zipcode": "13380-116"
    },
    {
        "city": "Nova Odessa",
        "state": "SP",
        "district": "Parque dos Pinheiros",
        "street": "Rua dos Jasmins",
        "zipcode": "13381-128"
    },
    {
        "city": "Nova Odessa",
        "state": "SP",
        "district": "Jardim Europa",
        "street": "Rua Presidente Juscelino Kubitschek de Oliveira",
        "zipcode": "13380-112"
    },
    {
        "city": "Nova Odessa",
        "state": "SP",
        "district": "Jardim Marajoara",
        "street": "Rua Vicente Lemma",
        "zipcode": "13380-418"
    },
    {
        "city": "Nova Odessa",
        "state": "SP",
        "district": "Jardim São Manoel",
        "street": "Rua Vanderley Willis Klava",
        "zipcode": "13386-012"
    },
    {
        "city": "Nova Odessa",
        "state": "SP",
        "district": "Chácaras Reunidas Anhanguera",
        "street": "Estrada Três",
        "zipcode": "13388-686"
    },
    {
        "city": "Nova Odessa",
        "state": "SP",
        "district": "Jardim Maria Helena",
        "street": "Rua Pedro Parras de Camargo",
        "zipcode": "13385-312"
    },
    {
        "city": "Nova Odessa",
        "state": "SP",
        "district": "Residencial Vale dos Lírios",
        "street": "Rua Zenta Stepanov Mielnik",
        "zipcode": "13383-652"
    },
    {
        "city": "Nova Odessa",
        "state": "SP",
        "district": "Jardim Altos do Klavin",
        "street": "Rua Victório Furian",
        "zipcode": "13382-356"
    },
    {
        "city": "Nova Odessa",
        "state": "SP",
        "district": "Jardim da Alvorada",
        "street": "Rua Flamboyant",
        "zipcode": "13382-458"
    },
    {
        "city": "Nova Odessa",
        "state": "SP",
        "district": "Jardim Santa Rosa",
        "street": "Rua Heitor Cibin",
        "zipcode": "13385-088"
    },
    {
        "city": "Nova Odessa",
        "state": "SP",
        "district": "Recanto do Guaraparí",
        "street": "Rua Mirdsa Cornélia Puke Liepkaln",
        "zipcode": "13383-282"
    },
    {
        "city": "Nova Odessa",
        "state": "SP",
        "district": "Recanto da Fazenda",
        "street": "Rua Apparecido Gava",
        "zipcode": "13381-012"
    },
    {
        "city": "Nova Odessa",
        "state": "SP",
        "district": "Centro",
        "street": "Rua João Peterlevitz",
        "zipcode": "13380-035"
    },
    {
        "city": "Nova Odessa",
        "state": "SP",
        "district": "Jardim Santa Rita II",
        "street": "Rua Pedro Abel Jankovitz",
        "zipcode": "13386-100"
    },
    {
        "city": "Nova Odessa",
        "state": "SP",
        "district": "Jardim Europa",
        "street": "Rua Yolanda Barbosa Preto",
        "zipcode": "13380-114"
    },
    {
        "city": "Nova Odessa",
        "state": "SP",
        "district": "Jardim Monte das Oliveiras",
        "street": "Rua Durval Pavanelli",
        "zipcode": "13386-136"
    },
    {
        "city": "Nova Odessa",
        "state": "SP",
        "district": "Vila Azenha",
        "street": "Rua Abrão Delegá",
        "zipcode": "13387-094"
    },
    {
        "city": "Nova Odessa",
        "state": "SP",
        "district": "Jardim Flórida",
        "street": "Rua Miguel Bechis Filho",
        "zipcode": "13387-036"
    },
    {
        "city": "Nova Odessa",
        "state": "SP",
        "district": "Centro",
        "street": "Rua Francisco de Souza",
        "zipcode": "13380-037"
    },
    {
        "city": "Nova Odessa",
        "state": "SP",
        "district": "Loteamento Industrial Fechado Jardim Dona Esther",
        "street": "Avenida João Antonio Belizário Prado",
        "zipcode": "13385-738"
    },
    {
        "city": "Nova Odessa",
        "state": "SP",
        "district": "Jardim São Manoel",
        "street": "Rua Octávio Guedes",
        "zipcode": "13386-016"
    },
    {
        "city": "Nova Odessa",
        "state": "SP",
        "district": "Jardim das Palmeiras",
        "street": "Rua Vitório Crispin",
        "zipcode": "13382-428"
    },
    {
        "city": "Nova Odessa",
        "state": "SP",
        "district": "Jardim Residencial Fibra",
        "street": "Alameda do Saber",
        "zipcode": "13387-776"
    },
    {
        "city": "Nova Odessa",
        "state": "SP",
        "district": "Residencial Jardins da Cidade",
        "street": "Alameda City Ribeirão",
        "zipcode": "13387-834"
    },
    {
        "city": "Nova Odessa",
        "state": "SP",
        "district": "Jardim Santa Rita I",
        "street": "Avenida São Gonçalo",
        "zipcode": "13386-088"
    },
    {
        "city": "Nova Odessa",
        "state": "SP",
        "district": "Jardim São Manoel",
        "street": "Rua Valdiney Guariento",
        "zipcode": "13386-024"
    },
    {
        "city": "Nova Odessa",
        "state": "SP",
        "district": "Parque Fabrício",
        "street": "Avenida José Penachione",
        "zipcode": "13380-170"
    },
    {
        "city": "Nova Odessa",
        "state": "SP",
        "district": "Chácaras Reunidas Anhanguera",
        "street": "Estrada de Vasconcelos",
        "zipcode": "13388-680"
    },
    {
        "city": "Nova Odessa",
        "state": "SP",
        "district": "Jardim São Manoel",
        "street": "Rua Donizete Aparecido Cordeiro",
        "zipcode": "13386-030"
    },
    {
        "city": "Nova Odessa",
        "state": "SP",
        "district": "Parque Industrial Harmonia",
        "street": "Rua Theófilo Sniker",
        "zipcode": "13380-292"
    },
    {
        "city": "Nova Odessa",
        "state": "SP",
        "district": "Jardim Residencial Fibra",
        "street": "Rua José Porfírio dos Santos",
        "zipcode": "13387-754"
    },
    {
        "city": "Nova Odessa",
        "state": "SP",
        "district": "Jardim Campos Verdes",
        "street": "Rua Pastor Benedicto de Jesus Felicio",
        "zipcode": "13385-758"
    },
    {
        "city": "Nova Odessa",
        "state": "SP",
        "district": "Jardim Santa Rosa",
        "street": "Rua 15 de Novembro",
        "zipcode": "13385-050"
    },
    {
        "city": "Nova Odessa",
        "state": "SP",
        "district": "Jardim Dona Maria Azenha",
        "street": "Rua Maria Pisoni Benincasa",
        "zipcode": "13380-494"
    },
    {
        "city": "Nova Odessa",
        "state": "SP",
        "district": "Engenho Velho",
        "street": "Rua Projetada Seis",
        "zipcode": "13382-108"
    },
    {
        "city": "Nova Odessa",
        "state": "SP",
        "district": "Jardim da Alvorada",
        "street": "Avenida São Gonçalo",
        "zipcode": "13382-460"
    },
    {
        "city": "Nova Odessa",
        "state": "SP",
        "district": "Chácaras Central",
        "street": "Rua Pastor André Pincher",
        "zipcode": "13383-400"
    },
    {
        "city": "Nova Odessa",
        "state": "SP",
        "district": "Parque Residencial Francisco Lopes Iglesia",
        "street": "Rua Pilar Carrion",
        "zipcode": "13385-522"
    },
    {
        "city": "Nova Odessa",
        "state": "SP",
        "district": "Jardim Maria Helena",
        "street": "Rua Benedito de Paula",
        "zipcode": "13385-320"
    },
    {
        "city": "Nova Odessa",
        "state": "SP",
        "district": "Condominio Industrial 15 de Novembro",
        "street": "Rua 15 de Novembro",
        "zipcode": "13385-100"
    },
    {
        "city": "Nova Odessa",
        "state": "SP",
        "district": "Parque Residencial Klavin",
        "street": "Rua Maria dos Reis Martins",
        "zipcode": "13382-320"
    },
    {
        "city": "Nova Odessa",
        "state": "SP",
        "district": "Residencial Santa Luiza II",
        "street": "Rua Armezinda de Oliveira Ultramar",
        "zipcode": "13387-696"
    },
    {
        "city": "Nova Odessa",
        "state": "SP",
        "district": "Vila Azenha",
        "street": "Rua Henrique Felix",
        "zipcode": "13387-078"
    },
    {
        "city": "Nova Odessa",
        "state": "SP",
        "district": "Centro",
        "street": "Rua Independência",
        "zipcode": "13380-025"
    },
    {
        "city": "Nova Odessa",
        "state": "SP",
        "district": "Jardim das Palmeiras",
        "street": "Rua das Imbuias",
        "zipcode": "13382-410"
    },
    {
        "city": "Nova Odessa",
        "state": "SP",
        "district": "Jardim Santa Rosa",
        "street": "Rua Antonio Zanaga",
        "zipcode": "13385-044"
    },
    {
        "city": "Nova Odessa",
        "state": "SP",
        "district": "Jardim Maria Helena",
        "street": "Rua Maria Aparecida Bellinati Piconi",
        "zipcode": "13385-318"
    },
    {
        "city": "Nova Odessa",
        "state": "SP",
        "district": "Jardim de Éden",
        "street": "Rua Pedro Parras de Camargo",
        "zipcode": "13382-024"
    },
    {
        "city": "Nova Odessa",
        "state": "SP",
        "district": "Jardim Santa Rita I",
        "street": "Rua Reynaldo de Alencar Maluf",
        "zipcode": "13386-062"
    },
    {
        "city": "Nova Odessa",
        "state": "SP",
        "district": "Chácaras de Recreio Represa",
        "street": "Rua Rio Camanducaia",
        "zipcode": "13389-452"
    },
    {
        "city": "Nova Odessa",
        "state": "SP",
        "district": "Jardim Santa Rosa",
        "street": "Rua Júlio Marmile",
        "zipcode": "13385-082"
    },
    {
        "city": "Nova Odessa",
        "state": "SP",
        "district": "Parque Residencial Francisco Lopes Iglesia",
        "street": "Avenida Pedro de Oliveira",
        "zipcode": "13385-516"
    },
    {
        "city": "Nova Odessa",
        "state": "SP",
        "district": "Jardim de Éden",
        "street": "Avenida Doutor Eddy de Freitas Crissiuma",
        "zipcode": "13382-004"
    },
    {
        "city": "Nova Odessa",
        "state": "SP",
        "district": "Parque Industrial Harmonia",
        "street": "Rua Americana",
        "zipcode": "13380-297"
    },
    {
        "city": "Nova Odessa",
        "state": "SP",
        "district": "Jardim Fadel",
        "street": "Avenida Marginal",
        "zipcode": "13387-125"
    },
    {
        "city": "Nova Odessa",
        "state": "SP",
        "district": "Jardim das Palmeiras I",
        "street": "Rua Caviuna",
        "zipcode": "13382-445"
    },
    {
        "city": "Nova Odessa",
        "state": "SP",
        "district": "Jardim das Palmeiras",
        "street": "Rua dos Jatobás",
        "zipcode": "13382-407"
    },
    {
        "city": "Nova Odessa",
        "state": "SP",
        "district": "Bosque dos Cedros",
        "street": "Rua Abel Morello",
        "zipcode": "13380-087"
    },
    {
        "city": "Nova Odessa",
        "state": "SP",
        "district": "Residencial Jardins da Cidade",
        "street": "Alameda Alto dos Pinheiros",
        "zipcode": "13387-828"
    },
    {
        "city": "Nova Odessa",
        "state": "SP",
        "district": "Parque dos Pinheiros",
        "street": "Estrada Municipal Rodolfo Kivitz",
        "zipcode": "13381-120"
    },
    {
        "city": "Nova Odessa",
        "state": "SP",
        "district": "Jardim Altos do Klavin",
        "street": "Rua Dois",
        "zipcode": "13382-353"
    },
    {
        "city": "Nova Odessa",
        "state": "SP",
        "district": "Jardim São Manoel",
        "street": "Rua dos Cedros",
        "zipcode": "13386-029"
    },
    {
        "city": "Nova Odessa",
        "state": "SP",
        "district": "Vila Azenha",
        "street": "Rua Dois",
        "zipcode": "13387-065"
    },
    {
        "city": "Nova Odessa",
        "state": "SP",
        "district": "Parque Industrial Harmonia",
        "street": "Avenida A",
        "zipcode": "13380-305"
    },
    {
        "city": "Nova Odessa",
        "state": "SP",
        "district": "Recanto Las Palmas",
        "street": "Rua Cinco",
        "zipcode": "13389-237"
    },
    {
        "city": "Nova Odessa",
        "state": "SP",
        "district": "Jardim Flórida",
        "street": "Avenida Marginal",
        "zipcode": "13387-049"
    },
    {
        "city": "Nova Odessa",
        "state": "SP",
        "district": "Parque Industrial Harmonia",
        "street": "Avenida Ampélio Gazzetta",
        "zipcode": "13380-291"
    },
    {
        "city": "Nova Odessa",
        "state": "SP",
        "district": "Green Village",
        "street": "Avenida Ampélio Gazzetta",
        "zipcode": "13385-506"
    },
    {
        "city": "Nova Odessa",
        "state": "SP",
        "district": "Residencial Jardins da Cidade",
        "street": "Alameda Anhangabaú",
        "zipcode": "13387-831"
    },
    {
        "city": "Nova Odessa",
        "state": "SP",
        "district": "Chácaras Central",
        "street": "Estrada Municipal Rodolfo Kivitz",
        "zipcode": "13383-391"
    },
    {
        "city": "Nova Odessa",
        "state": "SP",
        "district": "Residencial Jardins da Cidade",
        "street": "Alameda Boaçava",
        "zipcode": "13387-825"
    },
    {
        "city": "Nova Odessa",
        "state": "SP",
        "district": "Residencial Jardins da Cidade",
        "street": "Alameda Jardim América",
        "zipcode": "13387-821"
    },
    {
        "city": "Nova Odessa",
        "state": "SP",
        "district": "Centro",
        "street": "Avenida Carlos Botelho",
        "zipcode": "13380-001"
    },
    {
        "city": "Nova Odessa",
        "state": "SP",
        "district": "Zona de Produção Industrial Quatro (ZPI",
        "street": "Avenida Valentin Feltrin",
        "zipcode": "13387-570"
    },
    {
        "city": "Nova Odessa",
        "state": "SP",
        "district": "Jardim Industrial Dante Siani",
        "street": "Estrada Municipal",
        "zipcode": "13388-101"
    },
    {
        "city": "Nova Odessa",
        "state": "SP",
        "district": "Jardim Bela Vista",
        "street": "Avenida Ampélio Gazzetta",
        "zipcode": "13385-018"
    },
    {
        "city": "Nova Odessa",
        "state": "SP",
        "district": "Loteamento Industrial Fechado Jardim Dona Esther",
        "street": "Rua Primo Agostinho",
        "zipcode": "13385-731"
    },
    {
        "city": "Nova Odessa",
        "state": "SP",
        "district": "Jardim Campos Verdes",
        "street": "Rua Reynaldo Masson",
        "zipcode": "13385-741"
    },
    {
        "city": "Nova Odessa",
        "state": "SP",
        "district": "Jardim Capuava",
        "street": "Rua Nelson Berssan",
        "zipcode": "13382-525"
    },
    {
        "city": "Nova Odessa",
        "state": "SP",
        "district": "Jardim São Jorge",
        "street": "Rua Macapá",
        "zipcode": "13387-623"
    },
    {
        "city": "Nova Odessa",
        "state": "SP",
        "district": "Zona de Produção Agrícola",
        "street": null,
        "zipcode": "13383-414"
    },
    {
        "city": "Nova Odessa",
        "state": "SP",
        "district": "Jardim Conceição",
        "street": "Rua Três",
        "zipcode": "13385-431"
    },
    {
        "city": "Nova Odessa",
        "state": "SP",
        "district": "Jardim Mathilde Berzin",
        "street": "Rua José de Paiva",
        "zipcode": "13380-231"
    },
    {
        "city": "Nova Odessa",
        "state": "SP",
        "district": "Parque Industrial Recanto",
        "street": "Rua Henrique Whitehead",
        "zipcode": "13380-362"
    },
    {
        "city": "Nova Odessa",
        "state": "SP",
        "district": "Jardim de Éden",
        "street": "Rua Onze",
        "zipcode": "13382-032"
    },
    {
        "city": "Nova Odessa",
        "state": "SP",
        "district": "Jardim Europa",
        "street": "Rua Edson Venâncio Carciliano",
        "zipcode": "13380-104"
    },
    {
        "city": "Nova Odessa",
        "state": "SP",
        "district": "Parque Residencial Francisco Lopes Iglesia",
        "street": "Rua Nove",
        "zipcode": "13385-515"
    },
    {
        "city": "Nova Odessa",
        "state": "SP",
        "district": "Jardim Santa Rosa",
        "street": "Rua Um B",
        "zipcode": "13385-061"
    },
    {
        "city": "Nova Odessa",
        "state": "SP",
        "district": "Jardim Santa Rita I",
        "street": "Rua Guerino Padella",
        "zipcode": "13386-075"
    },
    {
        "city": "Nova Odessa",
        "state": "SP",
        "district": "Jardim de Éden",
        "street": "Rua Doutor André Miguel Liekning",
        "zipcode": "13382-001"
    },
    {
        "city": "Nova Odessa",
        "state": "SP",
        "district": "Industrial Cachoeira",
        "street": "Rua Um",
        "zipcode": "13381-030"
    },
    {
        "city": "Nova Odessa",
        "state": "SP",
        "district": "Jardim de Éden",
        "street": "Rua Alice Gazzetta",
        "zipcode": "13382-016"
    },
    {
        "city": "Nova Odessa",
        "state": "SP",
        "district": "Residencial Jardins da Cidade",
        "street": "Alameda Alto da Lapa",
        "zipcode": "13387-829"
    },
    {
        "city": "Nova Odessa",
        "state": "SP",
        "district": "Residencial Jardins da Cidade",
        "street": "Alameda Bella Aliança",
        "zipcode": "13387-824"
    },
    {
        "city": "Nova Odessa",
        "state": "SP",
        "district": "Jardim Fadel",
        "street": "Rua Sidney Ravagnane",
        "zipcode": "13387-121"
    },
    {
        "city": "Nova Odessa",
        "state": "SP",
        "district": "Recanto Las Palmas",
        "street": "Rua dos Brilhantes",
        "zipcode": "13389-243"
    },
    {
        "city": "Nova Odessa",
        "state": "SP",
        "district": "Jardim Santa Rosa",
        "street": "Praça Angelo Paulon",
        "zipcode": "13385-053"
    },
    {
        "city": "Nova Odessa",
        "state": "SP",
        "district": "Jardim Eneides Residencial",
        "street": "Rua Americana",
        "zipcode": "13380-312"
    },
    {
        "city": "Nova Odessa",
        "state": "SP",
        "district": "Jardim Santa Rosa",
        "street": "Rua Nicolau Barruca",
        "zipcode": "13385-059"
    },
    {
        "city": "Nova Odessa",
        "state": "SP",
        "district": "Jardim Bela Vista",
        "street": "Rua 13 de Maio",
        "zipcode": "13385-005"
    },
    {
        "city": "Nova Odessa",
        "state": "SP",
        "district": "Residencial Vale dos Lírios",
        "street": "Travessa Vinte e Três",
        "zipcode": "13383-634"
    },
    {
        "city": "Nova Odessa",
        "state": "SP",
        "district": "Chácaras de Recreio Represa",
        "street": "Rua Rio Tietê",
        "zipcode": "13389-458"
    },
    {
        "city": "Nova Odessa",
        "state": "SP",
        "district": "Jardim Residencial Fibra",
        "street": "Rua da Felicidade",
        "zipcode": "13387-774"
    },
    {
        "city": "Nova Odessa",
        "state": "SP",
        "district": "Jardim das Palmeiras",
        "street": "Rua dos Angicos",
        "zipcode": "13382-412"
    },
    {
        "city": "Nova Odessa",
        "state": "SP",
        "district": "Jardim da Alvorada",
        "street": "Rua das Perobas",
        "zipcode": "13382-480"
    },
    {
        "city": "Nova Odessa",
        "state": "SP",
        "district": "Jardim Altos do Klavin",
        "street": "Rua do Tamboril",
        "zipcode": "13382-390"
    },
    {
        "city": "Nova Odessa",
        "state": "SP",
        "district": "Parque Residencial Triunfo",
        "street": "Rua José Carreon",
        "zipcode": "13387-674"
    },
    {
        "city": "Nova Odessa",
        "state": "SP",
        "district": "Residencial dos Ipês",
        "street": "Rua Oito",
        "zipcode": "13386-206"
    },
    {
        "city": "Nova Odessa",
        "state": "SP",
        "district": "Jardim da Alvorada",
        "street": "Rua Marfim",
        "zipcode": "13382-492"
    },
    {
        "city": "Nova Odessa",
        "state": "SP",
        "district": "Jardim Monte das Oliveiras",
        "street": "Rua Alberto Stepanow",
        "zipcode": "13386-126"
    },
    {
        "city": "Nova Odessa",
        "state": "SP",
        "district": "Jardim Conceição",
        "street": "Avenida Um",
        "zipcode": "13385-433"
    },
    {
        "city": "Nova Odessa",
        "state": "SP",
        "district": "INDUSPARK Nova Odessa",
        "street": "Acesso 1 B",
        "zipcode": "13388-072"
    },
    {
        "city": "Nova Odessa",
        "state": "SP",
        "district": "Jardim Flórida",
        "street": "Rua Catharina Teixeira de Camargo",
        "zipcode": "13387-034"
    },
    {
        "city": "Nova Odessa",
        "state": "SP",
        "district": "Jardim Monte das Oliveiras",
        "street": "Rua Geraldo Amaral",
        "zipcode": "13386-138"
    },
    {
        "city": "Nova Odessa",
        "state": "SP",
        "district": "Jardim Marajoara",
        "street": "Avenida Marginal José Barbosa Ribeiro Filho",
        "zipcode": "13380-422"
    },
    {
        "city": "Nova Odessa",
        "state": "SP",
        "district": "Parque Residencial Triunfo",
        "street": "Rua Aristides Benedito",
        "zipcode": "13387-672"
    },
    {
        "city": "Nova Odessa",
        "state": "SP",
        "district": "Jardim Gleba B",
        "street": "Rua Dois",
        "zipcode": "13387-802"
    },
    {
        "city": "Nova Odessa",
        "state": "SP",
        "district": "Jardim Flórida",
        "street": "Rua Antonio Oliveira",
        "zipcode": "13387-050"
    },
    {
        "city": "Nova Odessa",
        "state": "SP",
        "district": "Campo Belo",
        "street": "Rua Quatro",
        "zipcode": "13382-662"
    },
    {
        "city": "Nova Odessa",
        "state": "SP",
        "district": "Loteamento Industrial Fechado Jardim Dona Esther",
        "street": "Avenida Agostinho Fadel",
        "zipcode": "13385-736"
    },
    {
        "city": "Nova Odessa",
        "state": "SP",
        "district": "Jardim Residencial Fibra",
        "street": "Rodovia Arnaldo Julio Mauerberg",
        "zipcode": "13387-786"
    },
    {
        "city": "Nova Odessa",
        "state": "SP",
        "district": "Parque Residencial Francisco Lopes Iglesia",
        "street": "Avenida Ampélio Gazzetta",
        "zipcode": "13385-510"
    },
    {
        "city": "Nova Odessa",
        "state": "SP",
        "district": "Parque Residencial Klavin",
        "street": "Rua Rosana Adelia Marchetti de Castro",
        "zipcode": "13382-338"
    },
    {
        "city": "Nova Odessa",
        "state": "SP",
        "district": "Bosque dos Cedros",
        "street": "Rua Jerônimo Menardo",
        "zipcode": "13380-096"
    },
    {
        "city": "Nova Odessa",
        "state": "SP",
        "district": "Bosque dos Cedros",
        "street": "Avenida João Pessoa",
        "zipcode": "13380-094"
    },
    {
        "city": "Nova Odessa",
        "state": "SP",
        "district": "Jardim Fadel",
        "street": "Rua Romeu Valentin Tognella",
        "zipcode": "13387-108"
    },
    {
        "city": "Nova Odessa",
        "state": "SP",
        "district": "Jardim Maria Helena",
        "street": "Rua Joaquim Sanches",
        "zipcode": "13385-336"
    },
    {
        "city": "Nova Odessa",
        "state": "SP",
        "district": "Jardim Altos do Klavin",
        "street": "Rua Luiz Augusto Gonçalves",
        "zipcode": "13382-384"
    }
]