[
    {
        "city": "Paulistânia",
        "state": "SP",
        "district": "",
        "street": "",
        "zipcode": "17150-000"
    },
    {
        "city": "Paulistânia",
        "state": "SP",
        "district": "Núcleo Habitacional Manoel Francisco Casaca",
        "street": "Rua Luiz Batista",
        "zipcode": "17150-056"
    },
    {
        "city": "Paulistânia",
        "state": "SP",
        "district": "José Demarchi",
        "street": "Rua Omenésio da Silva Leite",
        "zipcode": "17150-082"
    },
    {
        "city": "Paulistânia",
        "state": "SP",
        "district": "Núcleo Habitacional Manoel Francisco Casaca",
        "street": "Rua Jose Baixinho",
        "zipcode": "17150-046"
    },
    {
        "city": "Paulistânia",
        "state": "SP",
        "district": "José Demarchi",
        "street": "Rua Alecisio Neres de Oliveira",
        "zipcode": "17150-086"
    },
    {
        "city": "Paulistânia",
        "state": "SP",
        "district": "Centro",
        "street": "Rua Irmãos Campana",
        "zipcode": "17150-023"
    },
    {
        "city": "Paulistânia",
        "state": "SP",
        "district": "Área Rural de Paulistânia",
        "street": "Área Rural",
        "zipcode": "17154-899"
    },
    {
        "city": "Paulistânia",
        "state": "SP",
        "district": "José Demarchi",
        "street": "Rua Claudinei Garcia Moreno",
        "zipcode": "17150-080"
    },
    {
        "city": "Paulistânia",
        "state": "SP",
        "district": "Núcleo Habitacional Luiz Mosquim",
        "street": "Rua Dona Marieta",
        "zipcode": "17150-072"
    },
    {
        "city": "Paulistânia",
        "state": "SP",
        "district": "Núcleo Habitacional Paulo do Nascimento",
        "street": "Rua Laurinda Cadamuro",
        "zipcode": "17150-032"
    },
    {
        "city": "Paulistânia",
        "state": "SP",
        "district": "Limoeiro",
        "street": "Rua Joaquim Jorge Maricato",
        "zipcode": "17153-002"
    },
    {
        "city": "Paulistânia",
        "state": "SP",
        "district": "Limoeiro",
        "street": "Rua Manoel Ferreira Menino",
        "zipcode": "17153-004"
    },
    {
        "city": "Paulistânia",
        "state": "SP",
        "district": "Núcleo Habitacional Paulo do Nascimento",
        "street": "Rua Jose Baixinho",
        "zipcode": "17150-034"
    },
    {
        "city": "Paulistânia",
        "state": "SP",
        "district": "Centro",
        "street": "Rua Idalino Camilo de Souza",
        "zipcode": "17150-003"
    },
    {
        "city": "Paulistânia",
        "state": "SP",
        "district": "Centro",
        "street": "Rua Joaquim Soares",
        "zipcode": "17150-009"
    },
    {
        "city": "Paulistânia",
        "state": "SP",
        "district": "José Demarchi",
        "street": "Rua Avelino Rodrigues Santana",
        "zipcode": "17150-090"
    },
    {
        "city": "Paulistânia",
        "state": "SP",
        "district": "Limoeiro",
        "street": "Rua Manoel Maria",
        "zipcode": "17153-008"
    },
    {
        "city": "Paulistânia",
        "state": "SP",
        "district": "Núcleo Habitacional Manoel Francisco Casaca",
        "street": "Avenida Francisco Idalgo",
        "zipcode": "17150-062"
    },
    {
        "city": "Paulistânia",
        "state": "SP",
        "district": "Centro",
        "street": "Rua José Bento dos Santos",
        "zipcode": "17150-019"
    },
    {
        "city": "Paulistânia",
        "state": "SP",
        "district": "Centro",
        "street": "Praça Santa Terezinha",
        "zipcode": "17150-013"
    },
    {
        "city": "Paulistânia",
        "state": "SP",
        "district": "Centro",
        "street": "Rua Octacílio Ferreira Pinto",
        "zipcode": "17150-025"
    },
    {
        "city": "Paulistânia",
        "state": "SP",
        "district": "Centro",
        "street": "Rua Benedito Ferreira Barbosa",
        "zipcode": "17150-021"
    },
    {
        "city": "Paulistânia",
        "state": "SP",
        "district": "Centro",
        "street": "Rua Antonio Piccirilli",
        "zipcode": "17150-001"
    },
    {
        "city": "Paulistânia",
        "state": "SP",
        "district": "Centro",
        "street": "Rua Jesus Carlos Rubim",
        "zipcode": "17150-005"
    },
    {
        "city": "Paulistânia",
        "state": "SP",
        "district": "José Demarchi",
        "street": "Rua Nelson Capelini",
        "zipcode": "17150-088"
    },
    {
        "city": "Paulistânia",
        "state": "SP",
        "district": "Limoeiro",
        "street": "Rua José Pedro",
        "zipcode": "17153-006"
    },
    {
        "city": "Paulistânia",
        "state": "SP",
        "district": "Centro",
        "street": "Rua José Porfírio",
        "zipcode": "17150-027"
    },
    {
        "city": "Paulistânia",
        "state": "SP",
        "district": "Núcleo Habitacional Manoel Francisco Casaca",
        "street": "Rua Rosinei Codato",
        "zipcode": "17150-054"
    },
    {
        "city": "Paulistânia",
        "state": "SP",
        "district": "Núcleo Habitacional Manoel Francisco Casaca",
        "street": "Rua Dionísio Moreira",
        "zipcode": "17150-050"
    },
    {
        "city": "Paulistânia",
        "state": "SP",
        "district": "Núcleo Habitacional Paulo do Nascimento",
        "street": "Rua José Francisco Casaca",
        "zipcode": "17150-030"
    },
    {
        "city": "Paulistânia",
        "state": "SP",
        "district": "Limoeiro",
        "street": "Rua Tonico Pedro",
        "zipcode": "17153-000"
    },
    {
        "city": "Paulistânia",
        "state": "SP",
        "district": "José Demarchi",
        "street": "Rua Vereador Iderme Tenca Júnior",
        "zipcode": "17150-084"
    },
    {
        "city": "Paulistânia",
        "state": "SP",
        "district": "Núcleo Habitacional Manoel Francisco Casaca",
        "street": "Rua Theodomiro Rodrigues",
        "zipcode": "17150-044"
    },
    {
        "city": "Paulistânia",
        "state": "SP",
        "district": "Centro",
        "street": "Rua Vereador Júlio Granchi",
        "zipcode": "17150-017"
    },
    {
        "city": "Paulistânia",
        "state": "SP",
        "district": "Centro",
        "street": "Rua Thomaz Magdaleno",
        "zipcode": "17150-007"
    },
    {
        "city": "Paulistânia",
        "state": "SP",
        "district": "Centro",
        "street": "Rua Thomaz Magdaleno",
        "zipcode": "17150-970"
    },
    {
        "city": "Paulistânia",
        "state": "SP",
        "district": "Núcleo Habitacional Luiz Mosquim",
        "street": "Rua Alexandre Cavichiolli",
        "zipcode": "17150-070"
    },
    {
        "city": "Paulistânia",
        "state": "SP",
        "district": "Centro",
        "street": "Rua Francisco Ferreira Barbosa",
        "zipcode": "17150-015"
    },
    {
        "city": "Paulistânia",
        "state": "SP",
        "district": "Núcleo Habitacional Manoel Francisco Casaca",
        "street": "Rua João Cadamuro",
        "zipcode": "17150-052"
    },
    {
        "city": "Paulistânia",
        "state": "SP",
        "district": "Centro",
        "street": "Rua Ramilio Eugênio da Luz",
        "zipcode": "17150-011"
    },
    {
        "city": "Paulistânia",
        "state": "SP",
        "district": "Núcleo Habitacional Manoel Francisco Casaca",
        "street": "Rua Manoel Joaquim de Sousa",
        "zipcode": "17150-060"
    },
    {
        "city": "Paulistânia",
        "state": "SP",
        "district": "Núcleo Habitacional Manoel Francisco Casaca",
        "street": "Rua Vereador Iderme Tenca Júnior",
        "zipcode": "17150-048"
    },
    {
        "city": "Paulistânia",
        "state": "SP",
        "district": "Núcleo Habitacional Manoel Francisco Casaca",
        "street": "Rua Geralda Leite",
        "zipcode": "17150-042"
    },
    {
        "city": "Paulistânia",
        "state": "SP",
        "district": "Núcleo Habitacional Manoel Francisco Casaca",
        "street": "Rua Natal Demarchi",
        "zipcode": "17150-058"
    },
    {
        "city": "Paulistânia",
        "state": "SP",
        "district": "Núcleo Habitacional Manoel Francisco Casaca",
        "street": "Rua José Francisco Casaca",
        "zipcode": "17150-040"
    }
]