[
    {
        "city": "Pederneiras",
        "state": "SP",
        "district": "Centro",
        "street": "Rua Coronel Coimbra 181",
        "zipcode": "17280-970"
    },
    {
        "city": "Pederneiras",
        "state": "SP",
        "district": "Centro",
        "street": "Rua Regente Feijó 80",
        "zipcode": "17280-972"
    },
    {
        "city": "Pederneiras",
        "state": "SP",
        "district": null,
        "street": "Rua Regente Feijó",
        "zipcode": "17285-990"
    },
    {
        "city": "Pederneiras",
        "state": "SP",
        "district": null,
        "street": "Rua Eliazar Braga",
        "zipcode": "17288-990"
    },
    {
        "city": "Pederneiras",
        "state": "SP",
        "district": "",
        "street": "",
        "zipcode": "17280-000"
    },
    {
        "city": "Pederneiras",
        "state": "SP",
        "district": null,
        "street": "EMEI Paulo Freire",
        "zipcode": "17283-992"
    },
    {
        "city": "Pederneiras",
        "state": "SP",
        "district": null,
        "street": "Unidade de Saúde Claudeci dos Santos Tavares",
        "zipcode": "17283-991"
    },
    {
        "city": "Pederneiras",
        "state": "SP",
        "district": "Centro",
        "street": "Rua Pedro Dias Barbosa 140",
        "zipcode": "17280-971"
    }
]