[
    {
        "city": "Piratininga",
        "state": "SP",
        "district": "",
        "street": "",
        "zipcode": "17490-000"
    },
    {
        "city": "Piratininga",
        "state": "SP",
        "district": "Centro",
        "street": "Praça Mário Ribeiro da Siva",
        "zipcode": "17490-090"
    },
    {
        "city": "Piratininga",
        "state": "SP",
        "district": "Centro",
        "street": "Avenida Julio Marcondes Salgado",
        "zipcode": "17490-066"
    },
    {
        "city": "Piratininga",
        "state": "SP",
        "district": "Distrito Industrial",
        "street": "Avenida Nicolau Rossetto",
        "zipcode": "17499-000"
    },
    {
        "city": "Piratininga",
        "state": "SP",
        "district": "Vila Santa Maria",
        "street": "Rua Anchieta",
        "zipcode": "17490-019"
    },
    {
        "city": "Piratininga",
        "state": "SP",
        "district": "Residencial Primavera",
        "street": "Alameda das Avencas",
        "zipcode": "17492-216"
    },
    {
        "city": "Piratininga",
        "state": "SP",
        "district": "Residencial Parque Pontal",
        "street": "Rua Américo Persin",
        "zipcode": "17495-334"
    },
    {
        "city": "Piratininga",
        "state": "SP",
        "district": "Residencial Primavera",
        "street": "Alameda das Acácias",
        "zipcode": "17492-218"
    },
    {
        "city": "Piratininga",
        "state": "SP",
        "district": "Residencial Primavera",
        "street": "Alameda dos Lírios",
        "zipcode": "17492-220"
    },
    {
        "city": "Piratininga",
        "state": "SP",
        "district": "Jardim Coronel Antonio Carlos da Cunha Castro",
        "street": "Avenida das Saudades",
        "zipcode": "17490-046"
    },
    {
        "city": "Piratininga",
        "state": "SP",
        "district": "Residencial Primavera",
        "street": "Alameda das Sempre Vivas",
        "zipcode": "17492-212"
    },
    {
        "city": "Piratininga",
        "state": "SP",
        "district": "Centro",
        "street": "Rua Anchieta",
        "zipcode": "17490-050"
    },
    {
        "city": "Piratininga",
        "state": "SP",
        "district": "Residencial Primavera",
        "street": "Alameda das Hortências",
        "zipcode": "17492-222"
    },
    {
        "city": "Piratininga",
        "state": "SP",
        "district": "Real Village",
        "street": "Avenida Família Hombo",
        "zipcode": "17492-530"
    },
    {
        "city": "Piratininga",
        "state": "SP",
        "district": "Vila Soares",
        "street": "Rua Antonio Dias Soares",
        "zipcode": "17490-186"
    },
    {
        "city": "Piratininga",
        "state": "SP",
        "district": "Residencial Primavera",
        "street": "Alameda das Orquídeas",
        "zipcode": "17492-226"
    },
    {
        "city": "Piratininga",
        "state": "SP",
        "district": "Jardim Ibituruna",
        "street": "Rua Aguimar Cardoso Franco",
        "zipcode": "17492-504"
    },
    {
        "city": "Piratininga",
        "state": "SP",
        "district": "Jardim Panorama",
        "street": "Avenida Eleazar Corrêa de Moraes",
        "zipcode": "17498-412"
    },
    {
        "city": "Piratininga",
        "state": "SP",
        "district": "Jardim Panorama",
        "street": "Rua Anacleto Sgarbi Filho",
        "zipcode": "17498-410"
    },
    {
        "city": "Piratininga",
        "state": "SP",
        "district": "Centro",
        "street": "Praça Coronel Cardoso Franco",
        "zipcode": "17490-076"
    },
    {
        "city": "Piratininga",
        "state": "SP",
        "district": "Área Rural de Piratininga",
        "street": "Área Rural",
        "zipcode": "17499-899"
    },
    {
        "city": "Piratininga",
        "state": "SP",
        "district": "Jardim Santa Maria",
        "street": "Rua Alice Kyrillos Tebet",
        "zipcode": "17498-034"
    },
    {
        "city": "Piratininga",
        "state": "SP",
        "district": "Centro",
        "street": "Praça Virgem Imaculada",
        "zipcode": "17490-074"
    },
    {
        "city": "Piratininga",
        "state": "SP",
        "district": "Residencial Primavera",
        "street": "Alameda das Margaridas",
        "zipcode": "17492-228"
    },
    {
        "city": "Piratininga",
        "state": "SP",
        "district": "Centro",
        "street": "Avenida Coronel Soares",
        "zipcode": "17490-086"
    },
    {
        "city": "Piratininga",
        "state": "SP",
        "district": "Residencial Vale Florido",
        "street": "Rua Alice Faria Ferreira",
        "zipcode": "17492-274"
    },
    {
        "city": "Piratininga",
        "state": "SP",
        "district": "Jardim Kirilos",
        "street": "Rua Antonio Francisco Davatz",
        "zipcode": "17498-070"
    },
    {
        "city": "Piratininga",
        "state": "SP",
        "district": "Centro",
        "street": "Rua Dona Jamile Haddad Maluf",
        "zipcode": "17490-062"
    },
    {
        "city": "Piratininga",
        "state": "SP",
        "district": "Distrito Industrial",
        "street": "Rua Coronel Jose Pereira Campos",
        "zipcode": "17499-002"
    },
    {
        "city": "Piratininga",
        "state": "SP",
        "district": "Professora Célida Aparecida Soares",
        "street": "Rua Doutor José Lisboa Júnior",
        "zipcode": "17495-318"
    },
    {
        "city": "Piratininga",
        "state": "SP",
        "district": "Residencial Parque Pontal",
        "street": "Rua Dona Providencia Ferreira Netto",
        "zipcode": "17495-338"
    },
    {
        "city": "Piratininga",
        "state": "SP",
        "district": "Jardim Bela Vista",
        "street": "Rua Doutor José Tozzi",
        "zipcode": "17492-008"
    },
    {
        "city": "Piratininga",
        "state": "SP",
        "district": "Vila Santa Maria",
        "street": "Rua Arquimedes de Rosa",
        "zipcode": "17490-015"
    },
    {
        "city": "Piratininga",
        "state": "SP",
        "district": "Residencial Vale Florido",
        "street": "Rua das Begônias",
        "zipcode": "17492-266"
    },
    {
        "city": "Piratininga",
        "state": "SP",
        "district": "Vila Soares",
        "street": "Rua Doutor José Lisboa Júnior",
        "zipcode": "17490-182"
    },
    {
        "city": "Piratininga",
        "state": "SP",
        "district": "Vila Santa Maria",
        "street": "Rua dos Andradas",
        "zipcode": "17490-025"
    },
    {
        "city": "Piratininga",
        "state": "SP",
        "district": "Residencial Vale Florido",
        "street": "Rua das Bétulas",
        "zipcode": "17492-268"
    },
    {
        "city": "Piratininga",
        "state": "SP",
        "district": "Real Village",
        "street": "Rua das Jabuticabeiras",
        "zipcode": "17492-534"
    },
    {
        "city": "Piratininga",
        "state": "SP",
        "district": "Residencial Vale Florido",
        "street": "Rua das Salvias",
        "zipcode": "17492-254"
    },
    {
        "city": "Piratininga",
        "state": "SP",
        "district": "Bichara Maluf",
        "street": "Rua Doutor Plínio de Godoy",
        "zipcode": "17495-010"
    },
    {
        "city": "Piratininga",
        "state": "SP",
        "district": "Parque Boa Vista",
        "street": "Rua Doutor Waldemar Felippe",
        "zipcode": "17495-226"
    },
    {
        "city": "Piratininga",
        "state": "SP",
        "district": "Residencial Vale Florido",
        "street": "Rua das Tulipas",
        "zipcode": "17492-262"
    },
    {
        "city": "Piratininga",
        "state": "SP",
        "district": "Olympio Fernandes",
        "street": "Rua Carlos Rocha Paranha",
        "zipcode": "17495-288"
    },
    {
        "city": "Piratininga",
        "state": "SP",
        "district": "Vila Moraes",
        "street": "Rua Dona Sumaia Gebara Farha",
        "zipcode": "17490-118"
    },
    {
        "city": "Piratininga",
        "state": "SP",
        "district": "Professora Célida Aparecida Soares",
        "street": "Rua Clyzeida Senis Cardoso",
        "zipcode": "17495-310"
    },
    {
        "city": "Piratininga",
        "state": "SP",
        "district": "Chácaras Renno",
        "street": "Rua das Acácias",
        "zipcode": "17499-022"
    },
    {
        "city": "Piratininga",
        "state": "SP",
        "district": "Chácaras Renno",
        "street": "Rua das Quaresmeiras",
        "zipcode": "17499-020"
    },
    {
        "city": "Piratininga",
        "state": "SP",
        "district": "Vila Soares",
        "street": "Rua Aristides Rodrigues de Castro",
        "zipcode": "17490-194"
    },
    {
        "city": "Piratininga",
        "state": "SP",
        "district": "Real Village",
        "street": "Rua das Cerejeiras",
        "zipcode": "17492-546"
    },
    {
        "city": "Piratininga",
        "state": "SP",
        "district": "Vila Moraes",
        "street": "Rua Dona Guilhermina Guedes de Moraes",
        "zipcode": "17490-116"
    },
    {
        "city": "Piratininga",
        "state": "SP",
        "district": "Centro",
        "street": "Rua Duque de Caxias",
        "zipcode": "17490-056"
    },
    {
        "city": "Piratininga",
        "state": "SP",
        "district": "Jardim Bela Vista",
        "street": "Rua Arthur Augusto de Godoy",
        "zipcode": "17492-002"
    },
    {
        "city": "Piratininga",
        "state": "SP",
        "district": "Residencial Vale Florido",
        "street": "Rua das Palmas",
        "zipcode": "17492-252"
    },
    {
        "city": "Piratininga",
        "state": "SP",
        "district": "Vila Santa Maria",
        "street": "Rua Doutor João Evangelista Bastos",
        "zipcode": "17490-009"
    },
    {
        "city": "Piratininga",
        "state": "SP",
        "district": "Parque Boa Vista",
        "street": "Rua Doutor José Lisboa Júnior",
        "zipcode": "17495-220"
    },
    {
        "city": "Piratininga",
        "state": "SP",
        "district": "Residencial Vale Florido",
        "street": "Rua dos Gerânios",
        "zipcode": "17492-264"
    },
    {
        "city": "Piratininga",
        "state": "SP",
        "district": "Chácara Scarmeloto",
        "street": "Rua Antônio Ferreira da Silva",
        "zipcode": "17499-030"
    },
    {
        "city": "Piratininga",
        "state": "SP",
        "district": "Centro",
        "street": "Rua Doutor Plínio de Godoy",
        "zipcode": "17490-054"
    },
    {
        "city": "Piratininga",
        "state": "SP",
        "district": "Luis Faustino de Souza",
        "street": "Rua Dona Paquita",
        "zipcode": "17495-236"
    },
    {
        "city": "Piratininga",
        "state": "SP",
        "district": "Chácaras Renno",
        "street": "Rua das Ipês",
        "zipcode": "17499-026"
    },
    {
        "city": "Piratininga",
        "state": "SP",
        "district": "Amire Maluf",
        "street": "Rua Arquimedes de Rosa",
        "zipcode": "17495-006"
    },
    {
        "city": "Piratininga",
        "state": "SP",
        "district": "Centro",
        "street": "Rua dos Andradas",
        "zipcode": "17490-068"
    },
    {
        "city": "Piratininga",
        "state": "SP",
        "district": "Doutor Fernando Eduardo Mendes",
        "street": "Rua Antonio Kirillos",
        "zipcode": "17498-012"
    },
    {
        "city": "Piratininga",
        "state": "SP",
        "district": "Residencial Vale Florido",
        "street": "Rua Crisântemos",
        "zipcode": "17492-260"
    },
    {
        "city": "Piratininga",
        "state": "SP",
        "district": "Bichara Maluf",
        "street": "Rua Doutor José Lisboa Júnior",
        "zipcode": "17495-014"
    },
    {
        "city": "Piratininga",
        "state": "SP",
        "district": "Real Village",
        "street": "Rua dos Limoeiros",
        "zipcode": "17492-544"
    },
    {
        "city": "Piratininga",
        "state": "SP",
        "district": "Jardim Panorama",
        "street": "Rua Augusto Swenson",
        "zipcode": "17498-408"
    },
    {
        "city": "Piratininga",
        "state": "SP",
        "district": "Real Village",
        "street": "Rua das Goiabeiras",
        "zipcode": "17492-532"
    },
    {
        "city": "Piratininga",
        "state": "SP",
        "district": "Luis Faustino de Souza",
        "street": "Rua Doutor Waldemar Felippe",
        "zipcode": "17495-230"
    },
    {
        "city": "Piratininga",
        "state": "SP",
        "district": "Chácaras Renno",
        "street": "Rua das Manacás",
        "zipcode": "17499-024"
    },
    {
        "city": "Piratininga",
        "state": "SP",
        "district": "Luis Faustino de Souza",
        "street": "Rua Dona Maria Messias",
        "zipcode": "17495-240"
    },
    {
        "city": "Piratininga",
        "state": "SP",
        "district": "Real Village",
        "street": "Rua das Laranjeiras",
        "zipcode": "17492-548"
    },
    {
        "city": "Piratininga",
        "state": "SP",
        "district": "Centro",
        "street": "Rua Doutor José Lisboa Júnior",
        "zipcode": "17490-058"
    },
    {
        "city": "Piratininga",
        "state": "SP",
        "district": "Residencial Vale Florido",
        "street": "Rua das Violetas",
        "zipcode": "17492-256"
    },
    {
        "city": "Piratininga",
        "state": "SP",
        "district": "Jardim Panorama",
        "street": "Rua Custódio Faria de Moraes",
        "zipcode": "17498-402"
    },
    {
        "city": "Piratininga",
        "state": "SP",
        "district": "Amire Maluf",
        "street": "Rua Dona Nilda Dabus Mendes",
        "zipcode": "17495-004"
    },
    {
        "city": "Piratininga",
        "state": "SP",
        "district": "Vila Santa Maria",
        "street": "Rua Manoel Gomes dos Santos",
        "zipcode": "17490-017"
    },
    {
        "city": "Piratininga",
        "state": "SP",
        "district": "Sebastiana  Garcia Falqueiro",
        "street": "Rua Jose Afonso Castelins",
        "zipcode": "17495-268"
    },
    {
        "city": "Piratininga",
        "state": "SP",
        "district": "Doutor Fernando Eduardo Mendes",
        "street": "Rua Ercilia Vasconcelos dos Santos",
        "zipcode": "17498-010"
    },
    {
        "city": "Piratininga",
        "state": "SP",
        "district": "Doutor Antonio Ferreira do Espirito Santo",
        "street": "Rua Felício Chiecco",
        "zipcode": "17498-050"
    },
    {
        "city": "Piratininga",
        "state": "SP",
        "district": "Vila Soares",
        "street": "Rua Humberto Fraga Moreira",
        "zipcode": "17490-192"
    },
    {
        "city": "Piratininga",
        "state": "SP",
        "district": "Jardim Bela Vista",
        "street": "Rua José Crepaldi",
        "zipcode": "17492-000"
    },
    {
        "city": "Piratininga",
        "state": "SP",
        "district": "Olympio Fernandes",
        "street": "Rua Ezequiel Guedes",
        "zipcode": "17495-292"
    },
    {
        "city": "Piratininga",
        "state": "SP",
        "district": "Distrito Industrial",
        "street": "Rua Luiz Gimenez Mosegose",
        "zipcode": "17499-010"
    },
    {
        "city": "Piratininga",
        "state": "SP",
        "district": "Doutor Antonio Ferreira do Espirito Santo",
        "street": "Rua José Salvadeo",
        "zipcode": "17498-048"
    },
    {
        "city": "Piratininga",
        "state": "SP",
        "district": "Jardim São Francisco",
        "street": "Rua José Moraes Guedes",
        "zipcode": "17498-420"
    },
    {
        "city": "Piratininga",
        "state": "SP",
        "district": "Jardim Vilani",
        "street": "Rua Ercilia Vasconcelos dos Santos",
        "zipcode": "17498-006"
    },
    {
        "city": "Piratininga",
        "state": "SP",
        "district": "Doutor Fernando Eduardo Mendes",
        "street": "Rua Eugênio Bernardineli",
        "zipcode": "17498-014"
    },
    {
        "city": "Piratininga",
        "state": "SP",
        "district": "Jardim Ibituruna",
        "street": "Rua Jacynto Casarini",
        "zipcode": "17492-502"
    },
    {
        "city": "Piratininga",
        "state": "SP",
        "district": "Amire Maluf",
        "street": "Rua Jeronymo Ferreira",
        "zipcode": "17495-000"
    },
    {
        "city": "Piratininga",
        "state": "SP",
        "district": "Professora Célida Aparecida Soares",
        "street": "Rua Manoel Jorge Veríssimo",
        "zipcode": "17495-300"
    },
    {
        "city": "Piratininga",
        "state": "SP",
        "district": "Doutor Antonio Ferreira do Espirito Santo",
        "street": "Rua Guerino Alves",
        "zipcode": "17498-046"
    },
    {
        "city": "Piratininga",
        "state": "SP",
        "district": "Jardim Kirilos",
        "street": "Rua Luiz Guarnieri",
        "zipcode": "17498-064"
    },
    {
        "city": "Piratininga",
        "state": "SP",
        "district": "Jardim Vilani",
        "street": "Rua Irene Azzoni de Lima",
        "zipcode": "17498-004"
    },
    {
        "city": "Piratininga",
        "state": "SP",
        "district": "Luis Faustino de Souza",
        "street": "Rua Luiz Braga",
        "zipcode": "17495-232"
    },
    {
        "city": "Piratininga",
        "state": "SP",
        "district": "Centro",
        "street": "Rua Ibrahim Salim Haddad",
        "zipcode": "17490-098"
    },
    {
        "city": "Piratininga",
        "state": "SP",
        "district": "Luis Faustino de Souza",
        "street": "Rua Ernesto Vidal",
        "zipcode": "17495-234"
    },
    {
        "city": "Piratininga",
        "state": "SP",
        "district": "Vila Santa Maria",
        "street": "Rua Joaquim Pinto da Silva Paes",
        "zipcode": "17490-003"
    },
    {
        "city": "Piratininga",
        "state": "SP",
        "district": "Darcy Pessoa de Araujo",
        "street": "Rua Felipe Neme",
        "zipcode": "17495-250"
    },
    {
        "city": "Piratininga",
        "state": "SP",
        "district": "Jardim Panorama",
        "street": "Rua Joaquim Roque Ribeiro da Silva",
        "zipcode": "17498-400"
    },
    {
        "city": "Piratininga",
        "state": "SP",
        "district": "Jardim Coronel Antonio Carlos da Cunha Castro",
        "street": "Rua Manoel Alves de Lima",
        "zipcode": "17490-044"
    },
    {
        "city": "Piratininga",
        "state": "SP",
        "district": "Padre Unzué Verde",
        "street": "Rua Faustino Ribeiro da Silva",
        "zipcode": "17498-396"
    },
    {
        "city": "Piratininga",
        "state": "SP",
        "district": "Centro",
        "street": "Rua Faustino Ribeiro da Silva",
        "zipcode": "17490-084"
    },
    {
        "city": "Piratininga",
        "state": "SP",
        "district": "Jardim Santa Maria",
        "street": "Rua Halim Saad Farha",
        "zipcode": "17498-038"
    },
    {
        "city": "Piratininga",
        "state": "SP",
        "district": "Jardim Kirilos",
        "street": "Rua Félix Pola",
        "zipcode": "17498-068"
    },
    {
        "city": "Piratininga",
        "state": "SP",
        "district": "Residencial Parque Pontal",
        "street": "Rua José Pardo",
        "zipcode": "17495-342"
    },
    {
        "city": "Piratininga",
        "state": "SP",
        "district": "Centro",
        "street": "Rua José Antunes de Oliveira",
        "zipcode": "17490-052"
    },
    {
        "city": "Piratininga",
        "state": "SP",
        "district": "Centro",
        "street": "Rua Francisco Senise",
        "zipcode": "17490-100"
    },
    {
        "city": "Piratininga",
        "state": "SP",
        "district": "Parque Boa Vista",
        "street": "Rua Felipe Neme",
        "zipcode": "17495-228"
    },
    {
        "city": "Piratininga",
        "state": "SP",
        "district": "Jardim Ibituruna",
        "street": "Rua Felix Escudero Neto",
        "zipcode": "17492-500"
    },
    {
        "city": "Piratininga",
        "state": "SP",
        "district": "Vila Santa Maria",
        "street": "Rua Félix Pola",
        "zipcode": "17490-023"
    },
    {
        "city": "Piratininga",
        "state": "SP",
        "district": "Residencial Vale Florido",
        "street": "Rua João Ferreira Filho",
        "zipcode": "17492-272"
    },
    {
        "city": "Piratininga",
        "state": "SP",
        "district": "Jardim Coronel Antonio Carlos da Cunha Castro",
        "street": "Rua Faustino Ribeiro da Silva",
        "zipcode": "17490-042"
    },
    {
        "city": "Piratininga",
        "state": "SP",
        "district": "Olympio Fernandes",
        "street": "Rua Jose Domingues Caetano",
        "zipcode": "17495-286"
    },
    {
        "city": "Piratininga",
        "state": "SP",
        "district": "Centro",
        "street": "Rua Elias Addad",
        "zipcode": "17490-096"
    },
    {
        "city": "Piratininga",
        "state": "SP",
        "district": "Distrito Industrial",
        "street": "Rua Jose Simões Fontes",
        "zipcode": "17499-006"
    },
    {
        "city": "Piratininga",
        "state": "SP",
        "district": "Olympio Fernandes",
        "street": "Rua Heitor Ferreira da Silva",
        "zipcode": "17495-282"
    },
    {
        "city": "Piratininga",
        "state": "SP",
        "district": "Jardim Kirilos",
        "street": "Rua Ercilia Vasconcelos dos Santos",
        "zipcode": "17498-060"
    },
    {
        "city": "Piratininga",
        "state": "SP",
        "district": "Jardim Kirilos",
        "street": "Rua Francisco Fernandes Moura",
        "zipcode": "17498-062"
    },
    {
        "city": "Piratininga",
        "state": "SP",
        "district": "Olympio Fernandes",
        "street": "Rua José Guedes de Alcantara",
        "zipcode": "17495-290"
    },
    {
        "city": "Piratininga",
        "state": "SP",
        "district": "Doutor Antonio Ferreira do Espirito Santo",
        "street": "Rua Izidorinho Gasparelo",
        "zipcode": "17498-042"
    },
    {
        "city": "Piratininga",
        "state": "SP",
        "district": "Centro",
        "street": "Rua Félix Pola",
        "zipcode": "17490-064"
    },
    {
        "city": "Piratininga",
        "state": "SP",
        "district": "Doutor Fernando Eduardo Mendes",
        "street": "Rua Emigidio Capossoli",
        "zipcode": "17498-022"
    },
    {
        "city": "Piratininga",
        "state": "SP",
        "district": "Jardim Kirilos",
        "street": "Rua Horminio Rodrigues dos Santos",
        "zipcode": "17498-066"
    },
    {
        "city": "Piratininga",
        "state": "SP",
        "district": "Vila Santa Maria",
        "street": "Rua Ercilia Vasconcelos dos Santos",
        "zipcode": "17490-001"
    },
    {
        "city": "Piratininga",
        "state": "SP",
        "district": "Residencial Parque Pontal",
        "street": "Rua Isidoro da Silva Pires",
        "zipcode": "17495-332"
    },
    {
        "city": "Piratininga",
        "state": "SP",
        "district": "Padre Unzué Verde",
        "street": "Rua Irene Azzoni de Lima",
        "zipcode": "17498-394"
    },
    {
        "city": "Piratininga",
        "state": "SP",
        "district": "Centro",
        "street": "Travessa Olavo do Amaral Piza",
        "zipcode": "17490-094"
    },
    {
        "city": "Piratininga",
        "state": "SP",
        "district": "Residencial Primavera",
        "street": "Alameda das Rosas",
        "zipcode": "17492-230"
    },
    {
        "city": "Piratininga",
        "state": "SP",
        "district": "Centro",
        "street": "Rua Raul Gomes dos Santos",
        "zipcode": "17490-088"
    },
    {
        "city": "Piratininga",
        "state": "SP",
        "district": "Residencial Parque Flamboyant",
        "street": "Rua Wilson Mário dos Santos",
        "zipcode": "17492-240"
    },
    {
        "city": "Piratininga",
        "state": "SP",
        "district": "Centro",
        "street": "Rua Manoel Pedro Carneiro",
        "zipcode": "17490-082"
    },
    {
        "city": "Piratininga",
        "state": "SP",
        "district": "Centro",
        "street": "Travessa Nicolino Fittipaldi",
        "zipcode": "17490-060"
    },
    {
        "city": "Piratininga",
        "state": "SP",
        "district": "Jardim Panorama",
        "street": "Rua Miguel Cardador",
        "zipcode": "17498-406"
    },
    {
        "city": "Piratininga",
        "state": "SP",
        "district": "Luis Faustino de Souza",
        "street": "Rua Octavio Beloni",
        "zipcode": "17495-242"
    },
    {
        "city": "Piratininga",
        "state": "SP",
        "district": "Parque Boa Vista",
        "street": "Rua Orlando Picoli",
        "zipcode": "17495-222"
    },
    {
        "city": "Piratininga",
        "state": "SP",
        "district": "Centro",
        "street": "Rua Nair de Carvalho Timachi",
        "zipcode": "17490-102"
    },
    {
        "city": "Piratininga",
        "state": "SP",
        "district": "Vila Santa Maria",
        "street": "Avenida Pioneiros da Cidade",
        "zipcode": "17490-027"
    },
    {
        "city": "Piratininga",
        "state": "SP",
        "district": "Sebastiana  Garcia Falqueiro",
        "street": "Rua Stefano Américo Borro",
        "zipcode": "17495-262"
    },
    {
        "city": "Piratininga",
        "state": "SP",
        "district": "Centro",
        "street": "Travessa João Martins Siqueira",
        "zipcode": "17490-078"
    },
    {
        "city": "Piratininga",
        "state": "SP",
        "district": "Vila Moraes",
        "street": "Rua Sebastião Bernardi",
        "zipcode": "17490-114"
    },
    {
        "city": "Piratininga",
        "state": "SP",
        "district": "Sebastiana  Garcia Falqueiro",
        "street": "Rua Milton Lucas",
        "zipcode": "17495-264"
    },
    {
        "city": "Piratininga",
        "state": "SP",
        "district": "Sebastiana  Garcia Falqueiro",
        "street": "Rua Antonio Escudero",
        "zipcode": "17495-270"
    },
    {
        "city": "Piratininga",
        "state": "SP",
        "district": "Residencial Parque Pontal",
        "street": "Rua Alexandre Gasparello",
        "zipcode": "17495-340"
    },
    {
        "city": "Piratininga",
        "state": "SP",
        "district": "Centro",
        "street": "Rua Margarido Pires",
        "zipcode": "17490-092"
    },
    {
        "city": "Piratininga",
        "state": "SP",
        "district": "Vila Soares",
        "street": "Rua Nair de Carvalho Timachi",
        "zipcode": "17490-180"
    },
    {
        "city": "Piratininga",
        "state": "SP",
        "district": "Parque Fazenda Bandeirantes",
        "street": "Rua Caetano Gurzillo",
        "zipcode": "17492-514"
    },
    {
        "city": "Piratininga",
        "state": "SP",
        "district": "Bichara Maluf",
        "street": "Rua Waldemar Timachi",
        "zipcode": "17495-012"
    },
    {
        "city": "Piratininga",
        "state": "SP",
        "district": "Jardim Coronel Antonio Carlos da Cunha Castro",
        "street": "Rua Anchieta",
        "zipcode": "17490-048"
    },
    {
        "city": "Piratininga",
        "state": "SP",
        "district": "Parque Fazenda Bandeirantes",
        "street": "Rua Odonis Varalta",
        "zipcode": "17492-510"
    },
    {
        "city": "Piratininga",
        "state": "SP",
        "district": "Morada das Flores",
        "street": "Rua 4",
        "zipcode": "17492-296"
    },
    {
        "city": "Piratininga",
        "state": "SP",
        "district": "Vila Santa Maria",
        "street": "Rua 25 de Janeiro",
        "zipcode": "17490-029"
    },
    {
        "city": "Piratininga",
        "state": "SP",
        "district": "Morada das Flores",
        "street": "Rua 1",
        "zipcode": "17492-290"
    },
    {
        "city": "Piratininga",
        "state": "SP",
        "district": "Doutor Antonio Ferreira do Espirito Santo",
        "street": "Rua Octacílio Pinto Ribeiro",
        "zipcode": "17498-052"
    },
    {
        "city": "Piratininga",
        "state": "SP",
        "district": "Jardim São Francisco",
        "street": "Rua Senhora Maria Prates de Moraes",
        "zipcode": "17498-424"
    },
    {
        "city": "Piratininga",
        "state": "SP",
        "district": "Residencial Vale Florido",
        "street": "Rua Senhora Regina Bevilaqua",
        "zipcode": "17492-280"
    },
    {
        "city": "Piratininga",
        "state": "SP",
        "district": "Jardim Bela Vista",
        "street": "Rua 4",
        "zipcode": "17492-006"
    },
    {
        "city": "Piratininga",
        "state": "SP",
        "district": "Jardim Bela Vista",
        "street": "Rua Silvio Poli",
        "zipcode": "17492-004"
    },
    {
        "city": "Piratininga",
        "state": "SP",
        "district": "Jardim Santa Maria",
        "street": "Rua Marmar Antonio Kyrillos",
        "zipcode": "17498-036"
    },
    {
        "city": "Piratininga",
        "state": "SP",
        "district": "Centro",
        "street": "Rua 13 de Maio",
        "zipcode": "17490-080"
    },
    {
        "city": "Piratininga",
        "state": "SP",
        "district": "Professora Célida Aparecida Soares",
        "street": "Rua Wenceslau Ferreira",
        "zipcode": "17495-302"
    },
    {
        "city": "Piratininga",
        "state": "SP",
        "district": "Residencial Serra Verde",
        "street": "Rua 3",
        "zipcode": "17495-324"
    },
    {
        "city": "Piratininga",
        "state": "SP",
        "district": "Vila Soares",
        "street": "Rua Paulo Falqueiro",
        "zipcode": "17490-190"
    },
    {
        "city": "Piratininga",
        "state": "SP",
        "district": "Jardim Panorama",
        "street": "Rua Pedro Diniz",
        "zipcode": "17498-404"
    },
    {
        "city": "Piratininga",
        "state": "SP",
        "district": "Parque Fazenda Bandeirantes",
        "street": "Rua Professor Saul Araken Rocco",
        "zipcode": "17492-512"
    },
    {
        "city": "Piratininga",
        "state": "SP",
        "district": "Jardim Santo Antônio",
        "street": "Avenida Adélia Fernandes Ferreira",
        "zipcode": "17498-380"
    },
    {
        "city": "Piratininga",
        "state": "SP",
        "district": "Distrito Industrial",
        "street": "Rua Ponciano Ruiz",
        "zipcode": "17499-004"
    },
    {
        "city": "Piratininga",
        "state": "SP",
        "district": "Residencial Serra Verde",
        "street": "Rua 2",
        "zipcode": "17495-322"
    },
    {
        "city": "Piratininga",
        "state": "SP",
        "district": "Padre Unzué Verde",
        "street": "Rua Santa Cruz dos Inocentes",
        "zipcode": "17498-390"
    },
    {
        "city": "Piratininga",
        "state": "SP",
        "district": "Centro",
        "street": "Rua 25 de Janeiro",
        "zipcode": "17490-070"
    },
    {
        "city": "Piratininga",
        "state": "SP",
        "district": "Centro",
        "street": "Rua Manoel Teofilo Pinto Ribeiro",
        "zipcode": "17490-072"
    },
    {
        "city": "Piratininga",
        "state": "SP",
        "district": "Doutor Fernando Eduardo Mendes",
        "street": "Rua Othon Rodrigues Neves",
        "zipcode": "17498-026"
    },
    {
        "city": "Piratininga",
        "state": "SP",
        "district": "Residencial Serra Verde",
        "street": "Rua 1",
        "zipcode": "17495-320"
    },
    {
        "city": "Piratininga",
        "state": "SP",
        "district": "Olympio Fernandes",
        "street": "Rua Sargento Olimpio Jose Theodoro",
        "zipcode": "17495-284"
    },
    {
        "city": "Piratininga",
        "state": "SP",
        "district": "Residencial Serra Verde",
        "street": "Rua 4",
        "zipcode": "17495-326"
    },
    {
        "city": "Piratininga",
        "state": "SP",
        "district": "Vila Santa Maria",
        "street": "Rua Santa Cruz dos Inocentes",
        "zipcode": "17490-005"
    },
    {
        "city": "Piratininga",
        "state": "SP",
        "district": "Jardim Santa Maria",
        "street": "Rua Pedro José Kyrilos",
        "zipcode": "17498-032"
    },
    {
        "city": "Piratininga",
        "state": "SP",
        "district": "Vila Soares",
        "street": "Rua 7 de Setembro",
        "zipcode": "17490-184"
    },
    {
        "city": "Piratininga",
        "state": "SP",
        "district": "Residencial Vale Florido",
        "street": "Rua Senhora Maria Munhoz Vaqueiro",
        "zipcode": "17492-276"
    },
    {
        "city": "Piratininga",
        "state": "SP",
        "district": "Luis Faustino de Souza",
        "street": "Rua Felipe Neme",
        "zipcode": "17495-244"
    },
    {
        "city": "Piratininga",
        "state": "SP",
        "district": "Vila Santa Maria",
        "street": "Rua Dona Nilda Dabus Mendes",
        "zipcode": "17490-013"
    },
    {
        "city": "Piratininga",
        "state": "SP",
        "district": "Amire Maluf",
        "street": "Rua Jose Cardoso Franco Neto",
        "zipcode": "17495-002"
    },
    {
        "city": "Piratininga",
        "state": "SP",
        "district": "Padre Unzué Verde",
        "street": "Travessa Padre João Sandoval Pacheco",
        "zipcode": "17498-398"
    },
    {
        "city": "Piratininga",
        "state": "SP",
        "district": "Residencial Vale Florido",
        "street": "Rua das Dracenas",
        "zipcode": "17492-258"
    },
    {
        "city": "Piratininga",
        "state": "SP",
        "district": "Morada das Flores",
        "street": "Rua 2",
        "zipcode": "17492-292"
    },
    {
        "city": "Piratininga",
        "state": "SP",
        "district": "Morada das Flores",
        "street": "Rua 3",
        "zipcode": "17492-294"
    },
    {
        "city": "Piratininga",
        "state": "SP",
        "district": "Doutor Antonio Ferreira do Espirito Santo",
        "street": "Rua Francisco Silvestre dos Santos",
        "zipcode": "17498-040"
    },
    {
        "city": "Piratininga",
        "state": "SP",
        "district": "Sebastiana  Garcia Falqueiro",
        "street": "Rua Sami Elías Farah",
        "zipcode": "17495-272"
    },
    {
        "city": "Piratininga",
        "state": "SP",
        "district": "Vila Santa Maria",
        "street": "Rua Jeronymo Ferreira",
        "zipcode": "17490-011"
    },
    {
        "city": "Piratininga",
        "state": "SP",
        "district": "Real Village",
        "street": "Rua das Bananeiras",
        "zipcode": "17492-542"
    },
    {
        "city": "Piratininga",
        "state": "SP",
        "district": "Vila Santa Maria",
        "street": "Rua Irene Azzoni de Lima",
        "zipcode": "17490-007"
    },
    {
        "city": "Piratininga",
        "state": "SP",
        "district": "Centro",
        "street": "Rua Elias Addad",
        "zipcode": "17490-970"
    },
    {
        "city": "Piratininga",
        "state": "SP",
        "district": "Doutor Antonio Ferreira do Espirito Santo",
        "street": "Rua Odilvo Franzolin",
        "zipcode": "17498-044"
    },
    {
        "city": "Piratininga",
        "state": "SP",
        "district": "Jardim São Francisco",
        "street": "Rua Professora Elisa de Moraes",
        "zipcode": "17498-422"
    },
    {
        "city": "Piratininga",
        "state": "SP",
        "district": "Sebastiana  Garcia Falqueiro",
        "street": "Rua Doutor José Lisboa Júnior",
        "zipcode": "17495-260"
    },
    {
        "city": "Piratininga",
        "state": "SP",
        "district": "Vila Moraes",
        "street": "Rua Nair de Carvalho Timachi",
        "zipcode": "17490-112"
    },
    {
        "city": "Piratininga",
        "state": "SP",
        "district": "Jardim Santa Maria",
        "street": "Rua Ercilia Vasconcelos dos Santos",
        "zipcode": "17498-030"
    },
    {
        "city": "Piratininga",
        "state": "SP",
        "district": "Parque Fazenda Bandeirantes",
        "street": "Rua Eugenio Veronez",
        "zipcode": "17492-520"
    },
    {
        "city": "Piratininga",
        "state": "SP",
        "district": "Vila Soares",
        "street": "Rua Francisco Blagitz",
        "zipcode": "17490-188"
    },
    {
        "city": "Piratininga",
        "state": "SP",
        "district": "Jardim Vilani",
        "street": "Rua Mário Cardoso Castro",
        "zipcode": "17498-000"
    },
    {
        "city": "Piratininga",
        "state": "SP",
        "district": "Professora Célida Aparecida Soares",
        "street": "Rua Luzia Falqueiro de Camargo",
        "zipcode": "17495-312"
    },
    {
        "city": "Piratininga",
        "state": "SP",
        "district": "Residencial Parque Pontal",
        "street": "Rua Toyokisni Mombo",
        "zipcode": "17495-330"
    },
    {
        "city": "Piratininga",
        "state": "SP",
        "district": "Residencial Parque Pontal",
        "street": "Rua Herminio Barbieri",
        "zipcode": "17495-336"
    },
    {
        "city": "Piratininga",
        "state": "SP",
        "district": "Jardim Coronel Antonio Carlos da Cunha Castro",
        "street": "Rua Doutor João Evangelista Bastos",
        "zipcode": "17490-040"
    },
    {
        "city": "Piratininga",
        "state": "SP",
        "district": "Vila Moraes",
        "street": "Rua Doutor Plínio de Godoy",
        "zipcode": "17490-120"
    },
    {
        "city": "Piratininga",
        "state": "SP",
        "district": "Distrito Industrial",
        "street": "Rua Jose Michelotto",
        "zipcode": "17499-008"
    },
    {
        "city": "Piratininga",
        "state": "SP",
        "district": "Residencial Vale Florido",
        "street": "Rua Senhor Teófilo Vaqueiro Rodrigues",
        "zipcode": "17492-278"
    },
    {
        "city": "Piratininga",
        "state": "SP",
        "district": "Padre Unzué Verde",
        "street": "Rua dos Bandeirantes",
        "zipcode": "17498-392"
    },
    {
        "city": "Piratininga",
        "state": "SP",
        "district": "Real Village",
        "street": "Rua das Pitangueiras",
        "zipcode": "17492-536"
    },
    {
        "city": "Piratininga",
        "state": "SP",
        "district": "Chácaras Piratininga",
        "street": "Rua das Primaveras",
        "zipcode": "17499-040"
    },
    {
        "city": "Piratininga",
        "state": "SP",
        "district": "Residencial Serra Verde",
        "street": "Rua 5",
        "zipcode": "17495-328"
    },
    {
        "city": "Piratininga",
        "state": "SP",
        "district": "Real Village",
        "street": "Rua das Mangueiras",
        "zipcode": "17492-540"
    },
    {
        "city": "Piratininga",
        "state": "SP",
        "district": "Brasília Paulista",
        "street": "Avenida Timbyras",
        "zipcode": "17497-008"
    },
    {
        "city": "Piratininga",
        "state": "SP",
        "district": "Solar Primavera",
        "street": "Alameda Copo de leite",
        "zipcode": "17492-202"
    },
    {
        "city": "Piratininga",
        "state": "SP",
        "district": "Brasília Paulista",
        "street": "Rua Itapicurús",
        "zipcode": "17497-006"
    },
    {
        "city": "Piratininga",
        "state": "SP",
        "district": "Brasília Paulista",
        "street": "Avenida Tymborés",
        "zipcode": "17497-013"
    },
    {
        "city": "Piratininga",
        "state": "SP",
        "district": "Centro",
        "street": "Alameda Dona Deolinda Cocito Comini",
        "zipcode": "17490-085"
    },
    {
        "city": "Piratininga",
        "state": "SP",
        "district": "Brasília Paulista",
        "street": "Avenida Piratinins",
        "zipcode": "17497-015"
    },
    {
        "city": "Piratininga",
        "state": "SP",
        "district": "Vila Santa Maria",
        "street": "Praça Firmino Silveira Franco",
        "zipcode": "17490-022"
    },
    {
        "city": "Piratininga",
        "state": "SP",
        "district": "Jardim San Mateo",
        "street": "Rua Armindo Pedro de Oliveira",
        "zipcode": "17498-387"
    },
    {
        "city": "Piratininga",
        "state": "SP",
        "district": "Residencial Eco Quality",
        "street": "Rua Orlando Montagna",
        "zipcode": "17492-703"
    },
    {
        "city": "Piratininga",
        "state": "SP",
        "district": "Residencial Eco Quality",
        "street": "Avenida Delvina Scarmeloto",
        "zipcode": "17492-701"
    },
    {
        "city": "Piratininga",
        "state": "SP",
        "district": "Brasília Paulista",
        "street": "Avenida Tapajós",
        "zipcode": "17497-010"
    },
    {
        "city": "Piratininga",
        "state": "SP",
        "district": "Residencial Eco Quality",
        "street": "Rua Sergio Gazza",
        "zipcode": "17492-706"
    },
    {
        "city": "Piratininga",
        "state": "SP",
        "district": "Residencial Eco Quality",
        "street": "Rua Henrique Jordão",
        "zipcode": "17492-702"
    },
    {
        "city": "Piratininga",
        "state": "SP",
        "district": "Vila Santa Maria",
        "street": "Rua Duque de Caxias",
        "zipcode": "17490-021"
    },
    {
        "city": "Piratininga",
        "state": "SP",
        "district": "Brasília Paulista",
        "street": "Rua Parecys",
        "zipcode": "17497-004"
    },
    {
        "city": "Piratininga",
        "state": "SP",
        "district": "Residencial Eco Quality",
        "street": "Rua Armando Roberto Cardador",
        "zipcode": "17492-707"
    },
    {
        "city": "Piratininga",
        "state": "SP",
        "district": "Luis Faustino de Souza",
        "street": "Avenida Gildo Liguori Ballalai",
        "zipcode": "17495-245"
    },
    {
        "city": "Piratininga",
        "state": "SP",
        "district": "Brasília Paulista",
        "street": "Avenida Rupes",
        "zipcode": "17497-017"
    },
    {
        "city": "Piratininga",
        "state": "SP",
        "district": "Brasília Paulista",
        "street": "Rua Tupys",
        "zipcode": "17497-001"
    },
    {
        "city": "Piratininga",
        "state": "SP",
        "district": "Jardim Ibituruna",
        "street": "Rua Antonio Joaquim de Souza",
        "zipcode": "17492-505"
    },
    {
        "city": "Piratininga",
        "state": "SP",
        "district": "Brasília Paulista",
        "street": "Rua Potyguaras",
        "zipcode": "17497-002"
    },
    {
        "city": "Piratininga",
        "state": "SP",
        "district": "Brasília Paulista",
        "street": "Avenida Bororós",
        "zipcode": "17497-016"
    },
    {
        "city": "Piratininga",
        "state": "SP",
        "district": "Jardim San Mateo",
        "street": "Rua Nelson Braga",
        "zipcode": "17498-388"
    },
    {
        "city": "Piratininga",
        "state": "SP",
        "district": "Residencial Eco Quality",
        "street": "Rua Vereador Elpídio Canaver",
        "zipcode": "17492-708"
    },
    {
        "city": "Piratininga",
        "state": "SP",
        "district": "Residencial Eco Quality",
        "street": "Rua Wilson Gonçalves",
        "zipcode": "17492-711"
    },
    {
        "city": "Piratininga",
        "state": "SP",
        "district": "Solar Primavera",
        "street": "Alameda Íris",
        "zipcode": "17492-205"
    },
    {
        "city": "Piratininga",
        "state": "SP",
        "district": "Residencial Eco Quality",
        "street": "Rua Vereador Dorival Martins",
        "zipcode": "17492-705"
    },
    {
        "city": "Piratininga",
        "state": "SP",
        "district": "Brasília Paulista",
        "street": "Rua Bacuris",
        "zipcode": "17497-007"
    },
    {
        "city": "Piratininga",
        "state": "SP",
        "district": "Brasília Paulista",
        "street": "Avenida Trabijús",
        "zipcode": "17497-014"
    },
    {
        "city": "Piratininga",
        "state": "SP",
        "district": "Solar Primavera",
        "street": "Alameda Antúrio",
        "zipcode": "17492-201"
    },
    {
        "city": "Piratininga",
        "state": "SP",
        "district": "Sebastiana  Garcia Falqueiro",
        "street": "Rua Antonio Favotto",
        "zipcode": "17495-266"
    },
    {
        "city": "Piratininga",
        "state": "SP",
        "district": "Residencial Eco Quality",
        "street": "Rua Afonso Micheloto",
        "zipcode": "17492-710"
    },
    {
        "city": "Piratininga",
        "state": "SP",
        "district": "Brasília Paulista",
        "street": "Rua Chavantes",
        "zipcode": "17497-003"
    },
    {
        "city": "Piratininga",
        "state": "SP",
        "district": "Brasília Paulista",
        "street": "Avenida Cayçaras",
        "zipcode": "17497-009"
    },
    {
        "city": "Piratininga",
        "state": "SP",
        "district": "Jardim San Mateo",
        "street": "Rua Dois",
        "zipcode": "17498-386"
    },
    {
        "city": "Piratininga",
        "state": "SP",
        "district": "Centro",
        "street": "Rodovia Elias Miguel Maluf",
        "zipcode": "17490-105"
    },
    {
        "city": "Piratininga",
        "state": "SP",
        "district": "Parque Fazenda Bandeirantes",
        "street": "Rua Francisco Katz Junior",
        "zipcode": "17492-518"
    },
    {
        "city": "Piratininga",
        "state": "SP",
        "district": "Vila Moraes",
        "street": "Rua Anchieta",
        "zipcode": "17490-110"
    },
    {
        "city": "Piratininga",
        "state": "SP",
        "district": "Residencial Vale Florido",
        "street": "Rua dos Girassóis",
        "zipcode": "17492-250"
    },
    {
        "city": "Piratininga",
        "state": "SP",
        "district": "Olympio Fernandes",
        "street": "Rua Doutor José Lisboa Júnior",
        "zipcode": "17495-280"
    },
    {
        "city": "Piratininga",
        "state": "SP",
        "district": "Residencial Primavera",
        "street": "Alameda das Azaléias",
        "zipcode": "17492-214"
    },
    {
        "city": "Piratininga",
        "state": "SP",
        "district": "Centro",
        "street": "Praça dos Turistas",
        "zipcode": "17490-087"
    },
    {
        "city": "Piratininga",
        "state": "SP",
        "district": "Solar Primavera",
        "street": "Alameda Flor de Liz",
        "zipcode": "17492-203"
    },
    {
        "city": "Piratininga",
        "state": "SP",
        "district": "Parque Fazenda Bandeirantes",
        "street": "Rua Luiz Parizoto",
        "zipcode": "17492-516"
    },
    {
        "city": "Piratininga",
        "state": "SP",
        "district": "Residencial Eco Quality",
        "street": "Rua José Américo Rosa Montagna",
        "zipcode": "17492-709"
    },
    {
        "city": "Piratininga",
        "state": "SP",
        "district": "Parque Boa Vista",
        "street": "Rua Américo Montagna",
        "zipcode": "17495-224"
    },
    {
        "city": "Piratininga",
        "state": "SP",
        "district": "Brasília Paulista",
        "street": "Avenida Coroádos",
        "zipcode": "17497-011"
    },
    {
        "city": "Piratininga",
        "state": "SP",
        "district": "Professora Célida Aparecida Soares",
        "street": "Rua Pastor Nilton Paulo Lira Baro",
        "zipcode": "17495-316"
    },
    {
        "city": "Piratininga",
        "state": "SP",
        "district": "Doutor Fernando Eduardo Mendes",
        "street": "Rua Luis Cavalini",
        "zipcode": "17498-018"
    },
    {
        "city": "Piratininga",
        "state": "SP",
        "district": "Brasília Paulista",
        "street": "Avenida Tamoyos",
        "zipcode": "17497-012"
    },
    {
        "city": "Piratininga",
        "state": "SP",
        "district": "Jardim San Mateo",
        "street": "Rua Um",
        "zipcode": "17498-385"
    },
    {
        "city": "Piratininga",
        "state": "SP",
        "district": "Brasília Paulista",
        "street": "Rua Guayanázes",
        "zipcode": "17497-005"
    },
    {
        "city": "Piratininga",
        "state": "SP",
        "district": "Amire Maluf",
        "street": "Rua Doutor Plínio de Godoy",
        "zipcode": "17495-008"
    },
    {
        "city": "Piratininga",
        "state": "SP",
        "district": "Professora Célida Aparecida Soares",
        "street": "Rua Osni Navarro",
        "zipcode": "17495-306"
    },
    {
        "city": "Piratininga",
        "state": "SP",
        "district": "Doutor Fernando Eduardo Mendes",
        "street": "Rua Professora Magnólia Dotto Bóia",
        "zipcode": "17498-024"
    },
    {
        "city": "Piratininga",
        "state": "SP",
        "district": "Residencial Vale Florido",
        "street": "Rua Senhor João Bento",
        "zipcode": "17492-270"
    },
    {
        "city": "Piratininga",
        "state": "SP",
        "district": "Doutor Fernando Eduardo Mendes",
        "street": "Rua Jose Padilha Sanches",
        "zipcode": "17498-020"
    },
    {
        "city": "Piratininga",
        "state": "SP",
        "district": "Olympio Fernandes",
        "street": "Rua Manoel Jorge Veríssimo",
        "zipcode": "17495-294"
    },
    {
        "city": "Piratininga",
        "state": "SP",
        "district": "Professora Célida Aparecida Soares",
        "street": "Rua Nicanor Álvares",
        "zipcode": "17495-314"
    },
    {
        "city": "Piratininga",
        "state": "SP",
        "district": "Professora Célida Aparecida Soares",
        "street": "Rua Doutor Samir Halim Farha",
        "zipcode": "17495-304"
    },
    {
        "city": "Piratininga",
        "state": "SP",
        "district": "Luis Faustino de Souza",
        "street": "Rua Dona Eurência",
        "zipcode": "17495-238"
    },
    {
        "city": "Piratininga",
        "state": "SP",
        "district": "Olympio Fernandes",
        "street": "Rua José dos Santos Filho",
        "zipcode": "17495-296"
    },
    {
        "city": "Piratininga",
        "state": "SP",
        "district": "Residencial Eco Quality",
        "street": "Rua Antonio Deganuti",
        "zipcode": "17492-704"
    },
    {
        "city": "Piratininga",
        "state": "SP",
        "district": "Doutor Fernando Eduardo Mendes",
        "street": "Rua Egidio Deganutti",
        "zipcode": "17498-016"
    },
    {
        "city": "Piratininga",
        "state": "SP",
        "district": "Residencial Primavera",
        "street": "Alameda das Papoulas",
        "zipcode": "17492-224"
    },
    {
        "city": "Piratininga",
        "state": "SP",
        "district": "Solar Primavera",
        "street": "Alameda Gloriosa",
        "zipcode": "17492-204"
    },
    {
        "city": "Piratininga",
        "state": "SP",
        "district": "Real Village",
        "street": "Rua dos Pessegueiros",
        "zipcode": "17492-538"
    },
    {
        "city": "Piratininga",
        "state": "SP",
        "district": "Residencial Primavera",
        "street": "Alameda dos Cravos",
        "zipcode": "17492-210"
    },
    {
        "city": "Piratininga",
        "state": "SP",
        "district": "Professora Célida Aparecida Soares",
        "street": "Rua Armando Padilha Silva",
        "zipcode": "17495-308"
    },
    {
        "city": "Piratininga",
        "state": "SP",
        "district": "Jardim Vilani",
        "street": "Rua Arquimedes de Rosa",
        "zipcode": "17498-002"
    }
]