[
    {
        "city": "Pirassununga",
        "state": "SP",
        "district": "Vila Belmiro",
        "street": "Rua Natal",
        "zipcode": "13633-508"
    },
    {
        "city": "Pirassununga",
        "state": "SP",
        "district": "Centro",
        "street": "Rua General Osório",
        "zipcode": "13631-060"
    },
    {
        "city": "Pirassununga",
        "state": "SP",
        "district": "Vila Santa Terezinha",
        "street": "Rua General Luiz Barbedo",
        "zipcode": "13636-000"
    },
    {
        "city": "Pirassununga",
        "state": "SP",
        "district": "Jardim São Valentim",
        "street": "Rua João Baptista Batistela",
        "zipcode": "13635-020"
    },
    {
        "city": "Pirassununga",
        "state": "SP",
        "district": "Vila Belmiro",
        "street": "Rua Goiânia",
        "zipcode": "13633-510"
    },
    {
        "city": "Pirassununga",
        "state": "SP",
        "district": "Jardim Cachoeira",
        "street": "Rua Rosa Senhorine Zero",
        "zipcode": "13641-002"
    },
    {
        "city": "Pirassununga",
        "state": "SP",
        "district": "Jardim Roma",
        "street": "Avenida Juca Costa",
        "zipcode": "13631-345"
    },
    {
        "city": "Pirassununga",
        "state": "SP",
        "district": "Jardim Santos Dumont",
        "street": "Rua Palmiro Steola",
        "zipcode": "13631-463"
    },
    {
        "city": "Pirassununga",
        "state": "SP",
        "district": "Jardim Treviso",
        "street": "Rua Luiz Fernando do Couto",
        "zipcode": "13638-413"
    },
    {
        "city": "Pirassununga",
        "state": "SP",
        "district": "Jardim Velloso",
        "street": "Rua José Francisco Ribeiro",
        "zipcode": "13633-576"
    },
    {
        "city": "Pirassununga",
        "state": "SP",
        "district": "Jardim Milenium",
        "street": "Rua Justina Barion Borges",
        "zipcode": "13643-453"
    },
    {
        "city": "Pirassununga",
        "state": "SP",
        "district": "Vila Redenção",
        "street": "Rua Eny Albertina C. Krempell",
        "zipcode": "13633-360"
    },
    {
        "city": "Pirassununga",
        "state": "SP",
        "district": "Vila São Pedro",
        "street": "Rua Albertina de Souza Aguiar",
        "zipcode": "13632-195"
    },
    {
        "city": "Pirassununga",
        "state": "SP",
        "district": "Jardim Roma",
        "street": "Rua General Giuseppe Garibaldi",
        "zipcode": "13631-325"
    },
    {
        "city": "Pirassununga",
        "state": "SP",
        "district": "Centro",
        "street": "Rua General Osório",
        "zipcode": "13630-020"
    },
    {
        "city": "Pirassununga",
        "state": "SP",
        "district": "Vila Militar",
        "street": "Rua General Herbert M. Vasconcelos",
        "zipcode": "13632-066"
    },
    {
        "city": "Pirassununga",
        "state": "SP",
        "district": "Vila Brasil",
        "street": "Rua Santa Catarina",
        "zipcode": "13632-365"
    },
    {
        "city": "Pirassununga",
        "state": "SP",
        "district": "Vila Belmiro",
        "street": "Rua Manaus",
        "zipcode": "13633-504"
    },
    {
        "city": "Pirassununga",
        "state": "SP",
        "district": "Centro",
        "street": "Avenida Padre Antônio Vann Ess",
        "zipcode": "13630-025"
    },
    {
        "city": "Pirassununga",
        "state": "SP",
        "district": "Vila Braz",
        "street": "Rua Antônio Del Nero",
        "zipcode": "13632-047"
    },
    {
        "city": "Pirassununga",
        "state": "SP",
        "district": "Jardim Brasília",
        "street": "Rua Antônio Duarte de Oliveira",
        "zipcode": "13631-609"
    },
    {
        "city": "Pirassununga",
        "state": "SP",
        "district": "Vila Pinheiro",
        "street": "Rua Carlos Renê Schmidt",
        "zipcode": "13630-325"
    },
    {
        "city": "Pirassununga",
        "state": "SP",
        "district": "Centro",
        "street": "Praça Conselheiro Antônio Prado",
        "zipcode": "13630-005"
    },
    {
        "city": "Pirassununga",
        "state": "SP",
        "district": "Vila Guimarães",
        "street": "Rua Doutor Barbosa",
        "zipcode": "13630-150"
    },
    {
        "city": "Pirassununga",
        "state": "SP",
        "district": "Vila Guimarães",
        "street": "Rua Francisco Esperança",
        "zipcode": "13630-160"
    },
    {
        "city": "Pirassununga",
        "state": "SP",
        "district": "Vila Pinheiro",
        "street": "Rua José F. de Albuquerque",
        "zipcode": "13630-300"
    },
    {
        "city": "Pirassununga",
        "state": "SP",
        "district": "Centro",
        "street": "Rua dos Lemes",
        "zipcode": "13630-137"
    },
    {
        "city": "Pirassununga",
        "state": "SP",
        "district": "Vila Guimarães",
        "street": "Rua Luís Benedicto",
        "zipcode": "13630-249"
    },
    {
        "city": "Pirassununga",
        "state": "SP",
        "district": "Centro",
        "street": "Avenida Prudente de Moraes",
        "zipcode": "13630-070"
    },
    {
        "city": "Pirassununga",
        "state": "SP",
        "district": "Centro",
        "street": "Avenida Prudente de Moraes",
        "zipcode": "13631-000"
    },
    {
        "city": "Pirassununga",
        "state": "SP",
        "district": "Jardim São Fernando",
        "street": "Rua Rainha Margarida",
        "zipcode": "13631-150"
    },
    {
        "city": "Pirassununga",
        "state": "SP",
        "district": "Centro",
        "street": "Rua Riachuelo",
        "zipcode": "13630-060"
    },
    {
        "city": "Pirassununga",
        "state": "SP",
        "district": "Centro",
        "street": "Rua Simão Boller",
        "zipcode": "13630-135"
    },
    {
        "city": "Pirassununga",
        "state": "SP",
        "district": "Centro",
        "street": "Rua Siqueira Campos",
        "zipcode": "13630-085"
    },
    {
        "city": "Pirassununga",
        "state": "SP",
        "district": "Centro",
        "street": "Rua Capitão Maneco",
        "zipcode": "13630-050"
    },
    {
        "city": "Pirassununga",
        "state": "SP",
        "district": "Centro",
        "street": "Rua 15 de Novembro",
        "zipcode": "13630-145"
    },
    {
        "city": "Pirassununga",
        "state": "SP",
        "district": "Vertentes do Mamonal",
        "street": "Alameda Curió",
        "zipcode": "13633-702"
    },
    {
        "city": "Pirassununga",
        "state": "SP",
        "district": "Jardim Milenium",
        "street": "Rua Martinho Lutero",
        "zipcode": "13643-490"
    },
    {
        "city": "Pirassununga",
        "state": "SP",
        "district": "Jardim Treviso",
        "street": "Rua Joaquim Thomaz de Godoy",
        "zipcode": "13638-415"
    },
    {
        "city": "Pirassununga",
        "state": "SP",
        "district": "Vila dos Oficiais",
        "street": "Rua D30",
        "zipcode": "13643-228"
    },
    {
        "city": "Pirassununga",
        "state": "SP",
        "district": "Jardim Cachoeira",
        "street": "Rua Particular",
        "zipcode": "13641-006"
    },
    {
        "city": "Pirassununga",
        "state": "SP",
        "district": "Vila dos Oficiais",
        "street": "Rua D13",
        "zipcode": "13643-224"
    },
    {
        "city": "Pirassununga",
        "state": "SP",
        "district": "Jardim Treviso",
        "street": "Rua Hebe Nouer",
        "zipcode": "13638-409"
    },
    {
        "city": "Pirassununga",
        "state": "SP",
        "district": "Jardim Milenium",
        "street": "Rua Jair dos Santos",
        "zipcode": "13643-494"
    },
    {
        "city": "Pirassununga",
        "state": "SP",
        "district": "Jardim dos Ipês",
        "street": "Rua Estado de Israel",
        "zipcode": "13633-386"
    },
    {
        "city": "Pirassununga",
        "state": "SP",
        "district": "Jardim Treviso",
        "street": "Rua Nelson Augusto de Sousa",
        "zipcode": "13638-411"
    },
    {
        "city": "Pirassununga",
        "state": "SP",
        "district": "Vila dos Oficiais",
        "street": "Rua D04",
        "zipcode": "13643-206"
    },
    {
        "city": "Pirassununga",
        "state": "SP",
        "district": "Vertentes do Mamonal",
        "street": "Alameda Cardeal",
        "zipcode": "13633-709"
    },
    {
        "city": "Pirassununga",
        "state": "SP",
        "district": "Jardim Treviso",
        "street": "Rua Ermínio Viotto",
        "zipcode": "13638-401"
    },
    {
        "city": "Pirassununga",
        "state": "SP",
        "district": "Jardim Veneza",
        "street": "Rua Levino Malachias Ferreira",
        "zipcode": "13630-840"
    },
    {
        "city": "Pirassununga",
        "state": "SP",
        "district": "Centro",
        "street": "Rua General Osório",
        "zipcode": "13630-970"
    },
    {
        "city": "Pirassununga",
        "state": "SP",
        "district": "Centro",
        "street": "Ladeira Padre Felipe",
        "zipcode": "13631-005"
    },
    {
        "city": "Pirassununga",
        "state": "SP",
        "district": "Parque dos Eucaliptos",
        "street": "Rua Antônio Cerqueira Pinto",
        "zipcode": "13633-108"
    },
    {
        "city": "Pirassununga",
        "state": "SP",
        "district": "Jardim Carlos Gomes",
        "street": "Avenida Antônio Joaquim Mendes",
        "zipcode": "13633-030"
    },
    {
        "city": "Pirassununga",
        "state": "SP",
        "district": "Jardim Kamel",
        "street": "Rua Ceará",
        "zipcode": "13632-420"
    },
    {
        "city": "Pirassununga",
        "state": "SP",
        "district": "Jardim Planalto",
        "street": "Rua Clóvis Arruda Santos",
        "zipcode": "13631-494"
    },
    {
        "city": "Pirassununga",
        "state": "SP",
        "district": "Jardim Lauro Pozzi",
        "street": "Rua Doutor Paulo Marsiglio",
        "zipcode": "13633-326"
    },
    {
        "city": "Pirassununga",
        "state": "SP",
        "district": "Vila Esperança",
        "street": "Rua Equador",
        "zipcode": "13635-112"
    },
    {
        "city": "Pirassununga",
        "state": "SP",
        "district": "Jardim Margarida",
        "street": "Rua Ettore Baggio",
        "zipcode": "13630-618"
    },
    {
        "city": "Pirassununga",
        "state": "SP",
        "district": "Vila Redenção",
        "street": "Rua José Osório Rodrigues",
        "zipcode": "13633-378"
    },
    {
        "city": "Pirassununga",
        "state": "SP",
        "district": "Jardim Treviso",
        "street": "Rua Darci Domingos",
        "zipcode": "13638-425"
    },
    {
        "city": "Pirassununga",
        "state": "SP",
        "district": "Jardim Veneza II",
        "street": "Rua José Pereira Borges",
        "zipcode": "13630-850"
    },
    {
        "city": "Pirassununga",
        "state": "SP",
        "district": "Jardim Treviso",
        "street": "Rua João de Oliveira",
        "zipcode": "13638-423"
    },
    {
        "city": "Pirassununga",
        "state": "SP",
        "district": "Jardim Milenium",
        "street": "Rua João Flores",
        "zipcode": "13643-491"
    },
    {
        "city": "Pirassununga",
        "state": "SP",
        "district": "Jardim dos Ipês",
        "street": "Rua Estela Tavoni Serafim",
        "zipcode": "13633-384"
    },
    {
        "city": "Pirassununga",
        "state": "SP",
        "district": "Vila Pinheiro",
        "street": "Rua José Pedro Dias de Godoy",
        "zipcode": "13630-380"
    },
    {
        "city": "Pirassununga",
        "state": "SP",
        "district": "Vila Guilhermina",
        "street": "Avenida José Xavier de Souza",
        "zipcode": "13634-224"
    },
    {
        "city": "Pirassununga",
        "state": "SP",
        "district": "Vila Braz",
        "street": "Rua Luiz do Rego",
        "zipcode": "13632-048"
    },
    {
        "city": "Pirassununga",
        "state": "SP",
        "district": "Centro",
        "street": "Avenida Newton Prado",
        "zipcode": "13631-040"
    },
    {
        "city": "Pirassununga",
        "state": "SP",
        "district": "Jardim Ferrarezzi",
        "street": "Rua Rita Gomes de Oliveira Godoy",
        "zipcode": "13636-148"
    },
    {
        "city": "Pirassununga",
        "state": "SP",
        "district": "Jardim Brasília",
        "street": "Rua Romildo Colognesi",
        "zipcode": "13631-612"
    },
    {
        "city": "Pirassununga",
        "state": "SP",
        "district": "Centro",
        "street": "Rua Siqueira Campos",
        "zipcode": "13631-015"
    },
    {
        "city": "Pirassununga",
        "state": "SP",
        "district": "Jardim Leonor Cristina",
        "street": "Rua Tomaz Spoljaric",
        "zipcode": "13630-606"
    },
    {
        "city": "Pirassununga",
        "state": "SP",
        "district": "Vila Nova",
        "street": "Rua 6 de Agosto",
        "zipcode": "13632-300"
    },
    {
        "city": "Pirassununga",
        "state": "SP",
        "district": "Jardim Leonor Cristina",
        "street": "Rua Etore Marquizelli",
        "zipcode": "13630-602"
    },
    {
        "city": "Pirassununga",
        "state": "SP",
        "district": "Vila Guilhermina",
        "street": "Rua Professor Ariel Bayeux",
        "zipcode": "13634-209"
    },
    {
        "city": "Pirassununga",
        "state": "SP",
        "district": "Vila Steola",
        "street": "Rua Visconde do Rio Branco",
        "zipcode": "13634-049"
    },
    {
        "city": "Pirassununga",
        "state": "SP",
        "district": "Vila Santa Fé",
        "street": "Rua Santa Tereza",
        "zipcode": "13640-435"
    },
    {
        "city": "Pirassununga",
        "state": "SP",
        "district": "Vila dos Oficiais",
        "street": "Rua D12",
        "zipcode": "13643-222"
    },
    {
        "city": "Pirassununga",
        "state": "SP",
        "district": "Jardim Bela Vista",
        "street": "Rua Domingos Rissi",
        "zipcode": "13640-501"
    },
    {
        "city": "Pirassununga",
        "state": "SP",
        "district": "Jardim Nossa Senhora Aparecida",
        "street": "Rua Nossa Senhora de Lourdes",
        "zipcode": "13641-082"
    },
    {
        "city": "Pirassununga",
        "state": "SP",
        "district": "Jardim Anversa",
        "street": "Rua Ângelo Carbonaro",
        "zipcode": "13631-700"
    },
    {
        "city": "Pirassununga",
        "state": "SP",
        "district": "Cidade Jardim",
        "street": "Passeio dos Pioneiros",
        "zipcode": "13632-527"
    },
    {
        "city": "Pirassununga",
        "state": "SP",
        "district": "Parque Clayton Malaman",
        "street": "Rua Edvaldo Osório Pereira da Silva",
        "zipcode": "13635-238"
    },
    {
        "city": "Pirassununga",
        "state": "SP",
        "district": "Jardim Itália",
        "street": "Rua Antoninho Fermino Miano de Oliveira",
        "zipcode": "13630-702"
    },
    {
        "city": "Pirassununga",
        "state": "SP",
        "district": "Jardim Itália",
        "street": "Rua Luiara dos Santos Duarte",
        "zipcode": "13630-704"
    },
    {
        "city": "Pirassununga",
        "state": "SP",
        "district": "Jardim Itália",
        "street": "Rua Cyro Franco de Toledo",
        "zipcode": "13630-718"
    },
    {
        "city": "Pirassununga",
        "state": "SP",
        "district": "Jardim Veneza",
        "street": "Rua Benedito Tavares",
        "zipcode": "13630-825"
    },
    {
        "city": "Pirassununga",
        "state": "SP",
        "district": "Cidade Jardim",
        "street": "Rua Martimiano dos Santos",
        "zipcode": "13632-586"
    },
    {
        "city": "Pirassununga",
        "state": "SP",
        "district": "Centro",
        "street": "Avenida Juca Costa",
        "zipcode": "13630-147"
    },
    {
        "city": "Pirassununga",
        "state": "SP",
        "district": "Jardim Eldorado",
        "street": "Rua Chico Mestre",
        "zipcode": "13630-501"
    },
    {
        "city": "Pirassununga",
        "state": "SP",
        "district": "Jardim Velloso",
        "street": "Rua André Benine",
        "zipcode": "13633-579"
    },
    {
        "city": "Pirassununga",
        "state": "SP",
        "district": "Jardim Cachoeira",
        "street": "Praça Santos Dumont",
        "zipcode": "13641-000"
    },
    {
        "city": "Pirassununga",
        "state": "SP",
        "district": "Vertentes do Mamonal",
        "street": "Alameda Uirapuru",
        "zipcode": "13633-712"
    },
    {
        "city": "Pirassununga",
        "state": "SP",
        "district": "Cidade Jardim",
        "street": "Praça dos Bandeirantes",
        "zipcode": "13632-552"
    },
    {
        "city": "Pirassununga",
        "state": "SP",
        "district": "Vila dos Cabos e Taifeiros",
        "street": "Rua E42",
        "zipcode": "13643-103"
    },
    {
        "city": "Pirassununga",
        "state": "SP",
        "district": "Centro",
        "street": "Praça Vieira de Moraes",
        "zipcode": "13631-063"
    },
    {
        "city": "Pirassununga",
        "state": "SP",
        "district": "Cidade Jardim",
        "street": "Praça das Palmeiras",
        "zipcode": "13632-498"
    },
    {
        "city": "Pirassununga",
        "state": "SP",
        "district": "Vila Real",
        "street": "Rua Manoel F. Camargo",
        "zipcode": "13638-010"
    },
    {
        "city": "Pirassununga",
        "state": "SP",
        "district": "Vila Santa Fé",
        "street": "Rua Santa Helena",
        "zipcode": "13640-430"
    },
    {
        "city": "Pirassununga",
        "state": "SP",
        "district": "Jardim Bandeirantes",
        "street": "Estrada Aguaí",
        "zipcode": "13631-972"
    },
    {
        "city": "Pirassununga",
        "state": "SP",
        "district": "Centro",
        "street": "Avenida Newton Prado",
        "zipcode": "13631-970"
    },
    {
        "city": "Pirassununga",
        "state": "SP",
        "district": "Centro",
        "street": "Avenida Duque de Caxias Norte",
        "zipcode": "13630-905"
    },
    {
        "city": "Pirassununga",
        "state": "SP",
        "district": "Área Rural de Pirassununga",
        "street": "Área Rural",
        "zipcode": "13644-899"
    },
    {
        "city": "Pirassununga",
        "state": "SP",
        "district": "Parque dos Eucaliptos",
        "street": "Rua Arlindo Borges",
        "zipcode": "13633-084"
    },
    {
        "city": "Pirassununga",
        "state": "SP",
        "district": "Vila Brasil",
        "street": "Rua Bahia",
        "zipcode": "13632-400"
    },
    {
        "city": "Pirassununga",
        "state": "SP",
        "district": "Cidade Jardim",
        "street": "Alameda dos Bandeirantes",
        "zipcode": "13632-550"
    },
    {
        "city": "Pirassununga",
        "state": "SP",
        "district": "Vila Nova",
        "street": "Rua Benedito de Freitas",
        "zipcode": "13632-301"
    },
    {
        "city": "Pirassununga",
        "state": "SP",
        "district": "Cidade Jardim",
        "street": "Alameda das Cabriuvas",
        "zipcode": "13632-575"
    },
    {
        "city": "Pirassununga",
        "state": "SP",
        "district": "Vila Industrial",
        "street": "Rua Capitão Octaviano José Corrêa",
        "zipcode": "13631-301"
    },
    {
        "city": "Pirassununga",
        "state": "SP",
        "district": "Jardim Carlos Gomes",
        "street": "Rua Cecílio Carlos da Silva",
        "zipcode": "13631-112"
    },
    {
        "city": "Pirassununga",
        "state": "SP",
        "district": "Jardim Santa Rita",
        "street": "Rua Estevam Gomes Machado Júnior",
        "zipcode": "13631-210"
    },
    {
        "city": "Pirassununga",
        "state": "SP",
        "district": "Jardim Morumbi",
        "street": "Rua Fernando Luiz Landgraf",
        "zipcode": "13631-645"
    },
    {
        "city": "Pirassununga",
        "state": "SP",
        "district": "Vila São Pedro",
        "street": "Rua Francisco Caruso",
        "zipcode": "13632-110"
    },
    {
        "city": "Pirassununga",
        "state": "SP",
        "district": "Vila dos Cabos e Taifeiros",
        "street": "Rua E43",
        "zipcode": "13643-104"
    },
    {
        "city": "Pirassununga",
        "state": "SP",
        "district": "Vila dos Oficiais",
        "street": "Rua D01",
        "zipcode": "13643-200"
    },
    {
        "city": "Pirassununga",
        "state": "SP",
        "district": "Jardim Cachoeira",
        "street": "Rua Virgílio Baggio",
        "zipcode": "13641-004"
    },
    {
        "city": "Pirassununga",
        "state": "SP",
        "district": "Vila dos Cabos e Taifeiros",
        "street": "Rua E40",
        "zipcode": "13643-101"
    },
    {
        "city": "Pirassununga",
        "state": "SP",
        "district": "Jardim Velloso",
        "street": "Rua Renato Cenzi",
        "zipcode": "13633-582"
    },
    {
        "city": "Pirassununga",
        "state": "SP",
        "district": "Jardim São Fernando",
        "street": "Rua das Gardênias",
        "zipcode": "13631-162"
    },
    {
        "city": "Pirassununga",
        "state": "SP",
        "district": "Jardim Pavesi",
        "street": "Rua Guilherme Silva",
        "zipcode": "13631-228"
    },
    {
        "city": "Pirassununga",
        "state": "SP",
        "district": "Vila Constituição",
        "street": "Rua Homero Mendes",
        "zipcode": "13632-214"
    },
    {
        "city": "Pirassununga",
        "state": "SP",
        "district": "Cidade Jardim",
        "street": "Praça dos Ipês",
        "zipcode": "13632-482"
    },
    {
        "city": "Pirassununga",
        "state": "SP",
        "district": "Jardim Santos Dumont",
        "street": "Rua João Corradine",
        "zipcode": "13631-460"
    },
    {
        "city": "Pirassununga",
        "state": "SP",
        "district": "Jardim Bandeirantes",
        "street": "Rua João Tavelini",
        "zipcode": "13631-664"
    },
    {
        "city": "Pirassununga",
        "state": "SP",
        "district": "Jardim Bandeirantes",
        "street": "Rua João Wegmuller",
        "zipcode": "13631-660"
    },
    {
        "city": "Pirassununga",
        "state": "SP",
        "district": "Jardim Planalto",
        "street": "Rua Joaquim V. dos Santos",
        "zipcode": "13631-498"
    },
    {
        "city": "Pirassununga",
        "state": "SP",
        "district": "Jardim Brasília",
        "street": "Rua José Dioguinho Baldovinoti",
        "zipcode": "13631-600"
    },
    {
        "city": "Pirassununga",
        "state": "SP",
        "district": "Cidade Jardim",
        "street": "Praça das Laranjeiras",
        "zipcode": "13632-493"
    },
    {
        "city": "Pirassununga",
        "state": "SP",
        "district": "Vila São Pedro",
        "street": "Avenida Luiz Brancode Miranda Sobrinho",
        "zipcode": "13632-113"
    },
    {
        "city": "Pirassununga",
        "state": "SP",
        "district": "Jardim Bandeirantes",
        "street": "Rua Luiz Fernando Andrielli",
        "zipcode": "13631-665"
    },
    {
        "city": "Pirassununga",
        "state": "SP",
        "district": "Vila Braz",
        "street": "Rua Major João da Motta Cabral",
        "zipcode": "13632-025"
    },
    {
        "city": "Pirassununga",
        "state": "SP",
        "district": "Cidade Jardim",
        "street": "Alameda das Margaridas",
        "zipcode": "13632-496"
    },
    {
        "city": "Pirassununga",
        "state": "SP",
        "district": "Jardim Carlos Gomes",
        "street": "Rua Ovídio Ravanini",
        "zipcode": "13633-033"
    },
    {
        "city": "Pirassununga",
        "state": "SP",
        "district": "Vila Braz",
        "street": "Rua Paulo Limoeiro",
        "zipcode": "13632-010"
    },
    {
        "city": "Pirassununga",
        "state": "SP",
        "district": "Jardim Kamel",
        "street": "Rua Piauí",
        "zipcode": "13632-422"
    },
    {
        "city": "Pirassununga",
        "state": "SP",
        "district": "Cidade Jardim",
        "street": "Caminho dos Sabiás",
        "zipcode": "13632-540"
    },
    {
        "city": "Pirassununga",
        "state": "SP",
        "district": "Cidade Jardim",
        "street": "Alameda das Samambaias",
        "zipcode": "13632-468"
    },
    {
        "city": "Pirassununga",
        "state": "SP",
        "district": "Jardim Santa Rita",
        "street": "Rua São Judas Tadeu",
        "zipcode": "13631-223"
    },
    {
        "city": "Pirassununga",
        "state": "SP",
        "district": "Cidade Jardim",
        "street": "Alameda das Sibipirunas",
        "zipcode": "13632-574"
    },
    {
        "city": "Pirassununga",
        "state": "SP",
        "district": "Vila Braz",
        "street": "Rua Vergílio Messa",
        "zipcode": "13632-034"
    },
    {
        "city": "Pirassununga",
        "state": "SP",
        "district": "Jardim Morumbi",
        "street": "Rua Zahia Atala Elmor",
        "zipcode": "13631-657"
    },
    {
        "city": "Pirassununga",
        "state": "SP",
        "district": "Centro",
        "street": "Rua 7 de Setembro",
        "zipcode": "13631-068"
    },
    {
        "city": "Pirassununga",
        "state": "SP",
        "district": "Vila Militar",
        "street": "Rua Avaí",
        "zipcode": "13632-062"
    },
    {
        "city": "Pirassununga",
        "state": "SP",
        "district": "Centro",
        "street": "Rua Frederico Port",
        "zipcode": "13631-087"
    },
    {
        "city": "Pirassununga",
        "state": "SP",
        "district": "Loteamento Verona",
        "street": "Rua Joaquim Silveira Mello",
        "zipcode": "13632-335"
    },
    {
        "city": "Pirassununga",
        "state": "SP",
        "district": "Vila Brasil",
        "street": "Rua Pernambuco",
        "zipcode": "13632-375"
    },
    {
        "city": "Pirassununga",
        "state": "SP",
        "district": "Cidade Jardim",
        "street": "Alameda dos Caiapós",
        "zipcode": "13632-554"
    },
    {
        "city": "Pirassununga",
        "state": "SP",
        "district": "Vila São Pedro",
        "street": "Rua Ricieri Lodi",
        "zipcode": "13632-169"
    },
    {
        "city": "Pirassununga",
        "state": "SP",
        "district": "Jardim Carlos Gomes",
        "street": "Rua Cosmo Mistieri",
        "zipcode": "13633-075"
    },
    {
        "city": "Pirassununga",
        "state": "SP",
        "district": "Jardim Residence Rio Verde",
        "street": "Rua Alzira Godoy",
        "zipcode": "13635-195"
    },
    {
        "city": "Pirassununga",
        "state": "SP",
        "district": "Centro",
        "street": "Rua Theodoro Mac Cann",
        "zipcode": "13631-971"
    },
    {
        "city": "Pirassununga",
        "state": "SP",
        "district": "Residencial Ilha do Sol",
        "street": "Rua Isac Mauro Alves de Godoy",
        "zipcode": "13632-804"
    },
    {
        "city": "Pirassununga",
        "state": "SP",
        "district": "Jardim Velloso",
        "street": "Rua Angélico Berretta",
        "zipcode": "13633-585"
    },
    {
        "city": "Pirassununga",
        "state": "SP",
        "district": "Jardim São Fernando",
        "street": "Rua Zênia",
        "zipcode": "13631-135"
    },
    {
        "city": "Pirassununga",
        "state": "SP",
        "district": "Distrito Industrial",
        "street": "Rodovia Anhangüera Km 207",
        "zipcode": "13633-901"
    },
    {
        "city": "Pirassununga",
        "state": "SP",
        "district": "Jardim Lauro Pozzi",
        "street": "Avenida Ângelo Bruno",
        "zipcode": "13633-310"
    },
    {
        "city": "Pirassununga",
        "state": "SP",
        "district": "Vila Redenção",
        "street": "Rua Ângelo Vasconi",
        "zipcode": "13633-379"
    },
    {
        "city": "Pirassununga",
        "state": "SP",
        "district": "Vila Steola",
        "street": "Rua Antenor de Godoy",
        "zipcode": "13634-058"
    },
    {
        "city": "Pirassununga",
        "state": "SP",
        "district": "Vila Guilhermina",
        "street": "Avenida Ataliba Penteado",
        "zipcode": "13634-204"
    },
    {
        "city": "Pirassununga",
        "state": "SP",
        "district": "Jardim Elite",
        "street": "Rua Barão de Mauá",
        "zipcode": "13635-015"
    },
    {
        "city": "Pirassununga",
        "state": "SP",
        "district": "Vila Esperança",
        "street": "Rua Bolívia",
        "zipcode": "13635-107"
    },
    {
        "city": "Pirassununga",
        "state": "SP",
        "district": "Vila Santa Terezinha",
        "street": "Rua Capitão Zacarias",
        "zipcode": "13636-125"
    },
    {
        "city": "Pirassununga",
        "state": "SP",
        "district": "Distrito Industrial",
        "street": "Rua Carlos Tassoni",
        "zipcode": "13633-418"
    },
    {
        "city": "Pirassununga",
        "state": "SP",
        "district": "Vila Santa Terezinha",
        "street": "Rua Delfino Telles",
        "zipcode": "13636-030"
    },
    {
        "city": "Pirassununga",
        "state": "SP",
        "district": "Vila Redenção",
        "street": "Rua Doutor Fariz Miguel",
        "zipcode": "13633-366"
    },
    {
        "city": "Pirassununga",
        "state": "SP",
        "district": "Vila Esperança",
        "street": "Rua Estados Unidos",
        "zipcode": "13635-115"
    },
    {
        "city": "Pirassununga",
        "state": "SP",
        "district": "Jardim das Laranjeiras",
        "street": "Rua Francisco Sacco",
        "zipcode": "13635-168"
    },
    {
        "city": "Pirassununga",
        "state": "SP",
        "district": "Jardim Rosim",
        "street": "Rua Henrique Devitte",
        "zipcode": "13634-100"
    },
    {
        "city": "Pirassununga",
        "state": "SP",
        "district": "Jardim Rosim",
        "street": "Rua Jaime Dolfini",
        "zipcode": "13634-110"
    },
    {
        "city": "Pirassununga",
        "state": "SP",
        "district": "Vertentes do Mamonal",
        "street": "Estrada Levy Ramos",
        "zipcode": "13633-707"
    },
    {
        "city": "Pirassununga",
        "state": "SP",
        "district": "Jardim Cidade Nova",
        "street": "Rua José Arlindo Dorta",
        "zipcode": "13633-603"
    },
    {
        "city": "Pirassununga",
        "state": "SP",
        "district": "Vila dos Oficiais",
        "street": "Rua D02",
        "zipcode": "13643-202"
    },
    {
        "city": "Pirassununga",
        "state": "SP",
        "district": "Jardim Redentor",
        "street": "Rua João Felício Filho",
        "zipcode": "13635-077"
    },
    {
        "city": "Pirassununga",
        "state": "SP",
        "district": "Jardim São Lucas",
        "street": "Rua Joaquim Pereira de Araújo",
        "zipcode": "13635-080"
    },
    {
        "city": "Pirassununga",
        "state": "SP",
        "district": "Jardim São Valentim",
        "street": "Rua José Antônio Ubaldo",
        "zipcode": "13635-025"
    },
    {
        "city": "Pirassununga",
        "state": "SP",
        "district": "Vila São Guido",
        "street": "Rua José Augusto",
        "zipcode": "13636-310"
    },
    {
        "city": "Pirassununga",
        "state": "SP",
        "district": "Distrito Industrial",
        "street": "Rua José Francisco de Souza",
        "zipcode": "13633-412"
    },
    {
        "city": "Pirassununga",
        "state": "SP",
        "district": "Parque dos Eucaliptos",
        "street": "Rua José Gatti",
        "zipcode": "13633-087"
    },
    {
        "city": "Pirassununga",
        "state": "SP",
        "district": "Jardim das Laranjeiras",
        "street": "Rua José Montanheiro",
        "zipcode": "13635-172"
    },
    {
        "city": "Pirassununga",
        "state": "SP",
        "district": "Jardim América",
        "street": "Rua Luiz Tesch",
        "zipcode": "13634-264"
    },
    {
        "city": "Pirassununga",
        "state": "SP",
        "district": "Parque dos Eucaliptos",
        "street": "Rua Madre Cândida Rosa",
        "zipcode": "13633-109"
    },
    {
        "city": "Pirassununga",
        "state": "SP",
        "district": "Vila Esperança",
        "street": "Avenida das Nações",
        "zipcode": "13635-098"
    },
    {
        "city": "Pirassununga",
        "state": "SP",
        "district": "Vila Malaquias",
        "street": "Rua Nicolau Januzzi",
        "zipcode": "13636-133"
    },
    {
        "city": "Pirassununga",
        "state": "SP",
        "district": "Vila Belmiro",
        "street": "Rua Niterói",
        "zipcode": "13633-517"
    },
    {
        "city": "Pirassununga",
        "state": "SP",
        "district": "Jardim São Lucas",
        "street": "Rua Orlando Pegoraro",
        "zipcode": "13635-088"
    },
    {
        "city": "Pirassununga",
        "state": "SP",
        "district": "Jardim Lauro Pozzi",
        "street": "Rua Paulo Soares de Araújo",
        "zipcode": "13633-327"
    },
    {
        "city": "Pirassununga",
        "state": "SP",
        "district": "Rosário",
        "street": "Rua Pedro Pavani",
        "zipcode": "13634-009"
    },
    {
        "city": "Pirassununga",
        "state": "SP",
        "district": "Jardim Elite",
        "street": "Rua Princesa Isabel",
        "zipcode": "13635-013"
    },
    {
        "city": "Pirassununga",
        "state": "SP",
        "district": "Vila Guilhermina",
        "street": "Rua Professor Sebastião Arruda Sobrinho",
        "zipcode": "13634-216"
    },
    {
        "city": "Pirassununga",
        "state": "SP",
        "district": "Jardim Ferrarezzi",
        "street": "Rua Raimundo Rivas de C. Lima",
        "zipcode": "13636-160"
    },
    {
        "city": "Pirassununga",
        "state": "SP",
        "district": "Jardim das Laranjeiras",
        "street": "Rua Raphael R. Osada",
        "zipcode": "13635-180"
    },
    {
        "city": "Pirassununga",
        "state": "SP",
        "district": "Jardim das Laranjeiras",
        "street": "Rua Reverendo Israel Vieira Pereira",
        "zipcode": "13635-128"
    },
    {
        "city": "Pirassununga",
        "state": "SP",
        "district": "Jardim São Valentim",
        "street": "Rua Sebastião Alves Ferraz",
        "zipcode": "13635-045"
    },
    {
        "city": "Pirassununga",
        "state": "SP",
        "district": "Vila Esperança",
        "street": "Rua Uruguai",
        "zipcode": "13635-100"
    },
    {
        "city": "Pirassununga",
        "state": "SP",
        "district": "Jardim das Laranjeiras",
        "street": "Rua Olga de Souza Krempel",
        "zipcode": "13635-120"
    },
    {
        "city": "Pirassununga",
        "state": "SP",
        "district": "Parque dos Eucaliptos",
        "street": "Rodovia Anhangüera",
        "zipcode": "13634-240"
    },
    {
        "city": "Pirassununga",
        "state": "SP",
        "district": "Jardim São Valentim",
        "street": "Rua João Del Santo",
        "zipcode": "13635-022"
    },
    {
        "city": "Pirassununga",
        "state": "SP",
        "district": "Vila Santa Fé",
        "street": "Rua Santa Isabel",
        "zipcode": "13640-403"
    },
    {
        "city": "Pirassununga",
        "state": "SP",
        "district": "Rosário",
        "street": "Rua Erotides de Campos",
        "zipcode": "13634-040"
    },
    {
        "city": "Pirassununga",
        "state": "SP",
        "district": "Vertentes do Mamonal",
        "street": "Alameda Graúna",
        "zipcode": "13633-704"
    },
    {
        "city": "Pirassununga",
        "state": "SP",
        "district": "Vertentes do Mamonal",
        "street": "Alameda João",
        "zipcode": "13633-706"
    },
    {
        "city": "Pirassununga",
        "state": "SP",
        "district": "Jardim Elite",
        "street": "Rua Nilo Maialle",
        "zipcode": "13635-002"
    },
    {
        "city": "Pirassununga",
        "state": "SP",
        "district": "Jardim Petrópolis",
        "street": "Rua Duílio Valsecchi",
        "zipcode": "13634-323"
    },
    {
        "city": "Pirassununga",
        "state": "SP",
        "district": "Parque Clayton Malaman",
        "street": "Rua Antonio Augusto Guelli",
        "zipcode": "13635-201"
    },
    {
        "city": "Pirassununga",
        "state": "SP",
        "district": "Parque Clayton Malaman",
        "street": "Rua Joaquim Francisco de Oliveira",
        "zipcode": "13635-220"
    },
    {
        "city": "Pirassununga",
        "state": "SP",
        "district": "Parque Clayton Malaman",
        "street": "Rua José Darcy Hernandes",
        "zipcode": "13635-222"
    },
    {
        "city": "Pirassununga",
        "state": "SP",
        "district": "Jardim Verona II",
        "street": "Rua João Antonio Merighe",
        "zipcode": "13643-330"
    },
    {
        "city": "Pirassununga",
        "state": "SP",
        "district": "Jardim Milenium",
        "street": "Avenida Paul Harris",
        "zipcode": "13643-450"
    },
    {
        "city": "Pirassununga",
        "state": "SP",
        "district": "Jardim Milenium",
        "street": "Rua Maria José Metzner",
        "zipcode": "13643-459"
    },
    {
        "city": "Pirassununga",
        "state": "SP",
        "district": "Centro",
        "street": "Rua Andradas",
        "zipcode": "13630-100"
    },
    {
        "city": "Pirassununga",
        "state": "SP",
        "district": "Vila Pinheiro",
        "street": "Rua Antônio de Souza Mourão",
        "zipcode": "13630-345"
    },
    {
        "city": "Pirassununga",
        "state": "SP",
        "district": "Vila Pinheiro",
        "street": "Rua Antônio Magnani",
        "zipcode": "13630-310"
    },
    {
        "city": "Pirassununga",
        "state": "SP",
        "district": "Vila Pinheiro",
        "street": "Rua Capitão Zico de Arruda",
        "zipcode": "13630-320"
    },
    {
        "city": "Pirassununga",
        "state": "SP",
        "district": "Centro",
        "street": "Rua Coronel Franco",
        "zipcode": "13630-136"
    },
    {
        "city": "Pirassununga",
        "state": "SP",
        "district": "Centro",
        "street": "Rua Dom Pedro II",
        "zipcode": "13630-138"
    },
    {
        "city": "Pirassununga",
        "state": "SP",
        "district": "Vila Pinheiro",
        "street": "Rua Doutor Miguel Vieira Ferreira",
        "zipcode": "13630-360"
    },
    {
        "city": "Pirassununga",
        "state": "SP",
        "district": "Vila Guimarães",
        "street": "Rua Doutor Moretz Shons",
        "zipcode": "13630-170"
    },
    {
        "city": "Pirassununga",
        "state": "SP",
        "district": "Vila Pinheiro",
        "street": "Rua João Manoel Pinto",
        "zipcode": "13630-305"
    },
    {
        "city": "Pirassununga",
        "state": "SP",
        "district": "Vila Urupês",
        "street": "Rua João Pion",
        "zipcode": "13630-275"
    },
    {
        "city": "Pirassununga",
        "state": "SP",
        "district": "Vila Urupês",
        "street": "Rua Joaquim Alves da Silva",
        "zipcode": "13630-270"
    },
    {
        "city": "Pirassununga",
        "state": "SP",
        "district": "Vila Pinheiro",
        "street": "Rua Joaquim Vicente da Silva",
        "zipcode": "13630-358"
    },
    {
        "city": "Pirassununga",
        "state": "SP",
        "district": "Vila Pinheiro",
        "street": "Rua José Grisi",
        "zipcode": "13630-375"
    },
    {
        "city": "Pirassununga",
        "state": "SP",
        "district": "Centro",
        "street": "Rua Major Pereira",
        "zipcode": "13630-040"
    },
    {
        "city": "Pirassununga",
        "state": "SP",
        "district": "Jardim São Fernando",
        "street": "Rua das Orquídeas",
        "zipcode": "13631-114"
    },
    {
        "city": "Pirassununga",
        "state": "SP",
        "district": "Centro",
        "street": "Praça Vieira de Moraes",
        "zipcode": "13631-902"
    },
    {
        "city": "Pirassununga",
        "state": "SP",
        "district": "Vila Urupês",
        "street": "Avenida Painguás",
        "zipcode": "13630-272"
    },
    {
        "city": "Pirassununga",
        "state": "SP",
        "district": "Vila Esperança",
        "street": "Rua Panamá",
        "zipcode": "13635-097"
    },
    {
        "city": "Pirassununga",
        "state": "SP",
        "district": "Centro",
        "street": "Avenida Prudente de Moraes",
        "zipcode": "13630-075"
    },
    {
        "city": "Pirassununga",
        "state": "SP",
        "district": "Centro",
        "street": "Rua Regente Feijó",
        "zipcode": "13630-125"
    },
    {
        "city": "Pirassununga",
        "state": "SP",
        "district": "Vila Pinheiro",
        "street": "Rua Reverendo Belmiro de Andrade",
        "zipcode": "13630-370"
    },
    {
        "city": "Pirassununga",
        "state": "SP",
        "district": "Vila Guimarães",
        "street": "Rua Santa Cruz",
        "zipcode": "13630-190"
    },
    {
        "city": "Pirassununga",
        "state": "SP",
        "district": "Centro",
        "street": "Rua da Saudade",
        "zipcode": "13630-080"
    },
    {
        "city": "Pirassununga",
        "state": "SP",
        "district": "Centro",
        "street": "Rua 7 de Setembro",
        "zipcode": "13630-110"
    },
    {
        "city": "Pirassununga",
        "state": "SP",
        "district": "Centro",
        "street": "Rua Bom Jesus",
        "zipcode": "13630-105"
    },
    {
        "city": "Pirassununga",
        "state": "SP",
        "district": "Jardim Primavera",
        "street": "Rodovia Anhangüera",
        "zipcode": "13637-000"
    },
    {
        "city": "Pirassununga",
        "state": "SP",
        "district": "Centro",
        "street": "Rua 15 de Novembro",
        "zipcode": "13630-140"
    },
    {
        "city": "Pirassununga",
        "state": "SP",
        "district": "Centro",
        "street": "Rua Pereira Bueno",
        "zipcode": "13630-030"
    },
    {
        "city": "Pirassununga",
        "state": "SP",
        "district": "Centro",
        "street": "Rua Visconde do Rio Branco",
        "zipcode": "13630-115"
    },
    {
        "city": "Pirassununga",
        "state": "SP",
        "district": "Vila Guimarães",
        "street": "Rua Francisco José Vieira",
        "zipcode": "13630-215"
    },
    {
        "city": "Pirassununga",
        "state": "SP",
        "district": "Centro",
        "street": "Rua Joaquim Procópio de Araújo",
        "zipcode": "13630-082"
    },
    {
        "city": "Pirassununga",
        "state": "SP",
        "district": "Vila Santa Fé",
        "street": "Rua São Sebastião",
        "zipcode": "13640-408"
    },
    {
        "city": "Pirassununga",
        "state": "SP",
        "district": "Vila Santa Fé",
        "street": "Rua São Pedro",
        "zipcode": "13640-409"
    },
    {
        "city": "Pirassununga",
        "state": "SP",
        "district": "Vila Santa Fé",
        "street": "Rua Santa Clara",
        "zipcode": "13640-436"
    },
    {
        "city": "Pirassununga",
        "state": "SP",
        "district": "Vila Santa Fé",
        "street": "Rua Major José Alves de Moraes",
        "zipcode": "13640-440"
    },
    {
        "city": "Pirassununga",
        "state": "SP",
        "district": "Jardim Limoeiro",
        "street": "Rua Antônio Rissi",
        "zipcode": "13641-054"
    },
    {
        "city": "Pirassununga",
        "state": "SP",
        "district": "Vila dos Sargentos e Sub Oficiais",
        "street": "Rua E09",
        "zipcode": "13643-014"
    },
    {
        "city": "Pirassununga",
        "state": "SP",
        "district": "Vila dos Sargentos e Sub Oficiais",
        "street": "Rua E10",
        "zipcode": "13643-016"
    },
    {
        "city": "Pirassununga",
        "state": "SP",
        "district": "Jardim Limoeiro",
        "street": "Rua Eunildo Cremonesi",
        "zipcode": "13641-044"
    },
    {
        "city": "Pirassununga",
        "state": "SP",
        "district": "Jardim Limoeiro",
        "street": "Rua Jaime F. Silveira",
        "zipcode": "13641-045"
    },
    {
        "city": "Pirassununga",
        "state": "SP",
        "district": "Jardim Limoeiro",
        "street": "Rua João Gaspar Letordi",
        "zipcode": "13641-047"
    },
    {
        "city": "Pirassununga",
        "state": "SP",
        "district": "Jardim Bela Vista",
        "street": "Rua José Degobi",
        "zipcode": "13640-503"
    },
    {
        "city": "Pirassununga",
        "state": "SP",
        "district": "Jardim Nossa Senhora Aparecida",
        "street": "Rua Nossa Senhora das Dores",
        "zipcode": "13641-086"
    },
    {
        "city": "Pirassununga",
        "state": "SP",
        "district": "Jardim Cachoeira",
        "street": "Rua Men Xavier da Silveira",
        "zipcode": "13641-005"
    },
    {
        "city": "Pirassununga",
        "state": "SP",
        "district": "Jardim Milenium",
        "street": "Rua Antonia Bianco",
        "zipcode": "13643-474"
    },
    {
        "city": "Pirassununga",
        "state": "SP",
        "district": "Jardim Residence Rio Verde",
        "street": "Rua Maria Conceição Marcomini Belloni",
        "zipcode": "13635-189"
    },
    {
        "city": "Pirassununga",
        "state": "SP",
        "district": "Jardim Residence Rio Verde",
        "street": "Rua João Milaré Sobrinho",
        "zipcode": "13635-196"
    },
    {
        "city": "Pirassununga",
        "state": "SP",
        "district": "Jardim Velloso",
        "street": "Rua Maria Joaquim Garcia",
        "zipcode": "13633-573"
    },
    {
        "city": "Pirassununga",
        "state": "SP",
        "district": "Vertentes do Mamonal",
        "street": "Alameda Canário",
        "zipcode": "13633-715"
    },
    {
        "city": "Pirassununga",
        "state": "SP",
        "district": "Vila Pinheiro",
        "street": "Rua Otto Schubart",
        "zipcode": "13630-295"
    },
    {
        "city": "Pirassununga",
        "state": "SP",
        "district": "Centro",
        "street": "Rua Antônio Gambagorte",
        "zipcode": "13631-096"
    },
    {
        "city": "Pirassununga",
        "state": "SP",
        "district": "Jardim São Fernando",
        "street": "Rua dos Antúrios",
        "zipcode": "13631-125"
    },
    {
        "city": "Pirassununga",
        "state": "SP",
        "district": "Jardim Margarida",
        "street": "Rua Benedito Sampaio",
        "zipcode": "13630-614"
    },
    {
        "city": "Pirassununga",
        "state": "SP",
        "district": "Centro",
        "street": "Rua Capitão Evaristo",
        "zipcode": "13631-009"
    },
    {
        "city": "Pirassununga",
        "state": "SP",
        "district": "Centro",
        "street": "Alameda Cônego Francisco Cruz",
        "zipcode": "13631-049"
    },
    {
        "city": "Pirassununga",
        "state": "SP",
        "district": "Centro",
        "street": "Rua Coronel Jeremias J. de Almeida",
        "zipcode": "13631-098"
    },
    {
        "city": "Pirassununga",
        "state": "SP",
        "district": "Centro",
        "street": "Travessa Fernando Braun",
        "zipcode": "13631-072"
    },
    {
        "city": "Pirassununga",
        "state": "SP",
        "district": "Vila Pinheiro",
        "street": "Rua Guido Trevisan",
        "zipcode": "13630-450"
    },
    {
        "city": "Pirassununga",
        "state": "SP",
        "district": "Jardim Leonor Cristina",
        "street": "Rua Ido Gennari",
        "zipcode": "13630-604"
    },
    {
        "city": "Pirassununga",
        "state": "SP",
        "district": "Jardim São Fernando",
        "street": "Rua Íris",
        "zipcode": "13631-115"
    },
    {
        "city": "Pirassununga",
        "state": "SP",
        "district": "Jardim Lauro Pozzi",
        "street": "Rua Ivan Clayton de Oliveira",
        "zipcode": "13633-334"
    },
    {
        "city": "Pirassununga",
        "state": "SP",
        "district": "Centro",
        "street": "Rua Joaquim Conceição",
        "zipcode": "13631-085"
    },
    {
        "city": "Pirassununga",
        "state": "SP",
        "district": "Jardim Margarida",
        "street": "Rua Joaquim do Marco",
        "zipcode": "13630-626"
    },
    {
        "city": "Pirassununga",
        "state": "SP",
        "district": "Jardim Margarida",
        "street": "Rua Jorge Chamas Sobrinho",
        "zipcode": "13630-620"
    },
    {
        "city": "Pirassununga",
        "state": "SP",
        "district": "Centro",
        "street": "Rua José Bonifácio",
        "zipcode": "13631-062"
    },
    {
        "city": "Pirassununga",
        "state": "SP",
        "district": "Jardim Margarida",
        "street": "Rua José Carlos L. F. Guimarães",
        "zipcode": "13630-613"
    },
    {
        "city": "Pirassununga",
        "state": "SP",
        "district": "Distrito Industrial",
        "street": "Rua Genésio De Bem",
        "zipcode": "13633-428"
    },
    {
        "city": "Pirassununga",
        "state": "SP",
        "district": "Jardim Velloso",
        "street": "Rua Pedro Zanini",
        "zipcode": "13633-570"
    },
    {
        "city": "Pirassununga",
        "state": "SP",
        "district": "Jardim Do Lago",
        "street": "Rua Dos Jaburus",
        "zipcode": "13633-100"
    },
    {
        "city": "Pirassununga",
        "state": "SP",
        "district": "Jardim Margarida",
        "street": "Rua José de Franceschi",
        "zipcode": "13630-612"
    },
    {
        "city": "Pirassununga",
        "state": "SP",
        "district": "Centro",
        "street": "Rua José Sundfeld",
        "zipcode": "13631-070"
    },
    {
        "city": "Pirassununga",
        "state": "SP",
        "district": "Jardim São Fernando",
        "street": "Rua dos Lírios",
        "zipcode": "13631-116"
    },
    {
        "city": "Pirassununga",
        "state": "SP",
        "district": "Jardim Margarida",
        "street": "Rua Manoel de Castro Mendes",
        "zipcode": "13630-616"
    },
    {
        "city": "Pirassununga",
        "state": "SP",
        "district": "Jardim Margarida",
        "street": "Rua Mário C. DElia",
        "zipcode": "13630-628"
    },
    {
        "city": "Pirassununga",
        "state": "SP",
        "district": "Jardim Leonor Cristina",
        "street": "Rua Oscar Vadt",
        "zipcode": "13630-610"
    },
    {
        "city": "Pirassununga",
        "state": "SP",
        "district": "Centro",
        "street": "Praça Santo Antônio",
        "zipcode": "13631-082"
    },
    {
        "city": "Pirassununga",
        "state": "SP",
        "district": "Centro",
        "street": "Rua Siqueira Campos",
        "zipcode": "13631-010"
    },
    {
        "city": "Pirassununga",
        "state": "SP",
        "district": "Centro",
        "street": "Rua Siqueira Campos",
        "zipcode": "13631-018"
    },
    {
        "city": "Pirassununga",
        "state": "SP",
        "district": "Centro",
        "street": "Rua 1 de Maio",
        "zipcode": "13631-094"
    },
    {
        "city": "Pirassununga",
        "state": "SP",
        "district": "Centro",
        "street": "Rua 13 de Maio",
        "zipcode": "13631-030"
    },
    {
        "city": "Pirassununga",
        "state": "SP",
        "district": "Centro",
        "street": "Rua Bom Jesus",
        "zipcode": "13631-066"
    },
    {
        "city": "Pirassununga",
        "state": "SP",
        "district": "Jardim Margarida",
        "street": "Rua Cosmo Fuzaro",
        "zipcode": "13630-622"
    },
    {
        "city": "Pirassununga",
        "state": "SP",
        "district": "Centro",
        "street": "Rua Doutor João Antônio Del Nero",
        "zipcode": "13631-102"
    },
    {
        "city": "Pirassununga",
        "state": "SP",
        "district": "Centro",
        "street": "Travessa Nossa Senhora Aparecida",
        "zipcode": "13631-050"
    },
    {
        "city": "Pirassununga",
        "state": "SP",
        "district": "Centro",
        "street": "Rua Galício Del Nero",
        "zipcode": "13631-002"
    },
    {
        "city": "Pirassununga",
        "state": "SP",
        "district": "Vila Pinheiro",
        "street": "Rua Duque de Caxias",
        "zipcode": "13630-390"
    },
    {
        "city": "Pirassununga",
        "state": "SP",
        "district": "Jardim Santa Rita",
        "street": "Avenida Engenheiro Josias de Oliveira",
        "zipcode": "13631-215"
    },
    {
        "city": "Pirassununga",
        "state": "SP",
        "district": "Vila Industrial",
        "street": "Rua Alan Kardec",
        "zipcode": "13631-300"
    },
    {
        "city": "Pirassununga",
        "state": "SP",
        "district": "Jardim Santos Dumont",
        "street": "Rua Américo Aggio",
        "zipcode": "13631-450"
    },
    {
        "city": "Pirassununga",
        "state": "SP",
        "district": "Jardim Brasília",
        "street": "Rua Ângelo Pavão",
        "zipcode": "13631-614"
    },
    {
        "city": "Pirassununga",
        "state": "SP",
        "district": "Jardim Olímpio Felício",
        "street": "Rua Ângelo Sinotti",
        "zipcode": "13632-093"
    },
    {
        "city": "Pirassununga",
        "state": "SP",
        "district": "Jardim Itália",
        "street": "Rua Aristides Silva",
        "zipcode": "13630-710"
    },
    {
        "city": "Pirassununga",
        "state": "SP",
        "district": "Jardim Itália",
        "street": "Rua Archangelo Magro",
        "zipcode": "13630-712"
    },
    {
        "city": "Pirassununga",
        "state": "SP",
        "district": "Jardim Itália",
        "street": "Rua Theodoro Travaggim",
        "zipcode": "13630-716"
    },
    {
        "city": "Pirassununga",
        "state": "SP",
        "district": "Jardim Itália",
        "street": "Rua Ricardo Ruggeri",
        "zipcode": "13630-720"
    },
    {
        "city": "Pirassununga",
        "state": "SP",
        "district": "Jardim Santa Rita",
        "street": "Rua Domingos Devitte",
        "zipcode": "13631-166"
    },
    {
        "city": "Pirassununga",
        "state": "SP",
        "district": "Jardim Veneza",
        "street": "Rua Doutor Arthur Vieira de Moraes",
        "zipcode": "13630-800"
    },
    {
        "city": "Pirassununga",
        "state": "SP",
        "district": "Jardim Veneza",
        "street": "Rua Luiz Torresan",
        "zipcode": "13630-805"
    },
    {
        "city": "Pirassununga",
        "state": "SP",
        "district": "Jardim Veneza",
        "street": "Rua Octávio Rosolém",
        "zipcode": "13630-810"
    },
    {
        "city": "Pirassununga",
        "state": "SP",
        "district": "Jardim Veneza",
        "street": "Rua Miguel Cicalla",
        "zipcode": "13630-815"
    },
    {
        "city": "Pirassununga",
        "state": "SP",
        "district": "Jardim Veneza",
        "street": "Rua Evasio Perez",
        "zipcode": "13630-830"
    },
    {
        "city": "Pirassununga",
        "state": "SP",
        "district": "Jardim Veneza",
        "street": "Rua Maria Divina Lopes Batista",
        "zipcode": "13630-835"
    },
    {
        "city": "Pirassununga",
        "state": "SP",
        "district": "Jardim Terras de San José",
        "street": "Rua José Antonio Dias",
        "zipcode": "13643-300"
    },
    {
        "city": "Pirassununga",
        "state": "SP",
        "district": "Jardim Europa",
        "street": "Rua Benedito Colombo",
        "zipcode": "13634-507"
    },
    {
        "city": "Pirassununga",
        "state": "SP",
        "district": "Jardim Do Lago",
        "street": "Rua Das Garcas",
        "zipcode": "13633-104"
    },
    {
        "city": "Pirassununga",
        "state": "SP",
        "district": "Jardim São Jorge",
        "street": "Rua Simira Mix Araújo Maciel",
        "zipcode": "13632-706"
    },
    {
        "city": "Pirassununga",
        "state": "SP",
        "district": "Jardim Roma",
        "street": "Rua Antônio C. de Franceschi",
        "zipcode": "13631-335"
    },
    {
        "city": "Pirassununga",
        "state": "SP",
        "district": "Jardim Santos Dumont",
        "street": "Rua Armando Bonafe",
        "zipcode": "13631-462"
    },
    {
        "city": "Pirassununga",
        "state": "SP",
        "district": "Vila Braz",
        "street": "Rua Astolfo Costa",
        "zipcode": "13632-042"
    },
    {
        "city": "Pirassununga",
        "state": "SP",
        "district": "Jardim Santos Dumont",
        "street": "Rua Cherubim Bueno da Silva Júnior",
        "zipcode": "13631-464"
    },
    {
        "city": "Pirassununga",
        "state": "SP",
        "district": "Jardim Pavesi",
        "street": "Rua David Fernandes",
        "zipcode": "13631-226"
    },
    {
        "city": "Pirassununga",
        "state": "SP",
        "district": "Jardim Morumbi",
        "street": "Rua Eduardo Araium",
        "zipcode": "13631-640"
    },
    {
        "city": "Pirassununga",
        "state": "SP",
        "district": "Vila Braz",
        "street": "Rua Érico Neves Mello",
        "zipcode": "13632-015"
    },
    {
        "city": "Pirassununga",
        "state": "SP",
        "district": "Vila Braz",
        "street": "Rua Fábio Ferreira Veloso",
        "zipcode": "13632-030"
    },
    {
        "city": "Pirassununga",
        "state": "SP",
        "district": "Jardim Morumbi",
        "street": "Rua Fernando Costa Filho",
        "zipcode": "13631-650"
    },
    {
        "city": "Pirassununga",
        "state": "SP",
        "district": "Jardim Pavesi",
        "street": "Rua Guilherme Alfredo Giraldi",
        "zipcode": "13631-225"
    },
    {
        "city": "Pirassununga",
        "state": "SP",
        "district": "Vila Braz",
        "street": "Rua João de Paula",
        "zipcode": "13632-039"
    },
    {
        "city": "Pirassununga",
        "state": "SP",
        "district": "Jardim Brasília",
        "street": "Rua João Marra",
        "zipcode": "13631-610"
    },
    {
        "city": "Pirassununga",
        "state": "SP",
        "district": "Jardim Pavesi",
        "street": "Rua Joaquim Eduardo Mendes",
        "zipcode": "13631-250"
    },
    {
        "city": "Pirassununga",
        "state": "SP",
        "district": "Jardim Morumbi",
        "street": "Rua Jonas Batista de Castro",
        "zipcode": "13631-630"
    },
    {
        "city": "Pirassununga",
        "state": "SP",
        "district": "Jardim Morumbi",
        "street": "Rua José Peres",
        "zipcode": "13631-656"
    },
    {
        "city": "Pirassununga",
        "state": "SP",
        "district": "Jardim Brasília",
        "street": "Rua Lourenço Batel",
        "zipcode": "13631-605"
    },
    {
        "city": "Pirassununga",
        "state": "SP",
        "district": "Jardim Planalto",
        "street": "Rua Luís Baldim",
        "zipcode": "13631-496"
    },
    {
        "city": "Pirassununga",
        "state": "SP",
        "district": "Jardim São Fernando",
        "street": "Rua das Magnólias",
        "zipcode": "13631-160"
    },
    {
        "city": "Pirassununga",
        "state": "SP",
        "district": "Vila Braz",
        "street": "Rua Major Rolla",
        "zipcode": "13632-044"
    },
    {
        "city": "Pirassununga",
        "state": "SP",
        "district": "Vila Braz",
        "street": "Rua Manoel de Bem",
        "zipcode": "13632-032"
    },
    {
        "city": "Pirassununga",
        "state": "SP",
        "district": "Vila Militar",
        "street": "Avenida Marechal José P. C. Albuquerque",
        "zipcode": "13632-050"
    },
    {
        "city": "Pirassununga",
        "state": "SP",
        "district": "Jardim Morumbi",
        "street": "Rua Osvaldo Roberto do Vale",
        "zipcode": "13631-625"
    },
    {
        "city": "Pirassununga",
        "state": "SP",
        "district": "Jardim Santa Rita",
        "street": "Rua Otaviano A. Pavesi",
        "zipcode": "13631-185"
    },
    {
        "city": "Pirassununga",
        "state": "SP",
        "district": "Jardim Pavesi",
        "street": "Rua Otto Zoega",
        "zipcode": "13631-230"
    },
    {
        "city": "Pirassununga",
        "state": "SP",
        "district": "Jardim Olímpio Felício",
        "street": "Rua Paschoal Banin",
        "zipcode": "13632-091"
    },
    {
        "city": "Pirassununga",
        "state": "SP",
        "district": "Vila Braz",
        "street": "Rua Professor Mário Zoega",
        "zipcode": "13632-040"
    },
    {
        "city": "Pirassununga",
        "state": "SP",
        "district": "Jardim Santa Rita",
        "street": "Rua Santos Dumont",
        "zipcode": "13631-165"
    },
    {
        "city": "Pirassununga",
        "state": "SP",
        "district": "Jardim Santa Rita",
        "street": "Rua São João",
        "zipcode": "13631-224"
    },
    {
        "city": "Pirassununga",
        "state": "SP",
        "district": "Jardim Santa Rita",
        "street": "Rua São José",
        "zipcode": "13631-170"
    },
    {
        "city": "Pirassununga",
        "state": "SP",
        "district": "Jardim Santa Rita",
        "street": "Rua São Paulo",
        "zipcode": "13631-220"
    },
    {
        "city": "Pirassununga",
        "state": "SP",
        "district": "Jardim Brasília",
        "street": "Rua Sílvio Gravena",
        "zipcode": "13631-608"
    },
    {
        "city": "Pirassununga",
        "state": "SP",
        "district": "Jardim São Fernando",
        "street": "Rua das Acácias",
        "zipcode": "13631-130"
    },
    {
        "city": "Pirassununga",
        "state": "SP",
        "district": "Jardim Brasília",
        "street": "Rua Affonso Baptista",
        "zipcode": "13631-607"
    },
    {
        "city": "Pirassununga",
        "state": "SP",
        "district": "Vila Militar",
        "street": "Rua Antônio João",
        "zipcode": "13632-060"
    },
    {
        "city": "Pirassununga",
        "state": "SP",
        "district": "Vila Braz",
        "street": "Rua Santo Antônio",
        "zipcode": "13632-000"
    },
    {
        "city": "Pirassununga",
        "state": "SP",
        "district": "Jardim São Fernando",
        "street": "Rua das Verbenas",
        "zipcode": "13631-155"
    },
    {
        "city": "Pirassununga",
        "state": "SP",
        "district": "Jardim São Fernando",
        "street": "Rua das Begônias",
        "zipcode": "13631-140"
    },
    {
        "city": "Pirassununga",
        "state": "SP",
        "district": "Vila Militar",
        "street": "Rua Andrade Neves",
        "zipcode": "13632-055"
    },
    {
        "city": "Pirassununga",
        "state": "SP",
        "district": "Vila Industrial",
        "street": "Rua Sofia Levy",
        "zipcode": "13631-275"
    },
    {
        "city": "Pirassununga",
        "state": "SP",
        "district": "Jardim Santos Dumont",
        "street": "Rua André Luiz de Oliveira Penteado Junior",
        "zipcode": "13631-467"
    },
    {
        "city": "Pirassununga",
        "state": "SP",
        "district": "Jardim Anversa",
        "street": "Rua Atílio Maggio",
        "zipcode": "13631-703"
    },
    {
        "city": "Pirassununga",
        "state": "SP",
        "district": "Jardim Anversa",
        "street": "Rua Calixto Salles",
        "zipcode": "13631-706"
    },
    {
        "city": "Pirassununga",
        "state": "SP",
        "district": "Jardim Anversa",
        "street": "Rua Manoel Rodrigues da Silva",
        "zipcode": "13631-712"
    },
    {
        "city": "Pirassununga",
        "state": "SP",
        "district": "Vila São Pedro",
        "street": "Avenida Acácio Honda",
        "zipcode": "13632-150"
    },
    {
        "city": "Pirassununga",
        "state": "SP",
        "district": "Cidade Jardim",
        "street": "Alameda das Açucenas",
        "zipcode": "13632-460"
    },
    {
        "city": "Pirassununga",
        "state": "SP",
        "district": "Vila São Pedro",
        "street": "Avenida Alfio Savastano",
        "zipcode": "13632-101"
    },
    {
        "city": "Pirassununga",
        "state": "SP",
        "district": "Vila São Pedro",
        "street": "Rua Américo Senna",
        "zipcode": "13632-162"
    },
    {
        "city": "Pirassununga",
        "state": "SP",
        "district": "Jardim Olímpio Felício",
        "street": "Rua Amundson Aily",
        "zipcode": "13632-098"
    },
    {
        "city": "Pirassununga",
        "state": "SP",
        "district": "Cidade Jardim",
        "street": "Praça Anchieta",
        "zipcode": "13632-465"
    },
    {
        "city": "Pirassununga",
        "state": "SP",
        "district": "Vila Paulista",
        "street": "Rua Antônio Angelino Conceição",
        "zipcode": "13632-278"
    },
    {
        "city": "Pirassununga",
        "state": "SP",
        "district": "Vila São Pedro",
        "street": "Rua Antônio Zanirato",
        "zipcode": "13632-190"
    },
    {
        "city": "Pirassununga",
        "state": "SP",
        "district": "Cidade Jardim",
        "street": "Caminho dos Beija",
        "zipcode": "13632-547"
    },
    {
        "city": "Pirassununga",
        "state": "SP",
        "district": "Jardim Roma",
        "street": "Rua General Luiz F. de Mattos",
        "zipcode": "13631-330"
    },
    {
        "city": "Pirassununga",
        "state": "SP",
        "district": "Vila Militar",
        "street": "Rua General Paiva Chaves",
        "zipcode": "13632-069"
    },
    {
        "city": "Pirassununga",
        "state": "SP",
        "district": "Cidade Jardim",
        "street": "Caminho dos Bem",
        "zipcode": "13632-548"
    },
    {
        "city": "Pirassununga",
        "state": "SP",
        "district": "Cidade Jardim",
        "street": "Alameda dos Caetés",
        "zipcode": "13632-562"
    },
    {
        "city": "Pirassununga",
        "state": "SP",
        "district": "Loteamento Verona",
        "street": "Rua Caio Assumpção",
        "zipcode": "13632-330"
    },
    {
        "city": "Pirassununga",
        "state": "SP",
        "district": "Cidade Jardim",
        "street": "Caminho dos Canários da Terra",
        "zipcode": "13632-532"
    },
    {
        "city": "Pirassununga",
        "state": "SP",
        "district": "Cidade Jardim",
        "street": "Caminho dos Cardeais",
        "zipcode": "13632-534"
    },
    {
        "city": "Pirassununga",
        "state": "SP",
        "district": "Vila Constituição",
        "street": "Rua da Constituição",
        "zipcode": "13632-215"
    },
    {
        "city": "Pirassununga",
        "state": "SP",
        "district": "Cidade Jardim",
        "street": "Alameda dos Corimbatas",
        "zipcode": "13632-466"
    },
    {
        "city": "Pirassununga",
        "state": "SP",
        "district": "Vila Constituição",
        "street": "Rua Durval Muller",
        "zipcode": "13632-212"
    },
    {
        "city": "Pirassununga",
        "state": "SP",
        "district": "Loteamento Verona",
        "street": "Rua Emília Verona",
        "zipcode": "13632-357"
    },
    {
        "city": "Pirassununga",
        "state": "SP",
        "district": "Cidade Jardim",
        "street": "Avenida das Flores",
        "zipcode": "13632-490"
    },
    {
        "city": "Pirassununga",
        "state": "SP",
        "district": "Vila Paulista",
        "street": "Rua Francisco Caetano do Carmo",
        "zipcode": "13632-276"
    },
    {
        "city": "Pirassununga",
        "state": "SP",
        "district": "Cidade Jardim",
        "street": "Alameda das Gardênias",
        "zipcode": "13632-480"
    },
    {
        "city": "Pirassununga",
        "state": "SP",
        "district": "Cidade Jardim",
        "street": "Alameda dos Gerânios",
        "zipcode": "13632-492"
    },
    {
        "city": "Pirassununga",
        "state": "SP",
        "district": "Vila Brasil",
        "street": "Rua Goiás",
        "zipcode": "13632-390"
    },
    {
        "city": "Pirassununga",
        "state": "SP",
        "district": "Cidade Jardim",
        "street": "Caminho dos Guarás",
        "zipcode": "13632-542"
    },
    {
        "city": "Pirassununga",
        "state": "SP",
        "district": "Vila Paulista",
        "street": "Rua Henrique Marucci",
        "zipcode": "13632-272"
    },
    {
        "city": "Pirassununga",
        "state": "SP",
        "district": "Vila São Pedro",
        "street": "Rua Ignácio F. da Silveira",
        "zipcode": "13632-210"
    },
    {
        "city": "Pirassununga",
        "state": "SP",
        "district": "Cidade Jardim",
        "street": "Alameda dos Jacarandás",
        "zipcode": "13632-564"
    },
    {
        "city": "Pirassununga",
        "state": "SP",
        "district": "Vila São Pedro",
        "street": "Rua João Corbani",
        "zipcode": "13632-165"
    },
    {
        "city": "Pirassununga",
        "state": "SP",
        "district": "Vila São Pedro",
        "street": "Avenida José Manoel Ribeiro",
        "zipcode": "13632-160"
    },
    {
        "city": "Pirassununga",
        "state": "SP",
        "district": "Vila Nova",
        "street": "Rua José Thim",
        "zipcode": "13632-310"
    },
    {
        "city": "Pirassununga",
        "state": "SP",
        "district": "Cidade Jardim",
        "street": "Alameda dos Manacás",
        "zipcode": "13632-486"
    },
    {
        "city": "Pirassununga",
        "state": "SP",
        "district": "Jardim Olímpio Felício",
        "street": "Rua Manoel Rodrigues",
        "zipcode": "13632-096"
    },
    {
        "city": "Pirassununga",
        "state": "SP",
        "district": "Vila São Pedro",
        "street": "Rua Mário Cantinho",
        "zipcode": "13632-100"
    },
    {
        "city": "Pirassununga",
        "state": "SP",
        "district": "Vila Brasil",
        "street": "Rua Mato Grosso",
        "zipcode": "13632-370"
    },
    {
        "city": "Pirassununga",
        "state": "SP",
        "district": "Vila Brasil",
        "street": "Rua Paraná",
        "zipcode": "13632-360"
    },
    {
        "city": "Pirassununga",
        "state": "SP",
        "district": "Loteamento Verona",
        "street": "Rua Pedro Verona",
        "zipcode": "13632-355"
    },
    {
        "city": "Pirassununga",
        "state": "SP",
        "district": "Vila Paulista",
        "street": "Rua Rafael Rogati",
        "zipcode": "13632-280"
    },
    {
        "city": "Pirassununga",
        "state": "SP",
        "district": "Vila Brasil",
        "street": "Rua Rio de Janeiro",
        "zipcode": "13632-385"
    },
    {
        "city": "Pirassununga",
        "state": "SP",
        "district": "Vila São Pedro",
        "street": "Avenida Santo Ferrari",
        "zipcode": "13632-122"
    },
    {
        "city": "Pirassununga",
        "state": "SP",
        "district": "Jardim Kamel",
        "street": "Rua Sergipe",
        "zipcode": "13632-410"
    },
    {
        "city": "Pirassununga",
        "state": "SP",
        "district": "Cidade Jardim",
        "street": "Caminho das Seriemas",
        "zipcode": "13632-538"
    },
    {
        "city": "Pirassununga",
        "state": "SP",
        "district": "Cidade Jardim",
        "street": "Alameda dos Tamôios",
        "zipcode": "13632-462"
    },
    {
        "city": "Pirassununga",
        "state": "SP",
        "district": "Vila Nova",
        "street": "Rua Urbano Rabello",
        "zipcode": "13632-302"
    },
    {
        "city": "Pirassununga",
        "state": "SP",
        "district": "Cidade Jardim",
        "street": "Alameda dos Guaranis",
        "zipcode": "13632-563"
    },
    {
        "city": "Pirassununga",
        "state": "SP",
        "district": "Vila São Pedro",
        "street": "Rua José Gomar Januzzi",
        "zipcode": "13632-193"
    },
    {
        "city": "Pirassununga",
        "state": "SP",
        "district": "Cidade Jardim",
        "street": "Caminho dos Bicudos",
        "zipcode": "13632-546"
    },
    {
        "city": "Pirassununga",
        "state": "SP",
        "district": "Cidade Jardim",
        "street": "Alameda das Seringueiras",
        "zipcode": "13632-531"
    },
    {
        "city": "Pirassununga",
        "state": "SP",
        "district": "Cidade Jardim",
        "street": "Alameda das Nogueiras",
        "zipcode": "13632-470"
    },
    {
        "city": "Pirassununga",
        "state": "SP",
        "district": "Cidade Jardim",
        "street": "Alameda das Figueiras",
        "zipcode": "13632-478"
    },
    {
        "city": "Pirassununga",
        "state": "SP",
        "district": "Cidade Jardim",
        "street": "Alameda das Paineiras",
        "zipcode": "13632-476"
    },
    {
        "city": "Pirassununga",
        "state": "SP",
        "district": "Parque dos Eucaliptos",
        "street": "Rua Antônio Justino",
        "zipcode": "13633-111"
    },
    {
        "city": "Pirassununga",
        "state": "SP",
        "district": "Vila Belmiro",
        "street": "Rua Aracajú",
        "zipcode": "13633-506"
    },
    {
        "city": "Pirassununga",
        "state": "SP",
        "district": "Cidade Jardim",
        "street": "Alameda das Araucárias",
        "zipcode": "13632-572"
    },
    {
        "city": "Pirassununga",
        "state": "SP",
        "district": "Parque dos Eucaliptos",
        "street": "Rua Arlindo Pinto de Freitas",
        "zipcode": "13633-082"
    },
    {
        "city": "Pirassununga",
        "state": "SP",
        "district": "Vila Belmiro",
        "street": "Rua Belo Horizonte",
        "zipcode": "13633-519"
    },
    {
        "city": "Pirassununga",
        "state": "SP",
        "district": "Jardim Lauro Pozzi",
        "street": "Rua Papa Benedito",
        "zipcode": "13633-328"
    },
    {
        "city": "Pirassununga",
        "state": "SP",
        "district": "Jardim Carlos Gomes",
        "street": "Rua Carlos Franco da Silveira",
        "zipcode": "13633-020"
    },
    {
        "city": "Pirassununga",
        "state": "SP",
        "district": "Jardim do Lago",
        "street": "Rua dos Cisnes",
        "zipcode": "13633-137"
    },
    {
        "city": "Pirassununga",
        "state": "SP",
        "district": "Vila Belmiro",
        "street": "Rua Cuiabá",
        "zipcode": "13633-523"
    },
    {
        "city": "Pirassununga",
        "state": "SP",
        "district": "Vila Redenção",
        "street": "Rua Ernesto Vick",
        "zipcode": "13633-358"
    },
    {
        "city": "Pirassununga",
        "state": "SP",
        "district": "Jardim Carlos Gomes",
        "street": "Rua Fausto Faggion",
        "zipcode": "13633-040"
    },
    {
        "city": "Pirassununga",
        "state": "SP",
        "district": "Cidade Jardim",
        "street": "Alameda dos Faveiros",
        "zipcode": "13632-576"
    },
    {
        "city": "Pirassununga",
        "state": "SP",
        "district": "Vila Redenção",
        "street": "Rua Felippe Malaman",
        "zipcode": "13633-340"
    },
    {
        "city": "Pirassununga",
        "state": "SP",
        "district": "Cidade Jardim",
        "street": "Alameda dos Flamboyans",
        "zipcode": "13632-577"
    },
    {
        "city": "Pirassununga",
        "state": "SP",
        "district": "Vila Redenção",
        "street": "Rua Frederico Ozanam",
        "zipcode": "13633-370"
    },
    {
        "city": "Pirassununga",
        "state": "SP",
        "district": "Distrito Industrial",
        "street": "Rua Gastão Ferreira",
        "zipcode": "13633-410"
    },
    {
        "city": "Pirassununga",
        "state": "SP",
        "district": "Jardim Carlos Gomes",
        "street": "Rua Guilherme Müller",
        "zipcode": "13633-012"
    },
    {
        "city": "Pirassununga",
        "state": "SP",
        "district": "Vila Redenção",
        "street": "Rua Hércules Del Nero",
        "zipcode": "13633-382"
    },
    {
        "city": "Pirassununga",
        "state": "SP",
        "district": "Jardim do Lago",
        "street": "Rua dos Jaburus",
        "zipcode": "13633-136"
    },
    {
        "city": "Pirassununga",
        "state": "SP",
        "district": "Vila Redenção",
        "street": "Rua João Aggio Neto",
        "zipcode": "13633-367"
    },
    {
        "city": "Pirassununga",
        "state": "SP",
        "district": "Distrito Industrial",
        "street": "Rua Jorge Pedro Assef",
        "zipcode": "13633-416"
    },
    {
        "city": "Pirassununga",
        "state": "SP",
        "district": "Parque dos Eucaliptos",
        "street": "Rua José Gruninger",
        "zipcode": "13633-106"
    },
    {
        "city": "Pirassununga",
        "state": "SP",
        "district": "Distrito Industrial",
        "street": "Rua José Leonildo Secarecha",
        "zipcode": "13633-426"
    },
    {
        "city": "Pirassununga",
        "state": "SP",
        "district": "Parque dos Eucaliptos",
        "street": "Rua José Maria Fusca",
        "zipcode": "13633-094"
    },
    {
        "city": "Pirassununga",
        "state": "SP",
        "district": "Jardim do Lago",
        "street": "Rua Lago Azul",
        "zipcode": "13633-135"
    },
    {
        "city": "Pirassununga",
        "state": "SP",
        "district": "Jardim Carlos Gomes",
        "street": "Rua Maestro Eufrozino de Azevedo",
        "zipcode": "13633-016"
    },
    {
        "city": "Pirassununga",
        "state": "SP",
        "district": "Jardim Lauro Pozzi",
        "street": "Rua Mauro Xavier Schlittler",
        "zipcode": "13633-329"
    },
    {
        "city": "Pirassununga",
        "state": "SP",
        "district": "Jardim Carlos Gomes",
        "street": "Rua Messias Xavier de Souza",
        "zipcode": "13633-018"
    },
    {
        "city": "Pirassununga",
        "state": "SP",
        "district": "Jardim Lauro Pozzi",
        "street": "Rua Moacyr Paulo de Boni",
        "zipcode": "13633-325"
    },
    {
        "city": "Pirassununga",
        "state": "SP",
        "district": "Jardim do Lago",
        "street": "Rua dos Paturis",
        "zipcode": "13633-134"
    },
    {
        "city": "Pirassununga",
        "state": "SP",
        "district": "Vila Belmiro",
        "street": "Rua Porto Alegre",
        "zipcode": "13633-500"
    },
    {
        "city": "Pirassununga",
        "state": "SP",
        "district": "Residencial Ilha do Sol",
        "street": "Rua João Lavandeira",
        "zipcode": "13632-802"
    },
    {
        "city": "Pirassununga",
        "state": "SP",
        "district": "Jardim Carlos Gomes",
        "street": "Avenida Presidente Médici",
        "zipcode": "13633-045"
    },
    {
        "city": "Pirassununga",
        "state": "SP",
        "district": "Distrito Industrial",
        "street": "Rua Professora Aparecida A. Firmino",
        "zipcode": "13633-404"
    },
    {
        "city": "Pirassununga",
        "state": "SP",
        "district": "Vila Belmiro",
        "street": "Rua Recife",
        "zipcode": "13633-502"
    },
    {
        "city": "Pirassununga",
        "state": "SP",
        "district": "Vila Redenção",
        "street": "Rua Renê Albers",
        "zipcode": "13633-377"
    },
    {
        "city": "Pirassununga",
        "state": "SP",
        "district": "Jardim Carlos Gomes",
        "street": "Rua Ricieri Scatolini",
        "zipcode": "13633-050"
    },
    {
        "city": "Pirassununga",
        "state": "SP",
        "district": "Jardim Lauro Pozzi",
        "street": "Rua Semiramis Vieira de Moraes",
        "zipcode": "13633-320"
    },
    {
        "city": "Pirassununga",
        "state": "SP",
        "district": "Vila Redenção",
        "street": "Rua Vicente Laureano",
        "zipcode": "13633-353"
    },
    {
        "city": "Pirassununga",
        "state": "SP",
        "district": "Vila Redenção",
        "street": "Rua Walmor Urban",
        "zipcode": "13633-361"
    },
    {
        "city": "Pirassununga",
        "state": "SP",
        "district": "Parque dos Eucaliptos",
        "street": "Rua Sebastião Rosim",
        "zipcode": "13633-092"
    },
    {
        "city": "Pirassununga",
        "state": "SP",
        "district": "Jardim Lauro Pozzi",
        "street": "Rua Isolino Sundfeld",
        "zipcode": "13633-324"
    },
    {
        "city": "Pirassununga",
        "state": "SP",
        "district": "Jardim Carlos Gomes",
        "street": "Rua Júlio Barbirato",
        "zipcode": "13633-022"
    },
    {
        "city": "Pirassununga",
        "state": "SP",
        "district": "Jardim Lauro Pozzi",
        "street": "Rua Teotônio Vilela",
        "zipcode": "13633-323"
    },
    {
        "city": "Pirassununga",
        "state": "SP",
        "district": "Jardim Lauro Pozzi",
        "street": "Rua Doutor Eitel Arantes Dix",
        "zipcode": "13633-330"
    },
    {
        "city": "Pirassununga",
        "state": "SP",
        "district": "Vila Redenção",
        "street": "Rua Romilda Victorelli",
        "zipcode": "13633-341"
    },
    {
        "city": "Pirassununga",
        "state": "SP",
        "district": "Cidade Jardim",
        "street": "Alameda das Oliveiras",
        "zipcode": "13632-585"
    },
    {
        "city": "Pirassununga",
        "state": "SP",
        "district": "Rosário",
        "street": "Rua Andradas",
        "zipcode": "13634-015"
    },
    {
        "city": "Pirassununga",
        "state": "SP",
        "district": "Jardim Rosim",
        "street": "Rua Antônio Binotti",
        "zipcode": "13634-104"
    },
    {
        "city": "Pirassununga",
        "state": "SP",
        "district": "Jardim Rosim",
        "street": "Rua Antônio Pavani",
        "zipcode": "13634-078"
    },
    {
        "city": "Pirassununga",
        "state": "SP",
        "district": "Jardim Rosim",
        "street": "Rua Antônio Rosim",
        "zipcode": "13634-108"
    },
    {
        "city": "Pirassununga",
        "state": "SP",
        "district": "Rosário",
        "street": "Rua Bento Dix",
        "zipcode": "13634-032"
    },
    {
        "city": "Pirassununga",
        "state": "SP",
        "district": "Rosário",
        "street": "Alameda Carlos F. Gruninger",
        "zipcode": "13634-008"
    },
    {
        "city": "Pirassununga",
        "state": "SP",
        "district": "Jardim América",
        "street": "Rua David Grisi",
        "zipcode": "13634-263"
    },
    {
        "city": "Pirassununga",
        "state": "SP",
        "district": "Jardim São Valentim",
        "street": "Rua Domingos Finoti",
        "zipcode": "13635-036"
    },
    {
        "city": "Pirassununga",
        "state": "SP",
        "district": "Jardim Elite",
        "street": "Rua Dona Leopoldina",
        "zipcode": "13635-014"
    },
    {
        "city": "Pirassununga",
        "state": "SP",
        "district": "Jardim Elite",
        "street": "Avenida Duque de Caxias Norte",
        "zipcode": "13635-000"
    },
    {
        "city": "Pirassununga",
        "state": "SP",
        "district": "Jardim São Valentim",
        "street": "Rua Ervandil Dutra Borges",
        "zipcode": "13635-031"
    },
    {
        "city": "Pirassununga",
        "state": "SP",
        "district": "Jardim América",
        "street": "Rua Francisco Febras",
        "zipcode": "13634-262"
    },
    {
        "city": "Pirassununga",
        "state": "SP",
        "district": "Jardim Redentor",
        "street": "Rua Guilherme Boller Zoega",
        "zipcode": "13635-074"
    },
    {
        "city": "Pirassununga",
        "state": "SP",
        "district": "Jardim São Valentim",
        "street": "Rua Izaura Riciardi Del Nero",
        "zipcode": "13635-047"
    },
    {
        "city": "Pirassununga",
        "state": "SP",
        "district": "Jardim São Valentim",
        "street": "Rua Joaquim Pinto Campos",
        "zipcode": "13635-029"
    },
    {
        "city": "Pirassununga",
        "state": "SP",
        "district": "Jardim Redentor",
        "street": "Rua José Felício",
        "zipcode": "13635-076"
    },
    {
        "city": "Pirassununga",
        "state": "SP",
        "district": "Rosário",
        "street": "Rua José Germano de Souza",
        "zipcode": "13634-036"
    },
    {
        "city": "Pirassununga",
        "state": "SP",
        "district": "Parque Dos Eucaliptos",
        "street": "Rua A",
        "zipcode": "13633-105"
    },
    {
        "city": "Pirassununga",
        "state": "SP",
        "district": "Jardim São Jorge",
        "street": "Rua Nicolau Murad",
        "zipcode": "13632-704"
    },
    {
        "city": "Pirassununga",
        "state": "SP",
        "district": "Vila Guilhermina",
        "street": "Rua José Lebeis",
        "zipcode": "13634-218"
    },
    {
        "city": "Pirassununga",
        "state": "SP",
        "district": "Vila Guilhermina",
        "street": "Avenida José Pozzi",
        "zipcode": "13634-202"
    },
    {
        "city": "Pirassununga",
        "state": "SP",
        "district": "Vila Guilhermina",
        "street": "Rua José Teixeira da Silva",
        "zipcode": "13634-208"
    },
    {
        "city": "Pirassununga",
        "state": "SP",
        "district": "Jardim Rosim",
        "street": "Rua Luiz Papa Filho",
        "zipcode": "13634-070"
    },
    {
        "city": "Pirassununga",
        "state": "SP",
        "district": "Jardim Elite",
        "street": "Rua Marquês de Tamandaré",
        "zipcode": "13635-012"
    },
    {
        "city": "Pirassununga",
        "state": "SP",
        "district": "Jardim São Valentim",
        "street": "Rua Napoleão Fontanari",
        "zipcode": "13635-039"
    },
    {
        "city": "Pirassununga",
        "state": "SP",
        "district": "Rosário",
        "street": "Avenida Padre Antônio Vann Ess",
        "zipcode": "13634-000"
    },
    {
        "city": "Pirassununga",
        "state": "SP",
        "district": "Vila Guilhermina",
        "street": "Avenida Padre Leo Lunders",
        "zipcode": "13634-200"
    },
    {
        "city": "Pirassununga",
        "state": "SP",
        "district": "Jardim Petrópolis",
        "street": "Avenida Painguás",
        "zipcode": "13634-325"
    },
    {
        "city": "Pirassununga",
        "state": "SP",
        "district": "Jardim São Valentim",
        "street": "Rua Paraguai",
        "zipcode": "13635-063"
    },
    {
        "city": "Pirassununga",
        "state": "SP",
        "district": "Jardim Petrópolis",
        "street": "Rua Paschoal Gallo",
        "zipcode": "13634-312"
    },
    {
        "city": "Pirassununga",
        "state": "SP",
        "district": "Vila Guilhermina",
        "street": "Rua Paulo Gallo",
        "zipcode": "13634-211"
    },
    {
        "city": "Pirassununga",
        "state": "SP",
        "district": "Jardim Rosim",
        "street": "Rua Paulo Guiguer",
        "zipcode": "13634-106"
    },
    {
        "city": "Pirassununga",
        "state": "SP",
        "district": "Jardim São Valentim",
        "street": "Rua Raul Trevisan",
        "zipcode": "13635-052"
    },
    {
        "city": "Pirassununga",
        "state": "SP",
        "district": "Jardim Petrópolis",
        "street": "Rua Sílvio Tironi",
        "zipcode": "13634-317"
    },
    {
        "city": "Pirassununga",
        "state": "SP",
        "district": "Vila Guilhermina",
        "street": "Avenida Tenente Olympio Guiguer",
        "zipcode": "13634-214"
    },
    {
        "city": "Pirassununga",
        "state": "SP",
        "district": "Vila Steola",
        "street": "Rua Victório Victorelli",
        "zipcode": "13634-054"
    },
    {
        "city": "Pirassununga",
        "state": "SP",
        "district": "Jardim Rosim",
        "street": "Rua Albino Barbirato",
        "zipcode": "13634-074"
    },
    {
        "city": "Pirassununga",
        "state": "SP",
        "district": "Vila Steola",
        "street": "Rua 7 de Setembro",
        "zipcode": "13634-047"
    },
    {
        "city": "Pirassununga",
        "state": "SP",
        "district": "Vila Steola",
        "street": "Rua Bom Jesus",
        "zipcode": "13634-048"
    },
    {
        "city": "Pirassununga",
        "state": "SP",
        "district": "Vila Guilhermina",
        "street": "Avenida José Aranha",
        "zipcode": "13634-220"
    },
    {
        "city": "Pirassununga",
        "state": "SP",
        "district": "Rosário",
        "street": "Rua Major Feliciano",
        "zipcode": "13634-034"
    },
    {
        "city": "Pirassununga",
        "state": "SP",
        "district": "Jardim Petrópolis",
        "street": "Rua Pereira Bueno",
        "zipcode": "13634-310"
    },
    {
        "city": "Pirassununga",
        "state": "SP",
        "district": "Jardim Rosim",
        "street": "Rua Nelson Franco da Silva",
        "zipcode": "13634-076"
    },
    {
        "city": "Pirassununga",
        "state": "SP",
        "district": "Jardim Europa",
        "street": "Rua Joaquim Ament",
        "zipcode": "13634-502"
    },
    {
        "city": "Pirassununga",
        "state": "SP",
        "district": "Jardim Elite",
        "street": "Rua Antônio Cabianca",
        "zipcode": "13635-005"
    },
    {
        "city": "Pirassununga",
        "state": "SP",
        "district": "Vertentes do Mamonal",
        "street": "Alameda Beija",
        "zipcode": "13633-703"
    },
    {
        "city": "Pirassununga",
        "state": "SP",
        "district": "Jardim Europa",
        "street": "Rua Neide Garcia Hernandes",
        "zipcode": "13634-501"
    },
    {
        "city": "Pirassununga",
        "state": "SP",
        "district": "Jardim Elite",
        "street": "Rua Octacílio de Souza Mourão",
        "zipcode": "13635-001"
    },
    {
        "city": "Pirassununga",
        "state": "SP",
        "district": "Jardim Elite",
        "street": "Rua Rosa Devitte Gruninger",
        "zipcode": "13635-004"
    },
    {
        "city": "Pirassununga",
        "state": "SP",
        "district": "Jardim Elite",
        "street": "Rua Rubens Rissi",
        "zipcode": "13635-006"
    },
    {
        "city": "Pirassununga",
        "state": "SP",
        "district": "Vertentes do Mamonal",
        "street": "Alameda Sabiás",
        "zipcode": "13633-710"
    },
    {
        "city": "Pirassununga",
        "state": "SP",
        "district": "Jardim Cidade Nova",
        "street": "Rua Orlando Tuckmantel",
        "zipcode": "13633-602"
    },
    {
        "city": "Pirassununga",
        "state": "SP",
        "district": "Jardim das Laranjeiras",
        "street": "Rua Alfredo Bianco",
        "zipcode": "13635-160"
    },
    {
        "city": "Pirassununga",
        "state": "SP",
        "district": "Vila Esperança",
        "street": "Rua Argentina",
        "zipcode": "13635-099"
    },
    {
        "city": "Pirassununga",
        "state": "SP",
        "district": "Vila Esperança",
        "street": "Avenida Brasil",
        "zipcode": "13635-104"
    },
    {
        "city": "Pirassununga",
        "state": "SP",
        "district": "Vila Esperança",
        "street": "Rua Canadá",
        "zipcode": "13635-102"
    },
    {
        "city": "Pirassununga",
        "state": "SP",
        "district": "Parque Clayton Malaman",
        "street": "Rua Paulo Moreira",
        "zipcode": "13635-240"
    },
    {
        "city": "Pirassununga",
        "state": "SP",
        "district": "Parque Clayton Malaman",
        "street": "Rua Mauro Pegoraro",
        "zipcode": "13635-242"
    },
    {
        "city": "Pirassununga",
        "state": "SP",
        "district": "Parque Clayton Malaman",
        "street": "Rua Acácio dos Santos Júnior",
        "zipcode": "13635-207"
    },
    {
        "city": "Pirassununga",
        "state": "SP",
        "district": "Parque Clayton Malaman",
        "street": "Rua José Baroni",
        "zipcode": "13635-211"
    },
    {
        "city": "Pirassununga",
        "state": "SP",
        "district": "Parque Clayton Malaman",
        "street": "Rua Sebastião José Garcia Filho",
        "zipcode": "13635-215"
    },
    {
        "city": "Pirassununga",
        "state": "SP",
        "district": "Parque Clayton Malaman",
        "street": "Rua José Cordeiro",
        "zipcode": "13635-217"
    },
    {
        "city": "Pirassununga",
        "state": "SP",
        "district": "Parque Clayton Malaman",
        "street": "Rua Carlos Augusto de Souza",
        "zipcode": "13635-224"
    },
    {
        "city": "Pirassununga",
        "state": "SP",
        "district": "Parque Clayton Malaman",
        "street": "Rua Amadeu Bertto",
        "zipcode": "13635-226"
    },
    {
        "city": "Pirassununga",
        "state": "SP",
        "district": "Parque Clayton Malaman",
        "street": "Rua Décio Franceschini",
        "zipcode": "13635-228"
    },
    {
        "city": "Pirassununga",
        "state": "SP",
        "district": "Jardim Residence Rio Verde",
        "street": "Rua Maria Apparecida Oliva dos Santos",
        "zipcode": "13635-187"
    },
    {
        "city": "Pirassununga",
        "state": "SP",
        "district": "Jardim Residence Rio Verde",
        "street": "Rua Anílbal Ramos",
        "zipcode": "13635-192"
    },
    {
        "city": "Pirassununga",
        "state": "SP",
        "district": "Jardim Residence Rio Verde",
        "street": "Rua Lourenço Milaré",
        "zipcode": "13635-197"
    },
    {
        "city": "Pirassununga",
        "state": "SP",
        "district": "Jardim Residence Rio Verde",
        "street": "Rua Orlando Bruno",
        "zipcode": "13635-198"
    },
    {
        "city": "Pirassununga",
        "state": "SP",
        "district": "Vila Esperança",
        "street": "Rua Colômbia",
        "zipcode": "13635-106"
    },
    {
        "city": "Pirassununga",
        "state": "SP",
        "district": "Jardim das Laranjeiras",
        "street": "Rua Duílio Benini",
        "zipcode": "13635-144"
    },
    {
        "city": "Pirassununga",
        "state": "SP",
        "district": "Jardim das Laranjeiras",
        "street": "Rua Francisco Sinotti",
        "zipcode": "13635-164"
    },
    {
        "city": "Pirassununga",
        "state": "SP",
        "district": "Jardim São Lucas",
        "street": "Rua Giacomo Cabianca",
        "zipcode": "13635-090"
    },
    {
        "city": "Pirassununga",
        "state": "SP",
        "district": "Jardim das Laranjeiras",
        "street": "Rua Jacob Abrahan Aflalo",
        "zipcode": "13635-126"
    },
    {
        "city": "Pirassununga",
        "state": "SP",
        "district": "Jardim das Laranjeiras",
        "street": "Rua João Balbino dos Santos",
        "zipcode": "13635-178"
    },
    {
        "city": "Pirassununga",
        "state": "SP",
        "district": "Vila Santa Terezinha",
        "street": "Rua João Fantinato",
        "zipcode": "13636-122"
    },
    {
        "city": "Pirassununga",
        "state": "SP",
        "district": "Jardim Redentor",
        "street": "Rua João Granchi",
        "zipcode": "13635-078"
    },
    {
        "city": "Pirassununga",
        "state": "SP",
        "district": "Jardim das Laranjeiras",
        "street": "Rua João Pavão",
        "zipcode": "13635-136"
    },
    {
        "city": "Pirassununga",
        "state": "SP",
        "district": "Vila Santa Terezinha",
        "street": "Avenida Joaquim Cristóvão",
        "zipcode": "13636-110"
    },
    {
        "city": "Pirassununga",
        "state": "SP",
        "district": "Jardim das Laranjeiras",
        "street": "Rua Joaquim Soares",
        "zipcode": "13635-123"
    },
    {
        "city": "Pirassununga",
        "state": "SP",
        "district": "Vila Santa Terezinha",
        "street": "Rua José Parisi",
        "zipcode": "13636-080"
    },
    {
        "city": "Pirassununga",
        "state": "SP",
        "district": "Jardim das Laranjeiras",
        "street": "Rua Luiz Augusto de Souza",
        "zipcode": "13635-184"
    },
    {
        "city": "Pirassununga",
        "state": "SP",
        "district": "Jardim São Lucas",
        "street": "Rua Manoel Fernandes Chaves",
        "zipcode": "13635-094"
    },
    {
        "city": "Pirassununga",
        "state": "SP",
        "district": "Vila Santa Terezinha",
        "street": "Rua Manoel Leme Franco",
        "zipcode": "13636-085"
    },
    {
        "city": "Pirassununga",
        "state": "SP",
        "district": "Jardim São Lucas",
        "street": "Rua Mário Brinati",
        "zipcode": "13635-083"
    },
    {
        "city": "Pirassununga",
        "state": "SP",
        "district": "Jardim das Laranjeiras",
        "street": "Rua Mário Geraldo Silva",
        "zipcode": "13635-145"
    },
    {
        "city": "Pirassununga",
        "state": "SP",
        "district": "Jardim São Lucas",
        "street": "Rua Max Zenker Júnior",
        "zipcode": "13635-081"
    },
    {
        "city": "Pirassununga",
        "state": "SP",
        "district": "Vila Esperança",
        "street": "Rua México",
        "zipcode": "13635-114"
    },
    {
        "city": "Pirassununga",
        "state": "SP",
        "district": "Vila Santa Terezinha",
        "street": "Rua Osmarina Sedeh Padilha",
        "zipcode": "13636-010"
    },
    {
        "city": "Pirassununga",
        "state": "SP",
        "district": "Jardim das Laranjeiras",
        "street": "Rua Osório dos Santos",
        "zipcode": "13635-176"
    },
    {
        "city": "Pirassununga",
        "state": "SP",
        "district": "Jardim São Lucas",
        "street": "Rua Osvaldo Orssolini",
        "zipcode": "13635-096"
    },
    {
        "city": "Pirassununga",
        "state": "SP",
        "district": "Vila Esperança",
        "street": "Rua Peru",
        "zipcode": "13635-113"
    },
    {
        "city": "Pirassununga",
        "state": "SP",
        "district": "Vila Esperança",
        "street": "Rua Porto Rico",
        "zipcode": "13635-103"
    },
    {
        "city": "Pirassununga",
        "state": "SP",
        "district": "Vila Santa Terezinha",
        "street": "Rua Saturnino Peres Rodrigues",
        "zipcode": "13636-126"
    },
    {
        "city": "Pirassununga",
        "state": "SP",
        "district": "Jardim das Laranjeiras",
        "street": "Rua Sidney Franzin Stipp",
        "zipcode": "13635-122"
    },
    {
        "city": "Pirassununga",
        "state": "SP",
        "district": "Jardim São Lucas",
        "street": "Rua Valentim Terence",
        "zipcode": "13635-087"
    },
    {
        "city": "Pirassununga",
        "state": "SP",
        "district": "Vila Esperança",
        "street": "Rua Venezuela",
        "zipcode": "13635-108"
    },
    {
        "city": "Pirassununga",
        "state": "SP",
        "district": "Jardim das Laranjeiras",
        "street": "Rua Vitório Tognólio",
        "zipcode": "13635-170"
    },
    {
        "city": "Pirassununga",
        "state": "SP",
        "district": "Jardim das Laranjeiras",
        "street": "Rua Maria Zilia Pessoa",
        "zipcode": "13635-174"
    },
    {
        "city": "Pirassununga",
        "state": "SP",
        "district": "Jardim das Laranjeiras",
        "street": "Rua Aristides Pombani",
        "zipcode": "13635-127"
    },
    {
        "city": "Pirassununga",
        "state": "SP",
        "district": "Jardim das Laranjeiras",
        "street": "Rua Irmãos Bianco",
        "zipcode": "13635-186"
    },
    {
        "city": "Pirassununga",
        "state": "SP",
        "district": "Vila Santa Fé",
        "street": "Rua Santa Marta",
        "zipcode": "13640-439"
    },
    {
        "city": "Pirassununga",
        "state": "SP",
        "district": "Jardim Ferrarezzi",
        "street": "Rua Arthur Del Nero",
        "zipcode": "13636-180"
    },
    {
        "city": "Pirassununga",
        "state": "SP",
        "district": "Jardim Ferrarezzi",
        "street": "Rua Benedito Galhardo",
        "zipcode": "13636-170"
    },
    {
        "city": "Pirassununga",
        "state": "SP",
        "district": "Jardim Primavera",
        "street": "Avenida Caetano Denofrio",
        "zipcode": "13636-350"
    },
    {
        "city": "Pirassununga",
        "state": "SP",
        "district": "Jardim Ferrarezzi",
        "street": "Rua Euclides Silva",
        "zipcode": "13636-172"
    },
    {
        "city": "Pirassununga",
        "state": "SP",
        "district": "Vila São Guido",
        "street": "Rua Eurico Miranda",
        "zipcode": "13636-320"
    },
    {
        "city": "Pirassununga",
        "state": "SP",
        "district": "Jardim Ferrarezzi",
        "street": "Rua João Antônio Canoas",
        "zipcode": "13636-162"
    },
    {
        "city": "Pirassununga",
        "state": "SP",
        "district": "Vila Becker",
        "street": "Rua Joaquim Gonçalves Ledo",
        "zipcode": "13636-130"
    },
    {
        "city": "Pirassununga",
        "state": "SP",
        "district": "Vila Malaquias",
        "street": "Rua Joaquim Jorge Port",
        "zipcode": "13636-142"
    },
    {
        "city": "Pirassununga",
        "state": "SP",
        "district": "Vila Malaquias",
        "street": "Rua José Antônio Delphino Neto",
        "zipcode": "13636-140"
    },
    {
        "city": "Pirassununga",
        "state": "SP",
        "district": "Jardim Ferrarezzi",
        "street": "Rua Lisette Wegmuller",
        "zipcode": "13636-166"
    },
    {
        "city": "Pirassununga",
        "state": "SP",
        "district": "Jardim Ferrarezzi",
        "street": "Rua Mário Ferrarezzi",
        "zipcode": "13636-155"
    },
    {
        "city": "Pirassununga",
        "state": "SP",
        "district": "Vila Malaquias",
        "street": "Rua Roque Riviello",
        "zipcode": "13636-146"
    },
    {
        "city": "Pirassununga",
        "state": "SP",
        "district": "Vila Becker",
        "street": "Rua Venceslau B. Pereira Gomes",
        "zipcode": "13636-129"
    },
    {
        "city": "Pirassununga",
        "state": "SP",
        "district": "Vila Malaquias",
        "street": "Rua Almiro Godinho",
        "zipcode": "13636-132"
    },
    {
        "city": "Pirassununga",
        "state": "SP",
        "district": "Vila Santa Fé",
        "street": "Rua São Marcos",
        "zipcode": "13640-402"
    },
    {
        "city": "Pirassununga",
        "state": "SP",
        "district": "Vila Santa Fé",
        "street": "Rua São Francisco de Assis",
        "zipcode": "13640-405"
    },
    {
        "city": "Pirassununga",
        "state": "SP",
        "district": "Vila Santa Fé",
        "street": "Rua São Vicente de Paula",
        "zipcode": "13640-407"
    },
    {
        "city": "Pirassununga",
        "state": "SP",
        "district": "Vila Santa Fé",
        "street": "Rua São Tiago",
        "zipcode": "13640-411"
    },
    {
        "city": "Pirassununga",
        "state": "SP",
        "district": "Jardim Residencial Ferrari",
        "street": "Rua Espedito Purgato Filho",
        "zipcode": "13635-250"
    },
    {
        "city": "Pirassununga",
        "state": "SP",
        "district": "Vila Santa Fé",
        "street": "Rua Santa Rosa",
        "zipcode": "13640-432"
    },
    {
        "city": "Pirassununga",
        "state": "SP",
        "district": "Vila Santa Fé",
        "street": "Rua Santa Inês",
        "zipcode": "13640-434"
    },
    {
        "city": "Pirassununga",
        "state": "SP",
        "district": "Vila Santa Fé",
        "street": "Rua Santa Luzia",
        "zipcode": "13640-438"
    },
    {
        "city": "Pirassununga",
        "state": "SP",
        "district": "Vila Santa Fé",
        "street": "Rua Dorival Malaman",
        "zipcode": "13640-441"
    },
    {
        "city": "Pirassununga",
        "state": "SP",
        "district": "Jardim Limoeiro",
        "street": "Rua Antônio Polesi",
        "zipcode": "13641-046"
    },
    {
        "city": "Pirassununga",
        "state": "SP",
        "district": "Vila dos Sargentos e Sub Oficiais",
        "street": "Rua E03",
        "zipcode": "13643-005"
    },
    {
        "city": "Pirassununga",
        "state": "SP",
        "district": "Jardim Bela Vista",
        "street": "Rua Dorival Malan",
        "zipcode": "13640-502"
    },
    {
        "city": "Pirassununga",
        "state": "SP",
        "district": "Vila dos Sargentos e Sub Oficiais",
        "street": "Rua E01",
        "zipcode": "13643-001"
    },
    {
        "city": "Pirassununga",
        "state": "SP",
        "district": "Vila dos Sargentos e Sub Oficiais",
        "street": "Rua E07",
        "zipcode": "13643-013"
    },
    {
        "city": "Pirassununga",
        "state": "SP",
        "district": "Vila dos Sargentos e Sub Oficiais",
        "street": "Rua E08",
        "zipcode": "13643-012"
    },
    {
        "city": "Pirassununga",
        "state": "SP",
        "district": "Vila dos Sargentos e Sub Oficiais",
        "street": "Rua E11",
        "zipcode": "13643-018"
    },
    {
        "city": "Pirassununga",
        "state": "SP",
        "district": "Vila dos Sargentos e Sub Oficiais",
        "street": "Rua E12",
        "zipcode": "13643-020"
    },
    {
        "city": "Pirassununga",
        "state": "SP",
        "district": "Jardim Cachoeira",
        "street": "Rua Eloi Chaves",
        "zipcode": "13641-008"
    },
    {
        "city": "Pirassununga",
        "state": "SP",
        "district": "Jardim Limoeiro",
        "street": "Rua Emílio Buzzato",
        "zipcode": "13641-048"
    },
    {
        "city": "Pirassununga",
        "state": "SP",
        "district": "Jardim Limoeiro",
        "street": "Rua Espinelo Massaferro",
        "zipcode": "13641-050"
    },
    {
        "city": "Pirassununga",
        "state": "SP",
        "district": "Jardim Limoeiro",
        "street": "Rua Gregório Pedroso de Lima",
        "zipcode": "13641-051"
    },
    {
        "city": "Pirassununga",
        "state": "SP",
        "district": "Jardim Cachoeira",
        "street": "Rua Hermano Chagas",
        "zipcode": "13641-012"
    },
    {
        "city": "Pirassununga",
        "state": "SP",
        "district": "Jardim Bela Vista",
        "street": "Rua Lázaro P. de Carvalho",
        "zipcode": "13640-506"
    },
    {
        "city": "Pirassununga",
        "state": "SP",
        "district": "Jardim Cachoeira",
        "street": "Rua Major Levy",
        "zipcode": "13641-014"
    },
    {
        "city": "Pirassununga",
        "state": "SP",
        "district": "Jardim Nossa Senhora Aparecida",
        "street": "Rua Nossa Senhora de Fátima",
        "zipcode": "13641-084"
    },
    {
        "city": "Pirassununga",
        "state": "SP",
        "district": "Jardim Nossa Senhora Aparecida",
        "street": "Rua Nossa Senhora da Penha",
        "zipcode": "13641-083"
    },
    {
        "city": "Pirassununga",
        "state": "SP",
        "district": "Vila Santa Terezinha",
        "street": "Rua Armando Nestor Cavalcanti",
        "zipcode": "13636-100"
    },
    {
        "city": "Pirassununga",
        "state": "SP",
        "district": "Jardim Residencial Ferrari",
        "street": "Rua Reynaldo Martelli",
        "zipcode": "13635-254"
    },
    {
        "city": "Pirassununga",
        "state": "SP",
        "district": "Jardim Residencial Ferrari",
        "street": "Rua Romilda Pegoraro Scharlack",
        "zipcode": "13635-252"
    },
    {
        "city": "Pirassununga",
        "state": "SP",
        "district": "Jardim Cachoeira",
        "street": "Avenida Pescadores",
        "zipcode": "13641-018"
    },
    {
        "city": "Pirassununga",
        "state": "SP",
        "district": "Jardim Limoeiro",
        "street": "Rua Raimundo Rosa",
        "zipcode": "13641-058"
    },
    {
        "city": "Pirassununga",
        "state": "SP",
        "district": "Jardim Limoeiro",
        "street": "Rua Sebastião B. O. Alves",
        "zipcode": "13641-043"
    },
    {
        "city": "Pirassununga",
        "state": "SP",
        "district": "Jardim Limoeiro",
        "street": "Rua Virgínio Polesi",
        "zipcode": "13641-056"
    },
    {
        "city": "Pirassununga",
        "state": "SP",
        "district": "Jardim Cachoeira",
        "street": "Rodovia Prefeito Euberto Nemésio Pereira de Godoy",
        "zipcode": "13641-001"
    },
    {
        "city": "Pirassununga",
        "state": "SP",
        "district": "Centro",
        "street": "Rua Duque de Caxias",
        "zipcode": "13630-095"
    },
    {
        "city": "Pirassununga",
        "state": "SP",
        "district": "Centro",
        "street": "Rua Amador Bueno",
        "zipcode": "13630-120"
    },
    {
        "city": "Pirassununga",
        "state": "SP",
        "district": "Vila Pinheiro",
        "street": "Rua Ângelo Aldriguetti",
        "zipcode": "13630-470"
    },
    {
        "city": "Pirassununga",
        "state": "SP",
        "district": "Jardim Ferrarezzi",
        "street": "Rua Apparecida de A. Maffra",
        "zipcode": "13636-174"
    },
    {
        "city": "Pirassununga",
        "state": "SP",
        "district": "Centro",
        "street": "Avenida Painguás",
        "zipcode": "13630-146"
    },
    {
        "city": "Pirassununga",
        "state": "SP",
        "district": "Vila Steola",
        "street": "Avenida Painguás",
        "zipcode": "13634-059"
    },
    {
        "city": "Pirassununga",
        "state": "SP",
        "district": "Jardim Veneza",
        "street": "Rua Domingos Beltrame de Oliveira",
        "zipcode": "13630-820"
    },
    {
        "city": "Pirassununga",
        "state": "SP",
        "district": "Vila Nova",
        "street": "Rua Martimiano dos Santos",
        "zipcode": "13632-312"
    },
    {
        "city": "Pirassununga",
        "state": "SP",
        "district": "Jardim Verona II",
        "street": "Rua Mário Edson dos Santos",
        "zipcode": "13643-342"
    },
    {
        "city": "Pirassununga",
        "state": "SP",
        "district": "Jardim Verona II",
        "street": "Rua Ermenegildo Pozzobon",
        "zipcode": "13643-348"
    },
    {
        "city": "Pirassununga",
        "state": "SP",
        "district": "Jardim Verona II",
        "street": "Rua Antonio Pereira da Silva",
        "zipcode": "13643-351"
    },
    {
        "city": "Pirassununga",
        "state": "SP",
        "district": "Jardim Terras de San José",
        "street": "Rua Paulo Senhorini",
        "zipcode": "13643-305"
    },
    {
        "city": "Pirassununga",
        "state": "SP",
        "district": "Jardim Terras de San José",
        "street": "Rua José Benevenuto",
        "zipcode": "13643-315"
    },
    {
        "city": "Pirassununga",
        "state": "SP",
        "district": "Jardim Terras de San José",
        "street": "Rua Irene Pegoraro Methner",
        "zipcode": "13643-320"
    },
    {
        "city": "Pirassununga",
        "state": "SP",
        "district": "Jardim Verona II",
        "street": "Rua Lauro Wadt",
        "zipcode": "13643-336"
    },
    {
        "city": "Pirassununga",
        "state": "SP",
        "district": "Jardim Verona II",
        "street": "Rua Júlio Marangoni",
        "zipcode": "13643-339"
    },
    {
        "city": "Pirassununga",
        "state": "SP",
        "district": "Jardim Terras de San José",
        "street": "Rua José Hunglauber",
        "zipcode": "13643-325"
    },
    {
        "city": "Pirassununga",
        "state": "SP",
        "district": "Jardim Milenium",
        "street": "Rua Conceição Scatolini Denófrio",
        "zipcode": "13643-456"
    },
    {
        "city": "Pirassununga",
        "state": "SP",
        "district": "Jardim Milenium",
        "street": "Rua Adolpho Trapani",
        "zipcode": "13643-462"
    },
    {
        "city": "Pirassununga",
        "state": "SP",
        "district": "Vila Pinheiro",
        "street": "Rua Chico Mestre",
        "zipcode": "13630-290"
    },
    {
        "city": "Pirassununga",
        "state": "SP",
        "district": "Centro",
        "street": "Avenida Duque de Caxias Norte",
        "zipcode": "13630-901"
    },
    {
        "city": "Pirassununga",
        "state": "SP",
        "district": "Centro",
        "street": "Avenida Duque de Caxias Norte",
        "zipcode": "13630-902"
    },
    {
        "city": "Pirassununga",
        "state": "SP",
        "district": "Parque dos Eucaliptos",
        "street": "Rua Benedito Fortunato Silva",
        "zipcode": "13633-090"
    },
    {
        "city": "Pirassununga",
        "state": "SP",
        "district": "Vila Redenção",
        "street": "Rua Brigadeiro Eduardo Gomes",
        "zipcode": "13633-352"
    },
    {
        "city": "Pirassununga",
        "state": "SP",
        "district": "Vila Industrial",
        "street": "Rua Carolina Granchi",
        "zipcode": "13631-280"
    },
    {
        "city": "Pirassununga",
        "state": "SP",
        "district": "Jardim das Laranjeiras",
        "street": "Rua Cherubin Jota",
        "zipcode": "13635-130"
    },
    {
        "city": "Pirassununga",
        "state": "SP",
        "district": "Vila Pinheiro",
        "street": "Rua Domingos Taboas Bernardez",
        "zipcode": "13630-315"
    },
    {
        "city": "Pirassununga",
        "state": "SP",
        "district": "Jardim Margarida",
        "street": "Rua Elias de Mello Ayres",
        "zipcode": "13630-624"
    },
    {
        "city": "Pirassununga",
        "state": "SP",
        "district": "Jardim Petrópolis",
        "street": "Rua Enrique Taboas Bernardez",
        "zipcode": "13634-318"
    },
    {
        "city": "Pirassununga",
        "state": "SP",
        "district": "Vila Belmiro",
        "street": "Rua Florianópolis",
        "zipcode": "13633-524"
    },
    {
        "city": "Pirassununga",
        "state": "SP",
        "district": "Jardim Olímpio Felício",
        "street": "Rua Francisco de O. e Silva",
        "zipcode": "13632-097"
    },
    {
        "city": "Pirassununga",
        "state": "SP",
        "district": "Jardim Planalto",
        "street": "Rua João Martelli",
        "zipcode": "13631-490"
    },
    {
        "city": "Pirassununga",
        "state": "SP",
        "district": "Jardim Leonor Cristina",
        "street": "Rua João Scatambulo",
        "zipcode": "13630-608"
    },
    {
        "city": "Pirassununga",
        "state": "SP",
        "district": "Jardim Petrópolis",
        "street": "Rua José Tuckumantel",
        "zipcode": "13634-314"
    },
    {
        "city": "Pirassununga",
        "state": "SP",
        "district": "Vila Pinheiro",
        "street": "Rua Luís Teracin",
        "zipcode": "13630-378"
    },
    {
        "city": "Pirassununga",
        "state": "SP",
        "district": "Vila Guimarães",
        "street": "Rua Maria Aparecida Bueno Barbosa",
        "zipcode": "13630-225"
    },
    {
        "city": "Pirassununga",
        "state": "SP",
        "district": "Vila Brasil",
        "street": "Rua Minas Gerais",
        "zipcode": "13632-395"
    },
    {
        "city": "Pirassununga",
        "state": "SP",
        "district": "Vila Becker",
        "street": "Rua Professor Antônio Faggin",
        "zipcode": "13636-128"
    },
    {
        "city": "Pirassununga",
        "state": "SP",
        "district": "Centro",
        "street": "Rua Theodoro Mac Cann",
        "zipcode": "13631-090"
    },
    {
        "city": "Pirassununga",
        "state": "SP",
        "district": "Jardim São Valentim",
        "street": "Rua Gílio Passanelli",
        "zipcode": "13635-033"
    },
    {
        "city": "Pirassununga",
        "state": "SP",
        "district": "Jardim Margarida",
        "street": "Rua Moacyr Pereira Castilho",
        "zipcode": "13630-615"
    },
    {
        "city": "Pirassununga",
        "state": "SP",
        "district": "Vila Santa Fé",
        "street": "Rua São Lucas",
        "zipcode": "13640-412"
    },
    {
        "city": "Pirassununga",
        "state": "SP",
        "district": "Jardim Bandeirantes",
        "street": "Estrada Aguaí",
        "zipcode": "13631-750"
    },
    {
        "city": "Pirassununga",
        "state": "SP",
        "district": "Vila dos Sargentos e Sub Oficiais",
        "street": "Rua E14",
        "zipcode": "13643-024"
    },
    {
        "city": "Pirassununga",
        "state": "SP",
        "district": "Jardim Carlos Gomes",
        "street": "Rua José Benini",
        "zipcode": "13633-035"
    },
    {
        "city": "Pirassununga",
        "state": "SP",
        "district": "Jardim Limoeiro",
        "street": "Rua Pedro V. Secarelli",
        "zipcode": "13641-049"
    },
    {
        "city": "Pirassununga",
        "state": "SP",
        "district": "Vila Santa Terezinha",
        "street": "Rua Tenente Benedito Monteiro da Nóbrega",
        "zipcode": "13636-115"
    },
    {
        "city": "Pirassununga",
        "state": "SP",
        "district": "Vila São Judas Tadeu",
        "street": "Rua Duque de Caxias",
        "zipcode": "13630-520"
    },
    {
        "city": "Pirassununga",
        "state": "SP",
        "district": "Jardim Eldorado",
        "street": "Rua Duque de Caxias",
        "zipcode": "13630-500"
    },
    {
        "city": "Pirassununga",
        "state": "SP",
        "district": "Jardim Morumbi",
        "street": "Rua Antenor Pereira",
        "zipcode": "13631-638"
    },
    {
        "city": "Pirassununga",
        "state": "SP",
        "district": "Vila Braz",
        "street": "Rua Capitão Faustino Albuquerque",
        "zipcode": "13632-036"
    },
    {
        "city": "Pirassununga",
        "state": "SP",
        "district": "Loteamento Verona",
        "street": "Rua Capitão Joaquim de Oliveira",
        "zipcode": "13632-325"
    },
    {
        "city": "Pirassununga",
        "state": "SP",
        "district": "Jardim Planalto",
        "street": "Rua Carlos Magno Albers",
        "zipcode": "13631-492"
    },
    {
        "city": "Pirassununga",
        "state": "SP",
        "district": "Jardim Brasília",
        "street": "Rua Clodomir F. de Albuquerque",
        "zipcode": "13631-611"
    },
    {
        "city": "Pirassununga",
        "state": "SP",
        "district": "Loteamento Verona",
        "street": "Rua Cristiano Franco",
        "zipcode": "13632-321"
    },
    {
        "city": "Pirassununga",
        "state": "SP",
        "district": "Jardim Olímpio Felício",
        "street": "Rua Egydio Domênico",
        "zipcode": "13632-095"
    },
    {
        "city": "Pirassununga",
        "state": "SP",
        "district": "Jardim São Fernando",
        "street": "Rua Felipe Boller Júnior",
        "zipcode": "13631-120"
    },
    {
        "city": "Pirassununga",
        "state": "SP",
        "district": "Vila São Pedro",
        "street": "Rua Fernando Adani",
        "zipcode": "13632-167"
    },
    {
        "city": "Pirassununga",
        "state": "SP",
        "district": "Jardim Pavesi",
        "street": "Rua Francisco Mollo",
        "zipcode": "13631-227"
    },
    {
        "city": "Pirassununga",
        "state": "SP",
        "district": "Jardim Milenium",
        "street": "Rua Maria Aparecida Santos Pereira de Araujo",
        "zipcode": "13643-480"
    },
    {
        "city": "Pirassununga",
        "state": "SP",
        "district": "Jardim Milenium",
        "street": "Rua Elizabete Aparecida Galeni",
        "zipcode": "13643-483"
    },
    {
        "city": "Pirassununga",
        "state": "SP",
        "district": "Jardim Milenium",
        "street": "Rua Maria Aparecida Costa Aguiar",
        "zipcode": "13643-495"
    },
    {
        "city": "Pirassununga",
        "state": "SP",
        "district": "Jardim Milenium",
        "street": "Rua Yolanda Pegoraro Pizarro",
        "zipcode": "13643-465"
    },
    {
        "city": "Pirassununga",
        "state": "SP",
        "district": "Jardim Milenium",
        "street": "Rua Olinda Dutra Strazza",
        "zipcode": "13643-468"
    },
    {
        "city": "Pirassununga",
        "state": "SP",
        "district": "Centro",
        "street": "Rua Coronel Franco",
        "zipcode": "13630-904"
    },
    {
        "city": "Pirassununga",
        "state": "SP",
        "district": "Centro",
        "street": "Rua Joaquim Procópio de Araújo",
        "zipcode": "13630-908"
    },
    {
        "city": "Pirassununga",
        "state": "SP",
        "district": "Centro",
        "street": "Avenida Prudente de Moraes",
        "zipcode": "13630-907"
    },
    {
        "city": "Pirassununga",
        "state": "SP",
        "district": "Rosário",
        "street": "Rua José Bonifácio",
        "zipcode": "13631-903"
    },
    {
        "city": "Pirassununga",
        "state": "SP",
        "district": "Centro",
        "street": "Rua 15 de Novembro",
        "zipcode": "13630-906"
    },
    {
        "city": "Pirassununga",
        "state": "SP",
        "district": "Centro",
        "street": "Rua Galício Del Nero",
        "zipcode": "13631-904"
    },
    {
        "city": "Pirassununga",
        "state": "SP",
        "district": "Centro",
        "street": "Rua Duque de Caxias",
        "zipcode": "13630-903"
    },
    {
        "city": "Pirassununga",
        "state": "SP",
        "district": "Centro",
        "street": "Avenida Newton Prado",
        "zipcode": "13631-901"
    },
    {
        "city": "Pirassununga",
        "state": "SP",
        "district": "Centro",
        "street": "Avenida Newton Prado",
        "zipcode": "13631-900"
    },
    {
        "city": "Pirassununga",
        "state": "SP",
        "district": "Jardim Santa Rita",
        "street": "Rua Governador Pedro de Toledo",
        "zipcode": "13631-175"
    },
    {
        "city": "Pirassununga",
        "state": "SP",
        "district": "Jardim São Valentim",
        "street": "Rua Guilherme Berger",
        "zipcode": "13635-027"
    },
    {
        "city": "Pirassununga",
        "state": "SP",
        "district": "Centro",
        "street": "Rua Iolanda Del Nero Barco",
        "zipcode": "13631-064"
    },
    {
        "city": "Pirassununga",
        "state": "SP",
        "district": "Vila Braz",
        "street": "Rua João Fernandes de Carvalho",
        "zipcode": "13632-046"
    },
    {
        "city": "Pirassununga",
        "state": "SP",
        "district": "Jardim Brasília",
        "street": "Rua José Andretta",
        "zipcode": "13631-613"
    },
    {
        "city": "Pirassununga",
        "state": "SP",
        "district": "Vila dos Oficiais",
        "street": "Rua D03",
        "zipcode": "13643-204"
    },
    {
        "city": "Pirassununga",
        "state": "SP",
        "district": "Vila Industrial",
        "street": "Rua José Bastos",
        "zipcode": "13631-274"
    },
    {
        "city": "Pirassununga",
        "state": "SP",
        "district": "Jardim Morumbi",
        "street": "Rua José Rafael Aad",
        "zipcode": "13631-655"
    },
    {
        "city": "Pirassununga",
        "state": "SP",
        "district": "Vila Brasil",
        "street": "Rua Maranhão",
        "zipcode": "13632-380"
    },
    {
        "city": "Pirassununga",
        "state": "SP",
        "district": "Vila Militar",
        "street": "Alameda Marechal Mascarenhas de Moraes",
        "zipcode": "13632-057"
    },
    {
        "city": "Pirassununga",
        "state": "SP",
        "district": "Vila São Pedro",
        "street": "Avenida Miguel Ângelo Devitte",
        "zipcode": "13632-140"
    },
    {
        "city": "Pirassununga",
        "state": "SP",
        "district": "Centro",
        "street": "Avenida Newton Prado",
        "zipcode": "13631-045"
    },
    {
        "city": "Pirassununga",
        "state": "SP",
        "district": "Jardim São Fernando",
        "street": "Rua das Papoulas",
        "zipcode": "13631-161"
    },
    {
        "city": "Pirassununga",
        "state": "SP",
        "district": "Jardim Kamel",
        "street": "Rua Rio Grande do Norte",
        "zipcode": "13632-417"
    },
    {
        "city": "Pirassununga",
        "state": "SP",
        "district": "Vila Brasil",
        "street": "Rua Rio Grande do Sul",
        "zipcode": "13632-361"
    },
    {
        "city": "Pirassununga",
        "state": "SP",
        "district": "Vila Paulista",
        "street": "Rua Sebastião Silveira Franco",
        "zipcode": "13632-216"
    },
    {
        "city": "Pirassununga",
        "state": "SP",
        "district": "Vila Militar",
        "street": "Alameda Tenente Franco da Silveira",
        "zipcode": "13632-070"
    },
    {
        "city": "Pirassununga",
        "state": "SP",
        "district": "Centro",
        "street": "Rua Tufik Maluf",
        "zipcode": "13631-100"
    },
    {
        "city": "Pirassununga",
        "state": "SP",
        "district": "Jardim São Fernando",
        "street": "Rua Vitória Régia",
        "zipcode": "13631-145"
    },
    {
        "city": "Pirassununga",
        "state": "SP",
        "district": "Vila dos Oficiais",
        "street": "Rua D10",
        "zipcode": "13643-218"
    },
    {
        "city": "Pirassununga",
        "state": "SP",
        "district": "Vila dos Oficiais",
        "street": "Rua D11",
        "zipcode": "13643-220"
    },
    {
        "city": "Pirassununga",
        "state": "SP",
        "district": "Jardim Anversa",
        "street": "Rua Maria Aparecida da Silva",
        "zipcode": "13631-715"
    },
    {
        "city": "Pirassununga",
        "state": "SP",
        "district": "Vila Guilhermina",
        "street": "Rua Ângelo Berreta Primo",
        "zipcode": "13634-222"
    },
    {
        "city": "Pirassununga",
        "state": "SP",
        "district": "Jardim Cachoeira",
        "street": "Avenida Paulo Furlan",
        "zipcode": "13641-016"
    },
    {
        "city": "Pirassununga",
        "state": "SP",
        "district": "Vila dos Oficiais",
        "street": "Rua D08",
        "zipcode": "13643-214"
    },
    {
        "city": "Pirassununga",
        "state": "SP",
        "district": "Vila dos Oficiais",
        "street": "Rua D06",
        "zipcode": "13643-210"
    },
    {
        "city": "Pirassununga",
        "state": "SP",
        "district": "Vila dos Oficiais",
        "street": "Rua Quatro de Julho",
        "zipcode": "13643-234"
    },
    {
        "city": "Pirassununga",
        "state": "SP",
        "district": "Jardim Lauro Pozzi",
        "street": "Rua Anthero Boller de Souza",
        "zipcode": "13633-335"
    },
    {
        "city": "Pirassununga",
        "state": "SP",
        "district": "Vila Redenção",
        "street": "Rua Arcindo Lebeis",
        "zipcode": "13633-376"
    },
    {
        "city": "Pirassununga",
        "state": "SP",
        "district": "Vila Redenção",
        "street": "Rua Assef Jorge Assef",
        "zipcode": "13633-362"
    },
    {
        "city": "Pirassununga",
        "state": "SP",
        "district": "Parque dos Eucaliptos",
        "street": "Rua Augusto Guelli",
        "zipcode": "13633-096"
    },
    {
        "city": "Pirassununga",
        "state": "SP",
        "district": "Jardim Redentor",
        "street": "Rua Aurélio Marchi",
        "zipcode": "13635-075"
    },
    {
        "city": "Pirassununga",
        "state": "SP",
        "district": "Vila Belmiro",
        "street": "Rua Campo Grande",
        "zipcode": "13633-528"
    },
    {
        "city": "Pirassununga",
        "state": "SP",
        "district": "Vila Esperança",
        "street": "Rua Chile",
        "zipcode": "13635-105"
    },
    {
        "city": "Pirassununga",
        "state": "SP",
        "district": "Jardim Lauro Pozzi",
        "street": "Rua Cônego Alécio Adani",
        "zipcode": "13633-322"
    },
    {
        "city": "Pirassununga",
        "state": "SP",
        "district": "Cidade Jardim",
        "street": "Caminho dos Curiós",
        "zipcode": "13632-536"
    },
    {
        "city": "Pirassununga",
        "state": "SP",
        "district": "Vila Guilhermina",
        "street": "Rua Emílio Domingos",
        "zipcode": "13634-206"
    },
    {
        "city": "Pirassununga",
        "state": "SP",
        "district": "Vila Belmiro",
        "street": "Rua Fortaleza",
        "zipcode": "13633-521"
    },
    {
        "city": "Pirassununga",
        "state": "SP",
        "district": "Parque dos Eucaliptos",
        "street": "Rua Francisco Cera",
        "zipcode": "13633-085"
    },
    {
        "city": "Pirassununga",
        "state": "SP",
        "district": "Jardim Carlos Gomes",
        "street": "Rua Francisco Eugênio Malaman",
        "zipcode": "13633-060"
    },
    {
        "city": "Pirassununga",
        "state": "SP",
        "district": "Jardim Petrópolis",
        "street": "Rua Francisco Franco de Arruda",
        "zipcode": "13634-316"
    },
    {
        "city": "Pirassununga",
        "state": "SP",
        "district": "Cidade Jardim",
        "street": "Caminho das Garças",
        "zipcode": "13632-544"
    },
    {
        "city": "Pirassununga",
        "state": "SP",
        "district": "Jardim do Lago",
        "street": "Rua das Garças",
        "zipcode": "13633-138"
    },
    {
        "city": "Pirassununga",
        "state": "SP",
        "district": "Vila Esperança",
        "street": "Rua Guiana",
        "zipcode": "13635-109"
    },
    {
        "city": "Pirassununga",
        "state": "SP",
        "district": "Jardim das Laranjeiras",
        "street": "Rua Higino Baladore",
        "zipcode": "13635-138"
    },
    {
        "city": "Pirassununga",
        "state": "SP",
        "district": "Cidade Jardim",
        "street": "Alameda das Hortências",
        "zipcode": "13632-484"
    },
    {
        "city": "Pirassununga",
        "state": "SP",
        "district": "Cidade Jardim",
        "street": "Alameda dos Jequitibás",
        "zipcode": "13632-566"
    },
    {
        "city": "Pirassununga",
        "state": "SP",
        "district": "Jardim das Laranjeiras",
        "street": "Rua João Francisco Jardim",
        "zipcode": "13635-124"
    },
    {
        "city": "Pirassununga",
        "state": "SP",
        "district": "Jardim São Valentim",
        "street": "Rua João Vieira Sardinha",
        "zipcode": "13635-050"
    },
    {
        "city": "Pirassununga",
        "state": "SP",
        "district": "Jardim Kamel",
        "street": "Rua Martimiano dos Santos",
        "zipcode": "13632-424"
    },
    {
        "city": "Pirassununga",
        "state": "SP",
        "district": "Jardim Carlos Gomes",
        "street": "Avenida Germano Dix",
        "zipcode": "13633-900"
    },
    {
        "city": "Pirassununga",
        "state": "SP",
        "district": "Rosário",
        "street": "Rua José Bonifácio",
        "zipcode": "13634-901"
    },
    {
        "city": "Pirassununga",
        "state": "SP",
        "district": "Rosário",
        "street": "Rua José Bonifácio",
        "zipcode": "13634-010"
    },
    {
        "city": "Pirassununga",
        "state": "SP",
        "district": "Distrito Industrial",
        "street": "Rua Liduino Postal",
        "zipcode": "13633-450"
    },
    {
        "city": "Pirassununga",
        "state": "SP",
        "district": "Jardim São Valentim",
        "street": "Rua Lydia de Arruda Reis",
        "zipcode": "13635-038"
    },
    {
        "city": "Pirassununga",
        "state": "SP",
        "district": "Cidade Jardim",
        "street": "Alameda Mathilde Araium",
        "zipcode": "13632-530"
    },
    {
        "city": "Pirassununga",
        "state": "SP",
        "district": "Rosário",
        "street": "Rua Pedro Camargo Neves",
        "zipcode": "13634-038"
    },
    {
        "city": "Pirassununga",
        "state": "SP",
        "district": "Jardim América",
        "street": "Rua Roberto André Wegmuller",
        "zipcode": "13634-270"
    },
    {
        "city": "Pirassununga",
        "state": "SP",
        "district": "Jardim Carlos Gomes",
        "street": "Rua Roberto Demétrio Zema",
        "zipcode": "13633-014"
    },
    {
        "city": "Pirassununga",
        "state": "SP",
        "district": "Jardim Petrópolis",
        "street": "Rua Geraldo Goze",
        "zipcode": "13634-319"
    },
    {
        "city": "Pirassununga",
        "state": "SP",
        "district": "Jardim São Lucas",
        "street": "Rua Tenente Antônio Borragini Júnior",
        "zipcode": "13635-086"
    },
    {
        "city": "Pirassununga",
        "state": "SP",
        "district": "Jardim Petrópolis",
        "street": "Rua Urbano Alves da Silva",
        "zipcode": "13634-313"
    },
    {
        "city": "Pirassununga",
        "state": "SP",
        "district": "Vila Guilhermina",
        "street": "Rua Valentina A. Prado Penteado",
        "zipcode": "13634-213"
    },
    {
        "city": "Pirassununga",
        "state": "SP",
        "district": "Vila Redenção",
        "street": "Rua Vinícius Romanelli",
        "zipcode": "13633-354"
    },
    {
        "city": "Pirassununga",
        "state": "SP",
        "district": "Jardim Rosim",
        "street": "Rua Francisco Bido",
        "zipcode": "13634-072"
    },
    {
        "city": "Pirassununga",
        "state": "SP",
        "district": "Vila Redenção",
        "street": "Rua Pedro Ziliotto",
        "zipcode": "13633-380"
    },
    {
        "city": "Pirassununga",
        "state": "SP",
        "district": "Vila Esperança",
        "street": "Avenida América do Sul",
        "zipcode": "13635-101"
    },
    {
        "city": "Pirassununga",
        "state": "SP",
        "district": "Jardim Rosim",
        "street": "Rua Nicola Baptistella",
        "zipcode": "13634-102"
    },
    {
        "city": "Pirassununga",
        "state": "SP",
        "district": "Jardim Elite",
        "street": "Avenida Marginal",
        "zipcode": "13635-010"
    },
    {
        "city": "Pirassununga",
        "state": "SP",
        "district": "Vila Belmiro",
        "street": "Rua Curitiba",
        "zipcode": "13633-515"
    },
    {
        "city": "Pirassununga",
        "state": "SP",
        "district": "Jardim Carlos Gomes",
        "street": "Avenida Germano Dix",
        "zipcode": "13633-010"
    },
    {
        "city": "Pirassununga",
        "state": "SP",
        "district": "Jardim Europa",
        "street": "Rua João Batista Levi",
        "zipcode": "13634-503"
    },
    {
        "city": "Pirassununga",
        "state": "SP",
        "district": "Jardim Elite",
        "street": "Rua Oscar Pion",
        "zipcode": "13635-003"
    },
    {
        "city": "Pirassununga",
        "state": "SP",
        "district": "Cidade Jardim",
        "street": "Alameda dos Pinheiros",
        "zipcode": "13632-472"
    },
    {
        "city": "Pirassununga",
        "state": "SP",
        "district": "Vertentes do Mamonal",
        "street": "Alameda Pintassilgo",
        "zipcode": "13633-708"
    },
    {
        "city": "Pirassununga",
        "state": "SP",
        "district": "Vila Santa Terezinha",
        "street": "Rua Ângelo Victório Seraphim",
        "zipcode": "13636-127"
    },
    {
        "city": "Pirassununga",
        "state": "SP",
        "district": "Jardim Ferrarezzi",
        "street": "Rua Antenor Benintendi",
        "zipcode": "13636-152"
    },
    {
        "city": "Pirassununga",
        "state": "SP",
        "district": "Vila Santa Terezinha",
        "street": "Rua Aristóteles de Oliveira",
        "zipcode": "13636-120"
    },
    {
        "city": "Pirassununga",
        "state": "SP",
        "district": "Jardim das Laranjeiras",
        "street": "Rua Idílio Rosim",
        "zipcode": "13635-182"
    },
    {
        "city": "Pirassununga",
        "state": "SP",
        "district": "Jardim das Laranjeiras",
        "street": "Rua João Consentino",
        "zipcode": "13635-146"
    },
    {
        "city": "Pirassununga",
        "state": "SP",
        "district": "Parque Clayton Malaman",
        "street": "Rua Doutor Evandro Rogério Montanini",
        "zipcode": "13635-205"
    },
    {
        "city": "Pirassununga",
        "state": "SP",
        "district": "Parque Clayton Malaman",
        "street": "Rua Guilherme Port",
        "zipcode": "13635-209"
    },
    {
        "city": "Pirassununga",
        "state": "SP",
        "district": "Jardim Terras de San José",
        "street": "Rua Gregório Pavão",
        "zipcode": "13643-310"
    },
    {
        "city": "Pirassununga",
        "state": "SP",
        "district": "Jardim Verona II",
        "street": "Rua Ana Bercke",
        "zipcode": "13643-333"
    },
    {
        "city": "Pirassununga",
        "state": "SP",
        "district": "Jardim Milenium",
        "street": "Rua João Marquesini",
        "zipcode": "13643-471"
    },
    {
        "city": "Pirassununga",
        "state": "SP",
        "district": "Jardim Residence Rio Verde",
        "street": "Rua Elvira Zan Baldovinotti",
        "zipcode": "13635-193"
    },
    {
        "city": "Pirassununga",
        "state": "SP",
        "district": "Jardim Residence Rio Verde",
        "street": "Rua Jorge Port",
        "zipcode": "13635-199"
    },
    {
        "city": "Pirassununga",
        "state": "SP",
        "district": "Jardim Milenium",
        "street": "Rua José Prado dos Santos Filho",
        "zipcode": "13643-476"
    },
    {
        "city": "Pirassununga",
        "state": "SP",
        "district": "Centro",
        "street": "Rua Galício Del Nero",
        "zipcode": "13631-973"
    },
    {
        "city": "Pirassununga",
        "state": "SP",
        "district": "Jardim Elite",
        "street": "Avenida Duque de Caxias Norte",
        "zipcode": "13635-900"
    },
    {
        "city": "Pirassununga",
        "state": "SP",
        "district": "Jardim Ferrarezzi",
        "street": "Rua Odorico Vieira",
        "zipcode": "13636-150"
    },
    {
        "city": "Pirassununga",
        "state": "SP",
        "district": "Jardim das Laranjeiras",
        "street": "Rua Pedro Tuckumatel",
        "zipcode": "13635-162"
    },
    {
        "city": "Pirassununga",
        "state": "SP",
        "district": "Jardim Ferrarezzi",
        "street": "Rua Terezinha Rodrigues",
        "zipcode": "13636-164"
    },
    {
        "city": "Pirassununga",
        "state": "SP",
        "district": "Jardim Ferrarezzi",
        "street": "Rua José Rodrigues Sobrinho",
        "zipcode": "13636-182"
    },
    {
        "city": "Pirassununga",
        "state": "SP",
        "district": "Vila Santa Fé",
        "street": "Rua São Luiz",
        "zipcode": "13640-400"
    },
    {
        "city": "Pirassununga",
        "state": "SP",
        "district": "Vila Santa Fé",
        "street": "Rua São Cristovão",
        "zipcode": "13640-404"
    },
    {
        "city": "Pirassununga",
        "state": "SP",
        "district": "Vila Santa Fé",
        "street": "Rua São Joaquim",
        "zipcode": "13640-410"
    },
    {
        "city": "Pirassununga",
        "state": "SP",
        "district": "Vila Santa Fé",
        "street": "Rua Santa Gertrudes",
        "zipcode": "13640-431"
    },
    {
        "city": "Pirassununga",
        "state": "SP",
        "district": "Vila Santa Fé",
        "street": "Rua Santa Efigênia",
        "zipcode": "13640-433"
    },
    {
        "city": "Pirassununga",
        "state": "SP",
        "district": "Residencial Vila Romana",
        "street": "Rua Orlando Veneroso",
        "zipcode": "13633-258"
    },
    {
        "city": "Pirassununga",
        "state": "SP",
        "district": "Jardim dos Ipês",
        "street": "Rua Nilton Sebastião Garcia",
        "zipcode": "13633-388"
    },
    {
        "city": "Pirassununga",
        "state": "SP",
        "district": "Jardim Treviso",
        "street": "Rua Benedicto Lapola",
        "zipcode": "13638-403"
    },
    {
        "city": "Pirassununga",
        "state": "SP",
        "district": "Jardim Treviso",
        "street": "Rua Professora Magali Estela Vitto Gonçalves",
        "zipcode": "13638-417"
    },
    {
        "city": "Pirassununga",
        "state": "SP",
        "district": "Jardim Treviso",
        "street": "Avenida Maria José Bruno Trevisan",
        "zipcode": "13638-429"
    },
    {
        "city": "Pirassununga",
        "state": "SP",
        "district": "Jardim Treviso",
        "street": "Rua Antonio Siqueira Montalvão",
        "zipcode": "13638-421"
    },
    {
        "city": "Pirassununga",
        "state": "SP",
        "district": "Vila Santa Fé",
        "street": "Rua Santa Bárbara",
        "zipcode": "13640-437"
    },
    {
        "city": "Pirassununga",
        "state": "SP",
        "district": "Vila dos Sargentos e Sub Oficiais",
        "street": "Rua E02",
        "zipcode": "13643-003"
    },
    {
        "city": "Pirassununga",
        "state": "SP",
        "district": "Vila dos Sargentos e Sub Oficiais",
        "street": "Rua E04",
        "zipcode": "13643-007"
    },
    {
        "city": "Pirassununga",
        "state": "SP",
        "district": "Vila dos Sargentos e Sub Oficiais",
        "street": "Rua E05",
        "zipcode": "13643-009"
    },
    {
        "city": "Pirassununga",
        "state": "SP",
        "district": "Vila dos Sargentos e Sub Oficiais",
        "street": "Rua E13",
        "zipcode": "13643-022"
    },
    {
        "city": "Pirassununga",
        "state": "SP",
        "district": "Jardim Cachoeira",
        "street": "Rua Fernando Costa",
        "zipcode": "13641-003"
    },
    {
        "city": "Pirassununga",
        "state": "SP",
        "district": "Jardim Cachoeira",
        "street": "Rua Jaime Rodrigues",
        "zipcode": "13641-010"
    },
    {
        "city": "Pirassununga",
        "state": "SP",
        "district": "Jardim Bela Vista",
        "street": "Rua Major José Alves de Moraes",
        "zipcode": "13640-504"
    },
    {
        "city": "Pirassununga",
        "state": "SP",
        "district": "Jardim Limoeiro",
        "street": "Rua José Alves Pereira",
        "zipcode": "13641-052"
    },
    {
        "city": "Pirassununga",
        "state": "SP",
        "district": "Vila Santa Terezinha",
        "street": "Rua Valter Sampaio Brandão",
        "zipcode": "13636-040"
    },
    {
        "city": "Pirassununga",
        "state": "SP",
        "district": "Loteamento Verona",
        "street": "Rua Hilton da Silva Bley",
        "zipcode": "13632-340"
    },
    {
        "city": "Pirassununga",
        "state": "SP",
        "district": "Centro",
        "street": "Travessa Tiradentes",
        "zipcode": "13631-092"
    },
    {
        "city": "Pirassununga",
        "state": "SP",
        "district": "Jardim Redentor",
        "street": "Rua Francisco Belloni",
        "zipcode": "13635-072"
    },
    {
        "city": "Pirassununga",
        "state": "SP",
        "district": "Vila Santa Fé",
        "street": "Rua São Camilo",
        "zipcode": "13640-012"
    },
    {
        "city": "Pirassununga",
        "state": "SP",
        "district": "Jardim Milenium",
        "street": "Rua Paulo Diogo Baldin",
        "zipcode": "13643-486"
    },
    {
        "city": "Pirassununga",
        "state": "SP",
        "district": "Jardim Residence Rio Verde",
        "street": "Rua Bazilio Baptista Pereira",
        "zipcode": "13635-190"
    },
    {
        "city": "Pirassununga",
        "state": "SP",
        "district": "Jardim Residence Rio Verde",
        "street": "Rua João Anzolim",
        "zipcode": "13635-191"
    },
    {
        "city": "Pirassununga",
        "state": "SP",
        "district": "Jardim Residencial Ferrari",
        "street": "Rua Ophélia Ferrarezi",
        "zipcode": "13635-256"
    },
    {
        "city": "Pirassununga",
        "state": "SP",
        "district": "Jardim Treviso",
        "street": "Rua Inês Rizil",
        "zipcode": "13638-407"
    },
    {
        "city": "Pirassununga",
        "state": "SP",
        "district": "Rosário",
        "street": "Residencial Parque das Palmeiras",
        "zipcode": "13634-012"
    },
    {
        "city": "Pirassununga",
        "state": "SP",
        "district": "Centro",
        "street": "Praça Anita Costa",
        "zipcode": "13631-061"
    },
    {
        "city": "Pirassununga",
        "state": "SP",
        "district": "Vila Real",
        "street": "Avenida Joaquim Duarte de Oliveira",
        "zipcode": "13638-030"
    },
    {
        "city": "Pirassununga",
        "state": "SP",
        "district": "Jardim Treviso",
        "street": "Rua José Pereira da Cruz",
        "zipcode": "13638-419"
    },
    {
        "city": "Pirassununga",
        "state": "SP",
        "district": "Jardim Milenium",
        "street": "Rua João Galassi",
        "zipcode": "13643-492"
    },
    {
        "city": "Pirassununga",
        "state": "SP",
        "district": "Jardim Milenium",
        "street": "Rua Paulo Berretta",
        "zipcode": "13643-489"
    },
    {
        "city": "Pirassununga",
        "state": "SP",
        "district": "Centro",
        "street": "Praça Bel Del Nero",
        "zipcode": "13630-130"
    },
    {
        "city": "Pirassununga",
        "state": "SP",
        "district": "Vila São Judas Tadeu",
        "street": "Rua Francisco Pereira Oliveira",
        "zipcode": "13630-521"
    },
    {
        "city": "Pirassununga",
        "state": "SP",
        "district": "Vila dos Oficiais",
        "street": "Rua D09",
        "zipcode": "13643-216"
    },
    {
        "city": "Pirassununga",
        "state": "SP",
        "district": "Jardim dos Ipês",
        "street": "Rua Mauro Boizan",
        "zipcode": "13633-390"
    },
    {
        "city": "Pirassununga",
        "state": "SP",
        "district": "Vertentes do Mamonal",
        "street": "Alameda Andorinha",
        "zipcode": "13633-701"
    },
    {
        "city": "Pirassununga",
        "state": "SP",
        "district": "Jardim Roma",
        "street": "Rua José Dioguinho Baldovinotti",
        "zipcode": "13631-340"
    },
    {
        "city": "Pirassununga",
        "state": "SP",
        "district": "Jardim Cachoeira",
        "street": "Rodovia Prefeito Euberto Nemésio Pereira de Godoy",
        "zipcode": "13641-970"
    },
    {
        "city": "Pirassununga",
        "state": "SP",
        "district": "Vila Santa Terezinha",
        "street": "Alameda dos Oitis (Cond Res P Jerivás)",
        "zipcode": "13636-111"
    },
    {
        "city": "Pirassununga",
        "state": "SP",
        "district": "Vila dos Oficiais",
        "street": "Rua D20",
        "zipcode": "13643-226"
    },
    {
        "city": "Pirassununga",
        "state": "SP",
        "district": "Jardim Nossa Senhora Aparecida",
        "street": "Rua Nossa Senhora Aparecida",
        "zipcode": "13641-081"
    },
    {
        "city": "Pirassununga",
        "state": "SP",
        "district": "Jardim Kanebo",
        "street": "Rua Capitão José Paulo Tannús",
        "zipcode": "13632-436"
    },
    {
        "city": "Pirassununga",
        "state": "SP",
        "district": "Jardim São Fernando",
        "street": "Praça São Fernando",
        "zipcode": "13631-118"
    },
    {
        "city": "Pirassununga",
        "state": "SP",
        "district": "Vila dos Oficiais",
        "street": "Rua Coronel Mendes",
        "zipcode": "13643-232"
    },
    {
        "city": "Pirassununga",
        "state": "SP",
        "district": "Vila Santa Terezinha",
        "street": "Alameda das Quaresmeiras (Cond Res P Jerivás)",
        "zipcode": "13636-112"
    },
    {
        "city": "Pirassununga",
        "state": "SP",
        "district": "Cidade Jardim",
        "street": "Alameda da Praça (Village C Jardim)",
        "zipcode": "13632-501"
    },
    {
        "city": "Pirassununga",
        "state": "SP",
        "district": "Vila dos Cabos e Taifeiros",
        "street": "Rua E44",
        "zipcode": "13643-105"
    },
    {
        "city": "Pirassununga",
        "state": "SP",
        "district": "Pólo Industrial Guilherme Müller Filho",
        "street": "Rua Gentil Josué de Carli",
        "zipcode": "13632-626"
    },
    {
        "city": "Pirassununga",
        "state": "SP",
        "district": "Cidade Jardim",
        "street": "Alameda do Poente (Village C Jardim)",
        "zipcode": "13632-500"
    },
    {
        "city": "Pirassununga",
        "state": "SP",
        "district": "Jardim Kanebo",
        "street": "Rua Odila Pegoraro Boscolo",
        "zipcode": "13632-433"
    },
    {
        "city": "Pirassununga",
        "state": "SP",
        "district": "Vila Belmiro",
        "street": "Rua Projetada",
        "zipcode": "13633-529"
    },
    {
        "city": "Pirassununga",
        "state": "SP",
        "district": "Jardim Ferrari II",
        "street": "Rua Anna Baroni Rissi",
        "zipcode": "13635-260"
    },
    {
        "city": "Pirassununga",
        "state": "SP",
        "district": "Jardim Verona II",
        "street": "Rua José Benedito Humberto",
        "zipcode": "13643-345"
    },
    {
        "city": "Pirassununga",
        "state": "SP",
        "district": "Jardim Kanebo",
        "street": "Rua David dos Santos Figueiredo",
        "zipcode": "13632-430"
    },
    {
        "city": "Pirassununga",
        "state": "SP",
        "district": "Jardim Kanebo",
        "street": "Rua Amelio Pegoraro",
        "zipcode": "13632-435"
    },
    {
        "city": "Pirassununga",
        "state": "SP",
        "district": "Vila dos Oficiais",
        "street": "Rua D05",
        "zipcode": "13643-208"
    },
    {
        "city": "Pirassununga",
        "state": "SP",
        "district": "Jardim Milenium",
        "street": "Rua Duilio Pavão",
        "zipcode": "13643-484"
    },
    {
        "city": "Pirassununga",
        "state": "SP",
        "district": "Pólo Industrial Guilherme Müller Filho",
        "street": "Rua Eugênio Keller",
        "zipcode": "13632-624"
    },
    {
        "city": "Pirassununga",
        "state": "SP",
        "district": "Jardim Veneza II",
        "street": "Rua Eliza Souza da Silva",
        "zipcode": "13630-852"
    },
    {
        "city": "Pirassununga",
        "state": "SP",
        "district": "Centro",
        "street": "Praça Belarmino Del Nero",
        "zipcode": "13630-128"
    },
    {
        "city": "Pirassununga",
        "state": "SP",
        "district": "Vila Belmiro",
        "street": "Rua Vitória",
        "zipcode": "13633-526"
    },
    {
        "city": "Pirassununga",
        "state": "SP",
        "district": "Cidade Jardim",
        "street": "Alameda das Acácias",
        "zipcode": "13632-494"
    },
    {
        "city": "Pirassununga",
        "state": "SP",
        "district": "Loteamento Verona",
        "street": "Rua Cristiano Franco",
        "zipcode": "13632-251"
    },
    {
        "city": "Pirassununga",
        "state": "SP",
        "district": "Vila Sao Pedro",
        "street": "Avenida Alfio Savastano",
        "zipcode": "13632-092"
    },
    {
        "city": "Pirassununga",
        "state": "SP",
        "district": "Vila Belmiro",
        "street": "Avenida dos Acadêmicos",
        "zipcode": "13633-490"
    },
    {
        "city": "Pirassununga",
        "state": "SP",
        "district": "Vila Malaquias",
        "street": "Rua Almiro Godinho",
        "zipcode": "13636-090"
    },
    {
        "city": "Pirassununga",
        "state": "SP",
        "district": "Jardim Margarida",
        "street": "Rua Moacyr Pereira Castilho",
        "zipcode": "13630-603"
    },
    {
        "city": "Pirassununga",
        "state": "SP",
        "district": "Vila Real",
        "street": "Rua José C. Machado",
        "zipcode": "13638-020"
    },
    {
        "city": "Pirassununga",
        "state": "SP",
        "district": "Jardim Kanebo",
        "street": "Rua Idalina de Oliveira Santos",
        "zipcode": "13632-439"
    },
    {
        "city": "Pirassununga",
        "state": "SP",
        "district": "Vila Esperanca",
        "street": "Rua Uruguai",
        "zipcode": "13635-062"
    },
    {
        "city": "Pirassununga",
        "state": "SP",
        "district": "Vila Becker",
        "street": "Rua Venceslau B. Pereira Gomes",
        "zipcode": "13636-060"
    },
    {
        "city": "Pirassununga",
        "state": "SP",
        "district": "Vila Esperanca",
        "street": "Rua Porto Rico",
        "zipcode": "13635-065"
    },
    {
        "city": "Pirassununga",
        "state": "SP",
        "district": "Distrito Industrial",
        "street": "Rua 02",
        "zipcode": "13633-420"
    },
    {
        "city": "Pirassununga",
        "state": "SP",
        "district": "Jardim Ferrari II",
        "street": "Rua Antonio Sergio Martins",
        "zipcode": "13635-269"
    },
    {
        "city": "Pirassununga",
        "state": "SP",
        "district": "Residencial Vila Romana",
        "street": "Rua Professor José do Valle Sundfeld",
        "zipcode": "13633-252"
    },
    {
        "city": "Pirassununga",
        "state": "SP",
        "district": "Jardim Sao Valentim",
        "street": "Rua 27",
        "zipcode": "13635-037"
    },
    {
        "city": "Pirassununga",
        "state": "SP",
        "district": "Centro",
        "street": "Rua Coronel Franco",
        "zipcode": "13630-180"
    },
    {
        "city": "Pirassununga",
        "state": "SP",
        "district": "Jardim Sao Valentim",
        "street": "Rua 23",
        "zipcode": "13635-042"
    },
    {
        "city": "Pirassununga",
        "state": "SP",
        "district": "Jardim Brasilia",
        "street": "Rua Angelo Pavao",
        "zipcode": "13632-614"
    },
    {
        "city": "Pirassununga",
        "state": "SP",
        "district": "Vila Becker",
        "street": "Rua Antonio Lodi",
        "zipcode": "13636-075"
    },
    {
        "city": "Pirassununga",
        "state": "SP",
        "district": "Jardim Margarida",
        "street": "Rua Jose Carlos L. F. Guimaraes",
        "zipcode": "13630-600"
    },
    {
        "city": "Pirassununga",
        "state": "SP",
        "district": "Jardim Santa Rita",
        "street": "Rua Sao Judas Tadeu",
        "zipcode": "13631-240"
    },
    {
        "city": "Pirassununga",
        "state": "SP",
        "district": "Cidade Jardim",
        "street": "Alameda Sul (Village C Jardim)",
        "zipcode": "13632-502"
    },
    {
        "city": "Pirassununga",
        "state": "SP",
        "district": "Vila Nova",
        "street": "Rua Urbano Rebello",
        "zipcode": "13632-254"
    },
    {
        "city": "Pirassununga",
        "state": "SP",
        "district": "Jardim Milenium",
        "street": "Rua Ignez Rosolen Alves",
        "zipcode": "13643-485"
    },
    {
        "city": "Pirassununga",
        "state": "SP",
        "district": "Jardim Brasilia",
        "street": "Rua Henrique Ferreira Dos Reis",
        "zipcode": "13631-485"
    },
    {
        "city": "Pirassununga",
        "state": "SP",
        "district": "Jardim Primavera",
        "street": "Rua 01",
        "zipcode": "13636-352"
    },
    {
        "city": "Pirassununga",
        "state": "SP",
        "district": "Jardim Carlos Gomes",
        "street": "Rua Cecilio Carlos Da Silva",
        "zipcode": "13631-052"
    },
    {
        "city": "Pirassununga",
        "state": "SP",
        "district": "Distrito Industrial",
        "street": "Rua 03",
        "zipcode": "13633-422"
    },
    {
        "city": "Pirassununga",
        "state": "SP",
        "district": "Jardim Olimpio Felicio",
        "street": "Avenida 09",
        "zipcode": "13632-090"
    },
    {
        "city": "Pirassununga",
        "state": "SP",
        "district": "Jardim Ferrari II",
        "street": "Rua Sebastião Augusto",
        "zipcode": "13635-265"
    },
    {
        "city": "Pirassununga",
        "state": "SP",
        "district": "Jardim Sao Valentim",
        "street": "Rua 11",
        "zipcode": "13635-023"
    },
    {
        "city": "Pirassununga",
        "state": "SP",
        "district": "Jardim Morumbi",
        "street": "Rua Antenor Pereira",
        "zipcode": "13631-680"
    },
    {
        "city": "Pirassununga",
        "state": "SP",
        "district": "Jardim Carlos Gomes",
        "street": "Rua Germano Dix",
        "zipcode": "13633-000"
    },
    {
        "city": "Pirassununga",
        "state": "SP",
        "district": "Vila Becker",
        "street": "Rua Prof. Antonio Faggin",
        "zipcode": "13636-050"
    },
    {
        "city": "Pirassununga",
        "state": "SP",
        "district": "Jardim Do Lago",
        "street": "Rua Dos Paturis",
        "zipcode": "13633-080"
    },
    {
        "city": "Pirassununga",
        "state": "SP",
        "district": "Vila Industrial",
        "street": "Rua Dr Jose Marsiglio Filho",
        "zipcode": "13631-360"
    },
    {
        "city": "Pirassununga",
        "state": "SP",
        "district": "Vila Esperanca",
        "street": "Avenida Das Nacoes",
        "zipcode": "13635-060"
    },
    {
        "city": "Pirassununga",
        "state": "SP",
        "district": "Jardim Olimpio Felicio",
        "street": "Rua Paschoal Banin",
        "zipcode": "13632-115"
    },
    {
        "city": "Pirassununga",
        "state": "SP",
        "district": "Jardim Olimpio Felicio",
        "street": "Rua Francisco De O. E Silva",
        "zipcode": "13632-126"
    },
    {
        "city": "Pirassununga",
        "state": "SP",
        "district": "Vila Pinheiro",
        "street": "Rua Angelo Aldriguetti",
        "zipcode": "13630-590"
    },
    {
        "city": "Pirassununga",
        "state": "SP",
        "district": "Jardim Sao Fernando",
        "street": "Rua Das Gardenias",
        "zipcode": "13631-269"
    },
    {
        "city": "Pirassununga",
        "state": "SP",
        "district": "Jardim Carlos Gomes",
        "street": "Rua Afonso Grisi",
        "zipcode": "13631-024"
    },
    {
        "city": "Pirassununga",
        "state": "SP",
        "district": "Jardim Sao Valentim",
        "street": "Rua 12",
        "zipcode": "13635-026"
    },
    {
        "city": "Pirassununga",
        "state": "SP",
        "district": "Vila Malaquias",
        "street": "Rua Nicolau Januzzi",
        "zipcode": "13636-105"
    },
    {
        "city": "Pirassununga",
        "state": "SP",
        "district": "Jardim Pavesi",
        "street": "Rua Guilherme Silva",
        "zipcode": "13631-198"
    },
    {
        "city": "Pirassununga",
        "state": "SP",
        "district": "Vila Nova",
        "street": "Rua Benedito De Freitas",
        "zipcode": "13632-252"
    },
    {
        "city": "Pirassununga",
        "state": "SP",
        "district": "Jardim Roma",
        "street": "Rua Domingos Devitte",
        "zipcode": "13631-180"
    },
    {
        "city": "Pirassununga",
        "state": "SP",
        "district": "Vila Esperanca",
        "street": "Avenida America Do Sul",
        "zipcode": "13635-092"
    },
    {
        "city": "Pirassununga",
        "state": "SP",
        "district": "Centro",
        "street": "Avenida Painguas",
        "zipcode": "13630-250"
    },
    {
        "city": "Pirassununga",
        "state": "SP",
        "district": "Vila Steola",
        "street": "Rua Bom Jesus",
        "zipcode": "13634-020"
    },
    {
        "city": "Pirassununga",
        "state": "SP",
        "district": "Centro",
        "street": "Rua Dom Pedro Ii",
        "zipcode": "13630-240"
    },
    {
        "city": "Pirassununga",
        "state": "SP",
        "district": "Jardim Sao Valentim",
        "street": "Rua 13",
        "zipcode": "13635-030"
    },
    {
        "city": "Pirassununga",
        "state": "SP",
        "district": "Vila Santa Terezinha",
        "street": "Rua Angelo Victorio Seraphim",
        "zipcode": "13636-134"
    },
    {
        "city": "Pirassununga",
        "state": "SP",
        "district": "Centro",
        "street": "Rua Dos Lemes",
        "zipcode": "13630-230"
    },
    {
        "city": "Pirassununga",
        "state": "SP",
        "district": "Jardim Morumbi",
        "street": "Rua Jose Peres",
        "zipcode": "13631-670"
    },
    {
        "city": "Pirassununga",
        "state": "SP",
        "district": "Vila Esperanca",
        "street": "Rua Canada",
        "zipcode": "13635-064"
    },
    {
        "city": "Pirassununga",
        "state": "SP",
        "district": "Vila Industrial",
        "street": "Rua Capitao Octaviano Jose Correa",
        "zipcode": "13631-355"
    },
    {
        "city": "Pirassununga",
        "state": "SP",
        "district": "Jardim Godoy",
        "street": "Vila Academia da Força Aérea",
        "zipcode": "13643-000"
    },
    {
        "city": "Pirassununga",
        "state": "SP",
        "district": "Jardim Sao Valentim",
        "street": "Rua 06",
        "zipcode": "13635-028"
    },
    {
        "city": "Pirassununga",
        "state": "SP",
        "district": "Jardim Do Lago",
        "street": "Rua Lago Azul",
        "zipcode": "13633-086"
    },
    {
        "city": "Pirassununga",
        "state": "SP",
        "district": "Vila Militar",
        "street": "Alameda Tenente Franco Da Silveira",
        "zipcode": "13632-317"
    },
    {
        "city": "Pirassununga",
        "state": "SP",
        "district": "Jardim Pavesi",
        "street": "Rua Francisco Mollo",
        "zipcode": "13631-196"
    },
    {
        "city": "Pirassununga",
        "state": "SP",
        "district": "Vila Sao Judas Tadeu",
        "street": "Rua Duque De Caxias",
        "zipcode": "13630-090"
    },
    {
        "city": "Pirassununga",
        "state": "SP",
        "district": "Jardim Carlos Gomes",
        "street": "Rua Afonso Grisi",
        "zipcode": "13631-111"
    },
    {
        "city": "Pirassununga",
        "state": "SP",
        "district": "Vila Guimarães",
        "street": "Rua Afonso Guimarães",
        "zipcode": "13630-195"
    },
    {
        "city": "Pirassununga",
        "state": "SP",
        "district": "Jardim Kamel",
        "street": "Rua Alagoas",
        "zipcode": "13632-415"
    },
    {
        "city": "Pirassununga",
        "state": "SP",
        "district": "Jardim São Lucas",
        "street": "Rua Alcebíades Bortolini",
        "zipcode": "13635-082"
    },
    {
        "city": "Pirassununga",
        "state": "SP",
        "district": "Vila Malaquias",
        "street": "Rua Alfredo Iglesias da Silva",
        "zipcode": "13636-136"
    },
    {
        "city": "Pirassununga",
        "state": "SP",
        "district": "Jardim São Lucas",
        "street": "Rua Álvaro Barbosa",
        "zipcode": "13635-095"
    },
    {
        "city": "Pirassununga",
        "state": "SP",
        "district": "Vila Pinheiro",
        "street": "Rua Alzira Silveira Pinheiro",
        "zipcode": "13630-350"
    },
    {
        "city": "Pirassununga",
        "state": "SP",
        "district": "Centro",
        "street": "Rua Amador Bueno",
        "zipcode": "13631-080"
    },
    {
        "city": "Pirassununga",
        "state": "SP",
        "district": "Vila Steola",
        "street": "Rua Amador Bueno",
        "zipcode": "13634-052"
    },
    {
        "city": "Pirassununga",
        "state": "SP",
        "district": "Vila Redenção",
        "street": "Rua Amador Franco da Silveira",
        "zipcode": "13633-350"
    },
    {
        "city": "Pirassununga",
        "state": "SP",
        "district": "Jardim Kamel",
        "street": "Rua Amazonas",
        "zipcode": "13632-405"
    },
    {
        "city": "Pirassununga",
        "state": "SP",
        "district": "Jardim das Laranjeiras",
        "street": "Rua Antônio Bento Canineo",
        "zipcode": "13635-132"
    },
    {
        "city": "Pirassununga",
        "state": "SP",
        "district": "Vila Redenção",
        "street": "Rua Antônio Bertazzi",
        "zipcode": "13633-368"
    },
    {
        "city": "Pirassununga",
        "state": "SP",
        "district": "Vila Pinheiro",
        "street": "Rua Antônio Bissaco",
        "zipcode": "13630-372"
    },
    {
        "city": "Pirassununga",
        "state": "SP",
        "district": "Jardim São Lucas",
        "street": "Rua Ângelo Capello",
        "zipcode": "13635-093"
    },
    {
        "city": "Pirassununga",
        "state": "SP",
        "district": "Centro",
        "street": "Avenida Antônio Joaquim Mendes",
        "zipcode": "13631-110"
    },
    {
        "city": "Pirassununga",
        "state": "SP",
        "district": "Jardim Carlos Gomes",
        "street": "Avenida Antônio Joaquim Mendes",
        "zipcode": "13633-037"
    },
    {
        "city": "Pirassununga",
        "state": "SP",
        "district": "Vila Becker",
        "street": "Rua Antônio Lodi",
        "zipcode": "13636-131"
    },
    {
        "city": "Pirassununga",
        "state": "SP",
        "district": "Vila Braz",
        "street": "Rua Benedito da Silva Pinto",
        "zipcode": "13632-020"
    },
    {
        "city": "Pirassununga",
        "state": "SP",
        "district": "Vila São Pedro",
        "street": "Avenida Doutor Ivo Xavier Ferreira",
        "zipcode": "13632-130"
    },
    {
        "city": "Pirassununga",
        "state": "SP",
        "district": "Vila Industrial",
        "street": "Rua Doutor José Marsiglio Filho",
        "zipcode": "13631-302"
    },
    {
        "city": "Pirassununga",
        "state": "SP",
        "district": "Jardim América",
        "street": "Rua Henrique da M. Fonseca Júnior",
        "zipcode": "13634-273"
    },
    {
        "city": "Pirassununga",
        "state": "SP",
        "district": "Jardim das Laranjeiras",
        "street": "Rua Honorato Antônio L. Mangettio",
        "zipcode": "13635-166"
    },
    {
        "city": "Pirassununga",
        "state": "SP",
        "district": "Vila Guimarães",
        "street": "Travessa José Antônio Arruda",
        "zipcode": "13630-248"
    },
    {
        "city": "Pirassununga",
        "state": "SP",
        "district": "Centro",
        "street": "Rua José Bonifácio",
        "zipcode": "13630-010"
    },
    {
        "city": "Pirassununga",
        "state": "SP",
        "district": "Vila Guimarães",
        "street": "Rua Martinho Frederico Boerner",
        "zipcode": "13630-247"
    },
    {
        "city": "Pirassununga",
        "state": "SP",
        "district": "Parque dos Eucaliptos",
        "street": "Rua Nicola Canônico",
        "zipcode": "13633-114"
    },
    {
        "city": "Pirassununga",
        "state": "SP",
        "district": "Jardim Olímpio Felício",
        "street": "Rua Walfrido Alcântara e Silva",
        "zipcode": "13632-094"
    },
    {
        "city": "Pirassununga",
        "state": "SP",
        "district": "Vila Belmiro",
        "street": "Rua Maceió",
        "zipcode": "13633-525"
    },
    {
        "city": "Pirassununga",
        "state": "SP",
        "district": "Vila Belmiro",
        "street": "Rodovia Anhangüera",
        "zipcode": "13633-480"
    },
    {
        "city": "Pirassununga",
        "state": "SP",
        "district": "Jardim Brasília",
        "street": "Rua Henrique Ferreira dos Reis",
        "zipcode": "13631-601"
    },
    {
        "city": "Pirassununga",
        "state": "SP",
        "district": "Centro",
        "street": "Rua Joaquim Procópio de Araújo",
        "zipcode": "13631-020"
    },
    {
        "city": "Pirassununga",
        "state": "SP",
        "district": "Vila dos Sargentos e Sub Oficiais",
        "street": "Rua E06",
        "zipcode": "13643-011"
    },
    {
        "city": "Pirassununga",
        "state": "SP",
        "district": "Jardim Limoeiro",
        "street": "Rua João J. Kethelut",
        "zipcode": "13641-042"
    },
    {
        "city": "Pirassununga",
        "state": "SP",
        "district": "Jardim Anversa",
        "street": "Rua João Batista Corrêa Filho",
        "zipcode": "13631-709"
    },
    {
        "city": "Pirassununga",
        "state": "SP",
        "district": "Jardim Carlos Gomes",
        "street": "Rua Jovem Rosolem",
        "zipcode": "13633-071"
    },
    {
        "city": "Pirassununga",
        "state": "SP",
        "district": "Parque Clayton Malaman",
        "street": "Rua Arlindo Donizetti Praisler",
        "zipcode": "13635-230"
    },
    {
        "city": "Pirassununga",
        "state": "SP",
        "district": "Parque Clayton Malaman",
        "street": "Rua Nelson Garcia",
        "zipcode": "13635-232"
    },
    {
        "city": "Pirassununga",
        "state": "SP",
        "district": "Parque Clayton Malaman",
        "street": "Rua Eugênio Baptistella",
        "zipcode": "13635-234"
    },
    {
        "city": "Pirassununga",
        "state": "SP",
        "district": "Parque Clayton Malaman",
        "street": "Rua José Luiz Franco de Oliveira",
        "zipcode": "13635-236"
    },
    {
        "city": "Pirassununga",
        "state": "SP",
        "district": "Parque Clayton Malaman",
        "street": "Rua Aurora Alvarenga Tavelini",
        "zipcode": "13635-203"
    },
    {
        "city": "Pirassununga",
        "state": "SP",
        "district": "Parque Clayton Malaman",
        "street": "Rua Ezequiel Pereira Tangerino Filho",
        "zipcode": "13635-213"
    },
    {
        "city": "Pirassununga",
        "state": "SP",
        "district": "Jardim Cidade Nova",
        "street": "Rua Augusto Horácio",
        "zipcode": "13633-601"
    },
    {
        "city": "Pirassununga",
        "state": "SP",
        "district": "Jardim Itália",
        "street": "Rua José Thadeu Piedade",
        "zipcode": "13630-706"
    },
    {
        "city": "Pirassununga",
        "state": "SP",
        "district": "Jardim Itália",
        "street": "Rua Augusto Hansen",
        "zipcode": "13630-708"
    },
    {
        "city": "Pirassununga",
        "state": "SP",
        "district": "Jardim Itália",
        "street": "Rua Lazino Aldriguetti",
        "zipcode": "13630-714"
    },
    {
        "city": "Pirassununga",
        "state": "SP",
        "district": "Jardim Itália",
        "street": "Rua Antonio Luiz Darmiano Mistieri",
        "zipcode": "13630-722"
    },
    {
        "city": "Pirassununga",
        "state": "SP",
        "district": "Vila Guimarães",
        "street": "Avenida Painguás",
        "zipcode": "13630-161"
    },
    {
        "city": "Pirassununga",
        "state": "SP",
        "district": "Rosário",
        "street": "Avenida Painguás",
        "zipcode": "13634-007"
    },
    {
        "city": "Pirassununga",
        "state": "SP",
        "district": "Jardim Roma",
        "street": "Rua Domingos Devitte",
        "zipcode": "13631-327"
    },
    {
        "city": "Pirassununga",
        "state": "SP",
        "district": "Vila Brasil",
        "street": "Rua Martimiano dos Santos",
        "zipcode": "13632-401"
    },
    {
        "city": "Pirassununga",
        "state": "SP",
        "district": "Loteamento Verona",
        "street": "Rua Martimiano dos Santos",
        "zipcode": "13632-322"
    },
    {
        "city": "Pirassununga",
        "state": "SP",
        "district": "Jardim Brasília",
        "street": "Rua Antônio Zerbetto",
        "zipcode": "13631-615"
    },
    {
        "city": "Pirassununga",
        "state": "SP",
        "district": "Jardim São Valentim",
        "street": "Rua Francisco da Costa Oliveira",
        "zipcode": "13635-041"
    },
    {
        "city": "Pirassununga",
        "state": "SP",
        "district": "Jardim Residence Rio Verde",
        "street": "Rua Maria Helena Oliveira de Souza",
        "zipcode": "13635-188"
    },
    {
        "city": "Pirassununga",
        "state": "SP",
        "district": "Vila Nova",
        "street": "Rua Da Constituicao",
        "zipcode": "13632-250"
    },
    {
        "city": "Pirassununga",
        "state": "SP",
        "district": "Centro",
        "street": "Rua Coronel Franco",
        "zipcode": "13630-185"
    },
    {
        "city": "Pirassununga",
        "state": "SP",
        "district": "Jardim Treviso",
        "street": "Rua Professor Doutor Ivan Salvador Gonçalves de Carvalho",
        "zipcode": "13638-405"
    },
    {
        "city": "Pirassununga",
        "state": "SP",
        "district": "Jardim Primavera",
        "street": "Rua 02",
        "zipcode": "13636-354"
    },
    {
        "city": "Pirassununga",
        "state": "SP",
        "district": "Vila Esperanca",
        "street": "Rua Guiana",
        "zipcode": "13635-070"
    },
    {
        "city": "Pirassununga",
        "state": "SP",
        "district": "Vila Brasil",
        "street": "Rua Rio Grande Do Sul",
        "zipcode": "13632-350"
    },
    {
        "city": "Pirassununga",
        "state": "SP",
        "district": "Jardim Olimpio Felicio",
        "street": "Rua Angelo Sinotti",
        "zipcode": "13632-120"
    },
    {
        "city": "Pirassununga",
        "state": "SP",
        "district": "Jardim Sao Valentim",
        "street": "Rua 05",
        "zipcode": "13635-024"
    },
    {
        "city": "Pirassununga",
        "state": "SP",
        "district": "Jardim Milenium",
        "street": "Rua Hilário Bercke",
        "zipcode": "13643-493"
    },
    {
        "city": "Pirassununga",
        "state": "SP",
        "district": "Vila Sao Judas Tadeu",
        "street": "Rua Francisco Pereira Oliveira",
        "zipcode": "13630-340"
    },
    {
        "city": "Pirassununga",
        "state": "SP",
        "district": "Jardim Kanebo",
        "street": "Rua Miguel Pizarro",
        "zipcode": "13632-432"
    },
    {
        "city": "Pirassununga",
        "state": "SP",
        "district": "Jardim Do Lago",
        "street": "Rua Dos Cisnes",
        "zipcode": "13633-101"
    },
    {
        "city": "Pirassununga",
        "state": "SP",
        "district": "Jardim Sao Fernando",
        "street": "Rua Das Papoulas",
        "zipcode": "13631-268"
    },
    {
        "city": "Pirassununga",
        "state": "SP",
        "district": "Vila Becker",
        "street": "Rua Joaquim Goncalves Ledo",
        "zipcode": "13636-070"
    },
    {
        "city": "Pirassununga",
        "state": "SP",
        "district": "Vila Esperanca",
        "street": "Rua Argentina",
        "zipcode": "13635-061"
    },
    {
        "city": "Pirassununga",
        "state": "SP",
        "district": "Jardim Sao Valentim",
        "street": "Rua 26",
        "zipcode": "13635-040"
    },
    {
        "city": "Pirassununga",
        "state": "SP",
        "district": "Jardim Pavesi",
        "street": "Rua David Fernandes",
        "zipcode": "13631-190"
    },
    {
        "city": "Pirassununga",
        "state": "SP",
        "district": "Jardim Morumbi",
        "street": "Rua Zahia Atala Elmor",
        "zipcode": "13631-675"
    },
    {
        "city": "Pirassununga",
        "state": "SP",
        "district": "Vila Redencao",
        "street": "Rua Romilda Victorelli",
        "zipcode": "13633-300"
    },
    {
        "city": "Pirassununga",
        "state": "SP",
        "district": "Pólo Industrial Guilherme Müller Filho",
        "street": "Rua Hideo Miamoto",
        "zipcode": "13632-628"
    },
    {
        "city": "Pirassununga",
        "state": "SP",
        "district": "Vila Belmiro",
        "street": "Rua Maria Silveira Therense",
        "zipcode": "13633-482"
    },
    {
        "city": "Pirassununga",
        "state": "SP",
        "district": "Cidade Jardim",
        "street": "Alameda do Nascente (Village C Jardim)",
        "zipcode": "13632-499"
    },
    {
        "city": "Pirassununga",
        "state": "SP",
        "district": "Loteamento Verona",
        "street": "Rua Martimiano Dos Santos",
        "zipcode": "13632-320"
    },
    {
        "city": "Pirassununga",
        "state": "SP",
        "district": "Jardim Planalto",
        "street": "Rua Projetada",
        "zipcode": "13631-480"
    },
    {
        "city": "Pirassununga",
        "state": "SP",
        "district": "Jardim Godoy",
        "street": "Rua Particular",
        "zipcode": "13631-200"
    },
    {
        "city": "Pirassununga",
        "state": "SP",
        "district": "Jardim Residencial Ferrari",
        "street": "Rua Augusto Cera",
        "zipcode": "13635-258"
    },
    {
        "city": "Pirassununga",
        "state": "SP",
        "district": "Pólo Industrial Guilherme Müller Filho",
        "street": "Rua Jair Ramos",
        "zipcode": "13632-620"
    },
    {
        "city": "Pirassununga",
        "state": "SP",
        "district": "Jardim São Jorge",
        "street": "Rua Gabriel Landgraf",
        "zipcode": "13632-700"
    },
    {
        "city": "Pirassununga",
        "state": "SP",
        "district": "Cidade Jardim",
        "street": "Praça dos Cajueiros (B)",
        "zipcode": "13632-568"
    },
    {
        "city": "Pirassununga",
        "state": "SP",
        "district": "Parque Dos Eucaliptos",
        "street": "Rua B",
        "zipcode": "13633-133"
    },
    {
        "city": "Pirassununga",
        "state": "SP",
        "district": "Pólo Industrial Guilherme Müller Filho",
        "street": "Rua Octávio de Freitas Filho",
        "zipcode": "13632-622"
    },
    {
        "city": "Pirassununga",
        "state": "SP",
        "district": "Vila Santa Terezinha",
        "street": "Alameda das Jabuticabeiras (Cond Res P Jerivás)",
        "zipcode": "13636-113"
    },
    {
        "city": "Pirassununga",
        "state": "SP",
        "district": "Jardim São Jorge",
        "street": "Rua Miguel Alves da Silva",
        "zipcode": "13632-702"
    },
    {
        "city": "Pirassununga",
        "state": "SP",
        "district": "Vertentes do Mamonal",
        "street": "Alameda Bem",
        "zipcode": "13633-705"
    },
    {
        "city": "Pirassununga",
        "state": "SP",
        "district": "Jardim Treviso",
        "street": "Rua Brigadeiro Osvaldo José de Oliveira",
        "zipcode": "13638-427"
    },
    {
        "city": "Pirassununga",
        "state": "SP",
        "district": "Vila dos Cabos e Taifeiros",
        "street": "Rua E41",
        "zipcode": "13643-102"
    },
    {
        "city": "Pirassununga",
        "state": "SP",
        "district": "Vila dos Oficiais",
        "street": "Rua D07",
        "zipcode": "13643-212"
    },
    {
        "city": "Pirassununga",
        "state": "SP",
        "district": "Vila Urupes",
        "street": "Rua Joao Pion",
        "zipcode": "13630-069"
    },
    {
        "city": "Pirassununga",
        "state": "SP",
        "district": "Bairro da Cantareira",
        "street": "Estrada Municipal Fernando Luiz Landgraf (PNG",
        "zipcode": "13634-760"
    },
    {
        "city": "Pirassununga",
        "state": "SP",
        "district": "Jardim Eldorado",
        "street": "Rua Otto Schubart",
        "zipcode": "13630-502"
    },
    {
        "city": "Pirassununga",
        "state": "SP",
        "district": "Vila Esperanca",
        "street": "Avenida Brasil",
        "zipcode": "13635-068"
    },
    {
        "city": "Pirassununga",
        "state": "SP",
        "district": "Residencial Vila Romana",
        "street": "Rua Oto José Xavier",
        "zipcode": "13633-254"
    },
    {
        "city": "Pirassununga",
        "state": "SP",
        "district": "Centro",
        "street": "Praça Fernando Costa",
        "zipcode": "13631-004"
    },
    {
        "city": "Pirassununga",
        "state": "SP",
        "district": "Jardim Sao Valentim",
        "street": "Rua 20",
        "zipcode": "13635-043"
    },
    {
        "city": "Pirassununga",
        "state": "SP",
        "district": "Vila Real",
        "street": "Rua José Prado dos Santos",
        "zipcode": "13638-000"
    },
    {
        "city": "Pirassununga",
        "state": "SP",
        "district": "Vila dos Oficiais",
        "street": "Alameda Botafogo",
        "zipcode": "13643-230"
    },
    {
        "city": "Pirassununga",
        "state": "SP",
        "district": "Residencial Vila Romana",
        "street": "Rua Almiro Costa Rodrigues",
        "zipcode": "13633-256"
    },
    {
        "city": "Pirassununga",
        "state": "SP",
        "district": "Pólo Industrial Guilherme Müller Filho",
        "street": "Rua Manoel Pagoti",
        "zipcode": "13632-632"
    },
    {
        "city": "Pirassununga",
        "state": "SP",
        "district": "Jardim Residence Rio Verde",
        "street": "Rua Francisco Bernandochi",
        "zipcode": "13635-194"
    },
    {
        "city": "Pirassununga",
        "state": "SP",
        "district": "Jardim Velloso",
        "street": "Rua Antonio Carlos Steola",
        "zipcode": "13633-588"
    },
    {
        "city": "Pirassununga",
        "state": "SP",
        "district": "Vila Santa Fé",
        "street": "Rua São Matheus",
        "zipcode": "13640-401"
    },
    {
        "city": "Pirassununga",
        "state": "SP",
        "district": "Jardim Veneza II",
        "street": "Rua Lazino Aldriguetti",
        "zipcode": "13630-854"
    },
    {
        "city": "Pirassununga",
        "state": "SP",
        "district": "Pólo Industrial Guilherme Müller Filho",
        "street": "Rua Id Jorge Facuri",
        "zipcode": "13632-630"
    },
    {
        "city": "Pirassununga",
        "state": "SP",
        "district": "Jardim Olimpio Felicio",
        "street": "Rua Egydio Domenico",
        "zipcode": "13632-124"
    }
]