[
    {
        "city": "Pirajuí",
        "state": "SP",
        "district": "Santo Antônio da Estiva",
        "street": "Rua Santo Antônio s/n",
        "zipcode": "16600-972"
    },
    {
        "city": "Pirajuí",
        "state": "SP",
        "district": "Pradínia",
        "street": "Rua José Flamino s/n",
        "zipcode": "16600-973"
    },
    {
        "city": "Pirajuí",
        "state": "SP",
        "district": "",
        "street": "",
        "zipcode": "16600-000"
    },
    {
        "city": "Pirajuí",
        "state": "SP",
        "district": "Corredeira",
        "street": "Rua Joaquim dos Santos 110",
        "zipcode": "16600-971"
    },
    {
        "city": "Pirajuí",
        "state": "SP",
        "district": "Jardim América",
        "street": "Avenida Brasil",
        "zipcode": "16604-006"
    },
    {
        "city": "Pirajuí",
        "state": "SP",
        "district": "Jardim Angaville",
        "street": "Avenida Valentin Grava",
        "zipcode": "16603-260"
    },
    {
        "city": "Pirajuí",
        "state": "SP",
        "district": "Jardim Aclimação",
        "street": "Avenida México",
        "zipcode": "16604-078"
    },
    {
        "city": "Pirajuí",
        "state": "SP",
        "district": "Residencial Sol Nascente",
        "street": "Avenida Stefano Pioto",
        "zipcode": "16605-218"
    },
    {
        "city": "Pirajuí",
        "state": "SP",
        "district": "Jardim Aclimação",
        "street": "Avenida Governador Orestes Quércia",
        "zipcode": "16604-094"
    },
    {
        "city": "Pirajuí",
        "state": "SP",
        "district": "Área Rural de Pirajuí",
        "street": "Área Rural",
        "zipcode": "16616-899"
    },
    {
        "city": "Pirajuí",
        "state": "SP",
        "district": "Jardim Aclimação",
        "street": "Avenida Prefeito Doutor Nelson Carvalho Guerreiro",
        "zipcode": "16604-050"
    },
    {
        "city": "Pirajuí",
        "state": "SP",
        "district": "Centro (Pradínia)",
        "street": "Avenida Dário Brandão Chaves",
        "zipcode": "16618-006"
    },
    {
        "city": "Pirajuí",
        "state": "SP",
        "district": "Jardim Paraíso",
        "street": "Avenida São Sebastião do Pouso Alegre",
        "zipcode": "16605-002"
    },
    {
        "city": "Pirajuí",
        "state": "SP",
        "district": "Jardim Paraíso",
        "street": "Avenida Cidade Jardim",
        "zipcode": "16605-018"
    },
    {
        "city": "Pirajuí",
        "state": "SP",
        "district": "Núcleo Habitacional Professor Wilson Augusto Bispo",
        "street": "Avenida dos Cardeais",
        "zipcode": "16605-142"
    },
    {
        "city": "Pirajuí",
        "state": "SP",
        "district": "Área Rural de Pradínia (Pirajuí)",
        "street": "Área Rural",
        "zipcode": "16618-899"
    },
    {
        "city": "Pirajuí",
        "state": "SP",
        "district": "Centro",
        "street": "Avenida Rui Barbosa Lima",
        "zipcode": "16600-031"
    },
    {
        "city": "Pirajuí",
        "state": "SP",
        "district": "Centro (Pradínia)",
        "street": "Avenida Barão do Rio Branco",
        "zipcode": "16618-016"
    },
    {
        "city": "Pirajuí",
        "state": "SP",
        "district": "Vila Ortiz",
        "street": "Avenida Rui Barbosa Lima",
        "zipcode": "16600-230"
    },
    {
        "city": "Pirajuí",
        "state": "SP",
        "district": "Centro (Pradínia)",
        "street": "Avenida José Flamino",
        "zipcode": "16618-012"
    },
    {
        "city": "Pirajuí",
        "state": "SP",
        "district": "Jardim América",
        "street": "Avenida Prefeito Doutor Nelson Carvalho Guerreiro",
        "zipcode": "16604-008"
    },
    {
        "city": "Pirajuí",
        "state": "SP",
        "district": "Jardim Rinaldi",
        "street": "Avenida Vitória Regia",
        "zipcode": "16605-172"
    },
    {
        "city": "Pirajuí",
        "state": "SP",
        "district": "Vila Ortiz",
        "street": "Avenida Doutor Luiz Barbante",
        "zipcode": "16600-218"
    },
    {
        "city": "Pirajuí",
        "state": "SP",
        "district": "Centro (Pradínia)",
        "street": "Avenida Ricardo de Lion",
        "zipcode": "16618-014"
    },
    {
        "city": "Pirajuí",
        "state": "SP",
        "district": "Vila Abel",
        "street": "Avenida Nova Pirajuí",
        "zipcode": "16605-056"
    },
    {
        "city": "Pirajuí",
        "state": "SP",
        "district": "Vila Esperança",
        "street": "Estrada Vicinal Prefeito Anibal Haman",
        "zipcode": "16602-000"
    },
    {
        "city": "Pirajuí",
        "state": "SP",
        "district": "Núcleo Habitacional Professor Wilson Augusto Bispo",
        "street": "Avenida dos Rouxinóis",
        "zipcode": "16605-120"
    },
    {
        "city": "Pirajuí",
        "state": "SP",
        "district": "Centro (Santo Antônio da Estiva)",
        "street": "Largo da Matriz",
        "zipcode": "16617-014"
    },
    {
        "city": "Pirajuí",
        "state": "SP",
        "district": "Núcleo Habitacional Professor Wilson Augusto Bispo",
        "street": "Avenida das Patativas",
        "zipcode": "16605-140"
    },
    {
        "city": "Pirajuí",
        "state": "SP",
        "district": "Centro (Pradínia)",
        "street": "Avenida José Flamino",
        "zipcode": "16618-970"
    },
    {
        "city": "Pirajuí",
        "state": "SP",
        "district": "Centro",
        "street": "Avenida Presidente Afonso Pena",
        "zipcode": "16600-065"
    },
    {
        "city": "Pirajuí",
        "state": "SP",
        "district": "Jardim Eldorado",
        "street": "Avenida Laudo Bandeira",
        "zipcode": "16603-364"
    },
    {
        "city": "Pirajuí",
        "state": "SP",
        "district": "Vila Ortiz",
        "street": "Alameda Tancredo Neves",
        "zipcode": "16600-242"
    },
    {
        "city": "Pirajuí",
        "state": "SP",
        "district": "Nova Pirajuí",
        "street": "Avenida Nova Pirajuí",
        "zipcode": "16605-450"
    },
    {
        "city": "Pirajuí",
        "state": "SP",
        "district": "Área Rural de Corredeira (Pirajuí)",
        "street": "Área Rural",
        "zipcode": "16619-899"
    },
    {
        "city": "Pirajuí",
        "state": "SP",
        "district": "Vila Ortiz",
        "street": "Avenida Presidente Afonso Pena",
        "zipcode": "16600-238"
    },
    {
        "city": "Pirajuí",
        "state": "SP",
        "district": "Vila Ortiz",
        "street": "Rua Ana Jarvis",
        "zipcode": "16600-236"
    },
    {
        "city": "Pirajuí",
        "state": "SP",
        "district": "Distrito Industrial",
        "street": "Rua Bruno Botacini",
        "zipcode": "16605-158"
    },
    {
        "city": "Pirajuí",
        "state": "SP",
        "district": "Multirão",
        "street": "Rua C",
        "zipcode": "16605-044"
    },
    {
        "city": "Pirajuí",
        "state": "SP",
        "district": "Vila Esperança",
        "street": "Rua Bonifácio Dias",
        "zipcode": "16602-004"
    },
    {
        "city": "Pirajuí",
        "state": "SP",
        "district": "Vila Ortiz",
        "street": "Rua Campos Salles",
        "zipcode": "16600-224"
    },
    {
        "city": "Pirajuí",
        "state": "SP",
        "district": "Conjunto Habitacional Jardim Europa",
        "street": "Rua Alemanha",
        "zipcode": "16605-232"
    },
    {
        "city": "Pirajuí",
        "state": "SP",
        "district": "Centro",
        "street": "Rua Barão do Rio Branco",
        "zipcode": "16600-001"
    },
    {
        "city": "Pirajuí",
        "state": "SP",
        "district": "Residencial Santo André",
        "street": "Rua Campos Salles",
        "zipcode": "16600-284"
    },
    {
        "city": "Pirajuí",
        "state": "SP",
        "district": "Núcleo Habitacional Professor Wilson Augusto Bispo",
        "street": "Rua das Araras",
        "zipcode": "16605-136"
    },
    {
        "city": "Pirajuí",
        "state": "SP",
        "district": "Centro",
        "street": "Praça Sargento Ananias Holanda de Oliveira",
        "zipcode": "16600-015"
    },
    {
        "city": "Pirajuí",
        "state": "SP",
        "district": "Centro (Pradínia)",
        "street": "Rua Benedito Cândido de Souza",
        "zipcode": "16618-004"
    },
    {
        "city": "Pirajuí",
        "state": "SP",
        "district": "Centro",
        "street": "Praça Coronel Joaquim de Toledo Piza",
        "zipcode": "16600-025"
    },
    {
        "city": "Pirajuí",
        "state": "SP",
        "district": "Vila Ortiz",
        "street": "Rua Amazonas",
        "zipcode": "16600-260"
    },
    {
        "city": "Pirajuí",
        "state": "SP",
        "district": "Conjunto Habitacional Parque União",
        "street": "Rua Ana Jarvis",
        "zipcode": "16600-270"
    },
    {
        "city": "Pirajuí",
        "state": "SP",
        "district": "Centro",
        "street": "Rua Conselheiro Rodrigues Alves",
        "zipcode": "16600-007"
    },
    {
        "city": "Pirajuí",
        "state": "SP",
        "district": "Parque Santa Guilhermina",
        "street": "Rua Alcides Zacari",
        "zipcode": "16603-040"
    },
    {
        "city": "Pirajuí",
        "state": "SP",
        "district": "Nova Pirajuí",
        "street": "Rua das Figueiras",
        "zipcode": "16605-490"
    },
    {
        "city": "Pirajuí",
        "state": "SP",
        "district": "Vila Ortiz",
        "street": "Rua Bahia",
        "zipcode": "16600-256"
    },
    {
        "city": "Pirajuí",
        "state": "SP",
        "district": "Centro (Corredeira)",
        "street": "Praça São Benedito",
        "zipcode": "16619-010"
    },
    {
        "city": "Pirajuí",
        "state": "SP",
        "district": "Jardim Rinaldi",
        "street": "Rua das Camélias",
        "zipcode": "16605-186"
    },
    {
        "city": "Pirajuí",
        "state": "SP",
        "district": "Residencial Santo André",
        "street": "Rua Cordolina Quadros Silva",
        "zipcode": "16600-282"
    },
    {
        "city": "Pirajuí",
        "state": "SP",
        "district": "Distrito Industrial",
        "street": "Rua Apolinário Pereira da Silva",
        "zipcode": "16605-156"
    },
    {
        "city": "Pirajuí",
        "state": "SP",
        "district": "Vila Araújo",
        "street": "Rua Araújo",
        "zipcode": "16600-200"
    },
    {
        "city": "Pirajuí",
        "state": "SP",
        "district": "Jardim dos Servidores",
        "street": "Rua Belmiro da Silva",
        "zipcode": "16603-344"
    },
    {
        "city": "Pirajuí",
        "state": "SP",
        "district": "Jardim Eldorado",
        "street": "Rua Arlindo Zagato",
        "zipcode": "16603-350"
    },
    {
        "city": "Pirajuí",
        "state": "SP",
        "district": "Nova Pirajuí",
        "street": "Rua das Amoreiras",
        "zipcode": "16605-486"
    },
    {
        "city": "Pirajuí",
        "state": "SP",
        "district": "Vila Abel",
        "street": "Rua Catanduva",
        "zipcode": "16605-054"
    },
    {
        "city": "Pirajuí",
        "state": "SP",
        "district": "Jardim América",
        "street": "Rua das Diretas",
        "zipcode": "16604-004"
    },
    {
        "city": "Pirajuí",
        "state": "SP",
        "district": "Vila Abel",
        "street": "Rua Brasil",
        "zipcode": "16605-050"
    },
    {
        "city": "Pirajuí",
        "state": "SP",
        "district": "Residencial Sol Nascente",
        "street": "Rua Arlindo Jose Coltri",
        "zipcode": "16605-210"
    },
    {
        "city": "Pirajuí",
        "state": "SP",
        "district": "Nova Pirajuí",
        "street": "Rua das Aroeiras",
        "zipcode": "16605-458"
    },
    {
        "city": "Pirajuí",
        "state": "SP",
        "district": "Jardim Liberdade",
        "street": "Rua Américo Zagatto",
        "zipcode": "16602-020"
    },
    {
        "city": "Pirajuí",
        "state": "SP",
        "district": "Residencial Villa Verde",
        "street": "Rua Andre Barbi",
        "zipcode": "16600-504"
    },
    {
        "city": "Pirajuí",
        "state": "SP",
        "district": "Residencial Villa Verde",
        "street": "Rua Angelina Simione Fazion",
        "zipcode": "16600-514"
    },
    {
        "city": "Pirajuí",
        "state": "SP",
        "district": "Jardim Paraíso",
        "street": "Rua das Flores",
        "zipcode": "16605-030"
    },
    {
        "city": "Pirajuí",
        "state": "SP",
        "district": "Conjunto Habitacional Parque União",
        "street": "Rua Bahia",
        "zipcode": "16600-276"
    },
    {
        "city": "Pirajuí",
        "state": "SP",
        "district": "Centro",
        "street": "Praça Prefeito Doutor Pedro da Rocha Braga",
        "zipcode": "16600-041"
    },
    {
        "city": "Pirajuí",
        "state": "SP",
        "district": "Vila Abel",
        "street": "Rua Abel de Oliveira",
        "zipcode": "16605-052"
    },
    {
        "city": "Pirajuí",
        "state": "SP",
        "district": "Nova Pirajuí",
        "street": "Rua das Cabreúvas",
        "zipcode": "16605-498"
    },
    {
        "city": "Pirajuí",
        "state": "SP",
        "district": "Centro",
        "street": "Praça Doutor João Sampaio",
        "zipcode": "16600-009"
    },
    {
        "city": "Pirajuí",
        "state": "SP",
        "district": "Jardim Aclimação",
        "street": "Rua Antonio Lavarce Odas",
        "zipcode": "16604-076"
    },
    {
        "city": "Pirajuí",
        "state": "SP",
        "district": "Vila Faustini",
        "street": "Rua Ana Jarvis",
        "zipcode": "16600-080"
    },
    {
        "city": "Pirajuí",
        "state": "SP",
        "district": "Jardim Paraíso",
        "street": "Rua Brasil",
        "zipcode": "16605-036"
    },
    {
        "city": "Pirajuí",
        "state": "SP",
        "district": "Jardim Angaville",
        "street": "Rua Agenor Nogueira Ramos",
        "zipcode": "16603-264"
    },
    {
        "city": "Pirajuí",
        "state": "SP",
        "district": "Centro",
        "street": "Rua Campos Salles",
        "zipcode": "16600-970"
    },
    {
        "city": "Pirajuí",
        "state": "SP",
        "district": "Jardim Liberdade",
        "street": "Rua Augusto Ranal",
        "zipcode": "16602-034"
    },
    {
        "city": "Pirajuí",
        "state": "SP",
        "district": "Vila Esperança",
        "street": "Rua Clementino Rodrigues Silva",
        "zipcode": "16602-012"
    },
    {
        "city": "Pirajuí",
        "state": "SP",
        "district": "Centro (Santo Antônio da Estiva)",
        "street": "Rua Boiadeira",
        "zipcode": "16617-008"
    },
    {
        "city": "Pirajuí",
        "state": "SP",
        "district": "Jardim Rinaldi",
        "street": "Rua das Acácias",
        "zipcode": "16605-192"
    },
    {
        "city": "Pirajuí",
        "state": "SP",
        "district": "Jardim Aclimação",
        "street": "Rua Angelo Portilho",
        "zipcode": "16604-074"
    },
    {
        "city": "Pirajuí",
        "state": "SP",
        "district": "Jardim Aclimação",
        "street": "Rua Carmine Felicio",
        "zipcode": "16604-080"
    },
    {
        "city": "Pirajuí",
        "state": "SP",
        "district": "Nova Pirajuí",
        "street": "Rua Cedros",
        "zipcode": "16605-462"
    },
    {
        "city": "Pirajuí",
        "state": "SP",
        "district": "Vila Ortiz",
        "street": "Rua Coronel Adelmar Manso Monteiro da Costa Reis",
        "zipcode": "16600-220"
    },
    {
        "city": "Pirajuí",
        "state": "SP",
        "district": "Vila Baependy",
        "street": "Rua Ana Jarvis",
        "zipcode": "16600-076"
    },
    {
        "city": "Pirajuí",
        "state": "SP",
        "district": "Vila Ortiz",
        "street": "Rua Ceará",
        "zipcode": "16600-258"
    },
    {
        "city": "Pirajuí",
        "state": "SP",
        "district": "Jardim Rinaldi",
        "street": "Rua das Azaleias",
        "zipcode": "16605-190"
    },
    {
        "city": "Pirajuí",
        "state": "SP",
        "district": "Jardim Rinaldi",
        "street": "Rua das Violetas",
        "zipcode": "16605-200"
    },
    {
        "city": "Pirajuí",
        "state": "SP",
        "district": "Nova Pirajuí",
        "street": "Rua das Sumaumas",
        "zipcode": "16605-488"
    },
    {
        "city": "Pirajuí",
        "state": "SP",
        "district": "Residencial Santo André",
        "street": "Rua Irene de Almeida Silva",
        "zipcode": "16600-288"
    },
    {
        "city": "Pirajuí",
        "state": "SP",
        "district": "Multirão",
        "street": "Rua Doutor Olympio Barbanti",
        "zipcode": "16605-046"
    },
    {
        "city": "Pirajuí",
        "state": "SP",
        "district": "Jardim Angaville",
        "street": "Rua Florentino Bertin",
        "zipcode": "16603-274"
    },
    {
        "city": "Pirajuí",
        "state": "SP",
        "district": "Jardim Paraíso",
        "street": "Rua Galeno Motta",
        "zipcode": "16605-012"
    },
    {
        "city": "Pirajuí",
        "state": "SP",
        "district": "Nova Pirajuí",
        "street": "Rua das Peróbas",
        "zipcode": "16605-456"
    },
    {
        "city": "Pirajuí",
        "state": "SP",
        "district": "Conjunto Habitacional Jardim Europa",
        "street": "Rua Holanda",
        "zipcode": "16605-236"
    },
    {
        "city": "Pirajuí",
        "state": "SP",
        "district": "Conjunto Habitacional Jardim Europa",
        "street": "Rua Espanha",
        "zipcode": "16605-240"
    },
    {
        "city": "Pirajuí",
        "state": "SP",
        "district": "Núcleo Habitacional Professor Wilson Augusto Bispo",
        "street": "Rua dos Bem",
        "zipcode": "16605-132"
    },
    {
        "city": "Pirajuí",
        "state": "SP",
        "district": "Núcleo Habitacional Professor Wilson Augusto Bispo",
        "street": "Rua dos Beija",
        "zipcode": "16605-134"
    },
    {
        "city": "Pirajuí",
        "state": "SP",
        "district": "Nova Pirajuí",
        "street": "Rua Guatambus",
        "zipcode": "16605-492"
    },
    {
        "city": "Pirajuí",
        "state": "SP",
        "district": "Nova Pirajuí",
        "street": "Rua das Imbuias",
        "zipcode": "16605-472"
    },
    {
        "city": "Pirajuí",
        "state": "SP",
        "district": "Nova Pirajuí",
        "street": "Rua das Tipuanas",
        "zipcode": "16605-468"
    },
    {
        "city": "Pirajuí",
        "state": "SP",
        "district": "Distrito Industrial",
        "street": "Rua Eurides da Silveira Bueno",
        "zipcode": "16605-154"
    },
    {
        "city": "Pirajuí",
        "state": "SP",
        "district": "Jardim Rinaldi",
        "street": "Rua dos Alecrins",
        "zipcode": "16605-174"
    },
    {
        "city": "Pirajuí",
        "state": "SP",
        "district": "Jardim Rinaldi",
        "street": "Rua das Tulipas",
        "zipcode": "16605-198"
    },
    {
        "city": "Pirajuí",
        "state": "SP",
        "district": "Jardim Paraíso",
        "street": "Rua Doutor David José Negrisoli",
        "zipcode": "16605-004"
    },
    {
        "city": "Pirajuí",
        "state": "SP",
        "district": "Vila Ortiz",
        "street": "Rua Elísio Chaves",
        "zipcode": "16600-222"
    },
    {
        "city": "Pirajuí",
        "state": "SP",
        "district": "Nova Pirajuí",
        "street": "Rua dos Mognos",
        "zipcode": "16605-454"
    },
    {
        "city": "Pirajuí",
        "state": "SP",
        "district": "Centro (Corredeira)",
        "street": "Rua do Café",
        "zipcode": "16619-012"
    },
    {
        "city": "Pirajuí",
        "state": "SP",
        "district": "Jardim Rinaldi",
        "street": "Rua das Margaridas",
        "zipcode": "16605-184"
    },
    {
        "city": "Pirajuí",
        "state": "SP",
        "district": "Jardim Rinaldi",
        "street": "Rua das Primaveras",
        "zipcode": "16605-180"
    },
    {
        "city": "Pirajuí",
        "state": "SP",
        "district": "Nova Pirajuí",
        "street": "Rua dos Pinheiros",
        "zipcode": "16605-482"
    },
    {
        "city": "Pirajuí",
        "state": "SP",
        "district": "Jardim Paraíso",
        "street": "Rua Doutor Walter Neger de Pádua e Castro",
        "zipcode": "16605-022"
    },
    {
        "city": "Pirajuí",
        "state": "SP",
        "district": "Jardim Rinaldi",
        "street": "Rua das Hortências",
        "zipcode": "16605-178"
    },
    {
        "city": "Pirajuí",
        "state": "SP",
        "district": "Jardim Rinaldi",
        "street": "Rua dos Girassóis",
        "zipcode": "16605-194"
    },
    {
        "city": "Pirajuí",
        "state": "SP",
        "district": "Nova Pirajuí",
        "street": "Rua das Palmeiras",
        "zipcode": "16605-478"
    },
    {
        "city": "Pirajuí",
        "state": "SP",
        "district": "Jardim Rinaldi",
        "street": "Rua dos Cravos",
        "zipcode": "16605-182"
    },
    {
        "city": "Pirajuí",
        "state": "SP",
        "district": "Nova Pirajuí",
        "street": "Rua Expedito de Souza",
        "zipcode": "16605-500"
    },
    {
        "city": "Pirajuí",
        "state": "SP",
        "district": "Jardim Paraíso",
        "street": "Rua Doutor Pedro Gonzalez Gonzalez",
        "zipcode": "16605-016"
    },
    {
        "city": "Pirajuí",
        "state": "SP",
        "district": "Centro",
        "street": "Rua Doutor Jorge Meirelles da Rocha",
        "zipcode": "16600-011"
    },
    {
        "city": "Pirajuí",
        "state": "SP",
        "district": "Nova Pirajuí",
        "street": "Rua dos Jatobás",
        "zipcode": "16605-470"
    },
    {
        "city": "Pirajuí",
        "state": "SP",
        "district": "Parque Santa Guilhermina",
        "street": "Rua Hélio Gomes",
        "zipcode": "16603-034"
    },
    {
        "city": "Pirajuí",
        "state": "SP",
        "district": "Vila Abel",
        "street": "Rua Goiás",
        "zipcode": "16605-064"
    },
    {
        "city": "Pirajuí",
        "state": "SP",
        "district": "Jardim Rinaldi",
        "street": "Rua dos Lírios",
        "zipcode": "16605-202"
    },
    {
        "city": "Pirajuí",
        "state": "SP",
        "district": "Jardim Rinaldi",
        "street": "Rua dos Gerânios",
        "zipcode": "16605-170"
    },
    {
        "city": "Pirajuí",
        "state": "SP",
        "district": "Jardim Rinaldi",
        "street": "Rua das Rosas",
        "zipcode": "16605-196"
    },
    {
        "city": "Pirajuí",
        "state": "SP",
        "district": "Nova Pirajuí",
        "street": "Rua dos Faveiros",
        "zipcode": "16605-464"
    },
    {
        "city": "Pirajuí",
        "state": "SP",
        "district": "Conjunto Habitacional Jardim Europa",
        "street": "Rua Grécia",
        "zipcode": "16605-242"
    },
    {
        "city": "Pirajuí",
        "state": "SP",
        "district": "Conjunto Habitacional Jardim Europa",
        "street": "Rua França",
        "zipcode": "16605-244"
    },
    {
        "city": "Pirajuí",
        "state": "SP",
        "district": "Nova Pirajuí",
        "street": "Rua dos Andassus",
        "zipcode": "16605-494"
    },
    {
        "city": "Pirajuí",
        "state": "SP",
        "district": "Jardim Rinaldi",
        "street": "Rua dos Jasmins",
        "zipcode": "16605-188"
    },
    {
        "city": "Pirajuí",
        "state": "SP",
        "district": "Vila Faustini",
        "street": "Rua Faustini",
        "zipcode": "16600-082"
    },
    {
        "city": "Pirajuí",
        "state": "SP",
        "district": "Jardim Liberdade",
        "street": "Rua Dirceu Castiglioni",
        "zipcode": "16602-022"
    },
    {
        "city": "Pirajuí",
        "state": "SP",
        "district": "Residencial Villa Verde",
        "street": "Rua Edison Egea Hernandes",
        "zipcode": "16600-516"
    },
    {
        "city": "Pirajuí",
        "state": "SP",
        "district": "Vila Ortiz",
        "street": "Rua Distrito Federal",
        "zipcode": "16600-240"
    },
    {
        "city": "Pirajuí",
        "state": "SP",
        "district": "Vila Baependy",
        "street": "Rua Higino Marangon",
        "zipcode": "16600-072"
    },
    {
        "city": "Pirajuí",
        "state": "SP",
        "district": "Vila Ortiz",
        "street": "Rua Espírito Santo",
        "zipcode": "16600-214"
    },
    {
        "city": "Pirajuí",
        "state": "SP",
        "district": "Nova Pirajuí",
        "street": "Rua dos Ébanos",
        "zipcode": "16605-466"
    },
    {
        "city": "Pirajuí",
        "state": "SP",
        "district": "Centro (Corredeira)",
        "street": "Rua Independência",
        "zipcode": "16619-020"
    },
    {
        "city": "Pirajuí",
        "state": "SP",
        "district": "Centro (Corredeira)",
        "street": "Rua Dom Pedro II",
        "zipcode": "16619-032"
    },
    {
        "city": "Pirajuí",
        "state": "SP",
        "district": "Centro",
        "street": "Rua Fundador João Justino da Silva",
        "zipcode": "16600-039"
    },
    {
        "city": "Pirajuí",
        "state": "SP",
        "district": "Centro (Corredeira)",
        "street": "Rua dos Coroados",
        "zipcode": "16619-016"
    },
    {
        "city": "Pirajuí",
        "state": "SP",
        "district": "Centro",
        "street": "Rua Higino Marangon",
        "zipcode": "16600-045"
    },
    {
        "city": "Pirajuí",
        "state": "SP",
        "district": "Núcleo Habitacional Professor Wilson Augusto Bispo",
        "street": "Rua dos Sabiás",
        "zipcode": "16605-126"
    },
    {
        "city": "Pirajuí",
        "state": "SP",
        "district": "Jardim Paraíso",
        "street": "Rua Manoel Paulino de Carvalho",
        "zipcode": "16605-024"
    },
    {
        "city": "Pirajuí",
        "state": "SP",
        "district": "Jardim Liberdade",
        "street": "Rua José Maria Ribeiro",
        "zipcode": "16602-026"
    },
    {
        "city": "Pirajuí",
        "state": "SP",
        "district": "Centro (Corredeira)",
        "street": "Rua Oswaldo Cruz",
        "zipcode": "16619-030"
    },
    {
        "city": "Pirajuí",
        "state": "SP",
        "district": "Jardim Aclimação",
        "street": "Rua José Fazion",
        "zipcode": "16604-090"
    },
    {
        "city": "Pirajuí",
        "state": "SP",
        "district": "Jardim Liberdade",
        "street": "Rua Newton José Coltri",
        "zipcode": "16602-036"
    },
    {
        "city": "Pirajuí",
        "state": "SP",
        "district": "Parque Santa Guilhermina",
        "street": "Rua Joaquim Teixeira Sampaio",
        "zipcode": "16603-028"
    },
    {
        "city": "Pirajuí",
        "state": "SP",
        "district": "Jardim Aclimação",
        "street": "Rua Osvaldo Meira Carvalho",
        "zipcode": "16604-092"
    },
    {
        "city": "Pirajuí",
        "state": "SP",
        "district": "Centro",
        "street": "Rua Major Aviador João Durval de Lion",
        "zipcode": "16600-055"
    },
    {
        "city": "Pirajuí",
        "state": "SP",
        "district": "Centro",
        "street": "Rua Nhonhô Meirelles",
        "zipcode": "16600-034"
    },
    {
        "city": "Pirajuí",
        "state": "SP",
        "district": "Vila Santa Guilhermina",
        "street": "Rua Lucio Gomes de Moraes",
        "zipcode": "16603-010"
    },
    {
        "city": "Pirajuí",
        "state": "SP",
        "district": "Jardim Eldorado",
        "street": "Rua Onofra Barbosa Leandro",
        "zipcode": "16603-362"
    },
    {
        "city": "Pirajuí",
        "state": "SP",
        "district": "Centro",
        "street": "Rua Luiz Santaroza",
        "zipcode": "16600-057"
    },
    {
        "city": "Pirajuí",
        "state": "SP",
        "district": "Centro",
        "street": "Rua Padre João Van Der Hulst",
        "zipcode": "16600-037"
    },
    {
        "city": "Pirajuí",
        "state": "SP",
        "district": "Jardim Eldorado",
        "street": "Rua Osvaldo Pinto de Barros",
        "zipcode": "16603-352"
    },
    {
        "city": "Pirajuí",
        "state": "SP",
        "district": "Parque Santa Guilhermina",
        "street": "Rua Osvaldo Cifuentes Repas",
        "zipcode": "16603-038"
    },
    {
        "city": "Pirajuí",
        "state": "SP",
        "district": "Conjunto Habitacional Parque União",
        "street": "Rua Padre João Van Der Hulst",
        "zipcode": "16600-274"
    },
    {
        "city": "Pirajuí",
        "state": "SP",
        "district": "Centro (Santo Antônio da Estiva)",
        "street": "Rua Ledo",
        "zipcode": "16617-012"
    },
    {
        "city": "Pirajuí",
        "state": "SP",
        "district": "Jardim Liberdade",
        "street": "Rua Júlio Jorge",
        "zipcode": "16602-032"
    },
    {
        "city": "Pirajuí",
        "state": "SP",
        "district": "Vila Santa Guilhermina",
        "street": "Rua Otavio Luis Pereira",
        "zipcode": "16603-008"
    },
    {
        "city": "Pirajuí",
        "state": "SP",
        "district": "Vila Ortiz",
        "street": "Rua Major Nogueira de Sá",
        "zipcode": "16600-212"
    },
    {
        "city": "Pirajuí",
        "state": "SP",
        "district": "Residencial Villa Verde",
        "street": "Rua Izidoro Linares",
        "zipcode": "16600-530"
    },
    {
        "city": "Pirajuí",
        "state": "SP",
        "district": "Vila Ortiz",
        "street": "Rua Licinio José da Silva",
        "zipcode": "16600-264"
    },
    {
        "city": "Pirajuí",
        "state": "SP",
        "district": "Jardim Angaville",
        "street": "Rua Luiz Maggi",
        "zipcode": "16603-276"
    },
    {
        "city": "Pirajuí",
        "state": "SP",
        "district": "Centro (Corredeira)",
        "street": "Rua Joaquim dos Santos",
        "zipcode": "16619-024"
    },
    {
        "city": "Pirajuí",
        "state": "SP",
        "district": "Nova Pirajuí",
        "street": "Rua Jacarandás",
        "zipcode": "16605-474"
    },
    {
        "city": "Pirajuí",
        "state": "SP",
        "district": "Parque Santa Guilhermina",
        "street": "Rua Nicola Franze",
        "zipcode": "16603-048"
    },
    {
        "city": "Pirajuí",
        "state": "SP",
        "district": "Centro (Corredeira)",
        "street": "Rua Marechal Deodoro",
        "zipcode": "16619-028"
    },
    {
        "city": "Pirajuí",
        "state": "SP",
        "district": "Residencial Sol Nascente",
        "street": "Rua José Virgilio",
        "zipcode": "16605-212"
    },
    {
        "city": "Pirajuí",
        "state": "SP",
        "district": "Parque Santa Guilhermina",
        "street": "Rua Jorge Chade Azém",
        "zipcode": "16603-036"
    },
    {
        "city": "Pirajuí",
        "state": "SP",
        "district": "Centro (Corredeira)",
        "street": "Rua Juvenal Morato",
        "zipcode": "16619-026"
    },
    {
        "city": "Pirajuí",
        "state": "SP",
        "district": "Centro (Pradínia)",
        "street": "Rua José Bonifácio",
        "zipcode": "16618-010"
    },
    {
        "city": "Pirajuí",
        "state": "SP",
        "district": "Parque Santa Guilhermina",
        "street": "Rua Joaquim Ribeiro Sampaio",
        "zipcode": "16603-044"
    },
    {
        "city": "Pirajuí",
        "state": "SP",
        "district": "Centro (Corredeira)",
        "street": "Rua João Pessoa",
        "zipcode": "16619-022"
    },
    {
        "city": "Pirajuí",
        "state": "SP",
        "district": "Vila Esperança",
        "street": "Rua Leão Cerqueira",
        "zipcode": "16602-006"
    },
    {
        "city": "Pirajuí",
        "state": "SP",
        "district": "Distrito Industrial",
        "street": "Rua Luiz Benedicto",
        "zipcode": "16605-152"
    },
    {
        "city": "Pirajuí",
        "state": "SP",
        "district": "Vila Ortiz",
        "street": "Rua Luís Vaz de Camões",
        "zipcode": "16600-216"
    },
    {
        "city": "Pirajuí",
        "state": "SP",
        "district": "Jardim Aclimação",
        "street": "Rua João Milton de Paula Silva",
        "zipcode": "16604-088"
    },
    {
        "city": "Pirajuí",
        "state": "SP",
        "district": "Vila Esperança",
        "street": "Rua José Gregorio Vidal Abreu",
        "zipcode": "16602-016"
    },
    {
        "city": "Pirajuí",
        "state": "SP",
        "district": "Jardim Liberdade",
        "street": "Rua Norberto Brancalhão",
        "zipcode": "16602-024"
    },
    {
        "city": "Pirajuí",
        "state": "SP",
        "district": "Centro",
        "street": "Rua Major Nogueira de Sá",
        "zipcode": "16600-061"
    },
    {
        "city": "Pirajuí",
        "state": "SP",
        "district": "Vila Santa Guilhermina",
        "street": "Rua José Mascetra",
        "zipcode": "16603-012"
    },
    {
        "city": "Pirajuí",
        "state": "SP",
        "district": "Jardim Angaville",
        "street": "Rua Otaviano Valadão de Freitas",
        "zipcode": "16603-268"
    },
    {
        "city": "Pirajuí",
        "state": "SP",
        "district": "Residencial Villa Verde",
        "street": "Rua José Alderico Daniel",
        "zipcode": "16600-520"
    },
    {
        "city": "Pirajuí",
        "state": "SP",
        "district": "Residencial Villa Verde",
        "street": "Rua Osires Neves",
        "zipcode": "16600-528"
    },
    {
        "city": "Pirajuí",
        "state": "SP",
        "district": "Residencial Villa Verde",
        "street": "Rua José Claro Oliveira",
        "zipcode": "16600-506"
    },
    {
        "city": "Pirajuí",
        "state": "SP",
        "district": "Parque Santa Guilhermina",
        "street": "Rua Luiz Nardoto",
        "zipcode": "16603-050"
    },
    {
        "city": "Pirajuí",
        "state": "SP",
        "district": "Residencial Villa Verde",
        "street": "Rua Jonas Bertoldi",
        "zipcode": "16600-518"
    },
    {
        "city": "Pirajuí",
        "state": "SP",
        "district": "Jardim dos Servidores",
        "street": "Rua José Rodrigues Costa",
        "zipcode": "16603-342"
    },
    {
        "city": "Pirajuí",
        "state": "SP",
        "district": "Centro",
        "street": "Rua Nova República",
        "zipcode": "16600-047"
    },
    {
        "city": "Pirajuí",
        "state": "SP",
        "district": "Parque Santa Guilhermina",
        "street": "Rua Morando Corrente",
        "zipcode": "16603-022"
    },
    {
        "city": "Pirajuí",
        "state": "SP",
        "district": "Residencial Villa Verde",
        "street": "Rua Nelson Evangelista",
        "zipcode": "16600-524"
    },
    {
        "city": "Pirajuí",
        "state": "SP",
        "district": "Parque Santa Guilhermina",
        "street": "Rua José Custódio de Mello",
        "zipcode": "16603-026"
    },
    {
        "city": "Pirajuí",
        "state": "SP",
        "district": "Vila Abel",
        "street": "Rua Mato Grosso",
        "zipcode": "16605-068"
    },
    {
        "city": "Pirajuí",
        "state": "SP",
        "district": "Parque Santa Guilhermina",
        "street": "Rua José Egéia Hernandes",
        "zipcode": "16603-042"
    },
    {
        "city": "Pirajuí",
        "state": "SP",
        "district": "Jardim Aclimação",
        "street": "Rua Prefeito Doutor José Vilas Boas",
        "zipcode": "16604-072"
    },
    {
        "city": "Pirajuí",
        "state": "SP",
        "district": "Residencial Villa Verde",
        "street": "Rua Raimundo Paulino Vianna",
        "zipcode": "16600-526"
    },
    {
        "city": "Pirajuí",
        "state": "SP",
        "district": "Jardim América",
        "street": "Rua Prefeito Doutor Luiz Piza Sobrinho",
        "zipcode": "16604-020"
    },
    {
        "city": "Pirajuí",
        "state": "SP",
        "district": "Jardim América",
        "street": "Rua Prefeito João de Souza Meirelles Neto",
        "zipcode": "16604-016"
    },
    {
        "city": "Pirajuí",
        "state": "SP",
        "district": "Residencial Santo André",
        "street": "Rua Riachuelo",
        "zipcode": "16600-280"
    },
    {
        "city": "Pirajuí",
        "state": "SP",
        "district": "Residencial Sol Nascente",
        "street": "Rua Roberto Mori",
        "zipcode": "16605-214"
    },
    {
        "city": "Pirajuí",
        "state": "SP",
        "district": "Jardim América",
        "street": "Rua Prefeito Doutor José Eurico Santos de Abreu",
        "zipcode": "16604-014"
    },
    {
        "city": "Pirajuí",
        "state": "SP",
        "district": "Jardim Aclimação",
        "street": "Rua Prefeito Doutor Odeto Sandoval de Carvalho",
        "zipcode": "16604-066"
    },
    {
        "city": "Pirajuí",
        "state": "SP",
        "district": "Vila Ortiz",
        "street": "Rua Paraná",
        "zipcode": "16600-246"
    },
    {
        "city": "Pirajuí",
        "state": "SP",
        "district": "Jardim América",
        "street": "Rua Prefeito Anibal Haman",
        "zipcode": "16604-000"
    },
    {
        "city": "Pirajuí",
        "state": "SP",
        "district": "Jardim Paraíso",
        "street": "Rua Prefeito Lázaro Lopes Bueno",
        "zipcode": "16605-008"
    },
    {
        "city": "Pirajuí",
        "state": "SP",
        "district": "Vila Ortiz",
        "street": "Rua Riachuelo",
        "zipcode": "16600-228"
    },
    {
        "city": "Pirajuí",
        "state": "SP",
        "district": "Centro",
        "street": "Rua Riachuelo",
        "zipcode": "16600-029"
    },
    {
        "city": "Pirajuí",
        "state": "SP",
        "district": "Jardim Paraíso",
        "street": "Rua Prefeito César Falavinha",
        "zipcode": "16605-014"
    },
    {
        "city": "Pirajuí",
        "state": "SP",
        "district": "Jardim América",
        "street": "Rua Prefeito Doutor Domingos Santos Abreu",
        "zipcode": "16604-024"
    },
    {
        "city": "Pirajuí",
        "state": "SP",
        "district": "Jardim Paraíso",
        "street": "Rua Prefeito Elias Aruth",
        "zipcode": "16605-026"
    },
    {
        "city": "Pirajuí",
        "state": "SP",
        "district": "Jardim América",
        "street": "Rua Prefeito Jaime Toledo Piza e Almeida",
        "zipcode": "16604-010"
    },
    {
        "city": "Pirajuí",
        "state": "SP",
        "district": "Jardim Paraíso",
        "street": "Rua Rio de Janeiro",
        "zipcode": "16605-034"
    },
    {
        "city": "Pirajuí",
        "state": "SP",
        "district": "Vila Araújo",
        "street": "Rua Paraná",
        "zipcode": "16600-202"
    },
    {
        "city": "Pirajuí",
        "state": "SP",
        "district": "Vila Esperança",
        "street": "Rua Prefeito Inácio Vidal Santos Abreu",
        "zipcode": "16602-008"
    },
    {
        "city": "Pirajuí",
        "state": "SP",
        "district": "Jardim Paraíso",
        "street": "Rua Paraíso",
        "zipcode": "16605-020"
    },
    {
        "city": "Pirajuí",
        "state": "SP",
        "district": "Jardim Aclimação",
        "street": "Rua Prefeito Doutor Domingos Santos Abreu",
        "zipcode": "16604-058"
    },
    {
        "city": "Pirajuí",
        "state": "SP",
        "district": "Conjunto Habitacional Jardim Europa",
        "street": "Rua Portugal",
        "zipcode": "16605-238"
    },
    {
        "city": "Pirajuí",
        "state": "SP",
        "district": "Núcleo Habitacional Nemer Madi",
        "street": "Rua Prefeito Anibal Haman",
        "zipcode": "16604-042"
    },
    {
        "city": "Pirajuí",
        "state": "SP",
        "district": "Núcleo Habitacional Nemer Madi",
        "street": "Rua Prefeito Manoel Nogueira de Sá",
        "zipcode": "16604-046"
    },
    {
        "city": "Pirajuí",
        "state": "SP",
        "district": "Núcleo Habitacional Nemer Madi",
        "street": "Rua Prefeito Doutor Domingos Santos Abreu",
        "zipcode": "16604-044"
    },
    {
        "city": "Pirajuí",
        "state": "SP",
        "district": "Vila Ortiz",
        "street": "Rua Pernambuco",
        "zipcode": "16600-244"
    },
    {
        "city": "Pirajuí",
        "state": "SP",
        "district": "Residencial Villa Verde",
        "street": "Rua Professor Oswaldo Marangon",
        "zipcode": "16600-512"
    },
    {
        "city": "Pirajuí",
        "state": "SP",
        "district": "Jardim Paraíso",
        "street": "Rua Prefeito Waldemar Pfeifer",
        "zipcode": "16605-010"
    },
    {
        "city": "Pirajuí",
        "state": "SP",
        "district": "Jardim Aclimação",
        "street": "Rua Prefeito Doutor Inácio Meirelles Bastos",
        "zipcode": "16604-054"
    },
    {
        "city": "Pirajuí",
        "state": "SP",
        "district": "Residencial Santo André",
        "street": "Rua Professora Stelangela Pfeifer Inforzato Gaviola",
        "zipcode": "16600-290"
    },
    {
        "city": "Pirajuí",
        "state": "SP",
        "district": "Vila Ortiz",
        "street": "Rua Paraíba",
        "zipcode": "16600-262"
    },
    {
        "city": "Pirajuí",
        "state": "SP",
        "district": "Centro",
        "street": "Rua Prudente de Moraes",
        "zipcode": "16600-043"
    },
    {
        "city": "Pirajuí",
        "state": "SP",
        "district": "Vila Baependy",
        "street": "Rua Prudente de Moraes",
        "zipcode": "16600-074"
    },
    {
        "city": "Pirajuí",
        "state": "SP",
        "district": "Centro",
        "street": "Rua Rachid Cury",
        "zipcode": "16600-017"
    },
    {
        "city": "Pirajuí",
        "state": "SP",
        "district": "Jardim Aclimação",
        "street": "Rua Prefeito Joaquim Gabriel de Oliveira",
        "zipcode": "16604-062"
    },
    {
        "city": "Pirajuí",
        "state": "SP",
        "district": "Jardim América",
        "street": "Rua Prefeito Julio Alves Ferreira",
        "zipcode": "16604-018"
    },
    {
        "city": "Pirajuí",
        "state": "SP",
        "district": "Jardim Aclimação",
        "street": "Rua Prefeito João Rosato",
        "zipcode": "16604-070"
    },
    {
        "city": "Pirajuí",
        "state": "SP",
        "district": "Jardim Aclimação",
        "street": "Rua Prefeito Mario Abreu Lima",
        "zipcode": "16604-068"
    },
    {
        "city": "Pirajuí",
        "state": "SP",
        "district": "Jardim América",
        "street": "Rua Prefeito Manoel Nogueira de Sá",
        "zipcode": "16604-022"
    },
    {
        "city": "Pirajuí",
        "state": "SP",
        "district": "Vila Ortiz",
        "street": "Rua Pará",
        "zipcode": "16600-254"
    },
    {
        "city": "Pirajuí",
        "state": "SP",
        "district": "Jardim Aclimação",
        "street": "Rua Prefeito Doutor Carlos Rogner",
        "zipcode": "16604-060"
    },
    {
        "city": "Pirajuí",
        "state": "SP",
        "district": "Vila Ortiz",
        "street": "Rua Piauí",
        "zipcode": "16600-252"
    },
    {
        "city": "Pirajuí",
        "state": "SP",
        "district": "Morada do Sol",
        "street": "Rua Rineo Inforzato",
        "zipcode": "16600-090"
    },
    {
        "city": "Pirajuí",
        "state": "SP",
        "district": "Jardim Eldorado",
        "street": "Rua Rinaldo Giora",
        "zipcode": "16603-356"
    },
    {
        "city": "Pirajuí",
        "state": "SP",
        "district": "Jardim Aclimação",
        "street": "Rua Prefeito Doutor Joaquim do Amaral Mello",
        "zipcode": "16604-064"
    },
    {
        "city": "Pirajuí",
        "state": "SP",
        "district": "Jardim Paraíso",
        "street": "Rua Prefeito Sérgio Assumpção de Toledo Piza",
        "zipcode": "16605-006"
    },
    {
        "city": "Pirajuí",
        "state": "SP",
        "district": "Jardim Eldorado",
        "street": "Rua Ratib Chehade Nahasan",
        "zipcode": "16603-360"
    },
    {
        "city": "Pirajuí",
        "state": "SP",
        "district": "Vila Ortiz",
        "street": "Rua Rio Grande do Sul",
        "zipcode": "16600-250"
    },
    {
        "city": "Pirajuí",
        "state": "SP",
        "district": "Vila Abel",
        "street": "Rua Rio de Janeiro",
        "zipcode": "16605-062"
    },
    {
        "city": "Pirajuí",
        "state": "SP",
        "district": "Jardim Aclimação",
        "street": "Rua Reverendo Francisco Alves Costa",
        "zipcode": "16604-086"
    },
    {
        "city": "Pirajuí",
        "state": "SP",
        "district": "Centro",
        "street": "Rua Quintino Bocaíuva",
        "zipcode": "16600-059"
    },
    {
        "city": "Pirajuí",
        "state": "SP",
        "district": "Vila Abel",
        "street": "Rua São Paulo",
        "zipcode": "16605-060"
    },
    {
        "city": "Pirajuí",
        "state": "SP",
        "district": "Centro",
        "street": "Rua 15 de Novembro",
        "zipcode": "16600-005"
    },
    {
        "city": "Pirajuí",
        "state": "SP",
        "district": "Centro (Pradínia)",
        "street": "Rua São Benedito",
        "zipcode": "16618-002"
    },
    {
        "city": "Pirajuí",
        "state": "SP",
        "district": "Centro (Pradínia)",
        "street": "Rua 1",
        "zipcode": "16618-001"
    },
    {
        "city": "Pirajuí",
        "state": "SP",
        "district": "Centro (Santo Antônio da Estiva)",
        "street": "Rua 17 de Novembro",
        "zipcode": "16617-002"
    },
    {
        "city": "Pirajuí",
        "state": "SP",
        "district": "Centro (Corredeira)",
        "street": "Rua 07 de Março",
        "zipcode": "16619-001"
    },
    {
        "city": "Pirajuí",
        "state": "SP",
        "district": "Jardim América",
        "street": "Rua Vereador Abdias Machado",
        "zipcode": "16604-012"
    },
    {
        "city": "Pirajuí",
        "state": "SP",
        "district": "Centro",
        "street": "Travessa Sebastião Rizzo",
        "zipcode": "16600-053"
    },
    {
        "city": "Pirajuí",
        "state": "SP",
        "district": "Vila Ortiz",
        "street": "Rua Santa Catarina",
        "zipcode": "16600-248"
    },
    {
        "city": "Pirajuí",
        "state": "SP",
        "district": "Centro",
        "street": "Rua Sertaneja",
        "zipcode": "16600-003"
    },
    {
        "city": "Pirajuí",
        "state": "SP",
        "district": "Centro (Corredeira)",
        "street": "Rua 18 de Maio",
        "zipcode": "16619-008"
    },
    {
        "city": "Pirajuí",
        "state": "SP",
        "district": "Vila Esperança",
        "street": "Rua 29 de Março",
        "zipcode": "16602-002"
    },
    {
        "city": "Pirajuí",
        "state": "SP",
        "district": "Vila Faustini",
        "street": "Travessa Amália",
        "zipcode": "16600-086"
    },
    {
        "city": "Pirajuí",
        "state": "SP",
        "district": "Centro (Corredeira)",
        "street": "Rua 10 de Julho",
        "zipcode": "16619-004"
    },
    {
        "city": "Pirajuí",
        "state": "SP",
        "district": "Jardim dos Servidores",
        "street": "Rua Sebastião Ramos dos Santos",
        "zipcode": "16603-346"
    },
    {
        "city": "Pirajuí",
        "state": "SP",
        "district": "Vila Abel",
        "street": "Travessa Waldemar Ferreira de Souza",
        "zipcode": "16605-066"
    },
    {
        "city": "Pirajuí",
        "state": "SP",
        "district": "Centro",
        "street": "Rua 07 de Setembro",
        "zipcode": "16600-019"
    },
    {
        "city": "Pirajuí",
        "state": "SP",
        "district": "Centro (Corredeira)",
        "street": "Rua 07 de Setembro",
        "zipcode": "16619-002"
    },
    {
        "city": "Pirajuí",
        "state": "SP",
        "district": "Centro",
        "street": "Rua 09 de Julho",
        "zipcode": "16600-035"
    },
    {
        "city": "Pirajuí",
        "state": "SP",
        "district": "Nova Pirajuí",
        "street": "Rua Sucupiras",
        "zipcode": "16605-480"
    },
    {
        "city": "Pirajuí",
        "state": "SP",
        "district": "Centro (Pradínia)",
        "street": "Rua Vitório Donato Britta",
        "zipcode": "16618-020"
    },
    {
        "city": "Pirajuí",
        "state": "SP",
        "district": "Centro",
        "street": "Rua 13 de Maio",
        "zipcode": "16600-027"
    },
    {
        "city": "Pirajuí",
        "state": "SP",
        "district": "Centro",
        "street": "Rua Voluntário Silvano de Lima",
        "zipcode": "16600-033"
    },
    {
        "city": "Pirajuí",
        "state": "SP",
        "district": "Residencial Santo André",
        "street": "Rua Waldemar Moreira",
        "zipcode": "16600-292"
    },
    {
        "city": "Pirajuí",
        "state": "SP",
        "district": "Vila Abel",
        "street": "Rua Santa Catarina",
        "zipcode": "16605-058"
    },
    {
        "city": "Pirajuí",
        "state": "SP",
        "district": "Centro",
        "street": "Rua Sebastião Rizzo",
        "zipcode": "16600-051"
    },
    {
        "city": "Pirajuí",
        "state": "SP",
        "district": "Parque Santa Guilhermina",
        "street": "Rua Terezinha de Jesus Batista Pandolfi",
        "zipcode": "16603-020"
    },
    {
        "city": "Pirajuí",
        "state": "SP",
        "district": "Centro (Corredeira)",
        "street": "Rua 10 de Novembro",
        "zipcode": "16619-006"
    },
    {
        "city": "Pirajuí",
        "state": "SP",
        "district": "Centro (Pradínia)",
        "street": "Rua São Sebastião",
        "zipcode": "16618-018"
    },
    {
        "city": "Pirajuí",
        "state": "SP",
        "district": "Jardim dos Servidores",
        "street": "Rua Virginio de Lima Barbosa",
        "zipcode": "16603-340"
    },
    {
        "city": "Pirajuí",
        "state": "SP",
        "district": "Vila Faustini",
        "street": "Travessa Silvio",
        "zipcode": "16600-084"
    },
    {
        "city": "Pirajuí",
        "state": "SP",
        "district": "Vila Santa Guilhermina",
        "street": "Rua 13 de Maio",
        "zipcode": "16603-001"
    },
    {
        "city": "Pirajuí",
        "state": "SP",
        "district": "Centro",
        "street": "Rua Voluntário Benedito Pimenta",
        "zipcode": "16600-049"
    },
    {
        "city": "Pirajuí",
        "state": "SP",
        "district": "Área Rural de Santo Antônio da Estiva (Pirajuí)",
        "street": "Área Rural",
        "zipcode": "16617-899"
    },
    {
        "city": "Pirajuí",
        "state": "SP",
        "district": "Residencial Villa Verde",
        "street": "Estrada Municipal Pri",
        "zipcode": "16600-500"
    },
    {
        "city": "Pirajuí",
        "state": "SP",
        "district": "Jardim Aclimação",
        "street": "Avenida Marginal Edson Carlos Pfeifer",
        "zipcode": "16604-084"
    },
    {
        "city": "Pirajuí",
        "state": "SP",
        "district": "Vila Santa Brigida",
        "street": "Avenida da Saudade",
        "zipcode": "16603-280"
    },
    {
        "city": "Pirajuí",
        "state": "SP",
        "district": "Jardim Paraíso",
        "street": "Avenida Governador Orestes Quércia",
        "zipcode": "16605-000"
    },
    {
        "city": "Pirajuí",
        "state": "SP",
        "district": "Vila Santa Guilhermina",
        "street": "Avenida Rui Barbosa Lima",
        "zipcode": "16603-006"
    },
    {
        "city": "Pirajuí",
        "state": "SP",
        "district": "Jardim América",
        "street": "Avenida Prefeito Eloi de Almeida Cardia",
        "zipcode": "16604-002"
    },
    {
        "city": "Pirajuí",
        "state": "SP",
        "district": "Multirão",
        "street": "Rua das Flores",
        "zipcode": "16605-042"
    },
    {
        "city": "Pirajuí",
        "state": "SP",
        "district": "Nova Pirajuí",
        "street": "Rua dos Pau DAlhos",
        "zipcode": "16605-460"
    },
    {
        "city": "Pirajuí",
        "state": "SP",
        "district": "Jardim Liberdade",
        "street": "Rua Aryovaldo Aparecido Elorza",
        "zipcode": "16602-038"
    },
    {
        "city": "Pirajuí",
        "state": "SP",
        "district": "Vila Ortiz",
        "street": "Rua Quintino Bocaíuva",
        "zipcode": "16600-210"
    },
    {
        "city": "Pirajuí",
        "state": "SP",
        "district": "Residencial Sol Nascente",
        "street": "Rua Rinaldo Rosa da Silva",
        "zipcode": "16605-220"
    },
    {
        "city": "Pirajuí",
        "state": "SP",
        "district": "Parque Santa Guilhermina",
        "street": "Rua Nilton José Salgado",
        "zipcode": "16603-024"
    },
    {
        "city": "Pirajuí",
        "state": "SP",
        "district": "Centro",
        "street": "Praça João Augusto Ribeiro",
        "zipcode": "16600-021"
    },
    {
        "city": "Pirajuí",
        "state": "SP",
        "district": "Nova Pirajuí",
        "street": "Rua das Seringueiras",
        "zipcode": "16605-452"
    },
    {
        "city": "Pirajuí",
        "state": "SP",
        "district": "Conjunto Habitacional Jardim Europa",
        "street": "Rua Dinamarca",
        "zipcode": "16605-234"
    },
    {
        "city": "Pirajuí",
        "state": "SP",
        "district": "Vila Baependy",
        "street": "Rua Padre João Van Der Hulst",
        "zipcode": "16600-070"
    },
    {
        "city": "Pirajuí",
        "state": "SP",
        "district": "Jardim Aclimação",
        "street": "Rua Prefeito Doutor Luiz Piza Sobrinho",
        "zipcode": "16604-052"
    },
    {
        "city": "Pirajuí",
        "state": "SP",
        "district": "Centro",
        "street": "Praça Américo Manso Monteiro Costa Reis",
        "zipcode": "16600-013"
    },
    {
        "city": "Pirajuí",
        "state": "SP",
        "district": "Residencial Villa Verde",
        "street": "Rotatória Doutora Ivete Curi",
        "zipcode": "16600-502"
    },
    {
        "city": "Pirajuí",
        "state": "SP",
        "district": "Núcleo Habitacional Nemer Madi",
        "street": "Rua Prefeito Doutor Carlos Rogner",
        "zipcode": "16604-040"
    },
    {
        "city": "Pirajuí",
        "state": "SP",
        "district": "Centro",
        "street": "Rua Ana Jarvis",
        "zipcode": "16600-063"
    },
    {
        "city": "Pirajuí",
        "state": "SP",
        "district": "Centro (Corredeira)",
        "street": "Rua Joaquim dos Santos",
        "zipcode": "16619-970"
    },
    {
        "city": "Pirajuí",
        "state": "SP",
        "district": "Jardim Rinaldi",
        "street": "Rua das Orquídeas",
        "zipcode": "16605-176"
    },
    {
        "city": "Pirajuí",
        "state": "SP",
        "district": "Núcleo Habitacional Professor Wilson Augusto Bispo",
        "street": "Rua das Andorinhas",
        "zipcode": "16605-124"
    },
    {
        "city": "Pirajuí",
        "state": "SP",
        "district": "Jardim Paraíso",
        "street": "Rua Prefeito Adalberto de Mello Rocha",
        "zipcode": "16605-028"
    },
    {
        "city": "Pirajuí",
        "state": "SP",
        "district": "Residencial Villa Verde",
        "street": "Rua Renan Honorato da Silva",
        "zipcode": "16600-508"
    },
    {
        "city": "Pirajuí",
        "state": "SP",
        "district": "Vila Santa Guilhermina",
        "street": "Rua Capitão Olimpio Pedro Loureiro",
        "zipcode": "16603-002"
    },
    {
        "city": "Pirajuí",
        "state": "SP",
        "district": "Núcleo Habitacional Professor Wilson Augusto Bispo",
        "street": "Rua dos Uirapurus",
        "zipcode": "16605-128"
    },
    {
        "city": "Pirajuí",
        "state": "SP",
        "district": "Parque Santa Guilhermina",
        "street": "Rua Luciano Inforzato",
        "zipcode": "16603-030"
    },
    {
        "city": "Pirajuí",
        "state": "SP",
        "district": "Conjunto Habitacional Parque União",
        "street": "Rua Prefeito Euclides Ferraz de Camargo",
        "zipcode": "16600-272"
    },
    {
        "city": "Pirajuí",
        "state": "SP",
        "district": "Centro (Corredeira)",
        "street": "Rua Padre Claro",
        "zipcode": "16619-014"
    },
    {
        "city": "Pirajuí",
        "state": "SP",
        "district": "Nova Pirajuí",
        "street": "Rua Andirobas",
        "zipcode": "16605-496"
    },
    {
        "city": "Pirajuí",
        "state": "SP",
        "district": "Centro (Corredeira)",
        "street": "Rua Barão do Rio Branco",
        "zipcode": "16619-034"
    },
    {
        "city": "Pirajuí",
        "state": "SP",
        "district": "Centro (Santo Antônio da Estiva)",
        "street": "Rua Francisco Gasparoto",
        "zipcode": "16617-010"
    },
    {
        "city": "Pirajuí",
        "state": "SP",
        "district": "Vila Ortiz",
        "street": "Rua Padre João Van Der Hulst",
        "zipcode": "16600-234"
    },
    {
        "city": "Pirajuí",
        "state": "SP",
        "district": "Vila Esperança",
        "street": "Rua Luiz Wolf",
        "zipcode": "16602-010"
    },
    {
        "city": "Pirajuí",
        "state": "SP",
        "district": "Vila Ortiz",
        "street": "Rua Constantino Boaretti",
        "zipcode": "16600-266"
    },
    {
        "city": "Pirajuí",
        "state": "SP",
        "district": "Jardim Angaville",
        "street": "Rua Henrique Fenelon Costa",
        "zipcode": "16603-272"
    },
    {
        "city": "Pirajuí",
        "state": "SP",
        "district": "Jardim Aclimação",
        "street": "Rua Prefeito Manoel Nogueira de Sá",
        "zipcode": "16604-056"
    },
    {
        "city": "Pirajuí",
        "state": "SP",
        "district": "Residencial Villa Verde",
        "street": "Rua Mauro Francisco Marins",
        "zipcode": "16600-522"
    },
    {
        "city": "Pirajuí",
        "state": "SP",
        "district": "Jardim Eldorado",
        "street": "Rua Antonio Antonângelo",
        "zipcode": "16603-354"
    },
    {
        "city": "Pirajuí",
        "state": "SP",
        "district": "Nova Pirajuí",
        "street": "Rua dos Ipês",
        "zipcode": "16605-476"
    },
    {
        "city": "Pirajuí",
        "state": "SP",
        "district": "Jardim Liberdade",
        "street": "Rua José Arnaldo dos Santos",
        "zipcode": "16602-040"
    },
    {
        "city": "Pirajuí",
        "state": "SP",
        "district": "Núcleo Habitacional Professor Wilson Augusto Bispo",
        "street": "Rua das Gaivotas",
        "zipcode": "16605-122"
    },
    {
        "city": "Pirajuí",
        "state": "SP",
        "district": "Jardim Eldorado",
        "street": "Rua Jandira Tobias Elias",
        "zipcode": "16603-366"
    },
    {
        "city": "Pirajuí",
        "state": "SP",
        "district": "Multirão",
        "street": "Rua Brasil",
        "zipcode": "16605-040"
    },
    {
        "city": "Pirajuí",
        "state": "SP",
        "district": "Residencial Villa Verde",
        "street": "Rua Osvaldo Pfeifer",
        "zipcode": "16600-510"
    },
    {
        "city": "Pirajuí",
        "state": "SP",
        "district": "Jardim Angaville",
        "street": "Rua José Ferreira da Cunha",
        "zipcode": "16603-266"
    },
    {
        "city": "Pirajuí",
        "state": "SP",
        "district": "Núcleo Habitacional Professor Wilson Augusto Bispo",
        "street": "Rua dos Canários",
        "zipcode": "16605-130"
    },
    {
        "city": "Pirajuí",
        "state": "SP",
        "district": "Centro (Corredeira)",
        "street": "Rua Rui Barbosa",
        "zipcode": "16619-036"
    },
    {
        "city": "Pirajuí",
        "state": "SP",
        "district": "Jardim Paraíso",
        "street": "Rua Prefeito Wander José Pinto Barros",
        "zipcode": "16605-032"
    },
    {
        "city": "Pirajuí",
        "state": "SP",
        "district": "Conjunto Habitacional Jardim Europa",
        "street": "Rua Inglaterra",
        "zipcode": "16605-230"
    },
    {
        "city": "Pirajuí",
        "state": "SP",
        "district": "Residencial Sol Nascente",
        "street": "Rua Rosalvo Ribeiro da Silva",
        "zipcode": "16605-216"
    },
    {
        "city": "Pirajuí",
        "state": "SP",
        "district": "Jardim Aclimação",
        "street": "Rua Fausto Franco",
        "zipcode": "16604-082"
    },
    {
        "city": "Pirajuí",
        "state": "SP",
        "district": "Centro (Santo Antônio da Estiva)",
        "street": "Rua Dom Pedro II",
        "zipcode": "16617-016"
    },
    {
        "city": "Pirajuí",
        "state": "SP",
        "district": "Centro",
        "street": "Rua Campos Salles",
        "zipcode": "16600-023"
    },
    {
        "city": "Pirajuí",
        "state": "SP",
        "district": "Jardim Eldorado",
        "street": "Rua Paulo Jordani",
        "zipcode": "16603-358"
    },
    {
        "city": "Pirajuí",
        "state": "SP",
        "district": "Residencial Santo André",
        "street": "Rua Eliseu Benedito Machado",
        "zipcode": "16600-286"
    },
    {
        "city": "Pirajuí",
        "state": "SP",
        "district": "Jardim Liberdade",
        "street": "Rua Irineu Vital dos Santos",
        "zipcode": "16602-028"
    },
    {
        "city": "Pirajuí",
        "state": "SP",
        "district": "Nova Pirajuí",
        "street": "Rua das Cerejeiras",
        "zipcode": "16605-484"
    },
    {
        "city": "Pirajuí",
        "state": "SP",
        "district": "",
        "street": "Rua Santo Antônio",
        "zipcode": "16603-990"
    },
    {
        "city": "Pirajuí",
        "state": "SP",
        "district": "Centro (Santo Antônio da Estiva)",
        "street": "Rua Santo Antônio",
        "zipcode": "16617-006"
    },
    {
        "city": "Pirajuí",
        "state": "SP",
        "district": "Centro (Santo Antônio da Estiva)",
        "street": "Rua 19 de Maio",
        "zipcode": "16617-004"
    },
    {
        "city": "Pirajuí",
        "state": "SP",
        "district": "Jardim Angaville",
        "street": "Rua Vicente de Souza Prado",
        "zipcode": "16603-278"
    },
    {
        "city": "Pirajuí",
        "state": "SP",
        "district": "Vila Ortiz",
        "street": "Rua Voluntário Silvano de Lima",
        "zipcode": "16600-232"
    },
    {
        "city": "Pirajuí",
        "state": "SP",
        "district": "Jardim Angaville",
        "street": "Rua 13 de Maio",
        "zipcode": "16603-262"
    },
    {
        "city": "Pirajuí",
        "state": "SP",
        "district": "Centro (Santo Antônio da Estiva)",
        "street": "Rua 07 de Setembro",
        "zipcode": "16617-001"
    },
    {
        "city": "Pirajuí",
        "state": "SP",
        "district": "Distrito Industrial",
        "street": "Rua José Martinho Ferreira",
        "zipcode": "16605-150"
    },
    {
        "city": "Pirajuí",
        "state": "SP",
        "district": "Vila Ortiz",
        "street": "Rua 13 de Maio",
        "zipcode": "16600-226"
    },
    {
        "city": "Pirajuí",
        "state": "SP",
        "district": "Núcleo Habitacional Parque Vista Alegre",
        "street": "Avenida Lázara Bueno Moreira",
        "zipcode": "16604-030"
    },
    {
        "city": "Pirajuí",
        "state": "SP",
        "district": "Núcleo Habitacional Professor Wilson Augusto Bispo",
        "street": "Rua José Martinho Ferreira",
        "zipcode": "16605-138"
    },
    {
        "city": "Pirajuí",
        "state": "SP",
        "district": "Núcleo Habitacional Nemer Madi",
        "street": "Rua Prefeito Doutor Luiz Piza Sobrinho",
        "zipcode": "16604-048"
    },
    {
        "city": "Pirajuí",
        "state": "SP",
        "district": "Distrito Industrial",
        "street": "Rua Doutor Olympio Barbanti",
        "zipcode": "16605-160"
    },
    {
        "city": "Pirajuí",
        "state": "SP",
        "district": "Centro (Santo Antônio da Estiva)",
        "street": "Rua Santo Antônio",
        "zipcode": "16617-970"
    },
    {
        "city": "Pirajuí",
        "state": "SP",
        "district": "Parque Santa Guilhermina",
        "street": "Rua Benevides Fernandes Pereira",
        "zipcode": "16603-032"
    },
    {
        "city": "Pirajuí",
        "state": "SP",
        "district": "Vila Esperança",
        "street": "Rua Manoel Francisco Ribeiro",
        "zipcode": "16602-018"
    },
    {
        "city": "Pirajuí",
        "state": "SP",
        "district": "Vila Santa Guilhermina",
        "street": "Rua Riachuelo",
        "zipcode": "16603-004"
    },
    {
        "city": "Pirajuí",
        "state": "SP",
        "district": "Nova Pirajuí",
        "street": "Rodovia Marechal Rondon",
        "zipcode": "16605-502"
    },
    {
        "city": "Pirajuí",
        "state": "SP",
        "district": "Centro (Pradínia)",
        "street": "Rua João Barbi",
        "zipcode": "16618-008"
    },
    {
        "city": "Pirajuí",
        "state": "SP",
        "district": "Vila Esperança",
        "street": "Rua Salvador da Costa Sarico",
        "zipcode": "16602-014"
    },
    {
        "city": "Pirajuí",
        "state": "SP",
        "district": "Jardim Angaville",
        "street": "Rua Sérgio Peres de Camacho",
        "zipcode": "16603-270"
    },
    {
        "city": "Pirajuí",
        "state": "SP",
        "district": "Jardim Liberdade",
        "street": "Rua Fausto Soares Sobrinho",
        "zipcode": "16602-030"
    },
    {
        "city": "Pirajuí",
        "state": "SP",
        "district": "Distrito Industrial",
        "street": "Avenida Cidade Jardim",
        "zipcode": "16605-162"
    },
    {
        "city": "Pirajuí",
        "state": "SP",
        "district": "Parque Santa Guilhermina",
        "street": "Rua Manoel Pereira Eca",
        "zipcode": "16603-046"
    }
]