[
    {
        "city": "Ribeirao Pires",
        "state": "SP",
        "district": "Vila Rosal",
        "street": "Rua Curta",
        "zipcode": "09421-340"
    },
    {
        "city": "Ribeirao Pires",
        "state": "SP",
        "district": "Jardim Boa Sorte",
        "street": "Rua Prof. Ceci F. Da Veiga",
        "zipcode": "09402-420"
    },
    {
        "city": "Ribeirao Pires",
        "state": "SP",
        "district": "Jardim Esperanca",
        "street": "Rua Odair Miguel De L Junior",
        "zipcode": "09404-530"
    },
    {
        "city": "Ribeirao Pires",
        "state": "SP",
        "district": "Jardim Lisboa",
        "street": "Rua Da Selva",
        "zipcode": "09404-210"
    },
    {
        "city": "Ribeirao Pires",
        "state": "SP",
        "district": "Jardim Itacolomy",
        "street": "Rua Massayoshi Kondo",
        "zipcode": "09402-460"
    },
    {
        "city": "Ribeirao Pires",
        "state": "SP",
        "district": "Jardim Dois Melros",
        "street": "Rua Suecia",
        "zipcode": "09402-200"
    },
    {
        "city": "Ribeirao Pires",
        "state": "SP",
        "district": "Bosque Santana",
        "street": "Rua Lages",
        "zipcode": "09405-120"
    },
    {
        "city": "Ribeirao Pires",
        "state": "SP",
        "district": "Sao Caetaninho",
        "street": "Rua Nazario Rodrigues Lopes",
        "zipcode": "09404-290"
    },
    {
        "city": "Ribeirao Pires",
        "state": "SP",
        "district": "Vila Aparecida",
        "street": "Rua Cezarina Bragatti Cipriano",
        "zipcode": "09401-610"
    },
    {
        "city": "Ribeirao Pires",
        "state": "SP",
        "district": "Estancia Paulista",
        "street": "Praça Joao Gomes",
        "zipcode": "09405-620"
    },
    {
        "city": "Ribeirao Pires",
        "state": "SP",
        "district": "Vila Cleide",
        "street": "Rua Itapoa",
        "zipcode": "09401-080"
    },
    {
        "city": "Ribeirao Pires",
        "state": "SP",
        "district": "Jardim Pastoril",
        "street": "Rua Luis Bertoldo",
        "zipcode": "09406-070"
    },
    {
        "city": "Ribeirao Pires",
        "state": "SP",
        "district": "Vila Prisco",
        "street": "Rua Dr Rafael Oliva",
        "zipcode": "09402-010"
    },
    {
        "city": "Ribeirao Pires",
        "state": "SP",
        "district": "Parque Alianca",
        "street": "Rua Suva Osawa",
        "zipcode": "09403-570"
    },
    {
        "city": "Ribeirao Pires",
        "state": "SP",
        "district": "Jardim Lisboa",
        "street": "Rua Casagrande",
        "zipcode": "09404-160"
    },
    {
        "city": "Ribeirao Pires",
        "state": "SP",
        "district": "Jardim Itacolomy",
        "street": "Travessa Passos",
        "zipcode": "09402-450"
    },
    {
        "city": "Ribeirao Pires",
        "state": "SP",
        "district": "Estancia Paulista",
        "street": "Rua Antonio Arruda",
        "zipcode": "09405-580"
    },
    {
        "city": "Ribeirao Pires",
        "state": "SP",
        "district": "Jardim Colonial",
        "street": "Rua Brauna",
        "zipcode": "09401-350"
    },
    {
        "city": "Ribeirao Pires",
        "state": "SP",
        "district": "Vila Aparecida",
        "street": "Rua Hugo Winter",
        "zipcode": "09406-025"
    },
    {
        "city": "Ribeirao Pires",
        "state": "SP",
        "district": "Jardim Santa Luzia (Santa Luzia)",
        "street": "Rua Adolfo Alves De Lima",
        "zipcode": "09430-420"
    },
    {
        "city": "Ribeirao Pires",
        "state": "SP",
        "district": "Vila Nova Suissa Santista",
        "street": "Rua Uberaba",
        "zipcode": "09422-430"
    },
    {
        "city": "Ribeirao Pires",
        "state": "SP",
        "district": "Vila Nova Suissa Santista",
        "street": "Rua Una",
        "zipcode": "09422-440"
    },
    {
        "city": "Ribeirao Pires",
        "state": "SP",
        "district": "Vila Marquesa De Santos",
        "street": "Praça Dois",
        "zipcode": "09411-780"
    },
    {
        "city": "Ribeirao Pires",
        "state": "SP",
        "district": "Vila Maria",
        "street": "Rua Maraba",
        "zipcode": "09406-230"
    },
    {
        "city": "Ribeirao Pires",
        "state": "SP",
        "district": "Centro",
        "street": "Rua Joao Ugliengo",
        "zipcode": "09424-520"
    },
    {
        "city": "Ribeirao Pires",
        "state": "SP",
        "district": "Vila Zampol",
        "street": "Rua Tabapua",
        "zipcode": "09424-320"
    },
    {
        "city": "Ribeirao Pires",
        "state": "SP",
        "district": "Estancia Das Rosas",
        "street": "Rua Colombo",
        "zipcode": "09404-440"
    },
    {
        "city": "Ribeirao Pires",
        "state": "SP",
        "district": "Vila Rosal",
        "street": "Rua Santa Luzia",
        "zipcode": "09412-160"
    },
    {
        "city": "Ribeirao Pires",
        "state": "SP",
        "district": "Parque Do Governador",
        "street": "Rua Bento Dias Pacheco",
        "zipcode": "09412-170"
    },
    {
        "city": "Ribeirao Pires",
        "state": "SP",
        "district": "Chacara Icatuacu",
        "street": "Rua Julio Salgado Fernandes",
        "zipcode": "09413-250"
    },
    {
        "city": "Ribeirao Pires",
        "state": "SP",
        "district": "Jardim Capistrano",
        "street": "Rua Amador Bueno",
        "zipcode": "09406-520"
    },
    {
        "city": "Ribeirao Pires",
        "state": "SP",
        "district": "Vila Nova",
        "street": "Rua Jerico",
        "zipcode": "09411-070"
    },
    {
        "city": "Ribeirao Pires",
        "state": "SP",
        "district": "Parque Das Fontes (Santa Luzia)",
        "street": "Rua Andradina",
        "zipcode": "09430-610"
    },
    {
        "city": "Ribeirao Pires",
        "state": "SP",
        "district": "Jardim Valentina",
        "street": "Rua Reinaldo Carcilio",
        "zipcode": "09412-380"
    },
    {
        "city": "Ribeirao Pires",
        "state": "SP",
        "district": "Jardim Santa Rosa (Santa Luzia)",
        "street": "Rua Jacutinga",
        "zipcode": "09432-180"
    },
    {
        "city": "Ribeirao Pires",
        "state": "SP",
        "district": "Vila Tavolaro",
        "street": "Rua Campo Grande",
        "zipcode": "09420-360"
    },
    {
        "city": "Ribeirao Pires",
        "state": "SP",
        "district": "Vila Nova Suissa Santista",
        "street": "Rua Santos",
        "zipcode": "09422-510"
    },
    {
        "city": "Ribeirao Pires",
        "state": "SP",
        "district": "Jardim Santa Luzia (Santa Luzia)",
        "street": "Rua Aimore",
        "zipcode": "09430-410"
    },
    {
        "city": "Ribeirao Pires",
        "state": "SP",
        "district": "Jardim Centenario",
        "street": "Rua Antonio Zuliane",
        "zipcode": "09407-040"
    },
    {
        "city": "Ribeirao Pires",
        "state": "SP",
        "district": "Vila Nova Suissa Santista",
        "street": "Rua Cardeal Richelier",
        "zipcode": "09422-420"
    },
    {
        "city": "Ribeirao Pires",
        "state": "SP",
        "district": "Jardim Santa Rosa (Santa Luzia)",
        "street": "Rua Frei Henrique De Coimbra",
        "zipcode": "09432-220"
    },
    {
        "city": "Ribeirao Pires",
        "state": "SP",
        "district": "Jardim Boa Vista (Santa Luzia)",
        "street": "Rua Ita",
        "zipcode": "09431-080"
    },
    {
        "city": "Ribeirao Pires",
        "state": "SP",
        "district": "Balneario Palmira",
        "street": "Praça Veneza",
        "zipcode": "09416-440"
    },
    {
        "city": "Ribeirao Pires",
        "state": "SP",
        "district": "Parque Das Fontes (Santa Luzia)",
        "street": "Rua Maximino Siqueira",
        "zipcode": "09430-500"
    },
    {
        "city": "Ribeirao Pires",
        "state": "SP",
        "district": "Vila Santo Antonio",
        "street": "Rua Luis Saia",
        "zipcode": "09407-350"
    },
    {
        "city": "Ribeirao Pires",
        "state": "SP",
        "district": "Parque Das Fontes (Santa Luzia)",
        "street": "Rua Jose Achetta",
        "zipcode": "09430-590"
    },
    {
        "city": "Ribeirao Pires",
        "state": "SP",
        "district": "Parque Do Governador",
        "street": "Rua Stefan Muzger",
        "zipcode": "09412-180"
    },
    {
        "city": "Ribeirao Pires",
        "state": "SP",
        "district": "Centro",
        "street": "Rua Estados Unidos",
        "zipcode": "09400-290"
    },
    {
        "city": "Ribeirao Pires",
        "state": "SP",
        "district": "Recanto Alegre",
        "street": "Rua Angelina F Matarazzo",
        "zipcode": "09425-530"
    },
    {
        "city": "Ribeirao Pires",
        "state": "SP",
        "district": "Balneario Palmira",
        "street": "Rua Japi",
        "zipcode": "09416-480"
    },
    {
        "city": "Ribeirao Pires",
        "state": "SP",
        "district": "Jardim Santa Luzia (Santa Luzia)",
        "street": "Rua Uberaba",
        "zipcode": "09430-430"
    },
    {
        "city": "Ribeirao Pires",
        "state": "SP",
        "district": "Vila Tavolaro",
        "street": "Praça Dom Pedro Ii",
        "zipcode": "09420-470"
    },
    {
        "city": "Ribeirao Pires",
        "state": "SP",
        "district": "Jardim Petropolis (Santa Luzia)",
        "street": "Rua Agostinho Jose Do Carmo",
        "zipcode": "09432-400"
    },
    {
        "city": "Ribeirao Pires",
        "state": "SP",
        "district": "Balneario Palmira",
        "street": "Rua Miruna",
        "zipcode": "09416-490"
    },
    {
        "city": "Ribeirao Pires",
        "state": "SP",
        "district": "Recanto Suisso",
        "street": "Rua Sao Paulo",
        "zipcode": "09423-180"
    },
    {
        "city": "Ribeirao Pires",
        "state": "SP",
        "district": "Jardim Boa Vista (Santa Luzia)",
        "street": "Rua Ubirata",
        "zipcode": "09431-150"
    },
    {
        "city": "Ribeirao Pires",
        "state": "SP",
        "district": "Jardim Pilar Velho (Santa Luzia)",
        "street": "Rua Das Jabuticabeiras",
        "zipcode": "09432-520"
    },
    {
        "city": "Ribeirao Pires",
        "state": "SP",
        "district": "Recanto Week End (Santa Luzia)",
        "street": "Rua Alegrete",
        "zipcode": "09434-400"
    },
    {
        "city": "Ribeirao Pires",
        "state": "SP",
        "district": "Parque Do Governador",
        "street": "Rua Natal",
        "zipcode": "09412-200"
    },
    {
        "city": "Ribeirao Pires",
        "state": "SP",
        "district": "Vila Nova Suissa Santista",
        "street": "Rua Vale Da Ribeira",
        "zipcode": "09422-450"
    },
    {
        "city": "Ribeirao Pires",
        "state": "SP",
        "district": "Balneario Palmira",
        "street": "Rua Presidente Roosevelt",
        "zipcode": "09416-370"
    },
    {
        "city": "Ribeirao Pires",
        "state": "SP",
        "district": "Nucleo Colonial",
        "street": "Travessa Maira",
        "zipcode": "09424-180"
    },
    {
        "city": "Ribeirao Pires",
        "state": "SP",
        "district": "Nucleo Colonial",
        "street": "Travessa Manoel De Abreu Paulino",
        "zipcode": "09424-160"
    },
    {
        "city": "Ribeirao Pires",
        "state": "SP",
        "district": "Jardim Planteucal",
        "street": "Rua Santa Rosa",
        "zipcode": "09414-280"
    },
    {
        "city": "Ribeirao Pires",
        "state": "SP",
        "district": "Vila Industrial (Santa Luzia)",
        "street": "Rua Paschoal Moreira",
        "zipcode": "09431-520"
    },
    {
        "city": "Ribeirao Pires",
        "state": "SP",
        "district": "Vila Suely",
        "street": "Rua Pinheiros",
        "zipcode": "09426-330"
    },
    {
        "city": "Ribeirao Pires",
        "state": "SP",
        "district": "Vila Rosal",
        "street": "Rua Tangara",
        "zipcode": "09421-350"
    },
    {
        "city": "Ribeirao Pires",
        "state": "SP",
        "district": "Vila Rosal",
        "street": "Rua Japira",
        "zipcode": "09421-310"
    },
    {
        "city": "Ribeirao Pires",
        "state": "SP",
        "district": "Jardim Luso",
        "street": "Rua Del Corto Roncon",
        "zipcode": "09410-450"
    },
    {
        "city": "Ribeirao Pires",
        "state": "SP",
        "district": "Centro",
        "street": "Praça Centro Do",
        "zipcode": "09400-240"
    },
    {
        "city": "Ribeirao Pires",
        "state": "SP",
        "district": "Jardim Do Mirante",
        "street": "Rua Lira",
        "zipcode": "09425-270"
    },
    {
        "city": "Ribeirao Pires",
        "state": "SP",
        "district": "Jardim Ribeirao Pires",
        "street": "Rua Porto Alegre",
        "zipcode": "09411-280"
    },
    {
        "city": "Ribeirao Pires",
        "state": "SP",
        "district": "Chacara Icatuacu",
        "street": "Rua Everaldo Nascimento De Paula",
        "zipcode": "09413-270"
    },
    {
        "city": "Ribeirao Pires",
        "state": "SP",
        "district": "Jardim Luso",
        "street": "Rua Cardoso",
        "zipcode": "09410-460"
    },
    {
        "city": "Ribeirao Pires",
        "state": "SP",
        "district": "Parque Do Governador",
        "street": "Rua Paulo Egidio Martins",
        "zipcode": "09412-220"
    },
    {
        "city": "Ribeirao Pires",
        "state": "SP",
        "district": "Jardim Santa Luzia (Santa Luzia)",
        "street": "Rua Bela Cintra",
        "zipcode": "09430-250"
    },
    {
        "city": "Ribeirao Pires",
        "state": "SP",
        "district": "Balneario Palmira",
        "street": "Praça Roberta",
        "zipcode": "09416-390"
    },
    {
        "city": "Ribeirao Pires",
        "state": "SP",
        "district": "Vila Santa Isabel (Santa Luzia)",
        "street": "Rua Austria",
        "zipcode": "09435-030"
    },
    {
        "city": "Ribeirao Pires",
        "state": "SP",
        "district": "Vila Pereira Barreto (Ouro Fino Paulista)",
        "street": "Rua Floriano Peixoto",
        "zipcode": "09440-500"
    },
    {
        "city": "Ribeirao Pires",
        "state": "SP",
        "district": "Nucleo Colonial",
        "street": "Praça Maria Isaura Serralha",
        "zipcode": "09424-140"
    },
    {
        "city": "Ribeirao Pires",
        "state": "SP",
        "district": "Barro Branco (Santa Luzia)",
        "street": "Rua Dos Ripolis",
        "zipcode": "09431-530"
    },
    {
        "city": "Ribeirao Pires",
        "state": "SP",
        "district": "Ouro Fino Paulista (Ouro Fino Paulista",
        "street": "Rua Das Pitangueiras",
        "zipcode": "09442-190"
    },
    {
        "city": "Ribeirao Pires",
        "state": "SP",
        "district": "Vila Bonita (Santa Luzia)",
        "street": "Rua Viradouro",
        "zipcode": "09435-610"
    },
    {
        "city": "Ribeirao Pires",
        "state": "SP",
        "district": "Estancia Sao Jorge (Ouro Fino Paulista)",
        "street": "Rua Promissao",
        "zipcode": "09441-460"
    },
    {
        "city": "Ribeirao Pires",
        "state": "SP",
        "district": "Jardim Novo Ouro Fino (Ouro Fino Paulista)",
        "street": "Rua Condado",
        "zipcode": "09443-290"
    },
    {
        "city": "Ribeirao Pires",
        "state": "SP",
        "district": "Estancia Paulista (Ouro Fino Paulista)",
        "street": "Rua Caetes",
        "zipcode": "09443-050"
    },
    {
        "city": "Ribeirao Pires",
        "state": "SP",
        "district": "Sitio Santa Helena (Ouro Fino Paulista)",
        "street": "Rua Bebedouro",
        "zipcode": "09443-510"
    },
    {
        "city": "Ribeirao Pires",
        "state": "SP",
        "district": "Jardim Novo Ouro Fino (Ouro Fino Paulista)",
        "street": "Rua Olavo Julio Mendes",
        "zipcode": "09444-310"
    },
    {
        "city": "Ribeirao Pires",
        "state": "SP",
        "district": "Estancia Sao Jorge (Ouro Fino Paulista)",
        "street": "Rua Jambeiro",
        "zipcode": "09441-140"
    },
    {
        "city": "Ribeirao Pires",
        "state": "SP",
        "district": "Sitio Itaproa (Ouro Fino Paulista",
        "street": "Rua Ocaucu",
        "zipcode": "09442-570"
    },
    {
        "city": "Ribeirao Pires",
        "state": "SP",
        "district": "Estancia Paulista (Ouro Fino Paulista)",
        "street": "Avenida Jose Manoel Da Costa",
        "zipcode": "09443-000"
    },
    {
        "city": "Ribeirao Pires",
        "state": "SP",
        "district": "Jardim N. Sra De Fatima (Ouro Fino Paulista)",
        "street": "Rua Catarina Redivo",
        "zipcode": "09441-100"
    },
    {
        "city": "Ribeirao Pires",
        "state": "SP",
        "district": "Estancia Sao Jorge (Ouro Fino Paulista)",
        "street": "Rua Avanhandava",
        "zipcode": "09441-490"
    },
    {
        "city": "Ribeirao Pires",
        "state": "SP",
        "district": "Chacara Santa Rita (Ouro Fino Paulista)",
        "street": "Estrada Do Caracu",
        "zipcode": "09445-300"
    },
    {
        "city": "Ribeirao Pires",
        "state": "SP",
        "district": "Jardim Itaquera (Santa Luzia)",
        "street": "Rua Cananeia",
        "zipcode": "09436-330"
    },
    {
        "city": "Ribeirao Pires",
        "state": "SP",
        "district": "Jardim Novo Ouro Fino (Ouro Fino Paulista)",
        "street": "Rua Tambui",
        "zipcode": "09443-330"
    },
    {
        "city": "Ribeirao Pires",
        "state": "SP",
        "district": "Estancia Alto Da Serra (Ouro Fino Paulista)",
        "street": "Rua Tatui",
        "zipcode": "09445-770"
    },
    {
        "city": "Ribeirao Pires",
        "state": "SP",
        "district": "Jardim Novo Ouro Fino (Ouro Fino Paulista)",
        "street": "Rua Ari Fontes",
        "zipcode": "09444-320"
    },
    {
        "city": "Ribeirao Pires",
        "state": "SP",
        "district": "Vila Rica (Santa Luzia)",
        "street": "Rua Japi",
        "zipcode": "09435-360"
    },
    {
        "city": "Ribeirao Pires",
        "state": "SP",
        "district": "Jardim Uniao (Ouro Fino Paulista)",
        "street": "Rua Maringa",
        "zipcode": "09440-240"
    },
    {
        "city": "Ribeirao Pires",
        "state": "SP",
        "district": "Sitio Itaproa (Ouro Fino Paulista",
        "street": "Rua Manilia",
        "zipcode": "09442-510"
    },
    {
        "city": "Ribeirao Pires",
        "state": "SP",
        "district": "Jardim Rancho Alegre (Ouro Fino Paulista)",
        "street": "Rua Joao Confiantini",
        "zipcode": "09441-560"
    },
    {
        "city": "Ribeirao Pires",
        "state": "SP",
        "district": "Estancia Sao Jorge (Ouro Fino Paulista)",
        "street": "Rua Macedonia",
        "zipcode": "09441-480"
    },
    {
        "city": "Ribeirao Pires",
        "state": "SP",
        "district": "Jardim Aprazivel (Ouro Fino Paulista)",
        "street": "Estrada Kamoto Do",
        "zipcode": "09444-180"
    },
    {
        "city": "Ribeirao Pires",
        "state": "SP",
        "district": "Jardim N. Sra De Fatima (Ouro Fino Paulista)",
        "street": "Rua Tangara",
        "zipcode": "09441-090"
    },
    {
        "city": "Ribeirao Pires",
        "state": "SP",
        "district": "Chacara Paraiso (Santa Luzia)",
        "street": "Rua Matadouro Do",
        "zipcode": "09435-050"
    },
    {
        "city": "Ribeirao Pires",
        "state": "SP",
        "district": "Vila Pereira Barreto (Ouro Fino Paulista)",
        "street": "Rua Macambira",
        "zipcode": "09440-440"
    },
    {
        "city": "Ribeirao Pires",
        "state": "SP",
        "district": "Estancia Sao Jorge (Ouro Fino Paulista)",
        "street": "Rua Itapolis",
        "zipcode": "09441-450"
    },
    {
        "city": "Ribeirao Pires",
        "state": "SP",
        "district": "Sete Cruzes (Santa Luzia)",
        "street": "Estrada Sete Cruzes",
        "zipcode": "09436-400"
    },
    {
        "city": "Ribeirao Pires",
        "state": "SP",
        "district": "Estancia Sao Jorge (Ouro Fino Paulista)",
        "street": "Avenida Continental",
        "zipcode": "09441-430"
    },
    {
        "city": "Ribeirao Pires",
        "state": "SP",
        "district": "Chacara Paraiso (Santa Luzia)",
        "street": "Rua Nadir Aguilar",
        "zipcode": "09435-080"
    },
    {
        "city": "Ribeirao Pires",
        "state": "SP",
        "district": "Jardim Santa Luzia (Santa Luzia)",
        "street": "Rua Vereador Geraldo Dias De Camargo",
        "zipcode": "09430-240"
    },
    {
        "city": "Ribeirao Pires",
        "state": "SP",
        "district": "Centro",
        "street": "Rua Raphael Darriga",
        "zipcode": "09400-300"
    },
    {
        "city": "Ribeirao Pires",
        "state": "SP",
        "district": "Vila Nova Suissa Santista",
        "street": "Rua Ruth Balarine Vacca",
        "zipcode": "09422-480"
    },
    {
        "city": "Ribeirao Pires",
        "state": "SP",
        "district": "Sitio Santa Helena (Ouro Fino Paulista)",
        "street": "Rua Sandall Pires",
        "zipcode": "09405-700"
    },
    {
        "city": "Ribeirao Pires",
        "state": "SP",
        "district": "Chacara Rosalina (Santa Luzia)",
        "street": "Rua Tupa",
        "zipcode": "09435-140"
    },
    {
        "city": "Ribeirao Pires",
        "state": "SP",
        "district": "Balneario Palmira",
        "street": "Rua Albuquerque Lins",
        "zipcode": "09416-520"
    },
    {
        "city": "Ribeirao Pires",
        "state": "SP",
        "district": "Jardim Dos Eucaliptos (Ouro Fino Paulista)",
        "street": "Praça Eucaliptos Dos",
        "zipcode": "09440-180"
    },
    {
        "city": "Ribeirao Pires",
        "state": "SP",
        "district": "Jardim Boa Sorte",
        "street": "Praça Boa Sorte",
        "zipcode": "09402-400"
    },
    {
        "city": "Ribeirao Pires",
        "state": "SP",
        "district": "Jardim Boa Sorte",
        "street": "Avenida Santinho Carnavale",
        "zipcode": "09402-410"
    },
    {
        "city": "Ribeirao Pires",
        "state": "SP",
        "district": "Parque Do Governador",
        "street": "Rua Joao Cardile",
        "zipcode": "09412-060"
    },
    {
        "city": "Ribeirao Pires",
        "state": "SP",
        "district": "Parque Alianca",
        "street": "Rua Ida Maciro Bernardi",
        "zipcode": "09403-620"
    },
    {
        "city": "Ribeirao Pires",
        "state": "SP",
        "district": "Parque Do Governador",
        "street": "Rua Sebastiao Nogueira C E Silva",
        "zipcode": "09412-230"
    },
    {
        "city": "Ribeirao Pires",
        "state": "SP",
        "district": "Vila Ouro Fino (Ouro Fino Paulista)",
        "street": "Rua Laguna",
        "zipcode": "09441-350"
    },
    {
        "city": "Ribeirao Pires",
        "state": "SP",
        "district": "Ouro Fino Paulista (Ouro Fino Paulista",
        "street": "Rua Jacupiranga",
        "zipcode": "09441-470"
    },
    {
        "city": "Ribeirao Pires",
        "state": "SP",
        "district": "Balneario Palmira",
        "street": "Praça Dr Caio Willians De Castro",
        "zipcode": "09416-380"
    },
    {
        "city": "Ribeirao Pires",
        "state": "SP",
        "district": "Parque Das Fontes (Santa Luzia)",
        "street": "Rua Adolfo Gomes",
        "zipcode": "09430-570"
    },
    {
        "city": "Ribeirao Pires",
        "state": "SP",
        "district": "Jardim Panorama",
        "street": "Rua Dr Afonso Rangel De Carvalho",
        "zipcode": "09401-290"
    },
    {
        "city": "Ribeirao Pires",
        "state": "SP",
        "district": "Sitio Santana (Ouro Fino Paulista)",
        "street": "Rua Parque Ouro Fino",
        "zipcode": "09443-440"
    },
    {
        "city": "Ribeirao Pires",
        "state": "SP",
        "district": "Vila Nova",
        "street": "Rua Itaju",
        "zipcode": "09411-040"
    },
    {
        "city": "Ribeirao Pires",
        "state": "SP",
        "district": "Vila Bonita (Santa Luzia)",
        "street": "Rua Giacomo Sortino",
        "zipcode": "09435-530"
    },
    {
        "city": "Ribeirao Pires",
        "state": "SP",
        "district": "Jardim Cacula",
        "street": "Praça Hum",
        "zipcode": "09415-270"
    },
    {
        "city": "Ribeirao Pires",
        "state": "SP",
        "district": "Jardim Aprazivel (Ouro Fino Paulista)",
        "street": "Rua Amadeu Tesari",
        "zipcode": "09444-370"
    },
    {
        "city": "Ribeirao Pires",
        "state": "SP",
        "district": "Balneario Palmira",
        "street": "Rua Alcantara",
        "zipcode": "09416-470"
    },
    {
        "city": "Ribeirao Pires",
        "state": "SP",
        "district": "Sitio Itaproa (Ouro Fino Paulista",
        "street": "Rua Manoel Pereira Dos Santos",
        "zipcode": "09442-560"
    },
    {
        "city": "Ribeirao Pires",
        "state": "SP",
        "district": "Jardim Do Mirante",
        "street": "Praça Mirante Do",
        "zipcode": "09425-200"
    },
    {
        "city": "Ribeirao Pires",
        "state": "SP",
        "district": "Jardim Santa Rosa (Santa Luzia)",
        "street": "Rua Santa Rosa",
        "zipcode": "09432-100"
    },
    {
        "city": "Ribeirao Pires",
        "state": "SP",
        "district": "Recanto Week End (Santa Luzia)",
        "street": "Rua Balsamo",
        "zipcode": "09434-410"
    },
    {
        "city": "Ribeirao Pires",
        "state": "SP",
        "district": "Estancia Paulista",
        "street": "Rua Itaim",
        "zipcode": "09405-480"
    },
    {
        "city": "Ribeirao Pires",
        "state": "SP",
        "district": "Jardim Santa Luzia (Santa Luzia)",
        "street": "Rua Uniao Da Conquista",
        "zipcode": "09430-340"
    },
    {
        "city": "Ribeirao Pires",
        "state": "SP",
        "district": "Vila Tavolaro",
        "street": "Rua Pindamonhagaba",
        "zipcode": "09420-370"
    },
    {
        "city": "Ribeirao Pires",
        "state": "SP",
        "district": "Parque Do Governador",
        "street": "Rua Armando Sales De Oliveira",
        "zipcode": "09412-240"
    },
    {
        "city": "Ribeirao Pires",
        "state": "SP",
        "district": "Vila Belmiro",
        "street": "Rua Sergio Jordao Juliano",
        "zipcode": "09403-070"
    },
    {
        "city": "Ribeirao Pires",
        "state": "SP",
        "district": "Vila Nova Suissa Santista",
        "street": "Rua Eldorado",
        "zipcode": "09422-390"
    },
    {
        "city": "Ribeirao Pires",
        "state": "SP",
        "district": "Sitio Paraiso (Santa Luzia)",
        "street": "Estrada 00 Baruel",
        "zipcode": "09435-650"
    },
    {
        "city": "Ribeirao Pires",
        "state": "SP",
        "district": "Vila Nova Suissa Santista",
        "street": "Rua Joao Soleno",
        "zipcode": "09422-380"
    },
    {
        "city": "Ribeirao Pires",
        "state": "SP",
        "district": "Jardim Novo Ouro Fino (Ouro Fino Paulista)",
        "street": "Rua Leoneta Confiantini Carvalho",
        "zipcode": "09444-300"
    }
]