[
    {
        "city": "Santo Antônio de Posse",
        "state": "SP",
        "district": "",
        "street": "",
        "zipcode": "13830-000"
    },
    {
        "city": "Santo Antônio de Posse",
        "state": "SP",
        "district": "Jardim Becari",
        "street": "Avenida da Saudade Papa João Paulo II",
        "zipcode": "13830-060"
    },
    {
        "city": "Santo Antônio de Posse",
        "state": "SP",
        "district": "Centro",
        "street": "Avenida da Saudade Papa João Paulo II",
        "zipcode": "13830-074"
    },
    {
        "city": "Santo Antônio de Posse",
        "state": "SP",
        "district": "Condomínio Imperial Posse",
        "street": "Alameda do Visconde",
        "zipcode": "13833-100"
    },
    {
        "city": "Santo Antônio de Posse",
        "state": "SP",
        "district": "Condomínio Imperial Posse",
        "street": "Alameda do Regente",
        "zipcode": "13833-094"
    },
    {
        "city": "Santo Antônio de Posse",
        "state": "SP",
        "district": "Condomínio Imperial Posse",
        "street": "Alameda do Rei",
        "zipcode": "13833-092"
    },
    {
        "city": "Santo Antônio de Posse",
        "state": "SP",
        "district": "Condomínio Imperial Posse",
        "street": "Alameda do Conde",
        "zipcode": "13833-098"
    },
    {
        "city": "Santo Antônio de Posse",
        "state": "SP",
        "district": "Condomínio Imperial Posse",
        "street": "Alameda do Príncipe",
        "zipcode": "13833-086"
    },
    {
        "city": "Santo Antônio de Posse",
        "state": "SP",
        "district": "Jardim Luciana",
        "street": "Avenida da Saudade Papa João Paulo II",
        "zipcode": "13830-019"
    },
    {
        "city": "Santo Antônio de Posse",
        "state": "SP",
        "district": "Condomínio Imperial Posse",
        "street": "Alameda do Comendador",
        "zipcode": "13833-082"
    },
    {
        "city": "Santo Antônio de Posse",
        "state": "SP",
        "district": "Condomínio Imperial Posse",
        "street": "Alameda do Duque",
        "zipcode": "13833-096"
    },
    {
        "city": "Santo Antônio de Posse",
        "state": "SP",
        "district": "Condomínio Imperial Posse",
        "street": "Alameda do Barão",
        "zipcode": "13833-090"
    },
    {
        "city": "Santo Antônio de Posse",
        "state": "SP",
        "district": "Centro",
        "street": "Avenida Attílio Vendrame",
        "zipcode": "13830-104"
    },
    {
        "city": "Santo Antônio de Posse",
        "state": "SP",
        "district": "Jardim Luciana",
        "street": "Avenida Attílio Vendrame",
        "zipcode": "13830-001"
    },
    {
        "city": "Santo Antônio de Posse",
        "state": "SP",
        "district": "Condomínio Imperial Posse",
        "street": "Alameda do Marquês",
        "zipcode": "13833-088"
    },
    {
        "city": "Santo Antônio de Posse",
        "state": "SP",
        "district": "Centro",
        "street": "Praça Antonio Piccolomini",
        "zipcode": "13830-156"
    },
    {
        "city": "Santo Antônio de Posse",
        "state": "SP",
        "district": "Ressaca",
        "street": "Avenida Posse de Ressaca",
        "zipcode": "13833-340"
    },
    {
        "city": "Santo Antônio de Posse",
        "state": "SP",
        "district": "Bela Vista II",
        "street": "Rua Ângela Maria Rodrigues",
        "zipcode": "13832-062"
    },
    {
        "city": "Santo Antônio de Posse",
        "state": "SP",
        "district": "Jardim Novo Horizonte",
        "street": "Avenida Perimetral",
        "zipcode": "13831-250"
    },
    {
        "city": "Santo Antônio de Posse",
        "state": "SP",
        "district": "Vila Esperança",
        "street": "Praça Chafia Chaib Baracat",
        "zipcode": "13831-024"
    },
    {
        "city": "Santo Antônio de Posse",
        "state": "SP",
        "district": "Jardim Milan",
        "street": "Avenida Doutor Alberto Aranha Fortuna",
        "zipcode": "13832-180"
    },
    {
        "city": "Santo Antônio de Posse",
        "state": "SP",
        "district": "Jardim Maria Helena",
        "street": "Rua Abdo João Lian",
        "zipcode": "13832-012"
    },
    {
        "city": "Santo Antônio de Posse",
        "state": "SP",
        "district": "Recanto Vale Verde",
        "street": "Estrada Vicinal Oscar Pereira Dias",
        "zipcode": "13832-380"
    },
    {
        "city": "Santo Antônio de Posse",
        "state": "SP",
        "district": "Centro",
        "street": "Rua Agostinha Pauli e Silva",
        "zipcode": "13830-170"
    },
    {
        "city": "Santo Antônio de Posse",
        "state": "SP",
        "district": "Chácaras Recreio Campestre",
        "street": "Rua Alcindo Gazotto",
        "zipcode": "13833-614"
    },
    {
        "city": "Santo Antônio de Posse",
        "state": "SP",
        "district": "Parque Residencial Pedra Branca",
        "street": "Avenida Vereador Hermelindo Alves Felippe",
        "zipcode": "13831-226"
    },
    {
        "city": "Santo Antônio de Posse",
        "state": "SP",
        "district": "Ressaca",
        "street": "Praça Oswaldo Simioni",
        "zipcode": "13833-354"
    },
    {
        "city": "Santo Antônio de Posse",
        "state": "SP",
        "district": "Vila Esperança",
        "street": "Rua Abrão Chaib",
        "zipcode": "13831-026"
    },
    {
        "city": "Santo Antônio de Posse",
        "state": "SP",
        "district": "Jardim Novo Horizonte II",
        "street": "Rua Abel Pereira",
        "zipcode": "13831-264"
    },
    {
        "city": "Santo Antônio de Posse",
        "state": "SP",
        "district": "Parque Residencial Pedra Branca",
        "street": "Rua Américo Lucon",
        "zipcode": "13831-230"
    },
    {
        "city": "Santo Antônio de Posse",
        "state": "SP",
        "district": "Vila Esperança",
        "street": "Rua Ambrozina Barbosa Zago",
        "zipcode": "13831-014"
    },
    {
        "city": "Santo Antônio de Posse",
        "state": "SP",
        "district": "Jardim Córrego Bonito",
        "street": "Estrada Vicinal Oscar Pereira Dias",
        "zipcode": "13832-370"
    },
    {
        "city": "Santo Antônio de Posse",
        "state": "SP",
        "district": "Jardim Planalto",
        "street": "Avenida José Amauri Bortolotto",
        "zipcode": "13833-056"
    },
    {
        "city": "Santo Antônio de Posse",
        "state": "SP",
        "district": "Jardim Portal das Pérolas",
        "street": "Rua Adelino Turolla",
        "zipcode": "13832-214"
    },
    {
        "city": "Santo Antônio de Posse",
        "state": "SP",
        "district": "Parque Residencial Pedra Branca",
        "street": "Avenida Doutor Alberto Aranha Fortuna",
        "zipcode": "13831-228"
    },
    {
        "city": "Santo Antônio de Posse",
        "state": "SP",
        "district": "Jardim Denise",
        "street": "Rua Abrão Chaib",
        "zipcode": "13831-078"
    },
    {
        "city": "Santo Antônio de Posse",
        "state": "SP",
        "district": "Chácaras Recreio Campestre",
        "street": "Estrada Municipal José Lopes",
        "zipcode": "13833-612"
    },
    {
        "city": "Santo Antônio de Posse",
        "state": "SP",
        "district": "Centro",
        "street": "Estrada dos Martins",
        "zipcode": "13830-084"
    },
    {
        "city": "Santo Antônio de Posse",
        "state": "SP",
        "district": "Centro",
        "street": "Rua Amaro Ortiz de Campos",
        "zipcode": "13830-166"
    },
    {
        "city": "Santo Antônio de Posse",
        "state": "SP",
        "district": "Jardim Portal das Pérolas",
        "street": "Praça de Esportes Vereador Salvador Lala",
        "zipcode": "13832-204"
    },
    {
        "city": "Santo Antônio de Posse",
        "state": "SP",
        "district": "Parque Residencial Prefeito Augusto Lala",
        "street": "Rua Amadeu Lucon",
        "zipcode": "13831-300"
    },
    {
        "city": "Santo Antônio de Posse",
        "state": "SP",
        "district": "Jardim Denise",
        "street": "Rua Amaro Ortiz de Campos",
        "zipcode": "13831-072"
    },
    {
        "city": "Santo Antônio de Posse",
        "state": "SP",
        "district": "Ressaca",
        "street": "Estrada Municipal José Maria Comisso",
        "zipcode": "13833-342"
    },
    {
        "city": "Santo Antônio de Posse",
        "state": "SP",
        "district": "Jardim Brasília",
        "street": "Estrada dos Martins",
        "zipcode": "13830-182"
    },
    {
        "city": "Santo Antônio de Posse",
        "state": "SP",
        "district": "Jardim Brasília",
        "street": "Rua Abrão Zidan",
        "zipcode": "13830-188"
    },
    {
        "city": "Santo Antônio de Posse",
        "state": "SP",
        "district": "Jardim Maria Helena",
        "street": "Avenida Doutor Alberto Aranha Fortuna",
        "zipcode": "13832-030"
    },
    {
        "city": "Santo Antônio de Posse",
        "state": "SP",
        "district": "Ressaca",
        "street": "Praça Capitão Pedro Antonio de Moraes",
        "zipcode": "13833-356"
    },
    {
        "city": "Santo Antônio de Posse",
        "state": "SP",
        "district": "Parque Residencial Pedra Branca",
        "street": "Praça Dimas Comisso",
        "zipcode": "13831-214"
    },
    {
        "city": "Santo Antônio de Posse",
        "state": "SP",
        "district": "Vila Esperança",
        "street": "Rua Amaro Ortiz de Campos",
        "zipcode": "13831-022"
    },
    {
        "city": "Santo Antônio de Posse",
        "state": "SP",
        "district": "Chácaras Santo Antonio",
        "street": "Rua Anna Porto Oriente",
        "zipcode": "13833-604"
    },
    {
        "city": "Santo Antônio de Posse",
        "state": "SP",
        "district": "Jardim Maria Helena",
        "street": "Rua Alfredo Grimaldi",
        "zipcode": "13832-002"
    },
    {
        "city": "Santo Antônio de Posse",
        "state": "SP",
        "district": "Centro",
        "street": "Praça Ernesto Milani",
        "zipcode": "13830-108"
    },
    {
        "city": "Santo Antônio de Posse",
        "state": "SP",
        "district": "Jardim Denise",
        "street": "Rua Adalzira Aparecida Venturini Gallo",
        "zipcode": "13831-076"
    },
    {
        "city": "Santo Antônio de Posse",
        "state": "SP",
        "district": "Centro",
        "street": "Rua Alexandre Fleming",
        "zipcode": "13830-136"
    },
    {
        "city": "Santo Antônio de Posse",
        "state": "SP",
        "district": "Colina da Paineira",
        "street": "Rua Adélia Canova",
        "zipcode": "13833-122"
    },
    {
        "city": "Santo Antônio de Posse",
        "state": "SP",
        "district": "Jardim das Nações",
        "street": "Avenida José Amauri Bortolotto",
        "zipcode": "13832-238"
    },
    {
        "city": "Santo Antônio de Posse",
        "state": "SP",
        "district": "São Judas Tadeu",
        "street": "Rua Abdo Chaib",
        "zipcode": "13831-340"
    },
    {
        "city": "Santo Antônio de Posse",
        "state": "SP",
        "district": "Jardim Brasília",
        "street": "Rua Abelardo Vilalva",
        "zipcode": "13830-196"
    },
    {
        "city": "Santo Antônio de Posse",
        "state": "SP",
        "district": "Jardim Becari",
        "street": "Rua Ângela Becari Felipe",
        "zipcode": "13830-062"
    },
    {
        "city": "Santo Antônio de Posse",
        "state": "SP",
        "district": "Vila Esperança",
        "street": "Rua Angelo Comisso",
        "zipcode": "13831-048"
    },
    {
        "city": "Santo Antônio de Posse",
        "state": "SP",
        "district": "Bela Vista II",
        "street": "Rua Alípio Rodrigues Rosa",
        "zipcode": "13832-060"
    },
    {
        "city": "Santo Antônio de Posse",
        "state": "SP",
        "district": "São Judas Tadeu",
        "street": "Rua Anésia Menuzzo Marun",
        "zipcode": "13831-334"
    },
    {
        "city": "Santo Antônio de Posse",
        "state": "SP",
        "district": "Centro",
        "street": "Rua Assumpta Bazzani Fiorini",
        "zipcode": "13830-070"
    },
    {
        "city": "Santo Antônio de Posse",
        "state": "SP",
        "district": "Jardim Luciana",
        "street": "Rua Capitão Andrade",
        "zipcode": "13830-011"
    },
    {
        "city": "Santo Antônio de Posse",
        "state": "SP",
        "district": "Núcleo Habitacional Jardim das Flores",
        "street": "Rua das Palmas",
        "zipcode": "13831-270"
    },
    {
        "city": "Santo Antônio de Posse",
        "state": "SP",
        "district": "Jardim Portal das Pérolas",
        "street": "Rua Antonio Jorge",
        "zipcode": "13832-212"
    },
    {
        "city": "Santo Antônio de Posse",
        "state": "SP",
        "district": "Jardim Novo Horizonte",
        "street": "Rua Darcy Furegatti",
        "zipcode": "13831-246"
    },
    {
        "city": "Santo Antônio de Posse",
        "state": "SP",
        "district": "Núcleo Habitacional Jardim das Flores",
        "street": "Rua das Hortências",
        "zipcode": "13831-272"
    },
    {
        "city": "Santo Antônio de Posse",
        "state": "SP",
        "district": "Vila Padre Pedro Tomazini",
        "street": "Rua Benjamin Solera",
        "zipcode": "13831-198"
    },
    {
        "city": "Santo Antônio de Posse",
        "state": "SP",
        "district": "Recanto Vale Verde",
        "street": "Rua Augusto Alves Felippe",
        "zipcode": "13832-400"
    },
    {
        "city": "Santo Antônio de Posse",
        "state": "SP",
        "district": "Jardim Novo Horizonte",
        "street": "Rua Avelino Lolli",
        "zipcode": "13831-242"
    },
    {
        "city": "Santo Antônio de Posse",
        "state": "SP",
        "district": "Vila Padre Pedro Tomazini",
        "street": "Rua Carmela Piccolomini Barbosa",
        "zipcode": "13831-180"
    },
    {
        "city": "Santo Antônio de Posse",
        "state": "SP",
        "district": "Centro",
        "street": "Rua Capitão Andrade",
        "zipcode": "13830-112"
    },
    {
        "city": "Santo Antônio de Posse",
        "state": "SP",
        "district": "Vila Padre Pedro Tomazini",
        "street": "Rua Basilio Momesso",
        "zipcode": "13831-184"
    },
    {
        "city": "Santo Antônio de Posse",
        "state": "SP",
        "district": "Jardim Progresso",
        "street": "Rua Carlos Roberto Ortiz de Campos",
        "zipcode": "13833-076"
    },
    {
        "city": "Santo Antônio de Posse",
        "state": "SP",
        "district": "Jardim Progresso",
        "street": "Rua Assumpta Bazzani Fiorini",
        "zipcode": "13833-074"
    },
    {
        "city": "Santo Antônio de Posse",
        "state": "SP",
        "district": "Vila Esperança",
        "street": "Rua Attílio Bérgo",
        "zipcode": "13831-044"
    },
    {
        "city": "Santo Antônio de Posse",
        "state": "SP",
        "district": "São Judas Tadeu",
        "street": "Rua Benedicta Furigo",
        "zipcode": "13831-332"
    },
    {
        "city": "Santo Antônio de Posse",
        "state": "SP",
        "district": "Vila Esperança",
        "street": "Rua Aristodemo Restani",
        "zipcode": "13831-016"
    },
    {
        "city": "Santo Antônio de Posse",
        "state": "SP",
        "district": "Ressaca",
        "street": "Rua da Estação",
        "zipcode": "13833-360"
    },
    {
        "city": "Santo Antônio de Posse",
        "state": "SP",
        "district": "Jardim Milan",
        "street": "Rua Cecília Constantino de Lima",
        "zipcode": "13832-184"
    },
    {
        "city": "Santo Antônio de Posse",
        "state": "SP",
        "district": "São Judas Tadeu",
        "street": "Rua Antonio Piccolomini",
        "zipcode": "13831-342"
    },
    {
        "city": "Santo Antônio de Posse",
        "state": "SP",
        "district": "Jardim Luciana",
        "street": "Rua Aurélio Sia",
        "zipcode": "13830-005"
    },
    {
        "city": "Santo Antônio de Posse",
        "state": "SP",
        "district": "Vila Bianchi",
        "street": "Rua Assumpta Mion Bianchi",
        "zipcode": "13830-040"
    },
    {
        "city": "Santo Antônio de Posse",
        "state": "SP",
        "district": "Monte Belo",
        "street": "Rua Bolina Melki Lian",
        "zipcode": "13833-312"
    },
    {
        "city": "Santo Antônio de Posse",
        "state": "SP",
        "district": "Jardim Vila Rica II",
        "street": "Rua Casemiro Comisso",
        "zipcode": "13833-046"
    },
    {
        "city": "Santo Antônio de Posse",
        "state": "SP",
        "district": "Centro",
        "street": "Rua Aristodemo Restani",
        "zipcode": "13830-158"
    },
    {
        "city": "Santo Antônio de Posse",
        "state": "SP",
        "district": "Bela Vista I",
        "street": "Rua Antonio Sertório",
        "zipcode": "13832-072"
    },
    {
        "city": "Santo Antônio de Posse",
        "state": "SP",
        "district": "Vila Esperança",
        "street": "Rua Bento Furgeri",
        "zipcode": "13831-046"
    },
    {
        "city": "Santo Antônio de Posse",
        "state": "SP",
        "district": "Vila Bianchi",
        "street": "Rua Chafia Chaib Baracat",
        "zipcode": "13830-032"
    },
    {
        "city": "Santo Antônio de Posse",
        "state": "SP",
        "district": "Jardim Vila Rica II",
        "street": "Rua Aristides Furgeri",
        "zipcode": "13833-022"
    },
    {
        "city": "Santo Antônio de Posse",
        "state": "SP",
        "district": "Parque Residencial Prefeito Augusto Lala",
        "street": "Rua Caetano Lolli",
        "zipcode": "13831-302"
    },
    {
        "city": "Santo Antônio de Posse",
        "state": "SP",
        "district": "Parque Residencial Pedra Branca",
        "street": "Rua Carlos Aldemani",
        "zipcode": "13831-210"
    },
    {
        "city": "Santo Antônio de Posse",
        "state": "SP",
        "district": "Bela Vista II",
        "street": "Rua Arlindo Aparecido Mazzote",
        "zipcode": "13832-042"
    },
    {
        "city": "Santo Antônio de Posse",
        "state": "SP",
        "district": "Vila Esperança",
        "street": "Rua Antonio Ferreira de Vasconcellos",
        "zipcode": "13831-060"
    },
    {
        "city": "Santo Antônio de Posse",
        "state": "SP",
        "district": "Jardim Portal das Pérolas",
        "street": "Rua Antonio Nami Chaib",
        "zipcode": "13832-206"
    },
    {
        "city": "Santo Antônio de Posse",
        "state": "SP",
        "district": "Jardim Portal das Pérolas",
        "street": "Rua Artur Leite de Moraes",
        "zipcode": "13832-208"
    },
    {
        "city": "Santo Antônio de Posse",
        "state": "SP",
        "district": "Jardim Maria Helena",
        "street": "Rua Carlos Alberto da Fonseca",
        "zipcode": "13832-032"
    },
    {
        "city": "Santo Antônio de Posse",
        "state": "SP",
        "district": "Jardim Maria Helena",
        "street": "Rua Antonio Torezan",
        "zipcode": "13832-004"
    },
    {
        "city": "Santo Antônio de Posse",
        "state": "SP",
        "district": "Vila Padre Pedro Tomazini",
        "street": "Rua Benedito Roberto Domingues",
        "zipcode": "13831-192"
    },
    {
        "city": "Santo Antônio de Posse",
        "state": "SP",
        "district": "Parque Residencial Pedra Branca",
        "street": "Rua Benjamin Solera",
        "zipcode": "13831-200"
    },
    {
        "city": "Santo Antônio de Posse",
        "state": "SP",
        "district": "Parque Residencial Pedra Branca",
        "street": "Rua Aurelio Villalva",
        "zipcode": "13831-216"
    },
    {
        "city": "Santo Antônio de Posse",
        "state": "SP",
        "district": "Jardim Portal das Pérolas",
        "street": "Rua Antonio Teixeira",
        "zipcode": "13832-194"
    },
    {
        "city": "Santo Antônio de Posse",
        "state": "SP",
        "district": "Parque Residencial Pedra Branca",
        "street": "Rua Basilio Momesso",
        "zipcode": "13831-206"
    },
    {
        "city": "Santo Antônio de Posse",
        "state": "SP",
        "district": "São Judas Tadeu",
        "street": "Rua Cynira Marques Cezar",
        "zipcode": "13831-310"
    },
    {
        "city": "Santo Antônio de Posse",
        "state": "SP",
        "district": "Bela Vista II",
        "street": "Rua Benedito Octávio",
        "zipcode": "13832-048"
    },
    {
        "city": "Santo Antônio de Posse",
        "state": "SP",
        "district": "Bela Vista II",
        "street": "Rua Antonio Primo Cavalaro",
        "zipcode": "13832-044"
    },
    {
        "city": "Santo Antônio de Posse",
        "state": "SP",
        "district": "Bela Vista II",
        "street": "Rua Antonio Aparecido de Camargo",
        "zipcode": "13832-050"
    },
    {
        "city": "Santo Antônio de Posse",
        "state": "SP",
        "district": "Vila Bianchi",
        "street": "Rua Arlindo José Bianchi",
        "zipcode": "13830-042"
    },
    {
        "city": "Santo Antônio de Posse",
        "state": "SP",
        "district": "Jardim Novo Horizonte",
        "street": "Rua Arcênio Murer",
        "zipcode": "13831-244"
    },
    {
        "city": "Santo Antônio de Posse",
        "state": "SP",
        "district": "Ressaca",
        "street": "Rua Francisco Alves de Oliveira",
        "zipcode": "13833-370"
    },
    {
        "city": "Santo Antônio de Posse",
        "state": "SP",
        "district": "Jardim Progresso",
        "street": "Rua Elvira Chaib Zaidan",
        "zipcode": "13833-064"
    },
    {
        "city": "Santo Antônio de Posse",
        "state": "SP",
        "district": "Jardim Maria Helena",
        "street": "Rua Elias Lian",
        "zipcode": "13832-006"
    },
    {
        "city": "Santo Antônio de Posse",
        "state": "SP",
        "district": "Jardim Brasília",
        "street": "Rua Eduardo Antonio Sanavio",
        "zipcode": "13830-192"
    },
    {
        "city": "Santo Antônio de Posse",
        "state": "SP",
        "district": "Jardim Portal das Pérolas",
        "street": "Rua Desidério Falcete",
        "zipcode": "13832-196"
    },
    {
        "city": "Santo Antônio de Posse",
        "state": "SP",
        "district": "Jardim Vila Rica II",
        "street": "Rua Euclides Constantino",
        "zipcode": "13833-048"
    },
    {
        "city": "Santo Antônio de Posse",
        "state": "SP",
        "district": "Monte Belo",
        "street": "Rua Francisco Cimadon",
        "zipcode": "13833-314"
    },
    {
        "city": "Santo Antônio de Posse",
        "state": "SP",
        "district": "Jardim Maria Helena",
        "street": "Rua Fares Barakat",
        "zipcode": "13832-034"
    },
    {
        "city": "Santo Antônio de Posse",
        "state": "SP",
        "district": "Núcleo Habitacional Jardim das Flores",
        "street": "Rua dos Lírios",
        "zipcode": "13831-276"
    },
    {
        "city": "Santo Antônio de Posse",
        "state": "SP",
        "district": "Chácaras Andréa",
        "street": "Rua Francisco Maldonado Lopes",
        "zipcode": "13833-300"
    },
    {
        "city": "Santo Antônio de Posse",
        "state": "SP",
        "district": "Parque Residencial Pedra Branca",
        "street": "Rua Doutor Jorge Tibiriçá",
        "zipcode": "13831-218"
    },
    {
        "city": "Santo Antônio de Posse",
        "state": "SP",
        "district": "Jardim Vila Rica",
        "street": "Rua Domingos Menuzzo",
        "zipcode": "13833-010"
    },
    {
        "city": "Santo Antônio de Posse",
        "state": "SP",
        "district": "Jardim Portal das Pérolas",
        "street": "Rua Edgard Chabregas",
        "zipcode": "13832-192"
    },
    {
        "city": "Santo Antônio de Posse",
        "state": "SP",
        "district": "São Judas Tadeu",
        "street": "Rua Fabrício Lala Villalva",
        "zipcode": "13831-330"
    },
    {
        "city": "Santo Antônio de Posse",
        "state": "SP",
        "district": "Núcleo Habitacional Jardim das Flores",
        "street": "Rua das Tulipas",
        "zipcode": "13831-280"
    },
    {
        "city": "Santo Antônio de Posse",
        "state": "SP",
        "district": "São Judas Tadeu",
        "street": "Rua Francisco Sanches",
        "zipcode": "13831-318"
    },
    {
        "city": "Santo Antônio de Posse",
        "state": "SP",
        "district": "Jardim das Nações",
        "street": "Rua Domingos Menuzzo",
        "zipcode": "13832-230"
    },
    {
        "city": "Santo Antônio de Posse",
        "state": "SP",
        "district": "Centro",
        "street": "Rua Emilio Lucon",
        "zipcode": "13830-096"
    },
    {
        "city": "Santo Antônio de Posse",
        "state": "SP",
        "district": "Vila Padre Pedro Tomazini",
        "street": "Rua Egydio Pereira Dias",
        "zipcode": "13831-182"
    },
    {
        "city": "Santo Antônio de Posse",
        "state": "SP",
        "district": "Colina da Paineira",
        "street": "Rua Eduardo Selingardi",
        "zipcode": "13833-118"
    },
    {
        "city": "Santo Antônio de Posse",
        "state": "SP",
        "district": "Chácaras Recreio Campestre",
        "street": "Rua Etelvino Modesto de Almeida",
        "zipcode": "13833-610"
    },
    {
        "city": "Santo Antônio de Posse",
        "state": "SP",
        "district": "Centro",
        "street": "Rua Francisco Antonio de Campos",
        "zipcode": "13830-162"
    },
    {
        "city": "Santo Antônio de Posse",
        "state": "SP",
        "district": "Jardim Novo Horizonte",
        "street": "Rua Francisco Inácio",
        "zipcode": "13831-248"
    },
    {
        "city": "Santo Antônio de Posse",
        "state": "SP",
        "district": "Centro",
        "street": "Rua Enore Mazzoni",
        "zipcode": "13830-132"
    },
    {
        "city": "Santo Antônio de Posse",
        "state": "SP",
        "district": "Residencial dos Lagos",
        "street": "Rua Domingos Menuzzo",
        "zipcode": "13832-250"
    },
    {
        "city": "Santo Antônio de Posse",
        "state": "SP",
        "district": "Centro",
        "street": "Rua Doutor Jorge Tibiriçá",
        "zipcode": "13830-080"
    },
    {
        "city": "Santo Antônio de Posse",
        "state": "SP",
        "district": "Centro",
        "street": "Rua Desdemona Restani Ciluzzo",
        "zipcode": "13830-122"
    },
    {
        "city": "Santo Antônio de Posse",
        "state": "SP",
        "district": "Jardim Maria Helena",
        "street": "Rua Enore Mazzoni",
        "zipcode": "13832-028"
    },
    {
        "city": "Santo Antônio de Posse",
        "state": "SP",
        "district": "Vila Esperança",
        "street": "Rua Francisco Antonio de Campos",
        "zipcode": "13831-006"
    },
    {
        "city": "Santo Antônio de Posse",
        "state": "SP",
        "district": "Chácaras Recreio Vista Alegre",
        "street": "Rua Etelvino Modesto de Almeida",
        "zipcode": "13833-630"
    },
    {
        "city": "Santo Antônio de Posse",
        "state": "SP",
        "district": "Jardim Vila Rica",
        "street": "Rua Fioravante Pavanelo",
        "zipcode": "13833-018"
    },
    {
        "city": "Santo Antônio de Posse",
        "state": "SP",
        "district": "Vila Esperança",
        "street": "Rua Francisco Beltrame",
        "zipcode": "13831-050"
    },
    {
        "city": "Santo Antônio de Posse",
        "state": "SP",
        "district": "Bela Vista II",
        "street": "Rua Fioravante Celetti",
        "zipcode": "13832-052"
    },
    {
        "city": "Santo Antônio de Posse",
        "state": "SP",
        "district": "Centro",
        "street": "Rua Edgard Chabregas",
        "zipcode": "13830-128"
    },
    {
        "city": "Santo Antônio de Posse",
        "state": "SP",
        "district": "Bela Vista II",
        "street": "Rua Domingos Marcos Cortez",
        "zipcode": "13832-046"
    },
    {
        "city": "Santo Antônio de Posse",
        "state": "SP",
        "district": "Vila Esperança",
        "street": "Rua Deomiro Bianchi",
        "zipcode": "13831-058"
    },
    {
        "city": "Santo Antônio de Posse",
        "state": "SP",
        "district": "Centro",
        "street": "Rua Desidério Falcete",
        "zipcode": "13830-124"
    },
    {
        "city": "Santo Antônio de Posse",
        "state": "SP",
        "district": "Ressaca",
        "street": "Rua Ernesto Jorge",
        "zipcode": "13833-372"
    },
    {
        "city": "Santo Antônio de Posse",
        "state": "SP",
        "district": "Recanto Vale Verde",
        "street": "Rua Elza Ferrare Siste",
        "zipcode": "13832-384"
    },
    {
        "city": "Santo Antônio de Posse",
        "state": "SP",
        "district": "Centro",
        "street": "Rua Elias Lian",
        "zipcode": "13830-138"
    },
    {
        "city": "Santo Antônio de Posse",
        "state": "SP",
        "district": "Vila Bianchi",
        "street": "Rua Doutor Jorge Tibiriçá",
        "zipcode": "13830-038"
    },
    {
        "city": "Santo Antônio de Posse",
        "state": "SP",
        "district": "Vila Esperança",
        "street": "Rua Ernesto Chiarini de Ugo",
        "zipcode": "13831-034"
    },
    {
        "city": "Santo Antônio de Posse",
        "state": "SP",
        "district": "Centro",
        "street": "Rua Francisco Glicerio",
        "zipcode": "13830-142"
    },
    {
        "city": "Santo Antônio de Posse",
        "state": "SP",
        "district": "Jardim Vila Rica II",
        "street": "Rua Fioravante Pavanelo",
        "zipcode": "13833-026"
    },
    {
        "city": "Santo Antônio de Posse",
        "state": "SP",
        "district": "Jardim São Quirino",
        "street": "Rua Fioravante Pavanelo",
        "zipcode": "13830-056"
    },
    {
        "city": "Santo Antônio de Posse",
        "state": "SP",
        "district": "São Judas Tadeu",
        "street": "Rua Doutor Jorge Tibiriçá",
        "zipcode": "13831-320"
    },
    {
        "city": "Santo Antônio de Posse",
        "state": "SP",
        "district": "Vila Bianchi",
        "street": "Rua João Carlos da Cunha",
        "zipcode": "13830-034"
    },
    {
        "city": "Santo Antônio de Posse",
        "state": "SP",
        "district": "Bela Vista I",
        "street": "Rua Jorge Salgado de Moraes",
        "zipcode": "13832-076"
    },
    {
        "city": "Santo Antônio de Posse",
        "state": "SP",
        "district": "Residencial Cidade Jardim",
        "street": "Rua Germana de Oliveira Nogueira",
        "zipcode": "13830-216"
    },
    {
        "city": "Santo Antônio de Posse",
        "state": "SP",
        "district": "Centro",
        "street": "Rua Hortêncio Lala",
        "zipcode": "13830-134"
    },
    {
        "city": "Santo Antônio de Posse",
        "state": "SP",
        "district": "Centro",
        "street": "Rua Joaquim Teixeira",
        "zipcode": "13830-164"
    },
    {
        "city": "Santo Antônio de Posse",
        "state": "SP",
        "district": "Vila Esperança",
        "street": "Rua José Ciluzzo",
        "zipcode": "13831-056"
    },
    {
        "city": "Santo Antônio de Posse",
        "state": "SP",
        "district": "Jardim Maria Helena",
        "street": "Rua Joaquim Duarte",
        "zipcode": "13832-014"
    },
    {
        "city": "Santo Antônio de Posse",
        "state": "SP",
        "district": "São Judas Tadeu",
        "street": "Rua Iracídio Semeghini",
        "zipcode": "13831-338"
    },
    {
        "city": "Santo Antônio de Posse",
        "state": "SP",
        "district": "Jardim Maria Helena",
        "street": "Rua Geraldo Grimaldi",
        "zipcode": "13832-010"
    },
    {
        "city": "Santo Antônio de Posse",
        "state": "SP",
        "district": "Jardim Progresso",
        "street": "Rua João Balarini",
        "zipcode": "13833-066"
    },
    {
        "city": "Santo Antônio de Posse",
        "state": "SP",
        "district": "Jardim Novo Horizonte",
        "street": "Rua Girolamo Romio",
        "zipcode": "13831-240"
    },
    {
        "city": "Santo Antônio de Posse",
        "state": "SP",
        "district": "Jardim Progresso",
        "street": "Rua João Jorge",
        "zipcode": "13833-062"
    },
    {
        "city": "Santo Antônio de Posse",
        "state": "SP",
        "district": "Centro",
        "street": "Rua João Sanavio",
        "zipcode": "13830-092"
    },
    {
        "city": "Santo Antônio de Posse",
        "state": "SP",
        "district": "Chácaras Recreio Vista Alegre",
        "street": "Rua Irene Gazotto de Campos",
        "zipcode": "13833-632"
    },
    {
        "city": "Santo Antônio de Posse",
        "state": "SP",
        "district": "São Judas Tadeu",
        "street": "Rua João Torezan",
        "zipcode": "13831-316"
    },
    {
        "city": "Santo Antônio de Posse",
        "state": "SP",
        "district": "Parque Residencial Prefeito Augusto Lala",
        "street": "Rua José Buglia",
        "zipcode": "13831-296"
    },
    {
        "city": "Santo Antônio de Posse",
        "state": "SP",
        "district": "Jardim Brasília",
        "street": "Rua Jaime Vendrame",
        "zipcode": "13830-198"
    },
    {
        "city": "Santo Antônio de Posse",
        "state": "SP",
        "district": "Jardim Maria Helena",
        "street": "Rua João Lalla",
        "zipcode": "13832-024"
    },
    {
        "city": "Santo Antônio de Posse",
        "state": "SP",
        "district": "Jardim Portal das Pérolas",
        "street": "Rua Jorge Miguel",
        "zipcode": "13832-190"
    },
    {
        "city": "Santo Antônio de Posse",
        "state": "SP",
        "district": "Vila Esperança",
        "street": "Rua João Bianchi",
        "zipcode": "13831-004"
    },
    {
        "city": "Santo Antônio de Posse",
        "state": "SP",
        "district": "Jardim Progresso",
        "street": "Rua Isaura Cláudio Lalla",
        "zipcode": "13833-068"
    },
    {
        "city": "Santo Antônio de Posse",
        "state": "SP",
        "district": "Jardim Planalto",
        "street": "Rua Joaquim Pereira da Silva",
        "zipcode": "13833-050"
    },
    {
        "city": "Santo Antônio de Posse",
        "state": "SP",
        "district": "Centro",
        "street": "Rua Joaquim de Barros Aranha",
        "zipcode": "13830-140"
    },
    {
        "city": "Santo Antônio de Posse",
        "state": "SP",
        "district": "Ressaca",
        "street": "Rua José Coimbra Junior",
        "zipcode": "13833-366"
    },
    {
        "city": "Santo Antônio de Posse",
        "state": "SP",
        "district": "Jardim Maria Helena",
        "street": "Rua Jarjura Rachid Milan",
        "zipcode": "13832-018"
    },
    {
        "city": "Santo Antônio de Posse",
        "state": "SP",
        "district": "Jardim Planalto",
        "street": "Rua João Jorge",
        "zipcode": "13833-052"
    },
    {
        "city": "Santo Antônio de Posse",
        "state": "SP",
        "district": "Jardim Córrego Bonito",
        "street": "Rua Hermelinda Semitan Romanini",
        "zipcode": "13832-374"
    },
    {
        "city": "Santo Antônio de Posse",
        "state": "SP",
        "district": "Jardim Portal das Pérolas",
        "street": "Rua José Decó",
        "zipcode": "13832-210"
    },
    {
        "city": "Santo Antônio de Posse",
        "state": "SP",
        "district": "Residencial Cidade Jardim",
        "street": "Rua Gilmar Cardoso dos Santos",
        "zipcode": "13830-224"
    },
    {
        "city": "Santo Antônio de Posse",
        "state": "SP",
        "district": "Jardim Luciana",
        "street": "Rua João Turola",
        "zipcode": "13830-009"
    },
    {
        "city": "Santo Antônio de Posse",
        "state": "SP",
        "district": "Jardim Vila Rica II",
        "street": "Rua João Turola",
        "zipcode": "13833-036"
    },
    {
        "city": "Santo Antônio de Posse",
        "state": "SP",
        "district": "Centro",
        "street": "Rua Imaculada Conceição",
        "zipcode": "13830-076"
    },
    {
        "city": "Santo Antônio de Posse",
        "state": "SP",
        "district": "Vila Padre Pedro Tomazini",
        "street": "Rua José Ferro",
        "zipcode": "13831-188"
    },
    {
        "city": "Santo Antônio de Posse",
        "state": "SP",
        "district": "Residencial dos Lagos",
        "street": "Rua João Turola",
        "zipcode": "13832-252"
    },
    {
        "city": "Santo Antônio de Posse",
        "state": "SP",
        "district": "Chácaras Recreio Campestre",
        "street": "Rua Guilherme Clemente",
        "zipcode": "13833-626"
    },
    {
        "city": "Santo Antônio de Posse",
        "state": "SP",
        "district": "Vila Esperança",
        "street": "Rua João Santino",
        "zipcode": "13831-012"
    },
    {
        "city": "Santo Antônio de Posse",
        "state": "SP",
        "district": "Vila Esperança",
        "street": "Rua Italo Marino Murer",
        "zipcode": "13831-030"
    },
    {
        "city": "Santo Antônio de Posse",
        "state": "SP",
        "district": "Jardim Luciana",
        "street": "Rua João Lucon",
        "zipcode": "13830-003"
    },
    {
        "city": "Santo Antônio de Posse",
        "state": "SP",
        "district": "Ressaca",
        "street": "Rua João Martins Sobrinho",
        "zipcode": "13833-350"
    },
    {
        "city": "Santo Antônio de Posse",
        "state": "SP",
        "district": "Ressaca",
        "street": "Rua João Rodrigues Gonçalves",
        "zipcode": "13833-368"
    },
    {
        "city": "Santo Antônio de Posse",
        "state": "SP",
        "district": "Jardim Vila Rica",
        "street": "Rua Irineu Turola",
        "zipcode": "13833-002"
    },
    {
        "city": "Santo Antônio de Posse",
        "state": "SP",
        "district": "Jardim Becari",
        "street": "Rua Joaquim Pereira da Silva",
        "zipcode": "13830-066"
    },
    {
        "city": "Santo Antônio de Posse",
        "state": "SP",
        "district": "Ressaca",
        "street": "Rua João Venturini",
        "zipcode": "13833-344"
    },
    {
        "city": "Santo Antônio de Posse",
        "state": "SP",
        "district": "Monte Belo",
        "street": "Rua Guerino Sertório",
        "zipcode": "13833-316"
    },
    {
        "city": "Santo Antônio de Posse",
        "state": "SP",
        "district": "Jardim Vila Rica",
        "street": "Rua João Turola",
        "zipcode": "13833-008"
    },
    {
        "city": "Santo Antônio de Posse",
        "state": "SP",
        "district": "Vila Esperança",
        "street": "Rua José Feliciano de Camargo Neto",
        "zipcode": "13831-028"
    },
    {
        "city": "Santo Antônio de Posse",
        "state": "SP",
        "district": "Ressaca",
        "street": "Rua Hélio José Bazani",
        "zipcode": "13833-374"
    },
    {
        "city": "Santo Antônio de Posse",
        "state": "SP",
        "district": "Centro",
        "street": "Rua João Dalmolim",
        "zipcode": "13830-082"
    },
    {
        "city": "Santo Antônio de Posse",
        "state": "SP",
        "district": "Centro",
        "street": "Rua Iasra Hemsse Moraes",
        "zipcode": "13830-086"
    },
    {
        "city": "Santo Antônio de Posse",
        "state": "SP",
        "district": "Jardim Vila Rica II",
        "street": "Rua Maestro Adelino Menuzzo",
        "zipcode": "13833-042"
    },
    {
        "city": "Santo Antônio de Posse",
        "state": "SP",
        "district": "Jardim Vila Rica II",
        "street": "Rua Luiza Bertassola Milanes",
        "zipcode": "13833-024"
    },
    {
        "city": "Santo Antônio de Posse",
        "state": "SP",
        "district": "Jardim Brasília",
        "street": "Rua José Siqueira",
        "zipcode": "13830-200"
    },
    {
        "city": "Santo Antônio de Posse",
        "state": "SP",
        "district": "Centro",
        "street": "Rua Mário Bianchi",
        "zipcode": "13830-144"
    },
    {
        "city": "Santo Antônio de Posse",
        "state": "SP",
        "district": "Chácaras Santo Antonio",
        "street": "Rua Lucio Nolli",
        "zipcode": "13833-606"
    },
    {
        "city": "Santo Antônio de Posse",
        "state": "SP",
        "district": "Condomínio Imperial Posse",
        "street": "Rua Luiz Bulia",
        "zipcode": "13833-080"
    },
    {
        "city": "Santo Antônio de Posse",
        "state": "SP",
        "district": "Vila Padre Pedro Tomazini",
        "street": "Rua Max Lucon",
        "zipcode": "13831-194"
    },
    {
        "city": "Santo Antônio de Posse",
        "state": "SP",
        "district": "Centro",
        "street": "Rua Luiza Bertassola Milanes",
        "zipcode": "13830-110"
    },
    {
        "city": "Santo Antônio de Posse",
        "state": "SP",
        "district": "Jardim Milan",
        "street": "Rua Mara Luzia Comisso",
        "zipcode": "13832-182"
    },
    {
        "city": "Santo Antônio de Posse",
        "state": "SP",
        "district": "Jardim Portal das Pérolas",
        "street": "Rua José Henrique Maldonado Lopes",
        "zipcode": "13832-216"
    },
    {
        "city": "Santo Antônio de Posse",
        "state": "SP",
        "district": "Jardim Brasília",
        "street": "Rua José Russi",
        "zipcode": "13830-180"
    },
    {
        "city": "Santo Antônio de Posse",
        "state": "SP",
        "district": "Residencial Cidade Jardim",
        "street": "Rua José Storti",
        "zipcode": "13830-222"
    },
    {
        "city": "Santo Antônio de Posse",
        "state": "SP",
        "district": "Jardim Maria Helena",
        "street": "Rua Luiz Zonzini",
        "zipcode": "13832-000"
    },
    {
        "city": "Santo Antônio de Posse",
        "state": "SP",
        "district": "Chácaras Recreio Campestre",
        "street": "Rua José Vital Prado",
        "zipcode": "13833-628"
    },
    {
        "city": "Santo Antônio de Posse",
        "state": "SP",
        "district": "Vila Esperança",
        "street": "Rua Leandro Monzani",
        "zipcode": "13831-000"
    },
    {
        "city": "Santo Antônio de Posse",
        "state": "SP",
        "district": "Bela Vista II",
        "street": "Rua Maria Lala",
        "zipcode": "13832-056"
    },
    {
        "city": "Santo Antônio de Posse",
        "state": "SP",
        "district": "Jardim das Nações",
        "street": "Rua Maestro Adelino Menuzzo",
        "zipcode": "13832-222"
    },
    {
        "city": "Santo Antônio de Posse",
        "state": "SP",
        "district": "Ressaca",
        "street": "Rua Manoel Lourenço",
        "zipcode": "13833-352"
    },
    {
        "city": "Santo Antônio de Posse",
        "state": "SP",
        "district": "Chácaras Santo Antonio",
        "street": "Rua Marcelo Dalbês da Silveira",
        "zipcode": "13833-602"
    },
    {
        "city": "Santo Antônio de Posse",
        "state": "SP",
        "district": "Chácaras Recreio Campestre",
        "street": "Rua Leonina Pinto Duarte",
        "zipcode": "13833-616"
    },
    {
        "city": "Santo Antônio de Posse",
        "state": "SP",
        "district": "Monte Belo",
        "street": "Rua Máximo Massoni",
        "zipcode": "13833-330"
    },
    {
        "city": "Santo Antônio de Posse",
        "state": "SP",
        "district": "Jardim das Nações",
        "street": "Rua Lúcia Aparecida Gardinalli Lala",
        "zipcode": "13832-232"
    },
    {
        "city": "Santo Antônio de Posse",
        "state": "SP",
        "district": "Residencial Cidade Jardim",
        "street": "Rua Maria Ribeiro Mariano",
        "zipcode": "13830-230"
    },
    {
        "city": "Santo Antônio de Posse",
        "state": "SP",
        "district": "Jardim Vila Rica II",
        "street": "Rua Lúcia Aparecida Gardinalli Lala",
        "zipcode": "13833-032"
    },
    {
        "city": "Santo Antônio de Posse",
        "state": "SP",
        "district": "Centro",
        "street": "Rua Lorenço Ferrari",
        "zipcode": "13830-126"
    },
    {
        "city": "Santo Antônio de Posse",
        "state": "SP",
        "district": "Jardim Vila Rica",
        "street": "Rua José Zonzini",
        "zipcode": "13833-004"
    },
    {
        "city": "Santo Antônio de Posse",
        "state": "SP",
        "district": "Residencial dos Lagos",
        "street": "Rua José Zonzini",
        "zipcode": "13832-256"
    },
    {
        "city": "Santo Antônio de Posse",
        "state": "SP",
        "district": "Residencial dos Lagos",
        "street": "Rua Lúcia Aparecida Gardinalli Lala",
        "zipcode": "13832-248"
    },
    {
        "city": "Santo Antônio de Posse",
        "state": "SP",
        "district": "Jardim Córrego Bonito",
        "street": "Rua Larissa Linares",
        "zipcode": "13832-372"
    },
    {
        "city": "Santo Antônio de Posse",
        "state": "SP",
        "district": "Jardim das Nações",
        "street": "Rua José Zonzini",
        "zipcode": "13832-224"
    },
    {
        "city": "Santo Antônio de Posse",
        "state": "SP",
        "district": "Jardim Progresso",
        "street": "Rua Marcio Roberto Domingos",
        "zipcode": "13833-060"
    },
    {
        "city": "Santo Antônio de Posse",
        "state": "SP",
        "district": "Monte Belo",
        "street": "Rua Leopoldo Caruso",
        "zipcode": "13833-322"
    },
    {
        "city": "Santo Antônio de Posse",
        "state": "SP",
        "district": "Monte Belo",
        "street": "Rua Maria Palandi de Campos",
        "zipcode": "13833-328"
    },
    {
        "city": "Santo Antônio de Posse",
        "state": "SP",
        "district": "Parque Residencial Prefeito Augusto Lala",
        "street": "Rua Miguel Chaib",
        "zipcode": "13831-292"
    },
    {
        "city": "Santo Antônio de Posse",
        "state": "SP",
        "district": "São Judas Tadeu",
        "street": "Rua José Maria Ferioli",
        "zipcode": "13831-328"
    },
    {
        "city": "Santo Antônio de Posse",
        "state": "SP",
        "district": "Jardim Vila Rica",
        "street": "Rua Lúcia Aparecida Gardinalli Lala",
        "zipcode": "13833-012"
    },
    {
        "city": "Santo Antônio de Posse",
        "state": "SP",
        "district": "Monte Belo",
        "street": "Rua José Vendrame",
        "zipcode": "13833-324"
    },
    {
        "city": "Santo Antônio de Posse",
        "state": "SP",
        "district": "Jardim Planalto",
        "street": "Rua Marcio Roberto Domingos",
        "zipcode": "13833-058"
    },
    {
        "city": "Santo Antônio de Posse",
        "state": "SP",
        "district": "São Judas Tadeu",
        "street": "Rua Marcelina Bocaletto Lolli",
        "zipcode": "13831-344"
    },
    {
        "city": "Santo Antônio de Posse",
        "state": "SP",
        "district": "Residencial dos Lagos",
        "street": "Rua Maestro Adelino Menuzzo",
        "zipcode": "13832-258"
    },
    {
        "city": "Santo Antônio de Posse",
        "state": "SP",
        "district": "Vila Esperança",
        "street": "Rua José Russi",
        "zipcode": "13831-042"
    },
    {
        "city": "Santo Antônio de Posse",
        "state": "SP",
        "district": "Vila Esperança",
        "street": "Rua José Nami Chaib",
        "zipcode": "13831-018"
    },
    {
        "city": "Santo Antônio de Posse",
        "state": "SP",
        "district": "Colina da Paineira",
        "street": "Rua Miguel de Campos",
        "zipcode": "13833-116"
    },
    {
        "city": "Santo Antônio de Posse",
        "state": "SP",
        "district": "São Judas Tadeu",
        "street": "Rua José Merlen Zaidan",
        "zipcode": "13831-322"
    },
    {
        "city": "Santo Antônio de Posse",
        "state": "SP",
        "district": "Bela Vista II",
        "street": "Rua Luis Fabiano Barbosa Garon",
        "zipcode": "13832-054"
    },
    {
        "city": "Santo Antônio de Posse",
        "state": "SP",
        "district": "Jardim Vila Rica",
        "street": "Rua Maestro Adelino Menuzzo",
        "zipcode": "13833-000"
    },
    {
        "city": "Santo Antônio de Posse",
        "state": "SP",
        "district": "São Judas Tadeu",
        "street": "Rua Natalina Franco Frezzatto",
        "zipcode": "13831-314"
    },
    {
        "city": "Santo Antônio de Posse",
        "state": "SP",
        "district": "Recanto Vale Verde",
        "street": "Rua Santa Cecília",
        "zipcode": "13832-398"
    },
    {
        "city": "Santo Antônio de Posse",
        "state": "SP",
        "district": "Jardim Milan",
        "street": "Rua Querino Constantino",
        "zipcode": "13832-188"
    },
    {
        "city": "Santo Antônio de Posse",
        "state": "SP",
        "district": "Jardim Vila Rica",
        "street": "Rua Professor Aristides Gurjão",
        "zipcode": "13833-014"
    },
    {
        "city": "Santo Antônio de Posse",
        "state": "SP",
        "district": "Residencial dos Lagos",
        "street": "Rua Ralpho Wopereis",
        "zipcode": "13832-260"
    },
    {
        "city": "Santo Antônio de Posse",
        "state": "SP",
        "district": "Vila Esperança",
        "street": "Rua Rafaél de Carvalho",
        "zipcode": "13831-054"
    },
    {
        "city": "Santo Antônio de Posse",
        "state": "SP",
        "district": "Jardim Vila Rica",
        "street": "Rua Octávio Ciluzzo",
        "zipcode": "13833-006"
    },
    {
        "city": "Santo Antônio de Posse",
        "state": "SP",
        "district": "Jardim Brasília",
        "street": "Rua Orlando Prado Silva",
        "zipcode": "13830-186"
    },
    {
        "city": "Santo Antônio de Posse",
        "state": "SP",
        "district": "Monte Belo",
        "street": "Rua Nelson Benedito Ferro",
        "zipcode": "13833-318"
    },
    {
        "city": "Santo Antônio de Posse",
        "state": "SP",
        "district": "Residencial dos Lagos",
        "street": "Rua Prefeito Pedro Ferreira Alves",
        "zipcode": "13832-244"
    },
    {
        "city": "Santo Antônio de Posse",
        "state": "SP",
        "district": "Vila Bianchi",
        "street": "Rua Nacle Assad Baracat",
        "zipcode": "13830-036"
    },
    {
        "city": "Santo Antônio de Posse",
        "state": "SP",
        "district": "Recanto Vale Verde",
        "street": "Rua Pedro Dias de Freitas",
        "zipcode": "13832-392"
    },
    {
        "city": "Santo Antônio de Posse",
        "state": "SP",
        "district": "Jardim Vila Rica II",
        "street": "Rua Prefeito Pedro Ferreira Alves",
        "zipcode": "13833-028"
    },
    {
        "city": "Santo Antônio de Posse",
        "state": "SP",
        "district": "Centro",
        "street": "Rua Santo Antônio",
        "zipcode": "13830-114"
    },
    {
        "city": "Santo Antônio de Posse",
        "state": "SP",
        "district": "Recanto Vale Verde",
        "street": "Rua Santa Bárbara",
        "zipcode": "13832-386"
    },
    {
        "city": "Santo Antônio de Posse",
        "state": "SP",
        "district": "Centro",
        "street": "Rua Nicola Lala",
        "zipcode": "13830-088"
    },
    {
        "city": "Santo Antônio de Posse",
        "state": "SP",
        "district": "Bela Vista II",
        "street": "Rua Orlando Modesto",
        "zipcode": "13832-064"
    },
    {
        "city": "Santo Antônio de Posse",
        "state": "SP",
        "district": "Residencial dos Lagos",
        "street": "Rua Octávio Ciluzzo",
        "zipcode": "13832-254"
    },
    {
        "city": "Santo Antônio de Posse",
        "state": "SP",
        "district": "Jardim das Nações",
        "street": "Rua Octávio Ciluzzo",
        "zipcode": "13832-226"
    },
    {
        "city": "Santo Antônio de Posse",
        "state": "SP",
        "district": "Jardim São Quirino",
        "street": "Rua Professor Aristides Gurjão",
        "zipcode": "13830-052"
    },
    {
        "city": "Santo Antônio de Posse",
        "state": "SP",
        "district": "Jardim Luciana",
        "street": "Rua Professor Aristides Gurjão",
        "zipcode": "13830-017"
    },
    {
        "city": "Santo Antônio de Posse",
        "state": "SP",
        "district": "Residencial Cidade Jardim",
        "street": "Rua Orivaldo Porfirio da Silva",
        "zipcode": "13830-228"
    },
    {
        "city": "Santo Antônio de Posse",
        "state": "SP",
        "district": "Centro",
        "street": "Rua Reynaldo Jorge",
        "zipcode": "13830-072"
    },
    {
        "city": "Santo Antônio de Posse",
        "state": "SP",
        "district": "Jardim Vila Rica II",
        "street": "Rua Professor Aristides Gurjão",
        "zipcode": "13833-030"
    },
    {
        "city": "Santo Antônio de Posse",
        "state": "SP",
        "district": "Centro",
        "street": "Rua Miguel Russo",
        "zipcode": "13830-150"
    },
    {
        "city": "Santo Antônio de Posse",
        "state": "SP",
        "district": "Centro",
        "street": "Rua Prefeito Doutor Durval Bérgo",
        "zipcode": "13830-098"
    },
    {
        "city": "Santo Antônio de Posse",
        "state": "SP",
        "district": "Recanto Vale Verde",
        "street": "Rua Santa Rita",
        "zipcode": "13832-396"
    },
    {
        "city": "Santo Antônio de Posse",
        "state": "SP",
        "district": "Jardim São Quirino",
        "street": "Rua Prefeito Pedro Ferreira Alves",
        "zipcode": "13830-054"
    },
    {
        "city": "Santo Antônio de Posse",
        "state": "SP",
        "district": "Jardim Brasília",
        "street": "Rua Quirino Vendrame",
        "zipcode": "13830-184"
    },
    {
        "city": "Santo Antônio de Posse",
        "state": "SP",
        "district": "Bela Vista I",
        "street": "Rua Odélia Menuzzo Beltrame",
        "zipcode": "13832-078"
    },
    {
        "city": "Santo Antônio de Posse",
        "state": "SP",
        "district": "Jardim Vila Rica",
        "street": "Rua Prefeito Pedro Ferreira Alves",
        "zipcode": "13833-016"
    },
    {
        "city": "Santo Antônio de Posse",
        "state": "SP",
        "district": "Centro",
        "street": "Rua Narcisa de Abreu Soares",
        "zipcode": "13830-154"
    },
    {
        "city": "Santo Antônio de Posse",
        "state": "SP",
        "district": "São Judas Tadeu",
        "street": "Rua Olivar Siqueira Cézar",
        "zipcode": "13831-336"
    },
    {
        "city": "Santo Antônio de Posse",
        "state": "SP",
        "district": "Jardim Denise",
        "street": "Rua Orlando Dal Corso",
        "zipcode": "13831-070"
    },
    {
        "city": "Santo Antônio de Posse",
        "state": "SP",
        "district": "Chácaras Recreio Campestre",
        "street": "Rua Pedro da Silva",
        "zipcode": "13833-618"
    },
    {
        "city": "Santo Antônio de Posse",
        "state": "SP",
        "district": "Jardim Brasília",
        "street": "Rua Olga Pavanelo Olivério",
        "zipcode": "13830-194"
    },
    {
        "city": "Santo Antônio de Posse",
        "state": "SP",
        "district": "Jardim Maria Helena",
        "street": "Rua Narcisa de Abreu Soares",
        "zipcode": "13832-008"
    },
    {
        "city": "Santo Antônio de Posse",
        "state": "SP",
        "district": "Jardim Maria Helena",
        "street": "Rua Odette Sisti Carbonezi",
        "zipcode": "13832-020"
    },
    {
        "city": "Santo Antônio de Posse",
        "state": "SP",
        "district": "Recanto Vale Verde",
        "street": "Rua Osvaldo Jordim",
        "zipcode": "13832-382"
    },
    {
        "city": "Santo Antônio de Posse",
        "state": "SP",
        "district": "Jardim Luciana",
        "street": "Rua Rosa Vendrame",
        "zipcode": "13830-007"
    },
    {
        "city": "Santo Antônio de Posse",
        "state": "SP",
        "district": "Bela Vista I",
        "street": "Rua Narciso Malandrin",
        "zipcode": "13832-070"
    },
    {
        "city": "Santo Antônio de Posse",
        "state": "SP",
        "district": "Ressaca",
        "street": "Rua Osvaldo Torezan",
        "zipcode": "13833-346"
    },
    {
        "city": "Santo Antônio de Posse",
        "state": "SP",
        "district": "Vila Esperança",
        "street": "Rua Quirino Semeghini",
        "zipcode": "13831-032"
    },
    {
        "city": "Santo Antônio de Posse",
        "state": "SP",
        "district": "Recanto Vale Verde",
        "street": "Rua Pedro Romanine",
        "zipcode": "13832-390"
    },
    {
        "city": "Santo Antônio de Posse",
        "state": "SP",
        "district": "Parque Residencial Pedra Branca",
        "street": "Rua Narcisa de Abreu Soares",
        "zipcode": "13831-204"
    },
    {
        "city": "Santo Antônio de Posse",
        "state": "SP",
        "district": "Recanto Vale Verde",
        "street": "Rua Santa Luzia",
        "zipcode": "13832-388"
    },
    {
        "city": "Santo Antônio de Posse",
        "state": "SP",
        "district": "Jardim Vila Rica II",
        "street": "Rua Octávio Ciluzzo",
        "zipcode": "13833-038"
    },
    {
        "city": "Santo Antônio de Posse",
        "state": "SP",
        "district": "Parque Residencial Pedra Branca",
        "street": "Rua Sigilfredo Grimaldi",
        "zipcode": "13831-220"
    },
    {
        "city": "Santo Antônio de Posse",
        "state": "SP",
        "district": "Vila Esperança",
        "street": "Rua Victório Lala",
        "zipcode": "13831-036"
    },
    {
        "city": "Santo Antônio de Posse",
        "state": "SP",
        "district": "Residencial Cidade Jardim",
        "street": "Rua Tenente João Batista Vasconcellos",
        "zipcode": "13830-220"
    },
    {
        "city": "Santo Antônio de Posse",
        "state": "SP",
        "district": "Parque Residencial Pedra Branca",
        "street": "Rua Valter Romanini",
        "zipcode": "13831-224"
    },
    {
        "city": "Santo Antônio de Posse",
        "state": "SP",
        "district": "Residencial Cidade Jardim",
        "street": "Rua Vitoriano Vaz da Silva",
        "zipcode": "13830-234"
    },
    {
        "city": "Santo Antônio de Posse",
        "state": "SP",
        "district": "Centro",
        "street": "Rua Senador Paula Ramos",
        "zipcode": "13830-146"
    },
    {
        "city": "Santo Antônio de Posse",
        "state": "SP",
        "district": "Jardim Milan",
        "street": "Rua Zelinda Decó do Prado",
        "zipcode": "13832-186"
    },
    {
        "city": "Santo Antônio de Posse",
        "state": "SP",
        "district": "São Judas Tadeu",
        "street": "Rua Silvana Genuária Sanches",
        "zipcode": "13831-324"
    },
    {
        "city": "Santo Antônio de Posse",
        "state": "SP",
        "district": "Centro",
        "street": "Rua São José",
        "zipcode": "13830-094"
    },
    {
        "city": "Santo Antônio de Posse",
        "state": "SP",
        "district": "Ressaca",
        "street": "Travessa João Alves de Oliveira",
        "zipcode": "13833-364"
    },
    {
        "city": "Santo Antônio de Posse",
        "state": "SP",
        "district": "Vila Esperança",
        "street": "Travessa Joaquim Alves Barbosa",
        "zipcode": "13831-002"
    },
    {
        "city": "Santo Antônio de Posse",
        "state": "SP",
        "district": "Centro",
        "street": "Rua Vereador Flávio Gonçalves Leitão",
        "zipcode": "13830-120"
    },
    {
        "city": "Santo Antônio de Posse",
        "state": "SP",
        "district": "Jardim Novo Horizonte II",
        "street": "Rua Vasco Degrande",
        "zipcode": "13831-262"
    },
    {
        "city": "Santo Antônio de Posse",
        "state": "SP",
        "district": "Centro",
        "street": "Travessa Pedro Menuzzo",
        "zipcode": "13830-102"
    },
    {
        "city": "Santo Antônio de Posse",
        "state": "SP",
        "district": "Jardim Córrego Bonito",
        "street": "Rua Tereza Grivol Suzigan",
        "zipcode": "13832-376"
    },
    {
        "city": "Santo Antônio de Posse",
        "state": "SP",
        "district": "Centro",
        "street": "Travessa Santa Izabel",
        "zipcode": "13830-118"
    },
    {
        "city": "Santo Antônio de Posse",
        "state": "SP",
        "district": "Centro",
        "street": "Travessa Alcides Menuzzo",
        "zipcode": "13830-100"
    },
    {
        "city": "Santo Antônio de Posse",
        "state": "SP",
        "district": "Monte Belo",
        "street": "Rua Walter Roncaglia",
        "zipcode": "13833-310"
    },
    {
        "city": "Santo Antônio de Posse",
        "state": "SP",
        "district": "Vila Esperança",
        "street": "Rua Virginia Gardinalli Lala",
        "zipcode": "13831-052"
    },
    {
        "city": "Santo Antônio de Posse",
        "state": "SP",
        "district": "Jardim Vila Rica II",
        "street": "Rua Vereador Flávio Gonçalves Leitão",
        "zipcode": "13833-044"
    },
    {
        "city": "Santo Antônio de Posse",
        "state": "SP",
        "district": "Centro",
        "street": "Rua Doutor Jorge Tibiriçá",
        "zipcode": "13830-970"
    },
    {
        "city": "Santo Antônio de Posse",
        "state": "SP",
        "district": "Colina da Paineira",
        "street": "Rua Benedito Pinho",
        "zipcode": "13833-114"
    },
    {
        "city": "Santo Antônio de Posse",
        "state": "SP",
        "district": "Recanto Vale Verde",
        "street": "Rua Archimedes Meschiari",
        "zipcode": "13832-394"
    },
    {
        "city": "Santo Antônio de Posse",
        "state": "SP",
        "district": "Jardim São Quirino",
        "street": "Avenida da Saudade Papa João Paulo II",
        "zipcode": "13830-050"
    },
    {
        "city": "Santo Antônio de Posse",
        "state": "SP",
        "district": "Chácaras Recreio Campestre",
        "street": "Rua Antenor Câncio",
        "zipcode": "13833-624"
    },
    {
        "city": "Santo Antônio de Posse",
        "state": "SP",
        "district": "Condomínio Imperial Posse",
        "street": "Alameda do Imperador",
        "zipcode": "13833-084"
    },
    {
        "city": "Santo Antônio de Posse",
        "state": "SP",
        "district": "Jardim Denise",
        "street": "Rua Ademir Antonio Gallo",
        "zipcode": "13831-074"
    },
    {
        "city": "Santo Antônio de Posse",
        "state": "SP",
        "district": "Residencial Cidade Jardim",
        "street": "Rua Atilio Mazan",
        "zipcode": "13830-232"
    },
    {
        "city": "Santo Antônio de Posse",
        "state": "SP",
        "district": "Vila Padre Pedro Tomazini",
        "street": "Rua Alice Romão de Moraes",
        "zipcode": "13831-196"
    },
    {
        "city": "Santo Antônio de Posse",
        "state": "SP",
        "district": "Área Rural de Santo Antônio de Posse",
        "street": "Área Rural",
        "zipcode": "13834-899"
    },
    {
        "city": "Santo Antônio de Posse",
        "state": "SP",
        "district": "Bela Vista II",
        "street": "Rua Carlos Alberto da Fonseca",
        "zipcode": "13832-040"
    },
    {
        "city": "Santo Antônio de Posse",
        "state": "SP",
        "district": "Jardim Portal das Pérolas",
        "street": "Rua Abdalla Marun",
        "zipcode": "13832-202"
    },
    {
        "city": "Santo Antônio de Posse",
        "state": "SP",
        "district": "Residencial Cidade Jardim",
        "street": "Estrada Municipal Francisco Possani",
        "zipcode": "13830-236"
    },
    {
        "city": "Santo Antônio de Posse",
        "state": "SP",
        "district": "Bela Vista II",
        "street": "Rua Antenor Monzani",
        "zipcode": "13832-058"
    },
    {
        "city": "Santo Antônio de Posse",
        "state": "SP",
        "district": "Jardim Progresso",
        "street": "Rua Arnaldo Linares",
        "zipcode": "13833-070"
    },
    {
        "city": "Santo Antônio de Posse",
        "state": "SP",
        "district": "Centro",
        "street": "Rua Antonio Teixeira",
        "zipcode": "13830-130"
    },
    {
        "city": "Santo Antônio de Posse",
        "state": "SP",
        "district": "Bela Vista II",
        "street": "Rua Etelvina Camargo Clemente",
        "zipcode": "13832-066"
    },
    {
        "city": "Santo Antônio de Posse",
        "state": "SP",
        "district": "Jardim Portal das Pérolas",
        "street": "Rua Antonio Brasil Camargo",
        "zipcode": "13832-200"
    },
    {
        "city": "Santo Antônio de Posse",
        "state": "SP",
        "district": "Centro",
        "street": "Rua Ambrozina Barbosa Zago",
        "zipcode": "13830-160"
    },
    {
        "city": "Santo Antônio de Posse",
        "state": "SP",
        "district": "Ressaca",
        "street": "Rua Bortolo Ferro",
        "zipcode": "13833-348"
    },
    {
        "city": "Santo Antônio de Posse",
        "state": "SP",
        "district": "Vila Esperança",
        "street": "Rua Basilio Lucon",
        "zipcode": "13831-008"
    },
    {
        "city": "Santo Antônio de Posse",
        "state": "SP",
        "district": "Residencial Cidade Jardim",
        "street": "Rua Abiatar Cavalcante Rodrigues Silveira",
        "zipcode": "13830-212"
    },
    {
        "city": "Santo Antônio de Posse",
        "state": "SP",
        "district": "Vila Bianchi",
        "street": "Avenida da Saudade Papa João Paulo II",
        "zipcode": "13830-030"
    },
    {
        "city": "Santo Antônio de Posse",
        "state": "SP",
        "district": "Residencial Cidade Jardim",
        "street": "Rua Fioravante Romio",
        "zipcode": "13830-210"
    },
    {
        "city": "Santo Antônio de Posse",
        "state": "SP",
        "district": "Centro",
        "street": "Rua Doutor José Pereira Machado",
        "zipcode": "13830-148"
    },
    {
        "city": "Santo Antônio de Posse",
        "state": "SP",
        "district": "Centro",
        "street": "Rua Francisco Vicençotti",
        "zipcode": "13830-168"
    },
    {
        "city": "Santo Antônio de Posse",
        "state": "SP",
        "district": "Ressaca",
        "street": "Rua Paulo Marun",
        "zipcode": "13833-358"
    },
    {
        "city": "Santo Antônio de Posse",
        "state": "SP",
        "district": "Jardim Luciana",
        "street": "Rua Domingos Menuzzo",
        "zipcode": "13830-013"
    },
    {
        "city": "Santo Antônio de Posse",
        "state": "SP",
        "district": "Centro",
        "street": "Rua João Carlos da Cunha",
        "zipcode": "13830-078"
    },
    {
        "city": "Santo Antônio de Posse",
        "state": "SP",
        "district": "Jardim Progresso",
        "street": "Rua Pedro Tomaz Vicensotti",
        "zipcode": "13833-072"
    },
    {
        "city": "Santo Antônio de Posse",
        "state": "SP",
        "district": "Parque Residencial Pedra Branca",
        "street": "Rua Olivia Menuzzo Nascimento",
        "zipcode": "13831-212"
    },
    {
        "city": "Santo Antônio de Posse",
        "state": "SP",
        "district": "Centro",
        "street": "Rua João Lucon",
        "zipcode": "13830-106"
    },
    {
        "city": "Santo Antônio de Posse",
        "state": "SP",
        "district": "Jardim Maria Helena",
        "street": "Rua Hortêncio Lala",
        "zipcode": "13832-016"
    },
    {
        "city": "Santo Antônio de Posse",
        "state": "SP",
        "district": "Chácaras Recreio Campestre",
        "street": "Rua Joaquim Serafim Cardoso",
        "zipcode": "13833-620"
    },
    {
        "city": "Santo Antônio de Posse",
        "state": "SP",
        "district": "Núcleo Habitacional Jardim das Flores",
        "street": "Rua das Rosas",
        "zipcode": "13831-274"
    },
    {
        "city": "Santo Antônio de Posse",
        "state": "SP",
        "district": "Chácaras Recreio Vista Alegre",
        "street": "Rua Geraldo da Silva",
        "zipcode": "13833-634"
    },
    {
        "city": "Santo Antônio de Posse",
        "state": "SP",
        "district": "Jardim Vila Rica II",
        "street": "Rua Irineu Turola",
        "zipcode": "13833-020"
    },
    {
        "city": "Santo Antônio de Posse",
        "state": "SP",
        "district": "Parque Residencial Prefeito Augusto Lala",
        "street": "Rua Cynira Marques Cezar",
        "zipcode": "13831-304"
    },
    {
        "city": "Santo Antônio de Posse",
        "state": "SP",
        "district": "Vila Esperança",
        "street": "Rua Egydio Pereira Dias",
        "zipcode": "13831-020"
    },
    {
        "city": "Santo Antônio de Posse",
        "state": "SP",
        "district": "Residencial dos Lagos",
        "street": "Rua José Henrique Maldonado Lopes",
        "zipcode": "13832-262"
    },
    {
        "city": "Santo Antônio de Posse",
        "state": "SP",
        "district": "Colina da Paineira",
        "street": "Rua Salomão Kury",
        "zipcode": "13833-112"
    },
    {
        "city": "Santo Antônio de Posse",
        "state": "SP",
        "district": "Parque Residencial Pedra Branca",
        "street": "Rua Francisco Carlos Mazzoni",
        "zipcode": "13831-208"
    },
    {
        "city": "Santo Antônio de Posse",
        "state": "SP",
        "district": "Residencial Cidade Jardim",
        "street": "Rua Jueci Campacci Rebequi",
        "zipcode": "13830-214"
    },
    {
        "city": "Santo Antônio de Posse",
        "state": "SP",
        "district": "Parque Residencial Prefeito Augusto Lala",
        "street": "Rua Nabor Ferreira Camargo",
        "zipcode": "13831-294"
    },
    {
        "city": "Santo Antônio de Posse",
        "state": "SP",
        "district": "Residencial Cidade Jardim",
        "street": "Rua Maria Cristina Rafael",
        "zipcode": "13830-226"
    },
    {
        "city": "Santo Antônio de Posse",
        "state": "SP",
        "district": "Residencial dos Lagos",
        "street": "Rua Professor Aristides Gurjão",
        "zipcode": "13832-246"
    },
    {
        "city": "Santo Antônio de Posse",
        "state": "SP",
        "district": "Centro",
        "street": "Rua São Carlos",
        "zipcode": "13830-090"
    },
    {
        "city": "Santo Antônio de Posse",
        "state": "SP",
        "district": "Chácaras Recreio Campestre",
        "street": "Rua Sebastião Rissatti",
        "zipcode": "13833-622"
    },
    {
        "city": "Santo Antônio de Posse",
        "state": "SP",
        "district": "Jardim Novo Horizonte II",
        "street": "Rua Lurdes Rodrigues",
        "zipcode": "13831-260"
    },
    {
        "city": "Santo Antônio de Posse",
        "state": "SP",
        "district": "Parque Residencial Pedra Branca",
        "street": "Rua Fausto Benedicto Grimaldi",
        "zipcode": "13831-222"
    },
    {
        "city": "Santo Antônio de Posse",
        "state": "SP",
        "district": "Monte Belo",
        "street": "Rua Odair Aparecido Ferretti",
        "zipcode": "13833-320"
    },
    {
        "city": "Santo Antônio de Posse",
        "state": "SP",
        "district": "São Judas Tadeu",
        "street": "Rua Luiz Adriano Milanês",
        "zipcode": "13831-326"
    },
    {
        "city": "Santo Antônio de Posse",
        "state": "SP",
        "district": "Núcleo Habitacional Jardim das Flores",
        "street": "Rua das Violetas",
        "zipcode": "13831-282"
    },
    {
        "city": "Santo Antônio de Posse",
        "state": "SP",
        "district": "Jardim das Nações",
        "street": "Rua José Henrique Maldonado Lopes",
        "zipcode": "13832-220"
    },
    {
        "city": "Santo Antônio de Posse",
        "state": "SP",
        "district": "Jardim Maria Helena",
        "street": "Rua Emílio Romanini",
        "zipcode": "13832-022"
    },
    {
        "city": "Santo Antônio de Posse",
        "state": "SP",
        "district": "Chácaras Santo Antonio",
        "street": "Rua Noemia Meneghetti Parolin",
        "zipcode": "13833-600"
    },
    {
        "city": "Santo Antônio de Posse",
        "state": "SP",
        "district": "Vila Esperança",
        "street": "Rua Major Francisco Domingues de Magalhães",
        "zipcode": "13831-010"
    },
    {
        "city": "Santo Antônio de Posse",
        "state": "SP",
        "district": "Vila Padre Pedro Tomazini",
        "street": "Rua Maria Vicente Piccolomini",
        "zipcode": "13831-190"
    },
    {
        "city": "Santo Antônio de Posse",
        "state": "SP",
        "district": "Jardim Maria Helena",
        "street": "Rua Miguel Lala",
        "zipcode": "13832-026"
    },
    {
        "city": "Santo Antônio de Posse",
        "state": "SP",
        "district": "Vila Esperança",
        "street": "Rua Therezinha Pavanello Vicenzzotti",
        "zipcode": "13831-040"
    },
    {
        "city": "Santo Antônio de Posse",
        "state": "SP",
        "district": "Parque Residencial Pedra Branca",
        "street": "Rua Girolamo Romio",
        "zipcode": "13831-232"
    },
    {
        "city": "Santo Antônio de Posse",
        "state": "SP",
        "district": "Jardim Luciana",
        "street": "Rua Lúcia Aparecida Gardinalli Lala",
        "zipcode": "13830-015"
    },
    {
        "city": "Santo Antônio de Posse",
        "state": "SP",
        "district": "Jardim das Nações",
        "street": "Rua João Turola",
        "zipcode": "13832-228"
    },
    {
        "city": "Santo Antônio de Posse",
        "state": "SP",
        "district": "Monte Belo",
        "street": "Rua João Trevizolli",
        "zipcode": "13833-332"
    },
    {
        "city": "Santo Antônio de Posse",
        "state": "SP",
        "district": "Parque Residencial Pedra Branca",
        "street": "Rua José Vedovatto",
        "zipcode": "13831-202"
    },
    {
        "city": "Santo Antônio de Posse",
        "state": "SP",
        "district": "Jardim Planalto",
        "street": "Rua Zulmira Bonaldo Lucon",
        "zipcode": "13833-054"
    },
    {
        "city": "Santo Antônio de Posse",
        "state": "SP",
        "district": "Centro",
        "street": "Rua Virgílio Lourencetti",
        "zipcode": "13830-152"
    },
    {
        "city": "Santo Antônio de Posse",
        "state": "SP",
        "district": "Residencial dos Lagos",
        "street": "Rua Fioravante Pavanelo",
        "zipcode": "13832-242"
    },
    {
        "city": "Santo Antônio de Posse",
        "state": "SP",
        "district": "Parque Residencial Prefeito Augusto Lala",
        "street": "Rua Maria Veiga Lala",
        "zipcode": "13831-298"
    },
    {
        "city": "Santo Antônio de Posse",
        "state": "SP",
        "district": "Bela Vista I",
        "street": "Rua Reginaldo Antonio Pavanelo Filho",
        "zipcode": "13832-074"
    },
    {
        "city": "Santo Antônio de Posse",
        "state": "SP",
        "district": "Colina da Paineira",
        "street": "Avenida Posse de Ressaca",
        "zipcode": "13833-120"
    },
    {
        "city": "Santo Antônio de Posse",
        "state": "SP",
        "district": "Núcleo Habitacional Jardim das Flores",
        "street": "Rua dos Crisântemos",
        "zipcode": "13831-278"
    },
    {
        "city": "Santo Antônio de Posse",
        "state": "SP",
        "district": "Jardim Brasília",
        "street": "Rua Grevi Nascimento",
        "zipcode": "13830-190"
    },
    {
        "city": "Santo Antônio de Posse",
        "state": "SP",
        "district": "Jardim Vila Rica II",
        "street": "Rua Domingos Menuzzo",
        "zipcode": "13833-034"
    },
    {
        "city": "Santo Antônio de Posse",
        "state": "SP",
        "district": "Residencial dos Lagos",
        "street": "Avenida José Amauri Bortolotto",
        "zipcode": "13832-240"
    },
    {
        "city": "Santo Antônio de Posse",
        "state": "SP",
        "district": "Centro",
        "street": "Praça Coronel David Baptista",
        "zipcode": "13830-116"
    },
    {
        "city": "Santo Antônio de Posse",
        "state": "SP",
        "district": "Ressaca",
        "street": "Rua São José",
        "zipcode": "13833-362"
    },
    {
        "city": "Santo Antônio de Posse",
        "state": "SP",
        "district": "Vila Padre Pedro Tomazini",
        "street": "Rua Gilberto Romio",
        "zipcode": "13831-186"
    },
    {
        "city": "Santo Antônio de Posse",
        "state": "SP",
        "district": "Colina da Paineira",
        "street": "Rua Luiz Bulia",
        "zipcode": "13833-110"
    },
    {
        "city": "Santo Antônio de Posse",
        "state": "SP",
        "district": "Vila Esperança",
        "street": "Rua Doutor Eduardo Bérgo",
        "zipcode": "13831-038"
    },
    {
        "city": "Santo Antônio de Posse",
        "state": "SP",
        "district": "Jardim Vila Rica II",
        "street": "Rua José Zonzini",
        "zipcode": "13833-040"
    },
    {
        "city": "Santo Antônio de Posse",
        "state": "SP",
        "district": "Jardim Portal das Pérolas",
        "street": "Avenida Doutor Alberto Aranha Fortuna",
        "zipcode": "13832-198"
    },
    {
        "city": "Santo Antônio de Posse",
        "state": "SP",
        "district": "Jardim Becari",
        "street": "Rua Odete Martins Nogueira Coelho",
        "zipcode": "13830-064"
    },
    {
        "city": "Santo Antônio de Posse",
        "state": "SP",
        "district": "Monte Belo",
        "street": "Rua Argentina Lenuza Pinho",
        "zipcode": "13833-326"
    },
    {
        "city": "Santo Antônio de Posse",
        "state": "SP",
        "district": "São Judas Tadeu",
        "street": "Rua José de Barros",
        "zipcode": "13831-312"
    },
    {
        "city": "Santo Antônio de Posse",
        "state": "SP",
        "district": "Residencial Cidade Jardim",
        "street": "Rua Acrísio Alves Barbosa",
        "zipcode": "13830-218"
    },
    {
        "city": "Santo Antônio de Posse",
        "state": "SP",
        "district": "Jardim das Nações",
        "street": "Rua Prefeito Pedro Ferreira Alves",
        "zipcode": "13832-236"
    },
    {
        "city": "Santo Antônio de Posse",
        "state": "SP",
        "district": "Parque Residencial Prefeito Augusto Lala",
        "street": "Rua Doutor Jorge Tibiriçá",
        "zipcode": "13831-290"
    },
    {
        "city": "Santo Antônio de Posse",
        "state": "SP",
        "district": "Jardim das Nações",
        "street": "Rua Professor Aristides Gurjão",
        "zipcode": "13832-234"
    }
]