[
    {
        "city": "Santa Barbara Doeste",
        "state": "SP",
        "district": "Centro",
        "street": "Rua Floriano Peixoto",
        "zipcode": "13450-211"
    },
    {
        "city": "Santa Barbara Doeste",
        "state": "SP",
        "district": "Centro",
        "street": "Avenida Monte Castelo",
        "zipcode": "13450-280"
    },
    {
        "city": "Santa Barbara Doeste",
        "state": "SP",
        "district": "Centro",
        "street": "Rua Dante Tortelli",
        "zipcode": "13450-274"
    },
    {
        "city": "Santa Barbara Doeste",
        "state": "SP",
        "district": "Vila Pires",
        "street": "Rua Alfredo Maluf",
        "zipcode": "13450-217"
    },
    {
        "city": "Santa Barbara Doeste",
        "state": "SP",
        "district": "Jardim Belo Horizonte",
        "street": "Rua Paraguai",
        "zipcode": "13450-178"
    },
    {
        "city": "Santa Barbara Doeste",
        "state": "SP",
        "district": "Centro",
        "street": "Rua Joao Ridley Bufford",
        "zipcode": "13450-213"
    },
    {
        "city": "Santa Barbara Doeste",
        "state": "SP",
        "district": "Jardim Alves",
        "street": "Rua Joao Pedro De Toledo Martins",
        "zipcode": "13450-246"
    },
    {
        "city": "Santa Barbara Doeste",
        "state": "SP",
        "district": "Centro",
        "street": "Avenida Monte Castelo",
        "zipcode": "13450-285"
    },
    {
        "city": "Santa Barbara Doeste",
        "state": "SP",
        "district": "Vila Linopolis I",
        "street": "Rua Calil Baruque",
        "zipcode": "13450-340"
    },
    {
        "city": "Santa Barbara Doeste",
        "state": "SP",
        "district": "Centro",
        "street": "Rua Quinze De Novembro",
        "zipcode": "13450-060"
    },
    {
        "city": "Santa Barbara Doeste",
        "state": "SP",
        "district": "Centro",
        "street": "Rua Quinze De Novembro",
        "zipcode": "13450-062"
    },
    {
        "city": "Santa Barbara Doeste",
        "state": "SP",
        "district": "Centro",
        "street": "Rua Riachuelo",
        "zipcode": "13450-076"
    },
    {
        "city": "Santa Barbara Doeste",
        "state": "SP",
        "district": "Jardim Santo Antonio",
        "street": "Rua Haiti",
        "zipcode": "13450-160"
    },
    {
        "city": "Santa Barbara Doeste",
        "state": "SP",
        "district": "Centro",
        "street": "Rua Treze De Maio",
        "zipcode": "13450-300"
    },
    {
        "city": "Santa Barbara Doeste",
        "state": "SP",
        "district": "Jardim Europa Iv",
        "street": "Rua Quatro",
        "zipcode": "13455-575"
    },
    {
        "city": "Santa Barbara Doeste",
        "state": "SP",
        "district": "Vila Maria",
        "street": "Rua Ricardo Crisp",
        "zipcode": "13450-261"
    },
    {
        "city": "Santa Barbara Doeste",
        "state": "SP",
        "district": "Jardim Santo Antonio",
        "street": "Rua Sao Domingos",
        "zipcode": "13450-174"
    },
    {
        "city": "Santa Barbara Doeste",
        "state": "SP",
        "district": "Jardim Europa Iv",
        "street": "Rua Um",
        "zipcode": "13455-577"
    },
    {
        "city": "Santa Barbara Doeste",
        "state": "SP",
        "district": "Jardim Vista Alegre",
        "street": "Travessa Da Sabedoria",
        "zipcode": "13450-567"
    },
    {
        "city": "Santa Barbara Doeste",
        "state": "SP",
        "district": "Jardim Belo Horizonte",
        "street": "Rua Argentina",
        "zipcode": "13450-154"
    },
    {
        "city": "Santa Barbara Doeste",
        "state": "SP",
        "district": "Jardim Conceicao",
        "street": "Rua Sem Denominacao",
        "zipcode": "13450-138"
    },
    {
        "city": "Santa Barbara Doeste",
        "state": "SP",
        "district": "Centro",
        "street": "Rua General Osorio",
        "zipcode": "13450-216"
    },
    {
        "city": "Santa Barbara Doeste",
        "state": "SP",
        "district": "Jardim Dulce",
        "street": "Rua Dos Maracujas",
        "zipcode": "13450-504"
    },
    {
        "city": "Santa Barbara Doeste",
        "state": "SP",
        "district": "Jardim Sao Luiz",
        "street": "Rua Antonio Bueno Penteado",
        "zipcode": "13450-495"
    },
    {
        "city": "Santa Barbara Doeste",
        "state": "SP",
        "district": "Centro",
        "street": "Rua General Osorio",
        "zipcode": "13450-215"
    },
    {
        "city": "Santa Barbara Doeste",
        "state": "SP",
        "district": "Jardim Europa I",
        "street": "Rua Suica",
        "zipcode": "13455-570"
    },
    {
        "city": "Santa Barbara Doeste",
        "state": "SP",
        "district": "Cidade Nova",
        "street": "Rua Santos",
        "zipcode": "13454-054"
    },
    {
        "city": "Santa Barbara Doeste",
        "state": "SP",
        "district": "Centro",
        "street": "Rua Treze De Maio",
        "zipcode": "13450-305"
    },
    {
        "city": "Santa Barbara Doeste",
        "state": "SP",
        "district": "Jardim Sao Luiz",
        "street": "Rua Joao Ferraz De Campos",
        "zipcode": "13450-494"
    },
    {
        "city": "Santa Barbara Doeste",
        "state": "SP",
        "district": "Centro",
        "street": "Rua Particular",
        "zipcode": "13450-212"
    },
    {
        "city": "Santa Barbara Doeste",
        "state": "SP",
        "district": "Jardim Sao Luiz",
        "street": "Rua Olavo Fagin",
        "zipcode": "13450-498"
    },
    {
        "city": "Santa Barbara Doeste",
        "state": "SP",
        "district": "Vila Aparecida",
        "street": "Rua Jose Benedito Teixeira",
        "zipcode": "13450-435"
    },
    {
        "city": "Santa Barbara Doeste",
        "state": "SP",
        "district": "Jardim Sao Luiz",
        "street": "Rua Francisco Godoy Camargo",
        "zipcode": "13450-496"
    },
    {
        "city": "Santa Barbara Doeste",
        "state": "SP",
        "district": "Jardim Belo Horizonte",
        "street": "Rua Cristovao Colombo",
        "zipcode": "13450-176"
    },
    {
        "city": "Santa Barbara Doeste",
        "state": "SP",
        "district": "Vila Pires",
        "street": "Rua Otaviano Trombi",
        "zipcode": "13450-214"
    },
    {
        "city": "Santa Barbara Doeste",
        "state": "SP",
        "district": "Vila Breda",
        "street": "Rua Benedita C. Pereira",
        "zipcode": "13450-223"
    },
    {
        "city": "Santa Barbara Doeste",
        "state": "SP",
        "district": "Vila Santa Cruz",
        "street": "Rua Pedro Alvares Cabral",
        "zipcode": "13451-038"
    },
    {
        "city": "Santa Barbara Doeste",
        "state": "SP",
        "district": "Vila Grego",
        "street": "Rua Bahia",
        "zipcode": "13451-070"
    },
    {
        "city": "Santa Barbara Doeste",
        "state": "SP",
        "district": "Jardim Perola",
        "street": "Rua Da Ervilha",
        "zipcode": "13454-013"
    },
    {
        "city": "Santa Barbara Doeste",
        "state": "SP",
        "district": "Jardim Perola",
        "street": "Rua Da Lentilha",
        "zipcode": "13454-015"
    },
    {
        "city": "Santa Barbara Doeste",
        "state": "SP",
        "district": "Jardim Perola",
        "street": "Rua Do Arroz",
        "zipcode": "13454-120"
    },
    {
        "city": "Santa Barbara Doeste",
        "state": "SP",
        "district": "Jardim Perola",
        "street": "Rua Da Laranja",
        "zipcode": "13454-125"
    },
    {
        "city": "Santa Barbara Doeste",
        "state": "SP",
        "district": "Residencial Sao Joaquim",
        "street": "Rua Bom Jesus Dos Perdoes",
        "zipcode": "13453-092"
    },
    {
        "city": "Santa Barbara Doeste",
        "state": "SP",
        "district": "Lagoa Seca",
        "street": "Rua Cinco",
        "zipcode": "13454-242"
    },
    {
        "city": "Santa Barbara Doeste",
        "state": "SP",
        "district": "Jardim Do Barao",
        "street": "Rua Sao Joao Da Boa Vista",
        "zipcode": "13453-690"
    },
    {
        "city": "Santa Barbara Doeste",
        "state": "SP",
        "district": "Jardim Esmeralda",
        "street": "Rua Ribeirao Preto",
        "zipcode": "13454-076"
    },
    {
        "city": "Santa Barbara Doeste",
        "state": "SP",
        "district": "Jardim Belo Horizonte",
        "street": "Rua Guatemala",
        "zipcode": "13450-156"
    },
    {
        "city": "Santa Barbara Doeste",
        "state": "SP",
        "district": "Residencial Sao Joaquim",
        "street": "Rua Campo Limpo Paulista",
        "zipcode": "13453-047"
    },
    {
        "city": "Santa Barbara Doeste",
        "state": "SP",
        "district": "Jardim Batagin",
        "street": "Rua Alexandre Herculano",
        "zipcode": "13453-085"
    },
    {
        "city": "Santa Barbara Doeste",
        "state": "SP",
        "district": "Vila Santa Terezinha",
        "street": "Rua Felipe Camarao",
        "zipcode": "13451-033"
    },
    {
        "city": "Santa Barbara Doeste",
        "state": "SP",
        "district": "Jardim Perola",
        "street": "Rua Do Papel",
        "zipcode": "13454-240"
    },
    {
        "city": "Santa Barbara Doeste",
        "state": "SP",
        "district": "Conj Habit 31 De Marco",
        "street": "Rua Brigadeiro Faria Lima",
        "zipcode": "13453-575"
    },
    {
        "city": "Santa Barbara Doeste",
        "state": "SP",
        "district": "Lagoa Seca",
        "street": "Rua Dois",
        "zipcode": "13454-244"
    },
    {
        "city": "Santa Barbara Doeste",
        "state": "SP",
        "district": "Jardim Esmeralda",
        "street": "Rua Porto Alegre",
        "zipcode": "13454-146"
    },
    {
        "city": "Santa Barbara Doeste",
        "state": "SP",
        "district": "Loteamento Colina Santa Barbara",
        "street": "Rua Sergipe",
        "zipcode": "13451-072"
    },
    {
        "city": "Santa Barbara Doeste",
        "state": "SP",
        "district": "Vila Santa Cruz",
        "street": "Rua Joao Ramalho",
        "zipcode": "13451-040"
    },
    {
        "city": "Santa Barbara Doeste",
        "state": "SP",
        "district": "Cidade Nova",
        "street": "Rua Florianopolis",
        "zipcode": "13454-148"
    },
    {
        "city": "Santa Barbara Doeste",
        "state": "SP",
        "district": "Jardim Sao Luiz",
        "street": "Rua Fortunato Lira",
        "zipcode": "13450-490"
    },
    {
        "city": "Santa Barbara Doeste",
        "state": "SP",
        "district": "Jardim Das Orquideas",
        "street": "Rua Treze",
        "zipcode": "13453-738"
    },
    {
        "city": "Santa Barbara Doeste",
        "state": "SP",
        "district": "Jardim Perola",
        "street": "Rua Da Blenda",
        "zipcode": "13454-247"
    },
    {
        "city": "Santa Barbara Doeste",
        "state": "SP",
        "district": "Jardim Do Barao",
        "street": "Rua Itirapina",
        "zipcode": "13453-654"
    },
    {
        "city": "Santa Barbara Doeste",
        "state": "SP",
        "district": "Vila Santa Cruz",
        "street": "Rua Men De Sa",
        "zipcode": "13451-037"
    },
    {
        "city": "Santa Barbara Doeste",
        "state": "SP",
        "district": "Jardim Esmeralda",
        "street": "Rua Do Linho",
        "zipcode": "13454-160"
    },
    {
        "city": "Santa Barbara Doeste",
        "state": "SP",
        "district": "Jardim Augusto Cavalheiro",
        "street": "Rua Jose J. Sans",
        "zipcode": "13453-034"
    },
    {
        "city": "Santa Barbara Doeste",
        "state": "SP",
        "district": "Jardim Esmeralda",
        "street": "Rua Catanduva",
        "zipcode": "13454-048"
    },
    {
        "city": "Santa Barbara Doeste",
        "state": "SP",
        "district": "Jardim Perola",
        "street": "Rua Do Cimento",
        "zipcode": "13454-249"
    },
    {
        "city": "Santa Barbara Doeste",
        "state": "SP",
        "district": "Cidade Nova",
        "street": "Rua Vitoria",
        "zipcode": "13454-149"
    },
    {
        "city": "Santa Barbara Doeste",
        "state": "SP",
        "district": "Jardim Sao Fernando",
        "street": "Rua C1",
        "zipcode": "13454-238"
    },
    {
        "city": "Santa Barbara Doeste",
        "state": "SP",
        "district": "Jardim Miguel Claudio Grego",
        "street": "Rua Guanabara",
        "zipcode": "13451-088"
    },
    {
        "city": "Santa Barbara Doeste",
        "state": "SP",
        "district": "Jardim Dulce",
        "street": "Rua Dos Jasmins",
        "zipcode": "13450-570"
    },
    {
        "city": "Santa Barbara Doeste",
        "state": "SP",
        "district": "Lagoa Seca",
        "street": "Rua Um",
        "zipcode": "13454-248"
    },
    {
        "city": "Santa Barbara Doeste",
        "state": "SP",
        "district": "Jardim Perola",
        "street": "Rua Do Cha",
        "zipcode": "13454-140"
    },
    {
        "city": "Santa Barbara Doeste",
        "state": "SP",
        "district": "Jardim Do Barao",
        "street": "Rua Sao Jose Do Rio Pardo",
        "zipcode": "13453-652"
    },
    {
        "city": "Santa Barbara Doeste",
        "state": "SP",
        "district": "Lagoa Seca",
        "street": "Rua Limeira",
        "zipcode": "13454-260"
    },
    {
        "city": "Santa Barbara Doeste",
        "state": "SP",
        "district": "Jardim Esmeralda",
        "street": "Rua Do Trigo",
        "zipcode": "13454-024"
    },
    {
        "city": "Santa Barbara Doeste",
        "state": "SP",
        "district": "Jardim Santa Cecilia",
        "street": "Avenida Da Saudade",
        "zipcode": "13451-120"
    },
    {
        "city": "Santa Barbara Doeste",
        "state": "SP",
        "district": "Conj Habit 31 De Marco",
        "street": "Rua Presidente Alencar Castello Branco",
        "zipcode": "13453-570"
    },
    {
        "city": "Santa Barbara Doeste",
        "state": "SP",
        "district": "Residencial Furlan",
        "street": "Rua Antonio Furlan",
        "zipcode": "13451-081"
    },
    {
        "city": "Santa Barbara Doeste",
        "state": "SP",
        "district": "Conj Habit 31 De Marco",
        "street": "Rua Vinte E Tres De Outubro",
        "zipcode": "13453-576"
    },
    {
        "city": "Santa Barbara Doeste",
        "state": "SP",
        "district": "Jardim Icarai",
        "street": "Avenida Marginal",
        "zipcode": "13453-081"
    },
    {
        "city": "Santa Barbara Doeste",
        "state": "SP",
        "district": "Jardim Perola",
        "street": "Rua Da Batata",
        "zipcode": "13454-147"
    },
    {
        "city": "Santa Barbara Doeste",
        "state": "SP",
        "district": "Jardim Perola",
        "street": "Rua Da Borracha",
        "zipcode": "13454-210"
    },
    {
        "city": "Santa Barbara Doeste",
        "state": "SP",
        "district": "Jardim Perola",
        "street": "Rua Do Feijao",
        "zipcode": "13454-145"
    },
    {
        "city": "Santa Barbara Doeste",
        "state": "SP",
        "district": "Conj Habit 31 De Marco",
        "street": "Rua Trinta E Um De Marco",
        "zipcode": "13453-578"
    },
    {
        "city": "Santa Barbara Doeste",
        "state": "SP",
        "district": "Cidade Nova",
        "street": "Rua Do Linho",
        "zipcode": "13454-165"
    },
    {
        "city": "Santa Barbara Doeste",
        "state": "SP",
        "district": "Residencial Sao Joaquim",
        "street": "Rua Braganca Paulista",
        "zipcode": "13453-090"
    },
    {
        "city": "Santa Barbara Doeste",
        "state": "SP",
        "district": "Vila Brasil",
        "street": "Avenida Marginal",
        "zipcode": "13451-085"
    },
    {
        "city": "Santa Barbara Doeste",
        "state": "SP",
        "district": "Lagoa Seca",
        "street": "Rua Quatro",
        "zipcode": "13454-243"
    },
    {
        "city": "Santa Barbara Doeste",
        "state": "SP",
        "district": "Jardim Do Barao",
        "street": "Rua Sao Sebastiao Da Grama",
        "zipcode": "13453-656"
    },
    {
        "city": "Santa Barbara Doeste",
        "state": "SP",
        "district": "Conj Habit 31 De Marco",
        "street": "Rua Vinte E Cinco De Agosto",
        "zipcode": "13453-568"
    },
    {
        "city": "Santa Barbara Doeste",
        "state": "SP",
        "district": "Loteamento Colina Santa Barbara",
        "street": "Rua Alagoas",
        "zipcode": "13451-110"
    },
    {
        "city": "Santa Barbara Doeste",
        "state": "SP",
        "district": "Jardim Esmeralda",
        "street": "Rua Diadema",
        "zipcode": "13454-080"
    },
    {
        "city": "Santa Barbara Doeste",
        "state": "SP",
        "district": "Jardim Sao Luiz",
        "street": "Rua Antonio Paradela",
        "zipcode": "13450-355"
    },
    {
        "city": "Santa Barbara Doeste",
        "state": "SP",
        "district": "Jardim Sao Francisco",
        "street": "Rua Tamoios",
        "zipcode": "13456-020"
    },
    {
        "city": "Santa Barbara Doeste",
        "state": "SP",
        "district": "Jardim Sao Francisco",
        "street": "Rua Caetes",
        "zipcode": "13456-030"
    },
    {
        "city": "Santa Barbara Doeste",
        "state": "SP",
        "district": "Jardim Sao Francisco",
        "street": "Rua Tucanos",
        "zipcode": "13457-070"
    },
    {
        "city": "Santa Barbara Doeste",
        "state": "SP",
        "district": "Jardim Sao Francisco",
        "street": "Rua Tupis",
        "zipcode": "13457-100"
    },
    {
        "city": "Santa Barbara Doeste",
        "state": "SP",
        "district": "Jardim Sao Francisco",
        "street": "Rua Tupis",
        "zipcode": "13457-105"
    },
    {
        "city": "Santa Barbara Doeste",
        "state": "SP",
        "district": "Jardim Europa Iv",
        "street": "Rua Dezessete",
        "zipcode": "13455-544"
    },
    {
        "city": "Santa Barbara Doeste",
        "state": "SP",
        "district": "Cidade Industrial",
        "street": "Rua Prof. Jose De Assis Saes",
        "zipcode": "13456-148"
    },
    {
        "city": "Santa Barbara Doeste",
        "state": "SP",
        "district": "Jardim Sao Francisco",
        "street": "Rua Carajas",
        "zipcode": "13456-073"
    },
    {
        "city": "Santa Barbara Doeste",
        "state": "SP",
        "district": "Jardim Europa Iv",
        "street": "Rua Onze",
        "zipcode": "13455-549"
    },
    {
        "city": "Santa Barbara Doeste",
        "state": "SP",
        "district": "Jardim Europa Iv",
        "street": "Avenida Dois",
        "zipcode": "13455-546"
    },
    {
        "city": "Santa Barbara Doeste",
        "state": "SP",
        "district": "Parque Residencial Santa Rosa Ii",
        "street": "Rua B",
        "zipcode": "13455-662"
    },
    {
        "city": "Santa Barbara Doeste",
        "state": "SP",
        "district": "Jardim Santa Ines",
        "street": "Rua Bueno Brandao",
        "zipcode": "13457-007"
    },
    {
        "city": "Santa Barbara Doeste",
        "state": "SP",
        "district": "Parque Residencial Santa Rosa Ii",
        "street": "Rua G",
        "zipcode": "13455-654"
    },
    {
        "city": "Santa Barbara Doeste",
        "state": "SP",
        "district": "Jardim Geriva",
        "street": "Rua B",
        "zipcode": "13456-342"
    },
    {
        "city": "Santa Barbara Doeste",
        "state": "SP",
        "district": "Jardim Europa Iv",
        "street": "Avenida Um",
        "zipcode": "13454-507"
    },
    {
        "city": "Santa Barbara Doeste",
        "state": "SP",
        "district": "Jardim Europa Iv",
        "street": "Avenida Marginal Ii",
        "zipcode": "13455-560"
    },
    {
        "city": "Santa Barbara Doeste",
        "state": "SP",
        "district": "Jardim Geriva",
        "street": "Avenida Marginal",
        "zipcode": "13456-138"
    },
    {
        "city": "Santa Barbara Doeste",
        "state": "SP",
        "district": "Loteamento Industrial",
        "street": "Rua Do Centeio",
        "zipcode": "13454-282"
    },
    {
        "city": "Santa Barbara Doeste",
        "state": "SP",
        "district": "Jardim Europa I",
        "street": "Rua Suecia",
        "zipcode": "13455-188"
    },
    {
        "city": "Santa Barbara Doeste",
        "state": "SP",
        "district": "Jardim Geriva",
        "street": "Estrada De Servidao",
        "zipcode": "13456-144"
    },
    {
        "city": "Santa Barbara Doeste",
        "state": "SP",
        "district": "Jardim Sao Francisco",
        "street": "Rua Carijos",
        "zipcode": "13456-077"
    },
    {
        "city": "Santa Barbara Doeste",
        "state": "SP",
        "district": "Cidade Nova",
        "street": "Rua Cuiaba",
        "zipcode": "13454-345"
    },
    {
        "city": "Santa Barbara Doeste",
        "state": "SP",
        "district": "Jardim Europa Iv",
        "street": "Rua Quatorze",
        "zipcode": "13455-532"
    },
    {
        "city": "Santa Barbara Doeste",
        "state": "SP",
        "district": "Jardim Europa Iv",
        "street": "Rua Sete",
        "zipcode": "13455-540"
    },
    {
        "city": "Santa Barbara Doeste",
        "state": "SP",
        "district": "Jardim Perola",
        "street": "Rua Do Centeio",
        "zipcode": "13454-283"
    },
    {
        "city": "Santa Barbara Doeste",
        "state": "SP",
        "district": "Jardim Santa Ines",
        "street": "Rua Bueno Brandao",
        "zipcode": "13456-056"
    },
    {
        "city": "Santa Barbara Doeste",
        "state": "SP",
        "district": "Parque Residencial Santa Rosa I",
        "street": "Avenida Da Amizade",
        "zipcode": "13455-152"
    },
    {
        "city": "Santa Barbara Doeste",
        "state": "SP",
        "district": "Parque Residencial Santa Rosa I",
        "street": "Rua Lindoia",
        "zipcode": "13455-030"
    },
    {
        "city": "Santa Barbara Doeste",
        "state": "SP",
        "district": "Jardim Paraiso",
        "street": "Rua Zequinha De Abreu",
        "zipcode": "13457-020"
    },
    {
        "city": "Santa Barbara Doeste",
        "state": "SP",
        "district": "Jardim Adelia",
        "street": "Rua Colina",
        "zipcode": "13455-045"
    },
    {
        "city": "Santa Barbara Doeste",
        "state": "SP",
        "district": "Cidade Nova",
        "street": "Rua Fortaleza",
        "zipcode": "13454-385"
    },
    {
        "city": "Santa Barbara Doeste",
        "state": "SP",
        "district": "Jardim Europa Iv",
        "street": "Rua Quinze",
        "zipcode": "13455-530"
    },
    {
        "city": "Santa Barbara Doeste",
        "state": "SP",
        "district": "Parque Residencial Santa Rosa Ii",
        "street": "Rua C",
        "zipcode": "13455-664"
    },
    {
        "city": "Santa Barbara Doeste",
        "state": "SP",
        "district": "Parque Residencial Santa Rosa Ii",
        "street": "Rua A",
        "zipcode": "13455-660"
    },
    {
        "city": "Santa Barbara Doeste",
        "state": "SP",
        "district": "Cidade Industrial",
        "street": "Rua Henrique Wiezel",
        "zipcode": "13456-140"
    },
    {
        "city": "Santa Barbara Doeste",
        "state": "SP",
        "district": "Parque Residencial Santa Rosa I",
        "street": "Rua Joanopolis",
        "zipcode": "13455-025"
    },
    {
        "city": "Santa Barbara Doeste",
        "state": "SP",
        "district": "Jardim Sao Francisco",
        "street": "Rua Aimores",
        "zipcode": "13456-071"
    },
    {
        "city": "Santa Barbara Doeste",
        "state": "SP",
        "district": "Distrito Industrial I",
        "street": "Rua Ianomamis",
        "zipcode": "13456-105"
    },
    {
        "city": "Santa Barbara Doeste",
        "state": "SP",
        "district": "Jardim Perola",
        "street": "Rua Limeira",
        "zipcode": "13454-265"
    },
    {
        "city": "Santa Barbara Doeste",
        "state": "SP",
        "district": "Jardim Geriva",
        "street": "Rua M",
        "zipcode": "13456-369"
    },
    {
        "city": "Santa Barbara Doeste",
        "state": "SP",
        "district": "Jardim Esmeralda",
        "street": "Rua Bauru",
        "zipcode": "13454-415"
    },
    {
        "city": "Santa Barbara Doeste",
        "state": "SP",
        "district": "Jardim Europa Iv",
        "street": "Rua Treze",
        "zipcode": "13455-533"
    },
    {
        "city": "Santa Barbara Doeste",
        "state": "SP",
        "district": "Jardim Europa I",
        "street": "Rua Bulgaria",
        "zipcode": "13455-194"
    },
    {
        "city": "Santa Barbara Doeste",
        "state": "SP",
        "district": "Jardim Europa Iv",
        "street": "Rua Vinte",
        "zipcode": "13454-511"
    },
    {
        "city": "Santa Barbara Doeste",
        "state": "SP",
        "district": "Cidade Industrial",
        "street": "Rua Vereador Sergio Leopoldino Alves",
        "zipcode": "13456-127"
    },
    {
        "city": "Santa Barbara Doeste",
        "state": "SP",
        "district": "Distrito Industrial I",
        "street": "Rua Tabajaras",
        "zipcode": "13456-100"
    },
    {
        "city": "Santa Barbara Doeste",
        "state": "SP",
        "district": "Chacara Sao Sebastiao",
        "street": "Rua Um",
        "zipcode": "13455-521"
    },
    {
        "city": "Santa Barbara Doeste",
        "state": "SP",
        "district": "Jardim Paulista",
        "street": "Rua Tupis",
        "zipcode": "13456-075"
    },
    {
        "city": "Santa Barbara Doeste",
        "state": "SP",
        "district": "Jardim Paraiso",
        "street": "Rua Wilcon Pereira",
        "zipcode": "13457-018"
    },
    {
        "city": "Santa Barbara Doeste",
        "state": "SP",
        "district": "Jardim Geriva",
        "street": "Rua N",
        "zipcode": "13456-370"
    },
    {
        "city": "Santa Barbara Doeste",
        "state": "SP",
        "district": "Jardim Paulista",
        "street": "Rua Tupis",
        "zipcode": "13456-070"
    },
    {
        "city": "Santa Barbara Doeste",
        "state": "SP",
        "district": "Jardim Europa I",
        "street": "Rua Beloica",
        "zipcode": "13455-180"
    },
    {
        "city": "Santa Barbara Doeste",
        "state": "SP",
        "district": "Jardim Sao Francisco",
        "street": "Rua Caiapos",
        "zipcode": "13456-025"
    },
    {
        "city": "Santa Barbara Doeste",
        "state": "SP",
        "district": "Jardim Sao Francisco",
        "street": "Rua Joao Silveira Rosa",
        "zipcode": "13456-044"
    },
    {
        "city": "Santa Barbara Doeste",
        "state": "SP",
        "district": "Jardim Sao Francisco",
        "street": "Rua Bororos",
        "zipcode": "13456-076"
    },
    {
        "city": "Santa Barbara Doeste",
        "state": "SP",
        "district": "Jardim Brasilia",
        "street": "Rua Noel Rosa",
        "zipcode": "13457-610"
    },
    {
        "city": "Santa Barbara Doeste",
        "state": "SP",
        "district": "Recreio Alvorada",
        "street": "Rua Salvador Spindola",
        "zipcode": "13458-537"
    },
    {
        "city": "Santa Barbara Doeste",
        "state": "SP",
        "district": "Recreio Alvorada",
        "street": "Rua Cristiano Augusto Claus",
        "zipcode": "13458-541"
    },
    {
        "city": "Santa Barbara Doeste",
        "state": "SP",
        "district": "Centro",
        "street": "Rua Floriano Peixoto",
        "zipcode": "13450-210"
    },
    {
        "city": "Santa Barbara Doeste",
        "state": "SP",
        "district": "Centro",
        "street": "Rua Joao Lino",
        "zipcode": "13450-290"
    },
    {
        "city": "Santa Barbara Doeste",
        "state": "SP",
        "district": "Vila Grego",
        "street": "Rua Rio Grande Do Sul",
        "zipcode": "13451-065"
    },
    {
        "city": "Santa Barbara Doeste",
        "state": "SP",
        "district": "Jardim Perola",
        "street": "Rua Do Milho",
        "zipcode": "13454-020"
    },
    {
        "city": "Santa Barbara Doeste",
        "state": "SP",
        "district": "Jardim Perola",
        "street": "Rua Do Amendoim",
        "zipcode": "13454-130"
    },
    {
        "city": "Santa Barbara Doeste",
        "state": "SP",
        "district": "Jardim Perola",
        "street": "Rua Do Vidro",
        "zipcode": "13454-220"
    },
    {
        "city": "Santa Barbara Doeste",
        "state": "SP",
        "district": "Jardim Dos Cedros",
        "street": "Rua Luiz Furlan",
        "zipcode": "13457-616"
    },
    {
        "city": "Santa Barbara Doeste",
        "state": "SP",
        "district": "Jardim Sao Francisco",
        "street": "Rua Nhambiquiras",
        "zipcode": "13457-182"
    },
    {
        "city": "Santa Barbara Doeste",
        "state": "SP",
        "district": "Jardim Sans",
        "street": "Rua Jose Rodrigues Cruz",
        "zipcode": "13450-456"
    },
    {
        "city": "Santa Barbara Doeste",
        "state": "SP",
        "district": "Jardim Adelia",
        "street": "Rua Jundiai",
        "zipcode": "13455-020"
    },
    {
        "city": "Santa Barbara Doeste",
        "state": "SP",
        "district": "Cidade Nova",
        "street": "Rua Rio De Janeiro",
        "zipcode": "13454-150"
    },
    {
        "city": "Santa Barbara Doeste",
        "state": "SP",
        "district": "Jardim Miguel Claudio Grego",
        "street": "Rua Pedro Furlan",
        "zipcode": "13451-083"
    },
    {
        "city": "Santa Barbara Doeste",
        "state": "SP",
        "district": "Jardim Monte Libano",
        "street": "Rua Rio Claro",
        "zipcode": "13457-636"
    },
    {
        "city": "Santa Barbara Doeste",
        "state": "SP",
        "district": "Parque Residencial Do Lago",
        "street": "Avenida Tres",
        "zipcode": "13458-638"
    },
    {
        "city": "Santa Barbara Doeste",
        "state": "SP",
        "district": "Jardim Perola",
        "street": "Rua Da Siderita",
        "zipcode": "13454-256"
    },
    {
        "city": "Santa Barbara Doeste",
        "state": "SP",
        "district": "Centro",
        "street": "Rua Graca Martins",
        "zipcode": "13450-045"
    },
    {
        "city": "Santa Barbara Doeste",
        "state": "SP",
        "district": "Distrito Industrial I",
        "street": "Rua Ricardo Fracassi",
        "zipcode": "13456-125"
    },
    {
        "city": "Santa Barbara Doeste",
        "state": "SP",
        "district": "Jardim Rosemary",
        "street": "Rua C",
        "zipcode": "13458-481"
    },
    {
        "city": "Santa Barbara Doeste",
        "state": "SP",
        "district": "Vila Betica",
        "street": "Rua Maria Tunussi Betica",
        "zipcode": "13450-318"
    },
    {
        "city": "Santa Barbara Doeste",
        "state": "SP",
        "district": "Jardim Sao Francisco",
        "street": "Rua Timbiras",
        "zipcode": "13456-014"
    },
    {
        "city": "Santa Barbara Doeste",
        "state": "SP",
        "district": "Loteamento Planalto Do Sol",
        "street": "Rua Juazeiro",
        "zipcode": "13454-367"
    },
    {
        "city": "Santa Barbara Doeste",
        "state": "SP",
        "district": "Jardim Batagin",
        "street": "Avenida Raposo Tavares",
        "zipcode": "13453-098"
    },
    {
        "city": "Santa Barbara Doeste",
        "state": "SP",
        "district": "Jardim Europa Iv",
        "street": "Rua Tres",
        "zipcode": "13455-578"
    },
    {
        "city": "Santa Barbara Doeste",
        "state": "SP",
        "district": "Jardim Sao Francisco",
        "street": "Rua Tupinambas",
        "zipcode": "13456-074"
    },
    {
        "city": "Santa Barbara Doeste",
        "state": "SP",
        "district": "Loteamento Colina Santa Barbara",
        "street": "Rua Fernando De Noronha",
        "zipcode": "13451-139"
    },
    {
        "city": "Santa Barbara Doeste",
        "state": "SP",
        "district": "Jardim Perola",
        "street": "Rua Do Acucar",
        "zipcode": "13454-100"
    },
    {
        "city": "Santa Barbara Doeste",
        "state": "SP",
        "district": "Jardim Perola",
        "street": "Rua Do Aco",
        "zipcode": "13454-245"
    },
    {
        "city": "Santa Barbara Doeste",
        "state": "SP",
        "district": "Parque Residencial Jacyra",
        "street": "Rua Ari Barroso",
        "zipcode": "13457-634"
    },
    {
        "city": "Santa Barbara Doeste",
        "state": "SP",
        "district": "Cidade Industrial",
        "street": "Rua Antonio Joao Abdalla",
        "zipcode": "13456-146"
    },
    {
        "city": "Santa Barbara Doeste",
        "state": "SP",
        "district": "Jardim Sao Luiz",
        "street": "Rua Carlos Murbach",
        "zipcode": "13450-497"
    },
    {
        "city": "Santa Barbara Doeste",
        "state": "SP",
        "district": "Jardim Vista Alegre",
        "street": "Travessa Do Progresso",
        "zipcode": "13458-566"
    },
    {
        "city": "Santa Barbara Doeste",
        "state": "SP",
        "district": "Jardim Perola",
        "street": "Rua Do Cafe",
        "zipcode": "13454-010"
    },
    {
        "city": "Santa Barbara Doeste",
        "state": "SP",
        "district": "Jardim Santa Alice",
        "street": "Rua H",
        "zipcode": "13458-515"
    },
    {
        "city": "Santa Barbara Doeste",
        "state": "SP",
        "district": "Conj Habit 31 De Marco",
        "street": "Rua Presidente Arthur Da C. Silva",
        "zipcode": "13453-574"
    },
    {
        "city": "Santa Barbara Doeste",
        "state": "SP",
        "district": "Recreio Alvorada",
        "street": "Rua Alecio Biondi",
        "zipcode": "13458-535"
    },
    {
        "city": "Santa Barbara Doeste",
        "state": "SP",
        "district": "Jardim Europa Iv",
        "street": "Rua Seis",
        "zipcode": "13455-550"
    },
    {
        "city": "Santa Barbara Doeste",
        "state": "SP",
        "district": "Jardim Bela Vista",
        "street": "Rua Ana Rocha Avelino",
        "zipcode": "13456-042"
    },
    {
        "city": "Santa Barbara Doeste",
        "state": "SP",
        "district": "Jardim Esmeralda",
        "street": "Rua Do Cacau",
        "zipcode": "13454-022"
    },
    {
        "city": "Santa Barbara Doeste",
        "state": "SP",
        "district": "Jardim Santa Ines",
        "street": "Rua Ciro Dos Anjos",
        "zipcode": "13457-012"
    },
    {
        "city": "Santa Barbara Doeste",
        "state": "SP",
        "district": "Jardim Adelia",
        "street": "Avenida Da Amizade",
        "zipcode": "13455-150"
    },
    {
        "city": "Santa Barbara Doeste",
        "state": "SP",
        "district": "Jardim Europa Iv",
        "street": "Rua Lituania",
        "zipcode": "13455-520"
    },
    {
        "city": "Santa Barbara Doeste",
        "state": "SP",
        "district": "Jardim Belo Horizonte Ii",
        "street": "Rua Santos Dumont",
        "zipcode": "13450-139"
    },
    {
        "city": "Santa Barbara Doeste",
        "state": "SP",
        "district": "Parque Residencial Rochelle",
        "street": "Rua Antonia Leite Rangel",
        "zipcode": "13458-162"
    },
    {
        "city": "Santa Barbara Doeste",
        "state": "SP",
        "district": "Jardim Miguel Claudio Grego",
        "street": "Rua Pauliceia",
        "zipcode": "13451-087"
    },
    {
        "city": "Santa Barbara Doeste",
        "state": "SP",
        "district": "Centro",
        "street": "Rua Inacio Antonio",
        "zipcode": "13450-080"
    },
    {
        "city": "Santa Barbara Doeste",
        "state": "SP",
        "district": "Jardim Sao Francisco",
        "street": "Rua Jurunas",
        "zipcode": "13457-095"
    },
    {
        "city": "Santa Barbara Doeste",
        "state": "SP",
        "district": "Jardim Santa Rita De Cassia",
        "street": "Rua Argemiro Camargo Pedroso",
        "zipcode": "13457-152"
    },
    {
        "city": "Santa Barbara Doeste",
        "state": "SP",
        "district": "Loteamento Planalto Do Sol",
        "street": "Avenida Marginal",
        "zipcode": "13456-403"
    },
    {
        "city": "Santa Barbara Doeste",
        "state": "SP",
        "district": "Jardim Europa Iv",
        "street": "Rua Vinte E Dois",
        "zipcode": "13454-560"
    },
    {
        "city": "Santa Barbara Doeste",
        "state": "SP",
        "district": "Jardim Perola",
        "street": "Rua Do Amianto",
        "zipcode": "13454-255"
    },
    {
        "city": "Santa Barbara Doeste",
        "state": "SP",
        "district": "Jardim Sao Fernando",
        "street": "Rua Rubi",
        "zipcode": "13454-230"
    },
    {
        "city": "Santa Barbara Doeste",
        "state": "SP",
        "district": "Recreio Alvorada",
        "street": "Rua Monsenhor Luiz C. Coelho Mendes",
        "zipcode": "13458-539"
    },
    {
        "city": "Santa Barbara Doeste",
        "state": "SP",
        "district": "Residencial Sao Joaquim",
        "street": "Rua Atibaia",
        "zipcode": "13453-105"
    },
    {
        "city": "Santa Barbara Doeste",
        "state": "SP",
        "district": "Jardim Sao Francisco",
        "street": "Rua Cataguazes",
        "zipcode": "13457-180"
    },
    {
        "city": "Santa Barbara Doeste",
        "state": "SP",
        "district": "Vila Godoy",
        "street": "Rua Prof. Augusto Coelho E Souza",
        "zipcode": "13450-137"
    },
    {
        "city": "Santa Barbara Doeste",
        "state": "SP",
        "district": "Jardim Augusto Cavalheiro",
        "street": "Avenida Cabreuva",
        "zipcode": "13453-035"
    },
    {
        "city": "Santa Barbara Doeste",
        "state": "SP",
        "district": "Jardim Sao Luiz",
        "street": "Rua Barbara Alex De Barros",
        "zipcode": "13450-492"
    },
    {
        "city": "Santa Barbara Doeste",
        "state": "SP",
        "district": "Jardim Bela Vista",
        "street": "Rua Jose Maria Araujo",
        "zipcode": "13456-015"
    },
    {
        "city": "Santa Barbara Doeste",
        "state": "SP",
        "district": "Jardim Europa Iv",
        "street": "Rua Doze",
        "zipcode": "13455-537"
    },
    {
        "city": "Santa Barbara Doeste",
        "state": "SP",
        "district": "Jardim Residencial Mariana",
        "street": "Rua Joaquim B. Do Amaral",
        "zipcode": "13457-011"
    },
    {
        "city": "Santa Barbara Doeste",
        "state": "SP",
        "district": "Conj Habit 31 De Marco",
        "street": "Estrada Da Cachoeira",
        "zipcode": "13453-610"
    }
]