[
    {
        "city": "Santo Andre",
        "state": "SP",
        "district": "Parque Represa Billings G3",
        "street": "Rua Arapongas",
        "zipcode": "09160-600"
    },
    {
        "city": "Santo Andre",
        "state": "SP",
        "district": "Vila Assuncao",
        "street": "Rua Jorge Moreira",
        "zipcode": "09030-070"
    },
    {
        "city": "Santo Andre",
        "state": "SP",
        "district": "Jardim",
        "street": "Rua Luis Rochetti",
        "zipcode": "09091-050"
    },
    {
        "city": "Santo Andre",
        "state": "SP",
        "district": "Jardim Santo Antonio De Padua",
        "street": "Rua Oito",
        "zipcode": "09111-870"
    },
    {
        "city": "Santo Andre",
        "state": "SP",
        "district": "Campestre",
        "street": "Praça Prof. Olga Maria Giovanelli",
        "zipcode": "09070-460"
    },
    {
        "city": "Santo Andre",
        "state": "SP",
        "district": "Parque Bandeirante",
        "street": "Praça Miguel Arco E Flecha",
        "zipcode": "09050-500"
    },
    {
        "city": "Santo Andre",
        "state": "SP",
        "district": "Parque Marajoara",
        "street": "Rua Anita Mafalti",
        "zipcode": "09120-085"
    },
    {
        "city": "Santo Andre",
        "state": "SP",
        "district": "Cidade Sao Jorge",
        "street": "Rua 4",
        "zipcode": "09111-803"
    },
    {
        "city": "Santo Andre",
        "state": "SP",
        "district": "Parque Represa Billings G3",
        "street": "Rua Jaragua Do Sul",
        "zipcode": "09160-620"
    },
    {
        "city": "Santo Andre",
        "state": "SP",
        "district": "Parque Industriario",
        "street": "Praça Perola Byngton",
        "zipcode": "09110-625"
    },
    {
        "city": "Santo Andre",
        "state": "SP",
        "district": "Campestre",
        "street": "Viaduto Engenheiro Luis Berrine",
        "zipcode": "09080-070"
    },
    {
        "city": "Santo Andre",
        "state": "SP",
        "district": "Centro",
        "street": "Travessa Decio De Toledo Leite",
        "zipcode": "09015-730"
    },
    {
        "city": "Santo Andre",
        "state": "SP",
        "district": "Vila Lilica",
        "street": "Praça Limeira",
        "zipcode": "09050-220"
    },
    {
        "city": "Santo Andre",
        "state": "SP",
        "district": "Jardim",
        "street": "Travessa Vicente Bartoli",
        "zipcode": "09080-410"
    },
    {
        "city": "Santo Andre",
        "state": "SP",
        "district": "Silveira",
        "street": "Viaduto Millo Cammarosano",
        "zipcode": "09110-291"
    },
    {
        "city": "Santo Andre",
        "state": "SP",
        "district": "Campestre",
        "street": "Praça Almir De Almeida",
        "zipcode": "09070-450"
    },
    {
        "city": "Santo Andre",
        "state": "SP",
        "district": "Parque Represa Billings G3",
        "street": "Rua Apucarana",
        "zipcode": "09160-660"
    },
    {
        "city": "Santo Andre",
        "state": "SP",
        "district": "Vila Guiomar",
        "street": "Loteamento Conjunto Habitacional Vila Guiomar",
        "zipcode": "09090-500"
    },
    {
        "city": "Santo Andre",
        "state": "SP",
        "district": "Jardim",
        "street": "Praça Ettore Nobeschi",
        "zipcode": "09090-221"
    },
    {
        "city": "Santo Andre",
        "state": "SP",
        "district": "Parque Marapoara",
        "street": "Rua Prq Marajoara",
        "zipcode": "09112-110"
    },
    {
        "city": "Santo Andre",
        "state": "SP",
        "district": "Santa Teresa",
        "street": "Viaduto Angelo Gaiarsa",
        "zipcode": "09020-190"
    },
    {
        "city": "Santo Andre",
        "state": "SP",
        "district": "Parque Represa Billings G3",
        "street": "Rua Taquara",
        "zipcode": "09160-690"
    },
    {
        "city": "Santo Andre",
        "state": "SP",
        "district": "Jardim",
        "street": "Rua Valdemar Tibagy Tavernaro",
        "zipcode": "09091-040"
    },
    {
        "city": "Santo Andre",
        "state": "SP",
        "district": "Parque Represa Billings G3",
        "street": "Rua Paranagua",
        "zipcode": "09160-720"
    },
    {
        "city": "Santo Andre",
        "state": "SP",
        "district": "Vila Santa Teresa",
        "street": "Travessa Brusque",
        "zipcode": "09030-720"
    },
    {
        "city": "Santo Andre",
        "state": "SP",
        "district": "Parque Represa Billings G3",
        "street": "Rua Irati",
        "zipcode": "09160-710"
    },
    {
        "city": "Santo Andre",
        "state": "SP",
        "district": "Jardim Santo Antonio De Padua",
        "street": "Rua Sete",
        "zipcode": "09111-860"
    },
    {
        "city": "Santo Andre",
        "state": "SP",
        "district": "Vila Guiomar",
        "street": "Travessa Paula Sousa",
        "zipcode": "09090-630"
    },
    {
        "city": "Santo Andre",
        "state": "SP",
        "district": "Utinga",
        "street": "Praça Cesar Ladeira",
        "zipcode": "09070-315"
    },
    {
        "city": "Santo Andre",
        "state": "SP",
        "district": "Vila Palmares",
        "street": "Viaduto Pujol",
        "zipcode": "09061-850"
    },
    {
        "city": "Santo Andre",
        "state": "SP",
        "district": "Parque Represa Billings G3",
        "street": "Rua Cianorte",
        "zipcode": "09160-670"
    },
    {
        "city": "Santo Andre",
        "state": "SP",
        "district": "Parque Represa Billings G3",
        "street": "Rua Foz Do Iguacu",
        "zipcode": "09160-650"
    },
    {
        "city": "Santo Andre",
        "state": "SP",
        "district": "Jardim",
        "street": "Travessa Dos Jatobas",
        "zipcode": "09080-175"
    },
    {
        "city": "Santo Andre",
        "state": "SP",
        "district": "Vila Palmares",
        "street": "Rua Pedro De Araujo Lima",
        "zipcode": "09061-840"
    },
    {
        "city": "Santo Andre",
        "state": "SP",
        "district": "Jardim Bela Vista",
        "street": "Praça Alan Kardec",
        "zipcode": "09041-455"
    },
    {
        "city": "Santo Andre",
        "state": "SP",
        "district": "Parque Represa Billings G3",
        "street": "Rua Pato Branco",
        "zipcode": "09160-750"
    },
    {
        "city": "Santo Andre",
        "state": "SP",
        "district": "Vila Valparaiso",
        "street": "Rua Morrados",
        "zipcode": "09060-125"
    },
    {
        "city": "Santo Andre",
        "state": "SP",
        "district": "Santa Maria",
        "street": "Praça Vicente Feola",
        "zipcode": "09070-020"
    },
    {
        "city": "Santo Andre",
        "state": "SP",
        "district": "Centreville",
        "street": "Rua Oito",
        "zipcode": "09120-135"
    },
    {
        "city": "Santo Andre",
        "state": "SP",
        "district": "Vila Alpina",
        "street": "Praça Escorpiao",
        "zipcode": "09071-180"
    },
    {
        "city": "Santo Andre",
        "state": "SP",
        "district": "Campestre",
        "street": "Rua Ver. Jose Hildebrando De Paula Campestre",
        "zipcode": "09080-245"
    },
    {
        "city": "Santo Andre",
        "state": "SP",
        "district": "Jardim Santo Antonio De Padua",
        "street": "Rua Seis",
        "zipcode": "09111-850"
    },
    {
        "city": "Santo Andre",
        "state": "SP",
        "district": "Parque Represa Billings G3",
        "street": "Rua Paranavai",
        "zipcode": "09160-740"
    },
    {
        "city": "Santo Andre",
        "state": "SP",
        "district": "Vila Aquilino",
        "street": "Rua Dilon Conceicao",
        "zipcode": "09061-230"
    },
    {
        "city": "Santo Andre",
        "state": "SP",
        "district": "Utinga",
        "street": "Praça Julio Mascotto",
        "zipcode": "09080-325"
    },
    {
        "city": "Santo Andre",
        "state": "SP",
        "district": "Centro",
        "street": "Praça Do Cacau",
        "zipcode": "09040-060"
    },
    {
        "city": "Santo Andre",
        "state": "SP",
        "district": "Centreville",
        "street": "Rua Bernardo Sayao",
        "zipcode": "09120-090"
    },
    {
        "city": "Santo Andre",
        "state": "SP",
        "district": "Parque Represa Billings G3",
        "street": "Avenida Um",
        "zipcode": "09160-725"
    },
    {
        "city": "Santo Andre",
        "state": "SP",
        "district": "Parque Represa Billings G3",
        "street": "Rua Jales",
        "zipcode": "09160-490"
    },
    {
        "city": "Santo Andre",
        "state": "SP",
        "district": "Parque Represa Billings G3",
        "street": "Rua Brustue",
        "zipcode": "09160-680"
    },
    {
        "city": "Santo Andre",
        "state": "SP",
        "district": "Jardim Joaquim Eugenio De Lima",
        "street": "Estrada Doze",
        "zipcode": "09152-130"
    },
    {
        "city": "Santo Andre",
        "state": "SP",
        "district": "Sitio Taquaral",
        "street": "Rua Pasteur",
        "zipcode": "09161-020"
    },
    {
        "city": "Santo Andre",
        "state": "SP",
        "district": "Parque Represa Billings G1",
        "street": "Avenida Um",
        "zipcode": "09160-015"
    },
    {
        "city": "Santo Andre",
        "state": "SP",
        "district": "Centreville",
        "street": "Rua Treze",
        "zipcode": "09120-143"
    },
    {
        "city": "Santo Andre",
        "state": "SP",
        "district": "Parque Rio Grande",
        "street": "Rua Carmem Miranda",
        "zipcode": "09162-160"
    },
    {
        "city": "Santo Andre",
        "state": "SP",
        "district": "Sitio Taquaral",
        "street": "Rua Lavoisier",
        "zipcode": "09161-010"
    },
    {
        "city": "Santo Andre",
        "state": "SP",
        "district": "Centreville",
        "street": "Rua Quatorze",
        "zipcode": "09120-153"
    },
    {
        "city": "Santo Andre",
        "state": "SP",
        "district": "Parque Represa Billings G1",
        "street": "Rua Tres",
        "zipcode": "09160-030"
    },
    {
        "city": "Santo Andre",
        "state": "SP",
        "district": "Jardim Alteza",
        "street": "Rua Duartina",
        "zipcode": "09161-300"
    },
    {
        "city": "Santo Andre",
        "state": "SP",
        "district": "Parque Represa Billings G1",
        "street": "Rua Oito",
        "zipcode": "09160-080"
    },
    {
        "city": "Santo Andre",
        "state": "SP",
        "district": "Jardim Alteza",
        "street": "Rua Dumont",
        "zipcode": "09161-290"
    },
    {
        "city": "Santo Andre",
        "state": "SP",
        "district": "Centreville",
        "street": "Rua Quinze",
        "zipcode": "09120-165"
    },
    {
        "city": "Santo Andre",
        "state": "SP",
        "district": "Jardim Joaquim Eugenio De Lima",
        "street": "Estrada Treze",
        "zipcode": "09152-140"
    },
    {
        "city": "Santo Andre",
        "state": "SP",
        "district": "Jardim Riviera",
        "street": "Rua Altamira",
        "zipcode": "09133-010"
    },
    {
        "city": "Santo Andre",
        "state": "SP",
        "district": "Jardim Joaquim Eugenio De Lima",
        "street": "Estrada Nove",
        "zipcode": "09152-120"
    },
    {
        "city": "Santo Andre",
        "state": "SP",
        "district": "Centreville",
        "street": "Rua Vinte E Um",
        "zipcode": "09120-166"
    },
    {
        "city": "Santo Andre",
        "state": "SP",
        "district": "Centreville",
        "street": "Rua Dez",
        "zipcode": "09120-137"
    },
    {
        "city": "Santo Andre",
        "state": "SP",
        "district": "Jardim Milena",
        "street": "Avenida Projetada",
        "zipcode": "09182-220"
    },
    {
        "city": "Santo Andre",
        "state": "SP",
        "district": "Jardim Guaripocaba",
        "street": "Rua Sao Nicolau",
        "zipcode": "09162-470"
    },
    {
        "city": "Santo Andre",
        "state": "SP",
        "district": "Chacara Engenho Da Serra",
        "street": "Rua Itatinga",
        "zipcode": "09161-420"
    },
    {
        "city": "Santo Andre",
        "state": "SP",
        "district": "Parque Represa Billings G1",
        "street": "Rua Quatro",
        "zipcode": "09160-040"
    },
    {
        "city": "Santo Andre",
        "state": "SP",
        "district": "Parque Represa Billings G1",
        "street": "Rua Nove",
        "zipcode": "09160-090"
    },
    {
        "city": "Santo Andre",
        "state": "SP",
        "district": "Centreville",
        "street": "Praça Deputado Emilio Carlos",
        "zipcode": "09120-215"
    },
    {
        "city": "Santo Andre",
        "state": "SP",
        "district": "Colonia Dos Pescadores",
        "street": "Rua Salinas",
        "zipcode": "09165-200"
    },
    {
        "city": "Santo Andre",
        "state": "SP",
        "district": "Parque Represa Billings G3",
        "street": "Rua Marialva",
        "zipcode": "09160-770"
    },
    {
        "city": "Santo Andre",
        "state": "SP",
        "district": "Parque Represa Billings G2",
        "street": "Rua Regente Feijo",
        "zipcode": "09160-280"
    },
    {
        "city": "Santo Andre",
        "state": "SP",
        "district": "Acampamento Anchieta (Bloco C)",
        "street": "Caminho Tres",
        "zipcode": "09165-030"
    },
    {
        "city": "Santo Andre",
        "state": "SP",
        "district": "Sitio Taquaral",
        "street": "Rua Euclides",
        "zipcode": "09160-055"
    },
    {
        "city": "Santo Andre",
        "state": "SP",
        "district": "Parque Rio Grande",
        "street": "Rua Padre Anchieta",
        "zipcode": "09162-190"
    },
    {
        "city": "Santo Andre",
        "state": "SP",
        "district": "Parque Rio Grande",
        "street": "Rua Vi",
        "zipcode": "09162-060"
    },
    {
        "city": "Santo Andre",
        "state": "SP",
        "district": "Jardim Milena",
        "street": "Rua Candido",
        "zipcode": "09182-150"
    },
    {
        "city": "Santo Andre",
        "state": "SP",
        "district": "Jardim Silvia",
        "street": "Rua A",
        "zipcode": "09162-300"
    },
    {
        "city": "Santo Andre",
        "state": "SP",
        "district": "Parque Represa Billings G3",
        "street": "Rua Dez",
        "zipcode": "09160-100"
    },
    {
        "city": "Santo Andre",
        "state": "SP",
        "district": "Parque Represa Billings G3",
        "street": "Rua Nova Esperanca",
        "zipcode": "09160-760"
    },
    {
        "city": "Santo Andre",
        "state": "SP",
        "district": "Jardim Alteza",
        "street": "Estrada Castelo",
        "zipcode": "09161-280"
    },
    {
        "city": "Santo Andre",
        "state": "SP",
        "district": "Centreville",
        "street": "Rua Vinte",
        "zipcode": "09120-152"
    },
    {
        "city": "Santo Andre",
        "state": "SP",
        "district": "Jardim Alteza",
        "street": "Rua Urai",
        "zipcode": "09161-230"
    },
    {
        "city": "Santo Andre",
        "state": "SP",
        "district": "Parque Represa Billings G3",
        "street": "Avenida Tubarao",
        "zipcode": "09160-380"
    },
    {
        "city": "Santo Andre",
        "state": "SP",
        "district": "Parque Rio Grande",
        "street": "Rua Viii",
        "zipcode": "09162-070"
    },
    {
        "city": "Santo Andre",
        "state": "SP",
        "district": "Chacara Engenho Da Serra",
        "street": "Avenida Videira",
        "zipcode": "09161-430"
    },
    {
        "city": "Santo Andre",
        "state": "SP",
        "district": "Chacara Engenho Da Serra",
        "street": "Rua Itapora",
        "zipcode": "09161-500"
    },
    {
        "city": "Santo Andre",
        "state": "SP",
        "district": "Parque Rio Grande",
        "street": "Rua Princesa Leopoldina",
        "zipcode": "09162-010"
    },
    {
        "city": "Santo Andre",
        "state": "SP",
        "district": "Parque Represa Billings G1",
        "street": "Rua Sete",
        "zipcode": "09160-070"
    },
    {
        "city": "Santo Andre",
        "state": "SP",
        "district": "Parque Represa Billings G3",
        "street": "Rua Cambe",
        "zipcode": "09160-780"
    },
    {
        "city": "Santo Andre",
        "state": "SP",
        "district": "Parque Represa Billings G3",
        "street": "Rua Nova Londrina",
        "zipcode": "09160-590"
    },
    {
        "city": "Santo Andre",
        "state": "SP",
        "district": "Parque Rio Grande",
        "street": "Rua Xiv",
        "zipcode": "09162-080"
    },
    {
        "city": "Santo Andre",
        "state": "SP",
        "district": "Jardim Alteza",
        "street": "Estrada Existente Servidao Um",
        "zipcode": "09161-320"
    },
    {
        "city": "Santo Andre",
        "state": "SP",
        "district": "Jardim Silvia",
        "street": "Rua B",
        "zipcode": "09162-310"
    },
    {
        "city": "Santo Andre",
        "state": "SP",
        "district": "Colonia Dos Pescadores",
        "street": "Rua Varzelandia",
        "zipcode": "09165-220"
    },
    {
        "city": "Santo Andre",
        "state": "SP",
        "district": "Jardim Alteza",
        "street": "Rua Dobrada",
        "zipcode": "09161-240"
    },
    {
        "city": "Santo Andre",
        "state": "SP",
        "district": "Parque Miami",
        "street": "Estrada Clube De Campo Abc",
        "zipcode": "09133-030"
    },
    {
        "city": "Santo Andre",
        "state": "SP",
        "district": "Jardim Joaquim Eugenio De Lima",
        "street": "Estrada Quatorze",
        "zipcode": "09152-150"
    },
    {
        "city": "Santo Andre",
        "state": "SP",
        "district": "Vila Gilda",
        "street": "Travessa Sem Denominacao",
        "zipcode": "09190-550"
    },
    {
        "city": "Santo Andre",
        "state": "SP",
        "district": "Parque Rio Grande",
        "street": "Rua Xvi",
        "zipcode": "09162-090"
    },
    {
        "city": "Santo Andre",
        "state": "SP",
        "district": "Parque Represa Billings G1",
        "street": "Rua Um",
        "zipcode": "09160-010"
    },
    {
        "city": "Santo Andre",
        "state": "SP",
        "district": "Jardim Alteza",
        "street": "Rua Vinauna",
        "zipcode": "09161-210"
    },
    {
        "city": "Santo Andre",
        "state": "SP",
        "district": "Colonia Dos Pescadores",
        "street": "Estrada Servidao Dois",
        "zipcode": "09165-260"
    },
    {
        "city": "Santo Andre",
        "state": "SP",
        "district": "Colonia Dos Pescadores",
        "street": "Rua Acucena",
        "zipcode": "09165-270"
    },
    {
        "city": "Santo Andre",
        "state": "SP",
        "district": "Parque Jacatuba",
        "street": "Rua Itaipava",
        "zipcode": "09290-530"
    },
    {
        "city": "Santo Andre",
        "state": "SP",
        "district": "Jardim Maravilhas",
        "street": "Travessa Nassau",
        "zipcode": "09250-180"
    },
    {
        "city": "Santo Andre",
        "state": "SP",
        "district": "Jardim Utinga",
        "street": "Praça Augusto Conte",
        "zipcode": "09230-225"
    },
    {
        "city": "Santo Andre",
        "state": "SP",
        "district": "Utinga",
        "street": "Rua Penapolis",
        "zipcode": "09230-270"
    },
    {
        "city": "Santo Andre",
        "state": "SP",
        "district": "Jardim Milena",
        "street": "Praça Prof. Antonio Lapate Neto",
        "zipcode": "09182-335"
    },
    {
        "city": "Santo Andre",
        "state": "SP",
        "district": "Parque Joao Ramalho",
        "street": "Praça Seijim Toguchi",
        "zipcode": "09290-005"
    },
    {
        "city": "Santo Andre",
        "state": "SP",
        "district": "Parque Central",
        "street": "Rua Joao Pires Gago",
        "zipcode": "09280-560"
    },
    {
        "city": "Santo Andre",
        "state": "SP",
        "district": "Parque Capuava",
        "street": "Praça Vereador Norio Arimura",
        "zipcode": "09271-270"
    },
    {
        "city": "Santo Andre",
        "state": "SP",
        "district": "Vila Camilopolis",
        "street": "Loteamento Conjunto Habitacional Inocoop Camilopolis",
        "zipcode": "09230-505"
    },
    {
        "city": "Santo Andre",
        "state": "SP",
        "district": "Santa Maria",
        "street": "Rua Boraceia",
        "zipcode": "09290-360"
    },
    {
        "city": "Santo Andre",
        "state": "SP",
        "district": "Utinga",
        "street": "Parque Regional Prof. Antonio Pezzolo",
        "zipcode": "09220-615"
    },
    {
        "city": "Santo Andre",
        "state": "SP",
        "district": "Vila Pires",
        "street": "Rua Tucuri",
        "zipcode": "09195-780"
    },
    {
        "city": "Santo Andre",
        "state": "SP",
        "district": "Parque Erasmo Assuncao",
        "street": "Praça Antonio Badain",
        "zipcode": "09271-205"
    },
    {
        "city": "Santo Andre",
        "state": "SP",
        "district": "Parque Das Nacoes",
        "street": "Praça Da Imprensa",
        "zipcode": "09280-295"
    },
    {
        "city": "Santo Andre",
        "state": "SP",
        "district": "Vila Santa Maria",
        "street": "Rua Itaguare",
        "zipcode": "09290-370"
    },
    {
        "city": "Santo Andre",
        "state": "SP",
        "district": "Vila Clarice",
        "street": "Rua Maestro Erlon Chaves",
        "zipcode": "09251-170"
    },
    {
        "city": "Santo Andre",
        "state": "SP",
        "district": "Casas Populares",
        "street": "Praça Aratu",
        "zipcode": "09210-790"
    },
    {
        "city": "Santo Andre",
        "state": "SP",
        "district": "Jardim Guaripocaba",
        "street": "Rua Sao Luiz",
        "zipcode": "09162-480"
    },
    {
        "city": "Santo Andre",
        "state": "SP",
        "district": "Vila Bartira",
        "street": "Praça Francisco De Paula Peruche",
        "zipcode": "09280-410"
    },
    {
        "city": "Santo Andre",
        "state": "SP",
        "district": "Jardim Guaripocaba",
        "street": "Rua Sao Geraldo",
        "zipcode": "09162-450"
    },
    {
        "city": "Santo Andre",
        "state": "SP",
        "district": "Vila Metalurgica",
        "street": "Praça Concordia",
        "zipcode": "09220-070"
    },
    {
        "city": "Santo Andre",
        "state": "SP",
        "district": "Vila Curuca",
        "street": "Praça Itatiba",
        "zipcode": "09291-080"
    },
    {
        "city": "Santo Andre",
        "state": "SP",
        "district": "Vila Linda",
        "street": "Praça Cristo Operario",
        "zipcode": "09175-860"
    },
    {
        "city": "Santo Andre",
        "state": "SP",
        "district": "Santa Teresinha",
        "street": "Praça Jose Marun Atalla",
        "zipcode": "09210-590"
    },
    {
        "city": "Santo Andre",
        "state": "SP",
        "district": "Vila Linda",
        "street": "Praça Isaac Newton",
        "zipcode": "09175-805"
    },
    {
        "city": "Santo Andre",
        "state": "SP",
        "district": "Parque Oratorio",
        "street": "Praça Riacho De Santana",
        "zipcode": "09250-435"
    },
    {
        "city": "Santo Andre",
        "state": "SP",
        "district": "Utinga",
        "street": "Viaduto Juvenal Fontanella",
        "zipcode": "09220-545"
    },
    {
        "city": "Santo Andre",
        "state": "SP",
        "district": "Jardim Milena",
        "street": "Rua Jose Fernando De Medina Braga",
        "zipcode": "09182-705"
    },
    {
        "city": "Santo Andre",
        "state": "SP",
        "district": "Colonia Dos Pescadores",
        "street": "Rua Entre Rios",
        "zipcode": "09165-250"
    },
    {
        "city": "Santo Andre",
        "state": "SP",
        "district": "Jardim Utinga",
        "street": "Praça Oscar Klein",
        "zipcode": "09230-795"
    },
    {
        "city": "Santo Andre",
        "state": "SP",
        "district": "Parque Jacatuba",
        "street": "Rua Jacutinga",
        "zipcode": "09290-740"
    },
    {
        "city": "Santo Andre",
        "state": "SP",
        "district": "Acampamento Anchieta (Bloco A)",
        "street": "Caminho Sete",
        "zipcode": "09165-070"
    },
    {
        "city": "Santo Andre",
        "state": "SP",
        "district": "Vila Clarice",
        "street": "Largo Catanduva",
        "zipcode": "09250-045"
    },
    {
        "city": "Santo Andre",
        "state": "SP",
        "district": "Parque Capuava",
        "street": "Praça Dos Lirios",
        "zipcode": "09270-125"
    },
    {
        "city": "Santo Andre",
        "state": "SP",
        "district": "Jardim Marta",
        "street": "Rua Suez",
        "zipcode": "09220-550"
    },
    {
        "city": "Santo Andre",
        "state": "SP",
        "district": "Jardim Ana Maria",
        "street": "Praça Venancio Neto",
        "zipcode": "09260-330"
    },
    {
        "city": "Santo Andre",
        "state": "SP",
        "district": "Parque Das Nacoes",
        "street": "Travessa Marau",
        "zipcode": "09210-055"
    },
    {
        "city": "Santo Andre",
        "state": "SP",
        "district": "Vila Lucinda",
        "street": "Praça Maria De Souza Cabral",
        "zipcode": "09250-800"
    },
    {
        "city": "Santo Andre",
        "state": "SP",
        "district": "Jardim Milena",
        "street": "Praça Idel Waisberg",
        "zipcode": "09182-735"
    },
    {
        "city": "Santo Andre",
        "state": "SP",
        "district": "Parque Capuava",
        "street": "Praça Delfino Ribeiro Gumaz",
        "zipcode": "09271-015"
    },
    {
        "city": "Santo Andre",
        "state": "SP",
        "district": "Vila Alto De Santo Andre",
        "street": "Praça Antonio De Oliveira Almeida Junior",
        "zipcode": "09240-605"
    },
    {
        "city": "Santo Andre",
        "state": "SP",
        "district": "Parque Erasmo Assuncao",
        "street": "Praça Pedro Bispo Da Silva",
        "zipcode": "09290-735"
    },
    {
        "city": "Santo Andre",
        "state": "SP",
        "district": "Parque Oratorio",
        "street": "Praça Dr Francisco Perrone",
        "zipcode": "09280-255"
    },
    {
        "city": "Santo Andre",
        "state": "SP",
        "district": "Vila Leopoldina",
        "street": "Avenida Marginal Apiai",
        "zipcode": "09195-460"
    },
    {
        "city": "Santo Andre",
        "state": "SP",
        "district": "Acampamento Anchieta (Bloco A)",
        "street": "Caminho Oito",
        "zipcode": "09165-080"
    },
    {
        "city": "Santo Andre",
        "state": "SP",
        "district": "Jardim Las Vegas",
        "street": "Praça Prof. Antonio Lapate Neto",
        "zipcode": "09182-305"
    },
    {
        "city": "Santo Andre",
        "state": "SP",
        "district": "Utinga",
        "street": "Rua Constantinopla",
        "zipcode": "09230-220"
    },
    {
        "city": "Santo Andre",
        "state": "SP",
        "district": "Jardim Silvia",
        "street": "Rua C",
        "zipcode": "09162-320"
    },
    {
        "city": "Santo Andre",
        "state": "SP",
        "district": "Vila Pinheirinho",
        "street": "Travessa Otavio Tegao",
        "zipcode": "09190-465"
    },
    {
        "city": "Santo Andre",
        "state": "SP",
        "district": "Chacara Engenho Da Serra",
        "street": "Rua Tanques",
        "zipcode": "09161-460"
    },
    {
        "city": "Santo Andre",
        "state": "SP",
        "district": "Centro",
        "street": "Viaduto Antonio Adib Chammas",
        "zipcode": "09015-005"
    },
    {
        "city": "Santo Andre",
        "state": "SP",
        "district": "Vila Floresta",
        "street": "Praça Nicolau Kiselar",
        "zipcode": "09051-561"
    },
    {
        "city": "Santo Andre",
        "state": "SP",
        "district": "Vila Leopoldina",
        "street": "Praça Antonio Flaquer",
        "zipcode": "09030-165"
    },
    {
        "city": "Santo Andre",
        "state": "SP",
        "district": "Jardim Alteza",
        "street": "Rua Um",
        "zipcode": "09161-200"
    },
    {
        "city": "Santo Andre",
        "state": "SP",
        "district": "Parque Represa Billings G3",
        "street": "Avenida Joinville",
        "zipcode": "09160-730"
    },
    {
        "city": "Santo Andre",
        "state": "SP",
        "district": "Parque Represa Billings G3",
        "street": "Rua Cascavel",
        "zipcode": "09160-610"
    },
    {
        "city": "Santo Andre",
        "state": "SP",
        "district": "Jardim Vila Rica",
        "street": "Avenida Capitao Mario Toledo De Camargo",
        "zipcode": "09170-150"
    },
    {
        "city": "Santo Andre",
        "state": "SP",
        "district": "Vila Camilopolis",
        "street": "Rua Creso",
        "zipcode": "09240-090"
    },
    {
        "city": "Santo Andre",
        "state": "SP",
        "district": "Parque Capuava",
        "street": "Praça Elis Regina",
        "zipcode": "09270-185"
    },
    {
        "city": "Santo Andre",
        "state": "SP",
        "district": "Vila Alpina",
        "street": "Viaduto Presidente Castelo Branco",
        "zipcode": "09071-020"
    },
    {
        "city": "Santo Andre",
        "state": "SP",
        "district": "Jardim",
        "street": "Praça Tulio Mascotto",
        "zipcode": "09080-400"
    },
    {
        "city": "Santo Andre",
        "state": "SP",
        "district": "Vila Lea",
        "street": "Loteamento Conjunto Habitacional I A P I",
        "zipcode": "09090-660"
    },
    {
        "city": "Santo Andre",
        "state": "SP",
        "district": "Vila Metalurgica",
        "street": "Praça Dona Pepita Cruz",
        "zipcode": "09230-145"
    },
    {
        "city": "Santo Andre",
        "state": "SP",
        "district": "Sitio Taquaral",
        "street": "Rua Carlos Chagas",
        "zipcode": "09161-000"
    },
    {
        "city": "Santo Andre",
        "state": "SP",
        "district": "Jardim Ana Maria",
        "street": "Praça Engenheiro Raul Ferreira De Barros",
        "zipcode": "09260-565"
    },
    {
        "city": "Santo Andre",
        "state": "SP",
        "district": "Vila Palmares",
        "street": "Avenida Imperatriz Leopoldina",
        "zipcode": "09061-870"
    },
    {
        "city": "Santo Andre",
        "state": "SP",
        "district": "Parque Bandeirante",
        "street": "Praça Senador Vitorino Freire",
        "zipcode": "09185-790"
    },
    {
        "city": "Santo Andre",
        "state": "SP",
        "district": "Parque Represa Billings G2",
        "street": "Rua Jacipora",
        "zipcode": "09160-270"
    },
    {
        "city": "Santo Andre",
        "state": "SP",
        "district": "Centreville",
        "street": "Rua Treze",
        "zipcode": "09120-142"
    },
    {
        "city": "Santo Andre",
        "state": "SP",
        "district": "Parque Represa Billings G3",
        "street": "Rua Chapeco",
        "zipcode": "09160-700"
    },
    {
        "city": "Santo Andre",
        "state": "SP",
        "district": "Jardim Guaripocaba",
        "street": "Rua Sao Matheus",
        "zipcode": "09162-440"
    },
    {
        "city": "Santo Andre",
        "state": "SP",
        "district": "Parque Represa Billings G3",
        "street": "Rua Andira",
        "zipcode": "09160-560"
    },
    {
        "city": "Santo Andre",
        "state": "SP",
        "district": "Parque Represa Billings G1",
        "street": "Rua Seis",
        "zipcode": "09160-060"
    },
    {
        "city": "Santo Andre",
        "state": "SP",
        "district": "Jardim Alteza",
        "street": "Rua Sarandi",
        "zipcode": "09161-270"
    },
    {
        "city": "Santo Andre",
        "state": "SP",
        "district": "Vila Progresso",
        "street": "Praça Deputado Emilio Carlos",
        "zipcode": "09120-301"
    },
    {
        "city": "Santo Andre",
        "state": "SP",
        "district": "Chacara Engenho Da Serra",
        "street": "Rua Ventura",
        "zipcode": "09161-450"
    },
    {
        "city": "Santo Andre",
        "state": "SP",
        "district": "Parque Represa Billings G3",
        "street": "Rua Novo Hamburgo",
        "zipcode": "09160-640"
    },
    {
        "city": "Santo Andre",
        "state": "SP",
        "district": "Parque Represa Billings G1",
        "street": "Rua Dois",
        "zipcode": "09160-020"
    },
    {
        "city": "Santo Andre",
        "state": "SP",
        "district": "Jardim Santo Antonio De Padua",
        "street": "Rua Sem Denominacao",
        "zipcode": "09111-880"
    },
    {
        "city": "Santo Andre",
        "state": "SP",
        "district": "Acampamento Anchieta (Bloco D)",
        "street": "Caminho Seis",
        "zipcode": "09165-060"
    },
    {
        "city": "Santo Andre",
        "state": "SP",
        "district": "Vila Metalurgica",
        "street": "Praça Monsenhor Renato Angelucci",
        "zipcode": "09220-300"
    },
    {
        "city": "Santo Andre",
        "state": "SP",
        "district": "Parque Novo Oratorio",
        "street": "Praça Agenor Cristofoli",
        "zipcode": "09250-405"
    },
    {
        "city": "Santo Andre",
        "state": "SP",
        "district": "Centreville",
        "street": "Rua Quatorze",
        "zipcode": "09120-154"
    },
    {
        "city": "Santo Andre",
        "state": "SP",
        "district": "Acampamento Anchieta (Bloco C)",
        "street": "Caminho Quatro",
        "zipcode": "09165-040"
    },
    {
        "city": "Santo Andre",
        "state": "SP",
        "district": "Jardim Santo Antonio De Padua",
        "street": "Rua Cinco",
        "zipcode": "09111-840"
    },
    {
        "city": "Santo Andre",
        "state": "SP",
        "district": "Vila Bartira",
        "street": "Praça Anibal Guedes",
        "zipcode": "09271-420"
    },
    {
        "city": "Santo Andre",
        "state": "SP",
        "district": "Jardim Joaquim Eugenio De Lima",
        "street": "Estrada Juscelino Kubitschek",
        "zipcode": "09152-110"
    },
    {
        "city": "Santo Andre",
        "state": "SP",
        "district": "Jardim Alteza",
        "street": "Rua Umari",
        "zipcode": "09161-250"
    },
    {
        "city": "Santo Andre",
        "state": "SP",
        "district": "Jardim Alzira Franco",
        "street": "Praça Padre Aderbal Leitao Vilar",
        "zipcode": "09290-380"
    },
    {
        "city": "Santo Andre",
        "state": "SP",
        "district": "Parque Represa Billings G3",
        "street": "Rua Guarapuava",
        "zipcode": "09160-630"
    },
    {
        "city": "Santo Andre",
        "state": "SP",
        "district": "Parque Capuava",
        "street": "Rua Camaraci",
        "zipcode": "09271-155"
    },
    {
        "city": "Santo Andre",
        "state": "SP",
        "district": "Vila Camilopolis",
        "street": "Praça Tercio Rodrigues Alves",
        "zipcode": "09230-607"
    },
    {
        "city": "Santo Andre",
        "state": "SP",
        "district": "Colonia Dos Pescadores",
        "street": "Rua Verissimo",
        "zipcode": "09165-240"
    },
    {
        "city": "Santo Andre",
        "state": "SP",
        "district": "Parque Represa Billings G1",
        "street": "Rua Cinco",
        "zipcode": "09160-050"
    },
    {
        "city": "Santo Andre",
        "state": "SP",
        "district": "Centro",
        "street": "Viaduto Pedro Dell Antonia",
        "zipcode": "09015-305"
    },
    {
        "city": "Santo Andre",
        "state": "SP",
        "district": "Jardim Marta",
        "street": "Rua Fernao Dias",
        "zipcode": "09220-540"
    },
    {
        "city": "Santo Andre",
        "state": "SP",
        "district": "Parque Central",
        "street": "Praça Do Abraco",
        "zipcode": "09280-575"
    },
    {
        "city": "Santo Andre",
        "state": "SP",
        "district": "Colonia Dos Pescadores",
        "street": "Rua Vazante",
        "zipcode": "09165-230"
    },
    {
        "city": "Santo Andre",
        "state": "SP",
        "district": "Vila Palmares",
        "street": "Avenida Dom Jorge Marcos De Oliveira",
        "zipcode": "09061-860"
    },
    {
        "city": "Santo Andre",
        "state": "SP",
        "district": "Jardim Alvorada",
        "street": "Loteamento Conjunto Habitacional Jardim Alvorada",
        "zipcode": "09180-200"
    },
    {
        "city": "Santo Andre",
        "state": "SP",
        "district": "Jardim Joaquim Eugenio De Lima",
        "street": "Estrada Deputado Emilio Carlos",
        "zipcode": "09152-090"
    }
]