[
    {
        "city": "Sao Caetano Do Sul",
        "state": "SP",
        "district": "Santa Paula",
        "street": "Alameda Sao Caetano",
        "zipcode": "09560-051"
    },
    {
        "city": "Sao Caetano Do Sul",
        "state": "SP",
        "district": "Santa Paula",
        "street": "Praça Julio Marcucci",
        "zipcode": "09550-040"
    },
    {
        "city": "Sao Caetano Do Sul",
        "state": "SP",
        "district": "Maua",
        "street": "Praça Eliseo Leoni",
        "zipcode": "09580-555"
    },
    {
        "city": "Sao Caetano Do Sul",
        "state": "SP",
        "district": "Maua",
        "street": "Praça Angelo Cianfarani",
        "zipcode": "09581-740"
    },
    {
        "city": "Sao Caetano Do Sul",
        "state": "SP",
        "district": "Centro",
        "street": "Praça Presidente Juscelino Kubitschek De Oliveira",
        "zipcode": "09530-040"
    },
    {
        "city": "Sao Caetano Do Sul",
        "state": "SP",
        "district": "Olimpico",
        "street": "Praça Isidoro Miron",
        "zipcode": "09540-770"
    },
    {
        "city": "Sao Caetano Do Sul",
        "state": "SP",
        "district": "Nova Gerti",
        "street": "Praça Marajo",
        "zipcode": "09572-710"
    },
    {
        "city": "Sao Caetano Do Sul",
        "state": "SP",
        "district": "Santa Paula",
        "street": "Praça Do Prof.",
        "zipcode": "09520-720"
    },
    {
        "city": "Sao Caetano Do Sul",
        "state": "SP",
        "district": "Santo Antonio",
        "street": "Praça Do Estudante",
        "zipcode": "09510-230"
    },
    {
        "city": "Sao Caetano Do Sul",
        "state": "SP",
        "district": "Santa Paula",
        "street": "Praça Sao Caetano Di Thiene",
        "zipcode": "09541-550"
    },
    {
        "city": "Sao Caetano Do Sul",
        "state": "SP",
        "district": "Maua",
        "street": "Praça Ana Serrano Mercado",
        "zipcode": "09580-520"
    },
    {
        "city": "Sao Caetano Do Sul",
        "state": "SP",
        "district": "Boa Vista",
        "street": "Praça Rotary Club",
        "zipcode": "09572-280"
    },
    {
        "city": "Sao Caetano Do Sul",
        "state": "SP",
        "district": "Maua",
        "street": "Praça Clair Bracesco Pavani",
        "zipcode": "09580-775"
    },
    {
        "city": "Sao Caetano Do Sul",
        "state": "SP",
        "district": "Centro",
        "street": "Praça Primeiro Centenario",
        "zipcode": "09510-240"
    },
    {
        "city": "Sao Caetano Do Sul",
        "state": "SP",
        "district": "Ceramica",
        "street": "Praça Ricardo Lovato",
        "zipcode": "09530-020"
    },
    {
        "city": "Sao Caetano Do Sul",
        "state": "SP",
        "district": "Nova Gerti",
        "street": "Praça Jose Da Cruz Caparroz",
        "zipcode": "09580-280"
    },
    {
        "city": "Sao Caetano Do Sul",
        "state": "SP",
        "district": "Sao Jose",
        "street": "Praça Adelino Ribeiro",
        "zipcode": "09581-045"
    },
    {
        "city": "Sao Caetano Do Sul",
        "state": "SP",
        "district": "Santa Maria",
        "street": "Praça Jose Rosendo Dos Santos",
        "zipcode": "09560-160"
    },
    {
        "city": "Sao Caetano Do Sul",
        "state": "SP",
        "district": "Santo Antonio",
        "street": "Praça Jardim Primeiro De Maio",
        "zipcode": "09521-380"
    },
    {
        "city": "Sao Caetano Do Sul",
        "state": "SP",
        "district": "Prosperidade",
        "street": "Praça Jarbas De Carvalho",
        "zipcode": "09550-800"
    },
    {
        "city": "Sao Caetano Do Sul",
        "state": "SP",
        "district": "Jardim Sao Caetano",
        "street": "Praça Arcindo Moises Da Silva",
        "zipcode": "09580-230"
    },
    {
        "city": "Sao Caetano Do Sul",
        "state": "SP",
        "district": "Boa Vista",
        "street": "Praça Antonio Branco Rodrigues Junior",
        "zipcode": "09572-160"
    },
    {
        "city": "Sao Caetano Do Sul",
        "state": "SP",
        "district": "Ceramica",
        "street": "Praça Moraes Sarmento",
        "zipcode": "09540-790"
    },
    {
        "city": "Sao Caetano Do Sul",
        "state": "SP",
        "district": "Maua",
        "street": "Praça Dr Inacio Pereira Rodrigues",
        "zipcode": "09580-550"
    },
    {
        "city": "Sao Caetano Do Sul",
        "state": "SP",
        "district": "Jardim Sao Caetano",
        "street": "Praça Manoel Dos Santos",
        "zipcode": "09580-250"
    },
    {
        "city": "Sao Caetano Do Sul",
        "state": "SP",
        "district": "Centro",
        "street": "Praça Dos Castores",
        "zipcode": "09521-200"
    },
    {
        "city": "Sao Caetano Do Sul",
        "state": "SP",
        "district": "Maua",
        "street": "Avenida Guido Aliberti",
        "zipcode": "09580-840"
    },
    {
        "city": "Sao Caetano Do Sul",
        "state": "SP",
        "district": "Fundacao",
        "street": "Viaduto Dos Autonomistas",
        "zipcode": "09521-180"
    },
    {
        "city": "Sao Caetano Do Sul",
        "state": "SP",
        "district": "Santa Paula",
        "street": "Praça Vinte E Quatro De Outubro",
        "zipcode": "09540-340"
    },
    {
        "city": "Sao Caetano Do Sul",
        "state": "SP",
        "district": "Nova Gerti",
        "street": "Praça Dos Nordestinos",
        "zipcode": "09572-720"
    },
    {
        "city": "Sao Caetano Do Sul",
        "state": "SP",
        "district": "Maua",
        "street": "Praça Antonio Dall Antonia",
        "zipcode": "09580-410"
    },
    {
        "city": "Sao Caetano Do Sul",
        "state": "SP",
        "district": "Barcelona",
        "street": "Praça Sebastiao Laureano Dos Santos",
        "zipcode": "09550-255"
    },
    {
        "city": "Sao Caetano Do Sul",
        "state": "SP",
        "district": "Jardim Sao Caetano",
        "street": "Praça Silvino Teixeira Martins",
        "zipcode": "09581-390"
    }
]