[
    {
        "city": "Sao Carlos",
        "state": "SP",
        "district": "Vila Pelicano",
        "street": "Rua Dr Castro Neri",
        "zipcode": "13574-075"
    },
    {
        "city": "Sao Carlos",
        "state": "SP",
        "district": "Vila Boa Vista",
        "street": "Rua Dr Gastao De Sa",
        "zipcode": "13574-070"
    },
    {
        "city": "Sao Carlos",
        "state": "SP",
        "district": "Centro",
        "street": "Rua Ruth Bloem Souto",
        "zipcode": "13560-620"
    },
    {
        "city": "Sao Carlos",
        "state": "SP",
        "district": "Cidade Aracy",
        "street": "Rua 79",
        "zipcode": "13573-202"
    },
    {
        "city": "Sao Carlos",
        "state": "SP",
        "district": "Centro",
        "street": "Rua Nove De Julho",
        "zipcode": "13560-590"
    },
    {
        "city": "Sao Carlos",
        "state": "SP",
        "district": "Vila Boa Vista",
        "street": "Rua Pedro Jose Neto",
        "zipcode": "13574-100"
    },
    {
        "city": "Sao Carlos",
        "state": "SP",
        "district": "Vila Prado",
        "street": "Rua Prof. Dalila Galli",
        "zipcode": "13572-050"
    },
    {
        "city": "Sao Carlos",
        "state": "SP",
        "district": "Centro",
        "street": "Praça Coronel Elias Salles",
        "zipcode": "13560-670"
    },
    {
        "city": "Sao Carlos",
        "state": "SP",
        "district": "Jardim Sao Carlos",
        "street": "Rua Benedito Da Silva",
        "zipcode": "13560-090"
    },
    {
        "city": "Sao Carlos",
        "state": "SP",
        "district": "Jardim Sao Carlos",
        "street": "Rua Delfino Martins Camargo Penteado",
        "zipcode": "13560-100"
    },
    {
        "city": "Sao Carlos",
        "state": "SP",
        "district": "Jardim Sao Carlos",
        "street": "Rua Conde Do Pinhal",
        "zipcode": "13560-140"
    },
    {
        "city": "Sao Carlos",
        "state": "SP",
        "district": "Centro",
        "street": "Rua Episcopal",
        "zipcode": "13560-580"
    },
    {
        "city": "Sao Carlos",
        "state": "SP",
        "district": "Centro",
        "street": "Praça Sao Benedito",
        "zipcode": "13560-630"
    },
    {
        "city": "Sao Carlos",
        "state": "SP",
        "district": "Centro",
        "street": "Rua Miguel Petroni",
        "zipcode": "13561-070"
    },
    {
        "city": "Sao Carlos",
        "state": "SP",
        "district": "Jardim Santa Paula",
        "street": "Rua Oscar De Souza Geribelo",
        "zipcode": "13564-000"
    },
    {
        "city": "Sao Carlos",
        "state": "SP",
        "district": "Jardim Nova Santa Paula",
        "street": "Avenida Liberdade",
        "zipcode": "13564-370"
    },
    {
        "city": "Sao Carlos",
        "state": "SP",
        "district": "Vila Pureza",
        "street": "Praça Dos Universitarios",
        "zipcode": "13561-005"
    },
    {
        "city": "Sao Carlos",
        "state": "SP",
        "district": "Centro",
        "street": "Rua Dr Carlos Botelho",
        "zipcode": "13561-150"
    },
    {
        "city": "Sao Carlos",
        "state": "SP",
        "district": "Vila Brasilia",
        "street": "Rua Francisco Cassiano Lopes",
        "zipcode": "13566-140"
    },
    {
        "city": "Sao Carlos",
        "state": "SP",
        "district": "Vila Brasilia",
        "street": "Rua Joao Batista De Arruda",
        "zipcode": "13566-120"
    },
    {
        "city": "Sao Carlos",
        "state": "SP",
        "district": "Vila Monteiro (Gleba 1)",
        "street": "Rua Rafael De Abreu Sampaio Vidal",
        "zipcode": "13560-780"
    },
    {
        "city": "Sao Carlos",
        "state": "SP",
        "district": "Vila Monteiro (Gleba 1)",
        "street": "Rua Antonio Rodrigues Cajado",
        "zipcode": "13560-380"
    },
    {
        "city": "Sao Carlos",
        "state": "SP",
        "district": "Loteamento Habit Sao Carlos I",
        "street": "Rua Italo Tonissi",
        "zipcode": "13563-460"
    },
    {
        "city": "Sao Carlos",
        "state": "SP",
        "district": "Vila Brasilia",
        "street": "Rua Genesio De Arruda",
        "zipcode": "13566-090"
    },
    {
        "city": "Sao Carlos",
        "state": "SP",
        "district": "Centro",
        "street": "Rua Mario Constanzo",
        "zipcode": "13560-690"
    },
    {
        "city": "Sao Carlos",
        "state": "SP",
        "district": "Jardim Sao Carlos",
        "street": "Rua Comendador Alfredo Maffei",
        "zipcode": "13560-150"
    },
    {
        "city": "Sao Carlos",
        "state": "SP",
        "district": "Vila Monteiro (Gleba 1)",
        "street": "Rua Belarmino Indalecio De Souza",
        "zipcode": "13560-700"
    },
    {
        "city": "Sao Carlos",
        "state": "SP",
        "district": "Loteamento Habit Sao Carlos I",
        "street": "Rua Joao Schiavoni",
        "zipcode": "13563-450"
    },
    {
        "city": "Sao Carlos",
        "state": "SP",
        "district": "Jardim Macarengo",
        "street": "Rua Jacinto Favoreto",
        "zipcode": "13560-500"
    },
    {
        "city": "Sao Carlos",
        "state": "SP",
        "district": "Vila Brasilia",
        "street": "Rua Luiz Martins Rodrigues",
        "zipcode": "13566-300"
    },
    {
        "city": "Sao Carlos",
        "state": "SP",
        "district": "Vila Brasilia",
        "street": "Rua Sete",
        "zipcode": "13566-160"
    },
    {
        "city": "Sao Carlos",
        "state": "SP",
        "district": "Vila Brasilia",
        "street": "Rua B",
        "zipcode": "13566-100"
    },
    {
        "city": "Sao Carlos",
        "state": "SP",
        "district": "Loteamento Habit Sao Carlos 1",
        "street": "Rua Joao De Guzzi",
        "zipcode": "13563-475"
    },
    {
        "city": "Sao Carlos",
        "state": "SP",
        "district": "Vila Monteiro (Gleba 1)",
        "street": "Rua Eneas Camargo",
        "zipcode": "13560-810"
    },
    {
        "city": "Sao Carlos",
        "state": "SP",
        "district": "Vila Brasilia",
        "street": "Rua Antonio Narvais",
        "zipcode": "13566-130"
    },
    {
        "city": "Sao Carlos",
        "state": "SP",
        "district": "Vila Monteiro (Gleba 1)",
        "street": "Rua Marcolino Lopes Barreto",
        "zipcode": "13560-790"
    },
    {
        "city": "Sao Carlos",
        "state": "SP",
        "district": "Vila Monteiro (Gleba 1)",
        "street": "Rua Luiz Roher",
        "zipcode": "13560-730"
    },
    {
        "city": "Sao Carlos",
        "state": "SP",
        "district": "Parque Arnold Schimidt",
        "street": "Avenida Francisco Pereira Lopes",
        "zipcode": "13564-740"
    },
    {
        "city": "Sao Carlos",
        "state": "SP",
        "district": "Parque Santa Monica",
        "street": "Rua Sao Sebastiao",
        "zipcode": "13561-170"
    },
    {
        "city": "Sao Carlos",
        "state": "SP",
        "district": "Vila Arnaldo",
        "street": "Rua Miguel Giometti",
        "zipcode": "13560-420"
    },
    {
        "city": "Sao Carlos",
        "state": "SP",
        "district": "Vila Monteiro (Gleba 1)",
        "street": "Rua Campos Salles",
        "zipcode": "13560-740"
    },
    {
        "city": "Sao Carlos",
        "state": "SP",
        "district": "Jardim Sao Carlos",
        "street": "Rua Alipio Benedito",
        "zipcode": "13560-080"
    },
    {
        "city": "Sao Carlos",
        "state": "SP",
        "district": "Jardim Alvorada",
        "street": "Rua Flauzino Marques",
        "zipcode": "13562-310"
    },
    {
        "city": "Sao Carlos",
        "state": "SP",
        "district": "Jardim Nova Santa Paula",
        "street": "Rua Dr Donato Dos Santos",
        "zipcode": "13564-410"
    },
    {
        "city": "Sao Carlos",
        "state": "SP",
        "district": "Jardim Ricetti",
        "street": "Rua Luiz Roher",
        "zipcode": "13570-230"
    },
    {
        "city": "Sao Carlos",
        "state": "SP",
        "district": "Jardim Sao Paulo",
        "street": "Rua Pedro Bianchi",
        "zipcode": "13570-300"
    },
    {
        "city": "Sao Carlos",
        "state": "SP",
        "district": "Vila Lutfalla",
        "street": "Avenida Getulio Vargas",
        "zipcode": "13570-400"
    },
    {
        "city": "Sao Carlos",
        "state": "SP",
        "district": "Parque Santa Felicia Jardim",
        "street": "Rua Afonso Botelho De Abreu Sampaio",
        "zipcode": "13563-430"
    },
    {
        "city": "Sao Carlos",
        "state": "SP",
        "district": "Cidade Jardim",
        "street": "Praça Sebastiao Batalha",
        "zipcode": "13566-775"
    },
    {
        "city": "Sao Carlos",
        "state": "SP",
        "district": "Loteamento Municipal Sao Carlos 3",
        "street": "Rua Luiz Rodrigues Sampaio",
        "zipcode": "13563-390"
    },
    {
        "city": "Sao Carlos",
        "state": "SP",
        "district": "Cidade Aracy",
        "street": "Rua 14",
        "zipcode": "13573-078"
    },
    {
        "city": "Sao Carlos",
        "state": "SP",
        "district": "Parque Santa Felicia Jardim",
        "street": "Rua Antonio Carlos Ferraz De Salles",
        "zipcode": "13563-420"
    },
    {
        "city": "Sao Carlos",
        "state": "SP",
        "district": "Loteamento Municipal Sao Carlos 3",
        "street": "Rua Italo Waldomiro Gullo",
        "zipcode": "13563-140"
    },
    {
        "city": "Sao Carlos",
        "state": "SP",
        "district": "Parque Santa Felicia Jardim",
        "street": "Rua Roberto De Jesus Affonso",
        "zipcode": "13562-130"
    },
    {
        "city": "Sao Carlos",
        "state": "SP",
        "district": "Parque Santa Felicia Jardim",
        "street": "Rua Luiz Pedro Biachini",
        "zipcode": "13563-010"
    },
    {
        "city": "Sao Carlos",
        "state": "SP",
        "district": "Cidade Aracy",
        "street": "Rua 11 K",
        "zipcode": "13573-040"
    },
    {
        "city": "Sao Carlos",
        "state": "SP",
        "district": "Loteamento Municipal Sao Carlos 3",
        "street": "Rua Esther Marchetti",
        "zipcode": "13563-400"
    },
    {
        "city": "Sao Carlos",
        "state": "SP",
        "district": "Cidade Aracy",
        "street": "Rua 12 L",
        "zipcode": "13573-042"
    },
    {
        "city": "Sao Carlos",
        "state": "SP",
        "district": "Vila Sao Caetano",
        "street": "Rua Toto Leite",
        "zipcode": "13567-450"
    },
    {
        "city": "Sao Carlos",
        "state": "SP",
        "district": "Parque Paraiso",
        "street": "Rua Joao Baptista De Toledo",
        "zipcode": "13562-370"
    },
    {
        "city": "Sao Carlos",
        "state": "SP",
        "district": "Vila Deriggi",
        "street": "Rua Bruno Giongo",
        "zipcode": "13569-260"
    },
    {
        "city": "Sao Carlos",
        "state": "SP",
        "district": "Vila Celina",
        "street": "Rua Luiz Vaz De Camoes",
        "zipcode": "13566-420"
    },
    {
        "city": "Sao Carlos",
        "state": "SP",
        "district": "Cidade Aracy",
        "street": "Rua 6 F",
        "zipcode": "13573-030"
    },
    {
        "city": "Sao Carlos",
        "state": "SP",
        "district": "Portal Do Sol",
        "street": "Rua Prof. Helio Palo",
        "zipcode": "13569-410"
    },
    {
        "city": "Sao Carlos",
        "state": "SP",
        "district": "Parque Santa Felicia Jardim",
        "street": "Rua Emilio Mario Ribas",
        "zipcode": "13563-060"
    },
    {
        "city": "Sao Carlos",
        "state": "SP",
        "district": "Vila Deriggi",
        "street": "Rua Giovanni Rossi",
        "zipcode": "13569-280"
    },
    {
        "city": "Sao Carlos",
        "state": "SP",
        "district": "Vila Faria",
        "street": "Rua Germano Fehr",
        "zipcode": "13569-120"
    },
    {
        "city": "Sao Carlos",
        "state": "SP",
        "district": "Loteamento Municipal Sao Carlos 3",
        "street": "Rua Brasilino Vicente Silva",
        "zipcode": "13563-370"
    },
    {
        "city": "Sao Carlos",
        "state": "SP",
        "district": "Jardim Sao Paulo",
        "street": "Rua Salomao Assef",
        "zipcode": "13570-310"
    },
    {
        "city": "Sao Carlos",
        "state": "SP",
        "district": "Vila Brasilia",
        "street": "Rua Eugenio De Andrade Egas",
        "zipcode": "13566-310"
    },
    {
        "city": "Sao Carlos",
        "state": "SP",
        "district": "Jardim Nova Sao Calors",
        "street": "Rua Deolindo Raimundo",
        "zipcode": "13570-220"
    },
    {
        "city": "Sao Carlos",
        "state": "SP",
        "district": "Vila Faria",
        "street": "Rua Da Imprensa",
        "zipcode": "13569-170"
    },
    {
        "city": "Sao Carlos",
        "state": "SP",
        "district": "Cidade Aracy",
        "street": "Rua 51",
        "zipcode": "13573-152"
    },
    {
        "city": "Sao Carlos",
        "state": "SP",
        "district": "Vila Sao Jose",
        "street": "Rua Dr Walter Camargo Schultzer",
        "zipcode": "13567-410"
    },
    {
        "city": "Sao Carlos",
        "state": "SP",
        "district": "Loteamento Municipal Sao Carlos 3",
        "street": "Rua Dr Nestor De Campos",
        "zipcode": "13562-040"
    },
    {
        "city": "Sao Carlos",
        "state": "SP",
        "district": "Cidade Aracy",
        "street": "Rua 7 G",
        "zipcode": "13573-032"
    },
    {
        "city": "Sao Carlos",
        "state": "SP",
        "district": "Vila Nery",
        "street": "Praça Arcesp",
        "zipcode": "13569-165"
    },
    {
        "city": "Sao Carlos",
        "state": "SP",
        "district": "Vila Alpes",
        "street": "Rua Antonio Pirolla",
        "zipcode": "13570-100"
    },
    {
        "city": "Sao Carlos",
        "state": "SP",
        "district": "Jardim Real",
        "street": "Travessa Neg Fiori",
        "zipcode": "13567-185"
    },
    {
        "city": "Sao Carlos",
        "state": "SP",
        "district": "Parque Santa Felicia Jardim",
        "street": "Rua Luiz Procopio Araujo Ferraz",
        "zipcode": "13563-000"
    },
    {
        "city": "Sao Carlos",
        "state": "SP",
        "district": "Jardim Nova Sao Calors",
        "street": "Rua Antonio Rossette",
        "zipcode": "13570-250"
    },
    {
        "city": "Sao Carlos",
        "state": "SP",
        "district": "Vila Jacobucci",
        "street": "Rua Antonio Rogano",
        "zipcode": "13567-340"
    },
    {
        "city": "Sao Carlos",
        "state": "SP",
        "district": "Vila Nossa Senhora De Fatima",
        "street": "Rua Francisco Crestana",
        "zipcode": "13567-380"
    },
    {
        "city": "Sao Carlos",
        "state": "SP",
        "district": "Vila Faria",
        "street": "Rua Abel Giongo",
        "zipcode": "13569-100"
    },
    {
        "city": "Sao Carlos",
        "state": "SP",
        "district": "Vila Faria",
        "street": "Rua Marechal Deodoro",
        "zipcode": "13569-130"
    },
    {
        "city": "Sao Carlos",
        "state": "SP",
        "district": "Cidade Jardim",
        "street": "Praça Da Independencia",
        "zipcode": "13566-315"
    },
    {
        "city": "Sao Carlos",
        "state": "SP",
        "district": "Vila Celina",
        "street": "Rua Anita Stella",
        "zipcode": "13566-390"
    },
    {
        "city": "Sao Carlos",
        "state": "SP",
        "district": "Chacara Parque Club",
        "street": "Rua Crecensio Coca",
        "zipcode": "13567-630"
    },
    {
        "city": "Sao Carlos",
        "state": "SP",
        "district": "Cidade Aracy",
        "street": "Rua 27",
        "zipcode": "13573-074"
    },
    {
        "city": "Sao Carlos",
        "state": "SP",
        "district": "Jardim Cardinalli",
        "street": "Rua Toto Leite",
        "zipcode": "13569-250"
    },
    {
        "city": "Sao Carlos",
        "state": "SP",
        "district": "Parque Santa Felicia Jardim",
        "street": "Rua Domingos Diegues",
        "zipcode": "13563-020"
    },
    {
        "city": "Sao Carlos",
        "state": "SP",
        "district": "Vila Brasilia",
        "street": "Rua Abrao Simao",
        "zipcode": "13566-320"
    },
    {
        "city": "Sao Carlos",
        "state": "SP",
        "district": "Jardim Nova Sao Calors",
        "street": "Rua Osvaldo De Santi",
        "zipcode": "13570-280"
    },
    {
        "city": "Sao Carlos",
        "state": "SP",
        "district": "Vila Marcelino",
        "street": "Rua Raimundo Correa",
        "zipcode": "13570-000"
    },
    {
        "city": "Sao Carlos",
        "state": "SP",
        "district": "Cidade Jardim",
        "street": "Praça Duque De Caxias",
        "zipcode": "13566-335"
    },
    {
        "city": "Sao Carlos",
        "state": "SP",
        "district": "Vila Faria",
        "street": "Rua Dr Astor Dias De Andrade",
        "zipcode": "13569-090"
    },
    {
        "city": "Sao Carlos",
        "state": "SP",
        "district": "Jardim Ricetti",
        "street": "Rua Manoel Peres Dias",
        "zipcode": "13570-260"
    },
    {
        "city": "Sao Carlos",
        "state": "SP",
        "district": "Vila Alpes",
        "street": "Rua Sargento Joao S Rocha Filho",
        "zipcode": "13570-120"
    },
    {
        "city": "Sao Carlos",
        "state": "SP",
        "district": "Jardim Beatriz",
        "street": "Rua Angelo Passeri",
        "zipcode": "13562-080"
    },
    {
        "city": "Sao Carlos",
        "state": "SP",
        "district": "Vila Izabel",
        "street": "Rua Carlos Fleischman",
        "zipcode": "13570-490"
    },
    {
        "city": "Sao Carlos",
        "state": "SP",
        "district": "Jardim Cruzeiro Do Sul",
        "street": "Rua Sergipe",
        "zipcode": "13572-280"
    },
    {
        "city": "Sao Carlos",
        "state": "SP",
        "district": "Vila Boa Vista",
        "street": "Rua Francisco Fiorentino",
        "zipcode": "13574-110"
    },
    {
        "city": "Sao Carlos",
        "state": "SP",
        "district": "Jardim Sao Paulo",
        "street": "Rua Alfredo Petrilli",
        "zipcode": "13570-350"
    },
    {
        "city": "Sao Carlos",
        "state": "SP",
        "district": "Vila Alpes",
        "street": "Rua Marcilio Barbieri",
        "zipcode": "13570-520"
    },
    {
        "city": "Sao Carlos",
        "state": "SP",
        "district": "Vila Alpes",
        "street": "Praça Padre Faustino",
        "zipcode": "13570-725"
    },
    {
        "city": "Sao Carlos",
        "state": "SP",
        "district": "Vila Conceicao",
        "street": "Rua Joaquim Antonio Zantut",
        "zipcode": "13572-480"
    },
    {
        "city": "Sao Carlos",
        "state": "SP",
        "district": "Jardim Beatriz",
        "street": "Rua Irineu Rios",
        "zipcode": "13575-200"
    },
    {
        "city": "Sao Carlos",
        "state": "SP",
        "district": "Vila Pelicano",
        "street": "Rua Cincinato Braga",
        "zipcode": "13574-350"
    },
    {
        "city": "Sao Carlos",
        "state": "SP",
        "district": "Vila Boa Vista 1",
        "street": "Rua Antonio Frederico Ozanan",
        "zipcode": "13575-290"
    },
    {
        "city": "Sao Carlos",
        "state": "SP",
        "district": "Vila Conceicao",
        "street": "Rua Geraldo Bretas",
        "zipcode": "13572-490"
    },
    {
        "city": "Sao Carlos",
        "state": "SP",
        "district": "Jardim Medeiros",
        "street": "Avenida 1",
        "zipcode": "13575-455"
    },
    {
        "city": "Sao Carlos",
        "state": "SP",
        "district": "Vila Carmem",
        "street": "Rua Dr Pedro Raimundo",
        "zipcode": "13575-470"
    },
    {
        "city": "Sao Carlos",
        "state": "SP",
        "district": "Vila Prado",
        "street": "Rua Joao Lourenco",
        "zipcode": "13572-030"
    },
    {
        "city": "Sao Carlos",
        "state": "SP",
        "district": "Jardim Beatriz",
        "street": "Rua Dr Aureliano Guimaraes",
        "zipcode": "13575-320"
    },
    {
        "city": "Sao Carlos",
        "state": "SP",
        "district": "Vila Pelicano",
        "street": "Rua Roberto Simonsen",
        "zipcode": "13574-330"
    },
    {
        "city": "Sao Carlos",
        "state": "SP",
        "district": "Jardim Pacaembu",
        "street": "Rua Piaui",
        "zipcode": "13572-300"
    },
    {
        "city": "Sao Carlos",
        "state": "SP",
        "district": "Jardim Paulista",
        "street": "Avenida Paulista",
        "zipcode": "13574-600"
    },
    {
        "city": "Sao Carlos",
        "state": "SP",
        "district": "Cidade Aracy",
        "street": "Rua 78",
        "zipcode": "13573-200"
    },
    {
        "city": "Sao Carlos",
        "state": "SP",
        "district": "Jardim Cruzeiro Do Sul",
        "street": "Rua Republica Do Libano",
        "zipcode": "13572-240"
    },
    {
        "city": "Sao Carlos",
        "state": "SP",
        "district": "Cidade Aracy",
        "street": "Rua 42",
        "zipcode": "13573-132"
    },
    {
        "city": "Sao Carlos",
        "state": "SP",
        "district": "Cidade Aracy",
        "street": "Rua 47",
        "zipcode": "13573-144"
    },
    {
        "city": "Sao Carlos",
        "state": "SP",
        "district": "Jardim Cruzeiro Do Sul",
        "street": "Rua Inaja",
        "zipcode": "13572-015"
    },
    {
        "city": "Sao Carlos",
        "state": "SP",
        "district": "Vila Boa Vista",
        "street": "Rua Prof. Helvideo Gouvea",
        "zipcode": "13574-150"
    },
    {
        "city": "Sao Carlos",
        "state": "SP",
        "district": "Vila Marcelino",
        "street": "Rua Amadeu Amaral",
        "zipcode": "13570-680"
    },
    {
        "city": "Sao Carlos",
        "state": "SP",
        "district": "Cidade Aracy",
        "street": "Rua 49",
        "zipcode": "13573-148"
    },
    {
        "city": "Sao Carlos",
        "state": "SP",
        "district": "Vila Marcelino",
        "street": "Rua Vicente De Carvalho",
        "zipcode": "13570-690"
    },
    {
        "city": "Sao Carlos",
        "state": "SP",
        "district": "Jardim Maracana",
        "street": "Rodovia Washington Luiz",
        "zipcode": "13571-500"
    },
    {
        "city": "Sao Carlos",
        "state": "SP",
        "district": "Cidade Aracy",
        "street": "Rua 46",
        "zipcode": "13573-142"
    },
    {
        "city": "Sao Carlos",
        "state": "SP",
        "district": "Cidade Aracy",
        "street": "Rua 77",
        "zipcode": "13573-198"
    },
    {
        "city": "Sao Carlos",
        "state": "SP",
        "district": "Cidade Aracy",
        "street": "Rua 10 J",
        "zipcode": "13573-038"
    },
    {
        "city": "Sao Carlos",
        "state": "SP",
        "district": "Vila Marcelino",
        "street": "Rua Fagundes Varella",
        "zipcode": "13570-700"
    },
    {
        "city": "Sao Carlos",
        "state": "SP",
        "district": "Vila Boa Vista",
        "street": "Rua Joao Cristofaro Dos Reis",
        "zipcode": "13574-090"
    },
    {
        "city": "Sao Carlos",
        "state": "SP",
        "district": "Jardim Cruzeiro Do Sul",
        "street": "Rua Albertino Martins",
        "zipcode": "13572-270"
    },
    {
        "city": "Sao Carlos",
        "state": "SP",
        "district": "Vila Boa Vista 1",
        "street": "Rua Dr Joaquim Rodrigues De Siqueira",
        "zipcode": "13575-250"
    },
    {
        "city": "Sao Carlos",
        "state": "SP",
        "district": "Jardim Medeiros",
        "street": "Rua 12",
        "zipcode": "13575-441"
    },
    {
        "city": "Sao Carlos",
        "state": "SP",
        "district": "Vila Boa Vista 1",
        "street": "Rua Jeronimo Costa Terra",
        "zipcode": "13575-280"
    },
    {
        "city": "Sao Carlos",
        "state": "SP",
        "district": "Jardim Medeiros",
        "street": "Rua 15",
        "zipcode": "13575-435"
    },
    {
        "city": "Sao Carlos",
        "state": "SP",
        "district": "Cidade Aracy",
        "street": "Rua 43",
        "zipcode": "13573-134"
    },
    {
        "city": "Sao Carlos",
        "state": "SP",
        "district": "Jardim Medeiros",
        "street": "Rua 2",
        "zipcode": "13575-452"
    },
    {
        "city": "Sao Carlos",
        "state": "SP",
        "district": "Vila Boa Vista 1",
        "street": "Rua Coronel Domingos Marino De Azevedo",
        "zipcode": "13575-310"
    },
    {
        "city": "Sao Carlos",
        "state": "SP",
        "district": "Vila Conceicao",
        "street": "Rua Mauricio Valente Osorio",
        "zipcode": "13572-470"
    },
    {
        "city": "Sao Carlos",
        "state": "SP",
        "district": "Jardim Mercedes",
        "street": "Rua Domingos Teixeira De Mendonca",
        "zipcode": "13570-710"
    },
    {
        "city": "Sao Carlos",
        "state": "SP",
        "district": "Vila Morumbi",
        "street": "Travessa 1",
        "zipcode": "13572-145"
    },
    {
        "city": "Sao Carlos",
        "state": "SP",
        "district": "Vila Boa Vista",
        "street": "Praça Presidente Castelo Branco",
        "zipcode": "13574-050"
    },
    {
        "city": "Sao Carlos",
        "state": "SP",
        "district": "Cidade Aracy",
        "street": "Rua 50",
        "zipcode": "13573-150"
    },
    {
        "city": "Sao Carlos",
        "state": "SP",
        "district": "Cidade Aracy",
        "street": "Rua 44",
        "zipcode": "13573-136"
    },
    {
        "city": "Sao Carlos",
        "state": "SP",
        "district": "Jardim Pacaembu",
        "street": "Rua Goias",
        "zipcode": "13572-290"
    },
    {
        "city": "Sao Carlos",
        "state": "SP",
        "district": "Jardim Santa Tereza",
        "street": "Rua Coronel Leopoldo Prado",
        "zipcode": "13575-180"
    },
    {
        "city": "Sao Carlos",
        "state": "SP",
        "district": "Parque Sao Jose",
        "street": "Rua Jose Mancini",
        "zipcode": "13570-440"
    },
    {
        "city": "Sao Carlos",
        "state": "SP",
        "district": "Recreio Sao Judas Tadeu",
        "street": "Avenida Getulio Vargas",
        "zipcode": "13571-360"
    },
    {
        "city": "Sao Carlos",
        "state": "SP",
        "district": "Vila Prado",
        "street": "Rua Lucio Rodrigues",
        "zipcode": "13572-040"
    },
    {
        "city": "Sao Carlos",
        "state": "SP",
        "district": "Jardim Medeiros",
        "street": "Rua 11",
        "zipcode": "13575-445"
    },
    {
        "city": "Sao Carlos",
        "state": "SP",
        "district": "Vila Conceicao",
        "street": "Travessa 1",
        "zipcode": "13572-465"
    },
    {
        "city": "Sao Carlos",
        "state": "SP",
        "district": "Portal Do Sol",
        "street": "Rua Candido Goncalves",
        "zipcode": "13569-505"
    },
    {
        "city": "Sao Carlos",
        "state": "SP",
        "district": "Cidade Aracy",
        "street": "Rua 13 M",
        "zipcode": "13573-044"
    },
    {
        "city": "Sao Carlos",
        "state": "SP",
        "district": "Cidade Aracy",
        "street": "Rua 8 H",
        "zipcode": "13573-034"
    },
    {
        "city": "Sao Carlos",
        "state": "SP",
        "district": "Jardim Medeiros",
        "street": "Rua Almir J Tadeu Paschoali",
        "zipcode": "13575-242"
    },
    {
        "city": "Sao Carlos",
        "state": "SP",
        "district": "Cidade Aracy",
        "street": "Rua 91",
        "zipcode": "13573-222"
    },
    {
        "city": "Sao Carlos",
        "state": "SP",
        "district": "Vila Lutfalla",
        "street": "Rua Machado De Assis",
        "zipcode": "13570-610"
    },
    {
        "city": "Sao Carlos",
        "state": "SP",
        "district": "Jardim Cruzeiro Do Sul",
        "street": "Rua Nacoes Unidas",
        "zipcode": "13572-250"
    },
    {
        "city": "Sao Carlos",
        "state": "SP",
        "district": "Vila Prado",
        "street": "Rua Dona Ana Prado",
        "zipcode": "13574-000"
    },
    {
        "city": "Sao Carlos",
        "state": "SP",
        "district": "Vila Boa Vista",
        "street": "Rua Benjamin Constant",
        "zipcode": "13574-080"
    },
    {
        "city": "Sao Carlos",
        "state": "SP",
        "district": "Jardim Sao Carlos",
        "street": "Rua Jesuino De Arruda",
        "zipcode": "13560-060"
    },
    {
        "city": "Sao Carlos",
        "state": "SP",
        "district": "Jardim Sao Carlos",
        "street": "Rua Treze De Maio",
        "zipcode": "13560-130"
    },
    {
        "city": "Sao Carlos",
        "state": "SP",
        "district": "Centro",
        "street": "Rua Rafael De Abreu Sampaio Vidal",
        "zipcode": "13560-390"
    },
    {
        "city": "Sao Carlos",
        "state": "SP",
        "district": "Parque Santa Monica",
        "street": "Rua Quinze De Novembro",
        "zipcode": "13561-160"
    },
    {
        "city": "Sao Carlos",
        "state": "SP",
        "district": "Jardim Sao Carlos",
        "street": "Avenida Comendador Alfredo Maffei",
        "zipcode": "13561-240"
    },
    {
        "city": "Sao Carlos",
        "state": "SP",
        "district": "Jardim Alvorada",
        "street": "Rua Francisca Noronha Lisboa",
        "zipcode": "13562-050"
    },
    {
        "city": "Sao Carlos",
        "state": "SP",
        "district": "Loteamento Municipal Sao Carlos 3",
        "street": "Rua Danilo Micalli",
        "zipcode": "13563-410"
    },
    {
        "city": "Sao Carlos",
        "state": "SP",
        "district": "Vila Monteiro (Gleba 1)",
        "street": "Rua Silverio Ignarra Sobrinho",
        "zipcode": "13560-720"
    },
    {
        "city": "Sao Carlos",
        "state": "SP",
        "district": "Cidade Aracy",
        "street": "Rua 45",
        "zipcode": "13573-138"
    },
    {
        "city": "Sao Carlos",
        "state": "SP",
        "district": "Jardim Medeiros",
        "street": "Rua 4",
        "zipcode": "13575-454"
    },
    {
        "city": "Sao Carlos",
        "state": "SP",
        "district": "Recreio Sao Judas Tadeu",
        "street": "Avenida Getulio Vargas",
        "zipcode": "13571-350"
    },
    {
        "city": "Sao Carlos",
        "state": "SP",
        "district": "Jardim Ricetti",
        "street": "Rua Major Manoel Antonio De Mattos",
        "zipcode": "13560-800"
    },
    {
        "city": "Sao Carlos",
        "state": "SP",
        "district": "Vila Brasilia",
        "street": "Rua Carmen Munhos Narvais",
        "zipcode": "13566-110"
    },
    {
        "city": "Sao Carlos",
        "state": "SP",
        "district": "Parque Santa Felicia Jardim",
        "street": "Rua Marcos Vinicius De Mello Moraes",
        "zipcode": "13563-030"
    },
    {
        "city": "Sao Carlos",
        "state": "SP",
        "district": "Vila Brasilia",
        "street": "Rua Narciso Lazarini",
        "zipcode": "13566-170"
    },
    {
        "city": "Sao Carlos",
        "state": "SP",
        "district": "Vila Boa Vista",
        "street": "Rua Francisco De Oliveira Penteado",
        "zipcode": "13574-310"
    },
    {
        "city": "Sao Carlos",
        "state": "SP",
        "district": "Vila Celina",
        "street": "Rua Arthur De Oliveira Lima",
        "zipcode": "13566-380"
    },
    {
        "city": "Sao Carlos",
        "state": "SP",
        "district": "Vila Sao Jose",
        "street": "Rua Hipolito Jose Da Costa",
        "zipcode": "13567-270"
    },
    {
        "city": "Sao Carlos",
        "state": "SP",
        "district": "Centro",
        "street": "Praça Antonio Prado",
        "zipcode": "13560-650"
    },
    {
        "city": "Sao Carlos",
        "state": "SP",
        "district": "Vila Faria",
        "street": "Rua Francisco Ferreira",
        "zipcode": "13569-110"
    },
    {
        "city": "Sao Carlos",
        "state": "SP",
        "district": "Jardim Medeiros",
        "street": "Rua 16",
        "zipcode": "13575-431"
    },
    {
        "city": "Sao Carlos",
        "state": "SP",
        "district": "Jardim Centenario",
        "street": "Rua Benedita Stall Sodre",
        "zipcode": "13564-320"
    },
    {
        "city": "Sao Carlos",
        "state": "SP",
        "district": "Jardim Ricetti",
        "street": "Rua Prof. Paulo Monte Serrat",
        "zipcode": "13570-240"
    },
    {
        "city": "Sao Carlos",
        "state": "SP",
        "district": "Parque Paraiso",
        "street": "Rua Noemia Sampaio De Souza",
        "zipcode": "13562-360"
    },
    {
        "city": "Sao Carlos",
        "state": "SP",
        "district": "Jardim Nova Sao Calors",
        "street": "Rua Orlando Marques",
        "zipcode": "13570-290"
    },
    {
        "city": "Sao Carlos",
        "state": "SP",
        "district": "Vila Carmem",
        "street": "Rua Bispo Cezar Dacoso Filho",
        "zipcode": "13575-010"
    },
    {
        "city": "Sao Carlos",
        "state": "SP",
        "district": "Jardim Cardinalli",
        "street": "Rua General Osorio",
        "zipcode": "13569-320"
    },
    {
        "city": "Sao Carlos",
        "state": "SP",
        "district": "Vila Boa Vista 1",
        "street": "Rua Capitao Manoel Alves Carneiro",
        "zipcode": "13575-210"
    },
    {
        "city": "Sao Carlos",
        "state": "SP",
        "district": "Chacara Parollo",
        "street": "Rua Sao Sebastiao",
        "zipcode": "13569-210"
    },
    {
        "city": "Sao Carlos",
        "state": "SP",
        "district": "Vila Nossa Senhora De Fatima",
        "street": "Rua Joao Nonato",
        "zipcode": "13567-370"
    },
    {
        "city": "Sao Carlos",
        "state": "SP",
        "district": "Parque Primavera",
        "street": "Rua Onofre Goncalves",
        "zipcode": "13567-400"
    },
    {
        "city": "Sao Carlos",
        "state": "SP",
        "district": "Jardim Santa Tereza",
        "street": "Rua Carlos Rodrigues De Sampaio",
        "zipcode": "13572-340"
    },
    {
        "city": "Sao Carlos",
        "state": "SP",
        "district": "Centro",
        "street": "Praça Da Bandeira",
        "zipcode": "13560-600"
    },
    {
        "city": "Sao Carlos",
        "state": "SP",
        "district": "Jardim Cruzeiro Do Sul",
        "street": "Rua Salomao Schevs",
        "zipcode": "13572-260"
    },
    {
        "city": "Sao Carlos",
        "state": "SP",
        "district": "Cidade Aracy",
        "street": "Rua 76",
        "zipcode": "13573-196"
    },
    {
        "city": "Sao Carlos",
        "state": "SP",
        "district": "Vila Alpes",
        "street": "Rua Dino Guelfi",
        "zipcode": "13570-445"
    },
    {
        "city": "Sao Carlos",
        "state": "SP",
        "district": "Vila Boa Vista",
        "street": "Rua Luiz Carlos De Arruda Mendes",
        "zipcode": "13574-120"
    },
    {
        "city": "Sao Carlos",
        "state": "SP",
        "district": "Loteamento Habit Sao Carlos I",
        "street": "Rua Dr Procopio Toledo Malta",
        "zipcode": "13563-440"
    },
    {
        "city": "Sao Carlos",
        "state": "SP",
        "district": "Vila Monteiro (Gleba 1)",
        "street": "Rua Antonio Rodrigues Cajado",
        "zipcode": "13560-770"
    },
    {
        "city": "Sao Carlos",
        "state": "SP",
        "district": "Cidade Aracy",
        "street": "Rua 9 I",
        "zipcode": "13573-036"
    },
    {
        "city": "Sao Carlos",
        "state": "SP",
        "district": "Jardim Beatriz",
        "street": "Rua Herminio Bernasconi",
        "zipcode": "13575-190"
    },
    {
        "city": "Sao Carlos",
        "state": "SP",
        "district": "Jardim Nova Sao Calors",
        "street": "Rua Dalmo Nogueira Do Valle",
        "zipcode": "13570-270"
    },
    {
        "city": "Sao Carlos",
        "state": "SP",
        "district": "Jardim Alvorada",
        "street": "Rua Dr Domingos Faro",
        "zipcode": "13562-320"
    },
    {
        "city": "Sao Carlos",
        "state": "SP",
        "district": "Vila Vista Alegre",
        "street": "Avenida Capitao Luiz Brandao",
        "zipcode": "13567-390"
    },
    {
        "city": "Sao Carlos",
        "state": "SP",
        "district": "Jardim Paraiso",
        "street": "Rua Mario Azevedo Correa",
        "zipcode": "13561-211"
    },
    {
        "city": "Sao Carlos",
        "state": "SP",
        "district": "Vila Pelicano",
        "street": "Rua Marcolino Pelicano",
        "zipcode": "13574-340"
    },
    {
        "city": "Sao Carlos",
        "state": "SP",
        "district": "Vila Boa Vista",
        "street": "Rua Quintino Bocaiuva",
        "zipcode": "13574-077"
    }
]