[
    {
        "city": "Sao Roque",
        "state": "SP",
        "district": "Jardim Brasilia",
        "street": "Rua Dois",
        "zipcode": "18131-710"
    },
    {
        "city": "Sao Roque",
        "state": "SP",
        "district": "Vila Sao Rafael",
        "street": "Rua Uruguai",
        "zipcode": "18131-640"
    },
    {
        "city": "Sao Roque",
        "state": "SP",
        "district": "Centro",
        "street": "Rua Quintino Bocaiuva",
        "zipcode": "18131-005"
    },
    {
        "city": "Sao Roque",
        "state": "SP",
        "district": "Vila Sao Rafael",
        "street": "Rua Paraguai",
        "zipcode": "18131-660"
    },
    {
        "city": "Sao Roque",
        "state": "SP",
        "district": "Vila Sao Rafael",
        "street": "Rua Equador",
        "zipcode": "18131-670"
    },
    {
        "city": "Sao Roque",
        "state": "SP",
        "district": "Jardim Villaca",
        "street": "Rua Francisco Bocato",
        "zipcode": "18135-160"
    },
    {
        "city": "Sao Roque",
        "state": "SP",
        "district": "Centro",
        "street": "Rua Amador Marques Da Silva",
        "zipcode": "18130-260"
    },
    {
        "city": "Sao Roque",
        "state": "SP",
        "district": "Centro",
        "street": "Avenida Santa Rita",
        "zipcode": "18130-570"
    },
    {
        "city": "Sao Roque",
        "state": "SP",
        "district": "Vila Nova Sao Roque",
        "street": "Rua Cinco",
        "zipcode": "18131-140"
    },
    {
        "city": "Sao Roque",
        "state": "SP",
        "district": "Vila Nova Sao Roque",
        "street": "Rua Jayme Carvalho De Brito",
        "zipcode": "18131-170"
    },
    {
        "city": "Sao Roque",
        "state": "SP",
        "district": "Vila Nova Sao Roque",
        "street": "Rua Alcides Vieira",
        "zipcode": "18131-200"
    },
    {
        "city": "Sao Roque",
        "state": "SP",
        "district": "Vila Nova Sao Roque",
        "street": "Rua Barra Bonita",
        "zipcode": "18131-390"
    },
    {
        "city": "Sao Roque",
        "state": "SP",
        "district": "Vila Nova Sao Roque",
        "street": "Rua Bariri",
        "zipcode": "18131-400"
    },
    {
        "city": "Sao Roque",
        "state": "SP",
        "district": "Vila Nova Sao Roque",
        "street": "Rua Zacarias Miranda",
        "zipcode": "18131-430"
    },
    {
        "city": "Sao Roque",
        "state": "SP",
        "district": "Centro",
        "street": "Avenida Brasil",
        "zipcode": "18134-280"
    },
    {
        "city": "Sao Roque",
        "state": "SP",
        "district": "Centro",
        "street": "Avenida Getulio Vargas",
        "zipcode": "18132-020"
    },
    {
        "city": "Sao Roque",
        "state": "SP",
        "district": "Marmeleiro",
        "street": "Rua A",
        "zipcode": "18131-740"
    },
    {
        "city": "Sao Roque",
        "state": "SP",
        "district": "Jardim Brasil",
        "street": "Rua Das Margaridas",
        "zipcode": "18133-160"
    },
    {
        "city": "Sao Roque",
        "state": "SP",
        "district": "Centro",
        "street": "Rua Epaminondas De Oliveira",
        "zipcode": "18134-320"
    },
    {
        "city": "Sao Roque",
        "state": "SP",
        "district": "Centro",
        "street": "Rua Marino Camurca",
        "zipcode": "18134-290"
    },
    {
        "city": "Sao Roque",
        "state": "SP",
        "district": "Jardim Brasil",
        "street": "Rua Tres",
        "zipcode": "18133-150"
    },
    {
        "city": "Sao Roque",
        "state": "SP",
        "district": "Jardim Brasilia",
        "street": "Rua Jose Marigliani",
        "zipcode": "18131-720"
    },
    {
        "city": "Sao Roque",
        "state": "SP",
        "district": "Vila Nova Sao Roque",
        "street": "Rua B",
        "zipcode": "18131-410"
    },
    {
        "city": "Sao Roque",
        "state": "SP",
        "district": "Jardim Guacu Ii",
        "street": "Rua Dois",
        "zipcode": "18132-530"
    },
    {
        "city": "Sao Roque",
        "state": "SP",
        "district": "Centro",
        "street": "Travessa Santa Quiteria",
        "zipcode": "18132-030"
    },
    {
        "city": "Sao Roque",
        "state": "SP",
        "district": "Centro",
        "street": "Rua Santa Izabel",
        "zipcode": "18130-230"
    },
    {
        "city": "Sao Roque",
        "state": "SP",
        "district": "Vila Nova Sao Roque",
        "street": "Rua Altinopolis",
        "zipcode": "18131-370"
    },
    {
        "city": "Sao Roque",
        "state": "SP",
        "district": "Jardim Villaca",
        "street": "Rua Santa Izabel",
        "zipcode": "18135-370"
    },
    {
        "city": "Sao Roque",
        "state": "SP",
        "district": "Jardim Carambei",
        "street": "Rua Tres",
        "zipcode": "18132-160"
    },
    {
        "city": "Sao Roque",
        "state": "SP",
        "district": "Centro",
        "street": "Rua Sao Pedro",
        "zipcode": "18130-560"
    },
    {
        "city": "Sao Roque",
        "state": "SP",
        "district": "Vila Nova Sao Roque",
        "street": "Rua Ermete Ghissardi",
        "zipcode": "18131-210"
    },
    {
        "city": "Sao Roque",
        "state": "SP",
        "district": "Vila Nova Sao Roque",
        "street": "Rua Jaboticabal",
        "zipcode": "18131-440"
    },
    {
        "city": "Sao Roque",
        "state": "SP",
        "district": "Vila Aguiar",
        "street": "Rua Pedro Dante Pieroni",
        "zipcode": "18130-830"
    },
    {
        "city": "Sao Roque",
        "state": "SP",
        "district": "Vila Mike",
        "street": "Rua Das Papoulas",
        "zipcode": "18136-260"
    },
    {
        "city": "Sao Roque",
        "state": "SP",
        "district": "Centro",
        "street": "Largo Aracai",
        "zipcode": "18130-530"
    },
    {
        "city": "Sao Roque",
        "state": "SP",
        "district": "Vila Sao Rafael",
        "street": "Rua Mexico",
        "zipcode": "18131-630"
    },
    {
        "city": "Sao Roque",
        "state": "SP",
        "district": "Jardim Nova Brasilia",
        "street": "Rua Joao De Candinha",
        "zipcode": "18131-620"
    },
    {
        "city": "Sao Roque",
        "state": "SP",
        "district": "Paisagem Colonial",
        "street": "Rua Dois",
        "zipcode": "18136-760"
    },
    {
        "city": "Sao Roque",
        "state": "SP",
        "district": "Centro",
        "street": "Avenida Antonino Dias Bastos",
        "zipcode": "18134-310"
    },
    {
        "city": "Sao Roque",
        "state": "SP",
        "district": "Jardim Carambei",
        "street": "Rua Dois",
        "zipcode": "18132-150"
    },
    {
        "city": "Sao Roque",
        "state": "SP",
        "district": "Vila Junqueira",
        "street": "Rua Santa Cruz",
        "zipcode": "18136-065"
    },
    {
        "city": "Sao Roque",
        "state": "SP",
        "district": "Centro",
        "street": "Rua Dr Jose Brenha Ribeiro",
        "zipcode": "18134-300"
    },
    {
        "city": "Sao Roque",
        "state": "SP",
        "district": "Centro",
        "street": "Praça Da Republica",
        "zipcode": "18132-010"
    },
    {
        "city": "Sao Roque",
        "state": "SP",
        "district": "Vila Sao Rafael",
        "street": "Rua Chile",
        "zipcode": "18131-680"
    },
    {
        "city": "Sao Roque",
        "state": "SP",
        "district": "Centro",
        "street": "Rua Dom Pedro Ii",
        "zipcode": "18130-250"
    },
    {
        "city": "Sao Roque",
        "state": "SP",
        "district": "Centro",
        "street": "Rua Antonio Cavaglieri",
        "zipcode": "18131-050"
    },
    {
        "city": "Sao Roque",
        "state": "SP",
        "district": "Parque Alianca",
        "street": "Praça Safira",
        "zipcode": "18136-580"
    },
    {
        "city": "Sao Roque",
        "state": "SP",
        "district": "Vila Irene",
        "street": "Rua Paraiso",
        "zipcode": "18132-120"
    },
    {
        "city": "Sao Roque",
        "state": "SP",
        "district": "Jardim Brasil",
        "street": "Rua Amapa",
        "zipcode": "18133-140"
    },
    {
        "city": "Sao Roque",
        "state": "SP",
        "district": "Centro",
        "street": "Rua Querino Capuzzo",
        "zipcode": "18130-550"
    },
    {
        "city": "Sao Roque",
        "state": "SP",
        "district": "Vila Mike",
        "street": "Rua Novellara",
        "zipcode": "18136-270"
    },
    {
        "city": "Sao Roque",
        "state": "SP",
        "district": "Centro",
        "street": "Rua Santana",
        "zipcode": "18130-240"
    },
    {
        "city": "Sao Roque",
        "state": "SP",
        "district": "Centro",
        "street": "Rua Dos Incorporadores",
        "zipcode": "18131-085"
    },
    {
        "city": "Sao Roque",
        "state": "SP",
        "district": "Vila Nova Sao Roque",
        "street": "Rua Auriflama",
        "zipcode": "18131-380"
    },
    {
        "city": "Sao Roque",
        "state": "SP",
        "district": "Vila Nova Sao Roque",
        "street": "Rua Manoel Lessa",
        "zipcode": "18131-420"
    },
    {
        "city": "Sao Roque",
        "state": "SP",
        "district": "Jardim Bandeirantes",
        "street": "Rua Sem Nome",
        "zipcode": "18134-380"
    },
    {
        "city": "Sao Roque",
        "state": "SP",
        "district": "Jardim Brasilia",
        "street": "Rua Quatro",
        "zipcode": "18131-730"
    },
    {
        "city": "Sao Roque",
        "state": "SP",
        "district": "Vila Junqueira",
        "street": "Rua Humberta Pesci",
        "zipcode": "18136-190"
    },
    {
        "city": "Sao Roque",
        "state": "SP",
        "district": "Vila Junqueira",
        "street": "Rua Santa Luiza",
        "zipcode": "18136-000"
    },
    {
        "city": "Sao Roque",
        "state": "SP",
        "district": "Vila Nova Sao Roque",
        "street": "Rua Jose Carlassara Junior",
        "zipcode": "18131-190"
    },
    {
        "city": "Sao Roque",
        "state": "SP",
        "district": "Vila Sao Rafael",
        "street": "Rua Argentina",
        "zipcode": "18131-690"
    },
    {
        "city": "Sao Roque",
        "state": "SP",
        "district": "Parque Alianca",
        "street": "Rua Turmalina",
        "zipcode": "18136-560"
    },
    {
        "city": "Sao Roque",
        "state": "SP",
        "district": "Centro",
        "street": "Avenida Brasil",
        "zipcode": "18132-130"
    },
    {
        "city": "Sao Roque",
        "state": "SP",
        "district": "Jardim Brasilia",
        "street": "Rua Um",
        "zipcode": "18131-700"
    },
    {
        "city": "Sao Roque",
        "state": "SP",
        "district": "Esplanada Mendes Moraes",
        "street": "Travessa Pinheiros",
        "zipcode": "18130-730"
    },
    {
        "city": "Sao Roque",
        "state": "SP",
        "district": "Jardim Brasil",
        "street": "Rua Iris",
        "zipcode": "18133-235"
    },
    {
        "city": "Sao Roque",
        "state": "SP",
        "district": "Jardim Guacu I",
        "street": "Rodovia Livio Tagriassachi",
        "zipcode": "18132-510"
    },
    {
        "city": "Sao Roque",
        "state": "SP",
        "district": "Vila Nova Sao Roque",
        "street": "Rua Alvaro Villaca",
        "zipcode": "18131-180"
    },
    {
        "city": "Sao Roque",
        "state": "SP",
        "district": "Vila Sao Rafael",
        "street": "Rua Peru",
        "zipcode": "18131-650"
    },
    {
        "city": "Sao Roque",
        "state": "SP",
        "district": "Parque Alianca",
        "street": "Rua Safira",
        "zipcode": "18136-570"
    },
    {
        "city": "Sao Roque",
        "state": "SP",
        "district": "Centro",
        "street": "Largo Alfredo Salvatti",
        "zipcode": "18130-540"
    },
    {
        "city": "Sao Roque",
        "state": "SP",
        "district": "Vila Mike",
        "street": "Rua Sao Paulo",
        "zipcode": "18135-010"
    },
    {
        "city": "Sao Roque",
        "state": "SP",
        "district": "Parque Alianca",
        "street": "Rua Da Platina",
        "zipcode": "18136-550"
    }
]