[
    {
        "city": "Sao Bernardo Do Campo",
        "state": "SP",
        "district": "Estoril",
        "street": "Praça Sagres",
        "zipcode": "09831-030"
    },
    {
        "city": "Sao Bernardo Do Campo",
        "state": "SP",
        "district": "Vila Baeta Neves",
        "street": "Praça Samuel Wainer",
        "zipcode": "09760-270"
    },
    {
        "city": "Sao Bernardo Do Campo",
        "state": "SP",
        "district": "Vila Helena",
        "street": "Praça Dona Nene",
        "zipcode": "09635-070"
    },
    {
        "city": "Sao Bernardo Do Campo",
        "state": "SP",
        "district": "Jardim Silvina",
        "street": "Praça Duarte Da Costa",
        "zipcode": "09791-010"
    },
    {
        "city": "Sao Bernardo Do Campo",
        "state": "SP",
        "district": "Centro",
        "street": "Rua Mario Horita",
        "zipcode": "09720-310"
    },
    {
        "city": "Sao Bernardo Do Campo",
        "state": "SP",
        "district": "Vila Mussoline",
        "street": "Avenida Lions",
        "zipcode": "09622-000"
    },
    {
        "city": "Sao Bernardo Do Campo",
        "state": "SP",
        "district": "Estoril",
        "street": "Rua Busaco",
        "zipcode": "09831-050"
    },
    {
        "city": "Sao Bernardo Do Campo",
        "state": "SP",
        "district": "Estoril",
        "street": "Rua Mafra",
        "zipcode": "09831-060"
    },
    {
        "city": "Sao Bernardo Do Campo",
        "state": "SP",
        "district": "Estoril",
        "street": "Rua Viras",
        "zipcode": "09831-090"
    },
    {
        "city": "Sao Bernardo Do Campo",
        "state": "SP",
        "district": "Montanhao",
        "street": "Passagem Terra",
        "zipcode": "09781-560"
    },
    {
        "city": "Sao Bernardo Do Campo",
        "state": "SP",
        "district": "Pauliceia",
        "street": "Praça Livio Grotti",
        "zipcode": "09692-070"
    },
    {
        "city": "Sao Bernardo Do Campo",
        "state": "SP",
        "district": "Jardim Copacabana",
        "street": "Praça Bruno Tanchella",
        "zipcode": "09607-065"
    },
    {
        "city": "Sao Bernardo Do Campo",
        "state": "SP",
        "district": "Vila Vivaldi",
        "street": "Travessa Vergueiro",
        "zipcode": "09616-100"
    },
    {
        "city": "Sao Bernardo Do Campo",
        "state": "SP",
        "district": "Jardim Antares",
        "street": "Praça Das Estrelas",
        "zipcode": "09606-130"
    },
    {
        "city": "Sao Bernardo Do Campo",
        "state": "SP",
        "district": "Rudge Ramos",
        "street": "Praça Bruno Stangorlini",
        "zipcode": "09613-070"
    },
    {
        "city": "Sao Bernardo Do Campo",
        "state": "SP",
        "district": "Centro",
        "street": "Praça Joao Wesley",
        "zipcode": "09710-150"
    },
    {
        "city": "Sao Bernardo Do Campo",
        "state": "SP",
        "district": "Centro",
        "street": "Praça Waldemiro Maranesi",
        "zipcode": "09725-355"
    },
    {
        "city": "Sao Bernardo Do Campo",
        "state": "SP",
        "district": "Jardim Chacara Inglesa",
        "street": "Praça Quinzio Julio Rossi",
        "zipcode": "09726-045"
    },
    {
        "city": "Sao Bernardo Do Campo",
        "state": "SP",
        "district": "Jardim Das Americas",
        "street": "Praça Pedro Takeyuki Uematsu",
        "zipcode": "09725-715"
    },
    {
        "city": "Sao Bernardo Do Campo",
        "state": "SP",
        "district": "Taboao",
        "street": "Praça Pastor Jose Marques Sobrinho",
        "zipcode": "09669-005"
    },
    {
        "city": "Sao Bernardo Do Campo",
        "state": "SP",
        "district": "Jardim Sao Luis",
        "street": "Rua Madame Marie Sklodowska Curie",
        "zipcode": "09721-020"
    },
    {
        "city": "Sao Bernardo Do Campo",
        "state": "SP",
        "district": "Vila Alcantara",
        "street": "Praça Miguel Etchenique",
        "zipcode": "09720-330"
    },
    {
        "city": "Sao Bernardo Do Campo",
        "state": "SP",
        "district": "Centro",
        "street": "Rua Thome De Souza",
        "zipcode": "09710-220"
    },
    {
        "city": "Sao Bernardo Do Campo",
        "state": "SP",
        "district": "Vila Uras",
        "street": "Praça Giovani Battista Rubin",
        "zipcode": "09641-090"
    },
    {
        "city": "Sao Bernardo Do Campo",
        "state": "SP",
        "district": "Jardim Do Mar",
        "street": "Praça Padre Mario Balestra",
        "zipcode": "09750-470"
    },
    {
        "city": "Sao Bernardo Do Campo",
        "state": "SP",
        "district": "Pauliceia",
        "street": "Praça Benedito De Almeida Machado",
        "zipcode": "09684-030"
    },
    {
        "city": "Sao Bernardo Do Campo",
        "state": "SP",
        "district": "Jardim Fada",
        "street": "Praça Luzia Giusti",
        "zipcode": "09735-225"
    },
    {
        "city": "Sao Bernardo Do Campo",
        "state": "SP",
        "district": "Jardim Chacara Inglesa",
        "street": "Praça Wallace Simonsen",
        "zipcode": "09726-240"
    },
    {
        "city": "Sao Bernardo Do Campo",
        "state": "SP",
        "district": "Parque Sao Diogo",
        "street": "Praça Das Criancas",
        "zipcode": "09732-210"
    },
    {
        "city": "Sao Bernardo Do Campo",
        "state": "SP",
        "district": "Vila Santa Luzia",
        "street": "Praça Santa Luzia",
        "zipcode": "09666-110"
    },
    {
        "city": "Sao Bernardo Do Campo",
        "state": "SP",
        "district": "Vila Sonia",
        "street": "Praça Claudio Marcelo Mantovani Pereira",
        "zipcode": "09750-175"
    },
    {
        "city": "Sao Bernardo Do Campo",
        "state": "SP",
        "district": "Vila Saracatan",
        "street": "Praça Laynor Da Costa Lista",
        "zipcode": "09760-590"
    },
    {
        "city": "Sao Bernardo Do Campo",
        "state": "SP",
        "district": "Jardim Ipe",
        "street": "Praça Adriano Parussolo",
        "zipcode": "09751-260"
    },
    {
        "city": "Sao Bernardo Do Campo",
        "state": "SP",
        "district": "Centro",
        "street": "Praça Isidoro Marcioni",
        "zipcode": "09751-240"
    },
    {
        "city": "Sao Bernardo Do Campo",
        "state": "SP",
        "district": "Vila Goncalves",
        "street": "Praça Amalia Zen Cavinato",
        "zipcode": "09725-055"
    },
    {
        "city": "Sao Bernardo Do Campo",
        "state": "SP",
        "district": "Baeta Neves",
        "street": "Favela Itatiba",
        "zipcode": "09761-160"
    },
    {
        "city": "Sao Bernardo Do Campo",
        "state": "SP",
        "district": "Centro",
        "street": "Praça Ermelinda Setti",
        "zipcode": "09720-360"
    },
    {
        "city": "Sao Bernardo Do Campo",
        "state": "SP",
        "district": "Vila Normandia",
        "street": "Rua Indianopolis",
        "zipcode": "09635-030"
    },
    {
        "city": "Sao Bernardo Do Campo",
        "state": "SP",
        "district": "Vila Vivaldi",
        "street": "Praça Antonio Morales",
        "zipcode": "09615-110"
    },
    {
        "city": "Sao Bernardo Do Campo",
        "state": "SP",
        "district": "Vila Ruth",
        "street": "Praça Luiz Gonzaga Do Nascimento Jr.",
        "zipcode": "09672-115"
    },
    {
        "city": "Sao Bernardo Do Campo",
        "state": "SP",
        "district": "Vila Vivaldi",
        "street": "Travessa Rincao",
        "zipcode": "09631-110"
    },
    {
        "city": "Sao Bernardo Do Campo",
        "state": "SP",
        "district": "Jardim Antares",
        "street": "Praça Cruzeiro Do Sul",
        "zipcode": "09606-090"
    },
    {
        "city": "Sao Bernardo Do Campo",
        "state": "SP",
        "district": "Taboao",
        "street": "Praça Antonio Haddad",
        "zipcode": "09669-110"
    },
    {
        "city": "Sao Bernardo Do Campo",
        "state": "SP",
        "district": "Centro",
        "street": "Praça Viola Cassetari Fanani",
        "zipcode": "09721-015"
    },
    {
        "city": "Sao Bernardo Do Campo",
        "state": "SP",
        "district": "Jardim Orlandina",
        "street": "Rua Italo Bizela",
        "zipcode": "09636-060"
    },
    {
        "city": "Sao Bernardo Do Campo",
        "state": "SP",
        "district": "Pauliceia",
        "street": "Praça Nossa Senhora Aparecida",
        "zipcode": "09692-080"
    },
    {
        "city": "Sao Bernardo Do Campo",
        "state": "SP",
        "district": "Vila Baeta Neves",
        "street": "Praça Carolina Renno De Oliveira",
        "zipcode": "09751-310"
    },
    {
        "city": "Sao Bernardo Do Campo",
        "state": "SP",
        "district": "Baeta Neves",
        "street": "Praça Henrique Zanon",
        "zipcode": "09760-475"
    },
    {
        "city": "Sao Bernardo Do Campo",
        "state": "SP",
        "district": "Vila Franca",
        "street": "Praça Da Republica",
        "zipcode": "09608-095"
    },
    {
        "city": "Sao Bernardo Do Campo",
        "state": "SP",
        "district": "Vila Scopel",
        "street": "Praça Aracy Teles De Almeida",
        "zipcode": "09760-025"
    },
    {
        "city": "Sao Bernardo Do Campo",
        "state": "SP",
        "district": "Centro",
        "street": "Praça Vicenzo Zincaglia",
        "zipcode": "09721-220"
    },
    {
        "city": "Sao Bernardo Do Campo",
        "state": "SP",
        "district": "Jardim Borborema",
        "street": "Praça Ramao Gomes Portao",
        "zipcode": "09660-030"
    },
    {
        "city": "Sao Bernardo Do Campo",
        "state": "SP",
        "district": "Jardim Do Mar",
        "street": "Praça Ibraim De Almeida Nobre",
        "zipcode": "09726-270"
    },
    {
        "city": "Sao Bernardo Do Campo",
        "state": "SP",
        "district": "Baeta Neves",
        "street": "Rua Jose C. Ortega",
        "zipcode": "09760-840"
    },
    {
        "city": "Sao Bernardo Do Campo",
        "state": "SP",
        "district": "Vila Lusitania",
        "street": "Praça Joao Bergamaschi",
        "zipcode": "09725-165"
    },
    {
        "city": "Sao Bernardo Do Campo",
        "state": "SP",
        "district": "Jardim Do Mar",
        "street": "Praça Waldemar Vaz Santiago",
        "zipcode": "09750-365"
    },
    {
        "city": "Sao Bernardo Do Campo",
        "state": "SP",
        "district": "Vila Alcantara",
        "street": "Viaduto Miguel Etchenique",
        "zipcode": "09720-340"
    },
    {
        "city": "Sao Bernardo Do Campo",
        "state": "SP",
        "district": "Jardim Do Mar",
        "street": "Viaduto Kenzo Uemura",
        "zipcode": "09726-275"
    },
    {
        "city": "Sao Bernardo Do Campo",
        "state": "SP",
        "district": "Rudge Ramos",
        "street": "Praça Olimpio Felix Da Silva",
        "zipcode": "09629-080"
    },
    {
        "city": "Sao Bernardo Do Campo",
        "state": "SP",
        "district": "Vila Goncalves",
        "street": "Praça Antonio Vial",
        "zipcode": "09725-145"
    },
    {
        "city": "Sao Bernardo Do Campo",
        "state": "SP",
        "district": "Jardim Olavo Bilac",
        "street": "Escada Pedro Zoboli",
        "zipcode": "09725-845"
    },
    {
        "city": "Sao Bernardo Do Campo",
        "state": "SP",
        "district": "Jardim Do Mar",
        "street": "Praça Antonio Ceccato",
        "zipcode": "09750-430"
    },
    {
        "city": "Sao Bernardo Do Campo",
        "state": "SP",
        "district": "Jardim Paramount",
        "street": "Praça Maximiliano Cuzziol",
        "zipcode": "09607-200"
    },
    {
        "city": "Sao Bernardo Do Campo",
        "state": "SP",
        "district": "Vila Florida",
        "street": "Praça Teotonio Vilela",
        "zipcode": "09662-070"
    },
    {
        "city": "Sao Bernardo Do Campo",
        "state": "SP",
        "district": "Jardim Trieste",
        "street": "Praça Irineu Ladeira De Souza Lima",
        "zipcode": "09760-705"
    },
    {
        "city": "Sao Bernardo Do Campo",
        "state": "SP",
        "district": "Jardim Do Mar",
        "street": "Praça Ferenc Vargas",
        "zipcode": "09750-080"
    },
    {
        "city": "Sao Bernardo Do Campo",
        "state": "SP",
        "district": "Parque Sao Pedro",
        "street": "Praça Valdemar Fontes",
        "zipcode": "09731-035"
    },
    {
        "city": "Sao Bernardo Do Campo",
        "state": "SP",
        "district": "Vila Mariza",
        "street": "Praça Indu Rovay",
        "zipcode": "09625-010"
    },
    {
        "city": "Sao Bernardo Do Campo",
        "state": "SP",
        "district": "Jardim Maria Cecilia",
        "street": "Praça Kasato Maru",
        "zipcode": "09720-380"
    },
    {
        "city": "Sao Bernardo Do Campo",
        "state": "SP",
        "district": "Vila Nova Santa Luzia",
        "street": "Praça Egidio Andretta",
        "zipcode": "09671-180"
    },
    {
        "city": "Sao Bernardo Do Campo",
        "state": "SP",
        "district": "Parque Santo Antonio",
        "street": "Praça General Dale Coutinho",
        "zipcode": "09651-010"
    },
    {
        "city": "Sao Bernardo Do Campo",
        "state": "SP",
        "district": "Nova Petropolis",
        "street": "Avenida Pery Ronchetti",
        "zipcode": "09771-000"
    },
    {
        "city": "Sao Bernardo Do Campo",
        "state": "SP",
        "district": "Santa Terezinha",
        "street": "Rua Anita Franchini",
        "zipcode": "09780-040"
    },
    {
        "city": "Sao Bernardo Do Campo",
        "state": "SP",
        "district": "Montanhao",
        "street": "Passagem Girassol",
        "zipcode": "09781-490"
    },
    {
        "city": "Sao Bernardo Do Campo",
        "state": "SP",
        "district": "Montanhao",
        "street": "Rua Onze",
        "zipcode": "09791-680"
    },
    {
        "city": "Sao Bernardo Do Campo",
        "state": "SP",
        "district": "Rio Grande",
        "street": "Rua Marcilio Conrado",
        "zipcode": "09830-290"
    },
    {
        "city": "Sao Bernardo Do Campo",
        "state": "SP",
        "district": "Finco",
        "street": "Estrada Do Morro Grande",
        "zipcode": "09830-670"
    },
    {
        "city": "Sao Bernardo Do Campo",
        "state": "SP",
        "district": "Estoril",
        "street": "Rua Sagres",
        "zipcode": "09831-020"
    },
    {
        "city": "Sao Bernardo Do Campo",
        "state": "SP",
        "district": "Vila Santa Terezinha",
        "street": "Rua Joao Morotti",
        "zipcode": "09780-200"
    },
    {
        "city": "Sao Bernardo Do Campo",
        "state": "SP",
        "district": "Montanhao",
        "street": "Passagem Das Flores",
        "zipcode": "09781-480"
    },
    {
        "city": "Sao Bernardo Do Campo",
        "state": "SP",
        "district": "Finco",
        "street": "Rua Belmiro Pardo Ramon",
        "zipcode": "09831-330"
    },
    {
        "city": "Sao Bernardo Do Campo",
        "state": "SP",
        "district": "Nova Petropolis",
        "street": "Praça Do Prof.",
        "zipcode": "09770-490"
    },
    {
        "city": "Sao Bernardo Do Campo",
        "state": "SP",
        "district": "Vila Damasio",
        "street": "Praça Oswaldo Francisco Do Rio",
        "zipcode": "09780-245"
    },
    {
        "city": "Sao Bernardo Do Campo",
        "state": "SP",
        "district": "Nova Petropolis",
        "street": "Praça Terezinha Rodrigues Fini",
        "zipcode": "09770-620"
    },
    {
        "city": "Sao Bernardo Do Campo",
        "state": "SP",
        "district": "Montanhao",
        "street": "Rua Quinze",
        "zipcode": "09791-690"
    },
    {
        "city": "Sao Bernardo Do Campo",
        "state": "SP",
        "district": "Jardim Silvina",
        "street": "Praça Trabalhador Armando Ruivo",
        "zipcode": "09791-155"
    },
    {
        "city": "Sao Bernardo Do Campo",
        "state": "SP",
        "district": "Montanhao",
        "street": "Avenida Um",
        "zipcode": "09791-600"
    },
    {
        "city": "Sao Bernardo Do Campo",
        "state": "SP",
        "district": "Montanhao",
        "street": "Passagem Das Petalas",
        "zipcode": "09781-550"
    },
    {
        "city": "Sao Bernardo Do Campo",
        "state": "SP",
        "district": "Montanhao",
        "street": "Rua Vinte E Sete",
        "zipcode": "09791-640"
    },
    {
        "city": "Sao Bernardo Do Campo",
        "state": "SP",
        "district": "Jardim Borda Do Campo",
        "street": "Rua Alvaro Da Silva Miranda",
        "zipcode": "09830-500"
    },
    {
        "city": "Sao Bernardo Do Campo",
        "state": "SP",
        "district": "Jardim Atlantico",
        "street": "Praça Frei Tito De Alencar Lima",
        "zipcode": "09780-285"
    },
    {
        "city": "Sao Bernardo Do Campo",
        "state": "SP",
        "district": "Rio Grande",
        "street": "Estrada Caminho Do Mar",
        "zipcode": "09831-335"
    },
    {
        "city": "Sao Bernardo Do Campo",
        "state": "SP",
        "district": "Parque Sao Bernardo",
        "street": "Praça Ambrosio Zandonadi",
        "zipcode": "09770-245"
    },
    {
        "city": "Sao Bernardo Do Campo",
        "state": "SP",
        "district": "Montanhao",
        "street": "Rua Vinte",
        "zipcode": "09791-750"
    },
    {
        "city": "Sao Bernardo Do Campo",
        "state": "SP",
        "district": "Vila Do Rio Grande",
        "street": "Praça Angela Zampieri",
        "zipcode": "09830-280"
    },
    {
        "city": "Sao Bernardo Do Campo",
        "state": "SP",
        "district": "Jardim Wallace Simonsen",
        "street": "Praça Fernando De Azevedo",
        "zipcode": "09770-540"
    },
    {
        "city": "Sao Bernardo Do Campo",
        "state": "SP",
        "district": "Baeta Neves",
        "street": "Favela Parque Sao Bernardo",
        "zipcode": "09761-220"
    },
    {
        "city": "Sao Bernardo Do Campo",
        "state": "SP",
        "district": "Ferrazopolis",
        "street": "Praça Henrique Trindade",
        "zipcode": "09781-045"
    },
    {
        "city": "Sao Bernardo Do Campo",
        "state": "SP",
        "district": "Vila Santo Agostinho",
        "street": "Praça Alipio Alves Pereira",
        "zipcode": "09771-045"
    },
    {
        "city": "Sao Bernardo Do Campo",
        "state": "SP",
        "district": "Parque Seleta",
        "street": "Rua Vicente Paschoaletti",
        "zipcode": "09791-790"
    },
    {
        "city": "Sao Bernardo Do Campo",
        "state": "SP",
        "district": "Centro",
        "street": "Praça Alberto Eduardo Bellinghausen",
        "zipcode": "09771-190"
    },
    {
        "city": "Sao Bernardo Do Campo",
        "state": "SP",
        "district": "Vila Santo Agostinho",
        "street": "Praça Joao Armando Mancuso",
        "zipcode": "09771-025"
    },
    {
        "city": "Sao Bernardo Do Campo",
        "state": "SP",
        "district": "Nova Petropolis",
        "street": "Praça Luiz Buonfiglio",
        "zipcode": "09771-160"
    },
    {
        "city": "Sao Bernardo Do Campo",
        "state": "SP",
        "district": "Estoril",
        "street": "Rua Acores",
        "zipcode": "09831-010"
    },
    {
        "city": "Sao Bernardo Do Campo",
        "state": "SP",
        "district": "Jardim Silvina",
        "street": "Praça Pedro Alvares Cabral",
        "zipcode": "09791-060"
    },
    {
        "city": "Sao Bernardo Do Campo",
        "state": "SP",
        "district": "Jardim Leblon",
        "street": "Praça Joao Damasio Leonel",
        "zipcode": "09781-025"
    },
    {
        "city": "Sao Bernardo Do Campo",
        "state": "SP",
        "district": "Finco",
        "street": "Loteamento Jardim Lago Azul",
        "zipcode": "09831-325"
    },
    {
        "city": "Sao Bernardo Do Campo",
        "state": "SP",
        "district": "Jardim Marrocos",
        "street": "Praça Sergio Antonio Pinchiaro",
        "zipcode": "09770-630"
    },
    {
        "city": "Sao Bernardo Do Campo",
        "state": "SP",
        "district": "Montanhao",
        "street": "Rua Dezessete",
        "zipcode": "09791-720"
    },
    {
        "city": "Sao Bernardo Do Campo",
        "state": "SP",
        "district": "Santa Terezinha",
        "street": "Praça Newton A. Madsen Barbosa",
        "zipcode": "09780-305"
    },
    {
        "city": "Sao Bernardo Do Campo",
        "state": "SP",
        "district": "Montanhao",
        "street": "Rua Quatorze",
        "zipcode": "09791-700"
    },
    {
        "city": "Sao Bernardo Do Campo",
        "state": "SP",
        "district": "Baeta Neves",
        "street": "Loteamento Vila Industrial",
        "zipcode": "09761-400"
    },
    {
        "city": "Sao Bernardo Do Campo",
        "state": "SP",
        "district": "Jardim Petroni",
        "street": "Rua Sao Joao",
        "zipcode": "09761-380"
    },
    {
        "city": "Sao Bernardo Do Campo",
        "state": "SP",
        "district": "Jardim Yraja",
        "street": "Rua Padre Josimo De Tavares",
        "zipcode": "09781-325"
    },
    {
        "city": "Sao Bernardo Do Campo",
        "state": "SP",
        "district": "Montanhao",
        "street": "Rua Vinte E Seis",
        "zipcode": "09791-630"
    },
    {
        "city": "Sao Bernardo Do Campo",
        "state": "SP",
        "district": "Montanhao",
        "street": "Passagem Das Margaridas",
        "zipcode": "09781-520"
    },
    {
        "city": "Sao Bernardo Do Campo",
        "state": "SP",
        "district": "Montanhao",
        "street": "Rua Dezesseis",
        "zipcode": "09791-740"
    },
    {
        "city": "Sao Bernardo Do Campo",
        "state": "SP",
        "district": "Jardim Palermo",
        "street": "Praça Antonio Versolato",
        "zipcode": "09780-465"
    },
    {
        "city": "Sao Bernardo Do Campo",
        "state": "SP",
        "district": "Jardim Regina",
        "street": "Praça Varzea Alegre",
        "zipcode": "09781-235"
    },
    {
        "city": "Sao Bernardo Do Campo",
        "state": "SP",
        "district": "Montanhao",
        "street": "Avenida Cinco",
        "zipcode": "09791-610"
    },
    {
        "city": "Sao Bernardo Do Campo",
        "state": "SP",
        "district": "Jardim Palermo",
        "street": "Rua Antonio S Cunha Bueno",
        "zipcode": "09780-600"
    },
    {
        "city": "Sao Bernardo Do Campo",
        "state": "SP",
        "district": "Montanhao",
        "street": "Rua Dezenove",
        "zipcode": "09791-730"
    },
    {
        "city": "Sao Bernardo Do Campo",
        "state": "SP",
        "district": "Parque Seleta",
        "street": "Passagem Dos Cafezais",
        "zipcode": "09791-550"
    },
    {
        "city": "Sao Bernardo Do Campo",
        "state": "SP",
        "district": "Montanhao",
        "street": "Passagem Pioneiros",
        "zipcode": "09771-305"
    },
    {
        "city": "Sao Bernardo Do Campo",
        "state": "SP",
        "district": "Vila Damasio",
        "street": "Rua Luis Jose Freire",
        "zipcode": "09780-055"
    },
    {
        "city": "Sao Bernardo Do Campo",
        "state": "SP",
        "district": "Rio Grande",
        "street": "Alameda Yakult",
        "zipcode": "09831-700"
    },
    {
        "city": "Sao Bernardo Do Campo",
        "state": "SP",
        "district": "Montanhao",
        "street": "Estrada Da Pedra Branca",
        "zipcode": "09792-000"
    },
    {
        "city": "Sao Bernardo Do Campo",
        "state": "SP",
        "district": "Demarchi",
        "street": "Praça Das Nacoes",
        "zipcode": "09820-250"
    },
    {
        "city": "Sao Bernardo Do Campo",
        "state": "SP",
        "district": "Vila Balnearia",
        "street": "Rua Francisco Mattei",
        "zipcode": "09822-303"
    },
    {
        "city": "Sao Bernardo Do Campo",
        "state": "SP",
        "district": "Vila Jurubatuba",
        "street": "Rua Portugal",
        "zipcode": "09831-000"
    },
    {
        "city": "Sao Bernardo Do Campo",
        "state": "SP",
        "district": "Rio Grande",
        "street": "Estrada Do Rio Acima",
        "zipcode": "09831-300"
    },
    {
        "city": "Sao Bernardo Do Campo",
        "state": "SP",
        "district": "Finco",
        "street": "Rua Luiza Viezzer Finco",
        "zipcode": "09832-270"
    },
    {
        "city": "Sao Bernardo Do Campo",
        "state": "SP",
        "district": "Parque Terra Nova",
        "street": "Praça Antonia Retamero Gerbelli",
        "zipcode": "09820-520"
    },
    {
        "city": "Sao Bernardo Do Campo",
        "state": "SP",
        "district": "Jardim Lauro Gomes",
        "street": "Praça Manoel Corazza",
        "zipcode": "09820-125"
    },
    {
        "city": "Sao Bernardo Do Campo",
        "state": "SP",
        "district": "Parque Terra Nova",
        "street": "Praça Geraldo Amelio Casa",
        "zipcode": "09820-500"
    },
    {
        "city": "Sao Bernardo Do Campo",
        "state": "SP",
        "district": "Finco",
        "street": "Rua D",
        "zipcode": "09835-445"
    },
    {
        "city": "Sao Bernardo Do Campo",
        "state": "SP",
        "district": "Capivari",
        "street": "Estrada Papagaio",
        "zipcode": "09835-470"
    },
    {
        "city": "Sao Bernardo Do Campo",
        "state": "SP",
        "district": "Jardim Borda Do Campo",
        "street": "Rua Anchieta",
        "zipcode": "09832-005"
    },
    {
        "city": "Sao Bernardo Do Campo",
        "state": "SP",
        "district": "Jardim Borda Do Campo",
        "street": "Rua Existente",
        "zipcode": "09832-030"
    },
    {
        "city": "Sao Bernardo Do Campo",
        "state": "SP",
        "district": "Vila Lucia",
        "street": "Rua B",
        "zipcode": "09820-650"
    },
    {
        "city": "Sao Bernardo Do Campo",
        "state": "SP",
        "district": "Parque Terra Nova Segundo",
        "street": "Rua Omar Dalbert",
        "zipcode": "09820-685"
    },
    {
        "city": "Sao Bernardo Do Campo",
        "state": "SP",
        "district": "Alves Dias",
        "street": "Avenida Marginal",
        "zipcode": "09812-590"
    },
    {
        "city": "Sao Bernardo Do Campo",
        "state": "SP",
        "district": "Vila Balnearia",
        "street": "Rua Carlos Gentil",
        "zipcode": "09822-285"
    },
    {
        "city": "Sao Bernardo Do Campo",
        "state": "SP",
        "district": "Vila Claraval",
        "street": "Rua Rodrigues Almeida",
        "zipcode": "09811-230"
    },
    {
        "city": "Sao Bernardo Do Campo",
        "state": "SP",
        "district": "Zanzala",
        "street": "Loteamento Parque Dos Lagos",
        "zipcode": "09834-220"
    },
    {
        "city": "Sao Bernardo Do Campo",
        "state": "SP",
        "district": "Parque Turmalina",
        "street": "Rua Topazio",
        "zipcode": "09835-390"
    },
    {
        "city": "Sao Bernardo Do Campo",
        "state": "SP",
        "district": "Curucutu",
        "street": "Loteamento Billings Parque",
        "zipcode": "09835-120"
    },
    {
        "city": "Sao Bernardo Do Campo",
        "state": "SP",
        "district": "Assuncao",
        "street": "Praça Giuseppe Stangorlini",
        "zipcode": "09810-625"
    },
    {
        "city": "Sao Bernardo Do Campo",
        "state": "SP",
        "district": "Parque Turmalina",
        "street": "Rua Da Divisa",
        "zipcode": "09835-220"
    },
    {
        "city": "Sao Bernardo Do Campo",
        "state": "SP",
        "district": "Assuncao",
        "street": "Praça Ernesto Maranesi",
        "zipcode": "09812-530"
    },
    {
        "city": "Sao Bernardo Do Campo",
        "state": "SP",
        "district": "Assuncao",
        "street": "Praça Prefeito Aldino Pinotti",
        "zipcode": "09810-720"
    },
    {
        "city": "Sao Bernardo Do Campo",
        "state": "SP",
        "district": "Assuncao",
        "street": "Praça Jose Stangorlini",
        "zipcode": "09810-500"
    },
    {
        "city": "Sao Bernardo Do Campo",
        "state": "SP",
        "district": "Demarchi",
        "street": "Loteamento Conjunto Residencial Melodias",
        "zipcode": "09811-450"
    },
    {
        "city": "Sao Bernardo Do Campo",
        "state": "SP",
        "district": "Capivari",
        "street": "Loteamento Chacara Santa Filomena",
        "zipcode": "09835-460"
    },
    {
        "city": "Sao Bernardo Do Campo",
        "state": "SP",
        "district": "Vila Lucia",
        "street": "Rua A",
        "zipcode": "09820-820"
    },
    {
        "city": "Sao Bernardo Do Campo",
        "state": "SP",
        "district": "Jardim Dona Luiza",
        "street": "Rua Servidao Publica",
        "zipcode": "09832-200"
    },
    {
        "city": "Sao Bernardo Do Campo",
        "state": "SP",
        "district": "Finco",
        "street": "Loteamento Vila Praia Grande",
        "zipcode": "09831-710"
    },
    {
        "city": "Sao Bernardo Do Campo",
        "state": "SP",
        "district": "Alto Da Serra",
        "street": "Estrada Miranto",
        "zipcode": "09834-020"
    },
    {
        "city": "Sao Bernardo Do Campo",
        "state": "SP",
        "district": "Demarchi",
        "street": "Praça Prof. Maria Do Socorro Silva",
        "zipcode": "09811-415"
    },
    {
        "city": "Sao Bernardo Do Campo",
        "state": "SP",
        "district": "Assuncao",
        "street": "Praça Prof. Aldino Pinotti",
        "zipcode": "09810-810"
    },
    {
        "city": "Sao Bernardo Do Campo",
        "state": "SP",
        "district": "Parque Terra Nova Segundo",
        "street": "Rua Sebastiao De Brunni",
        "zipcode": "09820-745"
    },
    {
        "city": "Sao Bernardo Do Campo",
        "state": "SP",
        "district": "Parque Terra Nova Segundo",
        "street": "Rua Salin Mafud",
        "zipcode": "09820-785"
    },
    {
        "city": "Sao Bernardo Do Campo",
        "state": "SP",
        "district": "Alto Da Serra",
        "street": "Loteamento Do Sangradouro",
        "zipcode": "09834-110"
    },
    {
        "city": "Sao Bernardo Do Campo",
        "state": "SP",
        "district": "Parque Terra Nova",
        "street": "Praça Tereza Oneda Marotti",
        "zipcode": "09820-485"
    },
    {
        "city": "Sao Bernardo Do Campo",
        "state": "SP",
        "district": "Vila Marchi",
        "street": "Praça Monteiro Lobato",
        "zipcode": "09810-480"
    },
    {
        "city": "Sao Bernardo Do Campo",
        "state": "SP",
        "district": "Vila Claraval",
        "street": "Praça Do Claraval",
        "zipcode": "09811-220"
    },
    {
        "city": "Sao Bernardo Do Campo",
        "state": "SP",
        "district": "Estoril",
        "street": "Estrada Do Mar",
        "zipcode": "09832-210"
    },
    {
        "city": "Sao Bernardo Do Campo",
        "state": "SP",
        "district": "Parque Turmalina",
        "street": "Avenida Esmeralda",
        "zipcode": "09835-230"
    },
    {
        "city": "Sao Bernardo Do Campo",
        "state": "SP",
        "district": "Parque Espacial",
        "street": "Praça Estelita Felex De Lucena",
        "zipcode": "09811-315"
    },
    {
        "city": "Sao Bernardo Do Campo",
        "state": "SP",
        "district": "Parque Sao Jose",
        "street": "Praça Raimundo Barbosa Filho",
        "zipcode": "09812-585"
    },
    {
        "city": "Sao Bernardo Do Campo",
        "state": "SP",
        "district": "Parque Terra Nova Segundo",
        "street": "Avenida Osmar Daimbert",
        "zipcode": "09820-810"
    },
    {
        "city": "Sao Bernardo Do Campo",
        "state": "SP",
        "district": "Finco",
        "street": "Rua Caminho De Servidao",
        "zipcode": "09835-440"
    },
    {
        "city": "Sao Bernardo Do Campo",
        "state": "SP",
        "district": "Parque Turmalina",
        "street": "Avenida Safira",
        "zipcode": "09835-380"
    },
    {
        "city": "Sao Bernardo Do Campo",
        "state": "SP",
        "district": "Vila Marchi",
        "street": "Praça Castro Alves",
        "zipcode": "09810-490"
    },
    {
        "city": "Sao Bernardo Do Campo",
        "state": "SP",
        "district": "Vila Marininha",
        "street": "Praça Americo Guio",
        "zipcode": "09810-730"
    },
    {
        "city": "Sao Bernardo Do Campo",
        "state": "SP",
        "district": "Assuncao",
        "street": "Praça Antonio Rodrigues Filho",
        "zipcode": "09811-065"
    },
    {
        "city": "Sao Bernardo Do Campo",
        "state": "SP",
        "district": "Parque Espacial",
        "street": "Praça Joao Ferro",
        "zipcode": "09812-110"
    },
    {
        "city": "Sao Bernardo Do Campo",
        "state": "SP",
        "district": "Parque Neide",
        "street": "Praça Alfredo Sabatini",
        "zipcode": "09810-550"
    },
    {
        "city": "Sao Bernardo Do Campo",
        "state": "SP",
        "district": "Capivari",
        "street": "Travessa Rio Grande",
        "zipcode": "09835-500"
    },
    {
        "city": "Sao Bernardo Do Campo",
        "state": "SP",
        "district": "Alvarenga",
        "street": "Rua Dos Japoneses",
        "zipcode": "09853-060"
    },
    {
        "city": "Sao Bernardo Do Campo",
        "state": "SP",
        "district": "Jardim Laura",
        "street": "Rua Um",
        "zipcode": "09853-130"
    },
    {
        "city": "Sao Bernardo Do Campo",
        "state": "SP",
        "district": "Las Palmas",
        "street": "Rua Maria Da Penha",
        "zipcode": "09854-010"
    },
    {
        "city": "Sao Bernardo Do Campo",
        "state": "SP",
        "district": "Planalto",
        "street": "Avenida Robert Kennedy",
        "zipcode": "09860-000"
    },
    {
        "city": "Sao Bernardo Do Campo",
        "state": "SP",
        "district": "Vila Roberta",
        "street": "Praça Maria Romano Mian",
        "zipcode": "09851-565"
    },
    {
        "city": "Sao Bernardo Do Campo",
        "state": "SP",
        "district": "Jardim Thelma",
        "street": "Estrada Do Junqueira",
        "zipcode": "09850-790"
    },
    {
        "city": "Sao Bernardo Do Campo",
        "state": "SP",
        "district": "Parque Dos Passaros",
        "street": "Praça Dos Pavoes",
        "zipcode": "09860-195"
    },
    {
        "city": "Sao Bernardo Do Campo",
        "state": "SP",
        "district": "Casa",
        "street": "Praça Joao De Lima",
        "zipcode": "09840-060"
    },
    {
        "city": "Sao Bernardo Do Campo",
        "state": "SP",
        "district": "Vila Flora",
        "street": "Praça Luis Guereschi",
        "zipcode": "09850-910"
    },
    {
        "city": "Sao Bernardo Do Campo",
        "state": "SP",
        "district": "Batistini",
        "street": "Praça Sao Paulo",
        "zipcode": "09843-055"
    },
    {
        "city": "Sao Bernardo Do Campo",
        "state": "SP",
        "district": "Vila Rica",
        "street": "Praça Andre Mussolino",
        "zipcode": "09850-250"
    },
    {
        "city": "Sao Bernardo Do Campo",
        "state": "SP",
        "district": "Jardim Laura",
        "street": "Rua Santa Cecilia",
        "zipcode": "09852-500"
    },
    {
        "city": "Sao Bernardo Do Campo",
        "state": "SP",
        "district": "Parque Dos Passaros",
        "street": "Praça Dos Pintassilgos",
        "zipcode": "09861-300"
    },
    {
        "city": "Sao Bernardo Do Campo",
        "state": "SP",
        "district": "Parque Dos Passaros",
        "street": "Praça Dos Coleirinhas",
        "zipcode": "09861-180"
    },
    {
        "city": "Sao Bernardo Do Campo",
        "state": "SP",
        "district": "Capivari",
        "street": "Estrada Passareuva",
        "zipcode": "09835-480"
    },
    {
        "city": "Sao Bernardo Do Campo",
        "state": "SP",
        "district": "Cooperativa",
        "street": "Rua Riuichi Matsumoto",
        "zipcode": "09852-085"
    },
    {
        "city": "Sao Bernardo Do Campo",
        "state": "SP",
        "district": "Batistini",
        "street": "Estrada Da Chacara",
        "zipcode": "09842-170"
    },
    {
        "city": "Sao Bernardo Do Campo",
        "state": "SP",
        "district": "Casa",
        "street": "Praça Yolanda M. Santo Duclos",
        "zipcode": "09850-045"
    },
    {
        "city": "Sao Bernardo Do Campo",
        "state": "SP",
        "district": "Las Palmas",
        "street": "Rua Guanazi",
        "zipcode": "09854-230"
    },
    {
        "city": "Sao Bernardo Do Campo",
        "state": "SP",
        "district": "Cooperativa",
        "street": "Loteamento Jardim Venoyama",
        "zipcode": "09851-660"
    },
    {
        "city": "Sao Bernardo Do Campo",
        "state": "SP",
        "district": "Jardim Continental",
        "street": "Praça Pedro Pomar",
        "zipcode": "09851-385"
    },
    {
        "city": "Sao Bernardo Do Campo",
        "state": "SP",
        "district": "Batistini",
        "street": "Praça Paranagua",
        "zipcode": "09843-695"
    },
    {
        "city": "Sao Bernardo Do Campo",
        "state": "SP",
        "district": "Parque Dos Passaros",
        "street": "Praça Dos Canarios",
        "zipcode": "09861-320"
    },
    {
        "city": "Sao Bernardo Do Campo",
        "state": "SP",
        "district": "Parque Dos Passaros",
        "street": "Praça Dos Tico",
        "zipcode": "09861-360"
    },
    {
        "city": "Sao Bernardo Do Campo",
        "state": "SP",
        "district": "Jardim Esmeralda",
        "street": "Passagem Minas Gerais",
        "zipcode": "09851-085"
    },
    {
        "city": "Sao Bernardo Do Campo",
        "state": "SP",
        "district": "Jardim Claudia",
        "street": "Rua Umberto De Luca",
        "zipcode": "09850-540"
    },
    {
        "city": "Sao Bernardo Do Campo",
        "state": "SP",
        "district": "Jardim Represa",
        "street": "Praça Paraiba",
        "zipcode": "09843-700"
    },
    {
        "city": "Sao Bernardo Do Campo",
        "state": "SP",
        "district": "Parque Dos Passaros",
        "street": "Praça Dos Mandarins",
        "zipcode": "09861-150"
    },
    {
        "city": "Sao Bernardo Do Campo",
        "state": "SP",
        "district": "Parque Turmalina",
        "street": "Avenida Diamante",
        "zipcode": "09835-210"
    },
    {
        "city": "Sao Bernardo Do Campo",
        "state": "SP",
        "district": "Jardim Esmeralda",
        "street": "Praça Manoel Lopes Cano",
        "zipcode": "09850-445"
    },
    {
        "city": "Sao Bernardo Do Campo",
        "state": "SP",
        "district": "Jardim Ipe",
        "street": "Praça Valdir Martins Parro",
        "zipcode": "09841-185"
    },
    {
        "city": "Sao Bernardo Do Campo",
        "state": "SP",
        "district": "Alvarenga",
        "street": "Praça Angelo Carnielli",
        "zipcode": "09844-000"
    },
    {
        "city": "Sao Bernardo Do Campo",
        "state": "SP",
        "district": "Parque Dos Passaros",
        "street": "Praça Dos Cardeais",
        "zipcode": "09861-050"
    },
    {
        "city": "Sao Bernardo Do Campo",
        "state": "SP",
        "district": "Batistini",
        "street": "Loteamento Parque Los Angeles",
        "zipcode": "09844-170"
    },
    {
        "city": "Sao Bernardo Do Campo",
        "state": "SP",
        "district": "Vila Adriana",
        "street": "Praça Carolina Pinotti De Souza",
        "zipcode": "09860-160"
    },
    {
        "city": "Sao Bernardo Do Campo",
        "state": "SP",
        "district": "Jardim Represa",
        "street": "Praça Miracema",
        "zipcode": "09843-760"
    },
    {
        "city": "Sao Bernardo Do Campo",
        "state": "SP",
        "district": "Sitio Bela Vista",
        "street": "Estrada Das Lavras",
        "zipcode": "09852-480"
    },
    {
        "city": "Sao Bernardo Do Campo",
        "state": "SP",
        "district": "Alvarenga",
        "street": "Loteamento Porto Novo",
        "zipcode": "09853-125"
    },
    {
        "city": "Sao Bernardo Do Campo",
        "state": "SP",
        "district": "Jardim Da Represa",
        "street": "Rua Rezende",
        "zipcode": "09843-620"
    },
    {
        "city": "Sao Bernardo Do Campo",
        "state": "SP",
        "district": "Batistini",
        "street": "Loteamento Jardim Scaff",
        "zipcode": "09844-205"
    },
    {
        "city": "Sao Bernardo Do Campo",
        "state": "SP",
        "district": "Batistini",
        "street": "Praça Tibagi",
        "zipcode": "09843-425"
    },
    {
        "city": "Sao Bernardo Do Campo",
        "state": "SP",
        "district": "Alvarenga",
        "street": "Loteamento Jardim Bela Vista",
        "zipcode": "09853-010"
    },
    {
        "city": "Sao Bernardo Do Campo",
        "state": "SP",
        "district": "Parque Dos Passaros",
        "street": "Rua Das Seriemas",
        "zipcode": "09861-025"
    },
    {
        "city": "Sao Bernardo Do Campo",
        "state": "SP",
        "district": "Parque Dos Passaros",
        "street": "Praça Dos Curios",
        "zipcode": "09861-200"
    },
    {
        "city": "Sao Bernardo Do Campo",
        "state": "SP",
        "district": "Parque Dos Passaros",
        "street": "Praça Dos Azuloes",
        "zipcode": "09861-060"
    },
    {
        "city": "Sao Bernardo Do Campo",
        "state": "SP",
        "district": "Jardim Da Represa",
        "street": "Praça Sao Judas Tadeu",
        "zipcode": "09843-640"
    },
    {
        "city": "Sao Bernardo Do Campo",
        "state": "SP",
        "district": "Cooperativa",
        "street": "Estrada Particular Rinichi Matsumoto",
        "zipcode": "09850-485"
    },
    {
        "city": "Sao Bernardo Do Campo",
        "state": "SP",
        "district": "Jardim Da Represa",
        "street": "Praça Para",
        "zipcode": "09843-755"
    },
    {
        "city": "Sao Bernardo Do Campo",
        "state": "SP",
        "district": "Batistini",
        "street": "Estrada Do Bosque",
        "zipcode": "09842-050"
    },
    {
        "city": "Sao Bernardo Do Campo",
        "state": "SP",
        "district": "Jardim Beatriz",
        "street": "Rua De Contorno",
        "zipcode": "09850-100"
    },
    {
        "city": "Sao Bernardo Do Campo",
        "state": "SP",
        "district": "Jardim Da Represa",
        "street": "Praça Amazonas",
        "zipcode": "09843-040"
    },
    {
        "city": "Sao Bernardo Do Campo",
        "state": "SP",
        "district": "Vila Adriana",
        "street": "Praça Dos Sanhacos",
        "zipcode": "09860-150"
    },
    {
        "city": "Sao Bernardo Do Campo",
        "state": "SP",
        "district": "Jardim Nazareth",
        "street": "Rua Joao Xxiii",
        "zipcode": "09851-630"
    },
    {
        "city": "Sao Bernardo Do Campo",
        "state": "SP",
        "district": "Batistini",
        "street": "Loteamento Royal Park",
        "zipcode": "09844-180"
    },
    {
        "city": "Sao Bernardo Do Campo",
        "state": "SP",
        "district": "Cooperativa",
        "street": "Rua Um",
        "zipcode": "09852-087"
    },
    {
        "city": "Sao Bernardo Do Campo",
        "state": "SP",
        "district": "Vila Sonia Maria",
        "street": "Rua Marginal",
        "zipcode": "09850-320"
    },
    {
        "city": "Sao Bernardo Do Campo",
        "state": "SP",
        "district": "Planalto",
        "street": "Praça Joao Corazza",
        "zipcode": "09890-195"
    },
    {
        "city": "Sao Bernardo Do Campo",
        "state": "SP",
        "district": "Jordanopolis",
        "street": "Rua Ivan Fleury Meirelles",
        "zipcode": "09892-210"
    },
    {
        "city": "Sao Bernardo Do Campo",
        "state": "SP",
        "district": "Planalto",
        "street": "Praça Agostinho Pugliessa",
        "zipcode": "09890-435"
    },
    {
        "city": "Sao Bernardo Do Campo",
        "state": "SP",
        "district": "Jardim Calux",
        "street": "Praça Ili Costa",
        "zipcode": "09895-780"
    },
    {
        "city": "Sao Bernardo Do Campo",
        "state": "SP",
        "district": "Chacara Sergipe",
        "street": "Praça Mario Jorge Franciscon",
        "zipcode": "09894-315"
    },
    {
        "city": "Sao Bernardo Do Campo",
        "state": "SP",
        "district": "Jardim Independencia",
        "street": "Travessa Tatiane",
        "zipcode": "09863-080"
    },
    {
        "city": "Sao Bernardo Do Campo",
        "state": "SP",
        "district": "Jardim Independencia",
        "street": "Travessa Alencastro",
        "zipcode": "09863-060"
    },
    {
        "city": "Sao Bernardo Do Campo",
        "state": "SP",
        "district": "Planalto",
        "street": "Praça Ervel Palumbo",
        "zipcode": "09890-455"
    },
    {
        "city": "Sao Bernardo Do Campo",
        "state": "SP",
        "district": "Jardim Gagliardi",
        "street": "Praça Tereza Sabatini Lazzuri",
        "zipcode": "09890-120"
    },
    {
        "city": "Sao Bernardo Do Campo",
        "state": "SP",
        "district": "Jardim Calux",
        "street": "Praça Oswaldo Paraventi",
        "zipcode": "09895-650"
    },
    {
        "city": "Sao Bernardo Do Campo",
        "state": "SP",
        "district": "Jardim Das Cerejeiras",
        "street": "Praça Prof. Faustina Pinheiro Silva",
        "zipcode": "09892-310"
    },
    {
        "city": "Sao Bernardo Do Campo",
        "state": "SP",
        "district": "Parque Dos Passaros",
        "street": "Praça Dos Pica",
        "zipcode": "09861-385"
    },
    {
        "city": "Sao Bernardo Do Campo",
        "state": "SP",
        "district": "Chacara Sergipe",
        "street": "Praça Donald De Carvalho",
        "zipcode": "09894-650"
    },
    {
        "city": "Sao Bernardo Do Campo",
        "state": "SP",
        "district": "Jardim Calux",
        "street": "Praça Clovis C Bodini Neto",
        "zipcode": "09895-775"
    },
    {
        "city": "Sao Bernardo Do Campo",
        "state": "SP",
        "district": "Jordanopolis",
        "street": "Loteamento Jardim Novo Sergipe",
        "zipcode": "09894-700"
    },
    {
        "city": "Sao Bernardo Do Campo",
        "state": "SP",
        "district": "Jardim Independencia",
        "street": "Rua Galileia",
        "zipcode": "09863-010"
    },
    {
        "city": "Sao Bernardo Do Campo",
        "state": "SP",
        "district": "Independencia",
        "street": "Praça Jose Fortuna",
        "zipcode": "09862-095"
    },
    {
        "city": "Sao Bernardo Do Campo",
        "state": "SP",
        "district": "Vila Santa Luzia",
        "street": "Rua Ovair Luiz",
        "zipcode": "09872-150"
    },
    {
        "city": "Sao Bernardo Do Campo",
        "state": "SP",
        "district": "Vila Labor",
        "street": "Praça Antonio De Oliveira Marques",
        "zipcode": "09881-130"
    },
    {
        "city": "Sao Bernardo Do Campo",
        "state": "SP",
        "district": "Jardim Independencia",
        "street": "Travessa Almirante",
        "zipcode": "09863-070"
    },
    {
        "city": "Sao Bernardo Do Campo",
        "state": "SP",
        "district": "Vila Danubio",
        "street": "Rua Cosme De Farias",
        "zipcode": "09892-440"
    },
    {
        "city": "Sao Bernardo Do Campo",
        "state": "SP",
        "district": "Jardim Calux",
        "street": "Praça Lucia Barbosa De Barros",
        "zipcode": "09895-725"
    },
    {
        "city": "Sao Bernardo Do Campo",
        "state": "SP",
        "district": "Vila Jupiter Nova",
        "street": "Rua Quarto Centenario",
        "zipcode": "09890-380"
    },
    {
        "city": "Sao Bernardo Do Campo",
        "state": "SP",
        "district": "Jordanopolis",
        "street": "Praça Milton Joao Poletti",
        "zipcode": "09891-475"
    },
    {
        "city": "Sao Bernardo Do Campo",
        "state": "SP",
        "district": "Chacara Sergipe",
        "street": "Praça Mario Lewandowski",
        "zipcode": "09894-340"
    },
    {
        "city": "Sao Bernardo Do Campo",
        "state": "SP",
        "district": "Jardim Independencia",
        "street": "Travessa Katia",
        "zipcode": "09863-050"
    },
    {
        "city": "Sao Bernardo Do Campo",
        "state": "SP",
        "district": "Vila Jordanopolis",
        "street": "Praça Zequinha De Abreu",
        "zipcode": "09892-290"
    },
    {
        "city": "Sao Bernardo Do Campo",
        "state": "SP",
        "district": "Jardim Sao Francisco",
        "street": "Rua Faud Mussa Cheide",
        "zipcode": "09890-180"
    },
    {
        "city": "Sao Bernardo Do Campo",
        "state": "SP",
        "district": "Jardim Independencia",
        "street": "Rua Ipiranga",
        "zipcode": "09863-020"
    },
    {
        "city": "Sao Bernardo Do Campo",
        "state": "SP",
        "district": "Taboao",
        "street": "Praça Judith Menzione",
        "zipcode": "09871-025"
    },
    {
        "city": "Sao Bernardo Do Campo",
        "state": "SP",
        "district": "Jardim Montreal",
        "street": "Praça Luiz Carlos Albuquerque De Machado",
        "zipcode": "09871-315"
    },
    {
        "city": "Sao Bernardo Do Campo",
        "state": "SP",
        "district": "Vila Santa Luzia",
        "street": "Praça Mario Jose Batista",
        "zipcode": "09872-120"
    },
    {
        "city": "Sao Bernardo Do Campo",
        "state": "SP",
        "district": "Jardim Santo Ignacio",
        "street": "Praça Orlando Pereira Da Silva",
        "zipcode": "09862-435"
    },
    {
        "city": "Sao Bernardo Do Campo",
        "state": "SP",
        "district": "Vila Maria Luisa",
        "street": "Praça Duvanil Belini",
        "zipcode": "09880-225"
    },
    {
        "city": "Sao Bernardo Do Campo",
        "state": "SP",
        "district": "Vila Armando Bondioli",
        "street": "Travessa Oneda",
        "zipcode": "09895-300"
    },
    {
        "city": "Sao Bernardo Do Campo",
        "state": "SP",
        "district": "Rudge Ramos",
        "street": "Praça Dos Meninos",
        "zipcode": "09624-040"
    },
    {
        "city": "Sao Bernardo Do Campo",
        "state": "SP",
        "district": "Centro",
        "street": "Praça Zanella",
        "zipcode": "09720-210"
    },
    {
        "city": "Sao Bernardo Do Campo",
        "state": "SP",
        "district": "Finco",
        "street": "Rua Padre Bento Dias Pacheco",
        "zipcode": "09830-700"
    },
    {
        "city": "Sao Bernardo Do Campo",
        "state": "SP",
        "district": "Estoril",
        "street": "Rua Cintra",
        "zipcode": "09831-040"
    },
    {
        "city": "Sao Bernardo Do Campo",
        "state": "SP",
        "district": "Taquacetuba",
        "street": "Estrada Taquacetuba",
        "zipcode": "09835-570"
    },
    {
        "city": "Sao Bernardo Do Campo",
        "state": "SP",
        "district": "Alvarenga",
        "street": "Rua Frank Perkins",
        "zipcode": "09852-030"
    },
    {
        "city": "Sao Bernardo Do Campo",
        "state": "SP",
        "district": "Vila Tereza",
        "street": "Avenida Senador Vergueiro",
        "zipcode": "09600-000"
    },
    {
        "city": "Sao Bernardo Do Campo",
        "state": "SP",
        "district": "Jardim Wallace Simonsen",
        "street": "Praça Dio Febo Pinotti",
        "zipcode": "09770-610"
    },
    {
        "city": "Sao Bernardo Do Campo",
        "state": "SP",
        "district": "Vila Goncalves",
        "street": "Praça General Jose De Franca E Horta",
        "zipcode": "09725-070"
    },
    {
        "city": "Sao Bernardo Do Campo",
        "state": "SP",
        "district": "Jardim Silvestre",
        "street": "Praça Paul Harris",
        "zipcode": "09608-170"
    },
    {
        "city": "Sao Bernardo Do Campo",
        "state": "SP",
        "district": "Vila Jahu",
        "street": "Alto Noberto Nicoletti Junior",
        "zipcode": "09736-015"
    },
    {
        "city": "Sao Bernardo Do Campo",
        "state": "SP",
        "district": "Montanhao",
        "street": "Passagem Das Folhas",
        "zipcode": "09781-470"
    },
    {
        "city": "Sao Bernardo Do Campo",
        "state": "SP",
        "district": "Centro",
        "street": "Praça Oscar Arthur Wunderlick",
        "zipcode": "09720-390"
    },
    {
        "city": "Sao Bernardo Do Campo",
        "state": "SP",
        "district": "Parque Seleta",
        "street": "Rua Maria Nicolina Belluce Patto",
        "zipcode": "09791-485"
    },
    {
        "city": "Sao Bernardo Do Campo",
        "state": "SP",
        "district": "Vila Baeta Neves",
        "street": "Praça Jose Menegatti",
        "zipcode": "09751-050"
    },
    {
        "city": "Sao Bernardo Do Campo",
        "state": "SP",
        "district": "Rudge Ramos",
        "street": "Praça Pedro Martinelli",
        "zipcode": "09614-010"
    },
    {
        "city": "Sao Bernardo Do Campo",
        "state": "SP",
        "district": "Vila Simone",
        "street": "Rua Jose Roger Filho",
        "zipcode": "09853-025"
    },
    {
        "city": "Sao Bernardo Do Campo",
        "state": "SP",
        "district": "Montanhao",
        "street": "Passagem Venus",
        "zipcode": "09781-570"
    },
    {
        "city": "Sao Bernardo Do Campo",
        "state": "SP",
        "district": "Vila Netuno",
        "street": "Rua Jaime Cavinato",
        "zipcode": "09761-420"
    },
    {
        "city": "Sao Bernardo Do Campo",
        "state": "SP",
        "district": "Sitio Jandaia",
        "street": "Praça Francisca Demboski",
        "zipcode": "09853-250"
    },
    {
        "city": "Sao Bernardo Do Campo",
        "state": "SP",
        "district": "Jardim Nova Petropolis",
        "street": "Praça Theresa Herminia Mieli Ballotim",
        "zipcode": "09771-170"
    },
    {
        "city": "Sao Bernardo Do Campo",
        "state": "SP",
        "district": "Vila Do Rio Grande",
        "street": "Rua Yone",
        "zipcode": "09831-715"
    },
    {
        "city": "Sao Bernardo Do Campo",
        "state": "SP",
        "district": "Vila Vivaldi",
        "street": "Praça Joao De Andrade Martins Filho",
        "zipcode": "09628-070"
    },
    {
        "city": "Sao Bernardo Do Campo",
        "state": "SP",
        "district": "Vila Jurubatuba",
        "street": "Praça Fernando Cardoso Da Silva",
        "zipcode": "09831-140"
    },
    {
        "city": "Sao Bernardo Do Campo",
        "state": "SP",
        "district": "Santa Terezinha",
        "street": "Praça Gino Belletato",
        "zipcode": "09780-115"
    },
    {
        "city": "Sao Bernardo Do Campo",
        "state": "SP",
        "district": "Jardim Paramount",
        "street": "Praça Marcelo Bitolo",
        "zipcode": "09608-120"
    },
    {
        "city": "Sao Bernardo Do Campo",
        "state": "SP",
        "district": "Parque Turmalina",
        "street": "Rua Rubi",
        "zipcode": "09835-370"
    },
    {
        "city": "Sao Bernardo Do Campo",
        "state": "SP",
        "district": "Cooperativa",
        "street": "Rua Cinco",
        "zipcode": "09852-090"
    },
    {
        "city": "Sao Bernardo Do Campo",
        "state": "SP",
        "district": "Alvarenga",
        "street": "Loteamento Jardim Das Orquideas",
        "zipcode": "09851-005"
    },
    {
        "city": "Sao Bernardo Do Campo",
        "state": "SP",
        "district": "Jardim Chacara Inglesa",
        "street": "Praça Quincio Julio Rossi",
        "zipcode": "09726-030"
    },
    {
        "city": "Sao Bernardo Do Campo",
        "state": "SP",
        "district": "Capivari",
        "street": "Estrada Do Capivari",
        "zipcode": "09835-450"
    },
    {
        "city": "Sao Bernardo Do Campo",
        "state": "SP",
        "district": "Parque Neide",
        "street": "Praça Armando Grigoletto",
        "zipcode": "09850-400"
    },
    {
        "city": "Sao Bernardo Do Campo",
        "state": "SP",
        "district": "Tatetos",
        "street": "Loteamento Parque Quarto Centenario",
        "zipcode": "09835-070"
    },
    {
        "city": "Sao Bernardo Do Campo",
        "state": "SP",
        "district": "Jardim Saracantan",
        "street": "Praça Francisco Correa Lourenco",
        "zipcode": "09780-550"
    },
    {
        "city": "Sao Bernardo Do Campo",
        "state": "SP",
        "district": "Vila Cruzeiro",
        "street": "Praça Vitorino Felice Casa",
        "zipcode": "09850-035"
    },
    {
        "city": "Sao Bernardo Do Campo",
        "state": "SP",
        "district": "Jardim Da Represa",
        "street": "Praça Obidos",
        "zipcode": "09843-800"
    },
    {
        "city": "Sao Bernardo Do Campo",
        "state": "SP",
        "district": "Jardim Atlantico",
        "street": "Praça Soldado Jose Rodrigues De Castro",
        "zipcode": "09780-275"
    },
    {
        "city": "Sao Bernardo Do Campo",
        "state": "SP",
        "district": "Finco",
        "street": "Loteamento Jardim Icarai",
        "zipcode": "09831-340"
    },
    {
        "city": "Sao Bernardo Do Campo",
        "state": "SP",
        "district": "Recanto Pesca Rica",
        "street": "Rua Valmy Sebastiao Da Cunha",
        "zipcode": "09832-250"
    },
    {
        "city": "Sao Bernardo Do Campo",
        "state": "SP",
        "district": "Riacho Grande",
        "street": "Estrada Nova Para Ribeirao Pires",
        "zipcode": "09831-750"
    },
    {
        "city": "Sao Bernardo Do Campo",
        "state": "SP",
        "district": "Jardim Da Represa",
        "street": "Praça Sao Bernardo",
        "zipcode": "09843-630"
    },
    {
        "city": "Sao Bernardo Do Campo",
        "state": "SP",
        "district": "Parque Riacho Grande",
        "street": "Praça Joao Olimpio Bassani",
        "zipcode": "09830-120"
    },
    {
        "city": "Sao Bernardo Do Campo",
        "state": "SP",
        "district": "Jardim Da Represa",
        "street": "Praça Ceara",
        "zipcode": "09843-005"
    },
    {
        "city": "Sao Bernardo Do Campo",
        "state": "SP",
        "district": "Jardim Aurora",
        "street": "Praça Artur Eberhardt",
        "zipcode": "09860-010"
    },
    {
        "city": "Sao Bernardo Do Campo",
        "state": "SP",
        "district": "Anchieta",
        "street": "Praça Do Circo",
        "zipcode": "09726-440"
    },
    {
        "city": "Sao Bernardo Do Campo",
        "state": "SP",
        "district": "Baeta Neves",
        "street": "Favela Pai Heroi",
        "zipcode": "09761-010"
    },
    {
        "city": "Sao Bernardo Do Campo",
        "state": "SP",
        "district": "Vila Nova Santa Luzia",
        "street": "Praça Joaquim Teodoro",
        "zipcode": "09671-165"
    },
    {
        "city": "Sao Bernardo Do Campo",
        "state": "SP",
        "district": "Jardim Olavo Bilac",
        "street": "Praça Claudio Antonio Anjoletto",
        "zipcode": "09725-785"
    },
    {
        "city": "Sao Bernardo Do Campo",
        "state": "SP",
        "district": "Pauliceia",
        "street": "Praça Angelo Marin",
        "zipcode": "09690-130"
    },
    {
        "city": "Sao Bernardo Do Campo",
        "state": "SP",
        "district": "Montanhao",
        "street": "Rua Dez",
        "zipcode": "09791-670"
    },
    {
        "city": "Sao Bernardo Do Campo",
        "state": "SP",
        "district": "Montanhao",
        "street": "Rua Treze",
        "zipcode": "09791-710"
    },
    {
        "city": "Sao Bernardo Do Campo",
        "state": "SP",
        "district": "Vila Praia Grande",
        "street": "Rua Odair Vieira",
        "zipcode": "09830-410"
    },
    {
        "city": "Sao Bernardo Do Campo",
        "state": "SP",
        "district": "Taboao",
        "street": "Rua Angelina Sciliano Feriani",
        "zipcode": "09870-010"
    },
    {
        "city": "Sao Bernardo Do Campo",
        "state": "SP",
        "district": "Jardim Da Represa",
        "street": "Praça Goias",
        "zipcode": "09843-340"
    },
    {
        "city": "Sao Bernardo Do Campo",
        "state": "SP",
        "district": "Jardim Independencia",
        "street": "Travessa Havai",
        "zipcode": "09863-040"
    },
    {
        "city": "Sao Bernardo Do Campo",
        "state": "SP",
        "district": "Jardim Embare",
        "street": "Rua Silvia Maia",
        "zipcode": "09895-180"
    },
    {
        "city": "Sao Bernardo Do Campo",
        "state": "SP",
        "district": "Las Palmas",
        "street": "Avenida Las Palmas",
        "zipcode": "09854-000"
    },
    {
        "city": "Sao Bernardo Do Campo",
        "state": "SP",
        "district": "Chacara Sergipe",
        "street": "Praça Graca Aranha",
        "zipcode": "09894-030"
    },
    {
        "city": "Sao Bernardo Do Campo",
        "state": "SP",
        "district": "Planalto",
        "street": "Praça Solange Delfino Mulaca",
        "zipcode": "09895-525"
    },
    {
        "city": "Sao Bernardo Do Campo",
        "state": "SP",
        "district": "Parque Seleta",
        "street": "Rua Maria Nicolino Bellucce Piatto",
        "zipcode": "09791-820"
    },
    {
        "city": "Sao Bernardo Do Campo",
        "state": "SP",
        "district": "Parque Terra Nova",
        "street": "Praça Fortunato O. Finco Lentini",
        "zipcode": "09820-560"
    },
    {
        "city": "Sao Bernardo Do Campo",
        "state": "SP",
        "district": "Montanhao",
        "street": "Rua Felice Rossi",
        "zipcode": "09791-780"
    },
    {
        "city": "Sao Bernardo Do Campo",
        "state": "SP",
        "district": "Vila Sacilotto",
        "street": "Praça Antonio Dellabarba",
        "zipcode": "09810-605"
    },
    {
        "city": "Sao Bernardo Do Campo",
        "state": "SP",
        "district": "Parque Sao Jose",
        "street": "Praça Benedito Zoboli",
        "zipcode": "09812-575"
    },
    {
        "city": "Sao Bernardo Do Campo",
        "state": "SP",
        "district": "Jardim Sao Francisco",
        "street": "Praça Prof. Thimotheu Dos Santos Neto",
        "zipcode": "09890-165"
    },
    {
        "city": "Sao Bernardo Do Campo",
        "state": "SP",
        "district": "Parque Terra Nova",
        "street": "Praça Bruno Pasin",
        "zipcode": "09820-483"
    },
    {
        "city": "Sao Bernardo Do Campo",
        "state": "SP",
        "district": "Parque Dos Passaros",
        "street": "Praça Dos Gavioes",
        "zipcode": "09861-240"
    },
    {
        "city": "Sao Bernardo Do Campo",
        "state": "SP",
        "district": "Jardim Jussara",
        "street": "Rua Cunha",
        "zipcode": "09822-200"
    },
    {
        "city": "Sao Bernardo Do Campo",
        "state": "SP",
        "district": "Jardim Santo Ignacio",
        "street": "Praça Angelino Paulucci",
        "zipcode": "09861-410"
    },
    {
        "city": "Sao Bernardo Do Campo",
        "state": "SP",
        "district": "Parque Espacial",
        "street": "Praça Wander Jose Bonetti",
        "zipcode": "09811-325"
    },
    {
        "city": "Sao Bernardo Do Campo",
        "state": "SP",
        "district": "Jardim Do Lago",
        "street": "Travessa Dom Helder Camara",
        "zipcode": "09840-710"
    },
    {
        "city": "Sao Bernardo Do Campo",
        "state": "SP",
        "district": "Montanhao",
        "street": "Rua Padre Josimo De Tavares",
        "zipcode": "09781-530"
    },
    {
        "city": "Sao Bernardo Do Campo",
        "state": "SP",
        "district": "Jardim Lavinia",
        "street": "Praça Nair Manarin Suster",
        "zipcode": "09811-055"
    },
    {
        "city": "Sao Bernardo Do Campo",
        "state": "SP",
        "district": "Vila Moraes",
        "street": "Praça Eduardo Fiori",
        "zipcode": "09760-535"
    },
    {
        "city": "Sao Bernardo Do Campo",
        "state": "SP",
        "district": "Vila Esther",
        "street": "Praça Francisco Beltran Baptistini",
        "zipcode": "09672-120"
    },
    {
        "city": "Sao Bernardo Do Campo",
        "state": "SP",
        "district": "Vila Mackenzie",
        "street": "Praça Joao Segura",
        "zipcode": "09881-730"
    },
    {
        "city": "Sao Bernardo Do Campo",
        "state": "SP",
        "district": "Parque Terra Nova Segundo",
        "street": "Praça Natale Morassi",
        "zipcode": "09820-673"
    },
    {
        "city": "Sao Bernardo Do Campo",
        "state": "SP",
        "district": "Vila Uras",
        "street": "Praça Antonio Fernandes De Souza",
        "zipcode": "09641-050"
    },
    {
        "city": "Sao Bernardo Do Campo",
        "state": "SP",
        "district": "Nova Petropolis",
        "street": "Loteamento Jardim Palermo Segundo",
        "zipcode": "09780-580"
    },
    {
        "city": "Sao Bernardo Do Campo",
        "state": "SP",
        "district": "Jardim Lavinia",
        "street": "Praça Jose Dellabarba",
        "zipcode": "09811-150"
    },
    {
        "city": "Sao Bernardo Do Campo",
        "state": "SP",
        "district": "Jardim Paramount",
        "street": "Praça Tomaz Thome",
        "zipcode": "09731-305"
    },
    {
        "city": "Sao Bernardo Do Campo",
        "state": "SP",
        "district": "Assuncao",
        "street": "Rua Filipe Dos Santos",
        "zipcode": "09850-280"
    },
    {
        "city": "Sao Bernardo Do Campo",
        "state": "SP",
        "district": "Vila Sao Silverio",
        "street": "Praça Zumbi Dos Palmares",
        "zipcode": "09895-755"
    },
    {
        "city": "Sao Bernardo Do Campo",
        "state": "SP",
        "district": "Demarchi",
        "street": "Loteamento Conjunto Habitacional Jardim Europa",
        "zipcode": "09811-440"
    },
    {
        "city": "Sao Bernardo Do Campo",
        "state": "SP",
        "district": "Vila Labor",
        "street": "Praça Antonia Zampieri Grottio",
        "zipcode": "09881-080"
    },
    {
        "city": "Sao Bernardo Do Campo",
        "state": "SP",
        "district": "Vila Jordanopolis",
        "street": "Praça Domingos Vanzella",
        "zipcode": "09891-450"
    },
    {
        "city": "Sao Bernardo Do Campo",
        "state": "SP",
        "district": "Varginha",
        "street": "Estrada Das Colonias",
        "zipcode": "09832-110"
    },
    {
        "city": "Sao Bernardo Do Campo",
        "state": "SP",
        "district": "Vila Iracema",
        "street": "Praça Geraldo Capitanio",
        "zipcode": "09770-175"
    },
    {
        "city": "Sao Bernardo Do Campo",
        "state": "SP",
        "district": "Parque Turmalina",
        "street": "Rua Ametista",
        "zipcode": "09835-200"
    },
    {
        "city": "Sao Bernardo Do Campo",
        "state": "SP",
        "district": "Centro",
        "street": "Praça Manoel Cardoso Filho",
        "zipcode": "09720-425"
    },
    {
        "city": "Sao Bernardo Do Campo",
        "state": "SP",
        "district": "Jardim Independencia",
        "street": "Travessa Santa Clara",
        "zipcode": "09863-030"
    },
    {
        "city": "Sao Bernardo Do Campo",
        "state": "SP",
        "district": "Estoril",
        "street": "Praça Infante",
        "zipcode": "09831-080"
    },
    {
        "city": "Sao Bernardo Do Campo",
        "state": "SP",
        "district": "Parque Riacho Grande",
        "street": "Praça Olavo Fontoura",
        "zipcode": "09830-150"
    },
    {
        "city": "Sao Bernardo Do Campo",
        "state": "SP",
        "district": "Estoril",
        "street": "Praça Estoril",
        "zipcode": "09831-180"
    },
    {
        "city": "Sao Bernardo Do Campo",
        "state": "SP",
        "district": "Vila Santo Agostinho",
        "street": "Rua Prefeito Jalmar Bowdem",
        "zipcode": "09771-010"
    }
]