[
    {
        "city": "São Pedro",
        "state": "SP",
        "district": "",
        "street": "",
        "zipcode": "13520-000"
    },
    {
        "city": "São Pedro",
        "state": "SP",
        "district": "Santa Cruz",
        "street": "Rua José Estanislau de Oliveira 7",
        "zipcode": "13520-970"
    },
    {
        "city": "São Pedro",
        "state": "SP",
        "district": "Theodoro de Souza Barros",
        "street": "Rua Engracia Gemenes 87",
        "zipcode": "13520-971"
    },
    {
        "city": "São Pedro",
        "state": "SP",
        "district": null,
        "street": "Rodovia SP",
        "zipcode": "13520-991"
    },
    {
        "city": "São Pedro",
        "state": "SP",
        "district": null,
        "street": "Alameda dos Angicos",
        "zipcode": "13520-992"
    },
    {
        "city": "São Pedro",
        "state": "SP",
        "district": null,
        "street": "Avenida Principal nº 2",
        "zipcode": "13520-994"
    },
    {
        "city": "São Pedro",
        "state": "SP",
        "district": null,
        "street": "Rua Rio Piracicaba",
        "zipcode": "13520-993"
    },
    {
        "city": "São Pedro",
        "state": "SP",
        "district": null,
        "street": "Rua Engracia Gimenes",
        "zipcode": "13520-990"
    }
]