[
    {
        "city": "Sertaozinho",
        "state": "SP",
        "district": "Fazenda Santa Elisa",
        "street": "Fazenda Santa Eliza",
        "zipcode": "14160-126"
    },
    {
        "city": "Sertaozinho",
        "state": "SP",
        "district": "Shangri",
        "street": "Viela Lar",
        "zipcode": "14160-209"
    },
    {
        "city": "Sertaozinho",
        "state": "SP",
        "district": "Jardim Itapua",
        "street": "Rua Tereza De Jesus Paulo Rodovalho",
        "zipcode": "14161-162"
    },
    {
        "city": "Sertaozinho",
        "state": "SP",
        "district": "Jardim Liberdade",
        "street": "Rua Nilson Wander Maraucci Junior",
        "zipcode": "14164-130"
    },
    {
        "city": "Sertaozinho",
        "state": "SP",
        "district": "Jardim Sao Jose",
        "street": "Rua Osvaldo Machado",
        "zipcode": "14170-820"
    },
    {
        "city": "Sertaozinho",
        "state": "SP",
        "district": "Jardim Das Palmeiras",
        "street": "Avenida Jose Ferreira Fontes",
        "zipcode": "14177-292"
    },
    {
        "city": "Sertaozinho",
        "state": "SP",
        "district": "Conj Habit Maurilio Biagi",
        "street": "Avenida Argemiro Balbo",
        "zipcode": "14177-268"
    },
    {
        "city": "Sertaozinho",
        "state": "SP",
        "district": "Fazenda Sao Francisco",
        "street": "Fazenda Sao Francisco",
        "zipcode": "14160-122"
    },
    {
        "city": "Sertaozinho",
        "state": "SP",
        "district": "Jardim Cajuba",
        "street": "Rua Joao Mucci",
        "zipcode": "14177-088"
    },
    {
        "city": "Sertaozinho",
        "state": "SP",
        "district": "Fazenda Sao Geraldo",
        "street": "Fazenda Sao Geraldo",
        "zipcode": "14160-124"
    },
    {
        "city": "Sertaozinho",
        "state": "SP",
        "district": "Jardim Centro Ferroviario",
        "street": "Rua Maurilio Dias",
        "zipcode": "14166-109"
    },
    {
        "city": "Sertaozinho",
        "state": "SP",
        "district": "Jardim Centro Ferroviario",
        "street": "Rua Olisio Messias Do Nascimento",
        "zipcode": "14166-105"
    },
    {
        "city": "Sertaozinho",
        "state": "SP",
        "district": "Jardim Itapua",
        "street": "Rua Americo Nunes Maia",
        "zipcode": "14161-165"
    },
    {
        "city": "Sertaozinho",
        "state": "SP",
        "district": "Conj Habit Antonio Costa Patrao",
        "street": "Rua Vergilio Pavan",
        "zipcode": "14164-140"
    },
    {
        "city": "Sertaozinho",
        "state": "SP",
        "district": "Jardim 5 De Dezembro",
        "street": "Praça Antonio Almussa",
        "zipcode": "14160-029"
    },
    {
        "city": "Sertaozinho",
        "state": "SP",
        "district": "Conj Habit Antonio Costa Patrao",
        "street": "Rua Jose Gavaldao Rodrigues",
        "zipcode": "14164-138"
    },
    {
        "city": "Sertaozinho",
        "state": "SP",
        "district": "Conj Habit Maurilio Biagi",
        "street": "Rua Quinze",
        "zipcode": "14177-277"
    },
    {
        "city": "Sertaozinho",
        "state": "SP",
        "district": "Fazenda Santo Antonio",
        "street": "Fazenda Santo Antonio",
        "zipcode": "14160-190"
    },
    {
        "city": "Sertaozinho",
        "state": "SP",
        "district": "Jardim Das Palmeiras",
        "street": "Avenida Manoel Pavan",
        "zipcode": "14177-204"
    },
    {
        "city": "Sertaozinho",
        "state": "SP",
        "district": "Conj Habit Antonio Costa Patrao",
        "street": "Rua Angelo Schiavinato",
        "zipcode": "14164-142"
    },
    {
        "city": "Sertaozinho",
        "state": "SP",
        "district": "Shangri",
        "street": "Rua Jose Da Costa Vieira",
        "zipcode": "14160-380"
    },
    {
        "city": "Sertaozinho",
        "state": "SP",
        "district": "Jardim Cajuba",
        "street": "Rua Jose Tremeschim",
        "zipcode": "14177-092"
    },
    {
        "city": "Sertaozinho",
        "state": "SP",
        "district": "Jardim Bela Vista",
        "street": "Praça Guelfo Martelli",
        "zipcode": "14160-269"
    },
    {
        "city": "Sertaozinho",
        "state": "SP",
        "district": "Conj Habit Maurilio Biagi",
        "street": "Rua Pedro Morasca",
        "zipcode": "14177-272"
    },
    {
        "city": "Sertaozinho",
        "state": "SP",
        "district": "Conj Habit Lourenco Domenici",
        "street": "Rua Deusdedit De Oliveira",
        "zipcode": "14177-065"
    },
    {
        "city": "Sertaozinho",
        "state": "SP",
        "district": "Jardim Sao Sebastiao",
        "street": "Rua Antonio Catananti",
        "zipcode": "14169-158"
    },
    {
        "city": "Sertaozinho",
        "state": "SP",
        "district": "Jardim Das Palmeiras",
        "street": "Avenida Cezar Mingossi",
        "zipcode": "14177-210"
    },
    {
        "city": "Sertaozinho",
        "state": "SP",
        "district": "Jardim Bela Vista",
        "street": "Travessa Anna Dos Santos Freitas",
        "zipcode": "14160-219"
    },
    {
        "city": "Sertaozinho",
        "state": "SP",
        "district": "Alto Do Ginasio",
        "street": "Rua Gastao Vidigal",
        "zipcode": "14160-840"
    },
    {
        "city": "Sertaozinho",
        "state": "SP",
        "district": "Jardim Sao Sebastiao",
        "street": "Avenida Joao Pignatta",
        "zipcode": "14169-125"
    },
    {
        "city": "Sertaozinho",
        "state": "SP",
        "district": "Conj Habit Antonio Costa Patrao",
        "street": "Rua Alberto Benvegnu",
        "zipcode": "14164-132"
    },
    {
        "city": "Sertaozinho",
        "state": "SP",
        "district": "Jardim Sao Jose",
        "street": "Rua Joao Nilson Mossin",
        "zipcode": "14170-800"
    },
    {
        "city": "Sertaozinho",
        "state": "SP",
        "district": "Conj Habit Maurilio Biagi",
        "street": "Rua Salim Name",
        "zipcode": "14177-276"
    },
    {
        "city": "Sertaozinho",
        "state": "SP",
        "district": "Conj Habit Lucia Fabro Sverzut",
        "street": "Avenida Almir Maria Miranda",
        "zipcode": "14161-250"
    },
    {
        "city": "Sertaozinho",
        "state": "SP",
        "district": "Conj Habit Lucia Fabro Sverzut",
        "street": "Rua Tres",
        "zipcode": "14164-178"
    },
    {
        "city": "Sertaozinho",
        "state": "SP",
        "district": "Jardim Itapua",
        "street": "Via Eduardo Toniello",
        "zipcode": "14161-200"
    },
    {
        "city": "Sertaozinho",
        "state": "SP",
        "district": "Jardim Cajuba",
        "street": "Rua Francisco Da Silva",
        "zipcode": "14177-094"
    },
    {
        "city": "Sertaozinho",
        "state": "SP",
        "district": "Jardim Recreio Dos Bandeirantes",
        "street": "Praça Senador Amaral Furlan",
        "zipcode": "14170-759"
    },
    {
        "city": "Sertaozinho",
        "state": "SP",
        "district": "Conj Habit Doutor Ulysses Silveira Guimaraes",
        "street": "Rua Antonio Faustino Dalmazo",
        "zipcode": "14177-378"
    },
    {
        "city": "Sertaozinho",
        "state": "SP",
        "district": "Conj Habit Maurilio Biagi",
        "street": "Rua Antonio Rodrigues Gomes",
        "zipcode": "14177-271"
    },
    {
        "city": "Sertaozinho",
        "state": "SP",
        "district": "Jardim Itapua",
        "street": "Rua Guilhermina Rodrigues Da Silva Toniello",
        "zipcode": "14161-168"
    },
    {
        "city": "Sertaozinho",
        "state": "SP",
        "district": "Shangri",
        "street": "Avenida Francisco De Assis Alvarenga",
        "zipcode": "14160-250"
    },
    {
        "city": "Sertaozinho",
        "state": "SP",
        "district": "Conj Habit Antonio Costa Patrao",
        "street": "Rua Santinho Humberto Aprile",
        "zipcode": "14164-135"
    },
    {
        "city": "Sertaozinho",
        "state": "SP",
        "district": "Conj Habit Lucia Fabro Sverzut",
        "street": "Avenida Almir Maria Miranda",
        "zipcode": "14164-200"
    },
    {
        "city": "Sertaozinho",
        "state": "SP",
        "district": "Conj Habit Antonio Costa Patrao",
        "street": "Praça Antonio De Souza Gomes",
        "zipcode": "14164-029"
    }
]