[
    {
        "city": "Sumare",
        "state": "SP",
        "district": "Centro",
        "street": "Praça Treze De Maio",
        "zipcode": "13170-071"
    },
    {
        "city": "Sumare",
        "state": "SP",
        "district": "Parque Da Amizade (Nova Veneza)",
        "street": "Avenida Da Amizade",
        "zipcode": "13177-340"
    },
    {
        "city": "Sumare",
        "state": "SP",
        "district": "Parque Sila Azevedo (Nova Veneza)",
        "street": "Rua Sete",
        "zipcode": "13177-234"
    },
    {
        "city": "Sumare",
        "state": "SP",
        "district": "Centro",
        "street": "Rua Ipiranga",
        "zipcode": "13170-170"
    },
    {
        "city": "Sumare",
        "state": "SP",
        "district": "Centro",
        "street": "Rua Maximo Biondo",
        "zipcode": "13170-190"
    },
    {
        "city": "Sumare",
        "state": "SP",
        "district": "Centro",
        "street": "Praça Atilio Foffano",
        "zipcode": "13170-210"
    },
    {
        "city": "Sumare",
        "state": "SP",
        "district": "Jardim Alvorada",
        "street": "Rua Joao Jacob Rohwedder",
        "zipcode": "13170-310"
    },
    {
        "city": "Sumare",
        "state": "SP",
        "district": "Centro",
        "street": "Rua Luis Jose Duarte",
        "zipcode": "13170-250"
    },
    {
        "city": "Sumare",
        "state": "SP",
        "district": "Jardim Eunice (Nova Veneza)",
        "street": "Rua Oito",
        "zipcode": "13179-267"
    },
    {
        "city": "Sumare",
        "state": "SP",
        "district": "Centro",
        "street": "Rua Jose Maria Barroca",
        "zipcode": "13170-331"
    },
    {
        "city": "Sumare",
        "state": "SP",
        "district": "Vila Santana",
        "street": "Avenida Joao Argenton",
        "zipcode": "13170-070"
    },
    {
        "city": "Sumare",
        "state": "SP",
        "district": "Centro",
        "street": "Avenida Reboucas",
        "zipcode": "13170-390"
    },
    {
        "city": "Sumare",
        "state": "SP",
        "district": "Centro",
        "street": "Praça Manoel De Vasconcellos",
        "zipcode": "13170-150"
    },
    {
        "city": "Sumare",
        "state": "SP",
        "district": "Centro",
        "street": "Praça Primeiro Centenario",
        "zipcode": "13170-370"
    },
    {
        "city": "Sumare",
        "state": "SP",
        "district": "Centro",
        "street": "Rua Jose Maria Miranda",
        "zipcode": "13170-230"
    },
    {
        "city": "Sumare",
        "state": "SP",
        "district": "Jardim Santa Catarina (Nova Veneza)",
        "street": "Rua Pastor Santino Soares Da Silva",
        "zipcode": "13180-481"
    },
    {
        "city": "Sumare",
        "state": "SP",
        "district": "Centro",
        "street": "Rua Angelo Ongaro",
        "zipcode": "13171-690"
    },
    {
        "city": "Sumare",
        "state": "SP",
        "district": "Jardim Morumbi (Nova Veneza)",
        "street": "Rua Dirceu Augusto Denis",
        "zipcode": "13180-040"
    },
    {
        "city": "Sumare",
        "state": "SP",
        "district": "Centro",
        "street": "Avenida Tres M",
        "zipcode": "13173-020"
    },
    {
        "city": "Sumare",
        "state": "SP",
        "district": "Parque Euclides Miranda (Cecap)",
        "street": "Rua Um",
        "zipcode": "13174-541"
    },
    {
        "city": "Sumare",
        "state": "SP",
        "district": "Jardim Eunice (Nova Veneza)",
        "street": "Rua Quatro",
        "zipcode": "13179-263"
    },
    {
        "city": "Sumare",
        "state": "SP",
        "district": "Centro",
        "street": "Rua Bandeirantes",
        "zipcode": "13170-130"
    },
    {
        "city": "Sumare",
        "state": "SP",
        "district": "Vila Carlos Basso",
        "street": "Rua Rosa Maluf",
        "zipcode": "13171-091"
    },
    {
        "city": "Sumare",
        "state": "SP",
        "district": "Parque Sevilha (Nova Veneza)",
        "street": "Rua Quinze",
        "zipcode": "13178-271"
    },
    {
        "city": "Sumare",
        "state": "SP",
        "district": "Parque Euclides Miranda (Cecap)",
        "street": "Rua Cinco",
        "zipcode": "13174-544"
    },
    {
        "city": "Sumare",
        "state": "SP",
        "district": "Jardim Santa Madalena",
        "street": "Rua Pio Denadai",
        "zipcode": "13172-290"
    },
    {
        "city": "Sumare",
        "state": "SP",
        "district": "Jardim Santa Madalena",
        "street": "Rua Joao Puche",
        "zipcode": "13172-270"
    },
    {
        "city": "Sumare",
        "state": "SP",
        "district": "Centro",
        "street": "Rua Mariano Jatahy Marcondes Ferraz",
        "zipcode": "13173-000"
    },
    {
        "city": "Sumare",
        "state": "SP",
        "district": "Chacara Monte Alegre",
        "street": "Avenida Marginal",
        "zipcode": "13180-036"
    },
    {
        "city": "Sumare",
        "state": "SP",
        "district": "Centro",
        "street": "Rua Emilio Leao Brambila",
        "zipcode": "13171-460"
    },
    {
        "city": "Sumare",
        "state": "SP",
        "district": "Jardim Alvorada",
        "street": "Rua Jose Benetazzo",
        "zipcode": "13170-790"
    },
    {
        "city": "Sumare",
        "state": "SP",
        "district": "Jardim Morumbi (Nova Veneza)",
        "street": "Rua Mario Bosco",
        "zipcode": "13180-044"
    },
    {
        "city": "Sumare",
        "state": "SP",
        "district": "Parque Das Nacoes (Nova Veneza)",
        "street": "Rua Havana",
        "zipcode": "13181-300"
    },
    {
        "city": "Sumare",
        "state": "SP",
        "district": "Jardim Calegari (Nova Veneza)",
        "street": "Rua Geraldo Rosa Verissimo",
        "zipcode": "13181-704"
    },
    {
        "city": "Sumare",
        "state": "SP",
        "district": "Jardim Alvorada",
        "street": "Rua Barbara Blumer",
        "zipcode": "13170-360"
    },
    {
        "city": "Sumare",
        "state": "SP",
        "district": "Parque Sevilha (Nova Veneza)",
        "street": "Rua Seis",
        "zipcode": "13178-255"
    },
    {
        "city": "Sumare",
        "state": "SP",
        "district": "Centro",
        "street": "Praça Rotary Club",
        "zipcode": "13173-011"
    },
    {
        "city": "Sumare",
        "state": "SP",
        "district": "Parque Das Nacoes (Nova Veneza)",
        "street": "Rua Um",
        "zipcode": "13181-131"
    },
    {
        "city": "Sumare",
        "state": "SP",
        "district": "Centro",
        "street": "Viaduto Comendador Aristides Moranza",
        "zipcode": "13173-001"
    },
    {
        "city": "Sumare",
        "state": "SP",
        "district": "Vila Yolanda Costa E Silva",
        "street": "Avenida Reboucas",
        "zipcode": "13172-240"
    },
    {
        "city": "Sumare",
        "state": "SP",
        "district": "Vila Miranda",
        "street": "Rua Eduardo Foffano",
        "zipcode": "13170-721"
    },
    {
        "city": "Sumare",
        "state": "SP",
        "district": "Jardim Sao Carlos",
        "street": "Rua Domingos Franklin Nogueira",
        "zipcode": "13171-080"
    },
    {
        "city": "Sumare",
        "state": "SP",
        "district": "Centro",
        "street": "Rua Sete De Setembro",
        "zipcode": "13171-441"
    },
    {
        "city": "Sumare",
        "state": "SP",
        "district": "Jardim Alvorada",
        "street": "Rua Cesar Biondo",
        "zipcode": "13170-750"
    },
    {
        "city": "Sumare",
        "state": "SP",
        "district": "Jardim Calegari (Nova Veneza)",
        "street": "Rua Um",
        "zipcode": "13181-140"
    },
    {
        "city": "Sumare",
        "state": "SP",
        "district": "Vila Menuzzo",
        "street": "Avenida Reboucas",
        "zipcode": "13171-500"
    },
    {
        "city": "Sumare",
        "state": "SP",
        "district": "Jardim Sao Carlos",
        "street": "Rua Jose Domingos Escalhao",
        "zipcode": "13171-000"
    },
    {
        "city": "Sumare",
        "state": "SP",
        "district": "Jardim Ipiranga (Nova Veneza)",
        "street": "Rua Oito",
        "zipcode": "13181-110"
    },
    {
        "city": "Sumare",
        "state": "SP",
        "district": "Jardim Manchester (Nova Veneza)",
        "street": "Rodovia Ligacao Anhanguera",
        "zipcode": "13178-600"
    },
    {
        "city": "Sumare",
        "state": "SP",
        "district": "Parque Das Nacoes (Nova Veneza)",
        "street": "Rua Tres",
        "zipcode": "13181-133"
    },
    {
        "city": "Sumare",
        "state": "SP",
        "district": "Jardim Sao Carlos",
        "street": "Praça Antonio Marques",
        "zipcode": "13170-122"
    },
    {
        "city": "Sumare",
        "state": "SP",
        "district": "Jardim Paraiso I (Nova Veneza)",
        "street": "Rua Um",
        "zipcode": "13179-330"
    },
    {
        "city": "Sumare",
        "state": "SP",
        "district": "Centro",
        "street": "Praça Lions Club",
        "zipcode": "13173-012"
    },
    {
        "city": "Sumare",
        "state": "SP",
        "district": "Parque Sila Azevedo (Nova Veneza)",
        "street": "Rua Quatro",
        "zipcode": "13177-231"
    },
    {
        "city": "Sumare",
        "state": "SP",
        "district": "Jardim Santa Elisa (Nova Veneza)",
        "street": "Rua Um",
        "zipcode": "13177-380"
    },
    {
        "city": "Sumare",
        "state": "SP",
        "district": "Jardim Marquisollo",
        "street": "Rua Manoel Ferreira Gomes",
        "zipcode": "13171-010"
    },
    {
        "city": "Sumare",
        "state": "SP",
        "district": "Parque Sila Azevedo (Nova Veneza)",
        "street": "Rua Cinco",
        "zipcode": "13177-232"
    },
    {
        "city": "Sumare",
        "state": "SP",
        "district": "Jardim Alvorada",
        "street": "Rua Filomena Braga Coral",
        "zipcode": "13170-760"
    },
    {
        "city": "Sumare",
        "state": "SP",
        "district": "Jardim Consteca",
        "street": "Rua Tres",
        "zipcode": "13172-641"
    },
    {
        "city": "Sumare",
        "state": "SP",
        "district": "Jardim Picerno Ii",
        "street": "Rua Vinte",
        "zipcode": "13173-340"
    },
    {
        "city": "Sumare",
        "state": "SP",
        "district": "Parque Euclides Miranda (Cecap)",
        "street": "Rua Dois",
        "zipcode": "13174-542"
    },
    {
        "city": "Sumare",
        "state": "SP",
        "district": "Jardim Sao Carlos",
        "street": "Praça Maria Piedade Frutuoso Miranda",
        "zipcode": "13171-041"
    },
    {
        "city": "Sumare",
        "state": "SP",
        "district": "Jardim Bom Retiro (Nova Veneza)",
        "street": "Rua Doze",
        "zipcode": "13181-705"
    },
    {
        "city": "Sumare",
        "state": "SP",
        "district": "Jardim Alvorada",
        "street": "Rua Seraphim Coral",
        "zipcode": "13170-770"
    },
    {
        "city": "Sumare",
        "state": "SP",
        "district": "Centro",
        "street": "Praça Da Republica",
        "zipcode": "13170-160"
    },
    {
        "city": "Sumare",
        "state": "SP",
        "district": "Centro",
        "street": "Rua Antonio Pereira De Camargo",
        "zipcode": "13170-200"
    },
    {
        "city": "Sumare",
        "state": "SP",
        "district": "Centro",
        "street": "Rua Angelo Ongaro",
        "zipcode": "13171-691"
    },
    {
        "city": "Sumare",
        "state": "SP",
        "district": "Centro",
        "street": "Rua Joaquim Raposeiro",
        "zipcode": "13173-010"
    },
    {
        "city": "Sumare",
        "state": "SP",
        "district": "Jardim Nova Veneza (Nova Veneza)",
        "street": "Rodovia Anhanguera (Sp",
        "zipcode": "13177-070"
    },
    {
        "city": "Sumare",
        "state": "SP",
        "district": "Jardim Alvorada",
        "street": "Rua Tiburtino Gomes",
        "zipcode": "13170-780"
    },
    {
        "city": "Sumare",
        "state": "SP",
        "district": "Jardim Santa Madalena",
        "street": "Rua Maria Rosaria Breda Rosolem",
        "zipcode": "13172-280"
    },
    {
        "city": "Sumare",
        "state": "SP",
        "district": "Jardim Calegari (Nova Veneza)",
        "street": "Rua Rozendo Alves De Souza",
        "zipcode": "13181-703"
    },
    {
        "city": "Sumare",
        "state": "SP",
        "district": "Jardim Morumbi (Nova Veneza)",
        "street": "Rua Antonio Carlos Casarin",
        "zipcode": "13180-043"
    },
    {
        "city": "Sumare",
        "state": "SP",
        "district": "Parque Euclides Miranda (Cecap)",
        "street": "Rua Quatro",
        "zipcode": "13174-543"
    },
    {
        "city": "Sumare",
        "state": "SP",
        "district": "Parque Sila Azevedo (Nova Veneza)",
        "street": "Rua Oito",
        "zipcode": "13177-235"
    },
    {
        "city": "Sumare",
        "state": "SP",
        "district": "Jardim Virgilio Basso",
        "street": "Rua Bernardo Guimaraes",
        "zipcode": "13174-290"
    },
    {
        "city": "Sumare",
        "state": "SP",
        "district": "Jardim Eldorado",
        "street": "Rua Julio Prestes De Albuquerque",
        "zipcode": "13171-134"
    },
    {
        "city": "Sumare",
        "state": "SP",
        "district": "Jardim Sao Carlos",
        "street": "Praça Antonio Ferreira Quental",
        "zipcode": "13171-031"
    },
    {
        "city": "Sumare",
        "state": "SP",
        "district": "Jardim Mineapolis (Nova Veneza)",
        "street": "Rua Um",
        "zipcode": "13178-480"
    },
    {
        "city": "Sumare",
        "state": "SP",
        "district": "Jardim Santa Rosa (Nova Veneza)",
        "street": "Rua Onze",
        "zipcode": "13179-301"
    },
    {
        "city": "Sumare",
        "state": "SP",
        "district": "Jardim Calegari (Nova Veneza)",
        "street": "Rua Tres",
        "zipcode": "13181-142"
    },
    {
        "city": "Sumare",
        "state": "SP",
        "district": "Parque Sila Azevedo (Nova Veneza)",
        "street": "Rua Joao Squarizzi",
        "zipcode": "13177-230"
    },
    {
        "city": "Sumare",
        "state": "SP",
        "district": "Jardim Sao Roque",
        "street": "Rua Orestes Bianchi",
        "zipcode": "13170-140"
    },
    {
        "city": "Sumare",
        "state": "SP",
        "district": "Centro",
        "street": "Rua Joao Francisco Ramos",
        "zipcode": "13170-180"
    },
    {
        "city": "Sumare",
        "state": "SP",
        "district": "Centro",
        "street": "Rua Antonio Carvalho",
        "zipcode": "13170-220"
    },
    {
        "city": "Sumare",
        "state": "SP",
        "district": "Parque Sila Azevedo (Nova Veneza)",
        "street": "Rua Seis",
        "zipcode": "13177-233"
    },
    {
        "city": "Sumare",
        "state": "SP",
        "district": "Jardim Santa Rosa (Nova Veneza)",
        "street": "Rua Sete",
        "zipcode": "13179-291"
    },
    {
        "city": "Sumare",
        "state": "SP",
        "district": "Jardim Calegari (Nova Veneza)",
        "street": "Rua Renerio Ferreira Filho",
        "zipcode": "13181-694"
    },
    {
        "city": "Sumare",
        "state": "SP",
        "district": "Vila Miranda",
        "street": "Rua Marcelo Pedroni",
        "zipcode": "13170-671"
    }
]