[
    {
        "city": "Taboao Da Serra",
        "state": "SP",
        "district": "Jardim Maria Rosa",
        "street": "Praça Bolivia",
        "zipcode": "06764-210"
    },
    {
        "city": "Taboao Da Serra",
        "state": "SP",
        "district": "Jardim Maria Rosa",
        "street": "Praça Portugal",
        "zipcode": "06763-430"
    },
    {
        "city": "Taboao Da Serra",
        "state": "SP",
        "district": "Jardim Maria Rosa",
        "street": "Praça Equador",
        "zipcode": "06763-410"
    },
    {
        "city": "Taboao Da Serra",
        "state": "SP",
        "district": "Jardim Suina",
        "street": "Praça Butia",
        "zipcode": "06773-070"
    },
    {
        "city": "Taboao Da Serra",
        "state": "SP",
        "district": "Parque Jacaranda",
        "street": "Avenida Pau Brasil",
        "zipcode": "06774-195"
    },
    {
        "city": "Taboao Da Serra",
        "state": "SP",
        "district": "Jardim Mituzi",
        "street": "Praça Jose Da Silva Zeze",
        "zipcode": "06775-295"
    },
    {
        "city": "Taboao Da Serra",
        "state": "SP",
        "district": "Jardim Trianon",
        "street": "Rua Francisco Floreal Peres",
        "zipcode": "06783-265"
    },
    {
        "city": "Taboao Da Serra",
        "state": "SP",
        "district": "Jardim Record",
        "street": "Rua Tres Coroas",
        "zipcode": "06784-230"
    },
    {
        "city": "Taboao Da Serra",
        "state": "SP",
        "district": "Jardim Kuabara",
        "street": "Praça Panama",
        "zipcode": "06753-205"
    },
    {
        "city": "Taboao Da Serra",
        "state": "SP",
        "district": "Jardim Pedro Goncalves",
        "street": "Praça Assuncao",
        "zipcode": "06760-005"
    },
    {
        "city": "Taboao Da Serra",
        "state": "SP",
        "district": "Jardim Clementino",
        "street": "Praça Celio Malta",
        "zipcode": "06770-065"
    },
    {
        "city": "Taboao Da Serra",
        "state": "SP",
        "district": "Condominio Iolanda",
        "street": "Alameda Ciclo",
        "zipcode": "06794-010"
    },
    {
        "city": "Taboao Da Serra",
        "state": "SP",
        "district": "Jardim Tres Marias",
        "street": "Praça Aguas De Sao Pedro",
        "zipcode": "06790-095"
    },
    {
        "city": "Taboao Da Serra",
        "state": "SP",
        "district": "Jardim Maria Rosa",
        "street": "Praça Paraguai",
        "zipcode": "06764-240"
    },
    {
        "city": "Taboao Da Serra",
        "state": "SP",
        "district": "Jardim Leme",
        "street": "Praça Frei Damiao",
        "zipcode": "06773-205"
    },
    {
        "city": "Taboao Da Serra",
        "state": "SP",
        "district": "Parque Santos Dumont",
        "street": "Praça Jose Severino Marques Filho",
        "zipcode": "06754-230"
    },
    {
        "city": "Taboao Da Serra",
        "state": "SP",
        "district": "Nucleo Residencial Isabela",
        "street": "Rua Abel Da Silva Pina",
        "zipcode": "06780-230"
    },
    {
        "city": "Taboao Da Serra",
        "state": "SP",
        "district": "Jardim Maria Rosa",
        "street": "Praça Alemanha",
        "zipcode": "06764-150"
    },
    {
        "city": "Taboao Da Serra",
        "state": "SP",
        "district": "Jardim Sao Judas Tadeu",
        "street": "Praça Guajara",
        "zipcode": "06786-015"
    },
    {
        "city": "Taboao Da Serra",
        "state": "SP",
        "district": "Jardim Paraiso",
        "street": "Praça Bonanza",
        "zipcode": "06755-200"
    },
    {
        "city": "Taboao Da Serra",
        "state": "SP",
        "district": "Jardim Guayana",
        "street": "Praça Chaparral",
        "zipcode": "06755-210"
    },
    {
        "city": "Taboao Da Serra",
        "state": "SP",
        "district": "Jardim Monte Alegre",
        "street": "Praça Vicente Buscarini",
        "zipcode": "06756-415"
    },
    {
        "city": "Taboao Da Serra",
        "state": "SP",
        "district": "Vila Indiana",
        "street": "Praça Vital Brasil",
        "zipcode": "06786-245"
    },
    {
        "city": "Taboao Da Serra",
        "state": "SP",
        "district": "Jardim Guayana",
        "street": "Praça Apaches",
        "zipcode": "06755-095"
    }
]