[
    {
        "city": "Tatui",
        "state": "SP",
        "district": "Vila Jurema",
        "street": "Rua Sao Joao",
        "zipcode": "18273-080"
    },
    {
        "city": "Tatui",
        "state": "SP",
        "district": "Vila Juca Menezes",
        "street": "Rua Dois",
        "zipcode": "18270-430"
    },
    {
        "city": "Tatui",
        "state": "SP",
        "district": "Jardim Tokio",
        "street": "Rua Angelo Poles",
        "zipcode": "18279-353"
    },
    {
        "city": "Tatui",
        "state": "SP",
        "district": "Vila Sao Manoel",
        "street": "Rua Cesario Domingues",
        "zipcode": "18270-080"
    },
    {
        "city": "Tatui",
        "state": "SP",
        "district": "Vila Sao Manoel",
        "street": "Praça Sao Manoel",
        "zipcode": "18270-120"
    },
    {
        "city": "Tatui",
        "state": "SP",
        "district": "Cecap",
        "street": "Praça Dom Aguirre",
        "zipcode": "18271-350"
    },
    {
        "city": "Tatui",
        "state": "SP",
        "district": "Jardim Santa Rita De Cassia",
        "street": "Rua Aristeu Antunes",
        "zipcode": "18274-193"
    },
    {
        "city": "Tatui",
        "state": "SP",
        "district": "Centro",
        "street": "Rua Prefeito Assuncao Ribeiro",
        "zipcode": "18271-000"
    },
    {
        "city": "Tatui",
        "state": "SP",
        "district": "Centro",
        "street": "Rua Onze De Agosto",
        "zipcode": "18270-000"
    },
    {
        "city": "Tatui",
        "state": "SP",
        "district": "Centro",
        "street": "Rua Coronel Guilherme",
        "zipcode": "18275-760"
    },
    {
        "city": "Tatui",
        "state": "SP",
        "district": "Vila Sao Manoel",
        "street": "Travessa Sao Manoel",
        "zipcode": "18270-090"
    },
    {
        "city": "Tatui",
        "state": "SP",
        "district": "Parque Santa Maria",
        "street": "Rua Dona Ana Hough Bernardes",
        "zipcode": "18273-032"
    },
    {
        "city": "Tatui",
        "state": "SP",
        "district": "Jardim Rosa Garcia",
        "street": "Rua Irineu Motta",
        "zipcode": "18275-263"
    },
    {
        "city": "Tatui",
        "state": "SP",
        "district": "Jardim Novo Horizonte",
        "street": "Rua Vinte E Tres",
        "zipcode": "18274-750"
    },
    {
        "city": "Tatui",
        "state": "SP",
        "district": "Vila Sao Manoel",
        "street": "Rua Sao Manoel",
        "zipcode": "18270-110"
    },
    {
        "city": "Tatui",
        "state": "SP",
        "district": "Vila Sao Manoel",
        "street": "Rua Dois",
        "zipcode": "18270-140"
    },
    {
        "city": "Tatui",
        "state": "SP",
        "district": "Vila Santa Helena",
        "street": "Rua Joao Almeida Moraes",
        "zipcode": "18270-480"
    },
    {
        "city": "Tatui",
        "state": "SP",
        "district": "Jardim Santa Rita De Cassia",
        "street": "Rua Prof. Zilah De Aquino",
        "zipcode": "18274-195"
    },
    {
        "city": "Tatui",
        "state": "SP",
        "district": "Jardim Lucila",
        "street": "Rua Dr Medardo Da Costa Neves",
        "zipcode": "18277-080"
    },
    {
        "city": "Tatui",
        "state": "SP",
        "district": "Vila Jurema",
        "street": "Rua Dorival Carneiro",
        "zipcode": "18270-510"
    },
    {
        "city": "Tatui",
        "state": "SP",
        "district": "Parque Santa Maria",
        "street": "Rua Julio Picchi",
        "zipcode": "18273-030"
    },
    {
        "city": "Tatui",
        "state": "SP",
        "district": "Sao Judas Tadeu",
        "street": "Rua Eurico Eugenio Santos",
        "zipcode": "18276-485"
    },
    {
        "city": "Tatui",
        "state": "SP",
        "district": "Alto Santa Cruz",
        "street": "Travessa Antonio Floriano",
        "zipcode": "18275-055"
    },
    {
        "city": "Tatui",
        "state": "SP",
        "district": "Parque Santa Maria",
        "street": "Rua Thomaz Kershaw",
        "zipcode": "18273-050"
    },
    {
        "city": "Tatui",
        "state": "SP",
        "district": "Loteamento Modena",
        "street": "Rua Mateus Peixoto",
        "zipcode": "18276-007"
    },
    {
        "city": "Tatui",
        "state": "SP",
        "district": "Vila Sao Manoel",
        "street": "Avenida Marginal",
        "zipcode": "18270-085"
    },
    {
        "city": "Tatui",
        "state": "SP",
        "district": "Jardim Lucila",
        "street": "Rua Boaventura Jacob Hessel",
        "zipcode": "18277-070"
    },
    {
        "city": "Tatui",
        "state": "SP",
        "district": "Jardim Lucila",
        "street": "Rua Prof. Eulalio Arruda Mello",
        "zipcode": "18277-100"
    },
    {
        "city": "Tatui",
        "state": "SP",
        "district": "Vila Santa Helena",
        "street": "Rua Antonio Rodrigues De Almeida",
        "zipcode": "18270-460"
    },
    {
        "city": "Tatui",
        "state": "SP",
        "district": "Parque Santa Maria",
        "street": "Rua Lourenco Ceciliato",
        "zipcode": "18273-060"
    },
    {
        "city": "Tatui",
        "state": "SP",
        "district": "Fundacao Educacional Manoel Guedes",
        "street": "Rua Antenor Dos Santos",
        "zipcode": "18276-471"
    },
    {
        "city": "Tatui",
        "state": "SP",
        "district": "Loteamento Modena",
        "street": "Rua Claudio Natal Lorenzetti",
        "zipcode": "18276-001"
    },
    {
        "city": "Tatui",
        "state": "SP",
        "district": "Jardim Thomaz Guedes",
        "street": "Rua Michel Nicolau Adum",
        "zipcode": "18276-482"
    },
    {
        "city": "Tatui",
        "state": "SP",
        "district": "Loteamento Modena",
        "street": "Rua Elias Mendes Leal",
        "zipcode": "18276-003"
    },
    {
        "city": "Tatui",
        "state": "SP",
        "district": "Vila Santa Helena",
        "street": "Rua Afonso Arruda Campos",
        "zipcode": "18270-450"
    },
    {
        "city": "Tatui",
        "state": "SP",
        "district": "Jardim Bela Vista",
        "street": "Rua Eugenio Fernandes",
        "zipcode": "18272-130"
    },
    {
        "city": "Tatui",
        "state": "SP",
        "district": "Jardim America",
        "street": "Rua Aurelio Lencione",
        "zipcode": "18273-289"
    },
    {
        "city": "Tatui",
        "state": "SP",
        "district": "Loteamento Modena",
        "street": "Rua Italo Anversa",
        "zipcode": "18276-005"
    },
    {
        "city": "Tatui",
        "state": "SP",
        "district": "Vila Sao Manoel",
        "street": "Rua Vicente Romualdo Ribeiro",
        "zipcode": "18270-100"
    },
    {
        "city": "Tatui",
        "state": "SP",
        "district": "Vila Paulina",
        "street": "Rua Antonio Ferreira De Albuquerque",
        "zipcode": "18276-364"
    },
    {
        "city": "Tatui",
        "state": "SP",
        "district": "Jardim America",
        "street": "Rua Ada Lencione",
        "zipcode": "18273-288"
    },
    {
        "city": "Tatui",
        "state": "SP",
        "district": "Vila Sao Lazaro",
        "street": "Rua Joao Batista Coelho",
        "zipcode": "18274-010"
    },
    {
        "city": "Tatui",
        "state": "SP",
        "district": "Sao Judas Tadeu",
        "street": "Rua Vergilio Lencione",
        "zipcode": "18276-525"
    },
    {
        "city": "Tatui",
        "state": "SP",
        "district": "Fundacao Educacional Manoel Guedes",
        "street": "Rua Josue Casemiro",
        "zipcode": "18276-474"
    },
    {
        "city": "Tatui",
        "state": "SP",
        "district": "Vila Doutor Laurindo",
        "street": "Rua Chiquinha Rodrigues",
        "zipcode": "18273-000"
    },
    {
        "city": "Tatui",
        "state": "SP",
        "district": "Jardim Rosa Garcia",
        "street": "Rua Teofilo Andrade Gama",
        "zipcode": "18274-000"
    },
    {
        "city": "Tatui",
        "state": "SP",
        "district": "Sao Judas Tadeu",
        "street": "Rua Deocacyr Silvestre Domingues",
        "zipcode": "18276-465"
    },
    {
        "city": "Tatui",
        "state": "SP",
        "district": "Vila Sao Paulo",
        "street": "Rua Imigrante Galileu Modena",
        "zipcode": "18272-590"
    },
    {
        "city": "Tatui",
        "state": "SP",
        "district": "Centro",
        "street": "Travessa Romeu Pichi",
        "zipcode": "18276-080"
    },
    {
        "city": "Tatui",
        "state": "SP",
        "district": "Jardim Lucila",
        "street": "Avenida Dr Olavo Ribeiro De Souza",
        "zipcode": "18277-120"
    },
    {
        "city": "Tatui",
        "state": "SP",
        "district": "Vila Sao Cristovao",
        "street": "Travessa Valter Bosso",
        "zipcode": "18279-455"
    },
    {
        "city": "Tatui",
        "state": "SP",
        "district": "Jardim Andrea Ville",
        "street": "Praça Joao Cassemiro",
        "zipcode": "18276-740"
    },
    {
        "city": "Tatui",
        "state": "SP",
        "district": "Vila Juca Menezes",
        "street": "Rua Um",
        "zipcode": "18270-440"
    },
    {
        "city": "Tatui",
        "state": "SP",
        "district": "Fundacao Educacional Manoel Guedes",
        "street": "Rua Mateus Fiuza",
        "zipcode": "18276-476"
    },
    {
        "city": "Tatui",
        "state": "SP",
        "district": "Sao Judas Tadeu",
        "street": "Rua Francelino Soares",
        "zipcode": "18276-495"
    },
    {
        "city": "Tatui",
        "state": "SP",
        "district": "Jardim Lucila",
        "street": "Rua Jose Lincoln Do Amaral",
        "zipcode": "18277-130"
    },
    {
        "city": "Tatui",
        "state": "SP",
        "district": "Cecap",
        "street": "Praça Andrade Lange Adrien",
        "zipcode": "18271-340"
    },
    {
        "city": "Tatui",
        "state": "SP",
        "district": "Conj Habit Amaro Padilha",
        "street": "Rua Jose Cassemiro",
        "zipcode": "18276-210"
    },
    {
        "city": "Tatui",
        "state": "SP",
        "district": "Vila Esperanca",
        "street": "Avenida Eronildes Maciel De Menezes",
        "zipcode": "18278-080"
    },
    {
        "city": "Tatui",
        "state": "SP",
        "district": "Jardim Tokio",
        "street": "Avenida Tokio",
        "zipcode": "18279-352"
    },
    {
        "city": "Tatui",
        "state": "SP",
        "district": "Vila Sao Cristovao",
        "street": "Travessa Ramiro Hermelindo Soares",
        "zipcode": "18279-016"
    },
    {
        "city": "Tatui",
        "state": "SP",
        "district": "Jardim Lucila",
        "street": "Rua Dr Antonio Jarbas Veiga De Barros",
        "zipcode": "18277-140"
    },
    {
        "city": "Tatui",
        "state": "SP",
        "district": "Jardim Ternura",
        "street": "Rua Joao Rodrigues Martins",
        "zipcode": "18279-432"
    },
    {
        "city": "Tatui",
        "state": "SP",
        "district": "Vila Bandeirantes",
        "street": "Rua Jose Leekinch",
        "zipcode": "18278-280"
    },
    {
        "city": "Tatui",
        "state": "SP",
        "district": "Vila Esperanca",
        "street": "Rua Otavio Fiusa",
        "zipcode": "18278-007"
    },
    {
        "city": "Tatui",
        "state": "SP",
        "district": "Loteamento Modena",
        "street": "Rua Muhamcd Ohamad Jamoul",
        "zipcode": "18276-008"
    },
    {
        "city": "Tatui",
        "state": "SP",
        "district": "Jardim Novo Horizonte",
        "street": "Rua Nove",
        "zipcode": "18274-620"
    },
    {
        "city": "Tatui",
        "state": "SP",
        "district": "Jardim Ternura",
        "street": "Rua Bento Quintino De Oliveira",
        "zipcode": "18279-490"
    },
    {
        "city": "Tatui",
        "state": "SP",
        "district": "Vila Santa Helena",
        "street": "Rua Antonio Costa Neves",
        "zipcode": "18270-470"
    },
    {
        "city": "Tatui",
        "state": "SP",
        "district": "Vila Doutor Laurindo",
        "street": "Rua Prof. Maria Conceicao Marcondes",
        "zipcode": "18271-650"
    },
    {
        "city": "Tatui",
        "state": "SP",
        "district": "Loteamento Modena",
        "street": "Rua Jorge Rizeck Filho",
        "zipcode": "18276-006"
    },
    {
        "city": "Tatui",
        "state": "SP",
        "district": "Loteamento Amaro Padilha",
        "street": "Rodovia Senador Laurindo Dias Minhoto",
        "zipcode": "18273-300"
    },
    {
        "city": "Tatui",
        "state": "SP",
        "district": "Parque Santa Maria",
        "street": "Rua Roque Dos Santos",
        "zipcode": "18273-070"
    },
    {
        "city": "Tatui",
        "state": "SP",
        "district": "Jardim Rosa Garcia",
        "street": "Rua Vitoria Dos Santos Gomes",
        "zipcode": "18275-440"
    },
    {
        "city": "Tatui",
        "state": "SP",
        "district": "Vila Juca Menezes",
        "street": "Rua Candido Jose Oliveira",
        "zipcode": "18270-420"
    },
    {
        "city": "Tatui",
        "state": "SP",
        "district": "Vila Doutor Laurindo",
        "street": "Rua Joao Avalone",
        "zipcode": "18273-010"
    },
    {
        "city": "Tatui",
        "state": "SP",
        "district": "Sao Judas Tadeu",
        "street": "Rua Djalma Franco",
        "zipcode": "18276-475"
    },
    {
        "city": "Tatui",
        "state": "SP",
        "district": "Jardim Lucila",
        "street": "Avenida Cientista Jose De Barros Magaldi",
        "zipcode": "18277-150"
    },
    {
        "city": "Tatui",
        "state": "SP",
        "district": "Sao Judas Tadeu",
        "street": "Rua Cassimiro Martins Siqueira",
        "zipcode": "18276-455"
    },
    {
        "city": "Tatui",
        "state": "SP",
        "district": "Fundacao Educacional Manoel Guedes",
        "street": "Rua Vilma Fantoni Carriel",
        "zipcode": "18276-477"
    },
    {
        "city": "Tatui",
        "state": "SP",
        "district": "Sao Judas Tadeu",
        "street": "Rua Prof. Mariana De Almeida Lincoln",
        "zipcode": "18276-515"
    },
    {
        "city": "Tatui",
        "state": "SP",
        "district": "Jardim Bela Vista",
        "street": "Rua Joao Alberto Pires De Campos",
        "zipcode": "18272-140"
    },
    {
        "city": "Tatui",
        "state": "SP",
        "district": "Fundacao Educacional Manoel Guedes",
        "street": "Rua Francisco Antonio De Freitas",
        "zipcode": "18276-473"
    },
    {
        "city": "Tatui",
        "state": "SP",
        "district": "Vila Doutor Laurindo",
        "street": "Rua Prof. Gilberto Pereira Machado",
        "zipcode": "18273-020"
    },
    {
        "city": "Tatui",
        "state": "SP",
        "district": "Jardim Lucila",
        "street": "Rua Mario Washington Araujo",
        "zipcode": "18277-110"
    },
    {
        "city": "Tatui",
        "state": "SP",
        "district": "Jardim Ternura",
        "street": "Rua Jose Menezes Da Silva",
        "zipcode": "18279-436"
    },
    {
        "city": "Tatui",
        "state": "SP",
        "district": "Jardim Lucila",
        "street": "Rua Dr Roque Negrao Filho",
        "zipcode": "18277-090"
    }
]