[
    {
        "city": "Tupa",
        "state": "SP",
        "district": "Centro",
        "street": "Travessa Ubirajaras",
        "zipcode": "17605-530"
    },
    {
        "city": "Tupa",
        "state": "SP",
        "district": "Centro",
        "street": "Rua Jose Alves De Oliveira",
        "zipcode": "17600-590"
    },
    {
        "city": "Tupa",
        "state": "SP",
        "district": "Centro",
        "street": "Praça Kichizo Ozawa",
        "zipcode": "17600-610"
    },
    {
        "city": "Tupa",
        "state": "SP",
        "district": "Jardim Santo Antonio",
        "street": "Avenida Dom Pedro",
        "zipcode": "17602-000"
    },
    {
        "city": "Tupa",
        "state": "SP",
        "district": "Parque Bela Vista",
        "street": "Rua Assur Bittencourt",
        "zipcode": "17603-520"
    },
    {
        "city": "Tupa",
        "state": "SP",
        "district": "Centro",
        "street": "Rua Nhambiquaras",
        "zipcode": "17604-010"
    },
    {
        "city": "Tupa",
        "state": "SP",
        "district": "Parque Ibirapuera",
        "street": "Rua Ivanilde",
        "zipcode": "17602-360"
    },
    {
        "city": "Tupa",
        "state": "SP",
        "district": "Jardim Sao Pedro",
        "street": "Avenida Sao Joao",
        "zipcode": "17602-100"
    },
    {
        "city": "Tupa",
        "state": "SP",
        "district": "Vila Das Industrias",
        "street": "Rua Joao Tavares Do Couto",
        "zipcode": "17604-430"
    },
    {
        "city": "Tupa",
        "state": "SP",
        "district": "Fredyville",
        "street": "Rua Jess Paul Taves",
        "zipcode": "17603-812"
    },
    {
        "city": "Tupa",
        "state": "SP",
        "district": "Vila Santa Terezinha",
        "street": "Rua Antonio Castilho",
        "zipcode": "17601-520"
    },
    {
        "city": "Tupa",
        "state": "SP",
        "district": "Vila Lahoz",
        "street": "Rua Antonio Lahoz",
        "zipcode": "17600-240"
    },
    {
        "city": "Tupa",
        "state": "SP",
        "district": "Vila Viaduto",
        "street": "Rua Orlando Romeu Peregrino Da Silva",
        "zipcode": "17601-420"
    },
    {
        "city": "Tupa",
        "state": "SP",
        "district": "Fredyville",
        "street": "Rua Francisco Moraes Pio De Almeida",
        "zipcode": "17603-814"
    },
    {
        "city": "Tupa",
        "state": "SP",
        "district": "Centro",
        "street": "Rua Prof. Antonio Carrilho Garrido",
        "zipcode": "17600-630"
    },
    {
        "city": "Tupa",
        "state": "SP",
        "district": "Parque Ibirapuera",
        "street": "Rua Felipe Bispo",
        "zipcode": "17602-400"
    },
    {
        "city": "Tupa",
        "state": "SP",
        "district": "Jardim Sao Pedro",
        "street": "Rua Carmelo Morabito",
        "zipcode": "17602-010"
    },
    {
        "city": "Tupa",
        "state": "SP",
        "district": "Vila Das Industrias",
        "street": "Praça Ouro Branco",
        "zipcode": "17604-431"
    },
    {
        "city": "Tupa",
        "state": "SP",
        "district": "Centro",
        "street": "Praça Marechal Rondon",
        "zipcode": "17600-620"
    },
    {
        "city": "Tupa",
        "state": "SP",
        "district": "Vila Abarca",
        "street": "Rua Ninive Mauruto",
        "zipcode": "17601-590"
    },
    {
        "city": "Tupa",
        "state": "SP",
        "district": "Vila Sao Jose",
        "street": "Rua Jose Molica",
        "zipcode": "17602-080"
    },
    {
        "city": "Tupa",
        "state": "SP",
        "district": "Vila Das Industrias",
        "street": "Rua A",
        "zipcode": "17604-320"
    },
    {
        "city": "Tupa",
        "state": "SP",
        "district": "Fredyville",
        "street": "Rua Roger Rodrigues",
        "zipcode": "17603-810"
    },
    {
        "city": "Tupa",
        "state": "SP",
        "district": "Vila Lahoz",
        "street": "Rua Tupis",
        "zipcode": "17600-170"
    },
    {
        "city": "Tupa",
        "state": "SP",
        "district": "Vila Tupa Mirim Ii",
        "street": "Avenida Lelio Pizza",
        "zipcode": "17600-230"
    },
    {
        "city": "Tupa",
        "state": "SP",
        "district": "Jardim Maraba",
        "street": "Rua Jose Molica",
        "zipcode": "17601-160"
    },
    {
        "city": "Tupa",
        "state": "SP",
        "district": "Centro",
        "street": "Rua Aimores",
        "zipcode": "17600-160"
    },
    {
        "city": "Tupa",
        "state": "SP",
        "district": "Centro",
        "street": "Rua Nhambiquaras",
        "zipcode": "17605-020"
    },
    {
        "city": "Tupa",
        "state": "SP",
        "district": "Vila Sao Jose",
        "street": "Rua Capitao Almeida",
        "zipcode": "17602-420"
    },
    {
        "city": "Tupa",
        "state": "SP",
        "district": "Vila Das Industrias",
        "street": "Rua Joao Lemes Soares",
        "zipcode": "17604-800"
    },
    {
        "city": "Tupa",
        "state": "SP",
        "district": "Fredyville",
        "street": "Rua Jose Caran Filho",
        "zipcode": "17603-813"
    },
    {
        "city": "Tupa",
        "state": "SP",
        "district": "Parque Dom Bosco",
        "street": "Rua Dom Bosco",
        "zipcode": "17600-210"
    },
    {
        "city": "Tupa",
        "state": "SP",
        "district": "Parque Ipanema",
        "street": "Rua Caetano Violante",
        "zipcode": "17602-290"
    },
    {
        "city": "Tupa",
        "state": "SP",
        "district": "Vila Inglesa",
        "street": "Alameda Cardiff",
        "zipcode": "17603-570"
    },
    {
        "city": "Tupa",
        "state": "SP",
        "district": "Centro",
        "street": "Rua Mandaguaris",
        "zipcode": "17604-000"
    },
    {
        "city": "Tupa",
        "state": "SP",
        "district": "Parque Presidente Kenedy",
        "street": "Rua Marechal Rondon",
        "zipcode": "17602-520"
    },
    {
        "city": "Tupa",
        "state": "SP",
        "district": "Jardim Aritana",
        "street": "Rua Sussumo Suguihura",
        "zipcode": "17602-600"
    },
    {
        "city": "Tupa",
        "state": "SP",
        "district": "Jardim Santo Antonio",
        "street": "Avenida Centenario",
        "zipcode": "17602-570"
    },
    {
        "city": "Tupa",
        "state": "SP",
        "district": "Jardim America",
        "street": "Rua Brasil",
        "zipcode": "17605-010"
    },
    {
        "city": "Tupa",
        "state": "SP",
        "district": "Vila Sao Jose",
        "street": "Rua Sao Joao",
        "zipcode": "17602-421"
    },
    {
        "city": "Tupa",
        "state": "SP",
        "district": "Parque Bela Vista",
        "street": "Rua Nicola De Molla",
        "zipcode": "17603-530"
    },
    {
        "city": "Tupa",
        "state": "SP",
        "district": "Parque Universitario",
        "street": "Rua Caingangs",
        "zipcode": "17607-000"
    },
    {
        "city": "Tupa",
        "state": "SP",
        "district": "Parque Maria Cristina",
        "street": "Rua Peruibe",
        "zipcode": "17602-800"
    },
    {
        "city": "Tupa",
        "state": "SP",
        "district": "Vila Das Industrias",
        "street": "Rua Herculandia",
        "zipcode": "17604-760"
    },
    {
        "city": "Tupa",
        "state": "SP",
        "district": "Parque Sao Pedro",
        "street": "Rua Um (1)",
        "zipcode": "17602-810"
    },
    {
        "city": "Tupa",
        "state": "SP",
        "district": "Parque Das Nacoes",
        "street": "Rua Joao Walfredo Riveiro",
        "zipcode": "17606-110"
    },
    {
        "city": "Tupa",
        "state": "SP",
        "district": "Parque Universitario",
        "street": "Rua Alberto Bereta",
        "zipcode": "17607-270"
    },
    {
        "city": "Tupa",
        "state": "SP",
        "district": "Vila Europa",
        "street": "Rua Nicaragua",
        "zipcode": "17604-810"
    },
    {
        "city": "Tupa",
        "state": "SP",
        "district": "Parque Das Nacoes",
        "street": "Rua Antonio Digigow",
        "zipcode": "17606-310"
    },
    {
        "city": "Tupa",
        "state": "SP",
        "district": "Jardim America",
        "street": "Rua Mexico",
        "zipcode": "17605-060"
    },
    {
        "city": "Tupa",
        "state": "SP",
        "district": "Parque Industrial",
        "street": "Rua Projetada Um",
        "zipcode": "17606-460"
    },
    {
        "city": "Tupa",
        "state": "SP",
        "district": "Vila Abarca",
        "street": "Rua Rosa Magi Convento",
        "zipcode": "17607-490"
    },
    {
        "city": "Tupa",
        "state": "SP",
        "district": "Vila Europa",
        "street": "Rua Letonia",
        "zipcode": "17604-740"
    },
    {
        "city": "Tupa",
        "state": "SP",
        "district": "Parque Presidente Kenedy",
        "street": "Rua Joaquim Murtinho",
        "zipcode": "17602-680"
    },
    {
        "city": "Tupa",
        "state": "SP",
        "district": "Vila Sao Paulo",
        "street": "Rua Nhambiquaras",
        "zipcode": "17605-030"
    },
    {
        "city": "Tupa",
        "state": "SP",
        "district": "Parque Das Nacoes",
        "street": "Rua Zico Macorim",
        "zipcode": "17606-420"
    },
    {
        "city": "Tupa",
        "state": "SP",
        "district": "Parque Industrial",
        "street": "Rua Projetada Tres",
        "zipcode": "17606-470"
    },
    {
        "city": "Tupa",
        "state": "SP",
        "district": "Jardim Aritana",
        "street": "Rua Faustino Danelutti",
        "zipcode": "17602-620"
    },
    {
        "city": "Tupa",
        "state": "SP",
        "district": "Vila Abarca",
        "street": "Rua Sao Judas Tadeu",
        "zipcode": "17607-530"
    },
    {
        "city": "Tupa",
        "state": "SP",
        "district": "Vila Abarca",
        "street": "Rua Santo Agostinho",
        "zipcode": "17607-540"
    },
    {
        "city": "Tupa",
        "state": "SP",
        "district": "Jardim Nossa Senhora De Fatima",
        "street": "Rua Sao Paulo",
        "zipcode": "17606-160"
    },
    {
        "city": "Tupa",
        "state": "SP",
        "district": "Parque Ibirapuera",
        "street": "Rua Itapolis",
        "zipcode": "17602-440"
    },
    {
        "city": "Tupa",
        "state": "SP",
        "district": "Parque Ibirapuera",
        "street": "Rua Eduardo Zamataro",
        "zipcode": "17602-450"
    },
    {
        "city": "Tupa",
        "state": "SP",
        "district": "Jardim Nossa Senhora De Fatima",
        "street": "Rua Sao Pedro",
        "zipcode": "17606-140"
    },
    {
        "city": "Tupa",
        "state": "SP",
        "district": "Parque Ibirapuera",
        "street": "Rua Ubirata",
        "zipcode": "17602-740"
    },
    {
        "city": "Tupa",
        "state": "SP",
        "district": "Jardim Guaruja",
        "street": "Rua Tiradentes",
        "zipcode": "17605-170"
    },
    {
        "city": "Tupa",
        "state": "SP",
        "district": "Jardim Guaruja",
        "street": "Rua Antonio Cabrera",
        "zipcode": "17605-160"
    },
    {
        "city": "Tupa",
        "state": "SP",
        "district": "Vila Faut",
        "street": "Rua Otoniel Da Silva Jordao",
        "zipcode": "17607-340"
    },
    {
        "city": "Tupa",
        "state": "SP",
        "district": "Jardim America",
        "street": "Rua Estados Unidos",
        "zipcode": "17605-000"
    },
    {
        "city": "Tupa",
        "state": "SP",
        "district": "Parque Bela Vista",
        "street": "Rua Orlando Placido",
        "zipcode": "17603-490"
    },
    {
        "city": "Tupa",
        "state": "SP",
        "district": "Jardim Maraba",
        "street": "Rua Uruguai",
        "zipcode": "17602-780"
    },
    {
        "city": "Tupa",
        "state": "SP",
        "district": "Parque Universitario",
        "street": "Rua Claudio Dias Rodgher",
        "zipcode": "17607-250"
    },
    {
        "city": "Tupa",
        "state": "SP",
        "district": "Parque Das Nacoes",
        "street": "Rua Lino Spinardi",
        "zipcode": "17606-320"
    },
    {
        "city": "Tupa",
        "state": "SP",
        "district": "Parque Das Nacoes",
        "street": "Rua Paris",
        "zipcode": "17606-440"
    },
    {
        "city": "Tupa",
        "state": "SP",
        "district": "Vila Marajoara",
        "street": "Praça Sussumo Nogushi",
        "zipcode": "17603-051"
    },
    {
        "city": "Tupa",
        "state": "SP",
        "district": "Vila Vargas",
        "street": "Rua Leticiano Jesus Costa",
        "zipcode": "17605-100"
    },
    {
        "city": "Tupa",
        "state": "SP",
        "district": "Jardim Rubiacea",
        "street": "Rua Carmini Corteline",
        "zipcode": "17607-200"
    },
    {
        "city": "Tupa",
        "state": "SP",
        "district": "Parque Industrial",
        "street": "Rua Henrique Turner Filho",
        "zipcode": "17606-220"
    },
    {
        "city": "Tupa",
        "state": "SP",
        "district": "Jardim Rubiacea",
        "street": "Rua Domingos Hermenegildo",
        "zipcode": "17607-190"
    },
    {
        "city": "Tupa",
        "state": "SP",
        "district": "Parque Das Nacoes",
        "street": "Rua Suica",
        "zipcode": "17606-430"
    },
    {
        "city": "Tupa",
        "state": "SP",
        "district": "Parque Das Nacoes",
        "street": "Rodovia Comandante Joao Ribeiro De Barros",
        "zipcode": "17606-490"
    },
    {
        "city": "Tupa",
        "state": "SP",
        "district": "Jardim America",
        "street": "Rua Cuba",
        "zipcode": "17605-520"
    },
    {
        "city": "Tupa",
        "state": "SP",
        "district": "Jardim Maraba",
        "street": "Rua Julio Dualibi",
        "zipcode": "17602-790"
    },
    {
        "city": "Tupa",
        "state": "SP",
        "district": "Parque Bela Vista",
        "street": "Rua Francisco Romero Martins",
        "zipcode": "17603-500"
    },
    {
        "city": "Tupa",
        "state": "SP",
        "district": "Parque Ipiranga",
        "street": "Rua Planalto",
        "zipcode": "17602-540"
    },
    {
        "city": "Tupa",
        "state": "SP",
        "district": "Parque Universitario",
        "street": "Rua Othon Guedes Junior",
        "zipcode": "17607-240"
    },
    {
        "city": "Tupa",
        "state": "SP",
        "district": "Jardim Santa Maria",
        "street": "Rua Pedro Pavanelli",
        "zipcode": "17602-710"
    },
    {
        "city": "Tupa",
        "state": "SP",
        "district": "Jardim Rubiacea",
        "street": "Rua Jose Mula Moreno",
        "zipcode": "17607-180"
    },
    {
        "city": "Tupa",
        "state": "SP",
        "district": "Jardim Ipiranga",
        "street": "Rua Jose Bonifacio",
        "zipcode": "17607-480"
    },
    {
        "city": "Tupa",
        "state": "SP",
        "district": "Centro",
        "street": "Travessa Particular",
        "zipcode": "17600-600"
    },
    {
        "city": "Tupa",
        "state": "SP",
        "district": "Jardim Ideal",
        "street": "Rua Abel Ferreira Leite",
        "zipcode": "17600-220"
    },
    {
        "city": "Tupa",
        "state": "SP",
        "district": "Jardim America",
        "street": "Rua Canada",
        "zipcode": "17605-070"
    },
    {
        "city": "Tupa",
        "state": "SP",
        "district": "Fredyville",
        "street": "Rua Frederico Pavanelli Filho",
        "zipcode": "17603-811"
    },
    {
        "city": "Tupa",
        "state": "SP",
        "district": "Parque Das Nacoes",
        "street": "Rua Maria Jose Seixas Cunha",
        "zipcode": "17606-330"
    },
    {
        "city": "Tupa",
        "state": "SP",
        "district": "Jardim Aritana",
        "street": "Rua Daniel Apparicio",
        "zipcode": "17602-610"
    },
    {
        "city": "Tupa",
        "state": "SP",
        "district": "Conj Habit Vereador Antonio Caran",
        "street": "Rua Alfredo Modelli",
        "zipcode": "17603-830"
    },
    {
        "city": "Tupa",
        "state": "SP",
        "district": "Jardim Nossa Senhora De Fatima",
        "street": "Rua Sao Joao",
        "zipcode": "17606-150"
    },
    {
        "city": "Tupa",
        "state": "SP",
        "district": "Vila Das Industrias",
        "street": "Rua Quintana",
        "zipcode": "17604-820"
    },
    {
        "city": "Tupa",
        "state": "SP",
        "district": "Parque Universitario",
        "street": "Rua Andre Garcia Soares",
        "zipcode": "17607-260"
    },
    {
        "city": "Tupa",
        "state": "SP",
        "district": "Parque Ibirapuera",
        "street": "Rua Do Canal",
        "zipcode": "17602-430"
    },
    {
        "city": "Tupa",
        "state": "SP",
        "district": "Jardim Maraba",
        "street": "Rua Brasil",
        "zipcode": "17602-820"
    },
    {
        "city": "Tupa",
        "state": "SP",
        "district": "Vila Abarca",
        "street": "Rua Sao Miguel",
        "zipcode": "17607-520"
    },
    {
        "city": "Tupa",
        "state": "SP",
        "district": "Vila Sao Paulo",
        "street": "Rua Belem",
        "zipcode": "17605-510"
    },
    {
        "city": "Tupa",
        "state": "SP",
        "district": "Vila Formosa",
        "street": "Rua Valdemar",
        "zipcode": "17600-190"
    },
    {
        "city": "Tupa",
        "state": "SP",
        "district": "Conj Habit Cinquentenario",
        "street": "Retorno Dr Luacil Ribeiro Da Silva",
        "zipcode": "17603-803"
    },
    {
        "city": "Tupa",
        "state": "SP",
        "district": "Jardim Rubiacea",
        "street": "Rua Augusto Carlino",
        "zipcode": "17607-170"
    },
    {
        "city": "Tupa",
        "state": "SP",
        "district": "Parque Universitario",
        "street": "Rua Maurilio Rodrigues De Carvalho",
        "zipcode": "17607-230"
    },
    {
        "city": "Tupa",
        "state": "SP",
        "district": "Parque Ipiranga",
        "street": "Rua Campinas",
        "zipcode": "17602-530"
    },
    {
        "city": "Tupa",
        "state": "SP",
        "district": "Conj Habit Vereador Antonio Caran",
        "street": "Rua Benedito Elias De Andrade",
        "zipcode": "17603-540"
    },
    {
        "city": "Tupa",
        "state": "SP",
        "district": "Parque Bela Vista",
        "street": "Rua Evaristo Quinquio",
        "zipcode": "17603-510"
    },
    {
        "city": "Tupa",
        "state": "SP",
        "district": "Conj Habit Jose Maria Goncalves Gameiro",
        "street": "Rua Pioneiro Gallo Soares",
        "zipcode": "17602-689"
    },
    {
        "city": "Tupa",
        "state": "SP",
        "district": "Vila Formosa",
        "street": "Rua Miguel Aidar",
        "zipcode": "17602-090"
    },
    {
        "city": "Tupa",
        "state": "SP",
        "district": "Parque Industrial",
        "street": "Rua Roberto Vicente Reis",
        "zipcode": "17606-450"
    },
    {
        "city": "Tupa",
        "state": "SP",
        "district": "Centro",
        "street": "Rua Gantus",
        "zipcode": "17604-750"
    },
    {
        "city": "Tupa",
        "state": "SP",
        "district": "Vila Liberdade",
        "street": "Rua Itariri",
        "zipcode": "17601-340"
    },
    {
        "city": "Tupa",
        "state": "SP",
        "district": "Parque Das Nacoes",
        "street": "Praça Princesa Izabel",
        "zipcode": "17606-431"
    },
    {
        "city": "Tupa",
        "state": "SP",
        "district": "Parque Ibirapuera",
        "street": "Rua Casimiro De Abreu",
        "zipcode": "17602-390"
    },
    {
        "city": "Tupa",
        "state": "SP",
        "district": "Conj Habit Cinquentenario",
        "street": "Rua Takeichi Kawakami",
        "zipcode": "17603-800"
    },
    {
        "city": "Tupa",
        "state": "SP",
        "district": "Vila Santa Terezinha",
        "street": "Rua Governador Pedro De Toledo",
        "zipcode": "17601-490"
    },
    {
        "city": "Tupa",
        "state": "SP",
        "district": "Parque Universitario",
        "street": "Praça Major Joao Bueno Da Fonseca",
        "zipcode": "17607-570"
    },
    {
        "city": "Tupa",
        "state": "SP",
        "district": "Parque Ibirapuera",
        "street": "Rua Vinte E Cinco De Abril",
        "zipcode": "17602-350"
    },
    {
        "city": "Tupa",
        "state": "SP",
        "district": "Vila Giovanetti",
        "street": "Rua Caingangs",
        "zipcode": "17600-080"
    },
    {
        "city": "Tupa",
        "state": "SP",
        "district": "Jardim Rubiacea",
        "street": "Praça Monsenhor Afonso Haffner",
        "zipcode": "17607-201"
    },
    {
        "city": "Tupa",
        "state": "SP",
        "district": "Vila Santa Cecilia",
        "street": "Rua Moema",
        "zipcode": "17601-410"
    },
    {
        "city": "Tupa",
        "state": "SP",
        "district": "Jardim Apoema",
        "street": "Rua Francisco Gomes Pato",
        "zipcode": "17602-650"
    }
]