[
    {
        "city": "Varzea Paulista",
        "state": "SP",
        "district": "Centro",
        "street": "Avenida Duque De Caxias",
        "zipcode": "13224-000"
    },
    {
        "city": "Varzea Paulista",
        "state": "SP",
        "district": "Jardim America Ii",
        "street": "Avenida Barretos",
        "zipcode": "13221-340"
    },
    {
        "city": "Varzea Paulista",
        "state": "SP",
        "district": "Jardim Do Lar",
        "street": "Rua Jose Da Silva Leme",
        "zipcode": "13220-310"
    },
    {
        "city": "Varzea Paulista",
        "state": "SP",
        "district": "Jardim Do Lar",
        "street": "Rua Pedro Guilherme",
        "zipcode": "13220-320"
    },
    {
        "city": "Varzea Paulista",
        "state": "SP",
        "district": "Jardim Do Lar",
        "street": "Rua Joao Povoa",
        "zipcode": "13220-360"
    },
    {
        "city": "Varzea Paulista",
        "state": "SP",
        "district": "Jardim Paulista",
        "street": "Rua Mogi Das Cruzes",
        "zipcode": "13221-220"
    },
    {
        "city": "Varzea Paulista",
        "state": "SP",
        "district": "Jardim America Ii",
        "street": "Rua Osasco",
        "zipcode": "13221-420"
    },
    {
        "city": "Varzea Paulista",
        "state": "SP",
        "district": "Jardim Cruz Alta",
        "street": "Rua Guaxupe",
        "zipcode": "13224-510"
    },
    {
        "city": "Varzea Paulista",
        "state": "SP",
        "district": "Parque Guarani",
        "street": "Rua Guarana",
        "zipcode": "13225-401"
    },
    {
        "city": "Varzea Paulista",
        "state": "SP",
        "district": "Jardim Mirante",
        "street": "Rua Tulipas",
        "zipcode": "13224-612"
    },
    {
        "city": "Varzea Paulista",
        "state": "SP",
        "district": "Jardim Bela Vista",
        "street": "Rua Ipanema",
        "zipcode": "13224-611"
    },
    {
        "city": "Varzea Paulista",
        "state": "SP",
        "district": "Jardim America I",
        "street": "Avenida Paraibuna",
        "zipcode": "13221-200"
    },
    {
        "city": "Varzea Paulista",
        "state": "SP",
        "district": "Jardim America Ii",
        "street": "Rua Cacapava",
        "zipcode": "13221-421"
    },
    {
        "city": "Varzea Paulista",
        "state": "SP",
        "district": "Jardim Mirante",
        "street": "Rua Samambaia",
        "zipcode": "13224-621"
    },
    {
        "city": "Varzea Paulista",
        "state": "SP",
        "district": "Jardim Boa Vista",
        "street": "Rua Um",
        "zipcode": "13222-440"
    },
    {
        "city": "Varzea Paulista",
        "state": "SP",
        "district": "Chacaras Santa Martha",
        "street": "Avenida Marginal Rio Jundiai",
        "zipcode": "13222-800"
    },
    {
        "city": "Varzea Paulista",
        "state": "SP",
        "district": "Jardim Itajai",
        "street": "Rua Iris",
        "zipcode": "13224-271"
    },
    {
        "city": "Varzea Paulista",
        "state": "SP",
        "district": "Centro",
        "street": "Rua Antonio Feres Sada",
        "zipcode": "13224-020"
    },
    {
        "city": "Varzea Paulista",
        "state": "SP",
        "district": "Jardim Paulista",
        "street": "Rua Sao Jose Dos Campos",
        "zipcode": "13221-010"
    },
    {
        "city": "Varzea Paulista",
        "state": "SP",
        "district": "Parque Guarani",
        "street": "Rua Jatai",
        "zipcode": "13225-410"
    },
    {
        "city": "Varzea Paulista",
        "state": "SP",
        "district": "Vila Popular",
        "street": "Rua Sergipe",
        "zipcode": "13225-250"
    },
    {
        "city": "Varzea Paulista",
        "state": "SP",
        "district": "Jardim Maria De Fatima",
        "street": "Rua Joao Sutti",
        "zipcode": "13220-380"
    },
    {
        "city": "Varzea Paulista",
        "state": "SP",
        "district": "Jardim Paulista",
        "street": "Rua Sao Bernardo Do Campo",
        "zipcode": "13221-020"
    },
    {
        "city": "Varzea Paulista",
        "state": "SP",
        "district": "Parque Guarani",
        "street": "Rua Pindare",
        "zipcode": "13225-400"
    },
    {
        "city": "Varzea Paulista",
        "state": "SP",
        "district": "Parque Guarani",
        "street": "Rua Arata",
        "zipcode": "13225-580"
    },
    {
        "city": "Varzea Paulista",
        "state": "SP",
        "district": "Centro",
        "street": "Rua Isaac Galvao",
        "zipcode": "13224-010"
    },
    {
        "city": "Varzea Paulista",
        "state": "SP",
        "district": "Jardim Primavera",
        "street": "Praça Da Biblia",
        "zipcode": "13220-229"
    },
    {
        "city": "Varzea Paulista",
        "state": "SP",
        "district": "Centro",
        "street": "Rua Pedro Poloni",
        "zipcode": "13220-370"
    },
    {
        "city": "Varzea Paulista",
        "state": "SP",
        "district": "Jardim Bertioga",
        "street": "Rua Jose Rabello Portella",
        "zipcode": "13225-240"
    },
    {
        "city": "Varzea Paulista",
        "state": "SP",
        "district": "Jardim Maria De Fatima",
        "street": "Rua Antonio Luiz Sutti",
        "zipcode": "13220-410"
    },
    {
        "city": "Varzea Paulista",
        "state": "SP",
        "district": "Jardim Diana",
        "street": "Rua Alcides Lopes",
        "zipcode": "13224-191"
    },
    {
        "city": "Varzea Paulista",
        "state": "SP",
        "district": "Centro",
        "street": "Praça Da Liberdade",
        "zipcode": "13224-009"
    },
    {
        "city": "Varzea Paulista",
        "state": "SP",
        "district": "Jardim Primavera",
        "street": "Praça Primavera",
        "zipcode": "13220-409"
    },
    {
        "city": "Varzea Paulista",
        "state": "SP",
        "district": "Vila Santa Terezinha",
        "street": "Rua Maria Stela",
        "zipcode": "13220-420"
    },
    {
        "city": "Varzea Paulista",
        "state": "SP",
        "district": "Jardim America Ii",
        "street": "Rua Camapua",
        "zipcode": "13221-422"
    },
    {
        "city": "Varzea Paulista",
        "state": "SP",
        "district": "Jardim Maria De Fatima",
        "street": "Rua Eduardo Gut",
        "zipcode": "13220-390"
    },
    {
        "city": "Varzea Paulista",
        "state": "SP",
        "district": "Jardim Do Lar",
        "street": "Rua Manoel Lopes",
        "zipcode": "13220-350"
    },
    {
        "city": "Varzea Paulista",
        "state": "SP",
        "district": "Jardim Paulista",
        "street": "Rua Sorocaba",
        "zipcode": "13221-000"
    },
    {
        "city": "Varzea Paulista",
        "state": "SP",
        "district": "Jardim Paulista",
        "street": "Rua Ubatuba",
        "zipcode": "13221-210"
    },
    {
        "city": "Varzea Paulista",
        "state": "SP",
        "district": "Vila Popular",
        "street": "Rua Espirito Santo",
        "zipcode": "13225-251"
    },
    {
        "city": "Varzea Paulista",
        "state": "SP",
        "district": "Vila Santa Terezinha",
        "street": "Rua Valentina De Castro",
        "zipcode": "13220-030"
    },
    {
        "city": "Varzea Paulista",
        "state": "SP",
        "district": "Vila Paraiso",
        "street": "Rua Amparo Domingos De Andrade",
        "zipcode": "13224-140"
    },
    {
        "city": "Varzea Paulista",
        "state": "SP",
        "district": "Jardim Mirante",
        "street": "Rua Orquideas",
        "zipcode": "13224-613"
    },
    {
        "city": "Varzea Paulista",
        "state": "SP",
        "district": "Jardim Promeca",
        "street": "Avenida Duque De Caxias",
        "zipcode": "13223-000"
    },
    {
        "city": "Varzea Paulista",
        "state": "SP",
        "district": "Centro",
        "street": "Avenida Fernao Dias Paes Leme",
        "zipcode": "13220-400"
    },
    {
        "city": "Varzea Paulista",
        "state": "SP",
        "district": "Parque Guarani",
        "street": "Rua Arama",
        "zipcode": "13225-590"
    },
    {
        "city": "Varzea Paulista",
        "state": "SP",
        "district": "Vila Marajo",
        "street": "Rua Arari",
        "zipcode": "13225-561"
    },
    {
        "city": "Varzea Paulista",
        "state": "SP",
        "district": "Vila Santa Terezinha",
        "street": "Rua Deolinda Magdalena",
        "zipcode": "13220-541"
    },
    {
        "city": "Varzea Paulista",
        "state": "SP",
        "district": "Chacaras Paulista",
        "street": "Rua Das Azaleas",
        "zipcode": "13223-650"
    }
]