[
    {
        "city": "Altamira",
        "state": "PA",
        "district": "Ibiza",
        "street": "Passagem I",
        "zipcode": "68376-710"
    },
    {
        "city": "Altamira",
        "state": "PA",
        "district": "Ibiza",
        "street": "Passagem III",
        "zipcode": "68376-720"
    },
    {
        "city": "Altamira",
        "state": "PA",
        "district": "Ibiza",
        "street": "Passagem IV",
        "zipcode": "68376-725"
    },
    {
        "city": "Altamira",
        "state": "PA",
        "district": "Ibiza",
        "street": "Passagem IX",
        "zipcode": "68376-750"
    },
    {
        "city": "Altamira",
        "state": "PA",
        "district": "Ibiza",
        "street": "Passagem VI",
        "zipcode": "68376-735"
    },
    {
        "city": "Altamira",
        "state": "PA",
        "district": "Ibiza",
        "street": "Passagem XI",
        "zipcode": "68376-760"
    },
    {
        "city": "Altamira",
        "state": "PA",
        "district": "Mutirão",
        "street": "Rua Sucupira (Lot Jatobá)",
        "zipcode": "68375-582"
    },
    {
        "city": "Altamira",
        "state": "PA",
        "district": "Mutirão",
        "street": "Rua Jatobá (Lot Jatobá)",
        "zipcode": "68375-578"
    },
    {
        "city": "Altamira",
        "state": "PA",
        "district": "Ibiza",
        "street": "Rua Emília Leitão de Oliveira (Lot D Lourenzo)",
        "zipcode": "68376-762"
    },
    {
        "city": "Altamira",
        "state": "PA",
        "district": "Alberto Soares",
        "street": "Alameda Vitória (Lot Altaville I)",
        "zipcode": "68376-104"
    },
    {
        "city": "Altamira",
        "state": "PA",
        "district": "Nova Altamira",
        "street": "Rua dos Pilares",
        "zipcode": "68371-511"
    },
    {
        "city": "Altamira",
        "state": "PA",
        "district": "Bela Vista",
        "street": "Travessa Antonio Melo",
        "zipcode": "68374-760"
    },
    {
        "city": "Altamira",
        "state": "PA",
        "district": "Liberdade",
        "street": "Avenida Anizío Campos Cordeiro (Lot A Senna)",
        "zipcode": "68375-337"
    },
    {
        "city": "Altamira",
        "state": "PA",
        "district": "Ibiza",
        "street": "Travessa Dez de Agosto (Lot D Lourenzo)",
        "zipcode": "68376-774"
    },
    {
        "city": "Altamira",
        "state": "PA",
        "district": "Liberdade",
        "street": "Avenida Wyrislane (Lot A Senna)",
        "zipcode": "68375-349"
    },
    {
        "city": "Altamira",
        "state": "PA",
        "district": "Liberdade",
        "street": "Alameda Osvaldina (Lot A Senna)",
        "zipcode": "68375-450"
    },
    {
        "city": "Altamira",
        "state": "PA",
        "district": "Jardim Independente I",
        "street": "Rua João Paulo II",
        "zipcode": "68373-480"
    },
    {
        "city": "Altamira",
        "state": "PA",
        "district": "Centro",
        "street": "Alameda Projetada",
        "zipcode": "68371-447"
    },
    {
        "city": "Altamira",
        "state": "PA",
        "district": "Jardim Independente I",
        "street": "Rua Severo Sousa",
        "zipcode": "68373-190"
    },
    {
        "city": "Altamira",
        "state": "PA",
        "district": "Liberdade",
        "street": "Rua Abílio Pereira Leão (Lot A Senna II)",
        "zipcode": "68375-478"
    },
    {
        "city": "Altamira",
        "state": "PA",
        "district": "Liberdade",
        "street": "Alameda Cecília Amor (Lot A Senna)",
        "zipcode": "68375-355"
    },
    {
        "city": "Altamira",
        "state": "PA",
        "district": "Mutirão",
        "street": "Rua Ipe (Lot Jatobá)",
        "zipcode": "68375-564"
    },
    {
        "city": "Altamira",
        "state": "PA",
        "district": "Liberdade",
        "street": "Rua Professor Ubirajara Umbuzeiro (Lot A Senna II)",
        "zipcode": "68375-465"
    },
    {
        "city": "Altamira",
        "state": "PA",
        "district": "Nova Altamira",
        "street": "Rua Lucimar Lima de Sousa (Sta Benedita)",
        "zipcode": "68371-616"
    },
    {
        "city": "Altamira",
        "state": "PA",
        "district": "Independente I",
        "street": "Passagem Miguel Inacio Silva",
        "zipcode": "68373-230"
    },
    {
        "city": "Altamira",
        "state": "PA",
        "district": "Ibiza",
        "street": "Rua Porto Velho (Lot Coperfron)",
        "zipcode": "68376-719"
    },
    {
        "city": "Altamira",
        "state": "PA",
        "district": "Jardim Independente I",
        "street": "Rua Pacajá",
        "zipcode": "68372-599"
    },
    {
        "city": "Altamira",
        "state": "PA",
        "district": "Jardim Independente II",
        "street": "Rua das Missões",
        "zipcode": "68372-242"
    },
    {
        "city": "Altamira",
        "state": "PA",
        "district": "Bela Vista",
        "street": "Rua Quatro (Lot Prq Ipê)",
        "zipcode": "68374-718"
    },
    {
        "city": "Altamira",
        "state": "PA",
        "district": "Jardim Independente II",
        "street": "Rua Irmã Serafina",
        "zipcode": "68372-236"
    },
    {
        "city": "Altamira",
        "state": "PA",
        "district": "Bela Vista",
        "street": "Travessa Montes Claros",
        "zipcode": "68374-758"
    },
    {
        "city": "Altamira",
        "state": "PA",
        "district": "Liberdade",
        "street": "Rua Mário Roffe",
        "zipcode": "68375-378"
    },
    {
        "city": "Altamira",
        "state": "PA",
        "district": "Liberdade",
        "street": "Alameda Eliani Raquel (Lot A Senna)",
        "zipcode": "68375-397"
    },
    {
        "city": "Altamira",
        "state": "PA",
        "district": "Liberdade",
        "street": "Rua Presidente Figueiredo (Lot A Senna)",
        "zipcode": "68375-488"
    },
    {
        "city": "Altamira",
        "state": "PA",
        "district": "Independente",
        "street": "Passagem Quatro",
        "zipcode": "68372-810"
    },
    {
        "city": "Altamira",
        "state": "PA",
        "district": "Premem",
        "street": "Travessa Pastor Raimundo Marinho",
        "zipcode": "68372-579"
    },
    {
        "city": "Altamira",
        "state": "PA",
        "district": "Mutirão",
        "street": "Rua João Batista (Lot Jd França)",
        "zipcode": "68377-056"
    },
    {
        "city": "Altamira",
        "state": "PA",
        "district": "Jardim Independente I",
        "street": "Rua São Félix",
        "zipcode": "68373-330"
    },
    {
        "city": "Altamira",
        "state": "PA",
        "district": "Jardim Uirapuru",
        "street": "Rua Beliza de Castro",
        "zipcode": "68373-067"
    },
    {
        "city": "Altamira",
        "state": "PA",
        "district": "Ibiza",
        "street": "Rua da Celpa (Lot Kajihara)",
        "zipcode": "68376-737"
    },
    {
        "city": "Altamira",
        "state": "PA",
        "district": "Nova Altamira",
        "street": "Rua da Mata",
        "zipcode": "68371-534"
    },
    {
        "city": "Altamira",
        "state": "PA",
        "district": "Brasília",
        "street": "Rua IV (Cj Ivalândia)",
        "zipcode": "68375-035"
    },
    {
        "city": "Altamira",
        "state": "PA",
        "district": "Bela Vista",
        "street": "Alameda Vinte e Seis de Janeiro",
        "zipcode": "68374-734"
    },
    {
        "city": "Altamira",
        "state": "PA",
        "district": "Ibiza",
        "street": "Rua Circular Um",
        "zipcode": "68376-712"
    },
    {
        "city": "Altamira",
        "state": "PA",
        "district": "Jardim Independente I",
        "street": "Travessa Marabá",
        "zipcode": "68372-670"
    },
    {
        "city": "Altamira",
        "state": "PA",
        "district": "Sudam I",
        "street": "Acesso Onze",
        "zipcode": "68371-290"
    },
    {
        "city": "Altamira",
        "state": "PA",
        "district": "Esplanada do Xingú",
        "street": "Acesso Dois",
        "zipcode": "68372-210"
    },
    {
        "city": "Altamira",
        "state": "PA",
        "district": "Jardim Independente I",
        "street": "Acesso Três",
        "zipcode": "68372-690"
    },
    {
        "city": "Altamira",
        "state": "PA",
        "district": "Jardim Uirapuru",
        "street": "Acesso Dois",
        "zipcode": "68373-045"
    },
    {
        "city": "Altamira",
        "state": "PA",
        "district": "Aparecida",
        "street": "Acesso Dois",
        "zipcode": "68377-360"
    },
    {
        "city": "Altamira",
        "state": "PA",
        "district": "Aparecida",
        "street": "Acesso Cinco",
        "zipcode": "68377-375"
    },
    {
        "city": "Altamira",
        "state": "PA",
        "district": "Sudam II",
        "street": "Acesso Seis",
        "zipcode": "68374-470"
    },
    {
        "city": "Altamira",
        "state": "PA",
        "district": "Alberto Soares",
        "street": "Alameda Itajuba (Lot Altaville)",
        "zipcode": "68376-045"
    },
    {
        "city": "Altamira",
        "state": "PA",
        "district": "Jardim Altamira",
        "street": "Rua Alecrim (Lot S Joaquim)",
        "zipcode": "68376-652"
    },
    {
        "city": "Altamira",
        "state": "PA",
        "district": "Jardim Altamira",
        "street": "Rua Preciosa (Lot S Joaquim)",
        "zipcode": "68376-653"
    },
    {
        "city": "Altamira",
        "state": "PA",
        "district": "Jardim Altamira",
        "street": "Rua Hortelã (Lot S Joaquim)",
        "zipcode": "68376-655"
    },
    {
        "city": "Altamira",
        "state": "PA",
        "district": "Jardim Altamira",
        "street": "Rua Sabugueira (Lot S Joaquim)",
        "zipcode": "68376-657"
    },
    {
        "city": "Altamira",
        "state": "PA",
        "district": "Jardim Altamira",
        "street": "Rua Romã (Lot S Joaquim)",
        "zipcode": "68376-658"
    },
    {
        "city": "Altamira",
        "state": "PA",
        "district": "Jardim Altamira",
        "street": "Rua Alecrim (Lot S Joaquim)",
        "zipcode": "68376-660"
    },
    {
        "city": "Altamira",
        "state": "PA",
        "district": "Jardim Altamira",
        "street": "Rua Pata de Vaca (Lot S Joaquim)",
        "zipcode": "68376-661"
    },
    {
        "city": "Altamira",
        "state": "PA",
        "district": "Jardim Altamira",
        "street": "Rua Carqueija (Lot S Joaquim)",
        "zipcode": "68376-663"
    },
    {
        "city": "Altamira",
        "state": "PA",
        "district": "Jardim Altamira",
        "street": "Rua Capim Limão (Lot S Joaquim)",
        "zipcode": "68376-665"
    },
    {
        "city": "Altamira",
        "state": "PA",
        "district": "Jardim Altamira",
        "street": "Rua Malva (Lot S Joaquim)",
        "zipcode": "68376-667"
    },
    {
        "city": "Altamira",
        "state": "PA",
        "district": "Jardim Altamira",
        "street": "Rua Cidreira (Lot S Joaquim)",
        "zipcode": "68376-668"
    },
    {
        "city": "Altamira",
        "state": "PA",
        "district": "Jardim Altamira",
        "street": "Rua Pequi (Lot S Joaquim)",
        "zipcode": "68376-670"
    },
    {
        "city": "Altamira",
        "state": "PA",
        "district": "Jardim Altamira",
        "street": "Rua Manjericão (Lot S Joaquim)",
        "zipcode": "68376-672"
    },
    {
        "city": "Altamira",
        "state": "PA",
        "district": "Jardim Altamira",
        "street": "Rua Gengibre (Lot S Joaquim)",
        "zipcode": "68376-674"
    },
    {
        "city": "Altamira",
        "state": "PA",
        "district": "Jardim Altamira",
        "street": "Rua Mastruz (Lot S Joaquim)",
        "zipcode": "68376-675"
    },
    {
        "city": "Altamira",
        "state": "PA",
        "district": "Jardim Independente II",
        "street": "Travessa Seis de Novembro (Cj Jd Dona Elvira)",
        "zipcode": "68372-228"
    },
    {
        "city": "Altamira",
        "state": "PA",
        "district": "Mutirão",
        "street": "Rua Benedito Cícero (Lot Jd França)",
        "zipcode": "68377-802"
    },
    {
        "city": "Altamira",
        "state": "PA",
        "district": "Mutirão",
        "street": "Rua Lenício Antônio (Lot Jd França)",
        "zipcode": "68377-812"
    },
    {
        "city": "Altamira",
        "state": "PA",
        "district": "Mutirão",
        "street": "Rua Jonas Santos (Lot Jd França)",
        "zipcode": "68377-835"
    },
    {
        "city": "Altamira",
        "state": "PA",
        "district": "Mutirão",
        "street": "Avenida Bom Jesus",
        "zipcode": "68377-078"
    },
    {
        "city": "Altamira",
        "state": "PA",
        "district": "Centro",
        "street": "Travessa Agrário Cavalcante",
        "zipcode": "68371-159"
    },
    {
        "city": "Altamira",
        "state": "PA",
        "district": "Centro",
        "street": "Travessa Pedro Gomes",
        "zipcode": "68371-155"
    },
    {
        "city": "Altamira",
        "state": "PA",
        "district": "Recreio",
        "street": "Travessa Dez de Novembro",
        "zipcode": "68371-157"
    },
    {
        "city": "Altamira",
        "state": "PA",
        "district": "Centro",
        "street": "Avenida Djalma Dutra",
        "zipcode": "68371-163"
    },
    {
        "city": "Altamira",
        "state": "PA",
        "district": "Liberdade",
        "street": "Rua Um",
        "zipcode": "68375-380"
    },
    {
        "city": "Altamira",
        "state": "PA",
        "district": "Liberdade",
        "street": "Rua Quatro",
        "zipcode": "68375-420"
    },
    {
        "city": "Altamira",
        "state": "PA",
        "district": "Colinas",
        "street": "Travessa WE Dois",
        "zipcode": "68376-340"
    },
    {
        "city": "Altamira",
        "state": "PA",
        "district": "Nova Altamira",
        "street": "Travessa Duque de Caxias",
        "zipcode": "68371-552"
    },
    {
        "city": "Altamira",
        "state": "PA",
        "district": "Bela Vista",
        "street": "Travessa Pará (Km 04",
        "zipcode": "68374-774"
    },
    {
        "city": "Altamira",
        "state": "PA",
        "district": "Aparecida",
        "street": "Rua Dois (Lot I Padres)",
        "zipcode": "68377-335"
    },
    {
        "city": "Altamira",
        "state": "PA",
        "district": "Liberdade",
        "street": "Rua WA Cinco",
        "zipcode": "68375-335"
    },
    {
        "city": "Altamira",
        "state": "PA",
        "district": "Mutirão",
        "street": "Avenida Itagiba Xavier",
        "zipcode": "68377-885"
    },
    {
        "city": "Altamira",
        "state": "PA",
        "district": "Mutirão",
        "street": "Avenida Jorge Nogueira",
        "zipcode": "68377-883"
    },
    {
        "city": "Altamira",
        "state": "PA",
        "district": "Mutirão",
        "street": "Rua L",
        "zipcode": "68377-881"
    },
    {
        "city": "Altamira",
        "state": "PA",
        "district": "Jardim Uirapuru",
        "street": "Travessa Alagoas",
        "zipcode": "68374-260"
    },
    {
        "city": "Altamira",
        "state": "PA",
        "district": "Jardim Independente II",
        "street": "Rua Anfrísio Nunes",
        "zipcode": "68372-770"
    },
    {
        "city": "Altamira",
        "state": "PA",
        "district": "Liberdade",
        "street": "Rua C",
        "zipcode": "68375-440"
    },
    {
        "city": "Altamira",
        "state": "PA",
        "district": "Ibiza",
        "street": "Passagem Dois",
        "zipcode": "68376-715"
    },
    {
        "city": "Altamira",
        "state": "PA",
        "district": "Jardim Independente II",
        "street": "Rua Humberto Trindade",
        "zipcode": "68372-270"
    },
    {
        "city": "Altamira",
        "state": "PA",
        "district": "Jardim Independente I",
        "street": "Rua Isaac Benarroch",
        "zipcode": "68372-750"
    },
    {
        "city": "Altamira",
        "state": "PA",
        "district": "Jardim Independente II",
        "street": "Rua Marechal Hermes",
        "zipcode": "68372-250"
    },
    {
        "city": "Altamira",
        "state": "PA",
        "district": "Sudam I",
        "street": "Rua Otaviano Santos",
        "zipcode": "68371-288"
    },
    {
        "city": "Altamira",
        "state": "PA",
        "district": "Centro",
        "street": "Alameda Primeira",
        "zipcode": "68371-200"
    },
    {
        "city": "Altamira",
        "state": "PA",
        "district": "Mutirão",
        "street": "Rua Três",
        "zipcode": "68377-070"
    },
    {
        "city": "Altamira",
        "state": "PA",
        "district": "Jardim Independente II",
        "street": "Rua Vinte e Cinco de Julho",
        "zipcode": "68372-795"
    },
    {
        "city": "Altamira",
        "state": "PA",
        "district": "Jardim Independente II",
        "street": "Rua José Umbelino",
        "zipcode": "68372-785"
    },
    {
        "city": "Altamira",
        "state": "PA",
        "district": "Jardim Independente I",
        "street": "Rua São Pedro",
        "zipcode": "68372-755"
    },
    {
        "city": "Altamira",
        "state": "PA",
        "district": "Mutirão",
        "street": "Rua Raimundo Nonato (Lot Jd França)",
        "zipcode": "68377-845"
    },
    {
        "city": "Altamira",
        "state": "PA",
        "district": "Catedral",
        "street": "Travessa Comandante Castilho",
        "zipcode": "68371-085"
    },
    {
        "city": "Altamira",
        "state": "PA",
        "district": "Centro",
        "street": "Vila Cemiterio",
        "zipcode": "68371-009"
    },
    {
        "city": "Altamira",
        "state": "PA",
        "district": "Mutirão",
        "street": "Rua SF",
        "zipcode": "68377-859"
    },
    {
        "city": "Altamira",
        "state": "PA",
        "district": "Ibiza",
        "street": "Alameda Joaquim Bulhosa",
        "zipcode": "68376-713"
    },
    {
        "city": "Altamira",
        "state": "PA",
        "district": "Mutirão",
        "street": "Rua SF",
        "zipcode": "68377-855"
    },
    {
        "city": "Altamira",
        "state": "PA",
        "district": "Nova Altamira",
        "street": "Travessa da Conquista",
        "zipcode": "68371-520"
    },
    {
        "city": "Altamira",
        "state": "PA",
        "district": "Bela Vista",
        "street": "Travessa Piauí (Km 04",
        "zipcode": "68374-772"
    },
    {
        "city": "Altamira",
        "state": "PA",
        "district": "Mutirão",
        "street": "Rua SF",
        "zipcode": "68377-863"
    },
    {
        "city": "Altamira",
        "state": "PA",
        "district": "Jardim Uirapuru",
        "street": "Travessa Santa Maria",
        "zipcode": "68374-025"
    },
    {
        "city": "Altamira",
        "state": "PA",
        "district": "Mutirão",
        "street": "Rua SF",
        "zipcode": "68377-877"
    },
    {
        "city": "Altamira",
        "state": "PA",
        "district": "Ibiza",
        "street": "Rua Elias Leitão",
        "zipcode": "68376-705"
    },
    {
        "city": "Altamira",
        "state": "PA",
        "district": "Liberdade",
        "street": "Alameda Bacana (Lot A Senna)",
        "zipcode": "68375-460"
    },
    {
        "city": "Altamira",
        "state": "PA",
        "district": "Ibiza",
        "street": "Travessa Seu Nerso (Lot D Lourenzo)",
        "zipcode": "68376-785"
    },
    {
        "city": "Altamira",
        "state": "PA",
        "district": "Ibiza",
        "street": "Estrada do Sanatório",
        "zipcode": "68376-700"
    },
    {
        "city": "Altamira",
        "state": "PA",
        "district": "Mutirão",
        "street": "Rua SF",
        "zipcode": "68377-861"
    },
    {
        "city": "Altamira",
        "state": "PA",
        "district": "Liberdade",
        "street": "Rua Pedro Vieira",
        "zipcode": "68375-327"
    },
    {
        "city": "Altamira",
        "state": "PA",
        "district": "Jardim Independente I",
        "street": "Avenida Iriri",
        "zipcode": "68372-680"
    },
    {
        "city": "Altamira",
        "state": "PA",
        "district": "Liberdade",
        "street": "Rua Treze de Maio (Lot Santa Ana)",
        "zipcode": "68375-332"
    },
    {
        "city": "Altamira",
        "state": "PA",
        "district": "Boa Esperança",
        "street": "Travessa Nordestina",
        "zipcode": "68377-268"
    },
    {
        "city": "Altamira",
        "state": "PA",
        "district": "Ibiza",
        "street": "Rua São Rafael (lot Kajihara)",
        "zipcode": "68376-752"
    },
    {
        "city": "Altamira",
        "state": "PA",
        "district": "Sudam II",
        "street": "Travessa Otília Pita",
        "zipcode": "68374-288"
    },
    {
        "city": "Altamira",
        "state": "PA",
        "district": "Esplanada do Xingú",
        "street": "Passagem Independência",
        "zipcode": "68372-850"
    },
    {
        "city": "Altamira",
        "state": "PA",
        "district": "Bela Vista",
        "street": "Rua Antonio Melo",
        "zipcode": "68374-764"
    },
    {
        "city": "Altamira",
        "state": "PA",
        "district": "Aparecida",
        "street": "Travessa Trindade (Lot I Padres)",
        "zipcode": "68377-354"
    },
    {
        "city": "Altamira",
        "state": "PA",
        "district": "Mutirão",
        "street": "Rua SF",
        "zipcode": "68377-871"
    },
    {
        "city": "Altamira",
        "state": "PA",
        "district": "Aparecida",
        "street": "Rua São Gaspar",
        "zipcode": "68377-710"
    },
    {
        "city": "Altamira",
        "state": "PA",
        "district": "Sudam I",
        "street": "Alameda Complexo Globo",
        "zipcode": "68371-311"
    },
    {
        "city": "Altamira",
        "state": "PA",
        "district": "Mutirão",
        "street": "Rua VI",
        "zipcode": "68377-045"
    },
    {
        "city": "Altamira",
        "state": "PA",
        "district": "Mutirão",
        "street": "Rua SF",
        "zipcode": "68377-857"
    },
    {
        "city": "Altamira",
        "state": "PA",
        "district": "Centro",
        "street": "Rua Magalhães Barata",
        "zipcode": "68371-017"
    },
    {
        "city": "Altamira",
        "state": "PA",
        "district": "Centro",
        "street": "Avenida João Pessoa",
        "zipcode": "68371-045"
    },
    {
        "city": "Altamira",
        "state": "PA",
        "district": "Centro",
        "street": "Rua Primeiro de Janeiro",
        "zipcode": "68371-041"
    },
    {
        "city": "Altamira",
        "state": "PA",
        "district": "Jardim Independente I",
        "street": "Rua Raimundo Oliveira",
        "zipcode": "68372-612"
    },
    {
        "city": "Altamira",
        "state": "PA",
        "district": "Centro",
        "street": "Rua Sete de Setembro",
        "zipcode": "68371-125"
    },
    {
        "city": "Altamira",
        "state": "PA",
        "district": "Recreio",
        "street": "Travessa Dez de Novembro",
        "zipcode": "68371-035"
    },
    {
        "city": "Altamira",
        "state": "PA",
        "district": "Jardim Independente I",
        "street": "Travessa Novo Horizonte",
        "zipcode": "68373-128"
    },
    {
        "city": "Altamira",
        "state": "PA",
        "district": "Jardim Independente I",
        "street": "Rua Curuá Grande",
        "zipcode": "68372-617"
    },
    {
        "city": "Altamira",
        "state": "PA",
        "district": "Premem",
        "street": "Rua A",
        "zipcode": "68372-587"
    },
    {
        "city": "Altamira",
        "state": "PA",
        "district": "Jardim Independente I",
        "street": "Rua José Grafon",
        "zipcode": "68372-628"
    },
    {
        "city": "Altamira",
        "state": "PA",
        "district": "Centro",
        "street": "Passagem Igarapé Altamira",
        "zipcode": "68371-169"
    },
    {
        "city": "Altamira",
        "state": "PA",
        "district": "Jardim Independente I",
        "street": "Rua João Besouro",
        "zipcode": "68372-606"
    },
    {
        "city": "Altamira",
        "state": "PA",
        "district": "Aparecida",
        "street": "Acesso Três",
        "zipcode": "68377-370"
    },
    {
        "city": "Altamira",
        "state": "PA",
        "district": "Jardim Altamira",
        "street": "Rua DY (Lot Panorama)",
        "zipcode": "68376-572"
    },
    {
        "city": "Altamira",
        "state": "PA",
        "district": "Jardim Altamira",
        "street": "Rua F (Lot Panorama)",
        "zipcode": "68376-576"
    },
    {
        "city": "Altamira",
        "state": "PA",
        "district": "Jardim Independente I",
        "street": "Rua Ângelo Dias",
        "zipcode": "68373-260"
    },
    {
        "city": "Altamira",
        "state": "PA",
        "district": "Jardim Independente I",
        "street": "Rua Antônio Araújo",
        "zipcode": "68373-290"
    },
    {
        "city": "Altamira",
        "state": "PA",
        "district": "Premem",
        "street": "Travessa Balduíno Costa",
        "zipcode": "68372-578"
    },
    {
        "city": "Altamira",
        "state": "PA",
        "district": "Jardim Independente I",
        "street": "Rua Belém",
        "zipcode": "68372-620"
    },
    {
        "city": "Altamira",
        "state": "PA",
        "district": "Centro",
        "street": "Travessa Coronel Gaioso",
        "zipcode": "68371-070"
    },
    {
        "city": "Altamira",
        "state": "PA",
        "district": "Jardim Independente I",
        "street": "Rua Francisco Pedrosa",
        "zipcode": "68373-130"
    },
    {
        "city": "Altamira",
        "state": "PA",
        "district": "Jardim Independente I",
        "street": "Rua da Granja",
        "zipcode": "68373-280"
    },
    {
        "city": "Altamira",
        "state": "PA",
        "district": "Jardim Independente I",
        "street": "Rua José Marcos Viterbino",
        "zipcode": "68373-520"
    },
    {
        "city": "Altamira",
        "state": "PA",
        "district": "Jardim Independente I",
        "street": "Rua José Mendes",
        "zipcode": "68373-470"
    },
    {
        "city": "Altamira",
        "state": "PA",
        "district": "Jardim Uirapuru",
        "street": "Rua Londrina",
        "zipcode": "68374-070"
    },
    {
        "city": "Altamira",
        "state": "PA",
        "district": "Jardim Independente I",
        "street": "Rua dos Missionários",
        "zipcode": "68373-390"
    },
    {
        "city": "Altamira",
        "state": "PA",
        "district": "Jardim Independente I",
        "street": "Rua Otávio Torres",
        "zipcode": "68373-320"
    },
    {
        "city": "Altamira",
        "state": "PA",
        "district": "Jardim Independente I",
        "street": "Alameda Padre Eurico",
        "zipcode": "68373-420"
    },
    {
        "city": "Altamira",
        "state": "PA",
        "district": "Jardim Independente I",
        "street": "Rua Padre João",
        "zipcode": "68373-200"
    },
    {
        "city": "Altamira",
        "state": "PA",
        "district": "Jardim Independente I",
        "street": "Rua Padre Júlio",
        "zipcode": "68373-410"
    },
    {
        "city": "Altamira",
        "state": "PA",
        "district": "Centro",
        "street": "Travessa Pedro Lemos",
        "zipcode": "68371-060"
    },
    {
        "city": "Altamira",
        "state": "PA",
        "district": "Jardim Uirapuru",
        "street": "Travessa Porto Alegre",
        "zipcode": "68374-060"
    },
    {
        "city": "Altamira",
        "state": "PA",
        "district": "Jardim Independente I",
        "street": "Rua Santa Luzia",
        "zipcode": "68373-450"
    },
    {
        "city": "Altamira",
        "state": "PA",
        "district": "Jardim Independente I",
        "street": "Rua São Sebastião",
        "zipcode": "68373-400"
    },
    {
        "city": "Altamira",
        "state": "PA",
        "district": "Jardim Uirapuru",
        "street": "Rua Uberaba",
        "zipcode": "68374-110"
    },
    {
        "city": "Altamira",
        "state": "PA",
        "district": "Jardim Independente I",
        "street": "Travessa Vigia",
        "zipcode": "68372-660"
    },
    {
        "city": "Altamira",
        "state": "PA",
        "district": "Jardim Uirapuru",
        "street": "Rua Maringá",
        "zipcode": "68374-000"
    },
    {
        "city": "Altamira",
        "state": "PA",
        "district": "Jardim Independente I",
        "street": "Alameda São João",
        "zipcode": "68372-725"
    },
    {
        "city": "Altamira",
        "state": "PA",
        "district": "Jardim Independente I",
        "street": "Alameda São José",
        "zipcode": "68372-735"
    },
    {
        "city": "Altamira",
        "state": "PA",
        "district": "Centro",
        "street": "Travessa Paula Marques",
        "zipcode": "68371-055"
    },
    {
        "city": "Altamira",
        "state": "PA",
        "district": "Jardim Independente I",
        "street": "Travessa Belém",
        "zipcode": "68372-068"
    },
    {
        "city": "Altamira",
        "state": "PA",
        "district": "Jardim Independente I",
        "street": "Rua Belo Horizonte",
        "zipcode": "68372-067"
    },
    {
        "city": "Altamira",
        "state": "PA",
        "district": "Bela Vista",
        "street": "Travessa Bom Jardim",
        "zipcode": "68374-766"
    },
    {
        "city": "Altamira",
        "state": "PA",
        "district": "Jardim Altamira",
        "street": "Rua B (Lot Panorama)",
        "zipcode": "68376-568"
    },
    {
        "city": "Altamira",
        "state": "PA",
        "district": "Jardim Independente II",
        "street": "Travessa Tucano",
        "zipcode": "68372-230"
    },
    {
        "city": "Altamira",
        "state": "PA",
        "district": "Ibiza",
        "street": "Alameda Pacajá",
        "zipcode": "68376-793"
    },
    {
        "city": "Altamira",
        "state": "PA",
        "district": "Aparecida",
        "street": "Rodovia Ernesto Acyoli",
        "zipcode": "68371-441"
    },
    {
        "city": "Altamira",
        "state": "PA",
        "district": "Brasília",
        "street": "Rua Joaquim Avelino",
        "zipcode": "68375-045"
    },
    {
        "city": "Altamira",
        "state": "PA",
        "district": "Sudam I",
        "street": "Rua Luís Né da Silva",
        "zipcode": "68371-363"
    },
    {
        "city": "Altamira",
        "state": "PA",
        "district": "Centro",
        "street": "Travessa Pedro Gomes",
        "zipcode": "68371-432"
    },
    {
        "city": "Altamira",
        "state": "PA",
        "district": "Premem",
        "street": "Avenida Tancredo Neves",
        "zipcode": "68372-574"
    },
    {
        "city": "Altamira",
        "state": "PA",
        "district": "Sudam I",
        "street": "Avenida Alacid Nunes",
        "zipcode": "68371-275"
    },
    {
        "city": "Altamira",
        "state": "PA",
        "district": "Alberto Soares",
        "street": "Rua Olinto Oliveira",
        "zipcode": "68376-000"
    },
    {
        "city": "Altamira",
        "state": "PA",
        "district": "Esplanada do Xingú",
        "street": "Avenida Brigadeiro Eduardo Gomes",
        "zipcode": "68372-005"
    },
    {
        "city": "Altamira",
        "state": "PA",
        "district": "Perpétuo Socorro",
        "street": "Rua Anchieta",
        "zipcode": "68371-276"
    },
    {
        "city": "Altamira",
        "state": "PA",
        "district": "Sudam I",
        "street": "Rua Anchieta",
        "zipcode": "68371-272"
    },
    {
        "city": "Altamira",
        "state": "PA",
        "district": "Centro",
        "street": "Travessa Lindolfo Aranha",
        "zipcode": "68371-385"
    },
    {
        "city": "Altamira",
        "state": "PA",
        "district": "Premem",
        "street": "Rua Via Oeste",
        "zipcode": "68372-567"
    },
    {
        "city": "Altamira",
        "state": "PA",
        "district": "Jardim Independente I",
        "street": "Rua Manoel Amorim",
        "zipcode": "68372-066"
    },
    {
        "city": "Altamira",
        "state": "PA",
        "district": "Bela Vista",
        "street": "Rua Três",
        "zipcode": "68374-695"
    },
    {
        "city": "Altamira",
        "state": "PA",
        "district": "Bela Vista",
        "street": "Travessa Dezenove",
        "zipcode": "68374-705"
    },
    {
        "city": "Altamira",
        "state": "PA",
        "district": "Bela Vista",
        "street": "Travessa Oito",
        "zipcode": "68374-708"
    },
    {
        "city": "Altamira",
        "state": "PA",
        "district": "Bela Vista",
        "street": "Avenida Principal",
        "zipcode": "68374-709"
    },
    {
        "city": "Altamira",
        "state": "PA",
        "district": "Bela Vista",
        "street": "Travessa Dezessete",
        "zipcode": "68374-711"
    },
    {
        "city": "Altamira",
        "state": "PA",
        "district": "Bela Vista",
        "street": "Travessa Três",
        "zipcode": "68374-716"
    },
    {
        "city": "Altamira",
        "state": "PA",
        "district": "Bela Vista",
        "street": "Travessa Treze",
        "zipcode": "68374-719"
    },
    {
        "city": "Altamira",
        "state": "PA",
        "district": "Bela Vista",
        "street": "Travessa Doze",
        "zipcode": "68374-721"
    },
    {
        "city": "Altamira",
        "state": "PA",
        "district": "Bela Vista",
        "street": "Rua Nove",
        "zipcode": "68374-722"
    },
    {
        "city": "Altamira",
        "state": "PA",
        "district": "Jardim Uirapuru",
        "street": "Rua Dragão do Mar",
        "zipcode": "68372-195"
    },
    {
        "city": "Altamira",
        "state": "PA",
        "district": "Premem",
        "street": "Travessa Xingu",
        "zipcode": "68372-569"
    },
    {
        "city": "Altamira",
        "state": "PA",
        "district": "Bela Vista",
        "street": "Rua Vinte e Seis de Janeiro",
        "zipcode": "68374-732"
    },
    {
        "city": "Altamira",
        "state": "PA",
        "district": "Bela Vista",
        "street": "Travessa Santarém",
        "zipcode": "68374-740"
    },
    {
        "city": "Altamira",
        "state": "PA",
        "district": "Bela Vista",
        "street": "Rua Pinheiro",
        "zipcode": "68374-744"
    },
    {
        "city": "Altamira",
        "state": "PA",
        "district": "Bela Vista",
        "street": "Rua Pio XII",
        "zipcode": "68374-748"
    },
    {
        "city": "Altamira",
        "state": "PA",
        "district": "Bela Vista",
        "street": "Travessa Pôr do Sol",
        "zipcode": "68374-756"
    },
    {
        "city": "Altamira",
        "state": "PA",
        "district": "Centro",
        "street": "Travessa Salim Mauad",
        "zipcode": "68371-486"
    },
    {
        "city": "Altamira",
        "state": "PA",
        "district": "Jardim Independente I",
        "street": "Rua Matias Oliveira",
        "zipcode": "68372-069"
    },
    {
        "city": "Altamira",
        "state": "PA",
        "district": "Sudam I",
        "street": "Alameda Dois",
        "zipcode": "68371-296"
    },
    {
        "city": "Altamira",
        "state": "PA",
        "district": "Sudam I",
        "street": "Avenida Perimetral",
        "zipcode": "68371-286"
    },
    {
        "city": "Altamira",
        "state": "PA",
        "district": "Jardim Independente II",
        "street": "Rua da Adutora",
        "zipcode": "68372-570"
    },
    {
        "city": "Altamira",
        "state": "PA",
        "district": "Esplanada do Xingú",
        "street": "Travessa Búfalo",
        "zipcode": "68372-170"
    },
    {
        "city": "Altamira",
        "state": "PA",
        "district": "Jardim Uirapuru",
        "street": "Rua Dom Eurico Krauter",
        "zipcode": "68372-200"
    },
    {
        "city": "Altamira",
        "state": "PA",
        "district": "Esplanada do Xingú",
        "street": "Rua Dragão do Mar",
        "zipcode": "68372-070"
    },
    {
        "city": "Altamira",
        "state": "PA",
        "district": "Centro",
        "street": "Alameda Elias Pedrosa",
        "zipcode": "68371-380"
    },
    {
        "city": "Altamira",
        "state": "PA",
        "district": "Jardim Uirapuru",
        "street": "Rua Galvão",
        "zipcode": "68372-190"
    },
    {
        "city": "Altamira",
        "state": "PA",
        "district": "Centro",
        "street": "Rua dos Imigrantes",
        "zipcode": "68372-110"
    },
    {
        "city": "Altamira",
        "state": "PA",
        "district": "Esplanada do Xingú",
        "street": "Avenida João Pessoa",
        "zipcode": "68372-050"
    },
    {
        "city": "Altamira",
        "state": "PA",
        "district": "Centro",
        "street": "Vila Luís Né",
        "zipcode": "68371-390"
    },
    {
        "city": "Altamira",
        "state": "PA",
        "district": "Jardim Independente II",
        "street": "Rua Marechal Rondon",
        "zipcode": "68372-240"
    },
    {
        "city": "Altamira",
        "state": "PA",
        "district": "Esplanada do Xingú",
        "street": "Rua dos Missionários",
        "zipcode": "68372-030"
    },
    {
        "city": "Altamira",
        "state": "PA",
        "district": "Brasília",
        "street": "Rua Osório de Freitas",
        "zipcode": "68375-050"
    },
    {
        "city": "Altamira",
        "state": "PA",
        "district": "Jardim Uirapuru",
        "street": "Rua Piauí",
        "zipcode": "68374-590"
    },
    {
        "city": "Altamira",
        "state": "PA",
        "district": "Brasília",
        "street": "Rua Professora Nair Lemos",
        "zipcode": "68375-020"
    },
    {
        "city": "Altamira",
        "state": "PA",
        "district": "Esplanada do Xingú",
        "street": "Passagem Xingu",
        "zipcode": "68372-140"
    },
    {
        "city": "Altamira",
        "state": "PA",
        "district": "Jardim Independente II",
        "street": "Rua Carlos Soares",
        "zipcode": "68372-260"
    },
    {
        "city": "Altamira",
        "state": "PA",
        "district": "Jardim Independente I",
        "street": "Travessa Vitória",
        "zipcode": "68373-350"
    },
    {
        "city": "Altamira",
        "state": "PA",
        "district": "Brasília",
        "street": "Passagem França",
        "zipcode": "68375-040"
    },
    {
        "city": "Altamira",
        "state": "PA",
        "district": "Jardim Uirapuru",
        "street": "Alameda Polivalente",
        "zipcode": "68372-090"
    },
    {
        "city": "Altamira",
        "state": "PA",
        "district": "Sudam I",
        "street": "Travessa Coronel Tancredo",
        "zipcode": "68371-282"
    },
    {
        "city": "Altamira",
        "state": "PA",
        "district": "Centro",
        "street": "Rua Manoel Umbuzeiro",
        "zipcode": "68371-271"
    },
    {
        "city": "Altamira",
        "state": "PA",
        "district": "Liberdade",
        "street": "Rua WE Quatro",
        "zipcode": "68375-405"
    },
    {
        "city": "Altamira",
        "state": "PA",
        "district": "Liberdade",
        "street": "Rua Três",
        "zipcode": "68375-385"
    },
    {
        "city": "Altamira",
        "state": "PA",
        "district": "Liberdade",
        "street": "Rua Quinze de Novembro",
        "zipcode": "68375-394"
    },
    {
        "city": "Altamira",
        "state": "PA",
        "district": "Liberdade",
        "street": "Rua das Flores",
        "zipcode": "68375-374"
    },
    {
        "city": "Altamira",
        "state": "PA",
        "district": "Liberdade",
        "street": "Travessa Paulo Monteiro",
        "zipcode": "68375-376"
    },
    {
        "city": "Altamira",
        "state": "PA",
        "district": "Jardim Independente I",
        "street": "Travessa do Lago",
        "zipcode": "68373-094"
    },
    {
        "city": "Altamira",
        "state": "PA",
        "district": "Jardim Independente I",
        "street": "Travessa Maceió",
        "zipcode": "68373-108"
    },
    {
        "city": "Altamira",
        "state": "PA",
        "district": "Jardim Independente I",
        "street": "Rua Porto Alegre",
        "zipcode": "68373-112"
    },
    {
        "city": "Altamira",
        "state": "PA",
        "district": "Jardim Independente I",
        "street": "Travessa Tiradentes",
        "zipcode": "68373-116"
    },
    {
        "city": "Altamira",
        "state": "PA",
        "district": "Sudam I",
        "street": "Vila Rosa",
        "zipcode": "68371-268"
    },
    {
        "city": "Altamira",
        "state": "PA",
        "district": "Brasília",
        "street": "Rua Dois",
        "zipcode": "68375-577"
    },
    {
        "city": "Altamira",
        "state": "PA",
        "district": "Premem",
        "street": "Rua Dragão do Mar",
        "zipcode": "68372-566"
    },
    {
        "city": "Altamira",
        "state": "PA",
        "district": "Jardim Independente II",
        "street": "Acesso Um",
        "zipcode": "68372-225"
    },
    {
        "city": "Altamira",
        "state": "PA",
        "district": "Liberdade",
        "street": "Rua A",
        "zipcode": "68375-400"
    },
    {
        "city": "Altamira",
        "state": "PA",
        "district": "Jardim Independente II",
        "street": "Rua Asade Cury",
        "zipcode": "68372-545"
    },
    {
        "city": "Altamira",
        "state": "PA",
        "district": "Liberdade",
        "street": "Rua B",
        "zipcode": "68375-390"
    },
    {
        "city": "Altamira",
        "state": "PA",
        "district": "Jardim Uirapuru",
        "street": "Travessa Campinas",
        "zipcode": "68374-570"
    },
    {
        "city": "Altamira",
        "state": "PA",
        "district": "Jardim Independente II",
        "street": "Rua Comandante Adão",
        "zipcode": "68372-500"
    },
    {
        "city": "Altamira",
        "state": "PA",
        "district": "Boa Esperança",
        "street": "Rua da Harmonia",
        "zipcode": "68377-280"
    },
    {
        "city": "Altamira",
        "state": "PA",
        "district": "Boa Esperança",
        "street": "Rua dos Jasmins",
        "zipcode": "68377-160"
    },
    {
        "city": "Altamira",
        "state": "PA",
        "district": "Boa Esperança",
        "street": "Rua dos Lírios",
        "zipcode": "68377-180"
    },
    {
        "city": "Altamira",
        "state": "PA",
        "district": "Esplanada do Xingú",
        "street": "Rua Madre Teresa de Calcutá",
        "zipcode": "68372-010"
    },
    {
        "city": "Altamira",
        "state": "PA",
        "district": "Jardim Independente II",
        "street": "Rua Nicolau Martins",
        "zipcode": "68372-490"
    },
    {
        "city": "Altamira",
        "state": "PA",
        "district": "Sudam II",
        "street": "Travessa Niterói",
        "zipcode": "68374-530"
    },
    {
        "city": "Altamira",
        "state": "PA",
        "district": "Boa Esperança",
        "street": "Rua dos Oleiros",
        "zipcode": "68377-300"
    },
    {
        "city": "Altamira",
        "state": "PA",
        "district": "Boa Esperança",
        "street": "Rua das Papoulas",
        "zipcode": "68377-150"
    },
    {
        "city": "Altamira",
        "state": "PA",
        "district": "Boa Esperança",
        "street": "Alameda Parati",
        "zipcode": "68377-265"
    },
    {
        "city": "Altamira",
        "state": "PA",
        "district": "Jardim Independente II",
        "street": "Rua Pedro Henrique Mauad",
        "zipcode": "68372-560"
    },
    {
        "city": "Altamira",
        "state": "PA",
        "district": "Jardim Independente II",
        "street": "Rua Primeiro de Maio",
        "zipcode": "68372-520"
    },
    {
        "city": "Altamira",
        "state": "PA",
        "district": "Jardim Independente II",
        "street": "Rua Santarém",
        "zipcode": "68372-320"
    },
    {
        "city": "Altamira",
        "state": "PA",
        "district": "Brasília",
        "street": "Alameda São Sebastião",
        "zipcode": "68375-530"
    },
    {
        "city": "Altamira",
        "state": "PA",
        "district": "Boa Esperança",
        "street": "Rua dos Seis Metros",
        "zipcode": "68377-290"
    },
    {
        "city": "Altamira",
        "state": "PA",
        "district": "Jardim Independente II",
        "street": "Rua Tiradentes",
        "zipcode": "68372-300"
    },
    {
        "city": "Altamira",
        "state": "PA",
        "district": "Boa Esperança",
        "street": "Travessa Vitória Régia",
        "zipcode": "68377-210"
    },
    {
        "city": "Altamira",
        "state": "PA",
        "district": "Jardim Independente II",
        "street": "Alameda W",
        "zipcode": "68372-420"
    },
    {
        "city": "Altamira",
        "state": "PA",
        "district": "Jardim Independente II",
        "street": "Alameda W",
        "zipcode": "68372-390"
    },
    {
        "city": "Altamira",
        "state": "PA",
        "district": "Jardim Independente II",
        "street": "Alameda W",
        "zipcode": "68372-410"
    },
    {
        "city": "Altamira",
        "state": "PA",
        "district": "Jardim Independente II",
        "street": "Alameda W",
        "zipcode": "68372-400"
    },
    {
        "city": "Altamira",
        "state": "PA",
        "district": "Jardim Independente II",
        "street": "Alameda W",
        "zipcode": "68372-460"
    },
    {
        "city": "Altamira",
        "state": "PA",
        "district": "Liberdade",
        "street": "Travessa WE Quinze",
        "zipcode": "68375-370"
    },
    {
        "city": "Altamira",
        "state": "PA",
        "district": "Liberdade",
        "street": "Rua WE Cinco",
        "zipcode": "68375-510"
    },
    {
        "city": "Altamira",
        "state": "PA",
        "district": "Jardim Independente I",
        "street": "Rua Gurupá",
        "zipcode": "68373-100"
    },
    {
        "city": "Altamira",
        "state": "PA",
        "district": "Jardim Independente II",
        "street": "Rua Um",
        "zipcode": "68372-370"
    },
    {
        "city": "Altamira",
        "state": "PA",
        "district": "Brasília",
        "street": "Rua Gondim Lins",
        "zipcode": "68375-540"
    },
    {
        "city": "Altamira",
        "state": "PA",
        "district": "Jardim Independente II",
        "street": "Rua Salim Mauad",
        "zipcode": "68372-550"
    },
    {
        "city": "Altamira",
        "state": "PA",
        "district": "Boa Esperança",
        "street": "Rua do Sossego",
        "zipcode": "68377-260"
    },
    {
        "city": "Altamira",
        "state": "PA",
        "district": "Jardim Independente I",
        "street": "Rua Santo Antônio",
        "zipcode": "68373-095"
    },
    {
        "city": "Altamira",
        "state": "PA",
        "district": "Jardim Independente I",
        "street": "Rua São Francisco",
        "zipcode": "68373-105"
    },
    {
        "city": "Altamira",
        "state": "PA",
        "district": "Nova Altamira",
        "street": "Loteamento São Domingos",
        "zipcode": "68371-510"
    },
    {
        "city": "Altamira",
        "state": "PA",
        "district": "Esplanada do Xingú",
        "street": "Rua Sete de Setembro",
        "zipcode": "68372-855"
    },
    {
        "city": "Altamira",
        "state": "PA",
        "district": "Esplanada do Xingú",
        "street": "Rua Padre Eurico",
        "zipcode": "68372-853"
    },
    {
        "city": "Altamira",
        "state": "PA",
        "district": "Esplanada do Xingú",
        "street": "Rua Duque de Caxias",
        "zipcode": "68372-856"
    },
    {
        "city": "Altamira",
        "state": "PA",
        "district": "Esplanada do Xingú",
        "street": "Travessa Pará",
        "zipcode": "68372-868"
    },
    {
        "city": "Altamira",
        "state": "PA",
        "district": "Liberdade",
        "street": "Rua São Francisco",
        "zipcode": "68375-348"
    },
    {
        "city": "Altamira",
        "state": "PA",
        "district": "Liberdade",
        "street": "Travessa Paraíso",
        "zipcode": "68375-354"
    },
    {
        "city": "Altamira",
        "state": "PA",
        "district": "Jardim Uirapuru",
        "street": "Rua Ernesto Geisel",
        "zipcode": "68373-065"
    },
    {
        "city": "Altamira",
        "state": "PA",
        "district": "Esplanada do Xingú",
        "street": "Rua Salim Mauad",
        "zipcode": "68372-877"
    },
    {
        "city": "Altamira",
        "state": "PA",
        "district": "Liberdade",
        "street": "Rua Santa Rosa",
        "zipcode": "68375-364"
    },
    {
        "city": "Altamira",
        "state": "PA",
        "district": "Jardim Altamira",
        "street": "Rua Um",
        "zipcode": "68376-530"
    },
    {
        "city": "Altamira",
        "state": "PA",
        "district": "Jardim Altamira",
        "street": "Rua Três",
        "zipcode": "68376-535"
    },
    {
        "city": "Altamira",
        "state": "PA",
        "district": "Jardim Altamira",
        "street": "Rua Quatro",
        "zipcode": "68376-540"
    },
    {
        "city": "Altamira",
        "state": "PA",
        "district": "Jardim Altamira",
        "street": "Rua José Granfon",
        "zipcode": "68376-555"
    },
    {
        "city": "Altamira",
        "state": "PA",
        "district": "Jardim Independente I",
        "street": "Travessa Manaus",
        "zipcode": "68373-124"
    },
    {
        "city": "Altamira",
        "state": "PA",
        "district": "Jardim Independente II",
        "street": "Rua Aristides Souza",
        "zipcode": "68372-470"
    },
    {
        "city": "Altamira",
        "state": "PA",
        "district": "Jardim Independente I",
        "street": "Rua Demetrius Abucatu",
        "zipcode": "68373-180"
    },
    {
        "city": "Altamira",
        "state": "PA",
        "district": "Jardim Altamira",
        "street": "Rua Quincas Borges",
        "zipcode": "68376-560"
    },
    {
        "city": "Altamira",
        "state": "PA",
        "district": "Brasília",
        "street": "Travessa Primeiro de Maio",
        "zipcode": "68377-575"
    },
    {
        "city": "Altamira",
        "state": "PA",
        "district": "Mutirão",
        "street": "Travessa Sete",
        "zipcode": "68377-066"
    },
    {
        "city": "Altamira",
        "state": "PA",
        "district": "Mutirão",
        "street": "Rodovia Transamazônica",
        "zipcode": "68377-041"
    },
    {
        "city": "Altamira",
        "state": "PA",
        "district": "Sudam I",
        "street": "Acesso Oito",
        "zipcode": "68371-260"
    },
    {
        "city": "Altamira",
        "state": "PA",
        "district": "Sudam I",
        "street": "Acesso Nove",
        "zipcode": "68371-270"
    },
    {
        "city": "Altamira",
        "state": "PA",
        "district": "Sudam I",
        "street": "Acesso Dez",
        "zipcode": "68371-280"
    },
    {
        "city": "Altamira",
        "state": "PA",
        "district": "Alberto Soares",
        "street": "Rua Dilka Borges",
        "zipcode": "68376-020"
    },
    {
        "city": "Altamira",
        "state": "PA",
        "district": "Jardim Independente I",
        "street": "Rua Alberto Garcia Soares",
        "zipcode": "68373-000"
    },
    {
        "city": "Altamira",
        "state": "PA",
        "district": "Brasília",
        "street": "Rua Antônio Vieira",
        "zipcode": "68377-000"
    },
    {
        "city": "Altamira",
        "state": "PA",
        "district": "Boa Esperança",
        "street": "Travessa Antúlios",
        "zipcode": "68377-110"
    },
    {
        "city": "Altamira",
        "state": "PA",
        "district": "Boa Esperança",
        "street": "Travessa Aurora",
        "zipcode": "68377-670"
    },
    {
        "city": "Altamira",
        "state": "PA",
        "district": "Aparecida",
        "street": "Travessa Bom Jardim",
        "zipcode": "68377-700"
    },
    {
        "city": "Altamira",
        "state": "PA",
        "district": "Jardim Independente I",
        "street": "Rua Castanhal",
        "zipcode": "68373-090"
    },
    {
        "city": "Altamira",
        "state": "PA",
        "district": "Jardim Uirapuru",
        "street": "Rua Caiapó",
        "zipcode": "68373-020"
    },
    {
        "city": "Altamira",
        "state": "PA",
        "district": "Aparecida",
        "street": "Rua Cinco",
        "zipcode": "68377-490"
    },
    {
        "city": "Altamira",
        "state": "PA",
        "district": "Boa Esperança",
        "street": "Rua das Dálias",
        "zipcode": "68377-120"
    },
    {
        "city": "Altamira",
        "state": "PA",
        "district": "Mutirão",
        "street": "Rua Dois",
        "zipcode": "68377-060"
    },
    {
        "city": "Altamira",
        "state": "PA",
        "district": "Boa Esperança",
        "street": "Travessa Girassol",
        "zipcode": "68377-660"
    },
    {
        "city": "Altamira",
        "state": "PA",
        "district": "Brasília",
        "street": "Rua João Pinho",
        "zipcode": "68377-600"
    },
    {
        "city": "Altamira",
        "state": "PA",
        "district": "Brasília",
        "street": "Travessa Presidente Médici",
        "zipcode": "68377-020"
    },
    {
        "city": "Altamira",
        "state": "PA",
        "district": "Mutirão",
        "street": "Rua Um",
        "zipcode": "68377-050"
    },
    {
        "city": "Altamira",
        "state": "PA",
        "district": "Liberdade",
        "street": "Travessa WE Treze",
        "zipcode": "68375-350"
    },
    {
        "city": "Altamira",
        "state": "PA",
        "district": "Boa Esperança",
        "street": "Rua das Hortênsias",
        "zipcode": "68377-100"
    },
    {
        "city": "Altamira",
        "state": "PA",
        "district": "Jardim Uirapuru",
        "street": "Rua Xingu",
        "zipcode": "68373-030"
    },
    {
        "city": "Altamira",
        "state": "PA",
        "district": "Boa Esperança",
        "street": "Rua da União",
        "zipcode": "68377-540"
    },
    {
        "city": "Altamira",
        "state": "PA",
        "district": "Boa Esperança",
        "street": "Rua da Amizade",
        "zipcode": "68377-530"
    },
    {
        "city": "Altamira",
        "state": "PA",
        "district": "Brasília",
        "street": "Rua Monte Sião",
        "zipcode": "68377-610"
    },
    {
        "city": "Altamira",
        "state": "PA",
        "district": "Mutirão",
        "street": "Rua VIII",
        "zipcode": "68377-065"
    },
    {
        "city": "Altamira",
        "state": "PA",
        "district": "Mutirão",
        "street": "Rua IX",
        "zipcode": "68377-075"
    },
    {
        "city": "Altamira",
        "state": "PA",
        "district": "Mutirão",
        "street": "Rua X",
        "zipcode": "68377-046"
    },
    {
        "city": "Altamira",
        "state": "PA",
        "district": "Mutirão",
        "street": "Rua XII",
        "zipcode": "68377-048"
    },
    {
        "city": "Altamira",
        "state": "PA",
        "district": "Jardim Independente II",
        "street": "Rua WD",
        "zipcode": "68377-730"
    },
    {
        "city": "Altamira",
        "state": "PA",
        "district": "Mutirão",
        "street": "Rua Nair Lemos",
        "zipcode": "68377-800"
    },
    {
        "city": "Altamira",
        "state": "PA",
        "district": "Mutirão",
        "street": "Rua Luiz das Neves",
        "zipcode": "68377-816"
    },
    {
        "city": "Altamira",
        "state": "PA",
        "district": "Jardim Independente I",
        "street": "Rua Coqueiro",
        "zipcode": "68373-092"
    },
    {
        "city": "Altamira",
        "state": "PA",
        "district": "Mutirão",
        "street": "Rodovia Transamazônica",
        "zipcode": "68377-043"
    },
    {
        "city": "Altamira",
        "state": "PA",
        "district": "Alberto Soares",
        "street": "Alameda Anápolis (Lot Altaville)",
        "zipcode": "68376-060"
    },
    {
        "city": "Altamira",
        "state": "PA",
        "district": "Alberto Soares",
        "street": "Alameda João Pessoa (Lot Altaville)",
        "zipcode": "68376-065"
    },
    {
        "city": "Altamira",
        "state": "PA",
        "district": "Sudam II",
        "street": "Travessa Quatro",
        "zipcode": "68374-395"
    },
    {
        "city": "Altamira",
        "state": "PA",
        "district": "Ibiza",
        "street": "Residencial Don Lourenzo",
        "zipcode": "68376-770"
    },
    {
        "city": "Altamira",
        "state": "PA",
        "district": "Liberdade",
        "street": "Rua Altamira",
        "zipcode": "68375-336"
    },
    {
        "city": "Altamira",
        "state": "PA",
        "district": "Liberdade",
        "street": "Rua Capitão Bonifácio",
        "zipcode": "68375-470"
    },
    {
        "city": "Altamira",
        "state": "PA",
        "district": "Liberdade",
        "street": "Rua WE Nove",
        "zipcode": "68375-331"
    },
    {
        "city": "Altamira",
        "state": "PA",
        "district": "Brasília",
        "street": "Travessa Pedro Miranda",
        "zipcode": "68375-115"
    },
    {
        "city": "Altamira",
        "state": "PA",
        "district": "Jardim Independente II",
        "street": "Rua Coronel José Porfírio",
        "zipcode": "68375-225"
    },
    {
        "city": "Altamira",
        "state": "PA",
        "district": "Liberdade",
        "street": "Rua WE Seis",
        "zipcode": "68375-333"
    },
    {
        "city": "Altamira",
        "state": "PA",
        "district": "Liberdade",
        "street": "Rua WE Dois",
        "zipcode": "68375-345"
    },
    {
        "city": "Altamira",
        "state": "PA",
        "district": "Liberdade",
        "street": "Rua Nova",
        "zipcode": "68375-346"
    },
    {
        "city": "Altamira",
        "state": "PA",
        "district": "Sudam II",
        "street": "Travessa Mendonça",
        "zipcode": "68374-292"
    },
    {
        "city": "Altamira",
        "state": "PA",
        "district": "Ibiza",
        "street": "Passagem V",
        "zipcode": "68376-730"
    },
    {
        "city": "Altamira",
        "state": "PA",
        "district": "Liberdade",
        "street": "Rua Ubiratan",
        "zipcode": "68375-368"
    },
    {
        "city": "Altamira",
        "state": "PA",
        "district": "Jardim Independente II",
        "street": "Rua Seringa",
        "zipcode": "68372-525"
    },
    {
        "city": "Altamira",
        "state": "PA",
        "district": "Alberto Soares",
        "street": "Rua Euclides Resende",
        "zipcode": "68376-005"
    },
    {
        "city": "Altamira",
        "state": "PA",
        "district": "Jardim Independente II",
        "street": "Alameda João VI",
        "zipcode": "68372-340"
    },
    {
        "city": "Altamira",
        "state": "PA",
        "district": "Jardim Independente II",
        "street": "Rua Eliane Antunes",
        "zipcode": "68372-515"
    },
    {
        "city": "Altamira",
        "state": "PA",
        "district": "Colinas",
        "street": "Travessa WE Três",
        "zipcode": "68376-345"
    },
    {
        "city": "Altamira",
        "state": "PA",
        "district": "Sudam II",
        "street": "Rua Ernesto Passarelli",
        "zipcode": "68374-272"
    },
    {
        "city": "Altamira",
        "state": "PA",
        "district": "Sudam I",
        "street": "Avenida Perimetral",
        "zipcode": "68374-276"
    },
    {
        "city": "Altamira",
        "state": "PA",
        "district": "Aparecida",
        "street": "Rua Três",
        "zipcode": "68377-405"
    },
    {
        "city": "Altamira",
        "state": "PA",
        "district": "Sudam II",
        "street": "Rua A (SUDAM  II)",
        "zipcode": "68374-275"
    },
    {
        "city": "Altamira",
        "state": "PA",
        "district": "Jardim Uirapuru",
        "street": "Rua Amapá",
        "zipcode": "68374-250"
    },
    {
        "city": "Altamira",
        "state": "PA",
        "district": "Boa Esperança",
        "street": "Rua das Avencas",
        "zipcode": "68377-250"
    },
    {
        "city": "Altamira",
        "state": "PA",
        "district": "Brasília",
        "street": "Travessa Capitão Pereira",
        "zipcode": "68375-100"
    },
    {
        "city": "Altamira",
        "state": "PA",
        "district": "Sudam II",
        "street": "Rua Cinco",
        "zipcode": "68374-370"
    },
    {
        "city": "Altamira",
        "state": "PA",
        "district": "Sudam II",
        "street": "Travessa Cinco",
        "zipcode": "68374-420"
    },
    {
        "city": "Altamira",
        "state": "PA",
        "district": "Brasília",
        "street": "Alameda Dez",
        "zipcode": "68375-140"
    },
    {
        "city": "Altamira",
        "state": "PA",
        "district": "Aparecida",
        "street": "Rua Dois",
        "zipcode": "68377-400"
    },
    {
        "city": "Altamira",
        "state": "PA",
        "district": "Sudam II",
        "street": "Travessa Dois",
        "zipcode": "68374-340"
    },
    {
        "city": "Altamira",
        "state": "PA",
        "district": "Brasília",
        "street": "Rua Joaquim Acácio",
        "zipcode": "68377-590"
    },
    {
        "city": "Altamira",
        "state": "PA",
        "district": "Brasília",
        "street": "Rua Joaquim Avelino",
        "zipcode": "68377-570"
    },
    {
        "city": "Altamira",
        "state": "PA",
        "district": "Brasília",
        "street": "Rua José de Alencar",
        "zipcode": "68375-520"
    },
    {
        "city": "Altamira",
        "state": "PA",
        "district": "Brasília",
        "street": "Travessa Luís Coutinho",
        "zipcode": "68375-090"
    },
    {
        "city": "Altamira",
        "state": "PA",
        "district": "Sudam II",
        "street": "Travessa Nove",
        "zipcode": "68374-510"
    },
    {
        "city": "Altamira",
        "state": "PA",
        "district": "Aparecida",
        "street": "Rua da Peixaria",
        "zipcode": "68377-620"
    },
    {
        "city": "Altamira",
        "state": "PA",
        "district": "Jardim Uirapuru",
        "street": "Travessa Pernambuco",
        "zipcode": "68374-200"
    },
    {
        "city": "Altamira",
        "state": "PA",
        "district": "Brasília",
        "street": "Rua Professor Antônio Gondin Lins",
        "zipcode": "68375-170"
    },
    {
        "city": "Altamira",
        "state": "PA",
        "district": "Aparecida",
        "street": "Rua Quatro",
        "zipcode": "68377-350"
    },
    {
        "city": "Altamira",
        "state": "PA",
        "district": "Jardim Uirapuru",
        "street": "Travessa Rio Grande do Norte",
        "zipcode": "68374-210"
    },
    {
        "city": "Altamira",
        "state": "PA",
        "district": "Jardim Uirapuru",
        "street": "Rua Sergipe",
        "zipcode": "68374-230"
    },
    {
        "city": "Altamira",
        "state": "PA",
        "district": "Sudam II",
        "street": "Travessa Sete",
        "zipcode": "68374-450"
    },
    {
        "city": "Altamira",
        "state": "PA",
        "district": "Aparecida",
        "street": "Rua Um",
        "zipcode": "68377-390"
    },
    {
        "city": "Altamira",
        "state": "PA",
        "district": "Sudam II",
        "street": "Rua Um",
        "zipcode": "68374-310"
    },
    {
        "city": "Altamira",
        "state": "PA",
        "district": "Liberdade",
        "street": "Travessa WE Doze",
        "zipcode": "68375-340"
    },
    {
        "city": "Altamira",
        "state": "PA",
        "district": "Liberdade",
        "street": "Travessa WE Onze",
        "zipcode": "68375-330"
    },
    {
        "city": "Altamira",
        "state": "PA",
        "district": "Brasília",
        "street": "Rua Padre Walter",
        "zipcode": "68375-160"
    },
    {
        "city": "Altamira",
        "state": "PA",
        "district": "Jardim Independente II",
        "street": "Rua Itata",
        "zipcode": "68377-735"
    },
    {
        "city": "Altamira",
        "state": "PA",
        "district": "Mutirão",
        "street": "Rua São Sebastião",
        "zipcode": "68377-840"
    },
    {
        "city": "Altamira",
        "state": "PA",
        "district": "Mutirão",
        "street": "Rua José Maria (Lot Jd França)",
        "zipcode": "68377-804"
    },
    {
        "city": "Altamira",
        "state": "PA",
        "district": "Mutirão",
        "street": "Rua Boa Esperança (Lot Jd França)",
        "zipcode": "68377-806"
    },
    {
        "city": "Altamira",
        "state": "PA",
        "district": "Mutirão",
        "street": "Alameda Doutor Edilson (Lot Jd França)",
        "zipcode": "68377-808"
    },
    {
        "city": "Altamira",
        "state": "PA",
        "district": "Mutirão",
        "street": "Rua Otacília dos Santos (Lot Jd França)",
        "zipcode": "68377-814"
    },
    {
        "city": "Altamira",
        "state": "PA",
        "district": "Mutirão",
        "street": "Rua da Água Azul (Lot Jd França)",
        "zipcode": "68377-818"
    },
    {
        "city": "Altamira",
        "state": "PA",
        "district": "Mutirão",
        "street": "Travessa Cinco",
        "zipcode": "68377-071"
    },
    {
        "city": "Altamira",
        "state": "PA",
        "district": "Mutirão",
        "street": "Rua Água Azul",
        "zipcode": "68377-042"
    },
    {
        "city": "Altamira",
        "state": "PA",
        "district": "Ibiza",
        "street": "Rua Júlia",
        "zipcode": "68376-765"
    },
    {
        "city": "Altamira",
        "state": "PA",
        "district": "Boa Esperança",
        "street": "Travessa Tinhorão",
        "zipcode": "68377-264"
    },
    {
        "city": "Altamira",
        "state": "PA",
        "district": "Boa Esperança",
        "street": "Rua São Francisco",
        "zipcode": "68377-272"
    },
    {
        "city": "Altamira",
        "state": "PA",
        "district": "Aparecida",
        "street": "Rua Seis",
        "zipcode": "68377-342"
    },
    {
        "city": "Altamira",
        "state": "PA",
        "district": "Ibiza",
        "street": "Rua Sebastião de Oliveira",
        "zipcode": "68376-711"
    },
    {
        "city": "Altamira",
        "state": "PA",
        "district": "Ibiza",
        "street": "Rua Eva Pereira",
        "zipcode": "68376-707"
    },
    {
        "city": "Altamira",
        "state": "PA",
        "district": "Aparecida",
        "street": "Rua Quatro (Lot I  Padres)",
        "zipcode": "68377-339"
    },
    {
        "city": "Altamira",
        "state": "PA",
        "district": "Aparecida",
        "street": "Rua da Paz (Lot I Padres)",
        "zipcode": "68377-337"
    },
    {
        "city": "Altamira",
        "state": "PA",
        "district": "Ibiza",
        "street": "Rua Antonio Penna",
        "zipcode": "68376-709"
    },
    {
        "city": "Altamira",
        "state": "PA",
        "district": "Mutirão",
        "street": "Rua Maria de Jesus (Lot Jd França)",
        "zipcode": "68377-062"
    },
    {
        "city": "Altamira",
        "state": "PA",
        "district": "Esplanada do Xingú",
        "street": "Rua Newton Miranda",
        "zipcode": "68372-871"
    },
    {
        "city": "Altamira",
        "state": "PA",
        "district": "Liberdade",
        "street": "Rua do Bueiro",
        "zipcode": "68375-480"
    },
    {
        "city": "Altamira",
        "state": "PA",
        "district": "Aparecida",
        "street": "Rua B",
        "zipcode": "68377-332"
    },
    {
        "city": "Altamira",
        "state": "PA",
        "district": "Mutirão",
        "street": "Rua Ômega",
        "zipcode": "68377-080"
    },
    {
        "city": "Altamira",
        "state": "PA",
        "district": "Aparecida",
        "street": "Travessa Beira Rio",
        "zipcode": "68377-628"
    },
    {
        "city": "Altamira",
        "state": "PA",
        "district": "Sudam II",
        "street": "Travessa Carolina",
        "zipcode": "68374-521"
    },
    {
        "city": "Altamira",
        "state": "PA",
        "district": "Mutirão",
        "street": "Rua Vicente de Paulo (Lot Jd França)",
        "zipcode": "68377-061"
    },
    {
        "city": "Altamira",
        "state": "PA",
        "district": "Jardim Altamira",
        "street": "Rua José Medeiros da Costa",
        "zipcode": "68376-505"
    },
    {
        "city": "Altamira",
        "state": "PA",
        "district": "Aparecida",
        "street": "Rua Um (Lot I Padres)",
        "zipcode": "68377-344"
    },
    {
        "city": "Altamira",
        "state": "PA",
        "district": "Mutirão",
        "street": "Travessa Um",
        "zipcode": "68377-052"
    },
    {
        "city": "Altamira",
        "state": "PA",
        "district": "Ibiza",
        "street": "Rua Raimunda Lobato (Lot D Lourenzo)",
        "zipcode": "68376-769"
    },
    {
        "city": "Altamira",
        "state": "PA",
        "district": "Sudam II",
        "street": "Acesso Dois",
        "zipcode": "68374-312"
    },
    {
        "city": "Altamira",
        "state": "PA",
        "district": "Sudam II",
        "street": "Acesso Nove",
        "zipcode": "68374-520"
    },
    {
        "city": "Altamira",
        "state": "PA",
        "district": "Aparecida",
        "street": "Acesso Quatro",
        "zipcode": "68377-380"
    },
    {
        "city": "Altamira",
        "state": "PA",
        "district": "Aparecida",
        "street": "Acesso Oito",
        "zipcode": "68377-500"
    },
    {
        "city": "Altamira",
        "state": "PA",
        "district": "Aparecida",
        "street": "Acesso Seis",
        "zipcode": "68377-420"
    },
    {
        "city": "Altamira",
        "state": "PA",
        "district": "Alberto Soares",
        "street": "Rua Maria das Graças",
        "zipcode": "68376-010"
    },
    {
        "city": "Altamira",
        "state": "PA",
        "district": "Alberto Soares",
        "street": "Avenida Varginha (Lot Altaville)",
        "zipcode": "68376-040"
    },
    {
        "city": "Altamira",
        "state": "PA",
        "district": "Jardim Altamira",
        "street": "Rua João Besouro",
        "zipcode": "68376-650"
    },
    {
        "city": "Altamira",
        "state": "PA",
        "district": "Premem",
        "street": "Avenida Alacid Nunes",
        "zipcode": "68373-500"
    },
    {
        "city": "Altamira",
        "state": "PA",
        "district": "Boa Esperança",
        "street": "Rua da Alegria",
        "zipcode": "68377-310"
    },
    {
        "city": "Altamira",
        "state": "PA",
        "district": "Boa Esperança",
        "street": "Rua dos Crisântemos",
        "zipcode": "68377-240"
    },
    {
        "city": "Altamira",
        "state": "PA",
        "district": "Jardim Independente II",
        "street": "Rua Dom Pedro I",
        "zipcode": "68372-290"
    },
    {
        "city": "Altamira",
        "state": "PA",
        "district": "Jardim Independente I",
        "street": "Rua Salu de Almeida",
        "zipcode": "68372-740"
    },
    {
        "city": "Altamira",
        "state": "PA",
        "district": "Boa Esperança",
        "street": "Travessa Sândalos",
        "zipcode": "68377-190"
    },
    {
        "city": "Altamira",
        "state": "PA",
        "district": "Centro",
        "street": "Travessa Três",
        "zipcode": "68371-220"
    },
    {
        "city": "Altamira",
        "state": "PA",
        "district": "Boa Esperança",
        "street": "Rua das Violetas",
        "zipcode": "68377-090"
    },
    {
        "city": "Altamira",
        "state": "PA",
        "district": "Jardim Uirapuru",
        "street": "Travessa Ceará",
        "zipcode": "68374-190"
    },
    {
        "city": "Altamira",
        "state": "PA",
        "district": "Mutirão",
        "street": "Rua VII",
        "zipcode": "68377-055"
    },
    {
        "city": "Altamira",
        "state": "PA",
        "district": "Mutirão",
        "street": "Rua XI",
        "zipcode": "68377-047"
    },
    {
        "city": "Altamira",
        "state": "PA",
        "district": "Jardim Independente II",
        "street": "Travessa Vinte e Quatro de Dezembro (Cj Jd Dona Elvira)",
        "zipcode": "68372-224"
    },
    {
        "city": "Altamira",
        "state": "PA",
        "district": "Jardim Altamira",
        "street": "Rua Professora Nair Lemos",
        "zipcode": "68376-525"
    },
    {
        "city": "Altamira",
        "state": "PA",
        "district": "Alberto Soares",
        "street": "Rua Avelino Garcia Soares",
        "zipcode": "68376-090"
    },
    {
        "city": "Altamira",
        "state": "PA",
        "district": "Jardim Altamira",
        "street": "Rua Isaac Barbosa",
        "zipcode": "68376-520"
    },
    {
        "city": "Altamira",
        "state": "PA",
        "district": "Liberdade",
        "street": "Rua Sebastião Paulo Dias",
        "zipcode": "68375-352"
    },
    {
        "city": "Altamira",
        "state": "PA",
        "district": "Liberdade",
        "street": "Rua Olavo Bilac",
        "zipcode": "68375-371"
    },
    {
        "city": "Altamira",
        "state": "PA",
        "district": "Colinas",
        "street": "Rua WE Seis",
        "zipcode": "68376-320"
    },
    {
        "city": "Altamira",
        "state": "PA",
        "district": "Colinas",
        "street": "Rua WE Nove",
        "zipcode": "68376-335"
    },
    {
        "city": "Altamira",
        "state": "PA",
        "district": "Liberdade",
        "street": "Rua Joana Darc",
        "zipcode": "68375-362"
    },
    {
        "city": "Altamira",
        "state": "PA",
        "district": "Liberdade",
        "street": "Travessa Honorino da Silva",
        "zipcode": "68375-386"
    },
    {
        "city": "Altamira",
        "state": "PA",
        "district": "Brasília",
        "street": "Avenida João Coelho",
        "zipcode": "68375-088"
    },
    {
        "city": "Altamira",
        "state": "PA",
        "district": "Liberdade",
        "street": "Avenida Jatobá",
        "zipcode": "68375-325"
    },
    {
        "city": "Altamira",
        "state": "PA",
        "district": "Aparecida",
        "street": "Travessa Três (Lot I Padres)",
        "zipcode": "68377-352"
    },
    {
        "city": "Altamira",
        "state": "PA",
        "district": "Aparecida",
        "street": "Travessa Dois (Lot I Padres)",
        "zipcode": "68377-346"
    },
    {
        "city": "Altamira",
        "state": "PA",
        "district": "Ibiza",
        "street": "Travessa Dionizio Bentes (Lot D Lourenzo)",
        "zipcode": "68376-777"
    },
    {
        "city": "Altamira",
        "state": "PA",
        "district": "Brasília",
        "street": "Passagem Igarapé Altamira",
        "zipcode": "68375-095"
    },
    {
        "city": "Altamira",
        "state": "PA",
        "district": "Alberto Soares",
        "street": "Alameda Florianópolis (Lot Altaville I)",
        "zipcode": "68376-098"
    },
    {
        "city": "Altamira",
        "state": "PA",
        "district": "Boa Esperança",
        "street": "Travessa Azaléias",
        "zipcode": "68377-130"
    },
    {
        "city": "Altamira",
        "state": "PA",
        "district": "Alberto Soares",
        "street": "Alameda Recife (Lot Altaville I)",
        "zipcode": "68376-102"
    },
    {
        "city": "Altamira",
        "state": "PA",
        "district": "Mutirão",
        "street": "Rua SF",
        "zipcode": "68377-851"
    },
    {
        "city": "Altamira",
        "state": "PA",
        "district": "Alberto Soares",
        "street": "Alameda Vila Velha (Lot Altaville I)",
        "zipcode": "68376-096"
    },
    {
        "city": "Altamira",
        "state": "PA",
        "district": "Ibiza",
        "street": "Rua Curitiba (Lot Coperfron)",
        "zipcode": "68376-702"
    },
    {
        "city": "Altamira",
        "state": "PA",
        "district": "Alberto Soares",
        "street": "Alameda Formiga (Lot Altaville I)",
        "zipcode": "68376-108"
    },
    {
        "city": "Altamira",
        "state": "PA",
        "district": "Mutirão",
        "street": "Rua SF",
        "zipcode": "68377-867"
    },
    {
        "city": "Altamira",
        "state": "PA",
        "district": "Ibiza",
        "street": "Travessa Julio Marques (Lot D Lourenzo)",
        "zipcode": "68376-783"
    },
    {
        "city": "Altamira",
        "state": "PA",
        "district": "Liberdade",
        "street": "Rua Vinte e Um de Abril",
        "zipcode": "68375-356"
    },
    {
        "city": "Altamira",
        "state": "PA",
        "district": "Alberto Soares",
        "street": "Alameda Poços de Caldas (Lot Altaville I)",
        "zipcode": "68376-100"
    },
    {
        "city": "Altamira",
        "state": "PA",
        "district": "Alberto Soares",
        "street": "Avenida Belo Horizonte (Lot Altaville I)",
        "zipcode": "68376-094"
    },
    {
        "city": "Altamira",
        "state": "PA",
        "district": "Ibiza",
        "street": "Travessa João Vilhena (Lot D Lourenzo)",
        "zipcode": "68376-781"
    },
    {
        "city": "Altamira",
        "state": "PA",
        "district": "Ibiza",
        "street": "Travessa Nilton Melo (Lot D Lourenzo)",
        "zipcode": "68376-787"
    },
    {
        "city": "Altamira",
        "state": "PA",
        "district": "Mutirão",
        "street": "Rua SF",
        "zipcode": "68377-847"
    },
    {
        "city": "Altamira",
        "state": "PA",
        "district": "Mutirão",
        "street": "Rua SF",
        "zipcode": "68377-849"
    },
    {
        "city": "Altamira",
        "state": "PA",
        "district": "Ibiza",
        "street": "Travessa Haroldo Melo (Lot D Lourenzo)",
        "zipcode": "68376-779"
    },
    {
        "city": "Altamira",
        "state": "PA",
        "district": "Alberto Soares",
        "street": "Rua Demétrius Abucater",
        "zipcode": "68376-003"
    },
    {
        "city": "Altamira",
        "state": "PA",
        "district": "Alberto Soares",
        "street": "Rua Apoena (Quartel 51º BIS)",
        "zipcode": "68376-037"
    },
    {
        "city": "Altamira",
        "state": "PA",
        "district": "Alberto Soares",
        "street": "Rua do Estande (Quartel 51º BIS)",
        "zipcode": "68376-041"
    },
    {
        "city": "Altamira",
        "state": "PA",
        "district": "Alberto Soares",
        "street": "Rua Nova (Quartel 51º BIS)",
        "zipcode": "68376-043"
    },
    {
        "city": "Altamira",
        "state": "PA",
        "district": "Jardim Altamira",
        "street": "Rua Quatro (Lot Panorama)",
        "zipcode": "68376-598"
    },
    {
        "city": "Altamira",
        "state": "PA",
        "district": "Jardim Altamira",
        "street": "Rua Oito (Lot Panorama)",
        "zipcode": "68376-606"
    },
    {
        "city": "Altamira",
        "state": "PA",
        "district": "Jardim Altamira",
        "street": "Rua Nove (Lot Panorama)",
        "zipcode": "68376-608"
    },
    {
        "city": "Altamira",
        "state": "PA",
        "district": "Brasília",
        "street": "Rua Horácio Boanerges",
        "zipcode": "68375-320"
    },
    {
        "city": "Altamira",
        "state": "PA",
        "district": "Brasília",
        "street": "Rua João Pinho",
        "zipcode": "68375-490"
    },
    {
        "city": "Altamira",
        "state": "PA",
        "district": "Brasília",
        "street": "Travessa Lúcio Gitirana",
        "zipcode": "68375-550"
    },
    {
        "city": "Altamira",
        "state": "PA",
        "district": "Liberdade",
        "street": "Rodovia Magalhães Barata",
        "zipcode": "68375-410"
    },
    {
        "city": "Altamira",
        "state": "PA",
        "district": "Brasília",
        "street": "Travessa Pedro Acácio",
        "zipcode": "68375-120"
    },
    {
        "city": "Altamira",
        "state": "PA",
        "district": "Jardim Uirapuru",
        "street": "Rua São Paulo",
        "zipcode": "68374-160"
    },
    {
        "city": "Altamira",
        "state": "PA",
        "district": "Liberdade",
        "street": "Travessa WE Quatorze",
        "zipcode": "68375-360"
    },
    {
        "city": "Altamira",
        "state": "PA",
        "district": "Brasília",
        "street": "Rua dos Operários",
        "zipcode": "68375-063"
    },
    {
        "city": "Altamira",
        "state": "PA",
        "district": "Jardim Independente I",
        "street": "Travessa Germano de Oliveira",
        "zipcode": "68373-225"
    },
    {
        "city": "Altamira",
        "state": "PA",
        "district": "Jardim Independente I",
        "street": "Travessa Irmãos Fernandes",
        "zipcode": "68373-098"
    },
    {
        "city": "Altamira",
        "state": "PA",
        "district": "Bela Vista",
        "street": "Travessa Dezoito",
        "zipcode": "68374-707"
    },
    {
        "city": "Altamira",
        "state": "PA",
        "district": "Bela Vista",
        "street": "Travessa Dezesseis",
        "zipcode": "68374-713"
    },
    {
        "city": "Altamira",
        "state": "PA",
        "district": "Bela Vista",
        "street": "Travessa Pico da Neblina",
        "zipcode": "68374-754"
    },
    {
        "city": "Altamira",
        "state": "PA",
        "district": "Bela Vista",
        "street": "Rua José Bonifácio",
        "zipcode": "68374-726"
    },
    {
        "city": "Altamira",
        "state": "PA",
        "district": "Jardim Independente I",
        "street": "Rua Nossa Senhora de Nazaré",
        "zipcode": "68373-445"
    },
    {
        "city": "Altamira",
        "state": "PA",
        "district": "Bela Vista",
        "street": "Passagem Alda",
        "zipcode": "68374-652"
    },
    {
        "city": "Altamira",
        "state": "PA",
        "district": "Bela Vista",
        "street": "Travessa Santa Luzia",
        "zipcode": "68374-656"
    },
    {
        "city": "Altamira",
        "state": "PA",
        "district": "Alberto Soares",
        "street": "Avenida Rio de Janeiro (Lot Altaville I)",
        "zipcode": "68376-092"
    },
    {
        "city": "Altamira",
        "state": "PA",
        "district": "Ibiza",
        "street": "Travessa São Gaspar (Lot Coperfron)",
        "zipcode": "68376-731"
    },
    {
        "city": "Altamira",
        "state": "PA",
        "district": "Liberdade",
        "street": "Alameda Wanderson Castro (Lot A Senna)",
        "zipcode": "68375-389"
    },
    {
        "city": "Altamira",
        "state": "PA",
        "district": "Bela Vista",
        "street": "Rua Djalma Dutra (Km 04",
        "zipcode": "68374-780"
    },
    {
        "city": "Altamira",
        "state": "PA",
        "district": "Liberdade",
        "street": "Estrada Monte Santo (Lot A Senna II)",
        "zipcode": "68375-484"
    },
    {
        "city": "Altamira",
        "state": "PA",
        "district": "Liberdade",
        "street": "Rua Princesa Izabel (Lot A Senna II)",
        "zipcode": "68375-482"
    },
    {
        "city": "Altamira",
        "state": "PA",
        "district": "Mutirão",
        "street": "Rua SF",
        "zipcode": "68377-865"
    },
    {
        "city": "Altamira",
        "state": "PA",
        "district": "Liberdade",
        "street": "Rua Primeiro de Maio (Lot Santa Ana)",
        "zipcode": "68375-329"
    },
    {
        "city": "Altamira",
        "state": "PA",
        "district": "Liberdade",
        "street": "Alameda José Batista (Lot A Senna)",
        "zipcode": "68375-445"
    },
    {
        "city": "Altamira",
        "state": "PA",
        "district": "Liberdade",
        "street": "Alameda Dedieli (Lot A Senna)",
        "zipcode": "68375-365"
    },
    {
        "city": "Altamira",
        "state": "PA",
        "district": "Ibiza",
        "street": "Rua Humberto Alziér de Olivera (Lot D Lourenzo)",
        "zipcode": "68376-764"
    },
    {
        "city": "Altamira",
        "state": "PA",
        "district": "Liberdade",
        "street": "Rua Vivina Leão (Lot A Senna II)",
        "zipcode": "68375-475"
    },
    {
        "city": "Altamira",
        "state": "PA",
        "district": "Ibiza",
        "street": "Rua São Caetano (Lot Kajihara)",
        "zipcode": "68376-734"
    },
    {
        "city": "Altamira",
        "state": "PA",
        "district": "Ibiza",
        "street": "Rua São Paulo (Lot Kajihara)",
        "zipcode": "68376-747"
    },
    {
        "city": "Altamira",
        "state": "PA",
        "district": "Ibiza",
        "street": "Rua São Lucas (Lot Gja Kajihara)",
        "zipcode": "68376-742"
    },
    {
        "city": "Altamira",
        "state": "PA",
        "district": "Ibiza",
        "street": "Rua São Benedito (Lot Kajihara)",
        "zipcode": "68376-732"
    },
    {
        "city": "Altamira",
        "state": "PA",
        "district": "Ibiza",
        "street": "Rua Raimundo Moreira (Lot Coperfron)",
        "zipcode": "68376-724"
    },
    {
        "city": "Altamira",
        "state": "PA",
        "district": "Liberdade",
        "street": "Rua Princesa Diana (Lot A Senna II)",
        "zipcode": "68375-485"
    },
    {
        "city": "Altamira",
        "state": "PA",
        "district": "Ibiza",
        "street": "Rua São Mateus (Lot Gja Kajihara)",
        "zipcode": "68376-744"
    },
    {
        "city": "Altamira",
        "state": "PA",
        "district": "Ibiza",
        "street": "Travessa Socorro Moreira (Lot Coperfron)",
        "zipcode": "68376-729"
    },
    {
        "city": "Altamira",
        "state": "PA",
        "district": "Ibiza",
        "street": "Avenida dos Vencedores (Lot D Lourenzo)",
        "zipcode": "68376-759"
    },
    {
        "city": "Altamira",
        "state": "PA",
        "district": "Liberdade",
        "street": "Alameda Nilza Barbosa (Lot A Senna II)",
        "zipcode": "68375-486"
    },
    {
        "city": "Altamira",
        "state": "PA",
        "district": "Ibiza",
        "street": "Rua São Vicente (Lot Kajihara)",
        "zipcode": "68376-754"
    },
    {
        "city": "Altamira",
        "state": "PA",
        "district": "Ibiza",
        "street": "Avenida San Lourenzo (Lot D Lourenzo)",
        "zipcode": "68376-757"
    },
    {
        "city": "Altamira",
        "state": "PA",
        "district": "Ibiza",
        "street": "Rua São Pedro (Lot Kajihara)",
        "zipcode": "68376-749"
    },
    {
        "city": "Altamira",
        "state": "PA",
        "district": "Jardim Altamira",
        "street": "Rua D (Lot Panorama)",
        "zipcode": "68376-570"
    },
    {
        "city": "Altamira",
        "state": "PA",
        "district": "Liberdade",
        "street": "Alameda Wallerson Castro (Lot A Senna)",
        "zipcode": "68375-367"
    },
    {
        "city": "Altamira",
        "state": "PA",
        "district": "Liberdade",
        "street": "Alameda Zenaide (Lot A Senna)",
        "zipcode": "68375-458"
    },
    {
        "city": "Altamira",
        "state": "PA",
        "district": "Ibiza",
        "street": "Rua São José (Lot Kajihara)",
        "zipcode": "68376-739"
    },
    {
        "city": "Altamira",
        "state": "PA",
        "district": "Ibiza",
        "street": "Travessa Celina Moreira (Lot Coperfron)",
        "zipcode": "68376-727"
    },
    {
        "city": "Altamira",
        "state": "PA",
        "district": "Sudam II",
        "street": "Rua Roberto Marinho",
        "zipcode": "68374-282"
    },
    {
        "city": "Altamira",
        "state": "PA",
        "district": "Sudam II",
        "street": "Rua Joaquim Nabuco",
        "zipcode": "68374-278"
    },
    {
        "city": "Altamira",
        "state": "PA",
        "district": "Jardim Altamira",
        "street": "Travessa C (Lot Panorama)",
        "zipcode": "68376-616"
    },
    {
        "city": "Altamira",
        "state": "PA",
        "district": "Jardim Altamira",
        "street": "Rua G (Lot Panorama)",
        "zipcode": "68376-578"
    },
    {
        "city": "Altamira",
        "state": "PA",
        "district": "Jardim Altamira",
        "street": "Rua W1",
        "zipcode": "68376-580"
    },
    {
        "city": "Altamira",
        "state": "PA",
        "district": "Jardim Altamira",
        "street": "Rua WD (Lot Panorama)",
        "zipcode": "68376-588"
    },
    {
        "city": "Altamira",
        "state": "PA",
        "district": "Jardim Altamira",
        "street": "Rua Um (Lot Panorama)",
        "zipcode": "68376-592"
    },
    {
        "city": "Altamira",
        "state": "PA",
        "district": "Jardim Altamira",
        "street": "Avenida Irmã Clores Mendes Oliveira (Lot Panorama)",
        "zipcode": "68376-600"
    },
    {
        "city": "Altamira",
        "state": "PA",
        "district": "Jardim Altamira",
        "street": "Rua Seis (Lot Panorama)",
        "zipcode": "68376-602"
    },
    {
        "city": "Altamira",
        "state": "PA",
        "district": "Jardim Altamira",
        "street": "Travessa DB (Lot Panorama)",
        "zipcode": "68376-622"
    },
    {
        "city": "Altamira",
        "state": "PA",
        "district": "Jardim Uirapuru",
        "street": "Rua Acre",
        "zipcode": "68374-220"
    },
    {
        "city": "Altamira",
        "state": "PA",
        "district": "Jardim Independente I",
        "street": "Rua Antônio Lemos",
        "zipcode": "68373-300"
    },
    {
        "city": "Altamira",
        "state": "PA",
        "district": "Jardim Uirapuru",
        "street": "Rua Arariunas",
        "zipcode": "68373-070"
    },
    {
        "city": "Altamira",
        "state": "PA",
        "district": "Sudam II",
        "street": "Rua Dois",
        "zipcode": "68374-320"
    },
    {
        "city": "Altamira",
        "state": "PA",
        "district": "Jardim Uirapuru",
        "street": "Travessa Florianópolis",
        "zipcode": "68374-050"
    },
    {
        "city": "Altamira",
        "state": "PA",
        "district": "Jardim Independente I",
        "street": "Rua Francisco Meireles",
        "zipcode": "68373-510"
    },
    {
        "city": "Altamira",
        "state": "PA",
        "district": "Jardim Uirapuru",
        "street": "Rua Marília",
        "zipcode": "68374-120"
    },
    {
        "city": "Altamira",
        "state": "PA",
        "district": "Jardim Independente I",
        "street": "Rua Modesto Silva",
        "zipcode": "68373-120"
    },
    {
        "city": "Altamira",
        "state": "PA",
        "district": "Sudam II",
        "street": "Rua Quatro",
        "zipcode": "68374-380"
    },
    {
        "city": "Altamira",
        "state": "PA",
        "district": "Jardim Independente I",
        "street": "Rua José Ribeiro Alves",
        "zipcode": "68373-360"
    },
    {
        "city": "Altamira",
        "state": "PA",
        "district": "Sudam II",
        "street": "Travessa Seis",
        "zipcode": "68374-430"
    },
    {
        "city": "Altamira",
        "state": "PA",
        "district": "Jardim Independente I",
        "street": "Rua Salustiano de Almeida",
        "zipcode": "68373-140"
    },
    {
        "city": "Altamira",
        "state": "PA",
        "district": "Jardim Uirapuru",
        "street": "Travessa Niterói",
        "zipcode": "68372-835"
    },
    {
        "city": "Altamira",
        "state": "PA",
        "district": "Jardim Independente I",
        "street": "Avenida Tancredo Neves",
        "zipcode": "68372-573"
    },
    {
        "city": "Altamira",
        "state": "PA",
        "district": "Jardim Independente II",
        "street": "Avenida Tancredo Neves",
        "zipcode": "68372-222"
    },
    {
        "city": "Altamira",
        "state": "PA",
        "district": "Esplanada do Xingú",
        "street": "Travessa Rui Barbosa",
        "zipcode": "68372-865"
    },
    {
        "city": "Altamira",
        "state": "PA",
        "district": "Esplanada do Xingú",
        "street": "Rua Marechal Rondon",
        "zipcode": "68372-880"
    },
    {
        "city": "Altamira",
        "state": "PA",
        "district": "Jardim Uirapuru",
        "street": "Rua Coronel Jarbas Passarinho",
        "zipcode": "68372-083"
    },
    {
        "city": "Altamira",
        "state": "PA",
        "district": "Premem",
        "street": "Travessa Luis Né da Silva",
        "zipcode": "68372-101"
    },
    {
        "city": "Altamira",
        "state": "PA",
        "district": "Premem",
        "street": "Rua José Ribeiro Alves",
        "zipcode": "68372-588"
    },
    {
        "city": "Altamira",
        "state": "PA",
        "district": "Nova Altamira",
        "street": "Travessa Presidente Dutra",
        "zipcode": "68371-550"
    },
    {
        "city": "Altamira",
        "state": "PA",
        "district": "Nova Altamira",
        "street": "Travessa Paraíso",
        "zipcode": "68371-548"
    },
    {
        "city": "Altamira",
        "state": "PA",
        "district": "Nova Altamira",
        "street": "Travessa Princesa Izabel",
        "zipcode": "68371-544"
    },
    {
        "city": "Altamira",
        "state": "PA",
        "district": "Bela Vista",
        "street": "Travessa Acre (Km 04",
        "zipcode": "68374-768"
    },
    {
        "city": "Altamira",
        "state": "PA",
        "district": "Bela Vista",
        "street": "Travessa Amazonas (Km 04",
        "zipcode": "68374-770"
    },
    {
        "city": "Altamira",
        "state": "PA",
        "district": "Bela Vista",
        "street": "Rua Marechal Castelo Branco",
        "zipcode": "68374-782"
    },
    {
        "city": "Altamira",
        "state": "PA",
        "district": "Premem",
        "street": "Avenida Via Oeste",
        "zipcode": "68372-571"
    },
    {
        "city": "Altamira",
        "state": "PA",
        "district": "Jardim Independente I",
        "street": "Avenida Via Oeste",
        "zipcode": "68372-604"
    },
    {
        "city": "Altamira",
        "state": "PA",
        "district": "Jardim Independente I",
        "street": "Rua Roraima",
        "zipcode": "68372-603"
    },
    {
        "city": "Altamira",
        "state": "PA",
        "district": "Bela Vista",
        "street": "Rua Um (Lot Prq Ipê)",
        "zipcode": "68374-712"
    },
    {
        "city": "Altamira",
        "state": "PA",
        "district": "Liberdade",
        "street": "Rua Hostenfeld (Lot A Senna II)",
        "zipcode": "68375-463"
    },
    {
        "city": "Altamira",
        "state": "PA",
        "district": "Liberdade",
        "street": "Avenida Emília Pscacaidt (Lot A Senna)",
        "zipcode": "68375-347"
    },
    {
        "city": "Altamira",
        "state": "PA",
        "district": "Bela Vista",
        "street": "Rua Oito (Lot Prq Ipê)",
        "zipcode": "68374-725"
    },
    {
        "city": "Altamira",
        "state": "PA",
        "district": "Liberdade",
        "street": "Rua Francisco Barbosa (Lot A Senna II)",
        "zipcode": "68375-472"
    },
    {
        "city": "Altamira",
        "state": "PA",
        "district": "Bela Vista",
        "street": "Rua Sete (Lot Prq Ipê)",
        "zipcode": "68374-723"
    },
    {
        "city": "Altamira",
        "state": "PA",
        "district": "Bela Vista",
        "street": "Rua Seis (Lot Prq Ipê)",
        "zipcode": "68374-720"
    },
    {
        "city": "Altamira",
        "state": "PA",
        "district": "Liberdade",
        "street": "Rua Francisca Nunes (Lot A Senna)",
        "zipcode": "68375-468"
    },
    {
        "city": "Altamira",
        "state": "PA",
        "district": "Bela Vista",
        "street": "Rua Onze (Lot Prq Ipê)",
        "zipcode": "68374-728"
    },
    {
        "city": "Altamira",
        "state": "PA",
        "district": "Nova Altamira",
        "street": "Rua Antônio Pereira da Silva",
        "zipcode": "68371-600"
    },
    {
        "city": "Altamira",
        "state": "PA",
        "district": "Liberdade",
        "street": "Alameda Castro Herenio (Lot A Senna)",
        "zipcode": "68375-387"
    },
    {
        "city": "Altamira",
        "state": "PA",
        "district": "Bela Vista",
        "street": "Rua Maranhão (Km 04",
        "zipcode": "68374-784"
    },
    {
        "city": "Altamira",
        "state": "PA",
        "district": "Liberdade",
        "street": "Alameda Aurea (Lot A Senna)",
        "zipcode": "68375-455"
    },
    {
        "city": "Altamira",
        "state": "PA",
        "district": "Liberdade",
        "street": "Rua Alberto Soares (Lot Santa Ana)",
        "zipcode": "68375-323"
    },
    {
        "city": "Altamira",
        "state": "PA",
        "district": "Bela Vista",
        "street": "Travessa Terezinha",
        "zipcode": "68374-738"
    },
    {
        "city": "Altamira",
        "state": "PA",
        "district": "Liberdade",
        "street": "Alameda Ana Ellen (Lot A Senna I)",
        "zipcode": "68375-379"
    },
    {
        "city": "Altamira",
        "state": "PA",
        "district": "Nova Altamira",
        "street": "Rua Doze",
        "zipcode": "68371-606"
    },
    {
        "city": "Altamira",
        "state": "PA",
        "district": "Nova Altamira",
        "street": "Rua Arlindo de Sousa",
        "zipcode": "68371-608"
    },
    {
        "city": "Altamira",
        "state": "PA",
        "district": "Nova Altamira",
        "street": "Rua Antônio Acácio Sobrinho",
        "zipcode": "68371-610"
    },
    {
        "city": "Altamira",
        "state": "PA",
        "district": "Nova Altamira",
        "street": "Rua Caetano Francisco Sousa",
        "zipcode": "68371-614"
    },
    {
        "city": "Altamira",
        "state": "PA",
        "district": "Centro",
        "street": "Travessa Pedro Gomes",
        "zipcode": "68371-970"
    },
    {
        "city": "Altamira",
        "state": "PA",
        "district": "Recreio",
        "street": "Travessa Pedro Gomes",
        "zipcode": "68371-971"
    },
    {
        "city": "Altamira",
        "state": "PA",
        "district": "Centro",
        "street": "Travessa Pedro Gomes",
        "zipcode": "68371-901"
    },
    {
        "city": "Altamira",
        "state": "PA",
        "district": "Centro",
        "street": "Travessa Pedro Gomes",
        "zipcode": "68371-902"
    },
    {
        "city": "Altamira",
        "state": "PA",
        "district": "Centro",
        "street": "Travessa Pedro Gomes",
        "zipcode": "68371-904"
    },
    {
        "city": "Altamira",
        "state": "PA",
        "district": "Boa Esperança",
        "street": "Rua da Fraternidade",
        "zipcode": "68377-550"
    },
    {
        "city": "Altamira",
        "state": "PA",
        "district": "Jardim Uirapuru",
        "street": "Rua Jarbas Passarinho",
        "zipcode": "68372-840"
    },
    {
        "city": "Altamira",
        "state": "PA",
        "district": "Jardim Independente I",
        "street": "Rua João Grafon",
        "zipcode": "68372-760"
    },
    {
        "city": "Altamira",
        "state": "PA",
        "district": "Jardim Independente II",
        "street": "Rua Padre Mário",
        "zipcode": "68372-280"
    },
    {
        "city": "Altamira",
        "state": "PA",
        "district": "Mutirão",
        "street": "Rua Quatro",
        "zipcode": "68377-640"
    },
    {
        "city": "Altamira",
        "state": "PA",
        "district": "Jardim Independente II",
        "street": "Rua Raimundo Corrêa",
        "zipcode": "68372-330"
    },
    {
        "city": "Altamira",
        "state": "PA",
        "district": "Boa Esperança",
        "street": "Travessa Retiro",
        "zipcode": "68377-680"
    },
    {
        "city": "Altamira",
        "state": "PA",
        "district": "Jardim Uirapuru",
        "street": "Travessa Treze de Maio",
        "zipcode": "68372-180"
    },
    {
        "city": "Altamira",
        "state": "PA",
        "district": "Jardim Independente II",
        "street": "Rua Vereador Raimundo Alves",
        "zipcode": "68372-540"
    },
    {
        "city": "Altamira",
        "state": "PA",
        "district": "Jardim Independente II",
        "street": "Rua Vinte e Cinco de Agosto",
        "zipcode": "68372-480"
    },
    {
        "city": "Altamira",
        "state": "PA",
        "district": "Esplanada do Xingú",
        "street": "Rua Coronel José Porfírio",
        "zipcode": "68372-040"
    },
    {
        "city": "Altamira",
        "state": "PA",
        "district": "Jardim Independente II",
        "street": "Rua Quatro",
        "zipcode": "68372-360"
    },
    {
        "city": "Altamira",
        "state": "PA",
        "district": "Jardim Independente I",
        "street": "Rua São Raimundo",
        "zipcode": "68372-745"
    },
    {
        "city": "Altamira",
        "state": "PA",
        "district": "Jardim Independente II",
        "street": "Estrada do Pajé",
        "zipcode": "68377-740"
    },
    {
        "city": "Altamira",
        "state": "PA",
        "district": "Aparecida",
        "street": "Alameda Bom Jardim II",
        "zipcode": "68377-436"
    },
    {
        "city": "Altamira",
        "state": "PA",
        "district": "Centro",
        "street": "Travessa Agrário Cavalcante",
        "zipcode": "68371-005"
    },
    {
        "city": "Altamira",
        "state": "PA",
        "district": "Centro",
        "street": "Rua Manoel Umbuzeiro",
        "zipcode": "68371-274"
    },
    {
        "city": "Altamira",
        "state": "PA",
        "district": "Centro",
        "street": "Travessa Coronel Tancredo",
        "zipcode": "68371-203"
    },
    {
        "city": "Altamira",
        "state": "PA",
        "district": "Centro",
        "street": "Rua Magalhães Barata",
        "zipcode": "68371-057"
    },
    {
        "city": "Altamira",
        "state": "PA",
        "district": "Sudam I",
        "street": "Travessa Pedro Gomes",
        "zipcode": "68371-105"
    },
    {
        "city": "Altamira",
        "state": "PA",
        "district": "Aparecida",
        "street": "Rua Abel Figueiredo",
        "zipcode": "68377-395"
    },
    {
        "city": "Altamira",
        "state": "PA",
        "district": "Centro",
        "street": "Rua Anchieta",
        "zipcode": "68371-195"
    },
    {
        "city": "Altamira",
        "state": "PA",
        "district": "Centro",
        "street": "Travessa Lindolfo Aranha",
        "zipcode": "68371-456"
    },
    {
        "city": "Altamira",
        "state": "PA",
        "district": "Centro",
        "street": "Alameda Perimetral",
        "zipcode": "68371-262"
    },
    {
        "city": "Altamira",
        "state": "PA",
        "district": "Mutirão",
        "street": "Travessa Três",
        "zipcode": "68377-072"
    },
    {
        "city": "Altamira",
        "state": "PA",
        "district": "Mutirão",
        "street": "Rua Dezesseis",
        "zipcode": "68377-064"
    },
    {
        "city": "Altamira",
        "state": "PA",
        "district": "Mutirão",
        "street": "Travessa Dois",
        "zipcode": "68377-044"
    },
    {
        "city": "Altamira",
        "state": "PA",
        "district": "Nova Altamira",
        "street": "Rua do Brás",
        "zipcode": "68371-526"
    },
    {
        "city": "Altamira",
        "state": "PA",
        "district": "Nova Altamira",
        "street": "Rua Boa Vitória",
        "zipcode": "68371-524"
    },
    {
        "city": "Altamira",
        "state": "PA",
        "district": "Nova Altamira",
        "street": "Avenida Castelo Branco",
        "zipcode": "68371-522"
    },
    {
        "city": "Altamira",
        "state": "PA",
        "district": "Nova Altamira",
        "street": "Travessa Açailândia",
        "zipcode": "68371-542"
    },
    {
        "city": "Altamira",
        "state": "PA",
        "district": "Nova Altamira",
        "street": "Rua Santos Dumont",
        "zipcode": "68371-536"
    },
    {
        "city": "Altamira",
        "state": "PA",
        "district": "Nova Altamira",
        "street": "Rua dos Sete Amigos",
        "zipcode": "68371-532"
    },
    {
        "city": "Altamira",
        "state": "PA",
        "district": "Nova Altamira",
        "street": "Rua Janaína",
        "zipcode": "68371-518"
    },
    {
        "city": "Altamira",
        "state": "PA",
        "district": "Boa Esperança",
        "street": "Rua Nove",
        "zipcode": "68377-092"
    },
    {
        "city": "Altamira",
        "state": "PA",
        "district": "Jardim Independente II",
        "street": "Rua Salustiano de Sá",
        "zipcode": "68372-244"
    },
    {
        "city": "Altamira",
        "state": "PA",
        "district": "Bela Vista",
        "street": "Travessa Nossa Senhora Aparecida",
        "zipcode": "68374-654"
    },
    {
        "city": "Altamira",
        "state": "PA",
        "district": "Sudam II",
        "street": "Rua Guilherme Pereira",
        "zipcode": "68374-270"
    },
    {
        "city": "Altamira",
        "state": "PA",
        "district": "Bela Vista",
        "street": "Travessa Vila Rica (Seringueira)",
        "zipcode": "68374-658"
    },
    {
        "city": "Altamira",
        "state": "PA",
        "district": "Jardim Independente I",
        "street": "Rua Macapá",
        "zipcode": "68372-597"
    },
    {
        "city": "Altamira",
        "state": "PA",
        "district": "Mutirão",
        "street": "Rua SF",
        "zipcode": "68377-853"
    },
    {
        "city": "Altamira",
        "state": "PA",
        "district": "Mutirão",
        "street": "Alameda Primeira",
        "zipcode": "68377-051"
    },
    {
        "city": "Altamira",
        "state": "PA",
        "district": "Nova Altamira",
        "street": "Rua Maria Salvador Fais",
        "zipcode": "68371-604"
    },
    {
        "city": "Altamira",
        "state": "PA",
        "district": "Jardim Independente I",
        "street": "Rua Antonio Cunha Filho",
        "zipcode": "68372-815"
    },
    {
        "city": "Altamira",
        "state": "PA",
        "district": "Sudam II",
        "street": "Travessa Natal",
        "zipcode": "68374-291"
    },
    {
        "city": "Altamira",
        "state": "PA",
        "district": "Jardim Independente I",
        "street": "Rua São Miguel",
        "zipcode": "68372-601"
    },
    {
        "city": "Altamira",
        "state": "PA",
        "district": "Sudam II",
        "street": "Avenida Popular",
        "zipcode": "68374-295"
    },
    {
        "city": "Altamira",
        "state": "PA",
        "district": "Sudam II",
        "street": "Acesso Oito",
        "zipcode": "68374-302"
    },
    {
        "city": "Altamira",
        "state": "PA",
        "district": "Aparecida",
        "street": "Acesso Um",
        "zipcode": "68377-330"
    },
    {
        "city": "Altamira",
        "state": "PA",
        "district": "Sudam I",
        "street": "Acesso Doze",
        "zipcode": "68371-300"
    },
    {
        "city": "Altamira",
        "state": "PA",
        "district": "Boa Esperança",
        "street": "Rua das Acácias",
        "zipcode": "68377-140"
    },
    {
        "city": "Altamira",
        "state": "PA",
        "district": "Boa Esperança",
        "street": "Rua da Concórdia",
        "zipcode": "68377-270"
    },
    {
        "city": "Altamira",
        "state": "PA",
        "district": "Centro",
        "street": "Alameda Heroito de Medeiros",
        "zipcode": "68371-420"
    },
    {
        "city": "Altamira",
        "state": "PA",
        "district": "Centro",
        "street": "Avenida João Pessoa",
        "zipcode": "68371-040"
    },
    {
        "city": "Altamira",
        "state": "PA",
        "district": "Premem",
        "street": "Travessa das Palmeiras",
        "zipcode": "68372-650"
    },
    {
        "city": "Altamira",
        "state": "PA",
        "district": "Boa Esperança",
        "street": "Travessa Tulipas",
        "zipcode": "68377-220"
    },
    {
        "city": "Altamira",
        "state": "PA",
        "district": "Centro",
        "street": "Alameda Segunda",
        "zipcode": "68371-210"
    },
    {
        "city": "Altamira",
        "state": "PA",
        "district": "Jardim Independente I",
        "street": "Rua Humbelino José de Oliveira",
        "zipcode": "68373-113"
    },
    {
        "city": "Altamira",
        "state": "PA",
        "district": "Jardim Altamira",
        "street": "Rua Anfrisio Nunes",
        "zipcode": "68376-501"
    },
    {
        "city": "Altamira",
        "state": "PA",
        "district": "Liberdade",
        "street": "Rua Belo Monte",
        "zipcode": "68375-479"
    },
    {
        "city": "Altamira",
        "state": "PA",
        "district": "Liberdade",
        "street": "Avenida Castelo Branco",
        "zipcode": "68375-341"
    },
    {
        "city": "Altamira",
        "state": "PA",
        "district": "Bela Vista",
        "street": "Avenida Circulaçao Perimetral",
        "zipcode": "68374-704"
    },
    {
        "city": "Altamira",
        "state": "PA",
        "district": "Jardim Independente I",
        "street": "Rua Nossa Senhora de Nazaré",
        "zipcode": "68373-185"
    },
    {
        "city": "Altamira",
        "state": "PA",
        "district": "Esplanada do Xingú",
        "street": "Rua Floriano Peixoto",
        "zipcode": "68372-862"
    },
    {
        "city": "Altamira",
        "state": "PA",
        "district": "Liberdade",
        "street": "Rua WE Dez",
        "zipcode": "68375-395"
    },
    {
        "city": "Altamira",
        "state": "PA",
        "district": "Jardim Independente I",
        "street": "Travessa Nossa Senhora de Nazaré",
        "zipcode": "68373-102"
    },
    {
        "city": "Altamira",
        "state": "PA",
        "district": "Jardim Independente I",
        "street": "Alameda Xingu",
        "zipcode": "68373-115"
    },
    {
        "city": "Altamira",
        "state": "PA",
        "district": "Jardim Independente I",
        "street": "Travessa Santarém",
        "zipcode": "68373-127"
    },
    {
        "city": "Altamira",
        "state": "PA",
        "district": "Bela Vista",
        "street": "Travessa Vinte",
        "zipcode": "68374-702"
    },
    {
        "city": "Altamira",
        "state": "PA",
        "district": "Bela Vista",
        "street": "Travessa Quatorze",
        "zipcode": "68374-717"
    },
    {
        "city": "Altamira",
        "state": "PA",
        "district": "Colinas",
        "street": "Rua WE Cinco",
        "zipcode": "68376-315"
    },
    {
        "city": "Altamira",
        "state": "PA",
        "district": "Colinas",
        "street": "Rua WE Sete",
        "zipcode": "68376-325"
    },
    {
        "city": "Altamira",
        "state": "PA",
        "district": "Premem",
        "street": "Rua Tomé",
        "zipcode": "68372-586"
    },
    {
        "city": "Altamira",
        "state": "PA",
        "district": "Esplanada do Xingú",
        "street": "Travessa Belém",
        "zipcode": "68372-874"
    },
    {
        "city": "Altamira",
        "state": "PA",
        "district": "Premem",
        "street": "Passagem G",
        "zipcode": "68372-576"
    },
    {
        "city": "Altamira",
        "state": "PA",
        "district": "Liberdade",
        "street": "Travessa Duque de Caxias",
        "zipcode": "68375-382"
    },
    {
        "city": "Altamira",
        "state": "PA",
        "district": "Liberdade",
        "street": "Travessa Santos Dumont",
        "zipcode": "68375-384"
    },
    {
        "city": "Altamira",
        "state": "PA",
        "district": "Jardim Altamira",
        "street": "Rua Elias Pedrosa",
        "zipcode": "68376-550"
    },
    {
        "city": "Altamira",
        "state": "PA",
        "district": "Bela Vista",
        "street": "Travessa Seringueira",
        "zipcode": "68374-746"
    },
    {
        "city": "Altamira",
        "state": "PA",
        "district": "Brasília",
        "street": "Avenida João Coelho",
        "zipcode": "68375-049"
    },
    {
        "city": "Altamira",
        "state": "PA",
        "district": "Esplanada do Xingú",
        "street": "Avenida João Rodrigues",
        "zipcode": "68372-833"
    },
    {
        "city": "Altamira",
        "state": "PA",
        "district": "Jardim Independente I",
        "street": "Alameda João XXIII",
        "zipcode": "68373-482"
    },
    {
        "city": "Altamira",
        "state": "PA",
        "district": "Brasília",
        "street": "Acesso Um",
        "zipcode": "68375-007"
    },
    {
        "city": "Altamira",
        "state": "PA",
        "district": "Liberdade",
        "street": "Acesso Transamazônica",
        "zipcode": "68375-375"
    },
    {
        "city": "Altamira",
        "state": "PA",
        "district": "Ibiza",
        "street": "Passagem VII",
        "zipcode": "68376-740"
    },
    {
        "city": "Altamira",
        "state": "PA",
        "district": "Ibiza",
        "street": "Passagem VIII",
        "zipcode": "68376-745"
    },
    {
        "city": "Altamira",
        "state": "PA",
        "district": "Ibiza",
        "street": "Passagem X",
        "zipcode": "68376-755"
    },
    {
        "city": "Altamira",
        "state": "PA",
        "district": "Premem",
        "street": "Rua Carlos Alberto Garcia",
        "zipcode": "68372-565"
    },
    {
        "city": "Altamira",
        "state": "PA",
        "district": "Nova Altamira",
        "street": "Rua Claudio Vitorino Rodrigues (Sta Benedita)",
        "zipcode": "68371-618"
    },
    {
        "city": "Altamira",
        "state": "PA",
        "district": "Nova Altamira",
        "street": "Rua Arco",
        "zipcode": "68371-514"
    },
    {
        "city": "Altamira",
        "state": "PA",
        "district": "Nova Altamira",
        "street": "Rua Alexandre Vieira da Silva (Sta Benedita)",
        "zipcode": "68371-624"
    },
    {
        "city": "Altamira",
        "state": "PA",
        "district": "Nova Altamira",
        "street": "Rua Francisco Alves da Silva (Sta Benedita)",
        "zipcode": "68371-622"
    },
    {
        "city": "Altamira",
        "state": "PA",
        "district": "Nova Altamira",
        "street": "Rua Pedro Fontenele (Sta Benedita)",
        "zipcode": "68371-626"
    },
    {
        "city": "Altamira",
        "state": "PA",
        "district": "Nova Altamira",
        "street": "Travessa dos Palmares",
        "zipcode": "68371-527"
    },
    {
        "city": "Altamira",
        "state": "PA",
        "district": "Nova Altamira",
        "street": "Rua Juventino Acácio Barbosa",
        "zipcode": "68371-612"
    },
    {
        "city": "Altamira",
        "state": "PA",
        "district": "Nova Altamira",
        "street": "Rua João Círio de Moura (Sta Benedita)",
        "zipcode": "68371-620"
    },
    {
        "city": "Altamira",
        "state": "PA",
        "district": "Nova Altamira",
        "street": "Rua Cantinho do Sossego",
        "zipcode": "68371-516"
    },
    {
        "city": "Altamira",
        "state": "PA",
        "district": "Nova Altamira",
        "street": "Travessa da Serra",
        "zipcode": "68371-512"
    },
    {
        "city": "Altamira",
        "state": "PA",
        "district": "Nova Altamira",
        "street": "Rua Juscelino Kubitschek",
        "zipcode": "68371-530"
    },
    {
        "city": "Altamira",
        "state": "PA",
        "district": "Jardim Altamira",
        "street": "Rua E (Lot Panorama)",
        "zipcode": "68376-574"
    },
    {
        "city": "Altamira",
        "state": "PA",
        "district": "Jardim Independente II",
        "street": "Avenida Tancredo Neves",
        "zipcode": "68372-901"
    },
    {
        "city": "Altamira",
        "state": "PA",
        "district": "Jardim Independente I",
        "street": "Rua Antônio Nunes",
        "zipcode": "68373-310"
    },
    {
        "city": "Altamira",
        "state": "PA",
        "district": "Ibiza",
        "street": "Rua São Gaspar (Lot Gja Kajihara)",
        "zipcode": "68376-704"
    },
    {
        "city": "Altamira",
        "state": "PA",
        "district": "Jardim Uirapuru",
        "street": "Rua Curitiba",
        "zipcode": "68374-140"
    },
    {
        "city": "Altamira",
        "state": "PA",
        "district": "Brasília",
        "street": "Travessa Deoclides de Almeida",
        "zipcode": "68375-070"
    },
    {
        "city": "Altamira",
        "state": "PA",
        "district": "Jardim Independente I",
        "street": "Rua Dom Clemente",
        "zipcode": "68373-150"
    },
    {
        "city": "Altamira",
        "state": "PA",
        "district": "Jardim Uirapuru",
        "street": "Rua dos Fazendeiros",
        "zipcode": "68373-060"
    },
    {
        "city": "Altamira",
        "state": "PA",
        "district": "Jardim Independente I",
        "street": "Rua Itaituba",
        "zipcode": "68372-630"
    },
    {
        "city": "Altamira",
        "state": "PA",
        "district": "Jardim Independente I",
        "street": "Rua José Marino Bandeira de Matos",
        "zipcode": "68373-460"
    },
    {
        "city": "Altamira",
        "state": "PA",
        "district": "Sudam II",
        "street": "Avenida Leste Oeste",
        "zipcode": "68374-280"
    },
    {
        "city": "Altamira",
        "state": "PA",
        "district": "Jardim Independente I",
        "street": "Rua Manoel Menezes",
        "zipcode": "68372-730"
    },
    {
        "city": "Altamira",
        "state": "PA",
        "district": "Jardim Uirapuru",
        "street": "Rua Maranhão",
        "zipcode": "68374-170"
    },
    {
        "city": "Altamira",
        "state": "PA",
        "district": "Jardim Independente I",
        "street": "Rua Otávio Neri",
        "zipcode": "68372-710"
    },
    {
        "city": "Altamira",
        "state": "PA",
        "district": "Brasília",
        "street": "Travessa Raimundo Acácio",
        "zipcode": "68375-130"
    },
    {
        "city": "Altamira",
        "state": "PA",
        "district": "Jardim Uirapuru",
        "street": "Rua Roraima",
        "zipcode": "68374-240"
    },
    {
        "city": "Altamira",
        "state": "PA",
        "district": "Sudam II",
        "street": "Rua Seis",
        "zipcode": "68374-600"
    },
    {
        "city": "Altamira",
        "state": "PA",
        "district": "Sudam II",
        "street": "Travessa Três",
        "zipcode": "68374-390"
    },
    {
        "city": "Altamira",
        "state": "PA",
        "district": "Liberdade",
        "street": "Rua Dois",
        "zipcode": "68375-430"
    },
    {
        "city": "Altamira",
        "state": "PA",
        "district": "Brasília",
        "street": "Rua Monte Sião",
        "zipcode": "68375-310"
    },
    {
        "city": "Altamira",
        "state": "PA",
        "district": "Jardim Independente II",
        "street": "Avenida João Pessoa",
        "zipcode": "68372-235"
    },
    {
        "city": "Altamira",
        "state": "PA",
        "district": "Centro",
        "street": "Rua Primeiro de Janeiro",
        "zipcode": "68371-075"
    },
    {
        "city": "Altamira",
        "state": "PA",
        "district": "Jardim Uirapuru",
        "street": "Avenida Alacid Nunes",
        "zipcode": "68372-095"
    },
    {
        "city": "Altamira",
        "state": "PA",
        "district": "Centro",
        "street": "Rua Coronel José Porfírio",
        "zipcode": "68371-043"
    },
    {
        "city": "Altamira",
        "state": "PA",
        "district": "Premem",
        "street": "Avenida João Rodrigues",
        "zipcode": "68372-191"
    },
    {
        "city": "Altamira",
        "state": "PA",
        "district": "Sudam I",
        "street": "Travessa Agrário Cavalcante",
        "zipcode": "68371-025"
    },
    {
        "city": "Altamira",
        "state": "PA",
        "district": "Brasília",
        "street": "Rua do Meio",
        "zipcode": "68375-075"
    },
    {
        "city": "Altamira",
        "state": "PA",
        "district": "Liberdade",
        "street": "Avenida Perimetral Norte",
        "zipcode": "68375-415"
    },
    {
        "city": "Altamira",
        "state": "PA",
        "district": "Liberdade",
        "street": "Rua Anchieta",
        "zipcode": "68375-358"
    },
    {
        "city": "Altamira",
        "state": "PA",
        "district": "Jardim Independente I",
        "street": "Rua Rio Branco",
        "zipcode": "68372-747"
    },
    {
        "city": "Altamira",
        "state": "PA",
        "district": "Colinas",
        "street": "Rua WE Um",
        "zipcode": "68376-310"
    },
    {
        "city": "Altamira",
        "state": "PA",
        "district": "Colinas",
        "street": "Rua WE Oito",
        "zipcode": "68376-330"
    },
    {
        "city": "Altamira",
        "state": "PA",
        "district": "Jardim Independente II",
        "street": "Rua Osterno de Alencar Maia",
        "zipcode": "68372-245"
    },
    {
        "city": "Altamira",
        "state": "PA",
        "district": "Centro",
        "street": "Travessa Dez de Novembro",
        "zipcode": "68371-425"
    },
    {
        "city": "Altamira",
        "state": "PA",
        "district": "Brasília",
        "street": "Avenida João Coelho",
        "zipcode": "68375-055"
    },
    {
        "city": "Altamira",
        "state": "PA",
        "district": "Sudam I",
        "street": "Rua Intendente Floriano",
        "zipcode": "68371-294"
    },
    {
        "city": "Altamira",
        "state": "PA",
        "district": "Jardim Altamira",
        "street": "Rua Joaquim Acácio",
        "zipcode": "68377-595"
    },
    {
        "city": "Altamira",
        "state": "PA",
        "district": "Ibiza",
        "street": "Rua Lucindo Câmara",
        "zipcode": "68372-064"
    },
    {
        "city": "Altamira",
        "state": "PA",
        "district": "Nova Altamira",
        "street": "Travessa Antonio Barbosa",
        "zipcode": "68371-546"
    },
    {
        "city": "Altamira",
        "state": "PA",
        "district": "Nova Altamira",
        "street": "Rua Por",
        "zipcode": "68371-528"
    },
    {
        "city": "Altamira",
        "state": "PA",
        "district": "Nova Altamira",
        "street": "Travessa Boa Vista",
        "zipcode": "68371-521"
    },
    {
        "city": "Altamira",
        "state": "PA",
        "district": "Sudam II",
        "street": "Travessa Cocal",
        "zipcode": "68374-294"
    },
    {
        "city": "Altamira",
        "state": "PA",
        "district": "Jardim Independente I",
        "street": "Avenida Via Oeste",
        "zipcode": "68372-062"
    },
    {
        "city": "Altamira",
        "state": "PA",
        "district": "Aparecida",
        "street": "Travessa Quatro (Loteamento Invasão dos Padres)",
        "zipcode": "68377-348"
    },
    {
        "city": "Altamira",
        "state": "PA",
        "district": "Boa Esperança",
        "street": "Rua Oito",
        "zipcode": "68377-094"
    },
    {
        "city": "Altamira",
        "state": "PA",
        "district": "Sudam I",
        "street": "Travessa Marajoara",
        "zipcode": "68371-263"
    },
    {
        "city": "Altamira",
        "state": "PA",
        "district": "Sudam II",
        "street": "Travessa Abraham Lincoln",
        "zipcode": "68374-284"
    },
    {
        "city": "Altamira",
        "state": "PA",
        "district": "Nova Altamira",
        "street": "Rua Edla Vieira",
        "zipcode": "68371-602"
    },
    {
        "city": "Altamira",
        "state": "PA",
        "district": "Centro",
        "street": "Avenida Djalma Dutra",
        "zipcode": "68371-972"
    },
    {
        "city": "Altamira",
        "state": "PA",
        "district": "Centro",
        "street": "Acesso Quatorze",
        "zipcode": "68371-330"
    },
    {
        "city": "Altamira",
        "state": "PA",
        "district": "Brasília",
        "street": "Beco Afonsinho",
        "zipcode": "68375-082"
    },
    {
        "city": "Altamira",
        "state": "PA",
        "district": "Ibiza",
        "street": "Alameda Emílio Leitão",
        "zipcode": "68376-717"
    },
    {
        "city": "Altamira",
        "state": "PA",
        "district": "Aparecida",
        "street": "Travessa Um (Lot I Padres)",
        "zipcode": "68377-357"
    },
    {
        "city": "Altamira",
        "state": "PA",
        "district": "Liberdade",
        "street": "Alameda Rosa Bogéa Umbuzeiro (Lot A Senna II)",
        "zipcode": "68375-514"
    },
    {
        "city": "Altamira",
        "state": "PA",
        "district": "Jardim Independente II",
        "street": "Acesso Quatro",
        "zipcode": "68372-780"
    },
    {
        "city": "Altamira",
        "state": "PA",
        "district": "Jardim Altamira",
        "street": "Rua W3 (Lot Panorama)",
        "zipcode": "68376-584"
    },
    {
        "city": "Altamira",
        "state": "PA",
        "district": "Jardim Independente II",
        "street": "Alameda Brasil",
        "zipcode": "68372-510"
    },
    {
        "city": "Altamira",
        "state": "PA",
        "district": "Jardim Independente II",
        "street": "Rua Dois",
        "zipcode": "68372-380"
    },
    {
        "city": "Altamira",
        "state": "PA",
        "district": "Premem",
        "street": "Rua F",
        "zipcode": "68372-575"
    },
    {
        "city": "Altamira",
        "state": "PA",
        "district": "Aparecida",
        "street": "Rua Fausto Pereira",
        "zipcode": "68377-440"
    },
    {
        "city": "Altamira",
        "state": "PA",
        "district": "Jardim Independente II",
        "street": "Rua João Besouro",
        "zipcode": "68372-310"
    },
    {
        "city": "Altamira",
        "state": "PA",
        "district": "Boa Esperança",
        "street": "Travessa das Margaridas",
        "zipcode": "68377-200"
    },
    {
        "city": "Altamira",
        "state": "PA",
        "district": "Jardim Uirapuru",
        "street": "Travessa Minas Gerais",
        "zipcode": "68374-180"
    },
    {
        "city": "Altamira",
        "state": "PA",
        "district": "Jardim Uirapuru",
        "street": "Rua Pará",
        "zipcode": "68374-150"
    },
    {
        "city": "Altamira",
        "state": "PA",
        "district": "Centro",
        "street": "Rua Sete de Setembro",
        "zipcode": "68371-000"
    },
    {
        "city": "Altamira",
        "state": "PA",
        "district": "Jardim Uirapuru",
        "street": "Rua Uberlândia",
        "zipcode": "68374-130"
    },
    {
        "city": "Altamira",
        "state": "PA",
        "district": "Sudam II",
        "street": "Travessa Um",
        "zipcode": "68374-330"
    },
    {
        "city": "Altamira",
        "state": "PA",
        "district": "Jardim Independente II",
        "street": "Alameda W",
        "zipcode": "68372-450"
    },
    {
        "city": "Altamira",
        "state": "PA",
        "district": "Boa Esperança",
        "street": "Rua da Paz",
        "zipcode": "68377-320"
    },
    {
        "city": "Altamira",
        "state": "PA",
        "district": "Mutirão",
        "street": "Rua José Grafon",
        "zipcode": "68377-830"
    },
    {
        "city": "Altamira",
        "state": "PA",
        "district": "Mutirão",
        "street": "Rua João Besouro",
        "zipcode": "68377-860"
    },
    {
        "city": "Altamira",
        "state": "PA",
        "district": "Mutirão",
        "street": "Avenida Paulo Benício (Lot Jd França)",
        "zipcode": "68377-825"
    },
    {
        "city": "Altamira",
        "state": "PA",
        "district": "Ibiza",
        "street": "Rua Circular cinco",
        "zipcode": "68376-763"
    },
    {
        "city": "Altamira",
        "state": "PA",
        "district": "Área Rural de Altamira",
        "street": "Área Rural",
        "zipcode": "68378-899"
    },
    {
        "city": "Altamira",
        "state": "PA",
        "district": "Sudam II",
        "street": "Travessa João Alves de Sousa",
        "zipcode": "68374-286"
    },
    {
        "city": "Altamira",
        "state": "PA",
        "district": "Centro",
        "street": "Travessa Coronel Tancredo",
        "zipcode": "68371-113"
    },
    {
        "city": "Altamira",
        "state": "PA",
        "district": "Sudam I",
        "street": "Rua Intendente Floriano",
        "zipcode": "68371-292"
    },
    {
        "city": "Altamira",
        "state": "PA",
        "district": "Esplanada do Xingú",
        "street": "Travessa Bandeirante",
        "zipcode": "68372-859"
    },
    {
        "city": "Altamira",
        "state": "PA",
        "district": "Jardim Independente I",
        "street": "Travessa Luiz Ne da Silva",
        "zipcode": "68371-284"
    },
    {
        "city": "Altamira",
        "state": "PA",
        "district": "Bela Vista",
        "street": "Travessa Quinze",
        "zipcode": "68374-715"
    },
    {
        "city": "Altamira",
        "state": "PA",
        "district": "Jardim Altamira",
        "street": "Rua Joventino Acácio",
        "zipcode": "68376-510"
    },
    {
        "city": "Altamira",
        "state": "PA",
        "district": "Nova Altamira",
        "street": "Rua Fernando Henrique",
        "zipcode": "68371-538"
    },
    {
        "city": "Altamira",
        "state": "PA",
        "district": "Mutirão",
        "street": "Rua SF",
        "zipcode": "68377-879"
    },
    {
        "city": "Altamira",
        "state": "PA",
        "district": "Jardim Altamira",
        "street": "Rua A (Lot Panorama)",
        "zipcode": "68376-562"
    },
    {
        "city": "Altamira",
        "state": "PA",
        "district": "Bela Vista",
        "street": "Rua Dez (Lot Prq Ipê)",
        "zipcode": "68374-727"
    },
    {
        "city": "Altamira",
        "state": "PA",
        "district": "Jardim Altamira",
        "street": "Rua Guilherme Pereira",
        "zipcode": "68376-500"
    },
    {
        "city": "Altamira",
        "state": "PA",
        "district": "Liberdade",
        "street": "Alameda Erick Marcio (Lot A Senna)",
        "zipcode": "68375-392"
    },
    {
        "city": "Altamira",
        "state": "PA",
        "district": "Jardim Independente I",
        "street": "Rua São Gaspar",
        "zipcode": "68373-104"
    },
    {
        "city": "Altamira",
        "state": "PA",
        "district": "Ibiza",
        "street": "Travessa Oliveira Neto (Lot D Lourenzo)",
        "zipcode": "68376-789"
    },
    {
        "city": "Altamira",
        "state": "PA",
        "district": "Nova Altamira",
        "street": "Travessa Boa Aventura",
        "zipcode": "68371-540"
    },
    {
        "city": "Altamira",
        "state": "PA",
        "district": "Nova Altamira",
        "street": "Rua Carmínio Feitosa de Aquino (Sta Benedita)",
        "zipcode": "68371-628"
    },
    {
        "city": "Altamira",
        "state": "PA",
        "district": "Mutirão",
        "street": "Rua SF",
        "zipcode": "68377-869"
    },
    {
        "city": "Altamira",
        "state": "PA",
        "district": "Liberdade",
        "street": "Alameda Agostinho Gomes (Lot A Senna I)",
        "zipcode": "68375-425"
    },
    {
        "city": "Altamira",
        "state": "PA",
        "district": "Jardim Independente I",
        "street": "Passagem Décima Segunda",
        "zipcode": "68372-717"
    },
    {
        "city": "Altamira",
        "state": "PA",
        "district": "Alberto Soares",
        "street": "Alameda Porto Alegre (Lot Altaville I)",
        "zipcode": "68376-106"
    },
    {
        "city": "Altamira",
        "state": "PA",
        "district": "Bela Vista",
        "street": "Rua Dois (Lot Prq Ipê)",
        "zipcode": "68374-714"
    },
    {
        "city": "Altamira",
        "state": "PA",
        "district": "Mutirão",
        "street": "Rua SF",
        "zipcode": "68377-873"
    },
    {
        "city": "Altamira",
        "state": "PA",
        "district": "Liberdade",
        "street": "Alameda Ribamar Acásio (Lot A Senna)",
        "zipcode": "68375-399"
    },
    {
        "city": "Altamira",
        "state": "PA",
        "district": "Ibiza",
        "street": "Rua Sebastião Lucio de Oliveira (Lot D Lourenzo)",
        "zipcode": "68376-772"
    },
    {
        "city": "Altamira",
        "state": "PA",
        "district": "Liberdade",
        "street": "Alameda Salomão (Lot A Senna)",
        "zipcode": "68375-359"
    },
    {
        "city": "Altamira",
        "state": "PA",
        "district": "Jardim Altamira",
        "street": "Travessa D (Lot Panorama)",
        "zipcode": "68376-618"
    },
    {
        "city": "Altamira",
        "state": "PA",
        "district": "Jardim Independente I",
        "street": "Avenida Alacid Nunes",
        "zipcode": "68372-618"
    },
    {
        "city": "Altamira",
        "state": "PA",
        "district": "Jardim Uirapuru",
        "street": "Travessa Florentina",
        "zipcode": "68372-830"
    },
    {
        "city": "Altamira",
        "state": "PA",
        "district": "Brasília",
        "street": "Rua Padre João",
        "zipcode": "68375-150"
    },
    {
        "city": "Altamira",
        "state": "PA",
        "district": "Centro",
        "street": "Avenida Presidente Tancredo de Almeida Neves",
        "zipcode": "68372-590"
    },
    {
        "city": "Altamira",
        "state": "PA",
        "district": "Ibiza",
        "street": "Rua João Vieira de Melo (Lot D Lourenzo)",
        "zipcode": "68376-767"
    },
    {
        "city": "Altamira",
        "state": "PA",
        "district": "Alberto Soares",
        "street": "Alameda Curitiba (Lot Altaville I)",
        "zipcode": "68376-110"
    },
    {
        "city": "Altamira",
        "state": "PA",
        "district": "Boa Esperança",
        "street": "Travessa Tranquilidade",
        "zipcode": "68377-266"
    },
    {
        "city": "Altamira",
        "state": "PA",
        "district": "Jardim Independente I",
        "street": "Rua Comandante Raimundo Rocha",
        "zipcode": "68373-220"
    },
    {
        "city": "Altamira",
        "state": "PA",
        "district": "Bela Vista",
        "street": "Rua Marechal Floriano Peixoto (Km 04",
        "zipcode": "68374-778"
    },
    {
        "city": "Altamira",
        "state": "PA",
        "district": "Liberdade",
        "street": "Alameda Princesa Wyris (Lot A Senna II)",
        "zipcode": "68375-512"
    },
    {
        "city": "Altamira",
        "state": "PA",
        "district": "Ibiza",
        "street": "Travessa Ramiro Oliveira (Lot D Lourenzo)",
        "zipcode": "68376-791"
    },
    {
        "city": "Altamira",
        "state": "PA",
        "district": "Jardim Altamira",
        "street": "Rua Manoel Pereira",
        "zipcode": "68376-545"
    },
    {
        "city": "Altamira",
        "state": "PA",
        "district": "Ibiza",
        "street": "Rua Everaldo Moreira (Lot Coperfron)",
        "zipcode": "68376-722"
    },
    {
        "city": "Altamira",
        "state": "PA",
        "district": "Jardim Independente II",
        "street": "Alameda W",
        "zipcode": "68372-430"
    },
    {
        "city": "Altamira",
        "state": "PA",
        "district": "Jardim Independente II",
        "street": "Alameda W",
        "zipcode": "68372-440"
    },
    {
        "city": "Altamira",
        "state": "PA",
        "district": "Brasília",
        "street": "Rua I (Cj Ilvalândia)",
        "zipcode": "68375-005"
    },
    {
        "city": "Altamira",
        "state": "PA",
        "district": "Brasília",
        "street": "Rua II (Cj Ivalândia)",
        "zipcode": "68375-015"
    },
    {
        "city": "Altamira",
        "state": "PA",
        "district": "Jardim Independente II",
        "street": "Travessa Treze de Maio (Cj Jd Dona Elvira)",
        "zipcode": "68372-232"
    },
    {
        "city": "Altamira",
        "state": "PA",
        "district": "Jardim Independente II",
        "street": "Rua Trinta e Um de Março (Cj Jd Dona Elvira)",
        "zipcode": "68372-234"
    },
    {
        "city": "Altamira",
        "state": "PA",
        "district": "Premem",
        "street": "Avenida João Rodrigues",
        "zipcode": "68372-572"
    },
    {
        "city": "Altamira",
        "state": "PA",
        "district": "Jardim Altamira",
        "street": "Rua Sete (Lot Panorama)",
        "zipcode": "68376-604"
    },
    {
        "city": "Altamira",
        "state": "PA",
        "district": "Alberto Soares",
        "street": "Rua Sargento Arno (Quartel 51º BIS)",
        "zipcode": "68376-039"
    },
    {
        "city": "Altamira",
        "state": "PA",
        "district": "Aparecida",
        "street": "Alameda Bom Jardim I",
        "zipcode": "68377-435"
    },
    {
        "city": "Altamira",
        "state": "PA",
        "district": "Brasília",
        "street": "Rua Um",
        "zipcode": "68375-318"
    },
    {
        "city": "Altamira",
        "state": "PA",
        "district": "Sudam I",
        "street": "Acesso Sete",
        "zipcode": "68371-266"
    },
    {
        "city": "Altamira",
        "state": "PA",
        "district": "Sudam I",
        "street": "Acesso Treze",
        "zipcode": "68371-310"
    },
    {
        "city": "Altamira",
        "state": "PA",
        "district": "Sudam I",
        "street": "Acesso Cinco",
        "zipcode": "68371-400"
    },
    {
        "city": "Altamira",
        "state": "PA",
        "district": "Centro",
        "street": "Acesso Salim Mauad",
        "zipcode": "68372-120"
    },
    {
        "city": "Altamira",
        "state": "PA",
        "district": "Jardim Uirapuru",
        "street": "Acesso Um",
        "zipcode": "68372-198"
    },
    {
        "city": "Altamira",
        "state": "PA",
        "district": "Jardim Independente II",
        "street": "Acesso Dois",
        "zipcode": "68372-226"
    },
    {
        "city": "Altamira",
        "state": "PA",
        "district": "Jardim Independente II",
        "street": "Acesso Cinco",
        "zipcode": "68372-350"
    },
    {
        "city": "Altamira",
        "state": "PA",
        "district": "Jardim Independente I",
        "street": "Acesso Quatro",
        "zipcode": "68373-106"
    },
    {
        "city": "Altamira",
        "state": "PA",
        "district": "Sudam II",
        "street": "Acesso Um",
        "zipcode": "68374-290"
    },
    {
        "city": "Altamira",
        "state": "PA",
        "district": "Sudam II",
        "street": "Acesso Três",
        "zipcode": "68374-350"
    },
    {
        "city": "Altamira",
        "state": "PA",
        "district": "Sudam II",
        "street": "Acesso Quatro",
        "zipcode": "68374-360"
    },
    {
        "city": "Altamira",
        "state": "PA",
        "district": "Sudam II",
        "street": "Acesso Cinco",
        "zipcode": "68374-440"
    },
    {
        "city": "Altamira",
        "state": "PA",
        "district": "Sudam II",
        "street": "Acesso Sete",
        "zipcode": "68374-480"
    },
    {
        "city": "Altamira",
        "state": "PA",
        "district": "Alberto Soares",
        "street": "Rua Alípio José de Oliveira (Cj Alberto Soares)",
        "zipcode": "68376-012"
    },
    {
        "city": "Altamira",
        "state": "PA",
        "district": "Alberto Soares",
        "street": "Rua Mário Soares",
        "zipcode": "68376-015"
    },
    {
        "city": "Altamira",
        "state": "PA",
        "district": "Alberto Soares",
        "street": "Rua Alberto Soares",
        "zipcode": "68376-030"
    },
    {
        "city": "Altamira",
        "state": "PA",
        "district": "Alberto Soares",
        "street": "Rodovia Presidente Médici",
        "zipcode": "68376-035"
    },
    {
        "city": "Altamira",
        "state": "PA",
        "district": "Alberto Soares",
        "street": "Rua Ajuricaba (Quartel 51º BIS)",
        "zipcode": "68376-038"
    },
    {
        "city": "Altamira",
        "state": "PA",
        "district": "Jardim Altamira",
        "street": "Rua WE",
        "zipcode": "68376-590"
    },
    {
        "city": "Altamira",
        "state": "PA",
        "district": "Jardim Altamira",
        "street": "Travessa A (Lot Panorama)",
        "zipcode": "68376-612"
    },
    {
        "city": "Altamira",
        "state": "PA",
        "district": "Jardim Altamira",
        "street": "Travessa E (Lot Panorama)",
        "zipcode": "68376-620"
    },
    {
        "city": "Altamira",
        "state": "PA",
        "district": "Centro",
        "street": "Travessa Pedro Gomes",
        "zipcode": "68371-903"
    },
    {
        "city": "Altamira",
        "state": "PA",
        "district": "Bela Vista",
        "street": "Travessa Ceará (Km 04",
        "zipcode": "68374-776"
    },
    {
        "city": "Altamira",
        "state": "PA",
        "district": "Alberto Soares",
        "street": "Rua Sargento Xavier (Quartel 51º BIS)",
        "zipcode": "68376-049"
    },
    {
        "city": "Altamira",
        "state": "PA",
        "district": "Sudam I",
        "street": "Acesso Um",
        "zipcode": "68371-295"
    },
    {
        "city": "Altamira",
        "state": "PA",
        "district": "Sudam I",
        "street": "Acesso Dois",
        "zipcode": "68371-360"
    },
    {
        "city": "Altamira",
        "state": "PA",
        "district": "Aparecida",
        "street": "Acesso Cinco",
        "zipcode": "68377-412"
    },
    {
        "city": "Altamira",
        "state": "PA",
        "district": "Jardim Altamira",
        "street": "Rua W4 (Lot Panorama)",
        "zipcode": "68376-586"
    },
    {
        "city": "Altamira",
        "state": "PA",
        "district": "Jardim Altamira",
        "street": "Rua Três (Lot Panorama)",
        "zipcode": "68376-596"
    },
    {
        "city": "Altamira",
        "state": "PA",
        "district": "Jardim Altamira",
        "street": "Rua Lucas (Lot Panorama)",
        "zipcode": "68376-610"
    },
    {
        "city": "Altamira",
        "state": "PA",
        "district": "Jardim Altamira",
        "street": "Rua Erva Doce (Lot S Joaquim)",
        "zipcode": "68376-654"
    },
    {
        "city": "Altamira",
        "state": "PA",
        "district": "Jardim Altamira",
        "street": "Rua Pimenta (Lot S Joaquim)",
        "zipcode": "68376-659"
    },
    {
        "city": "Altamira",
        "state": "PA",
        "district": "Jardim Altamira",
        "street": "Rua Cravo (Lot S Joaquim)",
        "zipcode": "68376-662"
    },
    {
        "city": "Altamira",
        "state": "PA",
        "district": "Jardim Altamira",
        "street": "Rua Poejo (Lot S Joaquim)",
        "zipcode": "68376-666"
    },
    {
        "city": "Altamira",
        "state": "PA",
        "district": "Jardim Altamira",
        "street": "Rua Louro (Lot S Joaquim)",
        "zipcode": "68376-669"
    },
    {
        "city": "Altamira",
        "state": "PA",
        "district": "Jardim Altamira",
        "street": "Rua Urucum (Lot S Joaquim)",
        "zipcode": "68376-673"
    },
    {
        "city": "Altamira",
        "state": "PA",
        "district": "Jardim Altamira",
        "street": "Rua Coentro (Lot S Joaquim)",
        "zipcode": "68376-677"
    },
    {
        "city": "Altamira",
        "state": "PA",
        "district": "Alberto Soares",
        "street": "Alameda Goiânia (Lot Altaville)",
        "zipcode": "68376-055"
    },
    {
        "city": "Altamira",
        "state": "PA",
        "district": "Alberto Soares",
        "street": "Alameda Três Corações (Lot Altaville)",
        "zipcode": "68376-050"
    },
    {
        "city": "Altamira",
        "state": "PA",
        "district": "Alberto Soares",
        "street": "Alameda São Paulo (Lot Altaville)",
        "zipcode": "68376-070"
    },
    {
        "city": "Altamira",
        "state": "PA",
        "district": "Alberto Soares",
        "street": "Alameda Belém (Lot Altaville)",
        "zipcode": "68376-075"
    },
    {
        "city": "Altamira",
        "state": "PA",
        "district": "Alberto Soares",
        "street": "Avenida Uberaba (Lot Altaville)",
        "zipcode": "68376-080"
    },
    {
        "city": "Altamira",
        "state": "PA",
        "district": "Alberto Soares",
        "street": "Travessa José Bulamarque",
        "zipcode": "68376-085"
    },
    {
        "city": "Altamira",
        "state": "PA",
        "district": "Ibiza",
        "street": "Avenida Don Lourenzo",
        "zipcode": "68376-775"
    },
    {
        "city": "Altamira",
        "state": "PA",
        "district": "Jardim Altamira",
        "street": "Loteamento Panorama",
        "zipcode": "68376-565"
    },
    {
        "city": "Altamira",
        "state": "PA",
        "district": "Nova Altamira",
        "street": "Loteamento Bom Sucesso",
        "zipcode": "68371-505"
    },
    {
        "city": "Altamira",
        "state": "PA",
        "district": "Uirapuru",
        "street": "Avenida Alacid Nunes",
        "zipcode": "68372-100"
    },
    {
        "city": "Altamira",
        "state": "PA",
        "district": "Independente I",
        "street": "Rua Raimundo Oliveira",
        "zipcode": "68372-600"
    },
    {
        "city": "Altamira",
        "state": "PA",
        "district": "Independente I",
        "street": "Via Oeste",
        "zipcode": "68372-610"
    },
    {
        "city": "Altamira",
        "state": "PA",
        "district": "Uirapuru",
        "street": "Rua Coronel Jarbas Passarinho",
        "zipcode": "68373-050"
    },
    {
        "city": "Altamira",
        "state": "PA",
        "district": "Independente I",
        "street": "Rua Nair Lemos",
        "zipcode": "68373-270"
    },
    {
        "city": "Altamira",
        "state": "PA",
        "district": "Uirapuru",
        "street": "Travessa Niteroi",
        "zipcode": "68374-040"
    },
    {
        "city": "Altamira",
        "state": "PA",
        "district": "Uirapuru",
        "street": "Rua Xingu",
        "zipcode": "68374-540"
    },
    {
        "city": "Altamira",
        "state": "PA",
        "district": "Uirapuru",
        "street": "Rua Santa Maria",
        "zipcode": "68374-560"
    },
    {
        "city": "Altamira",
        "state": "PA",
        "district": "Brasilia",
        "street": "Rua Joaquim Avelino",
        "zipcode": "68375-000"
    },
    {
        "city": "Altamira",
        "state": "PA",
        "district": "Independente I",
        "street": "Travessa Belo Monte",
        "zipcode": "68373-340"
    },
    {
        "city": "Altamira",
        "state": "PA",
        "district": "Uirapuru",
        "street": "Rua Cayapo",
        "zipcode": "68374-020"
    },
    {
        "city": "Altamira",
        "state": "PA",
        "district": "Bela Vista",
        "street": "Avenida Nova Altamira (Lot Res C Nova)",
        "zipcode": "68378-329"
    },
    {
        "city": "Altamira",
        "state": "PA",
        "district": "Independente",
        "street": "Rua Irmao Fernando",
        "zipcode": "68373-430"
    },
    {
        "city": "Altamira",
        "state": "PA",
        "district": "Bela Vista",
        "street": "Avenida Nova Altamira (Lot Res C Nova)",
        "zipcode": "68378-275"
    },
    {
        "city": "Altamira",
        "state": "PA",
        "district": "Independente I",
        "street": "Acesso Tres",
        "zipcode": "68373-170"
    },
    {
        "city": "Altamira",
        "state": "PA",
        "district": "Independente",
        "street": "Rua Joao Granfon",
        "zipcode": "68373-370"
    },
    {
        "city": "Altamira",
        "state": "PA",
        "district": "Independente I",
        "street": "Rua Do Lago",
        "zipcode": "68373-160"
    },
    {
        "city": "Altamira",
        "state": "PA",
        "district": "Sudam Ii",
        "street": "Travessa Quatro",
        "zipcode": "68374-400"
    },
    {
        "city": "Altamira",
        "state": "PA",
        "district": "Mutirão",
        "street": "Rua Angelim (Lot Jatobá)",
        "zipcode": "68375-574"
    },
    {
        "city": "Altamira",
        "state": "PA",
        "district": "Perpetuo Socorro",
        "street": "Rua Anchieta",
        "zipcode": "68371-190"
    },
    {
        "city": "Altamira",
        "state": "PA",
        "district": "Mutirão",
        "street": "Rua Cumaru (Lot Jatobá)",
        "zipcode": "68375-568"
    },
    {
        "city": "Altamira",
        "state": "PA",
        "district": "Sao Sebastiao",
        "street": "Travessa Catalina",
        "zipcode": "68372-160"
    },
    {
        "city": "Altamira",
        "state": "PA",
        "district": "Sao Sebastiao",
        "street": "Rua Xingu",
        "zipcode": "68372-150"
    },
    {
        "city": "Altamira",
        "state": "PA",
        "district": "Independente",
        "street": "Rua Lucindo Camara",
        "zipcode": "68372-820"
    },
    {
        "city": "Altamira",
        "state": "PA",
        "district": "Independente I",
        "street": "Rua Sertanista Francisco Meireles",
        "zipcode": "68372-720"
    },
    {
        "city": "Altamira",
        "state": "PA",
        "district": "Mutirão",
        "street": "Rua Aroeira (Lot Jatobá)",
        "zipcode": "68375-573"
    },
    {
        "city": "Altamira",
        "state": "PA",
        "district": "Sudam Ii",
        "street": "Rua Sete",
        "zipcode": "68374-500"
    },
    {
        "city": "Altamira",
        "state": "PA",
        "district": "Independente Ii",
        "street": "Rua Humbelino Jose De Oliveira",
        "zipcode": "68372-580"
    },
    {
        "city": "Altamira",
        "state": "PA",
        "district": "Mutirão",
        "street": "Rua SF",
        "zipcode": "68377-875"
    },
    {
        "city": "Altamira",
        "state": "PA",
        "district": "Mutirão",
        "street": "Rua Jarana (Lot Jotobá)",
        "zipcode": "68375-576"
    },
    {
        "city": "Altamira",
        "state": "PA",
        "district": "Independente",
        "street": "Rua Sao Miguel",
        "zipcode": "68373-490"
    },
    {
        "city": "Altamira",
        "state": "PA",
        "district": "Mutirão",
        "street": "Rua Andiroba (Lot Jatobá)",
        "zipcode": "68375-571"
    },
    {
        "city": "Altamira",
        "state": "PA",
        "district": "Mutirão",
        "street": "Rua Manacá (Lot Jatobá)",
        "zipcode": "68375-585"
    },
    {
        "city": "Altamira",
        "state": "PA",
        "district": "Ibiza",
        "street": "Rua Circular Dois",
        "zipcode": "68376-736"
    },
    {
        "city": "Altamira",
        "state": "PA",
        "district": "Mutirão",
        "street": "Rua Massaranduba (Lot Jatobá)",
        "zipcode": "68375-562"
    },
    {
        "city": "Altamira",
        "state": "PA",
        "district": "Mutirão",
        "street": "Rua Castanheira (Lot Jatobá)",
        "zipcode": "68375-575"
    },
    {
        "city": "Altamira",
        "state": "PA",
        "district": "Mutirão",
        "street": "Rua Itaúba (Lot Jatobá)",
        "zipcode": "68375-565"
    },
    {
        "city": "Altamira",
        "state": "PA",
        "district": "Independente",
        "street": "Rua Nossa Senhora De Nazare",
        "zipcode": "68373-440"
    },
    {
        "city": "Altamira",
        "state": "PA",
        "district": "Uirapuru",
        "street": "Via Oeste",
        "zipcode": "68372-080"
    },
    {
        "city": "Altamira",
        "state": "PA",
        "district": "Sudam I",
        "street": "Travessa Um",
        "zipcode": "68371-410"
    },
    {
        "city": "Altamira",
        "state": "PA",
        "district": "Mutirão",
        "street": "Rua Mogno (Lot Jatobá)",
        "zipcode": "68375-570"
    },
    {
        "city": "Altamira",
        "state": "PA",
        "district": "Recreio",
        "street": "Rua Primeiro De Janeiro",
        "zipcode": "68371-020"
    },
    {
        "city": "Altamira",
        "state": "PA",
        "district": "Uirapuru",
        "street": "Acesso Dois",
        "zipcode": "68373-080"
    },
    {
        "city": "Altamira",
        "state": "PA",
        "district": "Mutirão",
        "street": "Rua Sumaúma (Lot Jatobá)",
        "zipcode": "68375-581"
    },
    {
        "city": "Altamira",
        "state": "PA",
        "district": "Sudam I",
        "street": "Travessa Tres",
        "zipcode": "68371-320"
    },
    {
        "city": "Altamira",
        "state": "PA",
        "district": "Centro",
        "street": "Alameda Perimetral",
        "zipcode": "68371-340"
    },
    {
        "city": "Altamira",
        "state": "PA",
        "district": "Brasilia",
        "street": "Rua Dos Operarios",
        "zipcode": "68375-060"
    },
    {
        "city": "Altamira",
        "state": "PA",
        "district": "Perpetuo Socorro",
        "street": "Rua Intendente Floriano",
        "zipcode": "68371-240"
    },
    {
        "city": "Altamira",
        "state": "PA",
        "district": "Independente I",
        "street": "Rua J Marcos Vitereino",
        "zipcode": "68372-700"
    },
    {
        "city": "Altamira",
        "state": "PA",
        "district": "Independente I",
        "street": "Rua Jose Saraiva",
        "zipcode": "68373-210"
    },
    {
        "city": "Altamira",
        "state": "PA",
        "district": "Recreio",
        "street": "Travessa Agrario Cavalcante",
        "zipcode": "68371-140"
    },
    {
        "city": "Altamira",
        "state": "PA",
        "district": "Sudam Ii",
        "street": "Travessa Oito",
        "zipcode": "68374-490"
    },
    {
        "city": "Altamira",
        "state": "PA",
        "district": "Centro",
        "street": "Rua Dos Funcionarios",
        "zipcode": "68371-120"
    },
    {
        "city": "Altamira",
        "state": "PA",
        "district": "Mutirão",
        "street": "Rua Sapucaia (Lot Jatobá)",
        "zipcode": "68375-579"
    },
    {
        "city": "Altamira",
        "state": "PA",
        "district": "Mutirão",
        "street": "Rua Cobaíba (Lot Jatobá)",
        "zipcode": "68375-561"
    },
    {
        "city": "Altamira",
        "state": "PA",
        "district": "Sudam Ii",
        "street": "Acesso Dois",
        "zipcode": "68374-300"
    },
    {
        "city": "Altamira",
        "state": "PA",
        "district": "Recreio",
        "street": "Travessa Dez De Novembro",
        "zipcode": "68371-130"
    },
    {
        "city": "Altamira",
        "state": "PA",
        "district": "Brasilia",
        "street": "Alameda Parati",
        "zipcode": "68375-500"
    },
    {
        "city": "Altamira",
        "state": "PA",
        "district": "Brasilia",
        "street": "Travessa Pedro Miranda",
        "zipcode": "68377-010"
    },
    {
        "city": "Altamira",
        "state": "PA",
        "district": "Aparecida",
        "street": "Acesso Cinco",
        "zipcode": "68377-410"
    },
    {
        "city": "Altamira",
        "state": "PA",
        "district": "Alberto Soares",
        "street": "Rua Consuelo Borges",
        "zipcode": "68376-298"
    },
    {
        "city": "Altamira",
        "state": "PA",
        "district": "Bela Vista",
        "street": "Travessa Cooperfron",
        "zipcode": "68374-730"
    },
    {
        "city": "Altamira",
        "state": "PA",
        "district": "Aparecida",
        "street": "Rua Sete",
        "zipcode": "68377-355"
    },
    {
        "city": "Altamira",
        "state": "PA",
        "district": "Bela Vista",
        "street": "Rua Almirante Barroso",
        "zipcode": "68374-724"
    },
    {
        "city": "Altamira",
        "state": "PA",
        "district": "Jardim Altamira",
        "street": "Rua Artur Texeira",
        "zipcode": "68376-502"
    },
    {
        "city": "Altamira",
        "state": "PA",
        "district": "Sudam II",
        "street": "Rua B (Sudam II)",
        "zipcode": "68374-279"
    },
    {
        "city": "Altamira",
        "state": "PA",
        "district": "Aparecida",
        "street": "Alameda Bom Jardim III",
        "zipcode": "68377-437"
    },
    {
        "city": "Altamira",
        "state": "PA",
        "district": "Sudam II",
        "street": "Rua Boa Vista",
        "zipcode": "68374-525"
    },
    {
        "city": "Altamira",
        "state": "PA",
        "district": "Jardim Independente I",
        "street": "Travessa Candido Marinho",
        "zipcode": "68372-598"
    },
    {
        "city": "Altamira",
        "state": "PA",
        "district": "Jardim Independente I",
        "street": "Rua Aimorés",
        "zipcode": "68372-061"
    },
    {
        "city": "Altamira",
        "state": "PA",
        "district": "Boa Esperança",
        "street": "Rua BomFim",
        "zipcode": "68377-261"
    },
    {
        "city": "Altamira",
        "state": "PA",
        "district": "Centro",
        "street": "Travessa Comandante Castilho",
        "zipcode": "68371-028"
    },
    {
        "city": "Altamira",
        "state": "PA",
        "district": "Jardim Independente II",
        "street": "Rua Humbelino José de Oliveira",
        "zipcode": "68372-425"
    },
    {
        "city": "Altamira",
        "state": "PA",
        "district": "Sudam I",
        "street": "Rua Intendente Floriano",
        "zipcode": "68371-278"
    },
    {
        "city": "Altamira",
        "state": "PA",
        "district": "Brasília",
        "street": "Travessa Pedro Miranda",
        "zipcode": "68377-012"
    },
    {
        "city": "Altamira",
        "state": "PA",
        "district": "Liberdade",
        "street": "Rodovia Transamazônica",
        "zipcode": "68375-343"
    },
    {
        "city": "Altamira",
        "state": "PA",
        "district": "Jardim Independente I",
        "street": "Rua Lucindo Câmara",
        "zipcode": "68372-823"
    },
    {
        "city": "Altamira",
        "state": "PA",
        "district": "Alberto Soares",
        "street": "Rua Sargento Raoni (Quartel 51º BIS)",
        "zipcode": "68376-046"
    },
    {
        "city": "Altamira",
        "state": "PA",
        "district": "Catedral",
        "street": "Travessa Paula Marquez",
        "zipcode": "68371-080"
    },
    {
        "city": "Altamira",
        "state": "PA",
        "district": "Aparecida",
        "street": "Rua Tres",
        "zipcode": "68377-340"
    },
    {
        "city": "Altamira",
        "state": "PA",
        "district": "Aparecida",
        "street": "Rodovia Ernesto Acyoli",
        "zipcode": "68377-630"
    },
    {
        "city": "Altamira",
        "state": "PA",
        "district": "Catedral",
        "street": "Travessa Comandante Castilho",
        "zipcode": "68371-090"
    },
    {
        "city": "Altamira",
        "state": "PA",
        "district": "Perpetuo Socorro",
        "street": "Travessa Zero",
        "zipcode": "68371-230"
    },
    {
        "city": "Altamira",
        "state": "PA",
        "district": "Brasilia",
        "street": "Travessa Alberto Garcia Soares",
        "zipcode": "68375-110"
    },
    {
        "city": "Altamira",
        "state": "PA",
        "district": "Aparecida",
        "street": "Travessa Comandante Castilho",
        "zipcode": "68377-560"
    },
    {
        "city": "Altamira",
        "state": "PA",
        "district": "Independente Ii",
        "street": "Rua Beliza De Castro",
        "zipcode": "68372-775"
    },
    {
        "city": "Altamira",
        "state": "PA",
        "district": "Sao Sebastiao",
        "street": "Avenida Tancredo Neves",
        "zipcode": "68372-060"
    },
    {
        "city": "Altamira",
        "state": "PA",
        "district": "Mutirao",
        "street": "Rodovia Transamazonica",
        "zipcode": "68377-040"
    },
    {
        "city": "Altamira",
        "state": "PA",
        "district": "Sudam II",
        "street": "Avenida Central",
        "zipcode": "68374-333"
    },
    {
        "city": "Altamira",
        "state": "PA",
        "district": "Sao Sebastiao",
        "street": "Rua Sete De Setembro",
        "zipcode": "68372-000"
    },
    {
        "city": "Altamira",
        "state": "PA",
        "district": "Premem",
        "street": "Acesso Dois",
        "zipcode": "68372-585"
    },
    {
        "city": "Altamira",
        "state": "PA",
        "district": "Perpetuo Socorro",
        "street": "Rua Otaviano Santos",
        "zipcode": "68371-250"
    },
    {
        "city": "Altamira",
        "state": "PA",
        "district": "Independente Ii",
        "street": "Passagem Dois",
        "zipcode": "68372-790"
    },
    {
        "city": "Altamira",
        "state": "PA",
        "district": "Recreio",
        "street": "Travessa Lindolfo Aranha",
        "zipcode": "68371-100"
    },
    {
        "city": "Altamira",
        "state": "PA",
        "district": "Boa Esperanca",
        "street": "Travessa Trovao",
        "zipcode": "68377-690"
    },
    {
        "city": "Altamira",
        "state": "PA",
        "district": "Brasilia",
        "street": "Avenida Joao Coelho",
        "zipcode": "68375-080"
    },
    {
        "city": "Altamira",
        "state": "PA",
        "district": "Uirapuru",
        "street": "Acesso Um",
        "zipcode": "68374-030"
    },
    {
        "city": "Altamira",
        "state": "PA",
        "district": "Sudam I",
        "street": "Alameda Conjunto Rejane",
        "zipcode": "68371-365"
    },
    {
        "city": "Altamira",
        "state": "PA",
        "district": "Boa Esperança",
        "street": "Travessa Confiança",
        "zipcode": "68377-262"
    },
    {
        "city": "Altamira",
        "state": "PA",
        "district": "Independente I",
        "street": "Rua Anfrisio Nunes",
        "zipcode": "68373-240"
    },
    {
        "city": "Altamira",
        "state": "PA",
        "district": "Sao Sebastiao",
        "street": "Acesso Um",
        "zipcode": "68372-130"
    },
    {
        "city": "Altamira",
        "state": "PA",
        "district": "Sao Sebastiao",
        "street": "Avenida Brigadeiro Eduardo Gomes",
        "zipcode": "68372-020"
    },
    {
        "city": "Altamira",
        "state": "PA",
        "district": "Boa Esperanca",
        "street": "Rua Da Peixaria",
        "zipcode": "68377-720"
    },
    {
        "city": "Altamira",
        "state": "PA",
        "district": "Alberto Soares",
        "street": "Rua Sargento Rolembach",
        "zipcode": "68376-047"
    },
    {
        "city": "Altamira",
        "state": "PA",
        "district": "Centro",
        "street": "Acesso Salim Mauad",
        "zipcode": "68371-160"
    },
    {
        "city": "Altamira",
        "state": "PA",
        "district": "Premem",
        "street": "Acesso Dois",
        "zipcode": "68372-577"
    },
    {
        "city": "Altamira",
        "state": "PA",
        "district": "Aparecida",
        "street": "Acesso Dez",
        "zipcode": "68377-520"
    },
    {
        "city": "Altamira",
        "state": "PA",
        "district": "Sudam I",
        "street": "Acesso Seis",
        "zipcode": "68371-264"
    },
    {
        "city": "Altamira",
        "state": "PA",
        "district": "Jardim Altamira",
        "street": "Travessa B (Lot Panorama)",
        "zipcode": "68376-614"
    },
    {
        "city": "Altamira",
        "state": "PA",
        "district": "Jardim Altamira",
        "street": "Rua W2 (Lot Panorama)",
        "zipcode": "68376-582"
    },
    {
        "city": "Altamira",
        "state": "PA",
        "district": "Jardim Independente I",
        "street": "Travessa Abaetetuba",
        "zipcode": "68373-110"
    },
    {
        "city": "Altamira",
        "state": "PA",
        "district": "Brasília",
        "street": "Rua Isaac Barbosa",
        "zipcode": "68375-010"
    },
    {
        "city": "Altamira",
        "state": "PA",
        "district": "Sudam II",
        "street": "Avenida Perimetral",
        "zipcode": "68374-274"
    },
    {
        "city": "Altamira",
        "state": "PA",
        "district": "Liberdade",
        "street": "Travessa Burlamarque de Miranda",
        "zipcode": "68375-339"
    },
    {
        "city": "Altamira",
        "state": "PA",
        "district": "Esplanada do Xingú",
        "street": "Conjunto Providência",
        "zipcode": "68372-002"
    },
    {
        "city": "Altamira",
        "state": "PA",
        "district": "Jardim Independente II",
        "street": "Rua Professora Beliza de Castro",
        "zipcode": "68372-530"
    },
    {
        "city": "Altamira",
        "state": "PA",
        "district": "Centro",
        "street": "Rua Coronel José Porfírio",
        "zipcode": "68371-030"
    },
    {
        "city": "Altamira",
        "state": "PA",
        "district": "Mutirão",
        "street": "Travessa V",
        "zipcode": "68377-049"
    },
    {
        "city": "Altamira",
        "state": "PA",
        "district": "Brasília",
        "street": "Rua III (Cj Ilvalândia)",
        "zipcode": "68375-025"
    },
    {
        "city": "Altamira",
        "state": "PA",
        "district": "Centro",
        "street": "Avenida Djalma Dutra",
        "zipcode": "68371-405"
    },
    {
        "city": "Altamira",
        "state": "PA",
        "district": "Independente Ii",
        "street": "Rua A",
        "zipcode": "68372-220"
    },
    {
        "city": "Altamira",
        "state": "PA",
        "district": "Brasilia",
        "street": "Alameda Parati",
        "zipcode": "68377-030"
    },
    {
        "city": "Altamira",
        "state": "PA",
        "district": "Aparecida",
        "street": "Rua Abel Figueiredo",
        "zipcode": "68377-430"
    },
    {
        "city": "Altamira",
        "state": "PA",
        "district": "Centro",
        "street": "Rua Governador Magalhaes Barata",
        "zipcode": "68371-010"
    },
    {
        "city": "Altamira",
        "state": "PA",
        "district": "Centro",
        "street": "Rua Manoel Umbuzeiro",
        "zipcode": "68371-180"
    },
    {
        "city": "Altamira",
        "state": "PA",
        "district": "Uirapuru",
        "street": "Rua Coronel Jarbas Passarinho",
        "zipcode": "68374-080"
    },
    {
        "city": "Altamira",
        "state": "PA",
        "district": "Uirapuru",
        "street": "Travessa Altamira",
        "zipcode": "68374-550"
    },
    {
        "city": "Altamira",
        "state": "PA",
        "district": "Brasilia",
        "street": "Rua Primeiro De Maio",
        "zipcode": "68375-260"
    },
    {
        "city": "Altamira",
        "state": "PA",
        "district": "Brasilia",
        "street": "Rua Isaac Barbosa",
        "zipcode": "68377-580"
    },
    {
        "city": "Altamira",
        "state": "PA",
        "district": "Recreio",
        "street": "Travessa Coronel Tancredo",
        "zipcode": "68371-110"
    },
    {
        "city": "Altamira",
        "state": "PA",
        "district": "Ibiza",
        "street": "Rua Maria Alves da Silva",
        "zipcode": "68376-746"
    },
    {
        "city": "Altamira",
        "state": "PA",
        "district": "Independente I",
        "street": "Rua Tome",
        "zipcode": "68372-640"
    },
    {
        "city": "Altamira",
        "state": "PA",
        "district": "Catedral",
        "street": "Avenida Perimetral",
        "zipcode": "68371-050"
    },
    {
        "city": "Altamira",
        "state": "PA",
        "district": "Mutirão",
        "street": "Rua Flamboiã (Lot Jatobá)",
        "zipcode": "68375-566"
    },
    {
        "city": "Altamira",
        "state": "PA",
        "district": "Mutirão",
        "street": "Rua Papoula (Lot Jatobá)",
        "zipcode": "68375-583"
    },
    {
        "city": "Altamira",
        "state": "PA",
        "district": "Recreio",
        "street": "Travessa Pedro Gomes",
        "zipcode": "68371-150"
    },
    {
        "city": "Altamira",
        "state": "PA",
        "district": "Bela Vista",
        "street": "Avenida Nova Altamira (Lot. Resid. Cidade Nova)",
        "zipcode": "68378-296"
    },
    {
        "city": "Altamira",
        "state": "PA",
        "district": "Sudam I",
        "street": "Rua Luiz Ne Da Silva",
        "zipcode": "68371-370"
    },
    {
        "city": "Altamira",
        "state": "PA",
        "district": "Brasilia",
        "street": "Rua Joaquim Acacio",
        "zipcode": "68375-030"
    },
    {
        "city": "Altamira",
        "state": "PA",
        "district": "Uirapuru",
        "street": "Rua Presidente Ernesto Geisel",
        "zipcode": "68374-010"
    },
    {
        "city": "Altamira",
        "state": "PA",
        "district": "Mutirão",
        "street": "Rua Amarelão (Lot Jatobá)",
        "zipcode": "68375-572"
    },
    {
        "city": "Altamira",
        "state": "PA",
        "district": "Uirapuru",
        "street": "Rua Presidente Ernesto Geisel",
        "zipcode": "68373-010"
    },
    {
        "city": "Altamira",
        "state": "PA",
        "district": "Independente I",
        "street": "Rua Antonio Cunha Filho",
        "zipcode": "68373-250"
    },
    {
        "city": "Altamira",
        "state": "PA",
        "district": "Independente Ii",
        "street": "Rua Das Missoes",
        "zipcode": "68372-535"
    },
    {
        "city": "Altamira",
        "state": "PA",
        "district": "Independente",
        "street": "Passagem Tres",
        "zipcode": "68372-800"
    },
    {
        "city": "Altamira",
        "state": "PA",
        "district": "Independente",
        "street": "Rua Joao Besouro",
        "zipcode": "68373-380"
    },
    {
        "city": "Altamira",
        "state": "PA",
        "district": "Cachoeira da Serra",
        "street": "",
        "zipcode": "68379-500"
    }
]