[
    {
        "city": "Belem",
        "state": "PA",
        "district": "Jurunas",
        "street": "Vila Mendonca",
        "zipcode": "66025-360"
    },
    {
        "city": "Belem",
        "state": "PA",
        "district": "Nova Marambaia",
        "street": "Passagem Resistencia",
        "zipcode": "66615-490"
    },
    {
        "city": "Belem",
        "state": "PA",
        "district": "Bengui",
        "street": "Alameda Vigia",
        "zipcode": "66633-400"
    },
    {
        "city": "Belem",
        "state": "PA",
        "district": "Souza",
        "street": "Avenida B (Cj Costa E Silva)",
        "zipcode": "66613-590"
    },
    {
        "city": "Belem",
        "state": "PA",
        "district": "Curió",
        "street": "Passagem Doutor Dionísio Bentes",
        "zipcode": "66610-072"
    },
    {
        "city": "Belem",
        "state": "PA",
        "district": "Tapana",
        "street": "Travessa Fluminense",
        "zipcode": "66825-085"
    },
    {
        "city": "Belem",
        "state": "PA",
        "district": "Icoraci",
        "street": "Praça Pio Xii",
        "zipcode": "66810-260"
    },
    {
        "city": "Belem",
        "state": "PA",
        "district": "Guama",
        "street": "Passagem Betania",
        "zipcode": "66077-820"
    },
    {
        "city": "Belem",
        "state": "PA",
        "district": "Outeiro",
        "street": "Via Projetada",
        "zipcode": "66645-710"
    },
    {
        "city": "Belem",
        "state": "PA",
        "district": "Guama",
        "street": "Vila Sao Vicente",
        "zipcode": "66065-720"
    },
    {
        "city": "Belem",
        "state": "PA",
        "district": "Marco",
        "street": "Passagem Jose Da Gama Malcher",
        "zipcode": "66093-130"
    },
    {
        "city": "Belem",
        "state": "PA",
        "district": "Souza",
        "street": "Passagem Edisia",
        "zipcode": "66610-360"
    },
    {
        "city": "Belem",
        "state": "PA",
        "district": "Icoraci",
        "street": "Alameda Um (Cafe Liberal)",
        "zipcode": "66820-290"
    },
    {
        "city": "Belem",
        "state": "PA",
        "district": "Umarizal",
        "street": "Vila Nossa Senhora Das Gracas",
        "zipcode": "66060-390"
    },
    {
        "city": "Belem",
        "state": "PA",
        "district": "Nova Marambaia",
        "street": "Rua Da Bacabeira",
        "zipcode": "66635-810"
    },
    {
        "city": "Belem",
        "state": "PA",
        "district": "Icoraci",
        "street": "Rua Bolonha (Cj Tapajos)",
        "zipcode": "66823-360"
    },
    {
        "city": "Belem",
        "state": "PA",
        "district": "Outeiro",
        "street": "Estrada Nossa Senhora De Fatima",
        "zipcode": "66840-270"
    },
    {
        "city": "Belem",
        "state": "PA",
        "district": "Sacramenta",
        "street": "Passagem Belo Horizonte",
        "zipcode": "66120-640"
    },
    {
        "city": "Belem",
        "state": "PA",
        "district": "Icoraci",
        "street": "Rua Buzios (Cj Tapajos)",
        "zipcode": "66823-280"
    },
    {
        "city": "Belem",
        "state": "PA",
        "district": "Nova Marambaia",
        "street": "Travessa Treze De Maio",
        "zipcode": "66635-680"
    },
    {
        "city": "Belem",
        "state": "PA",
        "district": "Campina",
        "street": "Praça Almirante Saldanha Marinho",
        "zipcode": "66015-030"
    },
    {
        "city": "Belem",
        "state": "PA",
        "district": "Icoraci",
        "street": "Alameda Medeiros",
        "zipcode": "66813-650"
    },
    {
        "city": "Belem",
        "state": "PA",
        "district": "Pedreira",
        "street": "Travessa Itororo",
        "zipcode": "66087-430"
    },
    {
        "city": "Belem",
        "state": "PA",
        "district": "Sacramenta",
        "street": "Avenida Dr Freitas",
        "zipcode": "66120-680"
    },
    {
        "city": "Belem",
        "state": "PA",
        "district": "Nova Marambaia",
        "street": "Vila Nossa Senhora De Nazare",
        "zipcode": "66625-345"
    },
    {
        "city": "Belem",
        "state": "PA",
        "district": "Souza",
        "street": "Passagem Pericles Guedes De Oliveira",
        "zipcode": "66623-650"
    },
    {
        "city": "Belem",
        "state": "PA",
        "district": "Cremacao",
        "street": "Avenida Generalissimo Deodoro",
        "zipcode": "66045-190"
    },
    {
        "city": "Belem",
        "state": "PA",
        "district": "Val",
        "street": "Passagem Batista",
        "zipcode": "66120-200"
    },
    {
        "city": "Belem",
        "state": "PA",
        "district": "Icoraci",
        "street": "Rua Do Gremio",
        "zipcode": "66820-610"
    },
    {
        "city": "Belem",
        "state": "PA",
        "district": "Cremacao",
        "street": "Travessa Nove De Janeiro",
        "zipcode": "66065-520"
    },
    {
        "city": "Belem",
        "state": "PA",
        "district": "Souza",
        "street": "Passagem Bom Jesus",
        "zipcode": "66613-310"
    },
    {
        "city": "Belem",
        "state": "PA",
        "district": "Guama",
        "street": "Travessa Quatorze De Abril",
        "zipcode": "66065-610"
    },
    {
        "city": "Belem",
        "state": "PA",
        "district": "Coqueiro",
        "street": "Passagem Meia Copa",
        "zipcode": "66650-630"
    },
    {
        "city": "Belem",
        "state": "PA",
        "district": "Águas Lindas",
        "street": "Passagem São Jorge (Res Jardim Nova Vida)",
        "zipcode": "66690-795"
    },
    {
        "city": "Belem",
        "state": "PA",
        "district": "Cremacao",
        "street": "Passagem Euclides Da Cunha",
        "zipcode": "66035-250"
    },
    {
        "city": "Belem",
        "state": "PA",
        "district": "Mangueirao",
        "street": "Avenida Central",
        "zipcode": "66625-016"
    },
    {
        "city": "Belem",
        "state": "PA",
        "district": "Condor",
        "street": "Passagem Vinte E Um De Abril",
        "zipcode": "66065-180"
    },
    {
        "city": "Belem",
        "state": "PA",
        "district": "Nova Marambaia",
        "street": "Rua Sao Francisco",
        "zipcode": "66635-560"
    },
    {
        "city": "Belem",
        "state": "PA",
        "district": "Mosqueiro",
        "street": "Estrada Sao Francisco",
        "zipcode": "66915-120"
    },
    {
        "city": "Belem",
        "state": "PA",
        "district": "Telegrafo Sem Fio",
        "street": "Passagem Cantinho Do Ceu",
        "zipcode": "66115-260"
    },
    {
        "city": "Belem",
        "state": "PA",
        "district": "Guama",
        "street": "Vila Silva",
        "zipcode": "66073-540"
    },
    {
        "city": "Belem",
        "state": "PA",
        "district": "Marco",
        "street": "Alameda Dona Izabel",
        "zipcode": "66087-310"
    },
    {
        "city": "Belem",
        "state": "PA",
        "district": "Souza",
        "street": "Vila Azevedo",
        "zipcode": "66120-590"
    },
    {
        "city": "Belem",
        "state": "PA",
        "district": "Montese",
        "street": "Passagem Nova",
        "zipcode": "66079-370"
    },
    {
        "city": "Belem",
        "state": "PA",
        "district": "Mosqueiro",
        "street": "Alameda Belmira Machado",
        "zipcode": "66913-700"
    },
    {
        "city": "Belem",
        "state": "PA",
        "district": "Bengui",
        "street": "Passagem Da Pratinha",
        "zipcode": "66630-290"
    },
    {
        "city": "Belem",
        "state": "PA",
        "district": "Souza",
        "street": "Bloco Quatro (Cj Costa E Silva)",
        "zipcode": "66613-100"
    },
    {
        "city": "Belem",
        "state": "PA",
        "district": "Coqueiro",
        "street": "Alameda Nossa Senhora De Fatima",
        "zipcode": "66670-190"
    },
    {
        "city": "Belem",
        "state": "PA",
        "district": "Cremacao",
        "street": "Passagem Santo Antonio",
        "zipcode": "66040-500"
    },
    {
        "city": "Belem",
        "state": "PA",
        "district": "Sacramenta",
        "street": "Passagem Jarbas",
        "zipcode": "66120-015"
    },
    {
        "city": "Belem",
        "state": "PA",
        "district": "Mangueirao",
        "street": "Quadra Quinze",
        "zipcode": "66625-019"
    },
    {
        "city": "Belem",
        "state": "PA",
        "district": "Cidade Velha",
        "street": "Vila Cabralzinho",
        "zipcode": "66020-110"
    },
    {
        "city": "Belem",
        "state": "PA",
        "district": "Souza",
        "street": "Vila Paz",
        "zipcode": "66120-490"
    },
    {
        "city": "Belem",
        "state": "PA",
        "district": "Icoraci",
        "street": "Passagem Ceara",
        "zipcode": "66820-520"
    },
    {
        "city": "Belem",
        "state": "PA",
        "district": "Val",
        "street": "Rua Angustura",
        "zipcode": "66115-450"
    },
    {
        "city": "Belem",
        "state": "PA",
        "district": "Guama",
        "street": "Vila Santa Rosa",
        "zipcode": "66045-390"
    },
    {
        "city": "Belem",
        "state": "PA",
        "district": "Cremacao",
        "street": "Vila Laura",
        "zipcode": "66040-220"
    },
    {
        "city": "Belem",
        "state": "PA",
        "district": "Campina",
        "street": "Travessa Primeiro De Marco",
        "zipcode": "66017-120"
    },
    {
        "city": "Belem",
        "state": "PA",
        "district": "Campina",
        "street": "Avenida Presidente Vargas",
        "zipcode": "66017-905"
    },
    {
        "city": "Belem",
        "state": "PA",
        "district": "Cremação",
        "street": "Avenida Generalíssimo Deodoro",
        "zipcode": "66040-367"
    },
    {
        "city": "Belem",
        "state": "PA",
        "district": "Curió",
        "street": "Passagem Elvira",
        "zipcode": "66610-112"
    },
    {
        "city": "Belem",
        "state": "PA",
        "district": "Curió",
        "street": "Passagem Virgílio",
        "zipcode": "66610-162"
    },
    {
        "city": "Belem",
        "state": "PA",
        "district": "Marambaia",
        "street": "Avenida Tavares Bastos",
        "zipcode": "66615-006"
    },
    {
        "city": "Belem",
        "state": "PA",
        "district": "Marambaia",
        "street": "Rua Esperanto",
        "zipcode": "66615-017"
    },
    {
        "city": "Belem",
        "state": "PA",
        "district": "Castanheira",
        "street": "Passagem Pinto Marques",
        "zipcode": "66645-550"
    },
    {
        "city": "Belem",
        "state": "PA",
        "district": "Castanheira",
        "street": "Avenida Pedro Álvares Cabral",
        "zipcode": "66645-902"
    },
    {
        "city": "Belem",
        "state": "PA",
        "district": "Águas Lindas",
        "street": "Passagem Brasília",
        "zipcode": "66690-843"
    },
    {
        "city": "Belem",
        "state": "PA",
        "district": "Val",
        "street": "Rua Paranhos",
        "zipcode": "66617-422"
    },
    {
        "city": "Belem",
        "state": "PA",
        "district": "São Francisco (Mosqueiro)",
        "street": "Passagem José dos Anjos",
        "zipcode": "66920-166"
    },
    {
        "city": "Belem",
        "state": "PA",
        "district": "Águas Lindas",
        "street": "Alameda Três de Setembro (Rua Belém)",
        "zipcode": "66690-715"
    },
    {
        "city": "Belem",
        "state": "PA",
        "district": "Batista Campos",
        "street": "Vila Alzira",
        "zipcode": "66015-290"
    },
    {
        "city": "Belem",
        "state": "PA",
        "district": "Jurunas",
        "street": "Vila Nadia",
        "zipcode": "66023-330"
    },
    {
        "city": "Belem",
        "state": "PA",
        "district": "Jurunas",
        "street": "Vila Rocha",
        "zipcode": "66023-430"
    },
    {
        "city": "Belem",
        "state": "PA",
        "district": "Batista Campos",
        "street": "Vila Moncao",
        "zipcode": "66025-370"
    },
    {
        "city": "Belem",
        "state": "PA",
        "district": "Jurunas",
        "street": "Vila Moreira",
        "zipcode": "66025-380"
    },
    {
        "city": "Belem",
        "state": "PA",
        "district": "Condor",
        "street": "Passagem Iracema",
        "zipcode": "66030-640"
    },
    {
        "city": "Belem",
        "state": "PA",
        "district": "Jurunas",
        "street": "Passagem Guarani",
        "zipcode": "66033-320"
    },
    {
        "city": "Belem",
        "state": "PA",
        "district": "Batista Campos",
        "street": "Vila Moreira",
        "zipcode": "66033-813"
    },
    {
        "city": "Belem",
        "state": "PA",
        "district": "Campina",
        "street": "Rua Joao Diogo",
        "zipcode": "66015-160"
    },
    {
        "city": "Belem",
        "state": "PA",
        "district": "Cidade Velha",
        "street": "Rua Triunvirato",
        "zipcode": "66020-620"
    },
    {
        "city": "Belem",
        "state": "PA",
        "district": "Batista Campos",
        "street": "Rua Dos Mundurucus",
        "zipcode": "66040-270"
    },
    {
        "city": "Belem",
        "state": "PA",
        "district": "Cremacao",
        "street": "Rua Dos Pariquis",
        "zipcode": "66040-320"
    },
    {
        "city": "Belem",
        "state": "PA",
        "district": "Campina",
        "street": "Travessa Frei Gil De Vila Nova",
        "zipcode": "66017-190"
    },
    {
        "city": "Belem",
        "state": "PA",
        "district": "Cremacao",
        "street": "Passagem Moraes",
        "zipcode": "66030-670"
    },
    {
        "city": "Belem",
        "state": "PA",
        "district": "Águas Lindas",
        "street": "Rua Santa Clara (Res Jardim Nova Vida)",
        "zipcode": "66690-825"
    },
    {
        "city": "Belem",
        "state": "PA",
        "district": "Jurunas",
        "street": "Vila Piedade",
        "zipcode": "66023-760"
    },
    {
        "city": "Belem",
        "state": "PA",
        "district": "Nazare",
        "street": "Avenida Nazare",
        "zipcode": "66035-170"
    },
    {
        "city": "Belem",
        "state": "PA",
        "district": "Campina",
        "street": "Travessa Primeiro De Marco",
        "zipcode": "66015-270"
    },
    {
        "city": "Belem",
        "state": "PA",
        "district": "Cidade Velha",
        "street": "Vila Santo Antonio",
        "zipcode": "66023-500"
    },
    {
        "city": "Belem",
        "state": "PA",
        "district": "Campina",
        "street": "Vila Mariana",
        "zipcode": "66020-760"
    },
    {
        "city": "Belem",
        "state": "PA",
        "district": "Águas Lindas",
        "street": "Rua São Miguel (Res Jardim Nova Vida)",
        "zipcode": "66690-841"
    },
    {
        "city": "Belem",
        "state": "PA",
        "district": "Jurunas",
        "street": "Vila Itamarati",
        "zipcode": "66025-310"
    },
    {
        "city": "Belem",
        "state": "PA",
        "district": "Águas Lindas",
        "street": "Rua Três de Maio (Res Jardim Nova Vida)",
        "zipcode": "66690-835"
    },
    {
        "city": "Belem",
        "state": "PA",
        "district": "Jurunas",
        "street": "Vila Rodrigues Dos Santos",
        "zipcode": "66023-460"
    },
    {
        "city": "Belem",
        "state": "PA",
        "district": "Cidade Velha",
        "street": "Rua Obidos",
        "zipcode": "66020-440"
    },
    {
        "city": "Belem",
        "state": "PA",
        "district": "Águas Lindas",
        "street": "Rua Nova (Res Jardim Nova Vida)",
        "zipcode": "66690-837"
    },
    {
        "city": "Belem",
        "state": "PA",
        "district": "Águas Lindas",
        "street": "Rua Bom Sossego (Res Jardim Nova Vida)",
        "zipcode": "66690-833"
    },
    {
        "city": "Belem",
        "state": "PA",
        "district": "Cidade Velha",
        "street": "Rua Dr Assis",
        "zipcode": "66020-010"
    },
    {
        "city": "Belem",
        "state": "PA",
        "district": "Batista Campos",
        "street": "Conjunto Amaral",
        "zipcode": "66030-100"
    },
    {
        "city": "Belem",
        "state": "PA",
        "district": "Cremacao",
        "street": "Passagem Gil Alvares",
        "zipcode": "66040-160"
    },
    {
        "city": "Belem",
        "state": "PA",
        "district": "Nazare",
        "street": "Avenida Comandante Bras De Aguiar",
        "zipcode": "66035-000"
    },
    {
        "city": "Belem",
        "state": "PA",
        "district": "Condor",
        "street": "Passagem Maria",
        "zipcode": "66045-240"
    },
    {
        "city": "Belem",
        "state": "PA",
        "district": "Batista Campos",
        "street": "Travessa Quintino Bocaiuva",
        "zipcode": "66045-580"
    },
    {
        "city": "Belem",
        "state": "PA",
        "district": "Umarizal",
        "street": "Passagem Rica",
        "zipcode": "66063-300"
    },
    {
        "city": "Belem",
        "state": "PA",
        "district": "Condor",
        "street": "Passagem Sao Cristovao",
        "zipcode": "66065-660"
    },
    {
        "city": "Belem",
        "state": "PA",
        "district": "Condor",
        "street": "Passagem Sao Cristovao",
        "zipcode": "66065-790"
    },
    {
        "city": "Belem",
        "state": "PA",
        "district": "Cremacao",
        "street": "Avenida Alcindo Cacela",
        "zipcode": "66065-000"
    },
    {
        "city": "Belem",
        "state": "PA",
        "district": "Condor",
        "street": "Passagem Alvino",
        "zipcode": "66065-060"
    },
    {
        "city": "Belem",
        "state": "PA",
        "district": "Cidade Velha",
        "street": "Vila Lopo De Castro",
        "zipcode": "66020-650"
    },
    {
        "city": "Belem",
        "state": "PA",
        "district": "Jurunas",
        "street": "Vila Teixeira",
        "zipcode": "66025-560"
    },
    {
        "city": "Belem",
        "state": "PA",
        "district": "Umarizal",
        "street": "Vila Mariana",
        "zipcode": "66050-310"
    },
    {
        "city": "Belem",
        "state": "PA",
        "district": "Montese",
        "street": "Alameda A",
        "zipcode": "66070-820"
    },
    {
        "city": "Belem",
        "state": "PA",
        "district": "Nazare",
        "street": "Passagem Nazare",
        "zipcode": "66035-160"
    },
    {
        "city": "Belem",
        "state": "PA",
        "district": "Montese",
        "street": "Passagem Santa Terezinha",
        "zipcode": "66070-460"
    },
    {
        "city": "Belem",
        "state": "PA",
        "district": "Jurunas",
        "street": "Passagem Tres Irmaos",
        "zipcode": "66045-540"
    },
    {
        "city": "Belem",
        "state": "PA",
        "district": "Fatima",
        "street": "Vila Waldemar",
        "zipcode": "66060-840"
    },
    {
        "city": "Belem",
        "state": "PA",
        "district": "Guama",
        "street": "Passagem Para",
        "zipcode": "66065-550"
    },
    {
        "city": "Belem",
        "state": "PA",
        "district": "Guama",
        "street": "Vila Santa Amelia",
        "zipcode": "66065-650"
    },
    {
        "city": "Belem",
        "state": "PA",
        "district": "Guama",
        "street": "Vila Laura",
        "zipcode": "66063-530"
    },
    {
        "city": "Belem",
        "state": "PA",
        "district": "Condor",
        "street": "Passagem Sete De Setembro",
        "zipcode": "66065-760"
    },
    {
        "city": "Belem",
        "state": "PA",
        "district": "Montese",
        "street": "Alameda B",
        "zipcode": "66070-830"
    },
    {
        "city": "Belem",
        "state": "PA",
        "district": "Condor",
        "street": "Vila Para",
        "zipcode": "66065-005"
    },
    {
        "city": "Belem",
        "state": "PA",
        "district": "Condor",
        "street": "Passagem Dr Ramiro",
        "zipcode": "66065-230"
    },
    {
        "city": "Belem",
        "state": "PA",
        "district": "Sao Braz",
        "street": "Travessa Tres De Maio",
        "zipcode": "66063-390"
    },
    {
        "city": "Belem",
        "state": "PA",
        "district": "Umarizal",
        "street": "Vila Carmem",
        "zipcode": "66055-100"
    },
    {
        "city": "Belem",
        "state": "PA",
        "district": "Jurunas",
        "street": "Passagem Do Mercado",
        "zipcode": "66023-310"
    },
    {
        "city": "Belem",
        "state": "PA",
        "district": "Batista Campos",
        "street": "Vila Julieta",
        "zipcode": "66025-650"
    },
    {
        "city": "Belem",
        "state": "PA",
        "district": "Cremacao",
        "street": "Vila Santa Rita",
        "zipcode": "66045-380"
    },
    {
        "city": "Belem",
        "state": "PA",
        "district": "Cremacao",
        "street": "Travessa Tres De Maio",
        "zipcode": "66065-305"
    },
    {
        "city": "Belem",
        "state": "PA",
        "district": "Condor",
        "street": "Passagem Olinda",
        "zipcode": "66065-530"
    },
    {
        "city": "Belem",
        "state": "PA",
        "district": "Jurunas",
        "street": "Vila Walber",
        "zipcode": "66023-660"
    },
    {
        "city": "Belem",
        "state": "PA",
        "district": "Condor",
        "street": "Quadra A",
        "zipcode": "66033-005"
    },
    {
        "city": "Belem",
        "state": "PA",
        "district": "Campina",
        "street": "Travessa Primeiro De Marco",
        "zipcode": "66019-090"
    },
    {
        "city": "Belem",
        "state": "PA",
        "district": "Nazare",
        "street": "Avenida Governador Jose Malcher",
        "zipcode": "66035-100"
    },
    {
        "city": "Belem",
        "state": "PA",
        "district": "Condor",
        "street": "Passagem Mucajas",
        "zipcode": "66065-500"
    },
    {
        "city": "Belem",
        "state": "PA",
        "district": "Guama",
        "street": "Rua Dos Mundurucus",
        "zipcode": "66073-000"
    },
    {
        "city": "Belem",
        "state": "PA",
        "district": "Guama",
        "street": "Vila Eliana",
        "zipcode": "66075-105"
    },
    {
        "city": "Belem",
        "state": "PA",
        "district": "Guama",
        "street": "Vila Sossego",
        "zipcode": "66063-550"
    },
    {
        "city": "Belem",
        "state": "PA",
        "district": "Cremacao",
        "street": "Rua Engenheiro Fernando Guilhon",
        "zipcode": "66045-200"
    },
    {
        "city": "Belem",
        "state": "PA",
        "district": "Guama",
        "street": "Vila Richardson",
        "zipcode": "66065-620"
    },
    {
        "city": "Belem",
        "state": "PA",
        "district": "Montese",
        "street": "Passagem Bom Pastor",
        "zipcode": "66077-080"
    },
    {
        "city": "Belem",
        "state": "PA",
        "district": "Sao Braz",
        "street": "Travessa Quatorze De Abril",
        "zipcode": "66063-140"
    },
    {
        "city": "Belem",
        "state": "PA",
        "district": "Fatima",
        "street": "Passagem A (Mendara)",
        "zipcode": "66060-050"
    },
    {
        "city": "Belem",
        "state": "PA",
        "district": "Guama",
        "street": "Avenida Jose Bonifacio",
        "zipcode": "66063-010"
    },
    {
        "city": "Belem",
        "state": "PA",
        "district": "Guama",
        "street": "Vila Nossa Senhora Das Gracas",
        "zipcode": "66075-003"
    },
    {
        "city": "Belem",
        "state": "PA",
        "district": "Montese",
        "street": "Passagem Maranhao",
        "zipcode": "66070-320"
    },
    {
        "city": "Belem",
        "state": "PA",
        "district": "Fatima",
        "street": "Passagem Guajara",
        "zipcode": "66060-240"
    },
    {
        "city": "Belem",
        "state": "PA",
        "district": "Guama",
        "street": "Travessa Quatorze De Abril",
        "zipcode": "66063-510"
    },
    {
        "city": "Belem",
        "state": "PA",
        "district": "Nazare",
        "street": "Rua Joao Balby",
        "zipcode": "66060-280"
    },
    {
        "city": "Belem",
        "state": "PA",
        "district": "Fatima",
        "street": "Passagem Socorro",
        "zipcode": "66060-780"
    },
    {
        "city": "Belem",
        "state": "PA",
        "district": "Guama",
        "street": "Passagem Mario Adalberto",
        "zipcode": "66073-380"
    },
    {
        "city": "Belem",
        "state": "PA",
        "district": "Guama",
        "street": "Vila Marta",
        "zipcode": "66065-460"
    },
    {
        "city": "Belem",
        "state": "PA",
        "district": "Condor",
        "street": "Vila Antonio Monteiro",
        "zipcode": "66065-080"
    },
    {
        "city": "Belem",
        "state": "PA",
        "district": "Sao Braz",
        "street": "Avenida Gentil Bittencourt",
        "zipcode": "66063-090"
    },
    {
        "city": "Belem",
        "state": "PA",
        "district": "Cremacao",
        "street": "Rua Sao Miguel",
        "zipcode": "66065-690"
    },
    {
        "city": "Belem",
        "state": "PA",
        "district": "Jurunas",
        "street": "Passagem Boa Esperanca",
        "zipcode": "66065-130"
    },
    {
        "city": "Belem",
        "state": "PA",
        "district": "Guama",
        "street": "Passagem Tupi",
        "zipcode": "66065-780"
    },
    {
        "city": "Belem",
        "state": "PA",
        "district": "Fatima",
        "street": "Praça Cruzeiro",
        "zipcode": "66060-100"
    },
    {
        "city": "Belem",
        "state": "PA",
        "district": "Umarizal",
        "street": "Vila Dalva",
        "zipcode": "66055-150"
    },
    {
        "city": "Belem",
        "state": "PA",
        "district": "Guama",
        "street": "Passagem Santa Marta",
        "zipcode": "66065-560"
    },
    {
        "city": "Belem",
        "state": "PA",
        "district": "Montese",
        "street": "Passagem Odete Malcher",
        "zipcode": "66070-840"
    },
    {
        "city": "Belem",
        "state": "PA",
        "district": "Umarizal",
        "street": "Vila Freire",
        "zipcode": "66055-195"
    },
    {
        "city": "Belem",
        "state": "PA",
        "district": "Guama",
        "street": "Alameda E (Cj Alacid Nunes)",
        "zipcode": "66073-690"
    },
    {
        "city": "Belem",
        "state": "PA",
        "district": "Nazare",
        "street": "Vila Maria",
        "zipcode": "66060-320"
    },
    {
        "city": "Belem",
        "state": "PA",
        "district": "Condor",
        "street": "Passagem Antonio Dantas",
        "zipcode": "66065-750"
    },
    {
        "city": "Belem",
        "state": "PA",
        "district": "Umarizal",
        "street": "Vila Regina",
        "zipcode": "66055-500"
    },
    {
        "city": "Belem",
        "state": "PA",
        "district": "Cremacao",
        "street": "Vila Sao Joao",
        "zipcode": "66045-420"
    },
    {
        "city": "Belem",
        "state": "PA",
        "district": "Guama",
        "street": "Passagem F",
        "zipcode": "66075-230"
    },
    {
        "city": "Belem",
        "state": "PA",
        "district": "Guama",
        "street": "Vila Mariano",
        "zipcode": "66063-220"
    },
    {
        "city": "Belem",
        "state": "PA",
        "district": "Guama",
        "street": "Vila Maria",
        "zipcode": "66075-480"
    },
    {
        "city": "Belem",
        "state": "PA",
        "district": "Sao Braz",
        "street": "Vila Santa Rosa",
        "zipcode": "66063-340"
    },
    {
        "city": "Belem",
        "state": "PA",
        "district": "Sao Braz",
        "street": "Avenida Governador Magalhaes Barata",
        "zipcode": "66063-240"
    },
    {
        "city": "Belem",
        "state": "PA",
        "district": "Guama",
        "street": "Rua Da Olaria",
        "zipcode": "66079-000"
    },
    {
        "city": "Belem",
        "state": "PA",
        "district": "Pedreira",
        "street": "Travessa Mariz E Barros",
        "zipcode": "66085-170"
    },
    {
        "city": "Belem",
        "state": "PA",
        "district": "Marco",
        "street": "Travessa Humaita",
        "zipcode": "66085-220"
    },
    {
        "city": "Belem",
        "state": "PA",
        "district": "Pedreira",
        "street": "Travessa Timbo",
        "zipcode": "66085-654"
    },
    {
        "city": "Belem",
        "state": "PA",
        "district": "Pedreira",
        "street": "Travessa Vileta",
        "zipcode": "66085-710"
    },
    {
        "city": "Belem",
        "state": "PA",
        "district": "Marco",
        "street": "Avenida Duque De Caxias",
        "zipcode": "66087-000"
    },
    {
        "city": "Belem",
        "state": "PA",
        "district": "Marco",
        "street": "Passagem Irmaos",
        "zipcode": "66087-410"
    },
    {
        "city": "Belem",
        "state": "PA",
        "district": "Pedreira",
        "street": "Travessa Piraja",
        "zipcode": "66087-490"
    },
    {
        "city": "Belem",
        "state": "PA",
        "district": "Pedreira",
        "street": "Travessa Piraja",
        "zipcode": "66080-670"
    },
    {
        "city": "Belem",
        "state": "PA",
        "district": "Sacramenta",
        "street": "Travessa Alferes Costa",
        "zipcode": "66083-040"
    },
    {
        "city": "Belem",
        "state": "PA",
        "district": "Sacramenta",
        "street": "Travessa Piraja",
        "zipcode": "66083-470"
    },
    {
        "city": "Belem",
        "state": "PA",
        "district": "Marco",
        "street": "Vila Nazare",
        "zipcode": "66080-070"
    },
    {
        "city": "Belem",
        "state": "PA",
        "district": "Montese",
        "street": "Avenida Presidente Tancredo De A. Neves",
        "zipcode": "66077-530"
    },
    {
        "city": "Belem",
        "state": "PA",
        "district": "Pedreira",
        "street": "Passagem Nosso Senhor Do Bonfim",
        "zipcode": "66085-360"
    },
    {
        "city": "Belem",
        "state": "PA",
        "district": "Guama",
        "street": "Passagem Emanuel",
        "zipcode": "66079-260"
    },
    {
        "city": "Belem",
        "state": "PA",
        "district": "Guama",
        "street": "Vila Sao Joaquim",
        "zipcode": "66079-400"
    },
    {
        "city": "Belem",
        "state": "PA",
        "district": "Montese",
        "street": "Passagem Progresso",
        "zipcode": "66079-660"
    },
    {
        "city": "Belem",
        "state": "PA",
        "district": "Guama",
        "street": "Passagem Silva",
        "zipcode": "66079-320"
    },
    {
        "city": "Belem",
        "state": "PA",
        "district": "Guama",
        "street": "Avenida Jose Bonifacio",
        "zipcode": "66065-362"
    },
    {
        "city": "Belem",
        "state": "PA",
        "district": "Telegrafo Sem Fio",
        "street": "Travessa Timbo",
        "zipcode": "66083-610"
    },
    {
        "city": "Belem",
        "state": "PA",
        "district": "Guama",
        "street": "Passagem Alves Guimaraes",
        "zipcode": "66079-310"
    },
    {
        "city": "Belem",
        "state": "PA",
        "district": "Pedreira",
        "street": "Passagem Vinte E Dois De Novembro",
        "zipcode": "66087-120"
    },
    {
        "city": "Belem",
        "state": "PA",
        "district": "Canudos",
        "street": "Rua Roso Danin",
        "zipcode": "66070-410"
    },
    {
        "city": "Belem",
        "state": "PA",
        "district": "Canudos",
        "street": "Jardim Amelia Jacob",
        "zipcode": "66073-030"
    },
    {
        "city": "Belem",
        "state": "PA",
        "district": "Montese",
        "street": "Rua Dos Milagres",
        "zipcode": "66079-480"
    },
    {
        "city": "Belem",
        "state": "PA",
        "district": "Guama",
        "street": "Passagem Uniao",
        "zipcode": "66079-020"
    },
    {
        "city": "Belem",
        "state": "PA",
        "district": "Montese",
        "street": "Passagem Sao Joao",
        "zipcode": "66077-660"
    },
    {
        "city": "Belem",
        "state": "PA",
        "district": "Pedreira",
        "street": "Rua Antonio Everdosa",
        "zipcode": "66085-750"
    },
    {
        "city": "Belem",
        "state": "PA",
        "district": "Montese",
        "street": "Passagem Rodrigues",
        "zipcode": "66077-560"
    },
    {
        "city": "Belem",
        "state": "PA",
        "district": "Sacramenta",
        "street": "Travessa Perebebui",
        "zipcode": "66083-640"
    },
    {
        "city": "Belem",
        "state": "PA",
        "district": "Pedreira",
        "street": "Travessa Chaco",
        "zipcode": "66085-080"
    },
    {
        "city": "Belem",
        "state": "PA",
        "district": "Marco",
        "street": "Avenida Almirante Barroso",
        "zipcode": "66095-000"
    },
    {
        "city": "Belem",
        "state": "PA",
        "district": "Pedreira",
        "street": "Vila Evangelica",
        "zipcode": "66085-175"
    },
    {
        "city": "Belem",
        "state": "PA",
        "district": "Pedreira",
        "street": "Passagem Senhor Do Bonfim",
        "zipcode": "66085-610"
    },
    {
        "city": "Belem",
        "state": "PA",
        "district": "Sacramenta",
        "street": "Travessa Itororo",
        "zipcode": "66083-350"
    },
    {
        "city": "Belem",
        "state": "PA",
        "district": "Guama",
        "street": "Passagem Valente Da Costa",
        "zipcode": "66079-330"
    },
    {
        "city": "Belem",
        "state": "PA",
        "district": "Fatima",
        "street": "Vila Santa Maria",
        "zipcode": "66085-500"
    },
    {
        "city": "Belem",
        "state": "PA",
        "district": "Pedreira",
        "street": "Vila Diana",
        "zipcode": "66083-240"
    },
    {
        "city": "Belem",
        "state": "PA",
        "district": "Pedreira",
        "street": "Travessa Lomas Valentina",
        "zipcode": "66080-320"
    },
    {
        "city": "Belem",
        "state": "PA",
        "district": "Pedreira",
        "street": "Rua Antonio Everdosa",
        "zipcode": "66080-190"
    },
    {
        "city": "Belem",
        "state": "PA",
        "district": "Pedreira",
        "street": "Passagem Salomao",
        "zipcode": "66080-440"
    },
    {
        "city": "Belem",
        "state": "PA",
        "district": "Marco",
        "street": "Avenida Presidente Tancredo De A. Neves",
        "zipcode": "66095-480"
    },
    {
        "city": "Belem",
        "state": "PA",
        "district": "Montese",
        "street": "Passagem Miranda",
        "zipcode": "66077-400"
    },
    {
        "city": "Belem",
        "state": "PA",
        "district": "Pedreira",
        "street": "Alameda Brasil",
        "zipcode": "66085-070"
    },
    {
        "city": "Belem",
        "state": "PA",
        "district": "Guama",
        "street": "Passagem Joao Monteiro",
        "zipcode": "66079-290"
    },
    {
        "city": "Belem",
        "state": "PA",
        "district": "Montese",
        "street": "Passagem May",
        "zipcode": "66077-360"
    },
    {
        "city": "Belem",
        "state": "PA",
        "district": "Montese",
        "street": "Passagem Liberdade",
        "zipcode": "66079-530"
    },
    {
        "city": "Belem",
        "state": "PA",
        "district": "Montese",
        "street": "Passagem Nova Liberdade",
        "zipcode": "66077-145"
    },
    {
        "city": "Belem",
        "state": "PA",
        "district": "Montese",
        "street": "Passagem Tachiz Negro",
        "zipcode": "66079-430"
    },
    {
        "city": "Belem",
        "state": "PA",
        "district": "Montese",
        "street": "Passagem Muicatiara",
        "zipcode": "66079-360"
    },
    {
        "city": "Belem",
        "state": "PA",
        "district": "Pedreira",
        "street": "Vila Sao Joao",
        "zipcode": "66087-560"
    },
    {
        "city": "Belem",
        "state": "PA",
        "district": "Pedreira",
        "street": "Passagem Otavio Valente",
        "zipcode": "66080-380"
    },
    {
        "city": "Belem",
        "state": "PA",
        "district": "Marco",
        "street": "Vila Eliza",
        "zipcode": "66087-350"
    },
    {
        "city": "Belem",
        "state": "PA",
        "district": "Montese",
        "street": "Passagem Tachiz Branco",
        "zipcode": "66079-440"
    },
    {
        "city": "Belem",
        "state": "PA",
        "district": "Guama",
        "street": "Passagem Primeiro De Agosto",
        "zipcode": "66079-270"
    },
    {
        "city": "Belem",
        "state": "PA",
        "district": "Pedreira",
        "street": "Vila Sao Jorge",
        "zipcode": "66085-830"
    },
    {
        "city": "Belem",
        "state": "PA",
        "district": "Fatima",
        "street": "Conjunto Elisa Barros",
        "zipcode": "66093-480"
    },
    {
        "city": "Belem",
        "state": "PA",
        "district": "Marco",
        "street": "Passagem Sempre Uniao",
        "zipcode": "66095-610"
    },
    {
        "city": "Belem",
        "state": "PA",
        "district": "Montese",
        "street": "Vila Santa Maria",
        "zipcode": "66077-670"
    },
    {
        "city": "Belem",
        "state": "PA",
        "district": "Montese",
        "street": "Passagem Pinheiro",
        "zipcode": "66077-510"
    },
    {
        "city": "Belem",
        "state": "PA",
        "district": "Montese",
        "street": "Passagem Nova Lideranca",
        "zipcode": "66077-151"
    },
    {
        "city": "Belem",
        "state": "PA",
        "district": "Pedreira",
        "street": "Travessa Itororo",
        "zipcode": "66080-290"
    },
    {
        "city": "Belem",
        "state": "PA",
        "district": "Sacramenta",
        "street": "Passagem Marinho",
        "zipcode": "66120-060"
    },
    {
        "city": "Belem",
        "state": "PA",
        "district": "Marco",
        "street": "Rua Tupi",
        "zipcode": "66087-630"
    },
    {
        "city": "Belem",
        "state": "PA",
        "district": "Pedreira",
        "street": "Travessa Perebebui",
        "zipcode": "66087-670"
    },
    {
        "city": "Belem",
        "state": "PA",
        "district": "Marco",
        "street": "Travessa Mariz E Barros",
        "zipcode": "66093-090"
    },
    {
        "city": "Belem",
        "state": "PA",
        "district": "Marco",
        "street": "Travessa Timbo",
        "zipcode": "66093-340"
    },
    {
        "city": "Belem",
        "state": "PA",
        "district": "Marco",
        "street": "Travessa Curuzu",
        "zipcode": "66093-540"
    },
    {
        "city": "Belem",
        "state": "PA",
        "district": "Marco",
        "street": "Travessa Angustura",
        "zipcode": "66095-040"
    },
    {
        "city": "Belem",
        "state": "PA",
        "district": "Marco",
        "street": "Travessa Dr Eneas Pinheiro",
        "zipcode": "66095-100"
    },
    {
        "city": "Belem",
        "state": "PA",
        "district": "Marco",
        "street": "Travessa Humaita",
        "zipcode": "66095-220"
    },
    {
        "city": "Belem",
        "state": "PA",
        "district": "Marco",
        "street": "Travessa Mauriti",
        "zipcode": "66095-360"
    },
    {
        "city": "Belem",
        "state": "PA",
        "district": "Marco",
        "street": "Travessa Vileta",
        "zipcode": "66095-740"
    },
    {
        "city": "Belem",
        "state": "PA",
        "district": "Marco",
        "street": "Travessa Mariz E Barros",
        "zipcode": "66095-760"
    },
    {
        "city": "Belem",
        "state": "PA",
        "district": "Sao Braz",
        "street": "Avenida Vinte E Cinco De Setembro",
        "zipcode": "66093-000"
    },
    {
        "city": "Belem",
        "state": "PA",
        "district": "Marco",
        "street": "Avenida Duque De Caxias Ate 1266/1283",
        "zipcode": "66093-400"
    },
    {
        "city": "Belem",
        "state": "PA",
        "district": "Val",
        "street": "Vila Carneiro",
        "zipcode": "66110-670"
    },
    {
        "city": "Belem",
        "state": "PA",
        "district": "Marco",
        "street": "Vila Sao Raimundo",
        "zipcode": "66093-290"
    },
    {
        "city": "Belem",
        "state": "PA",
        "district": "Val",
        "street": "Avenida Salgado Filho",
        "zipcode": "66115-225"
    },
    {
        "city": "Belem",
        "state": "PA",
        "district": "Val",
        "street": "Passagem Joana Darc",
        "zipcode": "66120-240"
    },
    {
        "city": "Belem",
        "state": "PA",
        "district": "Curio",
        "street": "Passagem Cruzeirinho",
        "zipcode": "66610-555"
    },
    {
        "city": "Belem",
        "state": "PA",
        "district": "Val",
        "street": "Passagem Nossa Senhora Da Guia",
        "zipcode": "66115-320"
    },
    {
        "city": "Belem",
        "state": "PA",
        "district": "Souza",
        "street": "Passagem Aidee",
        "zipcode": "66610-550"
    },
    {
        "city": "Belem",
        "state": "PA",
        "district": "Val",
        "street": "Passagem Santa Lucia",
        "zipcode": "66115-280"
    },
    {
        "city": "Belem",
        "state": "PA",
        "district": "Val",
        "street": "Avenida Camilo Salgado Filho",
        "zipcode": "66115-330"
    },
    {
        "city": "Belem",
        "state": "PA",
        "district": "Val",
        "street": "Passagem Joao De Deus",
        "zipcode": "66110-490"
    },
    {
        "city": "Belem",
        "state": "PA",
        "district": "Val",
        "street": "Passagem Abaete",
        "zipcode": "66113-690"
    },
    {
        "city": "Belem",
        "state": "PA",
        "district": "Marco",
        "street": "Passagem Tres Irmaos",
        "zipcode": "66087-610"
    },
    {
        "city": "Belem",
        "state": "PA",
        "district": "Val",
        "street": "Passagem Santa Rita",
        "zipcode": "66110-500"
    },
    {
        "city": "Belem",
        "state": "PA",
        "district": "Val",
        "street": "Alameda Roberto Santos",
        "zipcode": "66110-640"
    },
    {
        "city": "Belem",
        "state": "PA",
        "district": "Marco",
        "street": "Travessa Piraja",
        "zipcode": "66095-470"
    },
    {
        "city": "Belem",
        "state": "PA",
        "district": "Telegrafo Sem Fio",
        "street": "Vila Cocadinha",
        "zipcode": "66113-630"
    },
    {
        "city": "Belem",
        "state": "PA",
        "district": "Sacramenta",
        "street": "Vila Maraba",
        "zipcode": "66115-270"
    },
    {
        "city": "Belem",
        "state": "PA",
        "district": "Marco",
        "street": "Travessa Lomas Valentina",
        "zipcode": "66095-770"
    },
    {
        "city": "Belem",
        "state": "PA",
        "district": "Souza",
        "street": "Alameda Osvaldo Coelho",
        "zipcode": "66610-655"
    },
    {
        "city": "Belem",
        "state": "PA",
        "district": "Sacramenta",
        "street": "Passagem Garrincha",
        "zipcode": "66120-450"
    },
    {
        "city": "Belem",
        "state": "PA",
        "district": "Sacramenta",
        "street": "Passagem Boa Fe",
        "zipcode": "66120-480"
    },
    {
        "city": "Belem",
        "state": "PA",
        "district": "Pedreira",
        "street": "Passagem Vista Alegre",
        "zipcode": "66120-560"
    },
    {
        "city": "Belem",
        "state": "PA",
        "district": "Pedreira",
        "street": "Passagem Quarubas",
        "zipcode": "66120-580"
    },
    {
        "city": "Belem",
        "state": "PA",
        "district": "Souza",
        "street": "Passagem Sao Pedro",
        "zipcode": "66610-670"
    },
    {
        "city": "Belem",
        "state": "PA",
        "district": "Val",
        "street": "Travessa Alferes Costa",
        "zipcode": "66120-440"
    },
    {
        "city": "Belem",
        "state": "PA",
        "district": "Val",
        "street": "Passagem Miramar",
        "zipcode": "66115-210"
    },
    {
        "city": "Belem",
        "state": "PA",
        "district": "Val",
        "street": "Passagem Stelio Maroja",
        "zipcode": "66115-290"
    },
    {
        "city": "Belem",
        "state": "PA",
        "district": "Sacramenta",
        "street": "Passagem Dez De Outubro",
        "zipcode": "66120-003"
    },
    {
        "city": "Belem",
        "state": "PA",
        "district": "Sacramenta",
        "street": "Passagem Batista",
        "zipcode": "66120-210"
    },
    {
        "city": "Belem",
        "state": "PA",
        "district": "Marco",
        "street": "Travessa Chaco De 1582/1587 Ao Fim",
        "zipcode": "66093-410"
    },
    {
        "city": "Belem",
        "state": "PA",
        "district": "Val",
        "street": "Avenida Norte (Cj Providencia)",
        "zipcode": "66115-590"
    },
    {
        "city": "Belem",
        "state": "PA",
        "district": "Val",
        "street": "Passagem Martins",
        "zipcode": "66115-220"
    },
    {
        "city": "Belem",
        "state": "PA",
        "district": "Souza",
        "street": "Passagem Santa Marta",
        "zipcode": "66120-495"
    },
    {
        "city": "Belem",
        "state": "PA",
        "district": "Val",
        "street": "Vila Uniao",
        "zipcode": "66115-215"
    },
    {
        "city": "Belem",
        "state": "PA",
        "district": "Val",
        "street": "Passagem Umarizal",
        "zipcode": "66120-190"
    },
    {
        "city": "Belem",
        "state": "PA",
        "district": "Curio",
        "street": "Passagem Fe Em Deus",
        "zipcode": "66610-585"
    },
    {
        "city": "Belem",
        "state": "PA",
        "district": "Guama",
        "street": "Passagem Eletronorte",
        "zipcode": "66610-625"
    },
    {
        "city": "Belem",
        "state": "PA",
        "district": "Val",
        "street": "Rua Almirante N. Braga (B",
        "zipcode": "66115-630"
    },
    {
        "city": "Belem",
        "state": "PA",
        "district": "Souza",
        "street": "Passagem Sao Sebastiao",
        "zipcode": "66120-540"
    },
    {
        "city": "Belem",
        "state": "PA",
        "district": "Souza",
        "street": "Passagem Maria Helena",
        "zipcode": "66610-650"
    },
    {
        "city": "Belem",
        "state": "PA",
        "district": "Souza",
        "street": "Passagem Sao Miguel",
        "zipcode": "66610-640"
    },
    {
        "city": "Belem",
        "state": "PA",
        "district": "Val",
        "street": "Passagem Capitao Abilio",
        "zipcode": "66115-310"
    },
    {
        "city": "Belem",
        "state": "PA",
        "district": "Val",
        "street": "Passagem Jader Barbalho",
        "zipcode": "66120-410"
    },
    {
        "city": "Belem",
        "state": "PA",
        "district": "Sacramenta",
        "street": "Passagem Jader Barbalho",
        "zipcode": "66115-440"
    },
    {
        "city": "Belem",
        "state": "PA",
        "district": "Val",
        "street": "Rua Almirante Melo Batista",
        "zipcode": "66115-530"
    },
    {
        "city": "Belem",
        "state": "PA",
        "district": "Marco",
        "street": "Avenida Primeiro De Dezembro",
        "zipcode": "66095-490"
    },
    {
        "city": "Belem",
        "state": "PA",
        "district": "Val",
        "street": "Passagem Cabral",
        "zipcode": "66120-050"
    },
    {
        "city": "Belem",
        "state": "PA",
        "district": "Souza",
        "street": "Passagem Sao Luis",
        "zipcode": "66120-610"
    },
    {
        "city": "Belem",
        "state": "PA",
        "district": "Sacramenta",
        "street": "Passagem Fe Em Deus",
        "zipcode": "66120-690"
    },
    {
        "city": "Belem",
        "state": "PA",
        "district": "Sacramenta",
        "street": "Passagem Cristal",
        "zipcode": "66120-770"
    },
    {
        "city": "Belem",
        "state": "PA",
        "district": "Sacramenta",
        "street": "Passagem Sao Pedro",
        "zipcode": "66120-820"
    },
    {
        "city": "Belem",
        "state": "PA",
        "district": "Sacramenta",
        "street": "Passagem Lobato",
        "zipcode": "66120-831"
    },
    {
        "city": "Belem",
        "state": "PA",
        "district": "Souza",
        "street": "Avenida Almirante Barroso",
        "zipcode": "66610-000"
    },
    {
        "city": "Belem",
        "state": "PA",
        "district": "Souza",
        "street": "Praça Sao Cristovao",
        "zipcode": "66610-025"
    },
    {
        "city": "Belem",
        "state": "PA",
        "district": "Curio",
        "street": "Alameda A",
        "zipcode": "66610-210"
    },
    {
        "city": "Belem",
        "state": "PA",
        "district": "Souza",
        "street": "Passagem Tito Franco",
        "zipcode": "66610-280"
    },
    {
        "city": "Belem",
        "state": "PA",
        "district": "Souza",
        "street": "Alameda Bancrevea",
        "zipcode": "66610-370"
    },
    {
        "city": "Belem",
        "state": "PA",
        "district": "Souza",
        "street": "Passagem Eladio Lima",
        "zipcode": "66610-400"
    },
    {
        "city": "Belem",
        "state": "PA",
        "district": "Souza",
        "street": "Alameda Rui Medeiros",
        "zipcode": "66610-440"
    },
    {
        "city": "Belem",
        "state": "PA",
        "district": "Souza",
        "street": "Alameda Otavio Meira",
        "zipcode": "66610-460"
    },
    {
        "city": "Belem",
        "state": "PA",
        "district": "Souza",
        "street": "Alameda Inacio Caldas",
        "zipcode": "66610-470"
    },
    {
        "city": "Belem",
        "state": "PA",
        "district": "Souza",
        "street": "Rua Arnobio Nobre",
        "zipcode": "66610-480"
    },
    {
        "city": "Belem",
        "state": "PA",
        "district": "Souza",
        "street": "Alameda Jose Castanheira",
        "zipcode": "66610-490"
    },
    {
        "city": "Belem",
        "state": "PA",
        "district": "Souza",
        "street": "Passagem Santa Cruz",
        "zipcode": "66610-620"
    },
    {
        "city": "Belem",
        "state": "PA",
        "district": "Souza",
        "street": "Passagem Samuca Levy",
        "zipcode": "66610-820"
    },
    {
        "city": "Belem",
        "state": "PA",
        "district": "Marambaia",
        "street": "Passagem Santo Antonio",
        "zipcode": "66613-210"
    },
    {
        "city": "Belem",
        "state": "PA",
        "district": "Marambaia",
        "street": "Passagem Sao Domingos",
        "zipcode": "66613-240"
    },
    {
        "city": "Belem",
        "state": "PA",
        "district": "Marambaia",
        "street": "Passagem Adao",
        "zipcode": "66613-270"
    },
    {
        "city": "Belem",
        "state": "PA",
        "district": "Souza",
        "street": "Passagem Salvador",
        "zipcode": "66123-570"
    },
    {
        "city": "Belem",
        "state": "PA",
        "district": "Souza",
        "street": "Passagem Esmeralda",
        "zipcode": "66610-520"
    },
    {
        "city": "Belem",
        "state": "PA",
        "district": "Souza",
        "street": "Conjunto Ligia",
        "zipcode": "66610-690"
    },
    {
        "city": "Belem",
        "state": "PA",
        "district": "Souza",
        "street": "Bloco Seis (Cj Costa E Silva)",
        "zipcode": "66613-280"
    },
    {
        "city": "Belem",
        "state": "PA",
        "district": "Souza",
        "street": "Vila Sao Luis",
        "zipcode": "66120-615"
    },
    {
        "city": "Belem",
        "state": "PA",
        "district": "Souza",
        "street": "Passagem Iracema",
        "zipcode": "66610-380"
    },
    {
        "city": "Belem",
        "state": "PA",
        "district": "Souza",
        "street": "Passagem Magalhaes",
        "zipcode": "66120-800"
    },
    {
        "city": "Belem",
        "state": "PA",
        "district": "Souza",
        "street": "Passagem Francisco Simoes",
        "zipcode": "66610-610"
    },
    {
        "city": "Belem",
        "state": "PA",
        "district": "Souza",
        "street": "Passagem Gama Malcher",
        "zipcode": "66610-680"
    },
    {
        "city": "Belem",
        "state": "PA",
        "district": "Souza",
        "street": "Passagem Dr Freitas",
        "zipcode": "66120-595"
    },
    {
        "city": "Belem",
        "state": "PA",
        "district": "Souza",
        "street": "Passagem Edilson",
        "zipcode": "66610-560"
    },
    {
        "city": "Belem",
        "state": "PA",
        "district": "Souza",
        "street": "Passagem Classe A",
        "zipcode": "66610-340"
    },
    {
        "city": "Belem",
        "state": "PA",
        "district": "Souza",
        "street": "Alameda Mary Lucy",
        "zipcode": "66610-410"
    },
    {
        "city": "Belem",
        "state": "PA",
        "district": "Souza",
        "street": "Passagem Maraba",
        "zipcode": "66610-790"
    },
    {
        "city": "Belem",
        "state": "PA",
        "district": "Marambaia",
        "street": "Avenida Dalva",
        "zipcode": "66613-470"
    },
    {
        "city": "Belem",
        "state": "PA",
        "district": "Souza",
        "street": "Rua Mosqueiro",
        "zipcode": "66613-490"
    },
    {
        "city": "Belem",
        "state": "PA",
        "district": "Souza",
        "street": "Rua Ariramba",
        "zipcode": "66613-520"
    },
    {
        "city": "Belem",
        "state": "PA",
        "district": "Souza",
        "street": "Passagem Sao Francisco",
        "zipcode": "66610-810"
    },
    {
        "city": "Belem",
        "state": "PA",
        "district": "Souza",
        "street": "Bloco Sete (Cj Costa E Silva)",
        "zipcode": "66613-290"
    },
    {
        "city": "Belem",
        "state": "PA",
        "district": "Souza",
        "street": "Alameda Walter Putz",
        "zipcode": "66610-515"
    },
    {
        "city": "Belem",
        "state": "PA",
        "district": "Souza",
        "street": "Bloco Dois (Cj Costa E Silva)",
        "zipcode": "66613-220"
    },
    {
        "city": "Belem",
        "state": "PA",
        "district": "Souza",
        "street": "Passagem Alvaro Freitas",
        "zipcode": "66123-500"
    },
    {
        "city": "Belem",
        "state": "PA",
        "district": "Souza",
        "street": "Passagem Jose Maria Chaves",
        "zipcode": "66123-530"
    },
    {
        "city": "Belem",
        "state": "PA",
        "district": "Souza",
        "street": "Travessa G (Cj Costa E Silva)",
        "zipcode": "66613-340"
    },
    {
        "city": "Belem",
        "state": "PA",
        "district": "Souza",
        "street": "Passagem Rainha Dos Coracoes",
        "zipcode": "66610-450"
    },
    {
        "city": "Belem",
        "state": "PA",
        "district": "Sacramenta",
        "street": "Passagem Belo Horizonte",
        "zipcode": "66120-710"
    },
    {
        "city": "Belem",
        "state": "PA",
        "district": "Souza",
        "street": "Avenida D (Cj Costa E Silva)",
        "zipcode": "66613-400"
    },
    {
        "city": "Belem",
        "state": "PA",
        "district": "Souza",
        "street": "Passagem Santa Terezinha",
        "zipcode": "66123-580"
    },
    {
        "city": "Belem",
        "state": "PA",
        "district": "Souza",
        "street": "Travessa F (Cj Costa E Silva)",
        "zipcode": "66613-410"
    },
    {
        "city": "Belem",
        "state": "PA",
        "district": "Souza",
        "street": "Rua Ajuruteua",
        "zipcode": "66613-510"
    },
    {
        "city": "Belem",
        "state": "PA",
        "district": "Souza",
        "street": "Vila Pinheiro",
        "zipcode": "66610-435"
    },
    {
        "city": "Belem",
        "state": "PA",
        "district": "Souza",
        "street": "Passagem Pinto Marques",
        "zipcode": "66613-250"
    },
    {
        "city": "Belem",
        "state": "PA",
        "district": "Souza",
        "street": "Passagem A",
        "zipcode": "66123-430"
    },
    {
        "city": "Belem",
        "state": "PA",
        "district": "Souza",
        "street": "Avenida Dalva",
        "zipcode": "66610-760"
    },
    {
        "city": "Belem",
        "state": "PA",
        "district": "Souza",
        "street": "Conjunto Castelo Branco",
        "zipcode": "66610-200"
    },
    {
        "city": "Belem",
        "state": "PA",
        "district": "Souza",
        "street": "Rua Primeira",
        "zipcode": "66123-550"
    },
    {
        "city": "Belem",
        "state": "PA",
        "district": "Souza",
        "street": "Travessa H",
        "zipcode": "66613-370"
    },
    {
        "city": "Belem",
        "state": "PA",
        "district": "Souza",
        "street": "Passagem Primeiro De Dezembro",
        "zipcode": "66610-510"
    },
    {
        "city": "Belem",
        "state": "PA",
        "district": "Sacramenta",
        "street": "Passagem Cristo Rei",
        "zipcode": "66123-270"
    },
    {
        "city": "Belem",
        "state": "PA",
        "district": "Souza",
        "street": "Passagem Santa Matilde",
        "zipcode": "66613-200"
    },
    {
        "city": "Belem",
        "state": "PA",
        "district": "Souza",
        "street": "Vila Ana Valmont",
        "zipcode": "66610-525"
    },
    {
        "city": "Belem",
        "state": "PA",
        "district": "Souza",
        "street": "Vila Carlos",
        "zipcode": "66610-780"
    },
    {
        "city": "Belem",
        "state": "PA",
        "district": "Curio",
        "street": "Passagem Nova Uniao Ii",
        "zipcode": "66610-505"
    },
    {
        "city": "Belem",
        "state": "PA",
        "district": "Souza",
        "street": "Avenida Pedro Alvares Cabral",
        "zipcode": "66623-220"
    },
    {
        "city": "Belem",
        "state": "PA",
        "district": "Marambaia",
        "street": "Alameda Dois",
        "zipcode": "66623-290"
    },
    {
        "city": "Belem",
        "state": "PA",
        "district": "Marambaia",
        "street": "Passagem A",
        "zipcode": "66623-380"
    },
    {
        "city": "Belem",
        "state": "PA",
        "district": "Marambaia",
        "street": "Alameda Tres",
        "zipcode": "66623-440"
    },
    {
        "city": "Belem",
        "state": "PA",
        "district": "Marambaia",
        "street": "Avenida Dalva",
        "zipcode": "66615-270"
    },
    {
        "city": "Belem",
        "state": "PA",
        "district": "Marambaia",
        "street": "Travessa A",
        "zipcode": "66623-309"
    },
    {
        "city": "Belem",
        "state": "PA",
        "district": "Jurunas",
        "street": "Alameda Lima",
        "zipcode": "66623-430"
    },
    {
        "city": "Belem",
        "state": "PA",
        "district": "Marambaia",
        "street": "Passagem Maria Das Gracas",
        "zipcode": "66623-750"
    },
    {
        "city": "Belem",
        "state": "PA",
        "district": "Mangueirao",
        "street": "Avenida Norte",
        "zipcode": "66625-018"
    },
    {
        "city": "Belem",
        "state": "PA",
        "district": "Souza",
        "street": "Rua Prainha",
        "zipcode": "66623-620"
    },
    {
        "city": "Belem",
        "state": "PA",
        "district": "Castanheira",
        "street": "Travessa Cinco",
        "zipcode": "66623-333"
    },
    {
        "city": "Belem",
        "state": "PA",
        "district": "Castanheira",
        "street": "Travessa Quatro",
        "zipcode": "66623-322"
    },
    {
        "city": "Belem",
        "state": "PA",
        "district": "Souza",
        "street": "Travessa J (Cj Costa E Silva)",
        "zipcode": "66613-360"
    },
    {
        "city": "Belem",
        "state": "PA",
        "district": "Mangueirao",
        "street": "Quadra Trinta E Seis",
        "zipcode": "66625-044"
    },
    {
        "city": "Belem",
        "state": "PA",
        "district": "Nova Marambaia",
        "street": "Passagem Alegria",
        "zipcode": "66623-800"
    },
    {
        "city": "Belem",
        "state": "PA",
        "district": "Castanheira",
        "street": "Travessa Um",
        "zipcode": "66623-327"
    },
    {
        "city": "Belem",
        "state": "PA",
        "district": "Marambaia",
        "street": "Beco Marajo",
        "zipcode": "66623-470"
    },
    {
        "city": "Belem",
        "state": "PA",
        "district": "Mangueirao",
        "street": "Quadra Quatorze",
        "zipcode": "66625-017"
    },
    {
        "city": "Belem",
        "state": "PA",
        "district": "Mangueirao",
        "street": "Quadra Vinte E Cinco",
        "zipcode": "66625-031"
    },
    {
        "city": "Belem",
        "state": "PA",
        "district": "Souza",
        "street": "Alameda Ns",
        "zipcode": "66613-420"
    },
    {
        "city": "Belem",
        "state": "PA",
        "district": "Souza",
        "street": "Avenida Engenheiro Inocencio Holanda De Lima",
        "zipcode": "66613-630"
    },
    {
        "city": "Belem",
        "state": "PA",
        "district": "Nova Marambaia",
        "street": "Passagem Ceara",
        "zipcode": "66635-630"
    },
    {
        "city": "Belem",
        "state": "PA",
        "district": "Nova Marambaia",
        "street": "Passagem Sao Tome",
        "zipcode": "66620-650"
    },
    {
        "city": "Belem",
        "state": "PA",
        "district": "Mangueirao",
        "street": "Quadra Vinte E Nove",
        "zipcode": "66625-036"
    },
    {
        "city": "Belem",
        "state": "PA",
        "district": "Castanheira",
        "street": "Travessa Nove",
        "zipcode": "66623-329"
    },
    {
        "city": "Belem",
        "state": "PA",
        "district": "Mangueirao",
        "street": "Quadra Trinta E Cinco",
        "zipcode": "66625-043"
    },
    {
        "city": "Belem",
        "state": "PA",
        "district": "Souza",
        "street": "Avenida C (Cj Costa E Silva)",
        "zipcode": "66613-390"
    },
    {
        "city": "Belem",
        "state": "PA",
        "district": "Mangueirao",
        "street": "Bloco Trinta E Um",
        "zipcode": "66625-038"
    },
    {
        "city": "Belem",
        "state": "PA",
        "district": "Nova Marambaia",
        "street": "Passagem Rui Barbosa",
        "zipcode": "66615-500"
    },
    {
        "city": "Belem",
        "state": "PA",
        "district": "Souza",
        "street": "Avenida Do Contorno",
        "zipcode": "66623-780"
    },
    {
        "city": "Belem",
        "state": "PA",
        "district": "Marambaia",
        "street": "Beco Velha Rita",
        "zipcode": "66620-550"
    },
    {
        "city": "Belem",
        "state": "PA",
        "district": "Souza",
        "street": "Passagem Sao Benedito",
        "zipcode": "66613-300"
    },
    {
        "city": "Belem",
        "state": "PA",
        "district": "Castanheira",
        "street": "Travessa Tres",
        "zipcode": "66623-326"
    },
    {
        "city": "Belem",
        "state": "PA",
        "district": "Castanheira",
        "street": "Avenida Do Contorno",
        "zipcode": "66623-334"
    },
    {
        "city": "Belem",
        "state": "PA",
        "district": "Mangueirao",
        "street": "Quadra Seis",
        "zipcode": "66625-006"
    },
    {
        "city": "Belem",
        "state": "PA",
        "district": "Mangueirao",
        "street": "Quadra Cinco",
        "zipcode": "66625-004"
    },
    {
        "city": "Belem",
        "state": "PA",
        "district": "Mangueirao",
        "street": "Quadra Trinta E Quatro",
        "zipcode": "66625-042"
    },
    {
        "city": "Belem",
        "state": "PA",
        "district": "Souza",
        "street": "Avenida Engenheiro Francisco Bolonha",
        "zipcode": "66613-600"
    },
    {
        "city": "Belem",
        "state": "PA",
        "district": "Nova Marambaia",
        "street": "Passagem Vital Brasil",
        "zipcode": "66615-590"
    },
    {
        "city": "Belem",
        "state": "PA",
        "district": "Nova Marambaia",
        "street": "Passagem Dom Pedro",
        "zipcode": "66620-820"
    },
    {
        "city": "Belem",
        "state": "PA",
        "district": "Nova Marambaia",
        "street": "Passagem Liberdade",
        "zipcode": "66620-830"
    },
    {
        "city": "Belem",
        "state": "PA",
        "district": "Marambaia",
        "street": "Rua Carlos Drumond De Andrade",
        "zipcode": "66617-380"
    },
    {
        "city": "Belem",
        "state": "PA",
        "district": "Mangueirao",
        "street": "Quadra Dezenove",
        "zipcode": "66625-024"
    },
    {
        "city": "Belem",
        "state": "PA",
        "district": "Nova Marambaia",
        "street": "Passagem Santos Dumont",
        "zipcode": "66615-540"
    },
    {
        "city": "Belem",
        "state": "PA",
        "district": "Mangueirao",
        "street": "Quadra Vinte E Quatro",
        "zipcode": "66625-029"
    },
    {
        "city": "Belem",
        "state": "PA",
        "district": "Souza",
        "street": "Alameda Ns",
        "zipcode": "66613-440"
    },
    {
        "city": "Belem",
        "state": "PA",
        "district": "Souza",
        "street": "Avenida A (Cj Costa E Silva)",
        "zipcode": "66613-640"
    },
    {
        "city": "Belem",
        "state": "PA",
        "district": "Marambaia",
        "street": "Passagem Br",
        "zipcode": "66620-520"
    },
    {
        "city": "Belem",
        "state": "PA",
        "district": "Mangueirao",
        "street": "Avenida Sul",
        "zipcode": "66625-013"
    },
    {
        "city": "Belem",
        "state": "PA",
        "district": "Castanheira",
        "street": "Travessa Onze",
        "zipcode": "66623-332"
    },
    {
        "city": "Belem",
        "state": "PA",
        "district": "Mangueirao",
        "street": "Quadra Dois",
        "zipcode": "66625-001"
    },
    {
        "city": "Belem",
        "state": "PA",
        "district": "Mangueirao",
        "street": "Quadra Vinte E Um",
        "zipcode": "66625-026"
    },
    {
        "city": "Belem",
        "state": "PA",
        "district": "Souza",
        "street": "Alameda Ministro Costa Cavalcante",
        "zipcode": "66610-710"
    },
    {
        "city": "Belem",
        "state": "PA",
        "district": "Souza",
        "street": "Alameda Elcione Barbalho",
        "zipcode": "66617-390"
    },
    {
        "city": "Belem",
        "state": "PA",
        "district": "Nova Marambaia",
        "street": "Rua Conego Batista Campos",
        "zipcode": "66635-640"
    },
    {
        "city": "Belem",
        "state": "PA",
        "district": "Nova Marambaia",
        "street": "Rua Terceira",
        "zipcode": "66623-110"
    },
    {
        "city": "Belem",
        "state": "PA",
        "district": "Mangueirao",
        "street": "Quadra Dezessete",
        "zipcode": "66625-022"
    },
    {
        "city": "Belem",
        "state": "PA",
        "district": "Mangueirao",
        "street": "Quadra Vinte E Tres",
        "zipcode": "66625-028"
    },
    {
        "city": "Belem",
        "state": "PA",
        "district": "Souza",
        "street": "Passagem Dois De Junho",
        "zipcode": "66623-680"
    },
    {
        "city": "Belem",
        "state": "PA",
        "district": "Mangueirao",
        "street": "Quadra Quatro",
        "zipcode": "66625-003"
    },
    {
        "city": "Belem",
        "state": "PA",
        "district": "Souza",
        "street": "Passagem Paulo Eleuterio Filho",
        "zipcode": "66623-630"
    },
    {
        "city": "Belem",
        "state": "PA",
        "district": "Mangueirao",
        "street": "Quadra Vinte E Seis",
        "zipcode": "66625-032"
    },
    {
        "city": "Belem",
        "state": "PA",
        "district": "Mangueirao",
        "street": "Quadra Trinta E Dois",
        "zipcode": "66625-039"
    },
    {
        "city": "Belem",
        "state": "PA",
        "district": "Mangueirao",
        "street": "Quadra Nove",
        "zipcode": "66625-009"
    },
    {
        "city": "Belem",
        "state": "PA",
        "district": "Souza",
        "street": "Alameda Brasil",
        "zipcode": "66617-400"
    },
    {
        "city": "Belem",
        "state": "PA",
        "district": "Souza",
        "street": "Vila Sao Pedro",
        "zipcode": "66613-205"
    },
    {
        "city": "Belem",
        "state": "PA",
        "district": "Castanheira",
        "street": "Travessa Dois",
        "zipcode": "66623-321"
    },
    {
        "city": "Belem",
        "state": "PA",
        "district": "Bengui",
        "street": "Rua Principal",
        "zipcode": "66625-655"
    },
    {
        "city": "Belem",
        "state": "PA",
        "district": "Bengui",
        "street": "Passagem Alquides Sales",
        "zipcode": "66633-250"
    },
    {
        "city": "Belem",
        "state": "PA",
        "district": "Bengui",
        "street": "Travessa Major Miguel",
        "zipcode": "66633-310"
    },
    {
        "city": "Belem",
        "state": "PA",
        "district": "Bengui",
        "street": "Passagem Rosa De Maio",
        "zipcode": "66633-350"
    },
    {
        "city": "Belem",
        "state": "PA",
        "district": "Bengui",
        "street": "Rua Das Rosas",
        "zipcode": "66635-080"
    },
    {
        "city": "Belem",
        "state": "PA",
        "district": "Bengui",
        "street": "Rua Teotonio Vilela",
        "zipcode": "66643-070"
    },
    {
        "city": "Belem",
        "state": "PA",
        "district": "Bengui",
        "street": "Passagem Liberdade",
        "zipcode": "66643-100"
    },
    {
        "city": "Belem",
        "state": "PA",
        "district": "Bengui",
        "street": "Travessa Quatro (Jd Liberdade)",
        "zipcode": "66643-310"
    },
    {
        "city": "Belem",
        "state": "PA",
        "district": "Bengui",
        "street": "Travessa Cinco (Jd Liberdade)",
        "zipcode": "66643-320"
    },
    {
        "city": "Belem",
        "state": "PA",
        "district": "Nova Marambaia",
        "street": "Rua Sete De Julho",
        "zipcode": "66635-800"
    },
    {
        "city": "Belem",
        "state": "PA",
        "district": "Bengui",
        "street": "Passagem Aragao",
        "zipcode": "66633-125"
    },
    {
        "city": "Belem",
        "state": "PA",
        "district": "Nova Marambaia",
        "street": "Passagem Sao Joao",
        "zipcode": "66635-740"
    },
    {
        "city": "Belem",
        "state": "PA",
        "district": "Bengui",
        "street": "Travessa Dos Girassois",
        "zipcode": "66643-420"
    },
    {
        "city": "Belem",
        "state": "PA",
        "district": "Nova Marambaia",
        "street": "Rua Beija",
        "zipcode": "66635-830"
    },
    {
        "city": "Belem",
        "state": "PA",
        "district": "Bengui",
        "street": "Travessa Do Amor Perfeito",
        "zipcode": "66630-770"
    },
    {
        "city": "Belem",
        "state": "PA",
        "district": "Bengui",
        "street": "Rua Belem",
        "zipcode": "66635-840"
    },
    {
        "city": "Belem",
        "state": "PA",
        "district": "Bengui",
        "street": "Travessa Das Angelicas",
        "zipcode": "66643-400"
    },
    {
        "city": "Belem",
        "state": "PA",
        "district": "Bengui",
        "street": "Rua Olavo Nunes",
        "zipcode": "66633-260"
    },
    {
        "city": "Belem",
        "state": "PA",
        "district": "Nova Marambaia",
        "street": "Rodovia Augusto Montenegro",
        "zipcode": "66633-460"
    },
    {
        "city": "Belem",
        "state": "PA",
        "district": "Nova Marambaia",
        "street": "Passagem Silva Lobato",
        "zipcode": "66635-760"
    },
    {
        "city": "Belem",
        "state": "PA",
        "district": "Bengui",
        "street": "Passagem Euclides Sales",
        "zipcode": "66633-750"
    },
    {
        "city": "Belem",
        "state": "PA",
        "district": "Bengui",
        "street": "Travessa Dezenove De Agosto",
        "zipcode": "66643-350"
    },
    {
        "city": "Belem",
        "state": "PA",
        "district": "Bengui",
        "street": "Rua Das Acacias",
        "zipcode": "66643-370"
    },
    {
        "city": "Belem",
        "state": "PA",
        "district": "Nova Marambaia",
        "street": "Avenida Dom Pedro",
        "zipcode": "66635-730"
    },
    {
        "city": "Belem",
        "state": "PA",
        "district": "Bengui",
        "street": "Rua Da Conquista",
        "zipcode": "66643-340"
    },
    {
        "city": "Belem",
        "state": "PA",
        "district": "Bengui",
        "street": "Travessa Sao Sebastiao",
        "zipcode": "66633-360"
    },
    {
        "city": "Belem",
        "state": "PA",
        "district": "Nova Marambaia",
        "street": "Travessa Cristina Cardoso",
        "zipcode": "66633-500"
    },
    {
        "city": "Belem",
        "state": "PA",
        "district": "Nova Marambaia",
        "street": "Rua Vinte E Cinco De Julho",
        "zipcode": "66635-790"
    },
    {
        "city": "Belem",
        "state": "PA",
        "district": "Nova Marambaia",
        "street": "Rua Santa Barbara",
        "zipcode": "66635-650"
    },
    {
        "city": "Belem",
        "state": "PA",
        "district": "Nova Marambaia",
        "street": "Passagem Dez De Junho",
        "zipcode": "66635-380"
    },
    {
        "city": "Belem",
        "state": "PA",
        "district": "Nova Marambaia",
        "street": "Avenida Monte Carlo",
        "zipcode": "66633-800"
    },
    {
        "city": "Belem",
        "state": "PA",
        "district": "Nova Marambaia",
        "street": "Rua Santo Antonio",
        "zipcode": "66635-720"
    },
    {
        "city": "Belem",
        "state": "PA",
        "district": "Nova Marambaia",
        "street": "Travessa Sao Luiz",
        "zipcode": "66635-770"
    },
    {
        "city": "Belem",
        "state": "PA",
        "district": "Bengui",
        "street": "Passagem Assis Chateaubriand",
        "zipcode": "66643-440"
    },
    {
        "city": "Belem",
        "state": "PA",
        "district": "Atalaia",
        "street": "Passagem Marrocos",
        "zipcode": "66645-370"
    },
    {
        "city": "Belem",
        "state": "PA",
        "district": "Atalaia",
        "street": "Vila Sao Joao",
        "zipcode": "66645-440"
    },
    {
        "city": "Belem",
        "state": "PA",
        "district": "Nova Marambaia",
        "street": "Alameda Fabriciano Cruz",
        "zipcode": "66625-665"
    },
    {
        "city": "Belem",
        "state": "PA",
        "district": "Bengui",
        "street": "Passagem Piratinin",
        "zipcode": "66633-340"
    },
    {
        "city": "Belem",
        "state": "PA",
        "district": "Nova Marambaia",
        "street": "Travessa Henrique Dias",
        "zipcode": "66633-270"
    },
    {
        "city": "Belem",
        "state": "PA",
        "district": "Nova Marambaia",
        "street": "Alameda Um",
        "zipcode": "66633-300"
    },
    {
        "city": "Belem",
        "state": "PA",
        "district": "Bengui",
        "street": "Passagem Batista",
        "zipcode": "66633-380"
    },
    {
        "city": "Belem",
        "state": "PA",
        "district": "Bengui",
        "street": "Rua L",
        "zipcode": "66633-155"
    },
    {
        "city": "Belem",
        "state": "PA",
        "district": "Nova Marambaia",
        "street": "Passagem Belem",
        "zipcode": "66635-450"
    },
    {
        "city": "Belem",
        "state": "PA",
        "district": "Atalaia",
        "street": "Vila Brotinho",
        "zipcode": "66645-320"
    },
    {
        "city": "Belem",
        "state": "PA",
        "district": "Bengui",
        "street": "Passagem Sao Paulo",
        "zipcode": "66633-390"
    },
    {
        "city": "Belem",
        "state": "PA",
        "district": "Nova Marambaia",
        "street": "Passagem Esmeralda",
        "zipcode": "66633-760"
    },
    {
        "city": "Belem",
        "state": "PA",
        "district": "Bengui",
        "street": "Passagem Sargento Getulio",
        "zipcode": "66643-450"
    },
    {
        "city": "Belem",
        "state": "PA",
        "district": "Nova Marambaia",
        "street": "Travessa Rio Branco",
        "zipcode": "66635-690"
    },
    {
        "city": "Belem",
        "state": "PA",
        "district": "Nova Marambaia",
        "street": "Conjunto Augusto Montenegro",
        "zipcode": "66633-490"
    },
    {
        "city": "Belem",
        "state": "PA",
        "district": "Nova Marambaia",
        "street": "Passagem Primeiro De Maio",
        "zipcode": "66635-180"
    },
    {
        "city": "Belem",
        "state": "PA",
        "district": "Nova Marambaia",
        "street": "Avenida Belem",
        "zipcode": "66633-510"
    },
    {
        "city": "Belem",
        "state": "PA",
        "district": "Bengui",
        "street": "Avenida Magalhaes Barata",
        "zipcode": "66633-440"
    },
    {
        "city": "Belem",
        "state": "PA",
        "district": "Nova Marambaia",
        "street": "Rua Uniao",
        "zipcode": "66635-700"
    },
    {
        "city": "Belem",
        "state": "PA",
        "district": "Bengui",
        "street": "Rua Da Igualdade",
        "zipcode": "66643-360"
    },
    {
        "city": "Belem",
        "state": "PA",
        "district": "Nova Marambaia",
        "street": "Rua Francisquinho",
        "zipcode": "66635-820"
    },
    {
        "city": "Belem",
        "state": "PA",
        "district": "Nova Marambaia",
        "street": "Rua Dos Jasmins",
        "zipcode": "66643-390"
    },
    {
        "city": "Belem",
        "state": "PA",
        "district": "Nova Marambaia",
        "street": "Rua Fe Em Deus",
        "zipcode": "66635-660"
    },
    {
        "city": "Belem",
        "state": "PA",
        "district": "Bengui",
        "street": "Rua Sao Bento",
        "zipcode": "66633-450"
    },
    {
        "city": "Belem",
        "state": "PA",
        "district": "Nova Marambaia",
        "street": "Jardim Ipiranga",
        "zipcode": "66633-480"
    },
    {
        "city": "Belem",
        "state": "PA",
        "district": "Bengui",
        "street": "Passagem Valdir Acatauassu Nunes",
        "zipcode": "66633-330"
    },
    {
        "city": "Belem",
        "state": "PA",
        "district": "Nova Marambaia",
        "street": "Rua Esperantista",
        "zipcode": "66635-570"
    },
    {
        "city": "Belem",
        "state": "PA",
        "district": "Bengui",
        "street": "Passagem Sabino Oliveira",
        "zipcode": "66633-245"
    },
    {
        "city": "Belem",
        "state": "PA",
        "district": "Outeiro",
        "street": "Rua Uirapuru",
        "zipcode": "66645-810"
    },
    {
        "city": "Belem",
        "state": "PA",
        "district": "Coqueiro",
        "street": "Travessa Belem",
        "zipcode": "66650-571"
    },
    {
        "city": "Belem",
        "state": "PA",
        "district": "Coqueiro",
        "street": "Passagem Sao Pedro",
        "zipcode": "66650-610"
    },
    {
        "city": "Belem",
        "state": "PA",
        "district": "Coqueiro",
        "street": "Rua Onze",
        "zipcode": "66670-181"
    },
    {
        "city": "Belem",
        "state": "PA",
        "district": "Coqueiro",
        "street": "Quadra Tres",
        "zipcode": "66670-191"
    },
    {
        "city": "Belem",
        "state": "PA",
        "district": "Coqueiro",
        "street": "Rua A (Cj Aguas Cristalinas)",
        "zipcode": "66670-430"
    },
    {
        "city": "Belem",
        "state": "PA",
        "district": "Agulha",
        "street": "Alameda A",
        "zipcode": "66813-625"
    },
    {
        "city": "Belem",
        "state": "PA",
        "district": "Agulha",
        "street": "Alameda B",
        "zipcode": "66813-635"
    },
    {
        "city": "Belem",
        "state": "PA",
        "district": "Agulha",
        "street": "Alameda D",
        "zipcode": "66813-655"
    },
    {
        "city": "Belem",
        "state": "PA",
        "district": "Agulha",
        "street": "Alameda E",
        "zipcode": "66813-665"
    },
    {
        "city": "Belem",
        "state": "PA",
        "district": "Agulha",
        "street": "Alameda G",
        "zipcode": "66813-685"
    },
    {
        "city": "Belem",
        "state": "PA",
        "district": "Agulha",
        "street": "Alameda K",
        "zipcode": "66813-725"
    },
    {
        "city": "Belem",
        "state": "PA",
        "district": "Agulha",
        "street": "Alameda L",
        "zipcode": "66813-735"
    },
    {
        "city": "Belem",
        "state": "PA",
        "district": "Agulha",
        "street": "Alameda N",
        "zipcode": "66813-755"
    },
    {
        "city": "Belem",
        "state": "PA",
        "district": "Icoraci",
        "street": "Vila Santos",
        "zipcode": "66810-350"
    },
    {
        "city": "Belem",
        "state": "PA",
        "district": "Coqueiro",
        "street": "Quadra Quatro",
        "zipcode": "66670-187"
    },
    {
        "city": "Belem",
        "state": "PA",
        "district": "Icoraci",
        "street": "Passagem Manoel Figueiredo",
        "zipcode": "66810-200"
    },
    {
        "city": "Belem",
        "state": "PA",
        "district": "Coqueiro",
        "street": "Passagem Monte Sinai",
        "zipcode": "66670-110"
    },
    {
        "city": "Belem",
        "state": "PA",
        "district": "Icoraci",
        "street": "Rodovia Augusto Montenegro",
        "zipcode": "66813-190"
    },
    {
        "city": "Belem",
        "state": "PA",
        "district": "Atalaia",
        "street": "Conjunto Jardim Atalaia",
        "zipcode": "66645-540"
    },
    {
        "city": "Belem",
        "state": "PA",
        "district": "Icoraci",
        "street": "Vila Martins",
        "zipcode": "66810-400"
    },
    {
        "city": "Belem",
        "state": "PA",
        "district": "Coqueiro",
        "street": "Quadra Dezesseis",
        "zipcode": "66670-183"
    },
    {
        "city": "Belem",
        "state": "PA",
        "district": "Icoraci",
        "street": "Rua Coronel Juvencio Sarmento",
        "zipcode": "66810-130"
    },
    {
        "city": "Belem",
        "state": "PA",
        "district": "Icoraci",
        "street": "Travessa Andrade",
        "zipcode": "66813-200"
    },
    {
        "city": "Belem",
        "state": "PA",
        "district": "Coqueiro",
        "street": "Quadra Doze",
        "zipcode": "66670-186"
    },
    {
        "city": "Belem",
        "state": "PA",
        "district": "Atalaia",
        "street": "Passagem Curuca",
        "zipcode": "66645-450"
    },
    {
        "city": "Belem",
        "state": "PA",
        "district": "Icoraci",
        "street": "Vila Santo Antonio",
        "zipcode": "66810-280"
    },
    {
        "city": "Belem",
        "state": "PA",
        "district": "Icoraci",
        "street": "Travessa Souza Franco",
        "zipcode": "66813-170"
    },
    {
        "city": "Belem",
        "state": "PA",
        "district": "Coqueiro",
        "street": "Quadra Dezessete",
        "zipcode": "66670-184"
    },
    {
        "city": "Belem",
        "state": "PA",
        "district": "Icoraci",
        "street": "Vila Sao Francisco De Assis",
        "zipcode": "66810-290"
    },
    {
        "city": "Belem",
        "state": "PA",
        "district": "Coqueiro",
        "street": "Quadra Vinte E Dois",
        "zipcode": "66670-193"
    },
    {
        "city": "Belem",
        "state": "PA",
        "district": "Icoraci",
        "street": "Rua Moura",
        "zipcode": "66810-300"
    },
    {
        "city": "Belem",
        "state": "PA",
        "district": "Nova Marambaia",
        "street": "Rua Bom Jesus",
        "zipcode": "66655-060"
    },
    {
        "city": "Belem",
        "state": "PA",
        "district": "Atalaia",
        "street": "Vila Firmo",
        "zipcode": "66645-310"
    },
    {
        "city": "Belem",
        "state": "PA",
        "district": "Icoraci",
        "street": "Vila Do Licurgo",
        "zipcode": "66810-340"
    },
    {
        "city": "Belem",
        "state": "PA",
        "district": "Icoraci",
        "street": "Vila Montepio",
        "zipcode": "66810-240"
    },
    {
        "city": "Belem",
        "state": "PA",
        "district": "Icoraci",
        "street": "Vila Maria Do Socorro",
        "zipcode": "66810-430"
    },
    {
        "city": "Belem",
        "state": "PA",
        "district": "Bengui",
        "street": "Travessa Das Violetas",
        "zipcode": "66643-410"
    },
    {
        "city": "Belem",
        "state": "PA",
        "district": "Icoraci",
        "street": "Vila Margarete",
        "zipcode": "66810-440"
    },
    {
        "city": "Belem",
        "state": "PA",
        "district": "Coqueiro",
        "street": "Quadra Oito",
        "zipcode": "66670-180"
    },
    {
        "city": "Belem",
        "state": "PA",
        "district": "Agulha",
        "street": "Alameda H",
        "zipcode": "66813-695"
    },
    {
        "city": "Belem",
        "state": "PA",
        "district": "Icoraci",
        "street": "Vila Silva",
        "zipcode": "66810-330"
    },
    {
        "city": "Belem",
        "state": "PA",
        "district": "Icoraci",
        "street": "Rua Oito De Maio",
        "zipcode": "66813-020"
    },
    {
        "city": "Belem",
        "state": "PA",
        "district": "Icoraci",
        "street": "Vila Rodrigues",
        "zipcode": "66810-320"
    },
    {
        "city": "Belem",
        "state": "PA",
        "district": "Coqueiro",
        "street": "Quadra Dezenove",
        "zipcode": "66670-182"
    },
    {
        "city": "Belem",
        "state": "PA",
        "district": "Icoraci",
        "street": "Vila Rosinha",
        "zipcode": "66810-510"
    },
    {
        "city": "Belem",
        "state": "PA",
        "district": "Atalaia",
        "street": "Vila Maranhense",
        "zipcode": "66645-460"
    },
    {
        "city": "Belem",
        "state": "PA",
        "district": "Icoraci",
        "street": "Rua Green Garden",
        "zipcode": "66813-520"
    },
    {
        "city": "Belem",
        "state": "PA",
        "district": "Coqueiro",
        "street": "Quadra Quinze",
        "zipcode": "66670-188"
    },
    {
        "city": "Belem",
        "state": "PA",
        "district": "Icoraci",
        "street": "Vila Nossa Senhora De Fatima",
        "zipcode": "66810-365"
    },
    {
        "city": "Belem",
        "state": "PA",
        "district": "Icoraci",
        "street": "Vila Santana",
        "zipcode": "66810-500"
    },
    {
        "city": "Belem",
        "state": "PA",
        "district": "Icoraci",
        "street": "Passagem Pinheiro",
        "zipcode": "66813-510"
    },
    {
        "city": "Belem",
        "state": "PA",
        "district": "Icoraci",
        "street": "Vila Oito De Outubro",
        "zipcode": "66810-370"
    },
    {
        "city": "Belem",
        "state": "PA",
        "district": "Atalaia",
        "street": "Passagem Natalino",
        "zipcode": "66645-560"
    },
    {
        "city": "Belem",
        "state": "PA",
        "district": "Icoraci",
        "street": "Vila Milena",
        "zipcode": "66810-420"
    },
    {
        "city": "Belem",
        "state": "PA",
        "district": "Nova Marambaia",
        "street": "Passagem Sao Luis",
        "zipcode": "66655-100"
    },
    {
        "city": "Belem",
        "state": "PA",
        "district": "Atalaia",
        "street": "Passagem Nazareno",
        "zipcode": "66645-570"
    },
    {
        "city": "Belem",
        "state": "PA",
        "district": "Icoraci",
        "street": "Rua Santa Izabel",
        "zipcode": "66810-140"
    },
    {
        "city": "Belem",
        "state": "PA",
        "district": "Agulha",
        "street": "Alameda J",
        "zipcode": "66813-715"
    },
    {
        "city": "Belem",
        "state": "PA",
        "district": "Icoraci",
        "street": "Vila Sao Joao",
        "zipcode": "66813-515"
    },
    {
        "city": "Belem",
        "state": "PA",
        "district": "Coqueiro",
        "street": "Rua Quatorze",
        "zipcode": "66650-620"
    },
    {
        "city": "Belem",
        "state": "PA",
        "district": "Bengui",
        "street": "Travessa Tres (Jd Liberdade)",
        "zipcode": "66643-300"
    },
    {
        "city": "Belem",
        "state": "PA",
        "district": "Nova Marambaia",
        "street": "Passagem Tres De Julho",
        "zipcode": "66635-675"
    },
    {
        "city": "Belem",
        "state": "PA",
        "district": "Icoraci",
        "street": "Vila Roseani",
        "zipcode": "66810-470"
    },
    {
        "city": "Belem",
        "state": "PA",
        "district": "Icoraci",
        "street": "Vila Esperanca",
        "zipcode": "66810-380"
    },
    {
        "city": "Belem",
        "state": "PA",
        "district": "Nova Marambaia",
        "street": "Rua Benjamim",
        "zipcode": "66655-110"
    },
    {
        "city": "Belem",
        "state": "PA",
        "district": "Outeiro",
        "street": "Ilha Do Outeiro",
        "zipcode": "66840-000"
    },
    {
        "city": "Belem",
        "state": "PA",
        "district": "Outeiro",
        "street": "Travessa Simao De Lima",
        "zipcode": "66840-180"
    },
    {
        "city": "Belem",
        "state": "PA",
        "district": "Icoraci",
        "street": "Alameda Santa Mara",
        "zipcode": "66823-090"
    },
    {
        "city": "Belem",
        "state": "PA",
        "district": "Icoraci",
        "street": "Passagem Douglas",
        "zipcode": "66820-210"
    },
    {
        "city": "Belem",
        "state": "PA",
        "district": "Icoraci",
        "street": "Rua Borborema (Cj Tapajos)",
        "zipcode": "66823-290"
    },
    {
        "city": "Belem",
        "state": "PA",
        "district": "Icoraci",
        "street": "Rua Alasca (Cj Tapajos)",
        "zipcode": "66823-160"
    },
    {
        "city": "Belem",
        "state": "PA",
        "district": "Icoraci",
        "street": "Estrada Do Outeiro",
        "zipcode": "66815-520"
    },
    {
        "city": "Belem",
        "state": "PA",
        "district": "Icoraci",
        "street": "Rua Cafezal (Cj Tapajos)",
        "zipcode": "66823-230"
    },
    {
        "city": "Belem",
        "state": "PA",
        "district": "Icoraci",
        "street": "Passagem Sao Pedro",
        "zipcode": "66815-690"
    },
    {
        "city": "Belem",
        "state": "PA",
        "district": "Icoraci",
        "street": "Passagem Fe Em Deus",
        "zipcode": "66820-690"
    },
    {
        "city": "Belem",
        "state": "PA",
        "district": "Tenone",
        "street": "Rua Amazonia",
        "zipcode": "66823-380"
    },
    {
        "city": "Belem",
        "state": "PA",
        "district": "Icoraci",
        "street": "Passagem Tres De Maio",
        "zipcode": "66815-440"
    },
    {
        "city": "Belem",
        "state": "PA",
        "district": "Icoraci",
        "street": "Passagem Santa Rita",
        "zipcode": "66820-250"
    },
    {
        "city": "Belem",
        "state": "PA",
        "district": "Tapana",
        "street": "Rua Bandeirante",
        "zipcode": "66825-065"
    },
    {
        "city": "Belem",
        "state": "PA",
        "district": "Icoraci",
        "street": "Alameda Dois (Cafe Liberal)",
        "zipcode": "66820-300"
    },
    {
        "city": "Belem",
        "state": "PA",
        "district": "Icoraci",
        "street": "Passagem Sao Jorge",
        "zipcode": "66820-470"
    },
    {
        "city": "Belem",
        "state": "PA",
        "district": "Icoraci",
        "street": "Conjunto Ipaupixuma",
        "zipcode": "66823-430"
    },
    {
        "city": "Belem",
        "state": "PA",
        "district": "Icoraci",
        "street": "Rua Barlaventos (Cj Tapajos)",
        "zipcode": "66823-330"
    },
    {
        "city": "Belem",
        "state": "PA",
        "district": "Icoraci",
        "street": "Rua Alicante (Cj Tapajos)",
        "zipcode": "66823-170"
    },
    {
        "city": "Belem",
        "state": "PA",
        "district": "Icoraci",
        "street": "Rua Cairu (Cj Tapajos)",
        "zipcode": "66823-370"
    },
    {
        "city": "Belem",
        "state": "PA",
        "district": "Icoraci",
        "street": "Rua Asturias (Cj Tapajos)",
        "zipcode": "66823-110"
    },
    {
        "city": "Belem",
        "state": "PA",
        "district": "Icoraci",
        "street": "Rua Cocais (Cj Tapajos)",
        "zipcode": "66823-250"
    },
    {
        "city": "Belem",
        "state": "PA",
        "district": "Icoraci",
        "street": "Rua Da Paz",
        "zipcode": "66823-400"
    },
    {
        "city": "Belem",
        "state": "PA",
        "district": "Icoraci",
        "street": "Alameda Doze (Cafe Liberal)",
        "zipcode": "66820-400"
    },
    {
        "city": "Belem",
        "state": "PA",
        "district": "Icoraci",
        "street": "Passagem Nossa Senhora Do Carmo",
        "zipcode": "66823-570"
    },
    {
        "city": "Belem",
        "state": "PA",
        "district": "Icoraci",
        "street": "Rua Camara (Cj Tapajos)",
        "zipcode": "66823-240"
    },
    {
        "city": "Belem",
        "state": "PA",
        "district": "Tapana",
        "street": "Alameda C",
        "zipcode": "66823-820"
    },
    {
        "city": "Belem",
        "state": "PA",
        "district": "Icoraci",
        "street": "Passagem Afonso Pena",
        "zipcode": "66820-430"
    },
    {
        "city": "Belem",
        "state": "PA",
        "district": "Icoraci",
        "street": "Rua Presidente Tancredo De A. Neves",
        "zipcode": "66815-170"
    },
    {
        "city": "Belem",
        "state": "PA",
        "district": "Icoraci",
        "street": "Passagem Brasilia",
        "zipcode": "66820-040"
    },
    {
        "city": "Belem",
        "state": "PA",
        "district": "Icoraci",
        "street": "Quadra Tres (Lot Fe Em Deus)",
        "zipcode": "66820-200"
    },
    {
        "city": "Belem",
        "state": "PA",
        "district": "Tapana",
        "street": "Travessa Aguas Limpas",
        "zipcode": "66825-375"
    },
    {
        "city": "Belem",
        "state": "PA",
        "district": "Icoraci",
        "street": "Vila Sao Pedro",
        "zipcode": "66813-830"
    },
    {
        "city": "Belem",
        "state": "PA",
        "district": "Icoraci",
        "street": "Alameda Quatorze (Cafe Liberal)",
        "zipcode": "66820-420"
    },
    {
        "city": "Belem",
        "state": "PA",
        "district": "Icoraci",
        "street": "Rua Baltimore (Cj Tapajos)",
        "zipcode": "66823-340"
    },
    {
        "city": "Belem",
        "state": "PA",
        "district": "Icoraci",
        "street": "Alameda Oito (Cafe Liberal)",
        "zipcode": "66820-360"
    },
    {
        "city": "Belem",
        "state": "PA",
        "district": "Tapana",
        "street": "Travessa Siqueira",
        "zipcode": "66825-435"
    },
    {
        "city": "Belem",
        "state": "PA",
        "district": "Icoraci",
        "street": "Rua Canaa (Cj Tapajos)",
        "zipcode": "66823-270"
    },
    {
        "city": "Belem",
        "state": "PA",
        "district": "Icoraci",
        "street": "Rua Andorra (Cj Tapajos)",
        "zipcode": "66823-150"
    },
    {
        "city": "Belem",
        "state": "PA",
        "district": "Outeiro",
        "street": "Estrada Tucumaera",
        "zipcode": "66840-190"
    },
    {
        "city": "Belem",
        "state": "PA",
        "district": "Tapana",
        "street": "Rua Hanazira Souza",
        "zipcode": "66825-095"
    },
    {
        "city": "Belem",
        "state": "PA",
        "district": "Icoraci",
        "street": "Rua Sao Raimundo",
        "zipcode": "66820-270"
    },
    {
        "city": "Belem",
        "state": "PA",
        "district": "Icoraci",
        "street": "Alameda Nove (Cafe Liberal)",
        "zipcode": "66820-370"
    },
    {
        "city": "Belem",
        "state": "PA",
        "district": "Icoraci",
        "street": "Alameda Quatro (Cafe Liberal)",
        "zipcode": "66820-320"
    },
    {
        "city": "Belem",
        "state": "PA",
        "district": "Icoraci",
        "street": "Travessa L",
        "zipcode": "66815-320"
    },
    {
        "city": "Belem",
        "state": "PA",
        "district": "Icoraci",
        "street": "Rua Belmonte (Cj Tapajos)",
        "zipcode": "66823-310"
    },
    {
        "city": "Belem",
        "state": "PA",
        "district": "Icoraci",
        "street": "Alameda Dez (Cafe Liberal)",
        "zipcode": "66820-380"
    },
    {
        "city": "Belem",
        "state": "PA",
        "district": "Icoraci",
        "street": "Rua Seis (Lot Fe Em Deus)",
        "zipcode": "66820-750"
    },
    {
        "city": "Belem",
        "state": "PA",
        "district": "Icoraci",
        "street": "Passagem Vip",
        "zipcode": "66825-610"
    },
    {
        "city": "Belem",
        "state": "PA",
        "district": "Icoraci",
        "street": "Passagem Bom Fim",
        "zipcode": "66823-030"
    },
    {
        "city": "Belem",
        "state": "PA",
        "district": "Icoraci",
        "street": "Alameda Cinco (Cafe Liberal)",
        "zipcode": "66820-330"
    },
    {
        "city": "Belem",
        "state": "PA",
        "district": "Icoraci",
        "street": "Avenida Para",
        "zipcode": "66820-620"
    },
    {
        "city": "Belem",
        "state": "PA",
        "district": "Icoraci",
        "street": "Passagem Sao Lucas",
        "zipcode": "66820-260"
    },
    {
        "city": "Belem",
        "state": "PA",
        "district": "Icoraci",
        "street": "Alameda Sete (Cafe Liberal)",
        "zipcode": "66820-350"
    },
    {
        "city": "Belem",
        "state": "PA",
        "district": "Icoraci",
        "street": "Avenida Contorno Leste",
        "zipcode": "66815-020"
    },
    {
        "city": "Belem",
        "state": "PA",
        "district": "Icoraci",
        "street": "Rua Anhembi (Cj Tapajos)",
        "zipcode": "66823-140"
    },
    {
        "city": "Belem",
        "state": "PA",
        "district": "Icoraci",
        "street": "Passagem Novo Horizonte",
        "zipcode": "66825-540"
    },
    {
        "city": "Belem",
        "state": "PA",
        "district": "Icoraci",
        "street": "Passagem Libertacao",
        "zipcode": "66813-770"
    },
    {
        "city": "Belem",
        "state": "PA",
        "district": "Icoraci",
        "street": "Rua Balmoral (Cj Tapajos)",
        "zipcode": "66823-350"
    },
    {
        "city": "Belem",
        "state": "PA",
        "district": "Icoraci",
        "street": "Passagem Sao Joao",
        "zipcode": "66820-100"
    },
    {
        "city": "Belem",
        "state": "PA",
        "district": "Icoraci",
        "street": "Rua Assuan (Cj Tapajos)",
        "zipcode": "66823-120"
    },
    {
        "city": "Belem",
        "state": "PA",
        "district": "Icoraci",
        "street": "Rua Acapulco (Cj Tapajos)",
        "zipcode": "66823-210"
    },
    {
        "city": "Belem",
        "state": "PA",
        "district": "Icoraci",
        "street": "Passagem Picarreira",
        "zipcode": "66820-150"
    },
    {
        "city": "Belem",
        "state": "PA",
        "district": "Icoraci",
        "street": "Avenida Contorno Oeste",
        "zipcode": "66815-000"
    },
    {
        "city": "Belem",
        "state": "PA",
        "district": "Icoraci",
        "street": "Alameda Treze (Cafe Liberal)",
        "zipcode": "66820-410"
    },
    {
        "city": "Belem",
        "state": "PA",
        "district": "Outeiro",
        "street": "Estrada Itaiteua",
        "zipcode": "66840-210"
    },
    {
        "city": "Belem",
        "state": "PA",
        "district": "Outeiro",
        "street": "Passagem Sao Jose",
        "zipcode": "66840-350"
    },
    {
        "city": "Belem",
        "state": "PA",
        "district": "Outeiro",
        "street": "Avenida Nossa Senhora Da Conceicao",
        "zipcode": "66845-700"
    },
    {
        "city": "Belem",
        "state": "PA",
        "district": "Mosqueiro",
        "street": "Rua Da Pedreira",
        "zipcode": "66910-430"
    },
    {
        "city": "Belem",
        "state": "PA",
        "district": "Mosqueiro",
        "street": "Passagem Bela Vista",
        "zipcode": "66913-690"
    },
    {
        "city": "Belem",
        "state": "PA",
        "district": "Mosqueiro",
        "street": "Avenida Beira",
        "zipcode": "66915-000"
    },
    {
        "city": "Belem",
        "state": "PA",
        "district": "Mosqueiro",
        "street": "Praia Sao Francisco",
        "zipcode": "66915-110"
    },
    {
        "city": "Belem",
        "state": "PA",
        "district": "Outeiro",
        "street": "Travessa Pesqueira",
        "zipcode": "66843-000"
    },
    {
        "city": "Belem",
        "state": "PA",
        "district": "Mosqueiro",
        "street": "Praça Matriz",
        "zipcode": "66910-700"
    },
    {
        "city": "Belem",
        "state": "PA",
        "district": "Mosqueiro",
        "street": "Passagem Fabiano",
        "zipcode": "66913-730"
    },
    {
        "city": "Belem",
        "state": "PA",
        "district": "Outeiro",
        "street": "Passagem Da Fab",
        "zipcode": "66840-240"
    },
    {
        "city": "Belem",
        "state": "PA",
        "district": "Tapana",
        "street": "Alameda Sao Jose",
        "zipcode": "66823-790"
    },
    {
        "city": "Belem",
        "state": "PA",
        "district": "Icoraci",
        "street": "Passagem Dr Jose Maria",
        "zipcode": "66820-480"
    },
    {
        "city": "Belem",
        "state": "PA",
        "district": "Icoraci",
        "street": "Rua Bebedouro (Cj Tapajos)",
        "zipcode": "66823-320"
    },
    {
        "city": "Belem",
        "state": "PA",
        "district": "Mosqueiro",
        "street": "Rua Viveiro De Abreu",
        "zipcode": "66920-200"
    },
    {
        "city": "Belem",
        "state": "PA",
        "district": "Outeiro",
        "street": "Passagem Sao Clemente",
        "zipcode": "66845-620"
    },
    {
        "city": "Belem",
        "state": "PA",
        "district": "Mosqueiro",
        "street": "Rua Jose Mariano Cavaleiro De Macedo",
        "zipcode": "66915-155"
    },
    {
        "city": "Belem",
        "state": "PA",
        "district": "Mosqueiro",
        "street": "Travessa Lauro Bechara",
        "zipcode": "66910-670"
    },
    {
        "city": "Belem",
        "state": "PA",
        "district": "Outeiro",
        "street": "Passagem Queiroz",
        "zipcode": "66840-520"
    },
    {
        "city": "Belem",
        "state": "PA",
        "district": "Mosqueiro",
        "street": "Alameda Jonas Viveiros De Abreu",
        "zipcode": "66920-090"
    },
    {
        "city": "Belem",
        "state": "PA",
        "district": "Mosqueiro",
        "street": "Travessa Vila Nova",
        "zipcode": "66915-190"
    },
    {
        "city": "Belem",
        "state": "PA",
        "district": "Icoraci",
        "street": "Alameda Das Palmeiras",
        "zipcode": "66820-540"
    },
    {
        "city": "Belem",
        "state": "PA",
        "district": "Outeiro",
        "street": "Passagem Trindade",
        "zipcode": "66840-220"
    },
    {
        "city": "Belem",
        "state": "PA",
        "district": "Mosqueiro",
        "street": "Passagem Do Sambaiba",
        "zipcode": "66915-180"
    },
    {
        "city": "Belem",
        "state": "PA",
        "district": "Mosqueiro",
        "street": "Avenida Dezesseis De Novembro",
        "zipcode": "66913-000"
    },
    {
        "city": "Belem",
        "state": "PA",
        "district": "Icoraci",
        "street": "Rua Alsacia (Cj Tapajos)",
        "zipcode": "66823-190"
    },
    {
        "city": "Belem",
        "state": "PA",
        "district": "Outeiro",
        "street": "Rua Dr Luiz Moraes",
        "zipcode": "66843-410"
    },
    {
        "city": "Belem",
        "state": "PA",
        "district": "Outeiro",
        "street": "Colônia Do Fidelis",
        "zipcode": "66845-470"
    },
    {
        "city": "Belem",
        "state": "PA",
        "district": "Mosqueiro",
        "street": "Jardim Natal",
        "zipcode": "66920-130"
    },
    {
        "city": "Belem",
        "state": "PA",
        "district": "Mosqueiro",
        "street": "Rua Trinta E Um De Dezembro",
        "zipcode": "66913-650"
    },
    {
        "city": "Belem",
        "state": "PA",
        "district": "Mosqueiro",
        "street": "Rodovia Bl",
        "zipcode": "66920-030"
    },
    {
        "city": "Belem",
        "state": "PA",
        "district": "Mosqueiro",
        "street": "Estrada Do Caruara",
        "zipcode": "66920-050"
    },
    {
        "city": "Belem",
        "state": "PA",
        "district": "Icoraci",
        "street": "Passagem Nossa Senhora De Fatima",
        "zipcode": "66820-510"
    },
    {
        "city": "Belem",
        "state": "PA",
        "district": "Mosqueiro",
        "street": "Passagem Paul Ledoux",
        "zipcode": "66915-070"
    },
    {
        "city": "Belem",
        "state": "PA",
        "district": "Mosqueiro",
        "street": "Rua Magalhaes Barata",
        "zipcode": "66920-110"
    },
    {
        "city": "Belem",
        "state": "PA",
        "district": "Icoraci",
        "street": "Passagem Vidal",
        "zipcode": "66820-570"
    },
    {
        "city": "Belem",
        "state": "PA",
        "district": "Mosqueiro",
        "street": "Rua Palma Muniz",
        "zipcode": "66920-150"
    },
    {
        "city": "Belem",
        "state": "PA",
        "district": "Icoraci",
        "street": "Rua Independencia",
        "zipcode": "66830-170"
    },
    {
        "city": "Belem",
        "state": "PA",
        "district": "Outeiro",
        "street": "Avenida Projetada",
        "zipcode": "66845-180"
    },
    {
        "city": "Belem",
        "state": "PA",
        "district": "Outeiro",
        "street": "Travessa Da Tranquilidade",
        "zipcode": "66845-170"
    },
    {
        "city": "Belem",
        "state": "PA",
        "district": "Mosqueiro",
        "street": "Passagem Quebec",
        "zipcode": "66910-690"
    },
    {
        "city": "Belem",
        "state": "PA",
        "district": "Mosqueiro",
        "street": "Rua Joao De Deus",
        "zipcode": "66910-360"
    },
    {
        "city": "Belem",
        "state": "PA",
        "district": "Mosqueiro",
        "street": "Jardim Equatorial",
        "zipcode": "66913-425"
    },
    {
        "city": "Belem",
        "state": "PA",
        "district": "Outeiro",
        "street": "Passagem Assembleia De Deus",
        "zipcode": "66840-260"
    },
    {
        "city": "Belem",
        "state": "PA",
        "district": "Outeiro",
        "street": "Passagem Nossa Senhora De Fatima",
        "zipcode": "66840-780"
    },
    {
        "city": "Belem",
        "state": "PA",
        "district": "Mosqueiro",
        "street": "Rua Jonas Viveiros De Abreu",
        "zipcode": "66920-080"
    },
    {
        "city": "Belem",
        "state": "PA",
        "district": "Outeiro",
        "street": "Praia Grande",
        "zipcode": "66840-820"
    },
    {
        "city": "Belem",
        "state": "PA",
        "district": "Outeiro",
        "street": "Passagem Tres De Outubro",
        "zipcode": "66845-530"
    },
    {
        "city": "Belem",
        "state": "PA",
        "district": "Icoraci",
        "street": "Travessa Andrada",
        "zipcode": "66820-490"
    },
    {
        "city": "Belem",
        "state": "PA",
        "district": "Icoraci",
        "street": "Passagem Das Flores",
        "zipcode": "66820-560"
    },
    {
        "city": "Belem",
        "state": "PA",
        "district": "Icoraci",
        "street": "Estrada Do Tapana",
        "zipcode": "66823-020"
    },
    {
        "city": "Belem",
        "state": "PA",
        "district": "Outeiro",
        "street": "Rua Iraja",
        "zipcode": "66843-380"
    },
    {
        "city": "Belem",
        "state": "PA",
        "district": "Mosqueiro",
        "street": "Rua Agua Boa",
        "zipcode": "66920-000"
    },
    {
        "city": "Belem",
        "state": "PA",
        "district": "Condor",
        "street": "Rua Nova Segunda",
        "zipcode": "66033-580"
    },
    {
        "city": "Belem",
        "state": "PA",
        "district": "Campina",
        "street": "Rua Santo Antonio",
        "zipcode": "66010-090"
    },
    {
        "city": "Belem",
        "state": "PA",
        "district": "Campina",
        "street": "Rua Senador Manoel Barata",
        "zipcode": "66010-140"
    },
    {
        "city": "Belem",
        "state": "PA",
        "district": "Campina",
        "street": "Rua Senador Manoel Barata",
        "zipcode": "66019-000"
    },
    {
        "city": "Belem",
        "state": "PA",
        "district": "Batista Campos",
        "street": "Avenida Gentil Bittencourt",
        "zipcode": "66040-000"
    },
    {
        "city": "Belem",
        "state": "PA",
        "district": "Condor",
        "street": "Passagem Teixeira",
        "zipcode": "66045-490"
    },
    {
        "city": "Belem",
        "state": "PA",
        "district": "Cremacao",
        "street": "Rua Dos Pariquis",
        "zipcode": "66063-280"
    },
    {
        "city": "Belem",
        "state": "PA",
        "district": "Condor",
        "street": "Passagem Bugarim",
        "zipcode": "66065-170"
    },
    {
        "city": "Belem",
        "state": "PA",
        "district": "Pedreira",
        "street": "Avenida Pedro Miranda",
        "zipcode": "66080-000"
    },
    {
        "city": "Belem",
        "state": "PA",
        "district": "Pedreira",
        "street": "Travessa Alferes Costa",
        "zipcode": "66080-130"
    },
    {
        "city": "Belem",
        "state": "PA",
        "district": "Sacramenta",
        "street": "Travessa Perebebui",
        "zipcode": "66080-400"
    },
    {
        "city": "Belem",
        "state": "PA",
        "district": "Pedreira",
        "street": "Rua Nova",
        "zipcode": "66083-450"
    },
    {
        "city": "Belem",
        "state": "PA",
        "district": "Mangueirão",
        "street": "Alameda Mendara",
        "zipcode": "66640-002"
    },
    {
        "city": "Belem",
        "state": "PA",
        "district": "Castanheira",
        "street": "Avenida Pedro Álvares Cabral",
        "zipcode": "66645-901"
    },
    {
        "city": "Belem",
        "state": "PA",
        "district": "Jurunas",
        "street": "Vila Lobato",
        "zipcode": "66023-240"
    },
    {
        "city": "Belem",
        "state": "PA",
        "district": "Guama",
        "street": "Passagem Bom Sossego",
        "zipcode": "66073-100"
    },
    {
        "city": "Belem",
        "state": "PA",
        "district": "Guama",
        "street": "Rua Dos Mundurucus",
        "zipcode": "66077-810"
    },
    {
        "city": "Belem",
        "state": "PA",
        "district": "Guama",
        "street": "Passagem Beira Mar (Pantanal)",
        "zipcode": "66079-280"
    },
    {
        "city": "Belem",
        "state": "PA",
        "district": "Coqueiro",
        "street": "Quadra Vinte",
        "zipcode": "66670-192"
    },
    {
        "city": "Belem",
        "state": "PA",
        "district": "Pedreira",
        "street": "Vila Tertuliano",
        "zipcode": "66080-360"
    },
    {
        "city": "Belem",
        "state": "PA",
        "district": "Montese",
        "street": "Passagem Vinte E Cinco De Junho",
        "zipcode": "66070-570"
    },
    {
        "city": "Belem",
        "state": "PA",
        "district": "Águas Lindas",
        "street": "Rua Oliveira (Res Jardim Nova Vida)",
        "zipcode": "66690-831"
    },
    {
        "city": "Belem",
        "state": "PA",
        "district": "Telegrafo Sem Fio",
        "street": "Travessa Vileta",
        "zipcode": "66083-620"
    },
    {
        "city": "Belem",
        "state": "PA",
        "district": "Guama",
        "street": "Rua Barao De Igarape Miri",
        "zipcode": "66075-000"
    },
    {
        "city": "Belem",
        "state": "PA",
        "district": "Cremacao",
        "street": "Passagem Nazare",
        "zipcode": "66045-030"
    },
    {
        "city": "Belem",
        "state": "PA",
        "district": "Jurunas",
        "street": "Vila Valeria",
        "zipcode": "66023-830"
    },
    {
        "city": "Belem",
        "state": "PA",
        "district": "Montese",
        "street": "Passagem Perpetuo Socorro",
        "zipcode": "66077-500"
    },
    {
        "city": "Belem",
        "state": "PA",
        "district": "Telégrafo Sem Fio",
        "street": "Passagem Senador Lemos",
        "zipcode": "66113-093"
    },
    {
        "city": "Belem",
        "state": "PA",
        "district": "Águas Lindas",
        "street": "Rua Quatro de Junho (Res Jardim Nova Vida)",
        "zipcode": "66690-839"
    },
    {
        "city": "Belem",
        "state": "PA",
        "district": "Sao Braz",
        "street": "Avenida Governador Magalhaes Barata",
        "zipcode": "66060-670"
    },
    {
        "city": "Belem",
        "state": "PA",
        "district": "Cidade Velha",
        "street": "Vila Rodrigues",
        "zipcode": "66023-450"
    },
    {
        "city": "Belem",
        "state": "PA",
        "district": "Sao Braz",
        "street": "Vila Ceci",
        "zipcode": "66070-090"
    },
    {
        "city": "Belem",
        "state": "PA",
        "district": "Sao Braz",
        "street": "Travessa Nove De Janeiro",
        "zipcode": "66063-260"
    },
    {
        "city": "Belem",
        "state": "PA",
        "district": "Guama",
        "street": "Vila Cardoso",
        "zipcode": "66075-151"
    },
    {
        "city": "Belem",
        "state": "PA",
        "district": "Souza",
        "street": "Passagem Ana Deusa",
        "zipcode": "66613-852"
    },
    {
        "city": "Belem",
        "state": "PA",
        "district": "Montese",
        "street": "Rua Da Paz",
        "zipcode": "66079-460"
    },
    {
        "city": "Belem",
        "state": "PA",
        "district": "Guama",
        "street": "Alameda Dr Dionisio Bentes",
        "zipcode": "66073-680"
    },
    {
        "city": "Belem",
        "state": "PA",
        "district": "Guama",
        "street": "Rua Da Esperanca",
        "zipcode": "66079-040"
    },
    {
        "city": "Belem",
        "state": "PA",
        "district": "Souza",
        "street": "Passagem Tres De Novembro",
        "zipcode": "66610-630"
    },
    {
        "city": "Belem",
        "state": "PA",
        "district": "Guama",
        "street": "Avenida Presidente Tancredo De A. Neves",
        "zipcode": "66075-650"
    },
    {
        "city": "Belem",
        "state": "PA",
        "district": "Pedreira",
        "street": "Avenida Pedro Miranda",
        "zipcode": "66080-695"
    },
    {
        "city": "Belem",
        "state": "PA",
        "district": "Sacramenta",
        "street": "Passagem Mirandinha",
        "zipcode": "66115-700"
    },
    {
        "city": "Belem",
        "state": "PA",
        "district": "Sacramenta",
        "street": "Passagem Santa Luzia",
        "zipcode": "66120-170"
    },
    {
        "city": "Belem",
        "state": "PA",
        "district": "Sacramenta",
        "street": "Passagem Bom Jesus",
        "zipcode": "66120-225"
    },
    {
        "city": "Belem",
        "state": "PA",
        "district": "Souza",
        "street": "Passagem Major Eliezer Levy",
        "zipcode": "66610-700"
    },
    {
        "city": "Belem",
        "state": "PA",
        "district": "Souza",
        "street": "Alameda Firmo Dutra",
        "zipcode": "66610-720"
    },
    {
        "city": "Belem",
        "state": "PA",
        "district": "Souza",
        "street": "Avenida Almirante Barroso",
        "zipcode": "66610-830"
    },
    {
        "city": "Belem",
        "state": "PA",
        "district": "Marambaia",
        "street": "Passagem Bom Sossego",
        "zipcode": "66613-260"
    },
    {
        "city": "Belem",
        "state": "PA",
        "district": "Souza",
        "street": "Travessa I (Cj Costa E Silva)",
        "zipcode": "66613-330"
    },
    {
        "city": "Belem",
        "state": "PA",
        "district": "Souza",
        "street": "Rua Maruda",
        "zipcode": "66613-500"
    },
    {
        "city": "Belem",
        "state": "PA",
        "district": "Marambaia",
        "street": "Alameda Um",
        "zipcode": "66623-280"
    },
    {
        "city": "Belem",
        "state": "PA",
        "district": "Marambaia",
        "street": "Passagem Boa Esperanca",
        "zipcode": "66623-520"
    },
    {
        "city": "Belem",
        "state": "PA",
        "district": "Bengui",
        "street": "Passagem Cruzeiro",
        "zipcode": "66640-500"
    },
    {
        "city": "Belem",
        "state": "PA",
        "district": "Bengui",
        "street": "Travessa Seis (Jd Liberdade)",
        "zipcode": "66643-330"
    },
    {
        "city": "Belem",
        "state": "PA",
        "district": "Coqueiro",
        "street": "Rodovia Transcoqueiro (Ricardo Borges)",
        "zipcode": "66650-220"
    },
    {
        "city": "Belem",
        "state": "PA",
        "district": "Coqueiro",
        "street": "Passagem Sao Francisco",
        "zipcode": "66670-170"
    },
    {
        "city": "Belem",
        "state": "PA",
        "district": "Coqueiro",
        "street": "Quadra Dezoito",
        "zipcode": "66670-185"
    },
    {
        "city": "Belem",
        "state": "PA",
        "district": "Val",
        "street": "Passagem Rica",
        "zipcode": "66115-213"
    },
    {
        "city": "Belem",
        "state": "PA",
        "district": "Souza",
        "street": "Passagem Santa Clara",
        "zipcode": "66610-660"
    },
    {
        "city": "Belem",
        "state": "PA",
        "district": "Souza",
        "street": "Alameda Ns",
        "zipcode": "66613-430"
    },
    {
        "city": "Belem",
        "state": "PA",
        "district": "Val",
        "street": "Passagem Mariza",
        "zipcode": "66120-250"
    },
    {
        "city": "Belem",
        "state": "PA",
        "district": "Nova Marambaia",
        "street": "Passagem Acacia",
        "zipcode": "66615-695"
    },
    {
        "city": "Belem",
        "state": "PA",
        "district": "Icoraci",
        "street": "Rua Quinze De Agosto",
        "zipcode": "66810-120"
    },
    {
        "city": "Belem",
        "state": "PA",
        "district": "Icoraci",
        "street": "Alameda Aires Moy",
        "zipcode": "66810-310"
    },
    {
        "city": "Belem",
        "state": "PA",
        "district": "Nova Marambaia",
        "street": "Passagem Primeiro De Agosto",
        "zipcode": "66635-750"
    },
    {
        "city": "Belem",
        "state": "PA",
        "district": "Nova Marambaia",
        "street": "Passagem Sao Jose",
        "zipcode": "66620-840"
    },
    {
        "city": "Belem",
        "state": "PA",
        "district": "Mangueirao",
        "street": "Quadra Um",
        "zipcode": "66625-000"
    },
    {
        "city": "Belem",
        "state": "PA",
        "district": "Souza",
        "street": "Passagem Sao Jorge",
        "zipcode": "66613-230"
    },
    {
        "city": "Belem",
        "state": "PA",
        "district": "Mangueirao",
        "street": "Quadra Sete",
        "zipcode": "66625-007"
    },
    {
        "city": "Belem",
        "state": "PA",
        "district": "Souza",
        "street": "Vila Olinda",
        "zipcode": "66610-545"
    },
    {
        "city": "Belem",
        "state": "PA",
        "district": "Atalaia",
        "street": "Passagem Marloo",
        "zipcode": "66645-330"
    },
    {
        "city": "Belem",
        "state": "PA",
        "district": "Nova Marambaia",
        "street": "Rua Bom Sucesso",
        "zipcode": "66635-710"
    },
    {
        "city": "Belem",
        "state": "PA",
        "district": "Bengui",
        "street": "Travessa Do Amor Perfeito",
        "zipcode": "66643-430"
    },
    {
        "city": "Belem",
        "state": "PA",
        "district": "Val",
        "street": "Vila Batista",
        "zipcode": "66110-700"
    },
    {
        "city": "Belem",
        "state": "PA",
        "district": "Souza",
        "street": "Travessa E (Cj Costa E Silva)",
        "zipcode": "66613-380"
    },
    {
        "city": "Belem",
        "state": "PA",
        "district": "Bengui",
        "street": "Rua Das Margaridas",
        "zipcode": "66643-380"
    },
    {
        "city": "Belem",
        "state": "PA",
        "district": "Souza",
        "street": "Passagem Aurora",
        "zipcode": "66623-720"
    },
    {
        "city": "Belem",
        "state": "PA",
        "district": "Marco",
        "street": "Vila Estreita",
        "zipcode": "66087-580"
    },
    {
        "city": "Belem",
        "state": "PA",
        "district": "Nova Marambaia",
        "street": "Avenida Amazonia",
        "zipcode": "66655-080"
    },
    {
        "city": "Belem",
        "state": "PA",
        "district": "Nova Marambaia",
        "street": "Passagem Santa Maria",
        "zipcode": "66635-645"
    },
    {
        "city": "Belem",
        "state": "PA",
        "district": "Atalaia",
        "street": "Conjunto Caldas Novas",
        "zipcode": "66645-530"
    },
    {
        "city": "Belem",
        "state": "PA",
        "district": "Val",
        "street": "Passagem Brigadeiro Cecche",
        "zipcode": "66617-410"
    },
    {
        "city": "Belem",
        "state": "PA",
        "district": "Souza",
        "street": "Travessa Dez",
        "zipcode": "66623-390"
    },
    {
        "city": "Belem",
        "state": "PA",
        "district": "Val",
        "street": "Passagem Do Fio",
        "zipcode": "66115-490"
    },
    {
        "city": "Belem",
        "state": "PA",
        "district": "Nova Marambaia",
        "street": "Passagem Tupi",
        "zipcode": "66635-620"
    },
    {
        "city": "Belem",
        "state": "PA",
        "district": "Castanheira",
        "street": "Travessa Sete",
        "zipcode": "66623-324"
    },
    {
        "city": "Belem",
        "state": "PA",
        "district": "Canudos",
        "street": "Vila Adelina Sobral",
        "zipcode": "66090-110"
    },
    {
        "city": "Belem",
        "state": "PA",
        "district": "Souza",
        "street": "Rua Alvaro Adolfo",
        "zipcode": "66623-660"
    },
    {
        "city": "Belem",
        "state": "PA",
        "district": "Castanheira",
        "street": "Travessa Oito",
        "zipcode": "66623-331"
    },
    {
        "city": "Belem",
        "state": "PA",
        "district": "Nova Marambaia",
        "street": "Avenida Jose Carneiro",
        "zipcode": "66635-670"
    },
    {
        "city": "Belem",
        "state": "PA",
        "district": "Pedreira",
        "street": "Vila L",
        "zipcode": "66085-665"
    },
    {
        "city": "Belem",
        "state": "PA",
        "district": "Souza",
        "street": "Passagem Nossa Senhora Aparecida",
        "zipcode": "66610-580"
    },
    {
        "city": "Belem",
        "state": "PA",
        "district": "Val",
        "street": "Passagem Jader Barbalho",
        "zipcode": "66110-320"
    },
    {
        "city": "Belem",
        "state": "PA",
        "district": "Sao Braz",
        "street": "Vila Sao Jorge",
        "zipcode": "66093-640"
    },
    {
        "city": "Belem",
        "state": "PA",
        "district": "Souza",
        "street": "Passagem Jader Barbalho Ii",
        "zipcode": "66610-800"
    },
    {
        "city": "Belem",
        "state": "PA",
        "district": "Souza",
        "street": "Travessa K (Cj Costa E Silva)",
        "zipcode": "66613-770"
    },
    {
        "city": "Belem",
        "state": "PA",
        "district": "Val",
        "street": "Passagem Santa Barbara",
        "zipcode": "66115-300"
    },
    {
        "city": "Belem",
        "state": "PA",
        "district": "Coqueiro",
        "street": "Quadra Sete",
        "zipcode": "66670-189"
    },
    {
        "city": "Belem",
        "state": "PA",
        "district": "Icoraci",
        "street": "Vila Santo Assis",
        "zipcode": "66810-390"
    },
    {
        "city": "Belem",
        "state": "PA",
        "district": "Icoraci",
        "street": "Vila Ceara",
        "zipcode": "66810-360"
    },
    {
        "city": "Belem",
        "state": "PA",
        "district": "Bengui",
        "street": "Travessa Oito De Marco",
        "zipcode": "66643-185"
    },
    {
        "city": "Belem",
        "state": "PA",
        "district": "Icoraci",
        "street": "Rua Dois De Dezembro",
        "zipcode": "66810-150"
    },
    {
        "city": "Belem",
        "state": "PA",
        "district": "Guanabara",
        "street": "Passagem Quinze De Outubro",
        "zipcode": "66645-580"
    },
    {
        "city": "Belem",
        "state": "PA",
        "district": "Outeiro",
        "street": "Rua Da Irmandade",
        "zipcode": "66845-230"
    },
    {
        "city": "Belem",
        "state": "PA",
        "district": "Mosqueiro",
        "street": "Alameda Asclepiades",
        "zipcode": "66913-680"
    },
    {
        "city": "Belem",
        "state": "PA",
        "district": "Mosqueiro",
        "street": "Passagem Bento Amador",
        "zipcode": "66913-710"
    },
    {
        "city": "Belem",
        "state": "PA",
        "district": "Mosqueiro",
        "street": "Passagem Vitoria",
        "zipcode": "66915-080"
    },
    {
        "city": "Belem",
        "state": "PA",
        "district": "Mosqueiro",
        "street": "Praia Marahu",
        "zipcode": "66920-120"
    },
    {
        "city": "Belem",
        "state": "PA",
        "district": "Jurunas",
        "street": "Vila Sao Lourenco",
        "zipcode": "66025-510"
    },
    {
        "city": "Belem",
        "state": "PA",
        "district": "Jurunas",
        "street": "Passagem Moura Carvalho",
        "zipcode": "66025-720"
    },
    {
        "city": "Belem",
        "state": "PA",
        "district": "Cremacao",
        "street": "Rua Dos Timbiras",
        "zipcode": "66040-470"
    },
    {
        "city": "Belem",
        "state": "PA",
        "district": "Cremacao",
        "street": "Avenida Alcindo Cacela",
        "zipcode": "66045-090"
    },
    {
        "city": "Belem",
        "state": "PA",
        "district": "Cremacao",
        "street": "Rua Dos Mundurucus",
        "zipcode": "66063-230"
    },
    {
        "city": "Belem",
        "state": "PA",
        "district": "Condor",
        "street": "Passagem Sao Jose",
        "zipcode": "66065-425"
    },
    {
        "city": "Belem",
        "state": "PA",
        "district": "Condor",
        "street": "Passagem Sao Jorge",
        "zipcode": "66065-680"
    },
    {
        "city": "Belem",
        "state": "PA",
        "district": "Pedreira",
        "street": "Travessa Mariz E Barros",
        "zipcode": "66080-660"
    },
    {
        "city": "Belem",
        "state": "PA",
        "district": "Pedreira",
        "street": "Avenida Marques De Herval",
        "zipcode": "66085-310"
    },
    {
        "city": "Belem",
        "state": "PA",
        "district": "Pedreira",
        "street": "Avenida Visconde De Inhauma",
        "zipcode": "66085-730"
    },
    {
        "city": "Belem",
        "state": "PA",
        "district": "Marco",
        "street": "Passagem Augusto Numa Pinto",
        "zipcode": "66087-250"
    },
    {
        "city": "Belem",
        "state": "PA",
        "district": "Marco",
        "street": "Travessa Alferes Costa",
        "zipcode": "66087-660"
    },
    {
        "city": "Belem",
        "state": "PA",
        "district": "Marco",
        "street": "Travessa Humaita",
        "zipcode": "66093-110"
    },
    {
        "city": "Belem",
        "state": "PA",
        "district": "Marco",
        "street": "Travessa Vileta",
        "zipcode": "66093-380"
    },
    {
        "city": "Belem",
        "state": "PA",
        "district": "Marco",
        "street": "Travessa Perebebui",
        "zipcode": "66095-450"
    },
    {
        "city": "Belem",
        "state": "PA",
        "district": "Marco",
        "street": "Travessa Timbo",
        "zipcode": "66095-750"
    },
    {
        "city": "Belem",
        "state": "PA",
        "district": "Sacramenta",
        "street": "Avenida Senador Lemos",
        "zipcode": "66113-730"
    },
    {
        "city": "Belem",
        "state": "PA",
        "district": "Pedreira",
        "street": "Passagem Conceicao",
        "zipcode": "66120-530"
    },
    {
        "city": "Belem",
        "state": "PA",
        "district": "Icoraci",
        "street": "Conjunto Tenone Ii",
        "zipcode": "66823-440"
    },
    {
        "city": "Belem",
        "state": "PA",
        "district": "Marco",
        "street": "Travessa Antonio Baena",
        "zipcode": "66093-550"
    },
    {
        "city": "Belem",
        "state": "PA",
        "district": "Icoraci",
        "street": "Rua Candeias (Cj Tapajos)",
        "zipcode": "66823-260"
    },
    {
        "city": "Belem",
        "state": "PA",
        "district": "Icoraci",
        "street": "Rua Belterra (Cj Tapajos)",
        "zipcode": "66823-300"
    },
    {
        "city": "Belem",
        "state": "PA",
        "district": "Outeiro",
        "street": "Passagem Dezesseis De Novembro",
        "zipcode": "66845-520"
    },
    {
        "city": "Belem",
        "state": "PA",
        "district": "Mosqueiro",
        "street": "Rua Primeiro De Janeiro",
        "zipcode": "66910-710"
    },
    {
        "city": "Belem",
        "state": "PA",
        "district": "Souza",
        "street": "Passagem Santa Maria",
        "zipcode": "66120-400"
    },
    {
        "city": "Belem",
        "state": "PA",
        "district": "Tapana",
        "street": "Rua Castanheira",
        "zipcode": "66825-075"
    },
    {
        "city": "Belem",
        "state": "PA",
        "district": "Sao Braz",
        "street": "Vila Gualo",
        "zipcode": "66063-440"
    },
    {
        "city": "Belem",
        "state": "PA",
        "district": "Outeiro",
        "street": "Ramal Do Itaiteua",
        "zipcode": "66840-200"
    },
    {
        "city": "Belem",
        "state": "PA",
        "district": "Mosqueiro",
        "street": "Travessa Rodolfo Pampolha",
        "zipcode": "66910-180"
    },
    {
        "city": "Belem",
        "state": "PA",
        "district": "Reduto",
        "street": "Passagem Honorato Filgueira",
        "zipcode": "66060-730"
    },
    {
        "city": "Belem",
        "state": "PA",
        "district": "Jurunas",
        "street": "Passagem Coracao De Jesus",
        "zipcode": "66033-250"
    },
    {
        "city": "Belem",
        "state": "PA",
        "district": "Icoraci",
        "street": "Rua Antilhas (Cj Tapajos)",
        "zipcode": "66823-130"
    },
    {
        "city": "Belem",
        "state": "PA",
        "district": "Mosqueiro",
        "street": "Estrada Furo Das Marinhas",
        "zipcode": "66920-070"
    },
    {
        "city": "Belem",
        "state": "PA",
        "district": "Tapana",
        "street": "Travessa Liberdade",
        "zipcode": "66825-395"
    },
    {
        "city": "Belem",
        "state": "PA",
        "district": "Nazare",
        "street": "Vila Mariana",
        "zipcode": "66055-380"
    },
    {
        "city": "Belem",
        "state": "PA",
        "district": "Mosqueiro",
        "street": "Estrada Do Bonfim",
        "zipcode": "66915-160"
    },
    {
        "city": "Belem",
        "state": "PA",
        "district": "Icoraci",
        "street": "Travessa Antonieta",
        "zipcode": "66810-550"
    },
    {
        "city": "Belem",
        "state": "PA",
        "district": "Icoraci",
        "street": "Passagem Sao Geraldo",
        "zipcode": "66820-680"
    },
    {
        "city": "Belem",
        "state": "PA",
        "district": "Reduto",
        "street": "Alameda Maria Nobrega",
        "zipcode": "66053-370"
    },
    {
        "city": "Belem",
        "state": "PA",
        "district": "Guama",
        "street": "Vila Bom Jesus",
        "zipcode": "66065-150"
    },
    {
        "city": "Belem",
        "state": "PA",
        "district": "Pedreira",
        "street": "Passagem Brasilia",
        "zipcode": "66060-070"
    },
    {
        "city": "Belem",
        "state": "PA",
        "district": "Icoraci",
        "street": "Estrada Sao Clemente",
        "zipcode": "66830-330"
    },
    {
        "city": "Belem",
        "state": "PA",
        "district": "Icoraci",
        "street": "Rua Aleutas (Cj Tapajos)",
        "zipcode": "66823-180"
    },
    {
        "city": "Belem",
        "state": "PA",
        "district": "Outeiro",
        "street": "Passagem Manoel Dias",
        "zipcode": "66840-250"
    },
    {
        "city": "Belem",
        "state": "PA",
        "district": "Sao Braz",
        "street": "Vila Americo Sobral",
        "zipcode": "66070-030"
    },
    {
        "city": "Belem",
        "state": "PA",
        "district": "Cremacao",
        "street": "Vila Menezes",
        "zipcode": "66065-770"
    },
    {
        "city": "Belem",
        "state": "PA",
        "district": "Icoraci",
        "street": "Rua Sete (Lot Fe Em Deus)",
        "zipcode": "66820-810"
    },
    {
        "city": "Belem",
        "state": "PA",
        "district": "Marco",
        "street": "Passagem Fe Em Deus",
        "zipcode": "66095-140"
    },
    {
        "city": "Belem",
        "state": "PA",
        "district": "Icoraci",
        "street": "Rua Elcione Barbalho (Lot Fe Em Deus)",
        "zipcode": "66820-590"
    },
    {
        "city": "Belem",
        "state": "PA",
        "district": "Souza",
        "street": "Passagem Primeiro De Setembro",
        "zipcode": "66120-470"
    },
    {
        "city": "Belem",
        "state": "PA",
        "district": "Outeiro",
        "street": "Passagem Das Flores",
        "zipcode": "66840-680"
    },
    {
        "city": "Belem",
        "state": "PA",
        "district": "Guama",
        "street": "Vila Pedreirinha",
        "zipcode": "66075-610"
    },
    {
        "city": "Belem",
        "state": "PA",
        "district": "Fatima",
        "street": "Vila Socorro",
        "zipcode": "66063-580"
    },
    {
        "city": "Belem",
        "state": "PA",
        "district": "Pedreira",
        "street": "Travessa Lomas Valentina",
        "zipcode": "66087-440"
    },
    {
        "city": "Belem",
        "state": "PA",
        "district": "Outeiro",
        "street": "Travessa Icarai",
        "zipcode": "66843-020"
    },
    {
        "city": "Belem",
        "state": "PA",
        "district": "Outeiro",
        "street": "Passagem Amoras",
        "zipcode": "66845-510"
    },
    {
        "city": "Belem",
        "state": "PA",
        "district": "Icoraci",
        "street": "Vila Do Hosana",
        "zipcode": "66810-450"
    },
    {
        "city": "Belem",
        "state": "PA",
        "district": "Pedreira",
        "street": "Passagem Magalhaes",
        "zipcode": "66120-570"
    },
    {
        "city": "Belem",
        "state": "PA",
        "district": "Souza",
        "street": "Passagem Nossa Senhora Das Gracas",
        "zipcode": "66120-600"
    },
    {
        "city": "Belem",
        "state": "PA",
        "district": "Souza",
        "street": "Passagem Maria Cunha",
        "zipcode": "66120-810"
    },
    {
        "city": "Belem",
        "state": "PA",
        "district": "Souza",
        "street": "Passagem Belem",
        "zipcode": "66123-355"
    },
    {
        "city": "Belem",
        "state": "PA",
        "district": "Sacramenta",
        "street": "Passagem Sao Jorge",
        "zipcode": "66123-590"
    },
    {
        "city": "Belem",
        "state": "PA",
        "district": "Souza",
        "street": "Avenida Almirante Barroso",
        "zipcode": "66610-060"
    },
    {
        "city": "Belem",
        "state": "PA",
        "district": "Souza",
        "street": "Alameda Jose Da Silva Matos",
        "zipcode": "66610-500"
    },
    {
        "city": "Belem",
        "state": "PA",
        "district": "Marambaia",
        "street": "Rua A",
        "zipcode": "66615-760"
    },
    {
        "city": "Belem",
        "state": "PA",
        "district": "Bengui",
        "street": "Passagem Santa Maria",
        "zipcode": "66633-290"
    },
    {
        "city": "Belem",
        "state": "PA",
        "district": "Bengui",
        "street": "Passagem Oliveira",
        "zipcode": "66633-320"
    },
    {
        "city": "Belem",
        "state": "PA",
        "district": "Agulha",
        "street": "Alameda C",
        "zipcode": "66813-645"
    },
    {
        "city": "Belem",
        "state": "PA",
        "district": "Agulha",
        "street": "Alameda F",
        "zipcode": "66813-675"
    },
    {
        "city": "Belem",
        "state": "PA",
        "district": "Agulha",
        "street": "Alameda I",
        "zipcode": "66813-705"
    },
    {
        "city": "Belem",
        "state": "PA",
        "district": "Agulha",
        "street": "Alameda M",
        "zipcode": "66813-745"
    },
    {
        "city": "Belem",
        "state": "PA",
        "district": "Icoraci",
        "street": "Travessa Dos Berredos",
        "zipcode": "66813-120"
    },
    {
        "city": "Belem",
        "state": "PA",
        "district": "Mangueirao",
        "street": "Rua Vinte E Oito",
        "zipcode": "66625-034"
    },
    {
        "city": "Belem",
        "state": "PA",
        "district": "Mangueirao",
        "street": "Quadra Dezesseis",
        "zipcode": "66625-021"
    },
    {
        "city": "Belem",
        "state": "PA",
        "district": "Mangueirao",
        "street": "Quadra Trinta E Tres",
        "zipcode": "66625-041"
    },
    {
        "city": "Belem",
        "state": "PA",
        "district": "Nova Marambaia",
        "street": "Passagem Bons Amigos",
        "zipcode": "66635-440"
    },
    {
        "city": "Belem",
        "state": "PA",
        "district": "Icoraci",
        "street": "Alameda Seis (Cafe Liberal)",
        "zipcode": "66820-340"
    },
    {
        "city": "Belem",
        "state": "PA",
        "district": "Bengui",
        "street": "Passagem Nossa Senhora Das Gracas",
        "zipcode": "66633-240"
    },
    {
        "city": "Belem",
        "state": "PA",
        "district": "Nova Marambaia",
        "street": "Rua Vinte E Tres De Junho",
        "zipcode": "66635-780"
    },
    {
        "city": "Belem",
        "state": "PA",
        "district": "Mangueirao",
        "street": "Quadra Vinte E Dois",
        "zipcode": "66625-027"
    },
    {
        "city": "Belem",
        "state": "PA",
        "district": "Bengui",
        "street": "Rua Lameira Bittencourt",
        "zipcode": "66633-420"
    },
    {
        "city": "Belem",
        "state": "PA",
        "district": "Val",
        "street": "Passagem Caju",
        "zipcode": "66120-660"
    },
    {
        "city": "Belem",
        "state": "PA",
        "district": "Icoraci",
        "street": "Passagem Sao Francisco",
        "zipcode": "66820-450"
    },
    {
        "city": "Belem",
        "state": "PA",
        "district": "Icoraci",
        "street": "Alameda Gouveia",
        "zipcode": "66820-550"
    },
    {
        "city": "Belem",
        "state": "PA",
        "district": "Souza",
        "street": "Passagem Nossa Senhora De Nazare",
        "zipcode": "66120-740"
    },
    {
        "city": "Belem",
        "state": "PA",
        "district": "Souza",
        "street": "Alameda Principal (Cj Basa)",
        "zipcode": "66610-445"
    },
    {
        "city": "Belem",
        "state": "PA",
        "district": "Icoraci",
        "street": "Passagem Oliveira",
        "zipcode": "66820-220"
    },
    {
        "city": "Belem",
        "state": "PA",
        "district": "Souza",
        "street": "Passagem Henrique Engelhard",
        "zipcode": "66610-300"
    },
    {
        "city": "Belem",
        "state": "PA",
        "district": "Souza",
        "street": "Passagem Coracao De Jesus",
        "zipcode": "66610-430"
    },
    {
        "city": "Belem",
        "state": "PA",
        "district": "Coqueiro",
        "street": "Quadra Vinte E Um",
        "zipcode": "66670-194"
    },
    {
        "city": "Belem",
        "state": "PA",
        "district": "Curio",
        "street": "Passagem Novo Horizonte Ii",
        "zipcode": "66610-475"
    },
    {
        "city": "Belem",
        "state": "PA",
        "district": "Souza",
        "street": "Alameda Da Paz",
        "zipcode": "66610-385"
    },
    {
        "city": "Belem",
        "state": "PA",
        "district": "Icoraci",
        "street": "Passagem Deusa",
        "zipcode": "66820-500"
    },
    {
        "city": "Belem",
        "state": "PA",
        "district": "Icoraci",
        "street": "Passagem Ultramar",
        "zipcode": "66820-140"
    },
    {
        "city": "Belem",
        "state": "PA",
        "district": "Nova Marambaia",
        "street": "Rua Do Fio",
        "zipcode": "66633-530"
    },
    {
        "city": "Belem",
        "state": "PA",
        "district": "Castanheira",
        "street": "Travessa Seis",
        "zipcode": "66623-323"
    },
    {
        "city": "Belem",
        "state": "PA",
        "district": "Icoraci",
        "street": "Rua Tancredo Neves (Lot Fe Em Deus)",
        "zipcode": "66820-580"
    },
    {
        "city": "Belem",
        "state": "PA",
        "district": "Icoraci",
        "street": "Passagem Santa Delcia",
        "zipcode": "66813-600"
    },
    {
        "city": "Belem",
        "state": "PA",
        "district": "Bengui",
        "street": "Passagem Deus E Bom Pai",
        "zipcode": "66633-370"
    },
    {
        "city": "Belem",
        "state": "PA",
        "district": "Nova Marambaia",
        "street": "Rodovia Augusto Montenegro",
        "zipcode": "66625-280"
    },
    {
        "city": "Belem",
        "state": "PA",
        "district": "Bengui",
        "street": "Passagem Nossa Senhora De Nazare",
        "zipcode": "66630-733"
    },
    {
        "city": "Belem",
        "state": "PA",
        "district": "Nova Marambaia",
        "street": "Passagem Damasco",
        "zipcode": "66633-470"
    },
    {
        "city": "Belem",
        "state": "PA",
        "district": "Souza",
        "street": "Rua Mariano",
        "zipcode": "66610-540"
    },
    {
        "city": "Belem",
        "state": "PA",
        "district": "Icoraci",
        "street": "Travessa S",
        "zipcode": "66815-080"
    },
    {
        "city": "Belem",
        "state": "PA",
        "district": "Icoraci",
        "street": "Alameda Onze (Cafe Liberal)",
        "zipcode": "66820-390"
    },
    {
        "city": "Belem",
        "state": "PA",
        "district": "Nova Marambaia",
        "street": "Rua Sao Domingos",
        "zipcode": "66635-015"
    },
    {
        "city": "Belem",
        "state": "PA",
        "district": "Icoraci",
        "street": "Passagem Santa Helena",
        "zipcode": "66813-350"
    },
    {
        "city": "Belem",
        "state": "PA",
        "district": "Mosqueiro",
        "street": "Passagem Farah",
        "zipcode": "66913-720"
    },
    {
        "city": "Belem",
        "state": "PA",
        "district": "Nova Marambaia",
        "street": "Passagem Treze De Maio",
        "zipcode": "66635-615"
    },
    {
        "city": "Belem",
        "state": "PA",
        "district": "Icoraci",
        "street": "Vila Ana Paula",
        "zipcode": "66813-810"
    },
    {
        "city": "Belem",
        "state": "PA",
        "district": "Icoraci",
        "street": "Estrada Da Ascencao",
        "zipcode": "66815-600"
    },
    {
        "city": "Belem",
        "state": "PA",
        "district": "Souza",
        "street": "Avenida Joaquim Soares Diniz",
        "zipcode": "66123-520"
    }
]