[
    {
        "city": "Capanema",
        "state": "PA",
        "district": "Dom Joao Vi",
        "street": "Avenida Presidente Medici",
        "zipcode": "68701-000"
    },
    {
        "city": "Capanema",
        "state": "PA",
        "district": "Três de Maio",
        "street": "Passagem Tucumã",
        "zipcode": "68701-203"
    },
    {
        "city": "Capanema",
        "state": "PA",
        "district": "Oliveira Brito",
        "street": "Passagem Neco Barbosa",
        "zipcode": "68700-440"
    },
    {
        "city": "Capanema",
        "state": "PA",
        "district": "Motocros",
        "street": "Passagem Juliana Araújo",
        "zipcode": "68701-470"
    },
    {
        "city": "Capanema",
        "state": "PA",
        "district": "Santa Luzia",
        "street": "Travessa Projetada V (São João Batista)",
        "zipcode": "68704-106"
    },
    {
        "city": "Capanema",
        "state": "PA",
        "district": "Santa Luzia",
        "street": "Rua Um (Cj. Sabta Luzia)",
        "zipcode": "68704-001"
    },
    {
        "city": "Capanema",
        "state": "PA",
        "district": "Inussun",
        "street": "Passagem Francisco Pereira",
        "zipcode": "68702-156"
    },
    {
        "city": "Capanema",
        "state": "PA",
        "district": "Oliveira Brito",
        "street": "Rua Projetada VI",
        "zipcode": "68700-527"
    },
    {
        "city": "Capanema",
        "state": "PA",
        "district": "Areia Branca",
        "street": "Rua Projetada II (Jaime Pereira)",
        "zipcode": "68703-012"
    },
    {
        "city": "Capanema",
        "state": "PA",
        "district": "Areia Branca",
        "street": "Rua Projetada III",
        "zipcode": "68703-013"
    },
    {
        "city": "Capanema",
        "state": "PA",
        "district": "Almir Gabriel",
        "street": "Rua Jorge Costa",
        "zipcode": "68703-339"
    },
    {
        "city": "Capanema",
        "state": "PA",
        "district": "Oliveira Brito",
        "street": "Passagem Mundurucus",
        "zipcode": "68701-310"
    },
    {
        "city": "Capanema",
        "state": "PA",
        "district": "Três de Maio",
        "street": "Passagem Nezinho Oliveira",
        "zipcode": "68701-208"
    },
    {
        "city": "Capanema",
        "state": "PA",
        "district": "São Pedro e São Paulo",
        "street": "Travessa Tulipa (Res Prfa Gercina de Oliveira)",
        "zipcode": "68701-843"
    },
    {
        "city": "Capanema",
        "state": "PA",
        "district": "Santa Luzia",
        "street": "Travessa Projetada IV (São João Batista)",
        "zipcode": "68704-104"
    },
    {
        "city": "Capanema",
        "state": "PA",
        "district": "Igrejinha",
        "street": "Rua Frei Hermes Recanatti",
        "zipcode": "68700-250"
    },
    {
        "city": "Capanema",
        "state": "PA",
        "district": "Centro",
        "street": "Passagem Felipe Silva",
        "zipcode": "68700-180"
    },
    {
        "city": "Capanema",
        "state": "PA",
        "district": "Igrejinha",
        "street": "Passagem João Flor",
        "zipcode": "68700-213"
    },
    {
        "city": "Capanema",
        "state": "PA",
        "district": "Igrejinha",
        "street": "Passagem Floriano",
        "zipcode": "68700-212"
    },
    {
        "city": "Capanema",
        "state": "PA",
        "district": "Dom João VI",
        "street": "Travessa Cabanos",
        "zipcode": "68701-020"
    },
    {
        "city": "Capanema",
        "state": "PA",
        "district": "Centro",
        "street": "Travessa César Pinheiro",
        "zipcode": "68700-070"
    },
    {
        "city": "Capanema",
        "state": "PA",
        "district": "Pedreira",
        "street": "Quadra Um (Portelinha)",
        "zipcode": "68703-241"
    },
    {
        "city": "Capanema",
        "state": "PA",
        "district": "Dom João VI",
        "street": "Travessa César Pinheiro",
        "zipcode": "68701-110"
    },
    {
        "city": "Capanema",
        "state": "PA",
        "district": "Centro",
        "street": "Travessa Djalma Dutra",
        "zipcode": "68700-020"
    },
    {
        "city": "Capanema",
        "state": "PA",
        "district": "Dom João VI",
        "street": "Travessa Dom João VI",
        "zipcode": "68701-090"
    },
    {
        "city": "Capanema",
        "state": "PA",
        "district": "Dom João VI",
        "street": "Rua Duque de Caxias",
        "zipcode": "68701-190"
    },
    {
        "city": "Capanema",
        "state": "PA",
        "district": "Caixa Dágua",
        "street": "Rua Eduardo Angelin",
        "zipcode": "68700-680"
    },
    {
        "city": "Capanema",
        "state": "PA",
        "district": "Dom João VI",
        "street": "Passagem da Estação",
        "zipcode": "68701-160"
    },
    {
        "city": "Capanema",
        "state": "PA",
        "district": "Samambaia",
        "street": "Travessa Euclides Cumaru",
        "zipcode": "68700-280"
    },
    {
        "city": "Capanema",
        "state": "PA",
        "district": "Caixa Dágua",
        "street": "Rua Jaime Nascimento Costa",
        "zipcode": "68700-670"
    },
    {
        "city": "Capanema",
        "state": "PA",
        "district": "Caixa Dágua",
        "street": "Passagem João Coelho",
        "zipcode": "68700-690"
    },
    {
        "city": "Capanema",
        "state": "PA",
        "district": "Dom João VI",
        "street": "Travessa Jorge Maia",
        "zipcode": "68701-100"
    },
    {
        "city": "Capanema",
        "state": "PA",
        "district": "Três de Maio",
        "street": "Travessa Juscelino Kubitschek",
        "zipcode": "68701-230"
    },
    {
        "city": "Capanema",
        "state": "PA",
        "district": "Centro",
        "street": "Travessa Justo Chermont",
        "zipcode": "68700-120"
    },
    {
        "city": "Capanema",
        "state": "PA",
        "district": "Igrejinha",
        "street": "Travessa do Lago",
        "zipcode": "68700-220"
    },
    {
        "city": "Capanema",
        "state": "PA",
        "district": "Pedreira",
        "street": "Rua Nova",
        "zipcode": "68703-280"
    },
    {
        "city": "Capanema",
        "state": "PA",
        "district": "Centro",
        "street": "Travessa Oriental do Mercado",
        "zipcode": "68700-100"
    },
    {
        "city": "Capanema",
        "state": "PA",
        "district": "Dom João VI",
        "street": "Travessa Paulo Fonteles",
        "zipcode": "68701-070"
    },
    {
        "city": "Capanema",
        "state": "PA",
        "district": "Centro",
        "street": "Travessa Quatorze de Novembro",
        "zipcode": "68700-150"
    },
    {
        "city": "Capanema",
        "state": "PA",
        "district": "Centro",
        "street": "Travessa Rui Barbosa",
        "zipcode": "68700-140"
    },
    {
        "city": "Capanema",
        "state": "PA",
        "district": "Centro",
        "street": "Avenida Salin Abud",
        "zipcode": "68700-060"
    },
    {
        "city": "Capanema",
        "state": "PA",
        "district": "Pedreira",
        "street": "Rua da Saudade",
        "zipcode": "68703-300"
    },
    {
        "city": "Capanema",
        "state": "PA",
        "district": "Tancredo Neves",
        "street": "Travessa dos Tamoios",
        "zipcode": "68702-140"
    },
    {
        "city": "Capanema",
        "state": "PA",
        "district": "Centro",
        "street": "Passagem Timbó",
        "zipcode": "68700-190"
    },
    {
        "city": "Capanema",
        "state": "PA",
        "district": "São Pio X",
        "street": "Travessa Três Irmãos",
        "zipcode": "68702-100"
    },
    {
        "city": "Capanema",
        "state": "PA",
        "district": "Caixa Dágua",
        "street": "Rua Ucuúba",
        "zipcode": "68700-720"
    },
    {
        "city": "Capanema",
        "state": "PA",
        "district": "Centro",
        "street": "Avenida Barão de Capanema",
        "zipcode": "68700-005"
    },
    {
        "city": "Capanema",
        "state": "PA",
        "district": "Três de Maio",
        "street": "Avenida Santos Dumont",
        "zipcode": "68701-240"
    },
    {
        "city": "Capanema",
        "state": "PA",
        "district": "Centro",
        "street": "Travessa Ocidental do Mercado",
        "zipcode": "68700-080"
    },
    {
        "city": "Capanema",
        "state": "PA",
        "district": "Centro",
        "street": "Passagem Coração de Jesus",
        "zipcode": "68700-200"
    },
    {
        "city": "Capanema",
        "state": "PA",
        "district": "Centro",
        "street": "Rua Joaquim Costa",
        "zipcode": "68700-160"
    },
    {
        "city": "Capanema",
        "state": "PA",
        "district": "Inussun",
        "street": "Rua São Francisco",
        "zipcode": "68702-150"
    },
    {
        "city": "Capanema",
        "state": "PA",
        "district": "Samambaia",
        "street": "Passagem João S. Oliveira",
        "zipcode": "68700-285"
    },
    {
        "city": "Capanema",
        "state": "PA",
        "district": "Três de Maio",
        "street": "Travessa Francisco Martins",
        "zipcode": "68701-202"
    },
    {
        "city": "Capanema",
        "state": "PA",
        "district": "Três de Maio",
        "street": "Rua Valdemar Alves",
        "zipcode": "68701-207"
    },
    {
        "city": "Capanema",
        "state": "PA",
        "district": "Inussun",
        "street": "Travessa Pedro Batista",
        "zipcode": "68702-151"
    },
    {
        "city": "Capanema",
        "state": "PA",
        "district": "Inussun",
        "street": "Passagem Pioneiro",
        "zipcode": "68702-155"
    },
    {
        "city": "Capanema",
        "state": "PA",
        "district": "Inussun",
        "street": "Passagem Francisca Santos Leite",
        "zipcode": "68702-157"
    },
    {
        "city": "Capanema",
        "state": "PA",
        "district": "Igrejinha",
        "street": "Travessa Manoel Ferreira",
        "zipcode": "68700-215"
    },
    {
        "city": "Capanema",
        "state": "PA",
        "district": "Primeira",
        "street": "Rua Rondonia",
        "zipcode": "68703-123"
    },
    {
        "city": "Capanema",
        "state": "PA",
        "district": "Dom João VI",
        "street": "Rua Dezesseis de Novembro",
        "zipcode": "68701-010"
    },
    {
        "city": "Capanema",
        "state": "PA",
        "district": "Almir Gabriel",
        "street": "Travessa Mariana",
        "zipcode": "68703-340"
    },
    {
        "city": "Capanema",
        "state": "PA",
        "district": "São Raimundo",
        "street": "Passagem João Coelho",
        "zipcode": "68700-739"
    },
    {
        "city": "Capanema",
        "state": "PA",
        "district": "São Raimundo",
        "street": "Passagem Vicente Côrrea",
        "zipcode": "68700-741"
    },
    {
        "city": "Capanema",
        "state": "PA",
        "district": "São Raimundo",
        "street": "Passagem Paulo Mendonça",
        "zipcode": "68700-743"
    },
    {
        "city": "Capanema",
        "state": "PA",
        "district": "São Raimundo",
        "street": "Rua Jaime N. Costa",
        "zipcode": "68700-755"
    },
    {
        "city": "Capanema",
        "state": "PA",
        "district": "São Raimundo",
        "street": "Travessa Pedro Teixeira",
        "zipcode": "68700-730"
    },
    {
        "city": "Capanema",
        "state": "PA",
        "district": "Dom João VI",
        "street": "Avenida Transoceânica",
        "zipcode": "68701-050"
    },
    {
        "city": "Capanema",
        "state": "PA",
        "district": "Centro",
        "street": "Alameda Odilon Pontes",
        "zipcode": "68700-012"
    },
    {
        "city": "Capanema",
        "state": "PA",
        "district": "São Pio X",
        "street": "Rua Apinagés",
        "zipcode": "68702-010"
    },
    {
        "city": "Capanema",
        "state": "PA",
        "district": "Campinho",
        "street": "Travessa Assis Saraiva",
        "zipcode": "68700-370"
    },
    {
        "city": "Capanema",
        "state": "PA",
        "district": "Nazaré",
        "street": "Travessa do Campo I",
        "zipcode": "68703-180"
    },
    {
        "city": "Capanema",
        "state": "PA",
        "district": "Nazaré",
        "street": "Travessa do Campo II",
        "zipcode": "68703-170"
    },
    {
        "city": "Capanema",
        "state": "PA",
        "district": "Santa Cruz",
        "street": "Rua Chico Mendes",
        "zipcode": "68700-630"
    },
    {
        "city": "Capanema",
        "state": "PA",
        "district": "Oliveira Brito",
        "street": "Rua Doutor Freitas",
        "zipcode": "68700-580"
    },
    {
        "city": "Capanema",
        "state": "PA",
        "district": "São Pio X",
        "street": "Rua Duque de Caxias",
        "zipcode": "68702-020"
    },
    {
        "city": "Capanema",
        "state": "PA",
        "district": "Primeira",
        "street": "Travessa Roraima",
        "zipcode": "68703-109"
    },
    {
        "city": "Capanema",
        "state": "PA",
        "district": "Centro",
        "street": "Praça Dezenove de Junho",
        "zipcode": "68700-065"
    },
    {
        "city": "Capanema",
        "state": "PA",
        "district": "Oliveira Brito",
        "street": "Rua Henrique Glins",
        "zipcode": "68700-470"
    },
    {
        "city": "Capanema",
        "state": "PA",
        "district": "Oliveira Brito",
        "street": "Travessa Frei Leonidas",
        "zipcode": "68700-530"
    },
    {
        "city": "Capanema",
        "state": "PA",
        "district": "Santa Cruz",
        "street": "Rua João Batista",
        "zipcode": "68700-640"
    },
    {
        "city": "Capanema",
        "state": "PA",
        "district": "Campinho",
        "street": "Travessa Joaquim Rodrigues",
        "zipcode": "68700-350"
    },
    {
        "city": "Capanema",
        "state": "PA",
        "district": "Oliveira Brito",
        "street": "Travessa José Alves",
        "zipcode": "68700-500"
    },
    {
        "city": "Capanema",
        "state": "PA",
        "district": "Samambaia",
        "street": "Rua José Gouveia Costa",
        "zipcode": "68700-310"
    },
    {
        "city": "Capanema",
        "state": "PA",
        "district": "São Pio X",
        "street": "Travessa Marcílio Dias",
        "zipcode": "68702-060"
    },
    {
        "city": "Capanema",
        "state": "PA",
        "district": "Oliveira Brito",
        "street": "Travessa Osvaldo Cruz",
        "zipcode": "68700-510"
    },
    {
        "city": "Capanema",
        "state": "PA",
        "district": "Nazaré",
        "street": "Rodovia PA",
        "zipcode": "68703-140"
    },
    {
        "city": "Capanema",
        "state": "PA",
        "district": "Oliveira Brito",
        "street": "Rua Rosa Costa",
        "zipcode": "68700-590"
    },
    {
        "city": "Capanema",
        "state": "PA",
        "district": "Campinho",
        "street": "Travessa Santa Cruz",
        "zipcode": "68700-390"
    },
    {
        "city": "Capanema",
        "state": "PA",
        "district": "Campinho",
        "street": "Passagem Santo Antônio",
        "zipcode": "68700-410"
    },
    {
        "city": "Capanema",
        "state": "PA",
        "district": "Oliveira Brito",
        "street": "Alameda São Joaquim",
        "zipcode": "68700-420"
    },
    {
        "city": "Capanema",
        "state": "PA",
        "district": "Oliveira Brito",
        "street": "Travessa São Jorge",
        "zipcode": "68700-540"
    },
    {
        "city": "Capanema",
        "state": "PA",
        "district": "Campinho",
        "street": "Travessa São Pedro",
        "zipcode": "68700-360"
    },
    {
        "city": "Capanema",
        "state": "PA",
        "district": "Nazaré",
        "street": "Travessa São Sebastião",
        "zipcode": "68703-200"
    },
    {
        "city": "Capanema",
        "state": "PA",
        "district": "Areia Branca",
        "street": "Rua Sebastião de Freitas",
        "zipcode": "68702-030"
    },
    {
        "city": "Capanema",
        "state": "PA",
        "district": "Pedreira",
        "street": "Travessa Tiradentes",
        "zipcode": "68703-240"
    },
    {
        "city": "Capanema",
        "state": "PA",
        "district": "Oliveira Brito",
        "street": "Travessa Myrta Pessoa",
        "zipcode": "68700-450"
    },
    {
        "city": "Capanema",
        "state": "PA",
        "district": "Primeira",
        "street": "Rodovia PA",
        "zipcode": "68703-130"
    },
    {
        "city": "Capanema",
        "state": "PA",
        "district": "Samambaia",
        "street": "Passagem Bandeira",
        "zipcode": "68700-320"
    },
    {
        "city": "Capanema",
        "state": "PA",
        "district": "São Cristóvão",
        "street": "Travessa Quintino Ferreira",
        "zipcode": "68701-609"
    },
    {
        "city": "Capanema",
        "state": "PA",
        "district": "São Cristóvão",
        "street": "Travessa Francisco Menezes",
        "zipcode": "68701-611"
    },
    {
        "city": "Capanema",
        "state": "PA",
        "district": "São Cristóvão",
        "street": "Travessa Antônio Freitas",
        "zipcode": "68701-612"
    },
    {
        "city": "Capanema",
        "state": "PA",
        "district": "São Cristóvão",
        "street": "Travessa Ozimo Reis",
        "zipcode": "68701-613"
    },
    {
        "city": "Capanema",
        "state": "PA",
        "district": "São Cristóvão",
        "street": "Passagem P. Félix",
        "zipcode": "68701-617"
    },
    {
        "city": "Capanema",
        "state": "PA",
        "district": "São Cristóvão",
        "street": "Travessa Rosa Lopes",
        "zipcode": "68701-618"
    },
    {
        "city": "Capanema",
        "state": "PA",
        "district": "Primeira",
        "street": "Rua Amapá",
        "zipcode": "68703-124"
    },
    {
        "city": "Capanema",
        "state": "PA",
        "district": "Primeira",
        "street": "Rua Maranhão",
        "zipcode": "68703-125"
    },
    {
        "city": "Capanema",
        "state": "PA",
        "district": "São Pedro e São Paulo",
        "street": "Passagem Antônio Quintino",
        "zipcode": "68701-805"
    },
    {
        "city": "Capanema",
        "state": "PA",
        "district": "São Pedro e São Paulo",
        "street": "Passagem Terezinha Reinaldo",
        "zipcode": "68701-814"
    },
    {
        "city": "Capanema",
        "state": "PA",
        "district": "São Pedro e São Paulo",
        "street": "Passagem Maria Raimunda",
        "zipcode": "68701-816"
    },
    {
        "city": "Capanema",
        "state": "PA",
        "district": "São Pedro e São Paulo",
        "street": "Travessa Maria Eliana",
        "zipcode": "68701-810"
    },
    {
        "city": "Capanema",
        "state": "PA",
        "district": "São Pedro e São Paulo",
        "street": "Travessa José Laércio",
        "zipcode": "68701-801"
    },
    {
        "city": "Capanema",
        "state": "PA",
        "district": "São Pedro e São Paulo",
        "street": "Passagem São Paulo",
        "zipcode": "68701-818"
    },
    {
        "city": "Capanema",
        "state": "PA",
        "district": "São Raimundo",
        "street": "Passagem Francisco Mendes",
        "zipcode": "68700-737"
    },
    {
        "city": "Capanema",
        "state": "PA",
        "district": "Almir Gabriel",
        "street": "Rodovia PA 124",
        "zipcode": "68703-336"
    },
    {
        "city": "Capanema",
        "state": "PA",
        "district": "Pedreira",
        "street": "Travessa Peixoto (Portelinha)",
        "zipcode": "68703-249"
    },
    {
        "city": "Capanema",
        "state": "PA",
        "district": "Dom João VI",
        "street": "Rua Apinagés",
        "zipcode": "68701-280"
    },
    {
        "city": "Capanema",
        "state": "PA",
        "district": "Oliveira Brito",
        "street": "Travessa Atroaris",
        "zipcode": "68701-380"
    },
    {
        "city": "Capanema",
        "state": "PA",
        "district": "Oliveira Brito",
        "street": "Travessa Carajás",
        "zipcode": "68701-360"
    },
    {
        "city": "Capanema",
        "state": "PA",
        "district": "Dom João VI",
        "street": "Rua Cônego Inácio Magalhães",
        "zipcode": "68701-290"
    },
    {
        "city": "Capanema",
        "state": "PA",
        "district": "Nazaré",
        "street": "Travessa Dezenove de Novembro",
        "zipcode": "68703-160"
    },
    {
        "city": "Capanema",
        "state": "PA",
        "district": "Garrafão",
        "street": "Passagem Dom Bosco",
        "zipcode": "68702-300"
    },
    {
        "city": "Capanema",
        "state": "PA",
        "district": "Centro",
        "street": "Passagem Fernando Costa",
        "zipcode": "68702-290"
    },
    {
        "city": "Capanema",
        "state": "PA",
        "district": "Motocros",
        "street": "Rua Francisco Coelho",
        "zipcode": "68701-500"
    },
    {
        "city": "Capanema",
        "state": "PA",
        "district": "Primeira",
        "street": "Rua Getúlio Vargas",
        "zipcode": "68703-110"
    },
    {
        "city": "Capanema",
        "state": "PA",
        "district": "Primeira",
        "street": "Travessa João Paulo II",
        "zipcode": "68703-100"
    },
    {
        "city": "Capanema",
        "state": "PA",
        "district": "Três de Maio",
        "street": "Alameda Jorge Alves",
        "zipcode": "68701-206"
    },
    {
        "city": "Capanema",
        "state": "PA",
        "district": "Três de Maio",
        "street": "Passagem João Maria Neves",
        "zipcode": "68701-200"
    },
    {
        "city": "Capanema",
        "state": "PA",
        "district": "Oliveira Brito",
        "street": "Travessa João M. Neves",
        "zipcode": "68700-620"
    },
    {
        "city": "Capanema",
        "state": "PA",
        "district": "Igrejinha",
        "street": "Rua Zania Abud",
        "zipcode": "68700-240"
    },
    {
        "city": "Capanema",
        "state": "PA",
        "district": "Areia Branca",
        "street": "Passagem Noronha",
        "zipcode": "68702-272"
    },
    {
        "city": "Capanema",
        "state": "PA",
        "district": "Oliveira Brito",
        "street": "Rua Joaquim Pinto",
        "zipcode": "68700-610"
    },
    {
        "city": "Capanema",
        "state": "PA",
        "district": "Centro",
        "street": "Travessa Salim Abud",
        "zipcode": "68700-015"
    },
    {
        "city": "Capanema",
        "state": "PA",
        "district": "Três de Maio",
        "street": "Travessa João Castro",
        "zipcode": "68701-204"
    },
    {
        "city": "Capanema",
        "state": "PA",
        "district": "Centro",
        "street": "Travessa Central do Mercado",
        "zipcode": "68700-090"
    },
    {
        "city": "Capanema",
        "state": "PA",
        "district": "Inussun",
        "street": "Ramal da Olaria",
        "zipcode": "68702-260"
    },
    {
        "city": "Capanema",
        "state": "PA",
        "district": "Três de Maio",
        "street": "Alameda Frank Nunes",
        "zipcode": "68701-205"
    },
    {
        "city": "Capanema",
        "state": "PA",
        "district": "Areia Branca",
        "street": "Travessa Monte Castelo",
        "zipcode": "68703-010"
    },
    {
        "city": "Capanema",
        "state": "PA",
        "district": "Fátima",
        "street": "Rua Ouricuri",
        "zipcode": "68703-040"
    },
    {
        "city": "Capanema",
        "state": "PA",
        "district": "Fátima",
        "street": "Travessa Ouricurizinho",
        "zipcode": "68703-050"
    },
    {
        "city": "Capanema",
        "state": "PA",
        "district": "Dom João VI",
        "street": "Rodovia PA",
        "zipcode": "68701-410"
    },
    {
        "city": "Capanema",
        "state": "PA",
        "district": "Primeira",
        "street": "Travessa Pedro Teixeira",
        "zipcode": "68703-120"
    },
    {
        "city": "Capanema",
        "state": "PA",
        "district": "Pedreira",
        "street": "Travessa Pompeu",
        "zipcode": "68703-070"
    },
    {
        "city": "Capanema",
        "state": "PA",
        "district": "Motocros",
        "street": "Passagem Quintino",
        "zipcode": "68701-460"
    },
    {
        "city": "Capanema",
        "state": "PA",
        "district": "Nazaré",
        "street": "Travessa Santa Catarina",
        "zipcode": "68703-210"
    },
    {
        "city": "Capanema",
        "state": "PA",
        "district": "Motocros",
        "street": "Passagem São Domingos",
        "zipcode": "68701-450"
    },
    {
        "city": "Capanema",
        "state": "PA",
        "district": "Fátima",
        "street": "Travessa São Joaquim",
        "zipcode": "68703-060"
    },
    {
        "city": "Capanema",
        "state": "PA",
        "district": "Areia Branca",
        "street": "Travessa São Miguel",
        "zipcode": "68703-020"
    },
    {
        "city": "Capanema",
        "state": "PA",
        "district": "São Pio X",
        "street": "Passagem São Pio X",
        "zipcode": "68702-320"
    },
    {
        "city": "Capanema",
        "state": "PA",
        "district": "Motocros",
        "street": "Rua Sebastião Nascimento",
        "zipcode": "68701-490"
    },
    {
        "city": "Capanema",
        "state": "PA",
        "district": "Oliveira Brito",
        "street": "Passagem Tambés",
        "zipcode": "68701-330"
    },
    {
        "city": "Capanema",
        "state": "PA",
        "district": "Garrafão",
        "street": "Passagem Terramar",
        "zipcode": "68702-360"
    },
    {
        "city": "Capanema",
        "state": "PA",
        "district": "Oliveira Brito",
        "street": "Passagem Xingu",
        "zipcode": "68701-320"
    },
    {
        "city": "Capanema",
        "state": "PA",
        "district": "Oliveira Brito",
        "street": "Travessa Caipós",
        "zipcode": "68701-390"
    },
    {
        "city": "Capanema",
        "state": "PA",
        "district": "Tancredo Neves",
        "street": "Travessa dos Jurunas",
        "zipcode": "68702-370"
    },
    {
        "city": "Capanema",
        "state": "PA",
        "district": "Motocros",
        "street": "Passagem Abdon Holanda",
        "zipcode": "68701-430"
    },
    {
        "city": "Capanema",
        "state": "PA",
        "district": "Primeira",
        "street": "Travessa B Três",
        "zipcode": "68703-105"
    },
    {
        "city": "Capanema",
        "state": "PA",
        "district": "Primeira",
        "street": "Travessa Acre",
        "zipcode": "68703-111"
    },
    {
        "city": "Capanema",
        "state": "PA",
        "district": "Dom João VI",
        "street": "Passagem Antônio Carneiro",
        "zipcode": "68701-281"
    },
    {
        "city": "Capanema",
        "state": "PA",
        "district": "São Cristóvão",
        "street": "Rua Antônio Serra",
        "zipcode": "68701-600"
    },
    {
        "city": "Capanema",
        "state": "PA",
        "district": "São Cristóvão",
        "street": "Rua Antônio Adalgízio",
        "zipcode": "68701-603"
    },
    {
        "city": "Capanema",
        "state": "PA",
        "district": "São Cristóvão",
        "street": "Rua Paulo Oliveira",
        "zipcode": "68701-604"
    },
    {
        "city": "Capanema",
        "state": "PA",
        "district": "São Cristóvão",
        "street": "Rua Virgílio Milhomes",
        "zipcode": "68701-602"
    },
    {
        "city": "Capanema",
        "state": "PA",
        "district": "São Cristóvão",
        "street": "Rua José André",
        "zipcode": "68701-606"
    },
    {
        "city": "Capanema",
        "state": "PA",
        "district": "São Cristóvão",
        "street": "Travessa Carmem Ângelo",
        "zipcode": "68701-608"
    },
    {
        "city": "Capanema",
        "state": "PA",
        "district": "Igrejinha",
        "street": "Passagem Francisco Ferreira",
        "zipcode": "68700-214"
    },
    {
        "city": "Capanema",
        "state": "PA",
        "district": "Primeira",
        "street": "Rua Magalhães Barata",
        "zipcode": "68703-121"
    },
    {
        "city": "Capanema",
        "state": "PA",
        "district": "Primeira",
        "street": "Rua Almirante Wandenkolk",
        "zipcode": "68703-122"
    },
    {
        "city": "Capanema",
        "state": "PA",
        "district": "Santa Luzia",
        "street": "Passagem Justo Alves",
        "zipcode": "68704-009"
    },
    {
        "city": "Capanema",
        "state": "PA",
        "district": "Garrafão",
        "street": "Avenida João Paulo II",
        "zipcode": "68702-013"
    },
    {
        "city": "Capanema",
        "state": "PA",
        "district": "Almir Gabriel",
        "street": "Rua Cezarino Oliveira",
        "zipcode": "68703-338"
    },
    {
        "city": "Capanema",
        "state": "PA",
        "district": "Areia Branca",
        "street": "Travessa Coronel Leandro Pinheiro",
        "zipcode": "68702-278"
    },
    {
        "city": "Capanema",
        "state": "PA",
        "district": "Dom João VI",
        "street": "Alameda Odilon Pontes",
        "zipcode": "68701-091"
    },
    {
        "city": "Capanema",
        "state": "PA",
        "district": "Tancredo Neves",
        "street": "Rua Duque Caxias",
        "zipcode": "68702-137"
    },
    {
        "city": "Capanema",
        "state": "PA",
        "district": "Santa Luzia",
        "street": "Rua José Alves (Cj. Sabta Luzia)",
        "zipcode": "68704-010"
    },
    {
        "city": "Capanema",
        "state": "PA",
        "district": "Santa Luzia",
        "street": "Travessa Olga Costa",
        "zipcode": "68704-012"
    },
    {
        "city": "Capanema",
        "state": "PA",
        "district": "São José",
        "street": "Travessa Bogari",
        "zipcode": "68702-220"
    },
    {
        "city": "Capanema",
        "state": "PA",
        "district": "Oliveira Brito",
        "street": "Travessa Bolonha",
        "zipcode": "68701-370"
    },
    {
        "city": "Capanema",
        "state": "PA",
        "district": "Três de Maio",
        "street": "Passagem Estrela",
        "zipcode": "68701-300"
    },
    {
        "city": "Capanema",
        "state": "PA",
        "district": "Almir Gabriel",
        "street": "Travessa Projetada VI",
        "zipcode": "68703-348"
    },
    {
        "city": "Capanema",
        "state": "PA",
        "district": "São Pio X",
        "street": "Alameda Magna Celly",
        "zipcode": "68702-005"
    },
    {
        "city": "Capanema",
        "state": "PA",
        "district": "Santa Luzia",
        "street": "Travessa Projetada VI (São João Batista)",
        "zipcode": "68704-108"
    },
    {
        "city": "Capanema",
        "state": "PA",
        "district": "Santa Luzia",
        "street": "Rua Seis (Cj. Sabta Luzia)",
        "zipcode": "68704-008"
    },
    {
        "city": "Capanema",
        "state": "PA",
        "district": "Almir Gabriel",
        "street": "Rua Manoel Valente",
        "zipcode": "68703-341"
    },
    {
        "city": "Capanema",
        "state": "PA",
        "district": "Santa Luzia",
        "street": "Rua Dois (Cj. Sabta Luzia)",
        "zipcode": "68704-002"
    },
    {
        "city": "Capanema",
        "state": "PA",
        "district": "Inussun",
        "street": "Passagem Raimundo Alves",
        "zipcode": "68702-153"
    },
    {
        "city": "Capanema",
        "state": "PA",
        "district": "Dom João VI",
        "street": "Passagem Francisco Peixoto",
        "zipcode": "68701-180"
    },
    {
        "city": "Capanema",
        "state": "PA",
        "district": "Santa Luzia",
        "street": "Rua Cinco (Cj. Sabta Luzia)",
        "zipcode": "68704-007"
    },
    {
        "city": "Capanema",
        "state": "PA",
        "district": "Pedreira",
        "street": "Passagem José Rosa",
        "zipcode": "68703-231"
    },
    {
        "city": "Capanema",
        "state": "PA",
        "district": "Oliveira Brito",
        "street": "Passagem Coronel Eutrópico",
        "zipcode": "68700-460"
    },
    {
        "city": "Capanema",
        "state": "PA",
        "district": "Almir Gabriel",
        "street": "Travessa Projetada I (Cj Almir Gabriel)",
        "zipcode": "68703-342"
    },
    {
        "city": "Capanema",
        "state": "PA",
        "district": "Santa Luzia",
        "street": "Travessa Domingos André",
        "zipcode": "68704-013"
    },
    {
        "city": "Capanema",
        "state": "PA",
        "district": "Santa Luzia",
        "street": "Travessa Projetada VII (São João Batista)",
        "zipcode": "68704-110"
    },
    {
        "city": "Capanema",
        "state": "PA",
        "district": "São José",
        "street": "Travessa Gardenha",
        "zipcode": "68702-230"
    },
    {
        "city": "Capanema",
        "state": "PA",
        "district": "Areia Branca",
        "street": "Passagem Guará",
        "zipcode": "68702-280"
    },
    {
        "city": "Capanema",
        "state": "PA",
        "district": "Oliveira Brito",
        "street": "Rua Holanda Rios",
        "zipcode": "68701-480"
    },
    {
        "city": "Capanema",
        "state": "PA",
        "district": "São José",
        "street": "Travessa Jasmim",
        "zipcode": "68702-210"
    },
    {
        "city": "Capanema",
        "state": "PA",
        "district": "São José",
        "street": "Rua José Edmilson",
        "zipcode": "68702-200"
    },
    {
        "city": "Capanema",
        "state": "PA",
        "district": "Três de Maio",
        "street": "Passagem Mendes Sá",
        "zipcode": "68701-270"
    },
    {
        "city": "Capanema",
        "state": "PA",
        "district": "Tancredo Neves",
        "street": "Passagem Nunes",
        "zipcode": "68702-340"
    },
    {
        "city": "Capanema",
        "state": "PA",
        "district": "Motocros",
        "street": "Passagem Ruth Passarinho",
        "zipcode": "68701-440"
    },
    {
        "city": "Capanema",
        "state": "PA",
        "district": "São José",
        "street": "Rua São José",
        "zipcode": "68702-250"
    },
    {
        "city": "Capanema",
        "state": "PA",
        "district": "São Pio X",
        "street": "Travessa Siqueira Mendes",
        "zipcode": "68702-070"
    },
    {
        "city": "Capanema",
        "state": "PA",
        "district": "Três de Maio",
        "street": "Travessa Três de Maio",
        "zipcode": "68701-260"
    },
    {
        "city": "Capanema",
        "state": "PA",
        "district": "Tancredo Neves",
        "street": "Travessa dos Tupinambás",
        "zipcode": "68702-130"
    },
    {
        "city": "Capanema",
        "state": "PA",
        "district": "Três de Maio",
        "street": "Travessa Carlos Gomes",
        "zipcode": "68701-250"
    },
    {
        "city": "Capanema",
        "state": "PA",
        "district": "Três de Maio",
        "street": "Travessa Sete de Setembro",
        "zipcode": "68701-210"
    },
    {
        "city": "Capanema",
        "state": "PA",
        "district": "Dom João VI",
        "street": "Alameda Dois de Junho",
        "zipcode": "68701-120"
    },
    {
        "city": "Capanema",
        "state": "PA",
        "district": "Dom João VI",
        "street": "Passagem Recife",
        "zipcode": "68701-140"
    },
    {
        "city": "Capanema",
        "state": "PA",
        "district": "Inussun",
        "street": "Travessa Domingos André",
        "zipcode": "68702-152"
    },
    {
        "city": "Capanema",
        "state": "PA",
        "district": "Inussun",
        "street": "Passagem Raimundo Nogueira",
        "zipcode": "68702-154"
    },
    {
        "city": "Capanema",
        "state": "PA",
        "district": "São Cristóvão",
        "street": "Rua Francisco Soares",
        "zipcode": "68701-605"
    },
    {
        "city": "Capanema",
        "state": "PA",
        "district": "São Cristóvão",
        "street": "Travessa Sebastião Menezes",
        "zipcode": "68701-610"
    },
    {
        "city": "Capanema",
        "state": "PA",
        "district": "Areia Branca",
        "street": "Travessa Guimarães",
        "zipcode": "68702-277"
    },
    {
        "city": "Capanema",
        "state": "PA",
        "district": "São Cristóvão",
        "street": "Travessa Jorge Duarte",
        "zipcode": "68701-619"
    },
    {
        "city": "Capanema",
        "state": "PA",
        "district": "Areia Branca",
        "street": "Passagem Jari",
        "zipcode": "68702-271"
    },
    {
        "city": "Capanema",
        "state": "PA",
        "district": "Areia Branca",
        "street": "Passagem João Freitas",
        "zipcode": "68702-273"
    },
    {
        "city": "Capanema",
        "state": "PA",
        "district": "Areia Branca",
        "street": "Rua João Paulo II",
        "zipcode": "68702-275"
    },
    {
        "city": "Capanema",
        "state": "PA",
        "district": "Areia Branca",
        "street": "Travessa Pantanal",
        "zipcode": "68702-276"
    },
    {
        "city": "Capanema",
        "state": "PA",
        "district": "Primeira",
        "street": "Rua Miguel Guedes",
        "zipcode": "68703-102"
    },
    {
        "city": "Capanema",
        "state": "PA",
        "district": "Centro",
        "street": "Rua Vinte e Oito de Outubro",
        "zipcode": "68700-045"
    },
    {
        "city": "Capanema",
        "state": "PA",
        "district": "Areia Branca",
        "street": "Avenida João Paulo II",
        "zipcode": "68702-293"
    },
    {
        "city": "Capanema",
        "state": "PA",
        "district": "Nazaré",
        "street": "Avenida Barão de Capanema",
        "zipcode": "68703-145"
    },
    {
        "city": "Capanema",
        "state": "PA",
        "district": "Areia Branca",
        "street": "Avenida Barão de Capanema",
        "zipcode": "68703-027"
    },
    {
        "city": "Capanema",
        "state": "PA",
        "district": "Santa Cruz",
        "street": "Avenida Barão de Capanema",
        "zipcode": "68700-635"
    },
    {
        "city": "Capanema",
        "state": "PA",
        "district": "Almir Gabriel",
        "street": "Travessa Boa Vista",
        "zipcode": "68703-337"
    },
    {
        "city": "Capanema",
        "state": "PA",
        "district": "Inussun",
        "street": "Rua Angustura",
        "zipcode": "68702-160"
    },
    {
        "city": "Capanema",
        "state": "PA",
        "district": "Inussun",
        "street": "Rua Antônio Jerônimo",
        "zipcode": "68702-170"
    },
    {
        "city": "Capanema",
        "state": "PA",
        "district": "Oliveira Brito",
        "street": "Rua Baltazar de Queirós",
        "zipcode": "68701-350"
    },
    {
        "city": "Capanema",
        "state": "PA",
        "district": "Dom João VI",
        "street": "Travessa Batista Campos",
        "zipcode": "68701-080"
    },
    {
        "city": "Capanema",
        "state": "PA",
        "district": "Pedreira",
        "street": "Travessa Boa Vista",
        "zipcode": "68703-250"
    },
    {
        "city": "Capanema",
        "state": "PA",
        "district": "Oliveira Brito",
        "street": "Travessa Bolonha",
        "zipcode": "68700-480"
    },
    {
        "city": "Capanema",
        "state": "PA",
        "district": "São Pedro e São Paulo",
        "street": "Travessa Santa Helena",
        "zipcode": "68701-813"
    },
    {
        "city": "Capanema",
        "state": "PA",
        "district": "Areia Branca",
        "street": "Rua Projetada I (Cj. Jaime Pereira)",
        "zipcode": "68703-011"
    },
    {
        "city": "Capanema",
        "state": "PA",
        "district": "Almir Gabriel",
        "street": "Rua AD Sete (Cj Almir Gabriel)",
        "zipcode": "68703-334"
    },
    {
        "city": "Capanema",
        "state": "PA",
        "district": "Pedreira",
        "street": "Quadra Quatro (Portelinha)",
        "zipcode": "68703-244"
    },
    {
        "city": "Capanema",
        "state": "PA",
        "district": "Primeira",
        "street": "Passagem Primeiro de Maio",
        "zipcode": "68703-101"
    },
    {
        "city": "Capanema",
        "state": "PA",
        "district": "Pedreira",
        "street": "Avenida Jarbas Passarinho (Portelinha)",
        "zipcode": "68703-247"
    },
    {
        "city": "Capanema",
        "state": "PA",
        "district": "Almir Gabriel",
        "street": "Rua AD Cinco (Cj Almir Gabriel)",
        "zipcode": "68703-331"
    },
    {
        "city": "Capanema",
        "state": "PA",
        "district": "Tancredo Neves",
        "street": "Passagem Jubine",
        "zipcode": "68702-132"
    },
    {
        "city": "Capanema",
        "state": "PA",
        "district": "São Pedro e São Paulo",
        "street": "Rodovia PA 242",
        "zipcode": "68701-815"
    },
    {
        "city": "Capanema",
        "state": "PA",
        "district": "Pedreira",
        "street": "Travessa Antonio Maria (Portelinha)",
        "zipcode": "68703-245"
    },
    {
        "city": "Capanema",
        "state": "PA",
        "district": "Almir Gabriel",
        "street": "Rua AD Seis (Cj Almir Gabriel)",
        "zipcode": "68703-332"
    },
    {
        "city": "Capanema",
        "state": "PA",
        "district": "Pedreira",
        "street": "Quadra Dois (Portelinha)",
        "zipcode": "68703-242"
    },
    {
        "city": "Capanema",
        "state": "PA",
        "district": "Pedreira",
        "street": "Rua Dilma Russef (Portelinha)",
        "zipcode": "68703-246"
    },
    {
        "city": "Capanema",
        "state": "PA",
        "district": "Primeira",
        "street": "Travessa Zigomar Helena",
        "zipcode": "68703-112"
    },
    {
        "city": "Capanema",
        "state": "PA",
        "district": "São Pedro e São Paulo",
        "street": "Travessa dos Gomes",
        "zipcode": "68701-811"
    },
    {
        "city": "Capanema",
        "state": "PA",
        "district": "São Pio X",
        "street": "Rua Cônego Inácio Magalhães",
        "zipcode": "68702-000"
    },
    {
        "city": "Capanema",
        "state": "PA",
        "district": "Oliveira Brito",
        "street": "Rua Engenheiro Carlos Alves",
        "zipcode": "68701-340"
    },
    {
        "city": "Capanema",
        "state": "PA",
        "district": "Fátima",
        "street": "Passagem M. Dantas",
        "zipcode": "68703-080"
    },
    {
        "city": "Capanema",
        "state": "PA",
        "district": "Pedreira",
        "street": "Quadra Três (Portelinha)",
        "zipcode": "68703-243"
    },
    {
        "city": "Capanema",
        "state": "PA",
        "district": "Caixa Dágua",
        "street": "Travessa Francisco Oliveira Martins",
        "zipcode": "68700-660"
    },
    {
        "city": "Capanema",
        "state": "PA",
        "district": "Pedreira",
        "street": "Rua Jenipapo",
        "zipcode": "68703-290"
    },
    {
        "city": "Capanema",
        "state": "PA",
        "district": "Motocros",
        "street": "Passagem Manoel Nogueira",
        "zipcode": "68701-420"
    },
    {
        "city": "Capanema",
        "state": "PA",
        "district": "Motocros",
        "street": "Passagem Maria de Lourdes",
        "zipcode": "68701-510"
    },
    {
        "city": "Capanema",
        "state": "PA",
        "district": "Garrafão",
        "street": "Rodovia PA",
        "zipcode": "68702-190"
    },
    {
        "city": "Capanema",
        "state": "PA",
        "district": "Areia Branca",
        "street": "Travessa dos Pariquis",
        "zipcode": "68703-030"
    },
    {
        "city": "Capanema",
        "state": "PA",
        "district": "Igrejinha",
        "street": "Travessa Pedro Teixeira",
        "zipcode": "68700-270"
    },
    {
        "city": "Capanema",
        "state": "PA",
        "district": "Dom João VI",
        "street": "Travessa Quatorze de Março",
        "zipcode": "68701-040"
    },
    {
        "city": "Capanema",
        "state": "PA",
        "district": "Oliveira Brito",
        "street": "Rua Raimundo Damasceno",
        "zipcode": "68700-600"
    },
    {
        "city": "Capanema",
        "state": "PA",
        "district": "Fátima",
        "street": "Travessa Santa Lúcia",
        "zipcode": "68703-090"
    },
    {
        "city": "Capanema",
        "state": "PA",
        "district": "Pedreira",
        "street": "Travessa Santo Antônio",
        "zipcode": "68703-230"
    },
    {
        "city": "Capanema",
        "state": "PA",
        "district": "São Pio X",
        "street": "Travessa São Cristóvão",
        "zipcode": "68702-110"
    },
    {
        "city": "Capanema",
        "state": "PA",
        "district": "Inussun",
        "street": "Travessa São Francisco",
        "zipcode": "68702-350"
    },
    {
        "city": "Capanema",
        "state": "PA",
        "district": "Areia Branca",
        "street": "Avenida Senador Jarbas Passarinho",
        "zipcode": "68702-090"
    },
    {
        "city": "Capanema",
        "state": "PA",
        "district": "Campinho",
        "street": "Travessa Teresinha de Jesus",
        "zipcode": "68700-380"
    },
    {
        "city": "Capanema",
        "state": "PA",
        "district": "São Pio X",
        "street": "Travessa Trinta e Um de Março",
        "zipcode": "68702-120"
    },
    {
        "city": "Capanema",
        "state": "PA",
        "district": "Pedreira",
        "street": "Travessa Vinte e Um de Abril",
        "zipcode": "68703-260"
    },
    {
        "city": "Capanema",
        "state": "PA",
        "district": "Areia Branca",
        "street": "Passagem São Raimundo",
        "zipcode": "68702-270"
    },
    {
        "city": "Capanema",
        "state": "PA",
        "district": "São José",
        "street": "Travessa Verbena",
        "zipcode": "68702-240"
    },
    {
        "city": "Capanema",
        "state": "PA",
        "district": "Primeira",
        "street": "Rua Santa Helena",
        "zipcode": "68703-113"
    },
    {
        "city": "Capanema",
        "state": "PA",
        "district": "São Cristóvão",
        "street": "Rua Dalila Gomes",
        "zipcode": "68701-607"
    },
    {
        "city": "Capanema",
        "state": "PA",
        "district": "São Cristóvão",
        "street": "Avenida Governador Almir Gabriel",
        "zipcode": "68701-614"
    },
    {
        "city": "Capanema",
        "state": "PA",
        "district": "São Cristóvão",
        "street": "Travessa Alice Cruz",
        "zipcode": "68701-615"
    },
    {
        "city": "Capanema",
        "state": "PA",
        "district": "São Raimundo",
        "street": "Travessa Francisco Oliveira Martins",
        "zipcode": "68700-735"
    },
    {
        "city": "Capanema",
        "state": "PA",
        "district": "São Raimundo",
        "street": "Passagem Deodoro de Mendonça",
        "zipcode": "68700-753"
    },
    {
        "city": "Capanema",
        "state": "PA",
        "district": "Campinho",
        "street": "Rua Vinte e Oito de Outubro",
        "zipcode": "68700-340"
    },
    {
        "city": "Capanema",
        "state": "PA",
        "district": "Santa Luzia",
        "street": "Passagem Raimundo Nogueira",
        "zipcode": "68704-006"
    },
    {
        "city": "Capanema",
        "state": "PA",
        "district": "Igrejinha",
        "street": "Avenida João Paulo II",
        "zipcode": "68700-223"
    },
    {
        "city": "Capanema",
        "state": "PA",
        "district": "Igrejinha",
        "street": "Travessa Miguel Leite",
        "zipcode": "68700-255"
    },
    {
        "city": "Capanema",
        "state": "PA",
        "district": "Centro",
        "street": "Travessa Miguel Leite",
        "zipcode": "68700-107"
    },
    {
        "city": "Capanema",
        "state": "PA",
        "district": "Centro",
        "street": "Rua Dom Pedro II",
        "zipcode": "68700-013"
    },
    {
        "city": "Capanema",
        "state": "PA",
        "district": "Centro",
        "street": "Rua Dom Pedro II",
        "zipcode": "68700-115"
    },
    {
        "city": "Capanema",
        "state": "PA",
        "district": "Oliveira Brito",
        "street": "Rua Dom Pedro II",
        "zipcode": "68700-525"
    },
    {
        "city": "Capanema",
        "state": "PA",
        "district": "Campinho",
        "street": "Avenida Barão de Capanema",
        "zipcode": "68700-395"
    },
    {
        "city": "Capanema",
        "state": "PA",
        "district": "Caixa Dágua",
        "street": "Avenida Barão de Capanema",
        "zipcode": "68700-665"
    },
    {
        "city": "Capanema",
        "state": "PA",
        "district": "Centro",
        "street": "Rua Barão do Rio Branco",
        "zipcode": "68700-105"
    },
    {
        "city": "Capanema",
        "state": "PA",
        "district": "Tancredo Neves",
        "street": "Travessa Coronel Leandro Pinheiro",
        "zipcode": "68702-135"
    },
    {
        "city": "Capanema",
        "state": "PA",
        "district": "Centro",
        "street": "Praça Magalhães Barata",
        "zipcode": "68700-025"
    },
    {
        "city": "Capanema",
        "state": "PA",
        "district": "Pedreira",
        "street": "Loteamento Ruth Souza",
        "zipcode": "68703-320"
    },
    {
        "city": "Capanema",
        "state": "PA",
        "district": "Oliveira Brito",
        "street": "Rua Projetada IV",
        "zipcode": "68700-524"
    },
    {
        "city": "Capanema",
        "state": "PA",
        "district": "Oliveira Brito",
        "street": "Rua Projetada VII",
        "zipcode": "68700-528"
    },
    {
        "city": "Capanema",
        "state": "PA",
        "district": "Oliveira Brito",
        "street": "Rua Projetada IX",
        "zipcode": "68700-531"
    },
    {
        "city": "Capanema",
        "state": "PA",
        "district": "Campinho",
        "street": "Alameda Flávio Nascimento",
        "zipcode": "68700-338"
    },
    {
        "city": "Capanema",
        "state": "PA",
        "district": "Santa Luzia",
        "street": "Travessa Projetada II (São João Batista)",
        "zipcode": "68704-100"
    },
    {
        "city": "Capanema",
        "state": "PA",
        "district": "Santa Luzia",
        "street": "Rua Fernado Mendes (São João Batista)",
        "zipcode": "68704-118"
    },
    {
        "city": "Capanema",
        "state": "PA",
        "district": "Pedreira",
        "street": "Travessa Pedro Teixeira (Portelinha)",
        "zipcode": "68703-248"
    },
    {
        "city": "Capanema",
        "state": "PA",
        "district": "Centro",
        "street": "Avenida Barão de Capanema",
        "zipcode": "68700-970"
    },
    {
        "city": "Capanema",
        "state": "PA",
        "district": "Dom João VI",
        "street": "Travessa Bom Jardim",
        "zipcode": "68701-060"
    },
    {
        "city": "Capanema",
        "state": "PA",
        "district": "Centro",
        "street": "Vila Aguiar",
        "zipcode": "68700-035"
    },
    {
        "city": "Capanema",
        "state": "PA",
        "district": "Areia Branca",
        "street": "Passagem Antônio Mairano",
        "zipcode": "68702-274"
    },
    {
        "city": "Capanema",
        "state": "PA",
        "district": "Oliveira Brito",
        "street": "Rua Projetada Um",
        "zipcode": "68700-521"
    },
    {
        "city": "Capanema",
        "state": "PA",
        "district": "Oliveira Brito",
        "street": "Rua Projetada VIII",
        "zipcode": "68700-529"
    },
    {
        "city": "Capanema",
        "state": "PA",
        "district": "Oliveira Brito",
        "street": "Rua Projetada X",
        "zipcode": "68700-532"
    },
    {
        "city": "Capanema",
        "state": "PA",
        "district": "Oliveira Brito",
        "street": "Rua Projetada II",
        "zipcode": "68700-522"
    },
    {
        "city": "Capanema",
        "state": "PA",
        "district": "Oliveira Brito",
        "street": "Passagem M. Sucupira",
        "zipcode": "68701-400"
    },
    {
        "city": "Capanema",
        "state": "PA",
        "district": "Santa Luzia",
        "street": "Travessa Projetada III (São João Batista)",
        "zipcode": "68704-102"
    },
    {
        "city": "Capanema",
        "state": "PA",
        "district": "Campinho",
        "street": "Passagem Cinco de Novembro",
        "zipcode": "68700-400"
    },
    {
        "city": "Capanema",
        "state": "PA",
        "district": "Caixa Dágua",
        "street": "Passagem Deodoro de Mendonça",
        "zipcode": "68700-700"
    },
    {
        "city": "Capanema",
        "state": "PA",
        "district": "Centro",
        "street": "Travessa Dois de Junho",
        "zipcode": "68700-110"
    },
    {
        "city": "Capanema",
        "state": "PA",
        "district": "Dom João VI",
        "street": "Passagem Dom Bosco",
        "zipcode": "68701-150"
    },
    {
        "city": "Capanema",
        "state": "PA",
        "district": "Campinho",
        "street": "Travessa Fernandes Tavares",
        "zipcode": "68700-330"
    },
    {
        "city": "Capanema",
        "state": "PA",
        "district": "Centro",
        "street": "Rua João Pessoa",
        "zipcode": "68700-030"
    },
    {
        "city": "Capanema",
        "state": "PA",
        "district": "São Pio X",
        "street": "Passagem Julieta",
        "zipcode": "68702-310"
    },
    {
        "city": "Capanema",
        "state": "PA",
        "district": "Santa Cruz",
        "street": "Travessa Lauro Sodré",
        "zipcode": "68700-650"
    },
    {
        "city": "Capanema",
        "state": "PA",
        "district": "Pedreira",
        "street": "Travessa Miguel Queirós",
        "zipcode": "68703-270"
    },
    {
        "city": "Capanema",
        "state": "PA",
        "district": "Oliveira Brito",
        "street": "Avenida dos Mutirantes",
        "zipcode": "68700-490"
    },
    {
        "city": "Capanema",
        "state": "PA",
        "district": "Igrejinha",
        "street": "Travessa Pompeu",
        "zipcode": "68700-230"
    },
    {
        "city": "Capanema",
        "state": "PA",
        "district": "Dom João VI",
        "street": "Travessa Quatorze de Novembro",
        "zipcode": "68701-030"
    },
    {
        "city": "Capanema",
        "state": "PA",
        "district": "Samambaia",
        "street": "Rua Samambaia",
        "zipcode": "68700-290"
    },
    {
        "city": "Capanema",
        "state": "PA",
        "district": "Nazaré",
        "street": "Travessa Santa Teresinha",
        "zipcode": "68703-190"
    },
    {
        "city": "Capanema",
        "state": "PA",
        "district": "Centro",
        "street": "Rua dos Timbiras",
        "zipcode": "68700-170"
    },
    {
        "city": "Capanema",
        "state": "PA",
        "district": "Centro",
        "street": "Travessa Veiga Cabral",
        "zipcode": "68700-130"
    },
    {
        "city": "Capanema",
        "state": "PA",
        "district": "Samambaia",
        "street": "Travessa Veríssimo",
        "zipcode": "68700-286"
    },
    {
        "city": "Capanema",
        "state": "PA",
        "district": "Igrejinha",
        "street": "Passagem Mario Kauath",
        "zipcode": "68700-211"
    },
    {
        "city": "Capanema",
        "state": "PA",
        "district": "Igrejinha",
        "street": "Travessa Antônio Ferreira",
        "zipcode": "68700-216"
    },
    {
        "city": "Capanema",
        "state": "PA",
        "district": "Santa Luzia",
        "street": "Rua Antônio Jerônimo",
        "zipcode": "68704-020"
    },
    {
        "city": "Capanema",
        "state": "PA",
        "district": "Santa Luzia",
        "street": "Rua Domingos Hotero Ressuenho",
        "zipcode": "68704-000"
    },
    {
        "city": "Capanema",
        "state": "PA",
        "district": "Areia Branca",
        "street": "Avenida Barão de Capanema",
        "zipcode": "68703-025"
    },
    {
        "city": "Capanema",
        "state": "PA",
        "district": "Área Rural de Capanema",
        "street": "Área Rural",
        "zipcode": "68704-899"
    },
    {
        "city": "Capanema",
        "state": "PA",
        "district": "São Pedro e São Paulo",
        "street": "Passagem Julina Araújo",
        "zipcode": "68701-812"
    },
    {
        "city": "Capanema",
        "state": "PA",
        "district": "São Pedro e São Paulo",
        "street": "Passagem Botafogo",
        "zipcode": "68701-824"
    },
    {
        "city": "Capanema",
        "state": "PA",
        "district": "Almir Gabriel",
        "street": "Travessa Cléo Bernardo",
        "zipcode": "68703-345"
    },
    {
        "city": "Capanema",
        "state": "PA",
        "district": "Almir Gabriel",
        "street": "Rua Almir Gabriel",
        "zipcode": "68703-350"
    },
    {
        "city": "Capanema",
        "state": "PA",
        "district": "Nazaré",
        "street": "Travessa do Brejo",
        "zipcode": "68703-150"
    },
    {
        "city": "Capanema",
        "state": "PA",
        "district": "Pedreira",
        "street": "Travessa Boa Esperança",
        "zipcode": "68703-233"
    },
    {
        "city": "Capanema",
        "state": "PA",
        "district": "Primeira",
        "street": "Travessa Amazonas",
        "zipcode": "68703-126"
    },
    {
        "city": "Capanema",
        "state": "PA",
        "district": "Santa Luzia",
        "street": "Travessa Zarailda",
        "zipcode": "68704-015"
    },
    {
        "city": "Capanema",
        "state": "PA",
        "district": "Oliveira Brito",
        "street": "Travessa Alyassen Buchacra",
        "zipcode": "68700-430"
    },
    {
        "city": "Capanema",
        "state": "PA",
        "district": "Santa Luzia",
        "street": "Rua São João Batista",
        "zipcode": "68704-116"
    },
    {
        "city": "Capanema",
        "state": "PA",
        "district": "Oliveira Brito",
        "street": "Rua Projetada III",
        "zipcode": "68700-523"
    },
    {
        "city": "Capanema",
        "state": "PA",
        "district": "Almir Gabriel",
        "street": "Travessa Projetada IV",
        "zipcode": "68703-346"
    },
    {
        "city": "Capanema",
        "state": "PA",
        "district": "Santa Luzia",
        "street": "Rua Quatro (Cj. Sabta Luzia)",
        "zipcode": "68704-005"
    },
    {
        "city": "Capanema",
        "state": "PA",
        "district": "Fátima",
        "street": "Travessa Nossa Senhora de Fátima",
        "zipcode": "68703-045"
    },
    {
        "city": "Capanema",
        "state": "PA",
        "district": "Tancredo Neves",
        "street": "Rodovia BR",
        "zipcode": "68702-180"
    },
    {
        "city": "Capanema",
        "state": "PA",
        "district": "Santa Luzia",
        "street": "Travessa Sebastião Amaro",
        "zipcode": "68704-014"
    },
    {
        "city": "Capanema",
        "state": "PA",
        "district": "Pedreira",
        "street": "Travessa Cléo Bernardo",
        "zipcode": "68703-310"
    },
    {
        "city": "Capanema",
        "state": "PA",
        "district": "Santa Luzia",
        "street": "Rua Três (Cj. Sabta Luzia)",
        "zipcode": "68704-004"
    },
    {
        "city": "Capanema",
        "state": "PA",
        "district": "Santa Luzia",
        "street": "Rodovia BR",
        "zipcode": "68704-120"
    },
    {
        "city": "Capanema",
        "state": "PA",
        "district": "Caixa Dágua",
        "street": "Estrada Tauari",
        "zipcode": "68700-710"
    },
    {
        "city": "Capanema",
        "state": "PA",
        "district": "Oliveira Brito",
        "street": "Rua Francisco Gonçalves Araújo",
        "zipcode": "68700-570"
    },
    {
        "city": "Capanema",
        "state": "PA",
        "district": "Areia Branca",
        "street": "Rua Central (Jaime Pereira)",
        "zipcode": "68703-014"
    },
    {
        "city": "Capanema",
        "state": "PA",
        "district": "Santa Luzia",
        "street": "Travessa Projetada VIII (São João Batista)",
        "zipcode": "68704-112"
    },
    {
        "city": "Capanema",
        "state": "PA",
        "district": "Santa Luzia",
        "street": "Passagem Abílio Bonfim",
        "zipcode": "68704-023"
    },
    {
        "city": "Capanema",
        "state": "PA",
        "district": "Santa Luzia",
        "street": "Rua Inussum",
        "zipcode": "68704-025"
    },
    {
        "city": "Capanema",
        "state": "PA",
        "district": "Santa Luzia",
        "street": "Loteamento Areia Branca",
        "zipcode": "68704-030"
    },
    {
        "city": "Capanema",
        "state": "PA",
        "district": "São Pedro e São Paulo",
        "street": "Passagem Antônio Araújo",
        "zipcode": "68701-803"
    },
    {
        "city": "Capanema",
        "state": "PA",
        "district": "Santa Luzia",
        "street": "Travessa da Lagoa (São João Batista)",
        "zipcode": "68704-122"
    },
    {
        "city": "Capanema",
        "state": "PA",
        "district": "Almir Gabriel",
        "street": "Travessa Projeada V",
        "zipcode": "68703-347"
    },
    {
        "city": "Capanema",
        "state": "PA",
        "district": "Oliveira Brito",
        "street": "Travessa Augusto G. de Souza",
        "zipcode": "68700-560"
    },
    {
        "city": "Capanema",
        "state": "PA",
        "district": "Almir Gabriel",
        "street": "Travessa Projetada II (Cj Almir Gabriel)",
        "zipcode": "68703-343"
    },
    {
        "city": "Capanema",
        "state": "PA",
        "district": "Pedreira",
        "street": "Travessa Renato Ribeiro de Souza",
        "zipcode": "68703-234"
    },
    {
        "city": "Capanema",
        "state": "PA",
        "district": "Samambaia",
        "street": "Travessa Jair Bernardino",
        "zipcode": "68700-300"
    },
    {
        "city": "Capanema",
        "state": "PA",
        "district": "Almir Gabriel",
        "street": "Travessa Projetada III",
        "zipcode": "68703-344"
    },
    {
        "city": "Capanema",
        "state": "PA",
        "district": "Santa Luzia",
        "street": "Travessa Projetada IX (São João Batista)",
        "zipcode": "68704-114"
    },
    {
        "city": "Capanema",
        "state": "PA",
        "district": "São Pedro e São Paulo",
        "street": "Passagem Benedito Pereira",
        "zipcode": "68701-820"
    },
    {
        "city": "Capanema",
        "state": "PA",
        "district": "São Pedro e São Paulo",
        "street": "Passagem Osvaldo Oliveira",
        "zipcode": "68701-822"
    },
    {
        "city": "Capanema",
        "state": "PA",
        "district": "Almir Gabriel",
        "street": "Travessa das Flores",
        "zipcode": "68703-335"
    },
    {
        "city": "Capanema",
        "state": "PA",
        "district": "Almir Gabriel",
        "street": "Rua Renato Ribeiro",
        "zipcode": "68703-330"
    },
    {
        "city": "Capanema",
        "state": "PA",
        "district": "Almir Gabriel",
        "street": "Passagem Campo do Vasco",
        "zipcode": "68703-352"
    },
    {
        "city": "Capanema",
        "state": "PA",
        "district": "São Raimundo",
        "street": "Rua Eduardo Angelim",
        "zipcode": "68700-750"
    },
    {
        "city": "Capanema",
        "state": "PA",
        "district": "Santa Luzia",
        "street": "Passagem Justo Raimundo Alves",
        "zipcode": "68704-003"
    },
    {
        "city": "Capanema",
        "state": "PA",
        "district": "Areia Branca",
        "street": "Conjunto Jaime Nascimento",
        "zipcode": "68703-015"
    },
    {
        "city": "Capanema",
        "state": "PA",
        "district": "Igrejinha",
        "street": "Rua Estrada Nova",
        "zipcode": "68700-235"
    },
    {
        "city": "Capanema",
        "state": "PA",
        "district": "São José",
        "street": "Rua Raimunda Beatriz",
        "zipcode": "68702-205"
    },
    {
        "city": "Capanema",
        "state": "PA",
        "district": "Centro",
        "street": "Rua Dom Pedro Ii",
        "zipcode": "68700-010"
    },
    {
        "city": "Capanema",
        "state": "PA",
        "district": "Igrejinha",
        "street": "Rua Barao Do Rio Branco",
        "zipcode": "68700-260"
    },
    {
        "city": "Capanema",
        "state": "PA",
        "district": "Tres De Maio",
        "street": "Travessa Bom Jardim",
        "zipcode": "68701-220"
    },
    {
        "city": "Capanema",
        "state": "PA",
        "district": "Areia Branca",
        "street": "Avenida Barao De Capanema",
        "zipcode": "68703-000"
    },
    {
        "city": "Capanema",
        "state": "PA",
        "district": "Oliveira Brito",
        "street": "Travessa José Bonifácio",
        "zipcode": "68700-425"
    },
    {
        "city": "Capanema",
        "state": "PA",
        "district": "Centro",
        "street": "Avenida João Paulo II",
        "zipcode": "68700-050"
    },
    {
        "city": "Capanema",
        "state": "PA",
        "district": "Fátima",
        "street": "Avenida João Paulo II",
        "zipcode": "68703-073"
    },
    {
        "city": "Capanema",
        "state": "PA",
        "district": "Pedreira",
        "street": "Avenida João Paulo II",
        "zipcode": "68700-263"
    },
    {
        "city": "Capanema",
        "state": "PA",
        "district": "Nazaré",
        "street": "Avenida João Paulo II",
        "zipcode": "68703-138"
    },
    {
        "city": "Capanema",
        "state": "PA",
        "district": "São Cristóvão",
        "street": "Avenida João Paulo II",
        "zipcode": "68701-601"
    },
    {
        "city": "Capanema",
        "state": "PA",
        "district": "Igrejinha",
        "street": "Rua Barão do Rio Branco",
        "zipcode": "68700-265"
    },
    {
        "city": "Capanema",
        "state": "PA",
        "district": "São Pio X",
        "street": "Travessa Almirante Tamandaré",
        "zipcode": "68702-080"
    },
    {
        "city": "Capanema",
        "state": "PA",
        "district": "Dom João VI",
        "street": "Passagem Angelin",
        "zipcode": "68701-170"
    },
    {
        "city": "Capanema",
        "state": "PA",
        "district": "Oliveira Brito",
        "street": "Travessa Antônio J. da Silva",
        "zipcode": "68700-520"
    },
    {
        "city": "Capanema",
        "state": "PA",
        "district": "Nazaré",
        "street": "Avenida Senador Jarbas Passarinho",
        "zipcode": "68703-220"
    },
    {
        "city": "Capanema",
        "state": "PA",
        "district": "Oliveira Brito",
        "street": "Travessa Tenente Severino",
        "zipcode": "68700-550"
    },
    {
        "city": "Capanema",
        "state": "PA",
        "district": "Três de Maio",
        "street": "Passagem Quirino",
        "zipcode": "68701-201"
    },
    {
        "city": "Capanema",
        "state": "PA",
        "district": "Inussun",
        "street": "Alameda Professora Alice Regina Costa",
        "zipcode": "68702-158"
    },
    {
        "city": "Capanema",
        "state": "PA",
        "district": "São Cristóvão",
        "street": "Travessa Wilsom Silva",
        "zipcode": "68701-616"
    },
    {
        "city": "Capanema",
        "state": "PA",
        "district": "Tancredo Neves",
        "street": "Travessa Coronel Leandro Pinheiro",
        "zipcode": "68702-040"
    },
    {
        "city": "Capanema",
        "state": "PA",
        "district": "São Pedro e São Paulo",
        "street": "Travessa Bromelia (Res Prfa Gercina de Oliveira)",
        "zipcode": "68701-846"
    },
    {
        "city": "Capanema",
        "state": "PA",
        "district": "São Pedro e São Paulo",
        "street": "Travessa Gérbera (Res Prfa Gercina de Oliveira)",
        "zipcode": "68701-841"
    },
    {
        "city": "Capanema",
        "state": "PA",
        "district": "Três de Maio",
        "street": "Alameda Sandoval Mesquita (Passagem Tucumã)",
        "zipcode": "68701-209"
    },
    {
        "city": "Capanema",
        "state": "PA",
        "district": "São Pedro e São Paulo",
        "street": "Travessa Gerbera (Res Prfa Gercina de Oliveira)",
        "zipcode": "68701-845"
    },
    {
        "city": "Capanema",
        "state": "PA",
        "district": "São Pedro e São Paulo",
        "street": "Travessa Sulamita Diniz (Res Prfa Gercina de Oliveira)",
        "zipcode": "68701-844"
    },
    {
        "city": "Capanema",
        "state": "PA",
        "district": "Pedreira",
        "street": "Rua Campo do Vasco",
        "zipcode": "68703-232"
    },
    {
        "city": "Capanema",
        "state": "PA",
        "district": "São Pedro e São Paulo",
        "street": "Rua Josué Araújo da Silva (Res Prfa Gercina de Oliveira)",
        "zipcode": "68701-840"
    },
    {
        "city": "Capanema",
        "state": "PA",
        "district": "Oliveira Brito",
        "street": "Rua Projetada V",
        "zipcode": "68700-526"
    },
    {
        "city": "Capanema",
        "state": "PA",
        "district": "São Pedro e São Paulo",
        "street": "Travessa Orquidea (Res Prfa Gercina de Oliveira)",
        "zipcode": "68701-842"
    },
    {
        "city": "Capanema",
        "state": "PA",
        "district": "Igrejinha",
        "street": "Travessa Miguel Leite",
        "zipcode": "68700-210"
    },
    {
        "city": "Capanema",
        "state": "PA",
        "district": "Centro",
        "street": "Rua Vinte E Oito De Outubro",
        "zipcode": "68700-040"
    }
]