[
    {
        "city": "Paragominas",
        "state": "PA",
        "district": "Jaderlândia",
        "street": "Rua Itarantim",
        "zipcode": "68627-524"
    },
    {
        "city": "Paragominas",
        "state": "PA",
        "district": "JK",
        "street": "Rua Gilberto Freire",
        "zipcode": "68628-570"
    },
    {
        "city": "Paragominas",
        "state": "PA",
        "district": "Morada do Sol",
        "street": "Rua W",
        "zipcode": "68626-568"
    },
    {
        "city": "Paragominas",
        "state": "PA",
        "district": "Promissão I",
        "street": "Rua Antônio Borges",
        "zipcode": "68628-025"
    },
    {
        "city": "Paragominas",
        "state": "PA",
        "district": "Jardim Camboatã I",
        "street": "Rua Guarani",
        "zipcode": "68626-500"
    },
    {
        "city": "Paragominas",
        "state": "PA",
        "district": "Morada do Sol",
        "street": "Rua W",
        "zipcode": "68626-564"
    },
    {
        "city": "Paragominas",
        "state": "PA",
        "district": "JK",
        "street": "Avenida Júlia Kubitschek",
        "zipcode": "68628-598"
    },
    {
        "city": "Paragominas",
        "state": "PA",
        "district": "Jardim Camboatã II",
        "street": "Rua Campolina",
        "zipcode": "68626-415"
    },
    {
        "city": "Paragominas",
        "state": "PA",
        "district": "Nagib Demachki",
        "street": "Rua São Francisco",
        "zipcode": "68630-635"
    },
    {
        "city": "Paragominas",
        "state": "PA",
        "district": "Parque Village Flamboyant",
        "street": "Rua José Lima dos Salmos (Residencial Helena Coutinho)",
        "zipcode": "68630-731"
    },
    {
        "city": "Paragominas",
        "state": "PA",
        "district": "Jardim Camboatã II",
        "street": "Rua Central",
        "zipcode": "68626-404"
    },
    {
        "city": "Paragominas",
        "state": "PA",
        "district": "Laércio Cabeline",
        "street": "Rua Maurício Carneiro",
        "zipcode": "68627-448"
    },
    {
        "city": "Paragominas",
        "state": "PA",
        "district": "JK",
        "street": "Rua Pedro Américo",
        "zipcode": "68628-594"
    },
    {
        "city": "Paragominas",
        "state": "PA",
        "district": "Jaderlândia",
        "street": "Rua Brasil Novo",
        "zipcode": "68627-516"
    },
    {
        "city": "Paragominas",
        "state": "PA",
        "district": "Nagib Demachki",
        "street": "Travessa Dunorte",
        "zipcode": "68630-647"
    },
    {
        "city": "Paragominas",
        "state": "PA",
        "district": "Parque Village Flamboyant",
        "street": "Avenida Terezinha de Oliveira (Residencial Helena Coutinho)",
        "zipcode": "68630-723"
    },
    {
        "city": "Paragominas",
        "state": "PA",
        "district": "Morada do Sol",
        "street": "Rua W",
        "zipcode": "68626-574"
    },
    {
        "city": "Paragominas",
        "state": "PA",
        "district": "Parque das Américas",
        "street": "Rua Sebastião Neves",
        "zipcode": "68627-695"
    },
    {
        "city": "Paragominas",
        "state": "PA",
        "district": "Laércio Cabeline",
        "street": "Rua Laurentino Soares",
        "zipcode": "68627-495"
    },
    {
        "city": "Paragominas",
        "state": "PA",
        "district": "Setor Industrial",
        "street": "Estrada Colônia do Uraim",
        "zipcode": "68627-400"
    },
    {
        "city": "Paragominas",
        "state": "PA",
        "district": "Promissão III",
        "street": "Rua Maria das Neves Rocha (Cj Olga Moreira)",
        "zipcode": "68628-518"
    },
    {
        "city": "Paragominas",
        "state": "PA",
        "district": "Morada do Sol",
        "street": "Rua W",
        "zipcode": "68626-554"
    },
    {
        "city": "Paragominas",
        "state": "PA",
        "district": "Laércio Cabeline",
        "street": "Travessa São Sebastião",
        "zipcode": "68627-430"
    },
    {
        "city": "Paragominas",
        "state": "PA",
        "district": "Parque Village Flamboyant",
        "street": "Avenida Bibiana Ferreira da Luz (Residencial Helena Coutinho)",
        "zipcode": "68630-717"
    },
    {
        "city": "Paragominas",
        "state": "PA",
        "district": "Centro",
        "street": "Rua Nova Matriz",
        "zipcode": "68625-013"
    },
    {
        "city": "Paragominas",
        "state": "PA",
        "district": "Promissão III",
        "street": "Alameda Mário Covas",
        "zipcode": "68628-489"
    },
    {
        "city": "Paragominas",
        "state": "PA",
        "district": "Promissão III",
        "street": "Rua Jáder Moraes (Cj Olga Moreira)",
        "zipcode": "68628-510"
    },
    {
        "city": "Paragominas",
        "state": "PA",
        "district": "Parque Village Flamboyant",
        "street": "Rua Cleone P. dos Santos (Residencial Helena Coutinho)",
        "zipcode": "68630-725"
    },
    {
        "city": "Paragominas",
        "state": "PA",
        "district": "Promissão IV",
        "street": "Rua Cícero Alves",
        "zipcode": "68628-547"
    },
    {
        "city": "Paragominas",
        "state": "PA",
        "district": "JK",
        "street": "Rua Juarez távora",
        "zipcode": "68628-555"
    },
    {
        "city": "Paragominas",
        "state": "PA",
        "district": "Célio Miranda",
        "street": "Rua Estado de Goiás",
        "zipcode": "68625-120"
    },
    {
        "city": "Paragominas",
        "state": "PA",
        "district": "Uraim",
        "street": "Rua José Rodrigues Costa",
        "zipcode": "68630-772"
    },
    {
        "city": "Paragominas",
        "state": "PA",
        "district": "Camboatã",
        "street": "Rua Vitória",
        "zipcode": "68626-624"
    },
    {
        "city": "Paragominas",
        "state": "PA",
        "district": "Parque Village Flamboyant",
        "street": "Rua Doze",
        "zipcode": "68630-889"
    },
    {
        "city": "Paragominas",
        "state": "PA",
        "district": "Célio Miranda",
        "street": "Rua Marabá",
        "zipcode": "68625-330"
    },
    {
        "city": "Paragominas",
        "state": "PA",
        "district": "Tião Mineiro",
        "street": "Rua Aroeira",
        "zipcode": "68630-700"
    },
    {
        "city": "Paragominas",
        "state": "PA",
        "district": "Tião Mineiro",
        "street": "Rua Cedro",
        "zipcode": "68630-702"
    },
    {
        "city": "Paragominas",
        "state": "PA",
        "district": "Tião Mineiro",
        "street": "Rua Maçaranduba",
        "zipcode": "68630-706"
    },
    {
        "city": "Paragominas",
        "state": "PA",
        "district": "Tião Mineiro",
        "street": "Rua Piquit",
        "zipcode": "68630-712"
    },
    {
        "city": "Paragominas",
        "state": "PA",
        "district": "Tião Mineiro",
        "street": "Rua Manacá da Serra",
        "zipcode": "68630-718"
    },
    {
        "city": "Paragominas",
        "state": "PA",
        "district": "Tião Mineiro",
        "street": "Rua Marajoara",
        "zipcode": "68630-720"
    },
    {
        "city": "Paragominas",
        "state": "PA",
        "district": "Tião Mineiro",
        "street": "Rua Sansão do Campo",
        "zipcode": "68630-722"
    },
    {
        "city": "Paragominas",
        "state": "PA",
        "district": "Nagibão",
        "street": "Travessa Lumapal",
        "zipcode": "68630-610"
    },
    {
        "city": "Paragominas",
        "state": "PA",
        "district": "Nova Conquista",
        "street": "Rua José Wilton Rocha",
        "zipcode": "68627-552"
    },
    {
        "city": "Paragominas",
        "state": "PA",
        "district": "Nova Conquista",
        "street": "Rua Machado de Assis",
        "zipcode": "68627-556"
    },
    {
        "city": "Paragominas",
        "state": "PA",
        "district": "Nova Conquista",
        "street": "Rua Maria Pereira de Jesus",
        "zipcode": "68627-560"
    },
    {
        "city": "Paragominas",
        "state": "PA",
        "district": "Nova Conquista",
        "street": "Rua Miguel Oliveira",
        "zipcode": "68627-562"
    },
    {
        "city": "Paragominas",
        "state": "PA",
        "district": "Nova Conquista",
        "street": "Rua Moreira da Silva",
        "zipcode": "68627-564"
    },
    {
        "city": "Paragominas",
        "state": "PA",
        "district": "Nova Conquista",
        "street": "Rua Pastor J Pereira",
        "zipcode": "68627-594"
    },
    {
        "city": "Paragominas",
        "state": "PA",
        "district": "Nova Conquista",
        "street": "Rua Barão de Serro Azul",
        "zipcode": "68627-576"
    },
    {
        "city": "Paragominas",
        "state": "PA",
        "district": "Nova Conquista",
        "street": "Vila Uniex",
        "zipcode": "68627-596"
    },
    {
        "city": "Paragominas",
        "state": "PA",
        "district": "Camboatã",
        "street": "Rua Fernando Henrique",
        "zipcode": "68627-612"
    },
    {
        "city": "Paragominas",
        "state": "PA",
        "district": "Camboatã",
        "street": "Rua Inconfidência",
        "zipcode": "68627-614"
    },
    {
        "city": "Paragominas",
        "state": "PA",
        "district": "Camboatã",
        "street": "Rua Liberdade",
        "zipcode": "68627-618"
    },
    {
        "city": "Paragominas",
        "state": "PA",
        "district": "Camboatã",
        "street": "Rua Vinte e Dois de Novembro",
        "zipcode": "68627-634"
    },
    {
        "city": "Paragominas",
        "state": "PA",
        "district": "Célio Miranda",
        "street": "Rua Chico Mendes",
        "zipcode": "68625-025"
    },
    {
        "city": "Paragominas",
        "state": "PA",
        "district": "Parque Village Flamboyant",
        "street": "Alameda Amilcar Tocantins",
        "zipcode": "68630-888"
    },
    {
        "city": "Paragominas",
        "state": "PA",
        "district": "JK",
        "street": "Rua Marechal Teixeira Lott",
        "zipcode": "68628-592"
    },
    {
        "city": "Paragominas",
        "state": "PA",
        "district": "Parque Village Flamboyant",
        "street": "Rua Pau",
        "zipcode": "68630-713"
    },
    {
        "city": "Paragominas",
        "state": "PA",
        "district": "Nova Conquista",
        "street": "Rua João Pastor Pereira",
        "zipcode": "68627-456"
    },
    {
        "city": "Paragominas",
        "state": "PA",
        "district": "Célio Miranda",
        "street": "Rua Juiz de Fora",
        "zipcode": "68625-335"
    },
    {
        "city": "Paragominas",
        "state": "PA",
        "district": "Nagibão",
        "street": "Rua Benedita Oliveira da Cruz",
        "zipcode": "68630-505"
    },
    {
        "city": "Paragominas",
        "state": "PA",
        "district": "Nagibão",
        "street": "Rua Agostinho Dias de Oliveira",
        "zipcode": "68630-530"
    },
    {
        "city": "Paragominas",
        "state": "PA",
        "district": "Nagibão",
        "street": "Rua Letícia Almeida de França",
        "zipcode": "68630-535"
    },
    {
        "city": "Paragominas",
        "state": "PA",
        "district": "Nagibão",
        "street": "Avenida Léo Bruno Pimenta",
        "zipcode": "68630-575"
    },
    {
        "city": "Paragominas",
        "state": "PA",
        "district": "Nagibão",
        "street": "Travessa Primus",
        "zipcode": "68630-595"
    },
    {
        "city": "Paragominas",
        "state": "PA",
        "district": "Uraim",
        "street": "Rua Ataíde Reis Lago (Lot Uraim II)",
        "zipcode": "68630-786"
    },
    {
        "city": "Paragominas",
        "state": "PA",
        "district": "Uraim",
        "street": "Avenida Dias Côrrea",
        "zipcode": "68630-800"
    },
    {
        "city": "Paragominas",
        "state": "PA",
        "district": "Promissão",
        "street": "Rua Alagoas",
        "zipcode": "68627-656"
    },
    {
        "city": "Paragominas",
        "state": "PA",
        "district": "Jardim Atlântico",
        "street": "Rua Antônio Geraes Neto",
        "zipcode": "68627-004"
    },
    {
        "city": "Paragominas",
        "state": "PA",
        "district": "Jardim Atlântico",
        "street": "Rua Clóvis Queiróz",
        "zipcode": "68627-008"
    },
    {
        "city": "Paragominas",
        "state": "PA",
        "district": "Camboatã",
        "street": "Travessa Jurandir da Fonseca",
        "zipcode": "68630-832"
    },
    {
        "city": "Paragominas",
        "state": "PA",
        "district": "Camboatã",
        "street": "Rua Joselito José de Souza Filho",
        "zipcode": "68630-844"
    },
    {
        "city": "Paragominas",
        "state": "PA",
        "district": "Camboatã",
        "street": "Travessa Pâmela Gales Moura",
        "zipcode": "68630-846"
    },
    {
        "city": "Paragominas",
        "state": "PA",
        "district": "Camboatã",
        "street": "Rua Adelino de Freitas Bicalho",
        "zipcode": "68630-860"
    },
    {
        "city": "Paragominas",
        "state": "PA",
        "district": "Angelim",
        "street": "Rua Nagib Demaschik",
        "zipcode": "68627-692"
    },
    {
        "city": "Paragominas",
        "state": "PA",
        "district": "Nova Conquista",
        "street": "Rua Antônia Rosana da Conceição",
        "zipcode": "68627-542"
    },
    {
        "city": "Paragominas",
        "state": "PA",
        "district": "Jardim Atlântico",
        "street": "Travessa Osvaldo Cruz",
        "zipcode": "68627-474"
    },
    {
        "city": "Paragominas",
        "state": "PA",
        "district": "Jardim Atlântico",
        "street": "Avenida Júlio Kubitschek",
        "zipcode": "68627-484"
    },
    {
        "city": "Paragominas",
        "state": "PA",
        "district": "Uraim",
        "street": "Rua Venceslau Braz",
        "zipcode": "68626-225"
    },
    {
        "city": "Paragominas",
        "state": "PA",
        "district": "Promissão",
        "street": "Rua Beira",
        "zipcode": "68628-195"
    },
    {
        "city": "Paragominas",
        "state": "PA",
        "district": "Jardim Atlântico",
        "street": "Rua F Freire",
        "zipcode": "68627-447"
    },
    {
        "city": "Paragominas",
        "state": "PA",
        "district": "Tião Mineiro",
        "street": "Rua Freijó",
        "zipcode": "68630-758"
    },
    {
        "city": "Paragominas",
        "state": "PA",
        "district": "Camboatã",
        "street": "Rua Epitácio Celso de Oliveira",
        "zipcode": "68630-842"
    },
    {
        "city": "Paragominas",
        "state": "PA",
        "district": "Jardim Camboatã I",
        "street": "Rua Euzébio J. Alves",
        "zipcode": "68626-509"
    },
    {
        "city": "Paragominas",
        "state": "PA",
        "district": "Parque Village Flamboyant",
        "street": "Rua Cinco",
        "zipcode": "68630-875"
    },
    {
        "city": "Paragominas",
        "state": "PA",
        "district": "Parque Village Flamboyant",
        "street": "Rua Onze",
        "zipcode": "68630-887"
    },
    {
        "city": "Paragominas",
        "state": "PA",
        "district": "Uraim",
        "street": "Rua Juscelino Kubitschek",
        "zipcode": "68626-180"
    },
    {
        "city": "Paragominas",
        "state": "PA",
        "district": "Bela Vista",
        "street": "Rua Eldorado",
        "zipcode": "68627-000"
    },
    {
        "city": "Paragominas",
        "state": "PA",
        "district": "Jardim Camboatã I",
        "street": "Rua Luis Gonzaga",
        "zipcode": "68626-502"
    },
    {
        "city": "Paragominas",
        "state": "PA",
        "district": "Jardim Camboatã I",
        "street": "Rua Antonio S. Filho",
        "zipcode": "68626-505"
    },
    {
        "city": "Paragominas",
        "state": "PA",
        "district": "Vila Rica",
        "street": "Rua Tiradentes",
        "zipcode": "68626-426"
    },
    {
        "city": "Paragominas",
        "state": "PA",
        "district": "Módulo II",
        "street": "Rua Almenara",
        "zipcode": "68626-010"
    },
    {
        "city": "Paragominas",
        "state": "PA",
        "district": "Centro",
        "street": "Rua Amazonas",
        "zipcode": "68626-110"
    },
    {
        "city": "Paragominas",
        "state": "PA",
        "district": "Módulo II",
        "street": "Rua Belém",
        "zipcode": "68626-070"
    },
    {
        "city": "Paragominas",
        "state": "PA",
        "district": "Centro",
        "street": "Rua Castelo Branco",
        "zipcode": "68625-005"
    },
    {
        "city": "Paragominas",
        "state": "PA",
        "district": "Guanabara",
        "street": "Rua Equador",
        "zipcode": "68625-600"
    },
    {
        "city": "Paragominas",
        "state": "PA",
        "district": "Centro",
        "street": "Rua Itabunas",
        "zipcode": "68626-030"
    },
    {
        "city": "Paragominas",
        "state": "PA",
        "district": "Centro",
        "street": "Rua Padre Anchieta",
        "zipcode": "68626-090"
    },
    {
        "city": "Paragominas",
        "state": "PA",
        "district": "Centro",
        "street": "Rua Timbiras I",
        "zipcode": "68625-610"
    },
    {
        "city": "Paragominas",
        "state": "PA",
        "district": "Centro",
        "street": "Rua Tiradentes",
        "zipcode": "68626-130"
    },
    {
        "city": "Paragominas",
        "state": "PA",
        "district": "Centro",
        "street": "Rua Uberlândia",
        "zipcode": "68626-000"
    },
    {
        "city": "Paragominas",
        "state": "PA",
        "district": "Guanabara",
        "street": "Rua Uruguai",
        "zipcode": "68625-590"
    },
    {
        "city": "Paragominas",
        "state": "PA",
        "district": "Centro",
        "street": "Rua Vitória da Conquista",
        "zipcode": "68626-050"
    },
    {
        "city": "Paragominas",
        "state": "PA",
        "district": "Módulo II",
        "street": "Rua Ilhéus",
        "zipcode": "68626-060"
    },
    {
        "city": "Paragominas",
        "state": "PA",
        "district": "Centro",
        "street": "Rua Belo Horizonte",
        "zipcode": "68626-140"
    },
    {
        "city": "Paragominas",
        "state": "PA",
        "district": "Jardim Camboatã II",
        "street": "Rua São Marcos",
        "zipcode": "68626-400"
    },
    {
        "city": "Paragominas",
        "state": "PA",
        "district": "Jardim Camboatã II",
        "street": "Rua Santa Helena",
        "zipcode": "68626-401"
    },
    {
        "city": "Paragominas",
        "state": "PA",
        "district": "Jardim Camboatã II",
        "street": "Rua Vinte e Cinco de Dezembro",
        "zipcode": "68626-402"
    },
    {
        "city": "Paragominas",
        "state": "PA",
        "district": "Jardim Camboatã II",
        "street": "Rua São Francisco",
        "zipcode": "68626-406"
    },
    {
        "city": "Paragominas",
        "state": "PA",
        "district": "Jardim Camboatã II",
        "street": "Rua Rio Verde",
        "zipcode": "68626-408"
    },
    {
        "city": "Paragominas",
        "state": "PA",
        "district": "Jardim Camboatã II",
        "street": "Rua Bonfim",
        "zipcode": "68626-410"
    },
    {
        "city": "Paragominas",
        "state": "PA",
        "district": "Jardim Camboatã II",
        "street": "Rua G. Campos",
        "zipcode": "68626-411"
    },
    {
        "city": "Paragominas",
        "state": "PA",
        "district": "Nova Conquista",
        "street": "Rua Lúcia Dallas",
        "zipcode": "68627-452"
    },
    {
        "city": "Paragominas",
        "state": "PA",
        "district": "Paraíso",
        "street": "Rua Tapajós",
        "zipcode": "68626-615"
    },
    {
        "city": "Paragominas",
        "state": "PA",
        "district": "Nova Conquista",
        "street": "Rua Melquesedec Santos",
        "zipcode": "68627-453"
    },
    {
        "city": "Paragominas",
        "state": "PA",
        "district": "Centro",
        "street": "Rua São Francisco",
        "zipcode": "68625-008"
    },
    {
        "city": "Paragominas",
        "state": "PA",
        "district": "Centro",
        "street": "Rua São Paulo",
        "zipcode": "68625-009"
    },
    {
        "city": "Paragominas",
        "state": "PA",
        "district": "Centro",
        "street": "Travessa Sergipe",
        "zipcode": "68625-012"
    },
    {
        "city": "Paragominas",
        "state": "PA",
        "district": "Nova Conquista",
        "street": "Rua Edvaldo Amorim",
        "zipcode": "68627-457"
    },
    {
        "city": "Paragominas",
        "state": "PA",
        "district": "Centro",
        "street": "Rua Dom Pedro II (Eixo W S)",
        "zipcode": "68625-014"
    },
    {
        "city": "Paragominas",
        "state": "PA",
        "district": "Uraim II",
        "street": "Rua Raio de Sol",
        "zipcode": "68626-384"
    },
    {
        "city": "Paragominas",
        "state": "PA",
        "district": "Vila Rica",
        "street": "Avenida Magalhães Almeida",
        "zipcode": "68626-420"
    },
    {
        "city": "Paragominas",
        "state": "PA",
        "district": "Vila Rica",
        "street": "Rua São Pedro",
        "zipcode": "68626-422"
    },
    {
        "city": "Paragominas",
        "state": "PA",
        "district": "Vila Rica",
        "street": "Rua São Luís",
        "zipcode": "68626-423"
    },
    {
        "city": "Paragominas",
        "state": "PA",
        "district": "Promissão",
        "street": "Rua Pinheirense",
        "zipcode": "68627-654"
    },
    {
        "city": "Paragominas",
        "state": "PA",
        "district": "Uraim",
        "street": "Rua Belém",
        "zipcode": "68626-386"
    },
    {
        "city": "Paragominas",
        "state": "PA",
        "district": "Uraim",
        "street": "Rua das Estrelas",
        "zipcode": "68626-392"
    },
    {
        "city": "Paragominas",
        "state": "PA",
        "district": "Uraim",
        "street": "Rua Independente",
        "zipcode": "68626-394"
    },
    {
        "city": "Paragominas",
        "state": "PA",
        "district": "Camboatã",
        "street": "Rua do Sol",
        "zipcode": "68626-622"
    },
    {
        "city": "Paragominas",
        "state": "PA",
        "district": "Tião Mineiro",
        "street": "Alameda Oticaca",
        "zipcode": "68630-728"
    },
    {
        "city": "Paragominas",
        "state": "PA",
        "district": "Tião Mineiro",
        "street": "Rua Quaresmeira",
        "zipcode": "68630-734"
    },
    {
        "city": "Paragominas",
        "state": "PA",
        "district": "Nova Conquista",
        "street": "Rua Marajoara",
        "zipcode": "68627-558"
    },
    {
        "city": "Paragominas",
        "state": "PA",
        "district": "Nova Conquista",
        "street": "Rua Paraguaçu",
        "zipcode": "68627-566"
    },
    {
        "city": "Paragominas",
        "state": "PA",
        "district": "Nova Conquista",
        "street": "Rua Reginaldo de Souza Melo",
        "zipcode": "68627-570"
    },
    {
        "city": "Paragominas",
        "state": "PA",
        "district": "Nova Conquista",
        "street": "Rua Silas Gonçalves",
        "zipcode": "68627-574"
    },
    {
        "city": "Paragominas",
        "state": "PA",
        "district": "Nova Conquista",
        "street": "Rua Zizo L Santos",
        "zipcode": "68627-580"
    },
    {
        "city": "Paragominas",
        "state": "PA",
        "district": "Célio Miranda",
        "street": "Rua Eixo W",
        "zipcode": "68625-325"
    },
    {
        "city": "Paragominas",
        "state": "PA",
        "district": "Célio Miranda",
        "street": "Rua Ponta Porã",
        "zipcode": "68625-345"
    },
    {
        "city": "Paragominas",
        "state": "PA",
        "district": "Tião Mineiro",
        "street": "Rua Spatudia",
        "zipcode": "68630-764"
    },
    {
        "city": "Paragominas",
        "state": "PA",
        "district": "Jardim Atlântico",
        "street": "Rua dos Apóstolos",
        "zipcode": "68627-280"
    },
    {
        "city": "Paragominas",
        "state": "PA",
        "district": "Jardim Atlântico",
        "street": "Rua Bom Jesus",
        "zipcode": "68627-310"
    },
    {
        "city": "Paragominas",
        "state": "PA",
        "district": "Cidade Nova",
        "street": "Rua Borba Gato",
        "zipcode": "68625-550"
    },
    {
        "city": "Paragominas",
        "state": "PA",
        "district": "Jardim Atlântico",
        "street": "Rua Carajás",
        "zipcode": "68627-360"
    },
    {
        "city": "Paragominas",
        "state": "PA",
        "district": "Jardim Atlântico",
        "street": "Rua Carlos Chagas",
        "zipcode": "68627-200"
    },
    {
        "city": "Paragominas",
        "state": "PA",
        "district": "Guanabara",
        "street": "Rua Chile",
        "zipcode": "68625-560"
    },
    {
        "city": "Paragominas",
        "state": "PA",
        "district": "Módulo II",
        "street": "Rua Cuiabá",
        "zipcode": "68625-350"
    },
    {
        "city": "Paragominas",
        "state": "PA",
        "district": "Módulo II",
        "street": "Rua Imperatriz",
        "zipcode": "68625-400"
    },
    {
        "city": "Paragominas",
        "state": "PA",
        "district": "Módulo II",
        "street": "Travessa Jaciara",
        "zipcode": "68625-300"
    },
    {
        "city": "Paragominas",
        "state": "PA",
        "district": "Jardim Atlântico",
        "street": "Rua Livramento",
        "zipcode": "68627-350"
    },
    {
        "city": "Paragominas",
        "state": "PA",
        "district": "Cidade Nova",
        "street": "Rua Nossa Senhora Aparecida",
        "zipcode": "68625-510"
    },
    {
        "city": "Paragominas",
        "state": "PA",
        "district": "Cidade Nova",
        "street": "Rua Padre Cícero",
        "zipcode": "68625-490"
    },
    {
        "city": "Paragominas",
        "state": "PA",
        "district": "Jardim Atlântico",
        "street": "Rodovia dos Pioneiros",
        "zipcode": "68627-370"
    },
    {
        "city": "Paragominas",
        "state": "PA",
        "district": "Trecho Seco",
        "street": "Rua Porto Alegre",
        "zipcode": "68627-390"
    },
    {
        "city": "Paragominas",
        "state": "PA",
        "district": "Jardim Atlântico",
        "street": "Rua Redenção",
        "zipcode": "68627-320"
    },
    {
        "city": "Paragominas",
        "state": "PA",
        "district": "Módulo II",
        "street": "Rua Santa Helena",
        "zipcode": "68625-390"
    },
    {
        "city": "Paragominas",
        "state": "PA",
        "district": "Cidade Nova",
        "street": "Rua Santa Isabel",
        "zipcode": "68625-285"
    },
    {
        "city": "Paragominas",
        "state": "PA",
        "district": "Jardim Atlântico",
        "street": "Rua Santa Maria",
        "zipcode": "68627-230"
    },
    {
        "city": "Paragominas",
        "state": "PA",
        "district": "Jardim Atlântico",
        "street": "Rua Santa Rosa",
        "zipcode": "68627-240"
    },
    {
        "city": "Paragominas",
        "state": "PA",
        "district": "Cidade Nova",
        "street": "Rua São José",
        "zipcode": "68625-450"
    },
    {
        "city": "Paragominas",
        "state": "PA",
        "district": "Jardim Atlântico",
        "street": "Rua Trindade",
        "zipcode": "68627-300"
    },
    {
        "city": "Paragominas",
        "state": "PA",
        "district": "Jardim Atlântico",
        "street": "Rua Santa Luzia",
        "zipcode": "68627-250"
    },
    {
        "city": "Paragominas",
        "state": "PA",
        "district": "Cidade Nova",
        "street": "Rua Santo Antônio",
        "zipcode": "68625-520"
    },
    {
        "city": "Paragominas",
        "state": "PA",
        "district": "Módulo II",
        "street": "Rua Santa Inês",
        "zipcode": "68625-420"
    },
    {
        "city": "Paragominas",
        "state": "PA",
        "district": "Cidade Nova",
        "street": "Avenida Teresina",
        "zipcode": "68625-440"
    },
    {
        "city": "Paragominas",
        "state": "PA",
        "district": "Angelim",
        "street": "Rua Afonso Pena",
        "zipcode": "68626-359"
    },
    {
        "city": "Paragominas",
        "state": "PA",
        "district": "Angelim",
        "street": "Rua Piriá",
        "zipcode": "68626-361"
    },
    {
        "city": "Paragominas",
        "state": "PA",
        "district": "Angelim",
        "street": "Rua Hermes da Fonseca",
        "zipcode": "68626-362"
    },
    {
        "city": "Paragominas",
        "state": "PA",
        "district": "Jaderlândia",
        "street": "Rua do Posto",
        "zipcode": "68627-535"
    },
    {
        "city": "Paragominas",
        "state": "PA",
        "district": "Aragão",
        "street": "Rua Nova Vida",
        "zipcode": "68627-412"
    },
    {
        "city": "Paragominas",
        "state": "PA",
        "district": "Laércio Cabeline",
        "street": "Travessa Paulo Fonteles",
        "zipcode": "68627-432"
    },
    {
        "city": "Paragominas",
        "state": "PA",
        "district": "Laércio Cabeline",
        "street": "Avenida Magalhães Barata",
        "zipcode": "68627-434"
    },
    {
        "city": "Paragominas",
        "state": "PA",
        "district": "Laércio Cabeline",
        "street": "Travessa Natan Pereira",
        "zipcode": "68627-436"
    },
    {
        "city": "Paragominas",
        "state": "PA",
        "district": "Laércio Cabeline",
        "street": "Avenida Porto Alegre",
        "zipcode": "68627-438"
    },
    {
        "city": "Paragominas",
        "state": "PA",
        "district": "Laércio Cabeline",
        "street": "Travessa Lauro Martins",
        "zipcode": "68627-440"
    },
    {
        "city": "Paragominas",
        "state": "PA",
        "district": "Laércio Cabeline",
        "street": "Travessa Brasionel B. Rodrigues",
        "zipcode": "68627-441"
    },
    {
        "city": "Paragominas",
        "state": "PA",
        "district": "Centro",
        "street": "Rua Paraguai",
        "zipcode": "68625-018"
    },
    {
        "city": "Paragominas",
        "state": "PA",
        "district": "Uraim II",
        "street": "Rua São Gabriel",
        "zipcode": "68626-381"
    },
    {
        "city": "Paragominas",
        "state": "PA",
        "district": "Uraim II",
        "street": "Travessa Meestrite",
        "zipcode": "68626-382"
    },
    {
        "city": "Paragominas",
        "state": "PA",
        "district": "Camboatã",
        "street": "Rua Rosalina Batista",
        "zipcode": "68630-830"
    },
    {
        "city": "Paragominas",
        "state": "PA",
        "district": "Tião Mineiro",
        "street": "Rua Imbuia",
        "zipcode": "68630-748"
    },
    {
        "city": "Paragominas",
        "state": "PA",
        "district": "Tião Mineiro",
        "street": "Rua Ipê Amarelo",
        "zipcode": "68630-754"
    },
    {
        "city": "Paragominas",
        "state": "PA",
        "district": "Juparanã",
        "street": "Rua das Laranjeiras",
        "zipcode": "68629-092"
    },
    {
        "city": "Paragominas",
        "state": "PA",
        "district": "Célio Miranda",
        "street": "Rua Monte Líbano",
        "zipcode": "68625-035"
    },
    {
        "city": "Paragominas",
        "state": "PA",
        "district": "Angelim",
        "street": "Rua da Fazendinha",
        "zipcode": "68626-365"
    },
    {
        "city": "Paragominas",
        "state": "PA",
        "district": "Angelim",
        "street": "Rua Maria Tatiele",
        "zipcode": "68626-367"
    },
    {
        "city": "Paragominas",
        "state": "PA",
        "district": "Jardim Atlântico",
        "street": "Rua Porto Alegre",
        "zipcode": "68627-155"
    },
    {
        "city": "Paragominas",
        "state": "PA",
        "district": "Uraim",
        "street": "Rua Londres",
        "zipcode": "68626-396"
    },
    {
        "city": "Paragominas",
        "state": "PA",
        "district": "Promissão II",
        "street": "Rua Alvorada",
        "zipcode": "68628-240"
    },
    {
        "city": "Paragominas",
        "state": "PA",
        "district": "Centro",
        "street": "Rua Bernardo Saião",
        "zipcode": "68625-150"
    },
    {
        "city": "Paragominas",
        "state": "PA",
        "district": "Promissão II",
        "street": "Rua Carlos Gomes",
        "zipcode": "68628-210"
    },
    {
        "city": "Paragominas",
        "state": "PA",
        "district": "Módulo II",
        "street": "Rua Carolina",
        "zipcode": "68625-430"
    },
    {
        "city": "Paragominas",
        "state": "PA",
        "district": "Centro",
        "street": "Rua Célio Miranda",
        "zipcode": "68625-050"
    },
    {
        "city": "Paragominas",
        "state": "PA",
        "district": "Centro",
        "street": "Avenida Contorno",
        "zipcode": "68625-245"
    },
    {
        "city": "Paragominas",
        "state": "PA",
        "district": "Centro",
        "street": "Rua Dom Pedro I",
        "zipcode": "68625-220"
    },
    {
        "city": "Paragominas",
        "state": "PA",
        "district": "Promissão II",
        "street": "Rua Esplanadas",
        "zipcode": "68628-250"
    },
    {
        "city": "Paragominas",
        "state": "PA",
        "district": "Centro",
        "street": "Rua Estado da Bahia",
        "zipcode": "68625-070"
    },
    {
        "city": "Paragominas",
        "state": "PA",
        "district": "Centro",
        "street": "Rua Fínex Rio",
        "zipcode": "68625-255"
    },
    {
        "city": "Paragominas",
        "state": "PA",
        "district": "Promissão II",
        "street": "Rua Gonçalves Dias",
        "zipcode": "68628-290"
    },
    {
        "city": "Paragominas",
        "state": "PA",
        "district": "Promissão II",
        "street": "Rua Guimarães Rosa",
        "zipcode": "68628-220"
    },
    {
        "city": "Paragominas",
        "state": "PA",
        "district": "Módulo II",
        "street": "Rua Juiz de Fora",
        "zipcode": "68625-280"
    },
    {
        "city": "Paragominas",
        "state": "PA",
        "district": "Centro",
        "street": "Rua Júlia Passarinho",
        "zipcode": "68625-250"
    },
    {
        "city": "Paragominas",
        "state": "PA",
        "district": "Centro",
        "street": "Rua Lameira Bittencourt",
        "zipcode": "68625-140"
    },
    {
        "city": "Paragominas",
        "state": "PA",
        "district": "Centro",
        "street": "Rua Manoel Barata",
        "zipcode": "68625-160"
    },
    {
        "city": "Paragominas",
        "state": "PA",
        "district": "Centro",
        "street": "Rua Marechal Rondon",
        "zipcode": "68625-060"
    },
    {
        "city": "Paragominas",
        "state": "PA",
        "district": "Promissão I",
        "street": "Rua Maria Angélica",
        "zipcode": "68628-150"
    },
    {
        "city": "Paragominas",
        "state": "PA",
        "district": "Módulo II",
        "street": "Travessa Maria Rosa",
        "zipcode": "68626-320"
    },
    {
        "city": "Paragominas",
        "state": "PA",
        "district": "Promissão II",
        "street": "Rua Mário de Andrade",
        "zipcode": "68628-190"
    },
    {
        "city": "Paragominas",
        "state": "PA",
        "district": "Centro",
        "street": "Travessa Minas Gerais",
        "zipcode": "68626-330"
    },
    {
        "city": "Paragominas",
        "state": "PA",
        "district": "Setor Industrial",
        "street": "Rua Monte Líbano",
        "zipcode": "68626-280"
    },
    {
        "city": "Paragominas",
        "state": "PA",
        "district": "Promissão II",
        "street": "Rua Monteiro Lobato",
        "zipcode": "68628-200"
    },
    {
        "city": "Paragominas",
        "state": "PA",
        "district": "Uraim",
        "street": "Rua Presidente Médici",
        "zipcode": "68626-270"
    },
    {
        "city": "Paragominas",
        "state": "PA",
        "district": "Centro",
        "street": "Rua Quinze de Novembro",
        "zipcode": "68625-200"
    },
    {
        "city": "Paragominas",
        "state": "PA",
        "district": "Promissão I",
        "street": "Rua Renato Novaes",
        "zipcode": "68628-160"
    },
    {
        "city": "Paragominas",
        "state": "PA",
        "district": "Jardim Atlântico",
        "street": "Rua São Domingos",
        "zipcode": "68627-180"
    },
    {
        "city": "Paragominas",
        "state": "PA",
        "district": "Jardim Atlântico",
        "street": "Rua São Miguel",
        "zipcode": "68627-170"
    },
    {
        "city": "Paragominas",
        "state": "PA",
        "district": "Jardim Atlântico",
        "street": "Rua São Silvestre",
        "zipcode": "68627-150"
    },
    {
        "city": "Paragominas",
        "state": "PA",
        "district": "Jardim Atlântico",
        "street": "Rua São Tomé",
        "zipcode": "68627-140"
    },
    {
        "city": "Paragominas",
        "state": "PA",
        "district": "Centro",
        "street": "Rua Sete de Setembro",
        "zipcode": "68625-190"
    },
    {
        "city": "Paragominas",
        "state": "PA",
        "district": "Centro",
        "street": "Rua Timbiras",
        "zipcode": "68625-110"
    },
    {
        "city": "Paragominas",
        "state": "PA",
        "district": "Centro",
        "street": "Avenida Presidente Vargas",
        "zipcode": "68625-130"
    },
    {
        "city": "Paragominas",
        "state": "PA",
        "district": "Angelim",
        "street": "Rua do Parque",
        "zipcode": "68626-350"
    },
    {
        "city": "Paragominas",
        "state": "PA",
        "district": "Angelim",
        "street": "Rua Washington Luís",
        "zipcode": "68626-352"
    },
    {
        "city": "Paragominas",
        "state": "PA",
        "district": "Angelim",
        "street": "Rua Peixe",
        "zipcode": "68626-354"
    },
    {
        "city": "Paragominas",
        "state": "PA",
        "district": "Centro",
        "street": "Travessa São Jorge",
        "zipcode": "68625-017"
    },
    {
        "city": "Paragominas",
        "state": "PA",
        "district": "Jaderlândia",
        "street": "Rua Caetés",
        "zipcode": "68627-515"
    },
    {
        "city": "Paragominas",
        "state": "PA",
        "district": "Angelim",
        "street": "Rua Presidente Castelo Branco",
        "zipcode": "68626-355"
    },
    {
        "city": "Paragominas",
        "state": "PA",
        "district": "Angelim",
        "street": "Travessa Alenquer",
        "zipcode": "68626-356"
    },
    {
        "city": "Paragominas",
        "state": "PA",
        "district": "Angelim",
        "street": "Travessa Castanhal",
        "zipcode": "68626-357"
    },
    {
        "city": "Paragominas",
        "state": "PA",
        "district": "Angelim",
        "street": "Rua Benfica",
        "zipcode": "68626-358"
    },
    {
        "city": "Paragominas",
        "state": "PA",
        "district": "Jaderlândia",
        "street": "Rua Tapajós",
        "zipcode": "68627-513"
    },
    {
        "city": "Paragominas",
        "state": "PA",
        "district": "Jaderlândia",
        "street": "Avenida Barão de Mauá",
        "zipcode": "68627-520"
    },
    {
        "city": "Paragominas",
        "state": "PA",
        "district": "Promissão I",
        "street": "Rua Projetada II",
        "zipcode": "68628-135"
    },
    {
        "city": "Paragominas",
        "state": "PA",
        "district": "Jaderlândia",
        "street": "Rua Barão de Limeira",
        "zipcode": "68627-522"
    },
    {
        "city": "Paragominas",
        "state": "PA",
        "district": "Jaderlândia",
        "street": "Rua Tocantins",
        "zipcode": "68627-536"
    },
    {
        "city": "Paragominas",
        "state": "PA",
        "district": "Jaderlândia",
        "street": "Rua das Flores",
        "zipcode": "68627-540"
    },
    {
        "city": "Paragominas",
        "state": "PA",
        "district": "Uraim",
        "street": "Rua Tókio",
        "zipcode": "68626-399"
    },
    {
        "city": "Paragominas",
        "state": "PA",
        "district": "Nova Conquista",
        "street": "Travessa Panorama",
        "zipcode": "68627-568"
    },
    {
        "city": "Paragominas",
        "state": "PA",
        "district": "Nova Conquista",
        "street": "Rua Jaguaquara",
        "zipcode": "68627-548"
    },
    {
        "city": "Paragominas",
        "state": "PA",
        "district": "Nova Conquista",
        "street": "Rua Dilmax Meira",
        "zipcode": "68627-550"
    },
    {
        "city": "Paragominas",
        "state": "PA",
        "district": "Uraim",
        "street": "Rua Hermes da Fonseca",
        "zipcode": "68626-185"
    },
    {
        "city": "Paragominas",
        "state": "PA",
        "district": "Uraim",
        "street": "Rua José de Alencar",
        "zipcode": "68626-195"
    },
    {
        "city": "Paragominas",
        "state": "PA",
        "district": "Juparanã",
        "street": "Rua das Antúrias",
        "zipcode": "68629-086"
    },
    {
        "city": "Paragominas",
        "state": "PA",
        "district": "Uraim",
        "street": "Rua Afonso Pena",
        "zipcode": "68626-260"
    },
    {
        "city": "Paragominas",
        "state": "PA",
        "district": "Promissão I",
        "street": "Rua Durval Nolasco",
        "zipcode": "68628-080"
    },
    {
        "city": "Paragominas",
        "state": "PA",
        "district": "Uraim",
        "street": "Rua Floriano Peixoto",
        "zipcode": "68626-210"
    },
    {
        "city": "Paragominas",
        "state": "PA",
        "district": "Promissão I",
        "street": "Avenida George Longo",
        "zipcode": "68628-010"
    },
    {
        "city": "Paragominas",
        "state": "PA",
        "district": "Promissão I",
        "street": "Rua José Pereira de Farias",
        "zipcode": "68628-130"
    },
    {
        "city": "Paragominas",
        "state": "PA",
        "district": "Promissão I",
        "street": "Rua Júlio P. Coelho",
        "zipcode": "68628-110"
    },
    {
        "city": "Paragominas",
        "state": "PA",
        "district": "Promissão I",
        "street": "Rua Manoel Santos",
        "zipcode": "68628-090"
    },
    {
        "city": "Paragominas",
        "state": "PA",
        "district": "Promissão I",
        "street": "Rua Miguel Brasil",
        "zipcode": "68628-100"
    },
    {
        "city": "Paragominas",
        "state": "PA",
        "district": "Promissão I",
        "street": "Rua Padre Vieira",
        "zipcode": "68628-050"
    },
    {
        "city": "Paragominas",
        "state": "PA",
        "district": "Uraim",
        "street": "Rua Presidente Figueiredo",
        "zipcode": "68626-230"
    },
    {
        "city": "Paragominas",
        "state": "PA",
        "district": "Uraim",
        "street": "Rua Tancredo Neves",
        "zipcode": "68626-190"
    },
    {
        "city": "Paragominas",
        "state": "PA",
        "district": "Promissão I",
        "street": "Rua Valter Carvalho",
        "zipcode": "68628-070"
    },
    {
        "city": "Paragominas",
        "state": "PA",
        "district": "Promissão I",
        "street": "Avenida Agenor Alves",
        "zipcode": "68628-030"
    },
    {
        "city": "Paragominas",
        "state": "PA",
        "district": "Promissão I",
        "street": "Rua Manoel Fernandes",
        "zipcode": "68628-060"
    },
    {
        "city": "Paragominas",
        "state": "PA",
        "district": "Promissão I",
        "street": "Rua Inocêncio Oliveira",
        "zipcode": "68628-065"
    },
    {
        "city": "Paragominas",
        "state": "PA",
        "district": "Promissão I",
        "street": "Rua Carlos Prestes",
        "zipcode": "68628-105"
    },
    {
        "city": "Paragominas",
        "state": "PA",
        "district": "Promissão I",
        "street": "Rua Projetada I",
        "zipcode": "68628-125"
    },
    {
        "city": "Paragominas",
        "state": "PA",
        "district": "Promissão IV",
        "street": "Rua Soldado Ivan Almeida",
        "zipcode": "68628-535"
    },
    {
        "city": "Paragominas",
        "state": "PA",
        "district": "Promissão IV",
        "street": "Rua Maurina Almeida",
        "zipcode": "68628-537"
    },
    {
        "city": "Paragominas",
        "state": "PA",
        "district": "Promissão IV",
        "street": "Rua José Pereira de Farias",
        "zipcode": "68628-540"
    },
    {
        "city": "Paragominas",
        "state": "PA",
        "district": "Promissão IV",
        "street": "Rua Raimundo Benedito da Silva",
        "zipcode": "68628-541"
    },
    {
        "city": "Paragominas",
        "state": "PA",
        "district": "Promissão IV",
        "street": "Avenida Tropical",
        "zipcode": "68628-545"
    },
    {
        "city": "Paragominas",
        "state": "PA",
        "district": "Promissão III",
        "street": "Rua Lídia Carneiro (Cj Olga Moreira)",
        "zipcode": "68628-509"
    },
    {
        "city": "Paragominas",
        "state": "PA",
        "district": "Promissão III",
        "street": "Rua Isnar Rodrigues (Cj Olga Moreira)",
        "zipcode": "68628-511"
    },
    {
        "city": "Paragominas",
        "state": "PA",
        "district": "Promissão III",
        "street": "Rua Joaquim Aguiar (Cj Olga Moreira)",
        "zipcode": "68628-513"
    },
    {
        "city": "Paragominas",
        "state": "PA",
        "district": "Promissão III",
        "street": "Rua Raimundo Nonato Sobrinho (Cj Olga Moreira)",
        "zipcode": "68628-514"
    },
    {
        "city": "Paragominas",
        "state": "PA",
        "district": "Promissão III",
        "street": "Rua Roberto Fernandes (Cj Olga Moreira)",
        "zipcode": "68628-516"
    },
    {
        "city": "Paragominas",
        "state": "PA",
        "district": "Promissão III",
        "street": "Rua Mariza Rocha (Cj Olga Moreira)",
        "zipcode": "68628-517"
    },
    {
        "city": "Paragominas",
        "state": "PA",
        "district": "Jaderlândia",
        "street": "Rua São Raimundo",
        "zipcode": "68627-538"
    },
    {
        "city": "Paragominas",
        "state": "PA",
        "district": "Promissão III",
        "street": "Rua Cândido Silva (Cj Olga Moreira)",
        "zipcode": "68628-519"
    },
    {
        "city": "Paragominas",
        "state": "PA",
        "district": "JK",
        "street": "Rua Padre Azevedo",
        "zipcode": "68628-551"
    },
    {
        "city": "Paragominas",
        "state": "PA",
        "district": "Promissão III",
        "street": "Travessa JK (Cj Olga Moreira)",
        "zipcode": "68628-521"
    },
    {
        "city": "Paragominas",
        "state": "PA",
        "district": "Cidade Nova",
        "street": "Rua Padre Vieira",
        "zipcode": "68625-305"
    },
    {
        "city": "Paragominas",
        "state": "PA",
        "district": "Aragão",
        "street": "Rua Palmares",
        "zipcode": "68627-411"
    },
    {
        "city": "Paragominas",
        "state": "PA",
        "district": "Laércio Cabeline",
        "street": "Travessa Diomário Cardoso",
        "zipcode": "68627-435"
    },
    {
        "city": "Paragominas",
        "state": "PA",
        "district": "Promissão III",
        "street": "Rua Teodoro Ferreira (Cj Olga Moreira)",
        "zipcode": "68628-522"
    },
    {
        "city": "Paragominas",
        "state": "PA",
        "district": "Promissão III",
        "street": "Rua Juvenal Avelino",
        "zipcode": "68628-524"
    },
    {
        "city": "Paragominas",
        "state": "PA",
        "district": "Promissão III",
        "street": "Rua Luís Torres (Cj Olga Moreira)",
        "zipcode": "68628-525"
    },
    {
        "city": "Paragominas",
        "state": "PA",
        "district": "Promissão III",
        "street": "Rua Joaquim Gonçalves (Cj Olga Moreira)",
        "zipcode": "68628-527"
    },
    {
        "city": "Paragominas",
        "state": "PA",
        "district": "Laércio Cabeline",
        "street": "Travessa Edmundo Cardoso",
        "zipcode": "68627-443"
    },
    {
        "city": "Paragominas",
        "state": "PA",
        "district": "Promissão III",
        "street": "Rua Geraldo Bala (Cj Olga Moreira)",
        "zipcode": "68628-530"
    },
    {
        "city": "Paragominas",
        "state": "PA",
        "district": "Promissão III",
        "street": "Rua Elias Nogueira (Cj Olga Moreira)",
        "zipcode": "68628-531"
    },
    {
        "city": "Paragominas",
        "state": "PA",
        "district": "Promissão III",
        "street": "Rua Severino Pedrosa (Cj Olga Moreira)",
        "zipcode": "68628-532"
    },
    {
        "city": "Paragominas",
        "state": "PA",
        "district": "Promissão III",
        "street": "Rua Carlos Brito (Cj Olga Moreira)",
        "zipcode": "68628-533"
    },
    {
        "city": "Paragominas",
        "state": "PA",
        "district": "Tião Mineiro",
        "street": "Rua Cupuaçu",
        "zipcode": "68630-724"
    },
    {
        "city": "Paragominas",
        "state": "PA",
        "district": "Tião Mineiro",
        "street": "Rua Erva",
        "zipcode": "68630-730"
    },
    {
        "city": "Paragominas",
        "state": "PA",
        "district": "Jardim Atlântico",
        "street": "Rua Niterói",
        "zipcode": "68627-018"
    },
    {
        "city": "Paragominas",
        "state": "PA",
        "district": "Nagibão",
        "street": "Travessa Rosa",
        "zipcode": "68630-590"
    },
    {
        "city": "Paragominas",
        "state": "PA",
        "district": "Promissão",
        "street": "Rua Sete de Setembro",
        "zipcode": "68627-644"
    },
    {
        "city": "Paragominas",
        "state": "PA",
        "district": "Promissão",
        "street": "Rua Santo Antônio",
        "zipcode": "68627-660"
    },
    {
        "city": "Paragominas",
        "state": "PA",
        "district": "Promissão",
        "street": "Rua São Francisco",
        "zipcode": "68627-662"
    },
    {
        "city": "Paragominas",
        "state": "PA",
        "district": "Promissão",
        "street": "Rua São José",
        "zipcode": "68627-664"
    },
    {
        "city": "Paragominas",
        "state": "PA",
        "district": "Promissão",
        "street": "Rua Érico Calimã",
        "zipcode": "68627-672"
    },
    {
        "city": "Paragominas",
        "state": "PA",
        "district": "Uraim",
        "street": "Rua Washington Luiz",
        "zipcode": "68626-205"
    },
    {
        "city": "Paragominas",
        "state": "PA",
        "district": "Promissão",
        "street": "Rua José Pereira Coelho",
        "zipcode": "68628-145"
    },
    {
        "city": "Paragominas",
        "state": "PA",
        "district": "Tião Mineiro",
        "street": "Rua Jatobá",
        "zipcode": "68630-738"
    },
    {
        "city": "Paragominas",
        "state": "PA",
        "district": "Tião Mineiro",
        "street": "Rua Cerejeira",
        "zipcode": "68630-740"
    },
    {
        "city": "Paragominas",
        "state": "PA",
        "district": "Tião Mineiro",
        "street": "Rua das Palmeiras",
        "zipcode": "68630-742"
    },
    {
        "city": "Paragominas",
        "state": "PA",
        "district": "Tião Mineiro",
        "street": "Rua Pinheiro",
        "zipcode": "68630-744"
    },
    {
        "city": "Paragominas",
        "state": "PA",
        "district": "Bela Vista",
        "street": "Rua Guanabara",
        "zipcode": "68627-025"
    },
    {
        "city": "Paragominas",
        "state": "PA",
        "district": "Jardim Atlântico",
        "street": "Rua Joana Darc",
        "zipcode": "68627-115"
    },
    {
        "city": "Paragominas",
        "state": "PA",
        "district": "Parque Village Flamboyant",
        "street": "Rua Seis",
        "zipcode": "68630-877"
    },
    {
        "city": "Paragominas",
        "state": "PA",
        "district": "Parque Village Flamboyant",
        "street": "Rua Sete",
        "zipcode": "68630-879"
    },
    {
        "city": "Paragominas",
        "state": "PA",
        "district": "Parque Village Flamboyant",
        "street": "Rua Nove",
        "zipcode": "68630-883"
    },
    {
        "city": "Paragominas",
        "state": "PA",
        "district": "Parque Village Flamboyant",
        "street": "Rua Dez",
        "zipcode": "68630-885"
    },
    {
        "city": "Paragominas",
        "state": "PA",
        "district": "Trecho Seco",
        "street": "Rua Aracaju",
        "zipcode": "68627-070"
    },
    {
        "city": "Paragominas",
        "state": "PA",
        "district": "Trecho Seco",
        "street": "Rua Campo Grande",
        "zipcode": "68627-050"
    },
    {
        "city": "Paragominas",
        "state": "PA",
        "district": "Promissão II",
        "street": "Rua João Pessoa",
        "zipcode": "68628-460"
    },
    {
        "city": "Paragominas",
        "state": "PA",
        "district": "Trecho Seco",
        "street": "Rua Maceió",
        "zipcode": "68627-080"
    },
    {
        "city": "Paragominas",
        "state": "PA",
        "district": "Promissão II",
        "street": "Rua Parnaíba",
        "zipcode": "68628-420"
    },
    {
        "city": "Paragominas",
        "state": "PA",
        "district": "Trecho Seco",
        "street": "Rua Recife",
        "zipcode": "68627-090"
    },
    {
        "city": "Paragominas",
        "state": "PA",
        "district": "Promissão II",
        "street": "Rua Tucuruí",
        "zipcode": "68628-440"
    },
    {
        "city": "Paragominas",
        "state": "PA",
        "district": "Promissão II",
        "street": "Rua Fênix",
        "zipcode": "68628-430"
    },
    {
        "city": "Paragominas",
        "state": "PA",
        "district": "Bela Vista",
        "street": "Rua Manaus",
        "zipcode": "68627-030"
    },
    {
        "city": "Paragominas",
        "state": "PA",
        "district": "Jaderlândia",
        "street": "Avenida Ayrton Sena",
        "zipcode": "68627-500"
    },
    {
        "city": "Paragominas",
        "state": "PA",
        "district": "Jaderlândia",
        "street": "Rua Luiz Gonzaga",
        "zipcode": "68627-502"
    },
    {
        "city": "Paragominas",
        "state": "PA",
        "district": "Jaderlândia",
        "street": "Rua Princesa Isabel",
        "zipcode": "68627-504"
    },
    {
        "city": "Paragominas",
        "state": "PA",
        "district": "Jaderlândia",
        "street": "Rua Campos Sales",
        "zipcode": "68627-505"
    },
    {
        "city": "Paragominas",
        "state": "PA",
        "district": "Jaderlândia",
        "street": "Rua Casemiro de Abreu",
        "zipcode": "68627-507"
    },
    {
        "city": "Paragominas",
        "state": "PA",
        "district": "Promissão III",
        "street": "Rua Franco Montoro",
        "zipcode": "68628-481"
    },
    {
        "city": "Paragominas",
        "state": "PA",
        "district": "Jaderlândia",
        "street": "Rua São Miguel",
        "zipcode": "68627-508"
    },
    {
        "city": "Paragominas",
        "state": "PA",
        "district": "Promissão III",
        "street": "Rua Francisco Pinheiro",
        "zipcode": "68628-484"
    },
    {
        "city": "Paragominas",
        "state": "PA",
        "district": "Promissão III",
        "street": "Rua Benedito Rocha",
        "zipcode": "68628-485"
    },
    {
        "city": "Paragominas",
        "state": "PA",
        "district": "Promissão III",
        "street": "Rua Luís Pimentel",
        "zipcode": "68628-487"
    },
    {
        "city": "Paragominas",
        "state": "PA",
        "district": "Promissão III",
        "street": "Rua Eduardo Magalhães",
        "zipcode": "68628-488"
    },
    {
        "city": "Paragominas",
        "state": "PA",
        "district": "Promissão I",
        "street": "Rua Assis Portugal",
        "zipcode": "68628-045"
    },
    {
        "city": "Paragominas",
        "state": "PA",
        "district": "Promissão III",
        "street": "Rua Marinete Ramalho (Cj Olga Moreira)",
        "zipcode": "68628-502"
    },
    {
        "city": "Paragominas",
        "state": "PA",
        "district": "Promissão III",
        "street": "Avenida Cícero Ávila (Cj Olga Moreira)",
        "zipcode": "68628-503"
    },
    {
        "city": "Paragominas",
        "state": "PA",
        "district": "Jaderlândia",
        "street": "Rua Olavo Bilac",
        "zipcode": "68627-517"
    },
    {
        "city": "Paragominas",
        "state": "PA",
        "district": "Promissão III",
        "street": "Rua José Lúcio (Cj Olga Moreira)",
        "zipcode": "68628-505"
    },
    {
        "city": "Paragominas",
        "state": "PA",
        "district": "Promissão III",
        "street": "Rua Adão Veríssimo",
        "zipcode": "68628-507"
    },
    {
        "city": "Paragominas",
        "state": "PA",
        "district": "Tião Mineiro",
        "street": "Rua Peroba Rosa",
        "zipcode": "68630-704"
    },
    {
        "city": "Paragominas",
        "state": "PA",
        "district": "Tião Mineiro",
        "street": "Rua Açai",
        "zipcode": "68630-708"
    },
    {
        "city": "Paragominas",
        "state": "PA",
        "district": "Jaderlândia",
        "street": "Rua Itapebi",
        "zipcode": "68627-525"
    },
    {
        "city": "Paragominas",
        "state": "PA",
        "district": "Jaderlândia",
        "street": "Travessa São Vicente",
        "zipcode": "68627-511"
    },
    {
        "city": "Paragominas",
        "state": "PA",
        "district": "Tião Mineiro",
        "street": "Rua Limoeiro",
        "zipcode": "68630-710"
    },
    {
        "city": "Paragominas",
        "state": "PA",
        "district": "Tião Mineiro",
        "street": "Rua Laranjeira",
        "zipcode": "68630-714"
    },
    {
        "city": "Paragominas",
        "state": "PA",
        "district": "Camboatã",
        "street": "Rua José Brasil",
        "zipcode": "68627-616"
    },
    {
        "city": "Paragominas",
        "state": "PA",
        "district": "Camboatã",
        "street": "Rua Santa Luzia",
        "zipcode": "68627-620"
    },
    {
        "city": "Paragominas",
        "state": "PA",
        "district": "Promissão",
        "street": "Avenida Barão de Araruna",
        "zipcode": "68627-640"
    },
    {
        "city": "Paragominas",
        "state": "PA",
        "district": "Jardim Atlântico",
        "street": "Rua Maria Santos",
        "zipcode": "68627-016"
    },
    {
        "city": "Paragominas",
        "state": "PA",
        "district": "Jardim Atlântico",
        "street": "Rua Santinha Bandeira",
        "zipcode": "68627-024"
    },
    {
        "city": "Paragominas",
        "state": "PA",
        "district": "Jardim Atlântico",
        "street": "Rua Terezinha Rodrigues",
        "zipcode": "68627-026"
    },
    {
        "city": "Paragominas",
        "state": "PA",
        "district": "Nagibão",
        "street": "Travessa Mazol",
        "zipcode": "68630-600"
    },
    {
        "city": "Paragominas",
        "state": "PA",
        "district": "Nagibão",
        "street": "Rua Kelibson Marcelino",
        "zipcode": "68630-605"
    },
    {
        "city": "Paragominas",
        "state": "PA",
        "district": "Promissão",
        "street": "Rua da Alegria",
        "zipcode": "68627-652"
    },
    {
        "city": "Paragominas",
        "state": "PA",
        "district": "Uraim",
        "street": "Rua Beira",
        "zipcode": "68630-814"
    },
    {
        "city": "Paragominas",
        "state": "PA",
        "district": "Angelim",
        "street": "Rua Sebastião de Deus",
        "zipcode": "68627-680"
    },
    {
        "city": "Paragominas",
        "state": "PA",
        "district": "Angelim",
        "street": "Rua Washington Luiz",
        "zipcode": "68627-682"
    },
    {
        "city": "Paragominas",
        "state": "PA",
        "district": "Angelim",
        "street": "Vila Natal",
        "zipcode": "68627-684"
    },
    {
        "city": "Paragominas",
        "state": "PA",
        "district": "Nagibão",
        "street": "Rua Anselmo Lucio Teixeira",
        "zipcode": "68630-615"
    },
    {
        "city": "Paragominas",
        "state": "PA",
        "district": "Nagibão",
        "street": "Rua Manoel Pereira dos Santos",
        "zipcode": "68630-625"
    },
    {
        "city": "Paragominas",
        "state": "PA",
        "district": "Jardim Atlântico",
        "street": "Rua Agripiano Greco",
        "zipcode": "68627-480"
    },
    {
        "city": "Paragominas",
        "state": "PA",
        "district": "Jardim Atlântico",
        "street": "Rua Padre Malagrida",
        "zipcode": "68627-482"
    },
    {
        "city": "Paragominas",
        "state": "PA",
        "district": "Jardim Atlântico",
        "street": "Rua Ariano Suassuna",
        "zipcode": "68627-490"
    },
    {
        "city": "Paragominas",
        "state": "PA",
        "district": "Jardim Atlântico",
        "street": "Avenida Pasteur",
        "zipcode": "68627-494"
    },
    {
        "city": "Paragominas",
        "state": "PA",
        "district": "Jardim Atlântico",
        "street": "Rua Osvaldo Andrade",
        "zipcode": "68627-496"
    },
    {
        "city": "Paragominas",
        "state": "PA",
        "district": "Jardim Atlântico",
        "street": "Rua Dom Santino Coutinho",
        "zipcode": "68627-498"
    },
    {
        "city": "Paragominas",
        "state": "PA",
        "district": "Parque Village Flamboyant",
        "street": "Rua Quatro",
        "zipcode": "68630-873"
    },
    {
        "city": "Paragominas",
        "state": "PA",
        "district": "Parque Village Flamboyant",
        "street": "Rua Quinze",
        "zipcode": "68630-743"
    },
    {
        "city": "Paragominas",
        "state": "PA",
        "district": "Parque Village Flamboyant",
        "street": "Rua Um",
        "zipcode": "68630-768"
    },
    {
        "city": "Paragominas",
        "state": "PA",
        "district": "Promissão II",
        "street": "Rua Bom Jardim",
        "zipcode": "68628-400"
    },
    {
        "city": "Paragominas",
        "state": "PA",
        "district": "Promissão II",
        "street": "Rua Bom Jesus",
        "zipcode": "68628-390"
    },
    {
        "city": "Paragominas",
        "state": "PA",
        "district": "Promissão II",
        "street": "Rua Caravelas",
        "zipcode": "68628-360"
    },
    {
        "city": "Paragominas",
        "state": "PA",
        "district": "Promissão II",
        "street": "Rua São Mateus",
        "zipcode": "68628-370"
    },
    {
        "city": "Paragominas",
        "state": "PA",
        "district": "JK",
        "street": "Avenida Manaoel Barata",
        "zipcode": "68628-550"
    },
    {
        "city": "Paragominas",
        "state": "PA",
        "district": "JK",
        "street": "Travessa Osvaldo",
        "zipcode": "68628-560"
    },
    {
        "city": "Paragominas",
        "state": "PA",
        "district": "JK",
        "street": "Rua Domingos J. Martins",
        "zipcode": "68628-561"
    },
    {
        "city": "Paragominas",
        "state": "PA",
        "district": "JK",
        "street": "Rua Joaquim Nabuco",
        "zipcode": "68628-563"
    },
    {
        "city": "Paragominas",
        "state": "PA",
        "district": "JK",
        "street": "Rua Padre Gabriel",
        "zipcode": "68628-564"
    },
    {
        "city": "Paragominas",
        "state": "PA",
        "district": "JK",
        "street": "Rua Barão de Maraú",
        "zipcode": "68628-565"
    },
    {
        "city": "Paragominas",
        "state": "PA",
        "district": "JK",
        "street": "Rua Carlos Lacerda",
        "zipcode": "68628-568"
    },
    {
        "city": "Paragominas",
        "state": "PA",
        "district": "JK",
        "street": "Rua Marcos Odilon",
        "zipcode": "68628-569"
    },
    {
        "city": "Paragominas",
        "state": "PA",
        "district": "JK",
        "street": "Rua Luiz Agassis",
        "zipcode": "68628-571"
    },
    {
        "city": "Paragominas",
        "state": "PA",
        "district": "JK",
        "street": "Rua Dom Rine",
        "zipcode": "68628-573"
    },
    {
        "city": "Paragominas",
        "state": "PA",
        "district": "JK",
        "street": "Rua Louis Pasteur",
        "zipcode": "68628-575"
    },
    {
        "city": "Paragominas",
        "state": "PA",
        "district": "JK",
        "street": "Rua José Lins Rego",
        "zipcode": "68628-576"
    },
    {
        "city": "Paragominas",
        "state": "PA",
        "district": "JK",
        "street": "Rua Stélio Maroja",
        "zipcode": "68628-577"
    },
    {
        "city": "Paragominas",
        "state": "PA",
        "district": "Jaderlândia",
        "street": "Rua Itamarati",
        "zipcode": "68627-533"
    },
    {
        "city": "Paragominas",
        "state": "PA",
        "district": "Promissão III",
        "street": "Alameda Jorge Amado",
        "zipcode": "68628-490"
    },
    {
        "city": "Paragominas",
        "state": "PA",
        "district": "Promissão IV",
        "street": "Rua Isolda Soares",
        "zipcode": "68628-544"
    },
    {
        "city": "Paragominas",
        "state": "PA",
        "district": "Promissão IV",
        "street": "Rua Tunicão",
        "zipcode": "68628-546"
    },
    {
        "city": "Paragominas",
        "state": "PA",
        "district": "Jaderlândia",
        "street": "Rua Itaiguara",
        "zipcode": "68627-527"
    },
    {
        "city": "Paragominas",
        "state": "PA",
        "district": "Jaderlândia",
        "street": "Rua Itacuari",
        "zipcode": "68627-534"
    },
    {
        "city": "Paragominas",
        "state": "PA",
        "district": "Jaderlândia",
        "street": "Rua Itapeba",
        "zipcode": "68627-531"
    },
    {
        "city": "Paragominas",
        "state": "PA",
        "district": "Jaderlândia",
        "street": "Travessa Alvoredo",
        "zipcode": "68627-509"
    },
    {
        "city": "Paragominas",
        "state": "PA",
        "district": "JK",
        "street": "Rua Dom Santino",
        "zipcode": "68628-580"
    },
    {
        "city": "Paragominas",
        "state": "PA",
        "district": "JK",
        "street": "Travessa Dom João",
        "zipcode": "68628-581"
    },
    {
        "city": "Paragominas",
        "state": "PA",
        "district": "JK",
        "street": "Rua Casimiro de Abreu",
        "zipcode": "68628-584"
    },
    {
        "city": "Paragominas",
        "state": "PA",
        "district": "JK",
        "street": "Rua Guilherme A.",
        "zipcode": "68628-585"
    },
    {
        "city": "Paragominas",
        "state": "PA",
        "district": "JK",
        "street": "Rua Eneida de Morais",
        "zipcode": "68628-588"
    },
    {
        "city": "Paragominas",
        "state": "PA",
        "district": "JK",
        "street": "Rua Almeida Flavio",
        "zipcode": "68628-589"
    },
    {
        "city": "Paragominas",
        "state": "PA",
        "district": "Camboatã",
        "street": "Rua Nova",
        "zipcode": "68627-624"
    },
    {
        "city": "Paragominas",
        "state": "PA",
        "district": "Camboatã",
        "street": "Rua Natan Pereira",
        "zipcode": "68627-626"
    },
    {
        "city": "Paragominas",
        "state": "PA",
        "district": "Célio Miranda",
        "street": "Travessa Ponta Porã",
        "zipcode": "68625-355"
    },
    {
        "city": "Paragominas",
        "state": "PA",
        "district": "Nagibão",
        "street": "Rua Arnu Fernandes",
        "zipcode": "68630-500"
    },
    {
        "city": "Paragominas",
        "state": "PA",
        "district": "Nagibão",
        "street": "Rua Amador Perez Fernandes Vilar",
        "zipcode": "68630-515"
    },
    {
        "city": "Paragominas",
        "state": "PA",
        "district": "Nagibão",
        "street": "Rua Raimundo Alves dos Santos",
        "zipcode": "68630-525"
    },
    {
        "city": "Paragominas",
        "state": "PA",
        "district": "Nagibão",
        "street": "Rua Jeísa Pinho Souza",
        "zipcode": "68630-550"
    },
    {
        "city": "Paragominas",
        "state": "PA",
        "district": "Nagibão",
        "street": "Rua Florêncio Silva",
        "zipcode": "68630-555"
    },
    {
        "city": "Paragominas",
        "state": "PA",
        "district": "Nagibão",
        "street": "Avenida Valdete Guedes de Aquino",
        "zipcode": "68630-565"
    },
    {
        "city": "Paragominas",
        "state": "PA",
        "district": "Uraim",
        "street": "Rua Raimundo Mendes Pedrosa",
        "zipcode": "68630-778"
    },
    {
        "city": "Paragominas",
        "state": "PA",
        "district": "Uraim",
        "street": "Rua Agenor dos Santos Gonzaga",
        "zipcode": "68630-780"
    },
    {
        "city": "Paragominas",
        "state": "PA",
        "district": "Uraim",
        "street": "Rua Manoel Moraes Pessoa",
        "zipcode": "68630-788"
    },
    {
        "city": "Paragominas",
        "state": "PA",
        "district": "Uraim",
        "street": "Rua Cláudio da Cruz Pereira",
        "zipcode": "68630-790"
    },
    {
        "city": "Paragominas",
        "state": "PA",
        "district": "Uraim",
        "street": "Rua Raimundo Ferreira da Costa",
        "zipcode": "68630-792"
    },
    {
        "city": "Paragominas",
        "state": "PA",
        "district": "Uraim",
        "street": "Rua Moisés Soares de Lima",
        "zipcode": "68630-796"
    },
    {
        "city": "Paragominas",
        "state": "PA",
        "district": "Uraim",
        "street": "Rua José Rodrigues Ribeiro",
        "zipcode": "68630-798"
    },
    {
        "city": "Paragominas",
        "state": "PA",
        "district": "Uraim",
        "street": "Rua Edilson Dias dos Santos",
        "zipcode": "68630-802"
    },
    {
        "city": "Paragominas",
        "state": "PA",
        "district": "Uraim",
        "street": "Travessa Vivaldo Ferreira Lima",
        "zipcode": "68630-804"
    },
    {
        "city": "Paragominas",
        "state": "PA",
        "district": "Promissão",
        "street": "Rua Maranhão",
        "zipcode": "68627-650"
    },
    {
        "city": "Paragominas",
        "state": "PA",
        "district": "Uraim",
        "street": "Rua Ecibério Teixeira",
        "zipcode": "68630-810"
    },
    {
        "city": "Paragominas",
        "state": "PA",
        "district": "Uraim",
        "street": "Rua José Soares Vieira",
        "zipcode": "68630-812"
    },
    {
        "city": "Paragominas",
        "state": "PA",
        "district": "Camboatã",
        "street": "Rua Moacir Pereira da Costa",
        "zipcode": "68630-836"
    },
    {
        "city": "Paragominas",
        "state": "PA",
        "district": "Camboatã",
        "street": "Rua Antônio Barbosa de Souza",
        "zipcode": "68630-838"
    },
    {
        "city": "Paragominas",
        "state": "PA",
        "district": "Jardim Atlântico",
        "street": "Rua Sebastião de Deus",
        "zipcode": "68627-464"
    },
    {
        "city": "Paragominas",
        "state": "PA",
        "district": "Jardim Atlântico",
        "street": "Rua Lauro Martins",
        "zipcode": "68627-466"
    },
    {
        "city": "Paragominas",
        "state": "PA",
        "district": "Jardim Atlântico",
        "street": "Rua Diomário Cardoso",
        "zipcode": "68627-470"
    },
    {
        "city": "Paragominas",
        "state": "PA",
        "district": "Jardim Atlântico",
        "street": "Rua Padre Azevedo",
        "zipcode": "68627-472"
    },
    {
        "city": "Paragominas",
        "state": "PA",
        "district": "Nagibão",
        "street": "Rua Zezito dos Anjos Prates",
        "zipcode": "68630-508"
    },
    {
        "city": "Paragominas",
        "state": "PA",
        "district": "Parque Village Flamboyant",
        "street": "Rua Treze",
        "zipcode": "68630-739"
    },
    {
        "city": "Paragominas",
        "state": "PA",
        "district": "Parque Village Flamboyant",
        "street": "Rua Quartoze",
        "zipcode": "68630-741"
    },
    {
        "city": "Paragominas",
        "state": "PA",
        "district": "Promissão I",
        "street": "Rua Antônio Felisberto",
        "zipcode": "68628-170"
    },
    {
        "city": "Paragominas",
        "state": "PA",
        "district": "Guanabara",
        "street": "Rua Argentina",
        "zipcode": "68625-570"
    },
    {
        "city": "Paragominas",
        "state": "PA",
        "district": "Promissão II",
        "street": "Rua Leopoldina",
        "zipcode": "68628-330"
    },
    {
        "city": "Paragominas",
        "state": "PA",
        "district": "JK",
        "street": "Rua Augusto Anjos",
        "zipcode": "68628-579"
    },
    {
        "city": "Paragominas",
        "state": "PA",
        "district": "Jardim Camboatã II",
        "street": "Rua Campo Grande",
        "zipcode": "68626-409"
    },
    {
        "city": "Paragominas",
        "state": "PA",
        "district": "Centro",
        "street": "Rua São Raimundo (Eixo WE)",
        "zipcode": "68625-015"
    },
    {
        "city": "Paragominas",
        "state": "PA",
        "district": "Jaderlândia",
        "street": "Rua do Pássaro",
        "zipcode": "68627-521"
    },
    {
        "city": "Paragominas",
        "state": "PA",
        "district": "Parque Village Flamboyant",
        "street": "Rua Jacarandá",
        "zipcode": "68630-715"
    },
    {
        "city": "Paragominas",
        "state": "PA",
        "district": "Parque Village Flamboyant",
        "street": "Rua João Dias dos Santos (Residencial Helena Coutinho)",
        "zipcode": "68630-735"
    },
    {
        "city": "Paragominas",
        "state": "PA",
        "district": "Parque Village Flamboyant",
        "street": "Rua Principal",
        "zipcode": "68630-747"
    },
    {
        "city": "Paragominas",
        "state": "PA",
        "district": "Parque Village Flamboyant",
        "street": "Rua Rosa Lima dos Salmos (Residencial Helena Coutinho)",
        "zipcode": "68630-729"
    },
    {
        "city": "Paragominas",
        "state": "PA",
        "district": "Parque Village Flamboyant",
        "street": "Rua Zorobabel Campo Flor (Residencial Helena Coutinho)",
        "zipcode": "68630-733"
    },
    {
        "city": "Paragominas",
        "state": "PA",
        "district": "Parque Village Flamboyant",
        "street": "Alameda Sapucaia",
        "zipcode": "68630-766"
    },
    {
        "city": "Paragominas",
        "state": "PA",
        "district": "JK",
        "street": "Rua General",
        "zipcode": "68628-562"
    },
    {
        "city": "Paragominas",
        "state": "PA",
        "district": "JK",
        "street": "Rua Imperatriz Amélia",
        "zipcode": "68628-566"
    },
    {
        "city": "Paragominas",
        "state": "PA",
        "district": "JK",
        "street": "Rua Pedro Bastos",
        "zipcode": "68628-578"
    },
    {
        "city": "Paragominas",
        "state": "PA",
        "district": "JK",
        "street": "Rua Rubem Braga",
        "zipcode": "68628-582"
    },
    {
        "city": "Paragominas",
        "state": "PA",
        "district": "JK",
        "street": "Alameda Osvaldo",
        "zipcode": "68628-586"
    },
    {
        "city": "Paragominas",
        "state": "PA",
        "district": "JK",
        "street": "Rua Euclides da Cunha",
        "zipcode": "68628-590"
    },
    {
        "city": "Paragominas",
        "state": "PA",
        "district": "Tião Mineiro",
        "street": "Rua Tamarindo",
        "zipcode": "68630-716"
    },
    {
        "city": "Paragominas",
        "state": "PA",
        "district": "Tião Mineiro",
        "street": "Alameda Seringueira",
        "zipcode": "68630-726"
    },
    {
        "city": "Paragominas",
        "state": "PA",
        "district": "Parque Village Flamboyant",
        "street": "Rua Benjamin Francisco Alves (Residencial Helena Coutinho)",
        "zipcode": "68630-727"
    },
    {
        "city": "Paragominas",
        "state": "PA",
        "district": "Parque Village Flamboyant",
        "street": "Avenida Admilson Hose Mesquita (Residencial Helena Coutinho)",
        "zipcode": "68630-719"
    },
    {
        "city": "Paragominas",
        "state": "PA",
        "district": "Parque Village Flamboyant",
        "street": "Avenida Tropical (Residencial Helena Coutinho)",
        "zipcode": "68630-721"
    },
    {
        "city": "Paragominas",
        "state": "PA",
        "district": "Nova Conquista",
        "street": "Rua Manoel Naor Lima",
        "zipcode": "68627-590"
    },
    {
        "city": "Paragominas",
        "state": "PA",
        "district": "Nova Conquista",
        "street": "Rua Rodrigues Covre",
        "zipcode": "68627-572"
    },
    {
        "city": "Paragominas",
        "state": "PA",
        "district": "Camboatã",
        "street": "Rua Marajó",
        "zipcode": "68627-622"
    },
    {
        "city": "Paragominas",
        "state": "PA",
        "district": "Nagibão",
        "street": "Avenida Ormindo Neves da Silva",
        "zipcode": "68630-585"
    },
    {
        "city": "Paragominas",
        "state": "PA",
        "district": "Tião Mineiro",
        "street": "Avenida das Palmeiras",
        "zipcode": "68630-760"
    },
    {
        "city": "Paragominas",
        "state": "PA",
        "district": "Tião Mineiro",
        "street": "Rua Pau Marfim",
        "zipcode": "68630-762"
    },
    {
        "city": "Paragominas",
        "state": "PA",
        "district": "Uraim",
        "street": "Rua Roberto Carlos Toscano",
        "zipcode": "68630-770"
    },
    {
        "city": "Paragominas",
        "state": "PA",
        "district": "Uraim",
        "street": "Rua Firmino Ferreira Nascimento",
        "zipcode": "68630-774"
    },
    {
        "city": "Paragominas",
        "state": "PA",
        "district": "Uraim",
        "street": "Rua Roseane de Sousa Moraes",
        "zipcode": "68630-776"
    },
    {
        "city": "Paragominas",
        "state": "PA",
        "district": "Promissão",
        "street": "Rua Vinte e Três de Janeiro",
        "zipcode": "68627-648"
    },
    {
        "city": "Paragominas",
        "state": "PA",
        "district": "Tião Mineiro",
        "street": "Rua Ingá",
        "zipcode": "68630-736"
    },
    {
        "city": "Paragominas",
        "state": "PA",
        "district": "Tião Mineiro",
        "street": "Rua Primavera",
        "zipcode": "68630-756"
    },
    {
        "city": "Paragominas",
        "state": "PA",
        "district": "Parque das Américas",
        "street": "Rua Manoel Fernandes",
        "zipcode": "68627-697"
    },
    {
        "city": "Paragominas",
        "state": "PA",
        "district": "Jaderlândia",
        "street": "Rua Paulo Fonteles",
        "zipcode": "68627-555"
    },
    {
        "city": "Paragominas",
        "state": "PA",
        "district": "Promissão II",
        "street": "Rua Allan Kardec",
        "zipcode": "68628-270"
    },
    {
        "city": "Paragominas",
        "state": "PA",
        "district": "Promissão II",
        "street": "Rua Bujaru",
        "zipcode": "68628-450"
    },
    {
        "city": "Paragominas",
        "state": "PA",
        "district": "Promissão II",
        "street": "Rua Cametá",
        "zipcode": "68628-340"
    },
    {
        "city": "Paragominas",
        "state": "PA",
        "district": "Promissão I",
        "street": "Rua Galdino Oliveira",
        "zipcode": "68628-120"
    },
    {
        "city": "Paragominas",
        "state": "PA",
        "district": "Promissão I",
        "street": "Rua Sinval Gusmão",
        "zipcode": "68628-140"
    },
    {
        "city": "Paragominas",
        "state": "PA",
        "district": "Promissão II",
        "street": "Rua Vinícius de Moraes",
        "zipcode": "68628-320"
    },
    {
        "city": "Paragominas",
        "state": "PA",
        "district": "Promissão III",
        "street": "Rua Manolito Andrade",
        "zipcode": "68628-486"
    },
    {
        "city": "Paragominas",
        "state": "PA",
        "district": "Jaderlândia",
        "street": "Rua Aimorés",
        "zipcode": "68627-514"
    },
    {
        "city": "Paragominas",
        "state": "PA",
        "district": "Promissão I",
        "street": "Rua Jorge Longo",
        "zipcode": "68628-035"
    },
    {
        "city": "Paragominas",
        "state": "PA",
        "district": "Promissão IV",
        "street": "Rua Marcelino Venturine",
        "zipcode": "68628-539"
    },
    {
        "city": "Paragominas",
        "state": "PA",
        "district": "Promissão IV",
        "street": "Rua Gregório Campos",
        "zipcode": "68628-543"
    },
    {
        "city": "Paragominas",
        "state": "PA",
        "district": "Promissão III",
        "street": "Rua Helena Barbosa (Cj Olga Moreira)",
        "zipcode": "68628-501"
    },
    {
        "city": "Paragominas",
        "state": "PA",
        "district": "Jaderlândia",
        "street": "Rua Itapemirim",
        "zipcode": "68627-526"
    },
    {
        "city": "Paragominas",
        "state": "PA",
        "district": "Promissão III",
        "street": "Rua João Tibúrcio Almeida (Cj Olga Moreira)",
        "zipcode": "68628-506"
    },
    {
        "city": "Paragominas",
        "state": "PA",
        "district": "Jaderlândia",
        "street": "Rua Itabuna",
        "zipcode": "68627-528"
    },
    {
        "city": "Paragominas",
        "state": "PA",
        "district": "Promissão III",
        "street": "Rua Arlindo Batista (Cj Olga Moreira)",
        "zipcode": "68628-512"
    },
    {
        "city": "Paragominas",
        "state": "PA",
        "district": "Promissão III",
        "street": "Rua Joaquim Paixão (Cj Olga Moreira)",
        "zipcode": "68628-515"
    },
    {
        "city": "Paragominas",
        "state": "PA",
        "district": "Jaderlândia",
        "street": "Rua São Gabriel",
        "zipcode": "68627-537"
    },
    {
        "city": "Paragominas",
        "state": "PA",
        "district": "Nagib Demachki",
        "street": "Rua Fabíola Blaser",
        "zipcode": "68630-633"
    },
    {
        "city": "Paragominas",
        "state": "PA",
        "district": "Promissão II",
        "street": "Rua Belo Campos",
        "zipcode": "68628-410"
    },
    {
        "city": "Paragominas",
        "state": "PA",
        "district": "Parque Village Flamboyant",
        "street": "Rua Mangueira",
        "zipcode": "68630-707"
    },
    {
        "city": "Paragominas",
        "state": "PA",
        "district": "Parque Village Flamboyant",
        "street": "Rua Cajazeiro",
        "zipcode": "68630-709"
    },
    {
        "city": "Paragominas",
        "state": "PA",
        "district": "Promissão I",
        "street": "Rua Professor Renovato",
        "zipcode": "68628-095"
    },
    {
        "city": "Paragominas",
        "state": "PA",
        "district": "Parque Village Flamboyant",
        "street": "Avenida Flamboyant",
        "zipcode": "68630-711"
    },
    {
        "city": "Paragominas",
        "state": "PA",
        "district": "Nagib Demachki",
        "street": "Travessa Floresta",
        "zipcode": "68630-645"
    },
    {
        "city": "Paragominas",
        "state": "PA",
        "district": "Parque Village Flamboyant",
        "street": "Rua Castanheira",
        "zipcode": "68630-705"
    },
    {
        "city": "Paragominas",
        "state": "PA",
        "district": "Promissão III",
        "street": "Rua Francisca Maria de Jesus (Cj Olga Moreira)",
        "zipcode": "68628-523"
    },
    {
        "city": "Paragominas",
        "state": "PA",
        "district": "JK",
        "street": "Rodovia PA",
        "zipcode": "68628-557"
    },
    {
        "city": "Paragominas",
        "state": "PA",
        "district": "Promissão III",
        "street": "Rua Eugênio Correia (Cj Olga Moreira)",
        "zipcode": "68628-534"
    },
    {
        "city": "Paragominas",
        "state": "PA",
        "district": "Promissão III",
        "street": "Avenida João Batista (Cj Olga Moreira)",
        "zipcode": "68628-548"
    },
    {
        "city": "Paragominas",
        "state": "PA",
        "district": "Camboatã",
        "street": "Rua Durval Carmona",
        "zipcode": "68627-610"
    },
    {
        "city": "Paragominas",
        "state": "PA",
        "district": "Jardim Atlântico",
        "street": "Rua Djalma Soares",
        "zipcode": "68627-012"
    },
    {
        "city": "Paragominas",
        "state": "PA",
        "district": "Jardim Atlântico",
        "street": "Rua Raimundo Soares",
        "zipcode": "68627-022"
    },
    {
        "city": "Paragominas",
        "state": "PA",
        "district": "Nagibão",
        "street": "Avenida Noêmia Dias de Oliveira",
        "zipcode": "68630-520"
    },
    {
        "city": "Paragominas",
        "state": "PA",
        "district": "Parque Village Flamboyant",
        "street": "Rua Araucária",
        "zipcode": "68630-703"
    },
    {
        "city": "Paragominas",
        "state": "PA",
        "district": "Parque das Américas",
        "street": "Avenida Nida Demaschk",
        "zipcode": "68627-696"
    },
    {
        "city": "Paragominas",
        "state": "PA",
        "district": "Parque das Américas",
        "street": "Rua Carlos Alves",
        "zipcode": "68627-698"
    },
    {
        "city": "Paragominas",
        "state": "PA",
        "district": "Promissão I",
        "street": "Rua Glória Maria Brasil",
        "zipcode": "68628-075"
    },
    {
        "city": "Paragominas",
        "state": "PA",
        "district": "Uraim",
        "street": "Rua Washington Luís",
        "zipcode": "68626-240"
    },
    {
        "city": "Paragominas",
        "state": "PA",
        "district": "Nagib Demachki",
        "street": "Rua Antônio Fazollo",
        "zipcode": "68630-629"
    },
    {
        "city": "Paragominas",
        "state": "PA",
        "district": "Nagibão",
        "street": "Rua Jean Erondir Santos",
        "zipcode": "68630-570"
    },
    {
        "city": "Paragominas",
        "state": "PA",
        "district": "Angelim",
        "street": "Rua Nonato Dias",
        "zipcode": "68627-690"
    },
    {
        "city": "Paragominas",
        "state": "PA",
        "district": "Promissão",
        "street": "Rua Benedito Marques",
        "zipcode": "68627-670"
    },
    {
        "city": "Paragominas",
        "state": "PA",
        "district": "Jardim Atlântico",
        "street": "Rua Firmino Reis",
        "zipcode": "68627-462"
    },
    {
        "city": "Paragominas",
        "state": "PA",
        "district": "Laércio Cabeline",
        "street": "Rua Porto Alegre",
        "zipcode": "68627-468"
    },
    {
        "city": "Paragominas",
        "state": "PA",
        "district": "Promissão",
        "street": "Vila Natal",
        "zipcode": "68628-165"
    },
    {
        "city": "Paragominas",
        "state": "PA",
        "district": "Uraim",
        "street": "Rua da Paz",
        "zipcode": "68626-398"
    },
    {
        "city": "Paragominas",
        "state": "PA",
        "district": "Juparanã",
        "street": "Rua dos Jasmins",
        "zipcode": "68629-080"
    },
    {
        "city": "Paragominas",
        "state": "PA",
        "district": "Industrial",
        "street": "Rua do Marupá",
        "zipcode": "68629-418"
    },
    {
        "city": "Paragominas",
        "state": "PA",
        "district": "Industrial",
        "street": "Rua do Ipê",
        "zipcode": "68629-416"
    },
    {
        "city": "Paragominas",
        "state": "PA",
        "district": "Industrial",
        "street": "Rua de Acapu",
        "zipcode": "68629-414"
    },
    {
        "city": "Paragominas",
        "state": "PA",
        "district": "Industrial",
        "street": "Rua Copaíba",
        "zipcode": "68629-412"
    },
    {
        "city": "Paragominas",
        "state": "PA",
        "district": "Industrial",
        "street": "Rua do Cedro",
        "zipcode": "68629-410"
    },
    {
        "city": "Paragominas",
        "state": "PA",
        "district": "Industrial",
        "street": "Travessa Macaúba",
        "zipcode": "68629-406"
    },
    {
        "city": "Paragominas",
        "state": "PA",
        "district": "Jardim Camboatã I",
        "street": "Rua Nagib Demaschk",
        "zipcode": "68626-503"
    },
    {
        "city": "Paragominas",
        "state": "PA",
        "district": "Vila Rica",
        "street": "Rua São Francisco",
        "zipcode": "68626-425"
    },
    {
        "city": "Paragominas",
        "state": "PA",
        "district": "Uraim",
        "street": "Rua Nilo Peçanha",
        "zipcode": "68626-215"
    },
    {
        "city": "Paragominas",
        "state": "PA",
        "district": "Jardim Camboatã I",
        "street": "Rua Samuel Câmara",
        "zipcode": "68626-511"
    },
    {
        "city": "Paragominas",
        "state": "PA",
        "district": "Bela Vista",
        "street": "Rua Almeirim",
        "zipcode": "68627-020"
    },
    {
        "city": "Paragominas",
        "state": "PA",
        "district": "Módulo II",
        "street": "Travessa Belmonte",
        "zipcode": "68626-300"
    },
    {
        "city": "Paragominas",
        "state": "PA",
        "district": "Jardim Atlântico",
        "street": "Rua Boaventura",
        "zipcode": "68627-290"
    },
    {
        "city": "Paragominas",
        "state": "PA",
        "district": "Bela Vista",
        "street": "Rua Castanhal",
        "zipcode": "68627-010"
    },
    {
        "city": "Paragominas",
        "state": "PA",
        "district": "Centro",
        "street": "Rua Ernesto Geisel",
        "zipcode": "68626-170"
    },
    {
        "city": "Paragominas",
        "state": "PA",
        "district": "Trecho Seco",
        "street": "Rua Fortaleza",
        "zipcode": "68627-100"
    },
    {
        "city": "Paragominas",
        "state": "PA",
        "district": "Jardim Atlântico",
        "street": "Rua Industrial",
        "zipcode": "68627-380"
    },
    {
        "city": "Paragominas",
        "state": "PA",
        "district": "Módulo II",
        "street": "Travessa Marajoara",
        "zipcode": "68626-340"
    },
    {
        "city": "Paragominas",
        "state": "PA",
        "district": "Centro",
        "street": "Rua Monte Castelo",
        "zipcode": "68626-120"
    },
    {
        "city": "Paragominas",
        "state": "PA",
        "district": "Jardim Atlântico",
        "street": "Rua Santa Efigênia",
        "zipcode": "68627-260"
    },
    {
        "city": "Paragominas",
        "state": "PA",
        "district": "Jardim Atlântico",
        "street": "Rua São Paulo",
        "zipcode": "68627-130"
    },
    {
        "city": "Paragominas",
        "state": "PA",
        "district": "Uraim",
        "street": "Rua Café Filho",
        "zipcode": "68626-200"
    },
    {
        "city": "Paragominas",
        "state": "PA",
        "district": "Jardim Atlântico",
        "street": "Rua Miramar",
        "zipcode": "68627-340"
    },
    {
        "city": "Paragominas",
        "state": "PA",
        "district": "Jardim Atlântico",
        "street": "Rua Santa Rita",
        "zipcode": "68627-210"
    },
    {
        "city": "Paragominas",
        "state": "PA",
        "district": "Angelim",
        "street": "Rua Salinópolis",
        "zipcode": "68626-353"
    },
    {
        "city": "Paragominas",
        "state": "PA",
        "district": "Angelim",
        "street": "Travessa Santarém",
        "zipcode": "68626-360"
    },
    {
        "city": "Paragominas",
        "state": "PA",
        "district": "Jardim Camboatã II",
        "street": "Rua São Pedro",
        "zipcode": "68626-403"
    },
    {
        "city": "Paragominas",
        "state": "PA",
        "district": "Laércio Cabeline",
        "street": "Travessa Firmino Reis",
        "zipcode": "68627-437"
    },
    {
        "city": "Paragominas",
        "state": "PA",
        "district": "Nova Conquista",
        "street": "Rodovia dos Pinheiros",
        "zipcode": "68627-450"
    },
    {
        "city": "Paragominas",
        "state": "PA",
        "district": "Nova Conquista",
        "street": "Rodovia PA",
        "zipcode": "68627-451"
    },
    {
        "city": "Paragominas",
        "state": "PA",
        "district": "Jaderlândia",
        "street": "Rodovia dos Pioneiros",
        "zipcode": "68627-501"
    },
    {
        "city": "Paragominas",
        "state": "PA",
        "district": "Paraíso",
        "street": "Rua Tropicália",
        "zipcode": "68626-614"
    },
    {
        "city": "Paragominas",
        "state": "PA",
        "district": "Paraíso",
        "street": "Rua Guarumã",
        "zipcode": "68626-618"
    },
    {
        "city": "Paragominas",
        "state": "PA",
        "district": "Paraíso",
        "street": "Rua Floresta",
        "zipcode": "68626-612"
    },
    {
        "city": "Paragominas",
        "state": "PA",
        "district": "Paraíso",
        "street": "Rua Araguaia",
        "zipcode": "68626-617"
    },
    {
        "city": "Paragominas",
        "state": "PA",
        "district": "Laércio Cabeline",
        "street": "Rua José Elias da Cruz",
        "zipcode": "68627-449"
    },
    {
        "city": "Paragominas",
        "state": "PA",
        "district": "Nova Conquista",
        "street": "Rua Arlete Nascimento",
        "zipcode": "68627-544"
    },
    {
        "city": "Paragominas",
        "state": "PA",
        "district": "Jardim Atlântico",
        "street": "Rua Frederico Edas",
        "zipcode": "68627-460"
    },
    {
        "city": "Paragominas",
        "state": "PA",
        "district": "Jardim Atlântico",
        "street": "Rua Juarez Távora",
        "zipcode": "68627-478"
    },
    {
        "city": "Paragominas",
        "state": "PA",
        "district": "Jardim Atlântico",
        "street": "Rua Doutor Américo",
        "zipcode": "68627-486"
    },
    {
        "city": "Paragominas",
        "state": "PA",
        "district": "Industrial",
        "street": "Travessa Mogno",
        "zipcode": "68629-404"
    },
    {
        "city": "Paragominas",
        "state": "PA",
        "district": "Industrial",
        "street": "Travessa Paricá",
        "zipcode": "68629-402"
    },
    {
        "city": "Paragominas",
        "state": "PA",
        "district": "Juparanã",
        "street": "Rua Vitória",
        "zipcode": "68629-060"
    },
    {
        "city": "Paragominas",
        "state": "PA",
        "district": "Juparanã",
        "street": "Rua das Magnólias",
        "zipcode": "68629-106"
    },
    {
        "city": "Paragominas",
        "state": "PA",
        "district": "Paraíso",
        "street": "Rua Arari",
        "zipcode": "68626-613"
    },
    {
        "city": "Paragominas",
        "state": "PA",
        "district": "Laércio Cabeline",
        "street": "Travessa Maurício Carneiro",
        "zipcode": "68627-491"
    },
    {
        "city": "Paragominas",
        "state": "PA",
        "district": "Paraíso",
        "street": "Rua Paraiso",
        "zipcode": "68626-611"
    },
    {
        "city": "Paragominas",
        "state": "PA",
        "district": "Jardim Atlântico",
        "street": "Rua São Clemente",
        "zipcode": "68627-135"
    },
    {
        "city": "Paragominas",
        "state": "PA",
        "district": "Laércio Cabeline",
        "street": "Rua Dezessete de Junho",
        "zipcode": "68627-461"
    },
    {
        "city": "Paragominas",
        "state": "PA",
        "district": "Juparanã",
        "street": "Rua das Figueiras",
        "zipcode": "68629-098"
    },
    {
        "city": "Paragominas",
        "state": "PA",
        "district": "Juparanã",
        "street": "Rua das Alpínias",
        "zipcode": "68629-094"
    },
    {
        "city": "Paragominas",
        "state": "PA",
        "district": "Juparanã",
        "street": "Rua das Palmeiras",
        "zipcode": "68629-090"
    },
    {
        "city": "Paragominas",
        "state": "PA",
        "district": "Juparanã",
        "street": "Rua das Alfazemas",
        "zipcode": "68629-084"
    },
    {
        "city": "Paragominas",
        "state": "PA",
        "district": "Juparanã",
        "street": "Rua das Verônicas",
        "zipcode": "68629-078"
    },
    {
        "city": "Paragominas",
        "state": "PA",
        "district": "Juparanã",
        "street": "Rua Flor",
        "zipcode": "68629-074"
    },
    {
        "city": "Paragominas",
        "state": "PA",
        "district": "Juparanã",
        "street": "Rua das Margaridas",
        "zipcode": "68629-072"
    },
    {
        "city": "Paragominas",
        "state": "PA",
        "district": "Juparanã",
        "street": "Rua das Orquídeas",
        "zipcode": "68629-068"
    },
    {
        "city": "Paragominas",
        "state": "PA",
        "district": "Juparanã",
        "street": "Rua das Bromélias",
        "zipcode": "68629-062"
    },
    {
        "city": "Paragominas",
        "state": "PA",
        "district": "Juparanã",
        "street": "Rua das Camélias",
        "zipcode": "68629-116"
    },
    {
        "city": "Paragominas",
        "state": "PA",
        "district": "Juparanã",
        "street": "Rua das Videiras",
        "zipcode": "68629-104"
    },
    {
        "city": "Paragominas",
        "state": "PA",
        "district": "Juparanã",
        "street": "Rua dos Alecrins",
        "zipcode": "68629-076"
    },
    {
        "city": "Paragominas",
        "state": "PA",
        "district": "Juparanã",
        "street": "Rua Flor",
        "zipcode": "68629-064"
    },
    {
        "city": "Paragominas",
        "state": "PA",
        "district": "Parque Village Flamboyant",
        "street": "Rua Oito",
        "zipcode": "68630-881"
    },
    {
        "city": "Paragominas",
        "state": "PA",
        "district": "Cidade Nova",
        "street": "Travessa Maria Rosa",
        "zipcode": "68625-525"
    },
    {
        "city": "Paragominas",
        "state": "PA",
        "district": "Parque Village Flamboyant",
        "street": "Rua Dois",
        "zipcode": "68630-870"
    },
    {
        "city": "Paragominas",
        "state": "PA",
        "district": "Módulo II",
        "street": "Rua Bacabal",
        "zipcode": "68625-410"
    },
    {
        "city": "Paragominas",
        "state": "PA",
        "district": "Centro",
        "street": "Travessa Estado do Piauí",
        "zipcode": "68625-030"
    },
    {
        "city": "Paragominas",
        "state": "PA",
        "district": "Módulo II",
        "street": "Rua Feira de Santana",
        "zipcode": "68626-040"
    },
    {
        "city": "Paragominas",
        "state": "PA",
        "district": "Cidade Nova",
        "street": "Rua Nossa Senhora de Lourdes",
        "zipcode": "68625-460"
    },
    {
        "city": "Paragominas",
        "state": "PA",
        "district": "Módulo II",
        "street": "Travessa Pindaré",
        "zipcode": "68625-340"
    },
    {
        "city": "Paragominas",
        "state": "PA",
        "district": "Módulo II",
        "street": "Rua Rondonópolis",
        "zipcode": "68625-290"
    },
    {
        "city": "Paragominas",
        "state": "PA",
        "district": "Centro",
        "street": "Rua Rui Barbosa",
        "zipcode": "68625-235"
    },
    {
        "city": "Paragominas",
        "state": "PA",
        "district": "Cidade Nova",
        "street": "Rua São Luís",
        "zipcode": "68625-530"
    },
    {
        "city": "Paragominas",
        "state": "PA",
        "district": "Centro",
        "street": "Rua Trinta e Um de Março",
        "zipcode": "68625-170"
    },
    {
        "city": "Paragominas",
        "state": "PA",
        "district": "Centro",
        "street": "Rua Vinte e Três de Janeiro",
        "zipcode": "68625-210"
    },
    {
        "city": "Paragominas",
        "state": "PA",
        "district": "Módulo II",
        "street": "Rua Filadélfia",
        "zipcode": "68625-360"
    },
    {
        "city": "Paragominas",
        "state": "PA",
        "district": "Morada do Sol",
        "street": "Rua W",
        "zipcode": "68626-588"
    },
    {
        "city": "Paragominas",
        "state": "PA",
        "district": "Andradina",
        "street": "Rua Franvcisco Olivedira Teixeira",
        "zipcode": "68626-536"
    },
    {
        "city": "Paragominas",
        "state": "PA",
        "district": "Morada do Sol",
        "street": "Rua W",
        "zipcode": "68626-550"
    },
    {
        "city": "Paragominas",
        "state": "PA",
        "district": "Morada do Sol",
        "street": "Rua W",
        "zipcode": "68626-562"
    },
    {
        "city": "Paragominas",
        "state": "PA",
        "district": "Jaderlândia",
        "street": "Rua Belos Campos",
        "zipcode": "68627-506"
    },
    {
        "city": "Paragominas",
        "state": "PA",
        "district": "Morada do Sol",
        "street": "Rua W",
        "zipcode": "68626-590"
    },
    {
        "city": "Paragominas",
        "state": "PA",
        "district": "Morada do Sol",
        "street": "Rua W",
        "zipcode": "68626-584"
    },
    {
        "city": "Paragominas",
        "state": "PA",
        "district": "Morada do Sol",
        "street": "Rua W",
        "zipcode": "68626-580"
    },
    {
        "city": "Paragominas",
        "state": "PA",
        "district": "Morada do Sol",
        "street": "Rua W",
        "zipcode": "68626-582"
    },
    {
        "city": "Paragominas",
        "state": "PA",
        "district": "Jaderlândia",
        "street": "Rua Itaúna",
        "zipcode": "68627-523"
    },
    {
        "city": "Paragominas",
        "state": "PA",
        "district": "Jaderlândia",
        "street": "Rua Itamaraju",
        "zipcode": "68627-532"
    },
    {
        "city": "Paragominas",
        "state": "PA",
        "district": "Paraíso",
        "street": "Rua Inajá",
        "zipcode": "68626-610"
    },
    {
        "city": "Paragominas",
        "state": "PA",
        "district": "Morada do Sol",
        "street": "Rua W",
        "zipcode": "68626-578"
    },
    {
        "city": "Paragominas",
        "state": "PA",
        "district": "Morada do Sol",
        "street": "Rua W",
        "zipcode": "68626-576"
    },
    {
        "city": "Paragominas",
        "state": "PA",
        "district": "Centro",
        "street": "Avenida Tamandaré",
        "zipcode": "68625-016"
    },
    {
        "city": "Paragominas",
        "state": "PA",
        "district": "Célio Miranda",
        "street": "Rua Rio Finex",
        "zipcode": "68625-045"
    },
    {
        "city": "Paragominas",
        "state": "PA",
        "district": "Nagibão",
        "street": "Rua Lucas Guilherme Nacimento Souza",
        "zipcode": "68630-580"
    },
    {
        "city": "Paragominas",
        "state": "PA",
        "district": "Tião Mineiro",
        "street": "Rua Ipê Roxo",
        "zipcode": "68630-752"
    },
    {
        "city": "Paragominas",
        "state": "PA",
        "district": "Tião Mineiro",
        "street": "Alameda Sapopema",
        "zipcode": "68630-767"
    },
    {
        "city": "Paragominas",
        "state": "PA",
        "district": "Juparanã",
        "street": "Rua das Açucenas",
        "zipcode": "68629-056"
    },
    {
        "city": "Paragominas",
        "state": "PA",
        "district": "Juparanã",
        "street": "Rua das Romas",
        "zipcode": "68629-054"
    },
    {
        "city": "Paragominas",
        "state": "PA",
        "district": "Juparanã",
        "street": "Rua Capim Dourado",
        "zipcode": "68629-050"
    },
    {
        "city": "Paragominas",
        "state": "PA",
        "district": "Juparanã",
        "street": "Rua dos Cravos",
        "zipcode": "68629-048"
    },
    {
        "city": "Paragominas",
        "state": "PA",
        "district": "Juparanã",
        "street": "Rua das Rosas",
        "zipcode": "68629-046"
    },
    {
        "city": "Paragominas",
        "state": "PA",
        "district": "Morada do Sol",
        "street": "Rua W",
        "zipcode": "68626-570"
    },
    {
        "city": "Paragominas",
        "state": "PA",
        "district": "Morada do Sol",
        "street": "Rua W",
        "zipcode": "68626-552"
    },
    {
        "city": "Paragominas",
        "state": "PA",
        "district": "Morada do Sol",
        "street": "Rua W",
        "zipcode": "68626-586"
    },
    {
        "city": "Paragominas",
        "state": "PA",
        "district": "Morada do Sol",
        "street": "Rua W",
        "zipcode": "68626-572"
    },
    {
        "city": "Paragominas",
        "state": "PA",
        "district": "Andradina",
        "street": "Travessa Ediberto Ferreira Vaz",
        "zipcode": "68626-538"
    },
    {
        "city": "Paragominas",
        "state": "PA",
        "district": "Morada do Sol",
        "street": "Rua W",
        "zipcode": "68626-566"
    },
    {
        "city": "Paragominas",
        "state": "PA",
        "district": "Morada do Sol",
        "street": "Rua W",
        "zipcode": "68626-556"
    },
    {
        "city": "Paragominas",
        "state": "PA",
        "district": "Morada do Sol",
        "street": "Rua W",
        "zipcode": "68626-558"
    },
    {
        "city": "Paragominas",
        "state": "PA",
        "district": "Juparanã",
        "street": "Rua das Gardênias",
        "zipcode": "68629-044"
    },
    {
        "city": "Paragominas",
        "state": "PA",
        "district": "Nagib Demachki",
        "street": "Avenida Vitória",
        "zipcode": "68630-510"
    },
    {
        "city": "Paragominas",
        "state": "PA",
        "district": "JK",
        "street": "Rua Graciliano Ramos",
        "zipcode": "68628-596"
    },
    {
        "city": "Paragominas",
        "state": "PA",
        "district": "Parque Village Flamboyant",
        "street": "Rua Dezesseis",
        "zipcode": "68630-745"
    },
    {
        "city": "Paragominas",
        "state": "PA",
        "district": "Centro",
        "street": "Avenida Contorno",
        "zipcode": "68625-972"
    },
    {
        "city": "Paragominas",
        "state": "PA",
        "district": "Cidade Nova",
        "street": "Rua Padre Cícero",
        "zipcode": "68625-971"
    },
    {
        "city": "Paragominas",
        "state": "PA",
        "district": "Promissão II",
        "street": "Rua Afonso Pena",
        "zipcode": "68628-310"
    },
    {
        "city": "Paragominas",
        "state": "PA",
        "district": "Promissão I",
        "street": "Rua Benedito Rocha",
        "zipcode": "68628-180"
    },
    {
        "city": "Paragominas",
        "state": "PA",
        "district": "Promissão I",
        "street": "Rua Pinheiro",
        "zipcode": "68628-040"
    },
    {
        "city": "Paragominas",
        "state": "PA",
        "district": "Jardim Atlântico",
        "street": "Rua Sacramentina",
        "zipcode": "68627-330"
    },
    {
        "city": "Paragominas",
        "state": "PA",
        "district": "Promissão II",
        "street": "Rua Uberaba",
        "zipcode": "68628-380"
    },
    {
        "city": "Paragominas",
        "state": "PA",
        "district": "Promissão II",
        "street": "Rua Castro Alves",
        "zipcode": "68628-280"
    },
    {
        "city": "Paragominas",
        "state": "PA",
        "district": "Aragão",
        "street": "Rua Boa Esperança",
        "zipcode": "68627-410"
    },
    {
        "city": "Paragominas",
        "state": "PA",
        "district": "Laércio Cabeline",
        "street": "Travessa Frederico Leda",
        "zipcode": "68627-431"
    },
    {
        "city": "Paragominas",
        "state": "PA",
        "district": "Laércio Cabeline",
        "street": "Rua Sete de Setembro",
        "zipcode": "68627-433"
    },
    {
        "city": "Paragominas",
        "state": "PA",
        "district": "Laércio Cabeline",
        "street": "Rua Samuel Câmara",
        "zipcode": "68627-439"
    },
    {
        "city": "Paragominas",
        "state": "PA",
        "district": "Nova Conquista",
        "street": "Rua Geraldo Sarmento",
        "zipcode": "68627-455"
    },
    {
        "city": "Paragominas",
        "state": "PA",
        "district": "Jaderlândia",
        "street": "Rua Leopoldina",
        "zipcode": "68627-503"
    },
    {
        "city": "Paragominas",
        "state": "PA",
        "district": "Nova Conquista",
        "street": "Rua Jorge Corrêa Leite",
        "zipcode": "68627-459"
    },
    {
        "city": "Paragominas",
        "state": "PA",
        "district": "Promissão III",
        "street": "Rua do Ulisses Guimarães",
        "zipcode": "68628-480"
    },
    {
        "city": "Paragominas",
        "state": "PA",
        "district": "Promissão III",
        "street": "Rua Antônio Nogueira",
        "zipcode": "68628-482"
    },
    {
        "city": "Paragominas",
        "state": "PA",
        "district": "Jaderlândia",
        "street": "Rua Tupinambás",
        "zipcode": "68627-512"
    },
    {
        "city": "Paragominas",
        "state": "PA",
        "district": "Promissão I",
        "street": "Rua Nivaldo Alves",
        "zipcode": "68628-055"
    },
    {
        "city": "Paragominas",
        "state": "PA",
        "district": "Jaderlândia",
        "street": "Rua São Paulo",
        "zipcode": "68627-518"
    },
    {
        "city": "Paragominas",
        "state": "PA",
        "district": "Promissão I",
        "street": "Rua Irmã Maria das Graças",
        "zipcode": "68628-085"
    },
    {
        "city": "Paragominas",
        "state": "PA",
        "district": "Jaderlândia",
        "street": "Avenida Barão do Rio Branco",
        "zipcode": "68627-519"
    },
    {
        "city": "Paragominas",
        "state": "PA",
        "district": "Promissão I",
        "street": "Rua Campos Sales",
        "zipcode": "68628-115"
    },
    {
        "city": "Paragominas",
        "state": "PA",
        "district": "Promissão IV",
        "street": "Rua Helton Gonzaga",
        "zipcode": "68628-542"
    },
    {
        "city": "Paragominas",
        "state": "PA",
        "district": "Promissão III",
        "street": "Rua Elson Lima (Cj Olga Moreira)",
        "zipcode": "68628-504"
    },
    {
        "city": "Paragominas",
        "state": "PA",
        "district": "Jaderlândia",
        "street": "Rua Itamirim",
        "zipcode": "68627-530"
    },
    {
        "city": "Paragominas",
        "state": "PA",
        "district": "Promissão III",
        "street": "Rua Gilberto Rodrigues (Cj Olga Moreira)",
        "zipcode": "68628-520"
    },
    {
        "city": "Paragominas",
        "state": "PA",
        "district": "JK",
        "street": "Avenida Visconde de Mauá",
        "zipcode": "68628-553"
    },
    {
        "city": "Paragominas",
        "state": "PA",
        "district": "JK",
        "street": "Rua Brigadeiro Eduardo Gomes",
        "zipcode": "68628-554"
    },
    {
        "city": "Paragominas",
        "state": "PA",
        "district": "JK",
        "street": "Rua Agripino Grieco",
        "zipcode": "68628-556"
    },
    {
        "city": "Paragominas",
        "state": "PA",
        "district": "JK",
        "street": "Rua José de Almeida",
        "zipcode": "68628-558"
    },
    {
        "city": "Paragominas",
        "state": "PA",
        "district": "Promissão III",
        "street": "Rua José R. de Oliveira (Cj Olga Moreira)",
        "zipcode": "68628-529"
    },
    {
        "city": "Paragominas",
        "state": "PA",
        "district": "JK",
        "street": "Rua Vidal Negreiros",
        "zipcode": "68628-567"
    },
    {
        "city": "Paragominas",
        "state": "PA",
        "district": "JK",
        "street": "Rua Cristiano",
        "zipcode": "68628-572"
    },
    {
        "city": "Paragominas",
        "state": "PA",
        "district": "JK",
        "street": "Rua Rômulo Maiorana",
        "zipcode": "68628-574"
    },
    {
        "city": "Paragominas",
        "state": "PA",
        "district": "JK",
        "street": "Alameda Ariano suassuna",
        "zipcode": "68628-587"
    },
    {
        "city": "Paragominas",
        "state": "PA",
        "district": "Nova Conquista",
        "street": "Rua Zulmira Sampaio",
        "zipcode": "68627-578"
    },
    {
        "city": "Paragominas",
        "state": "PA",
        "district": "Jardim Camboatã II",
        "street": "Rua Samuel Câmara",
        "zipcode": "68627-630"
    },
    {
        "city": "Paragominas",
        "state": "PA",
        "district": "Nagib Demachki",
        "street": "Rua Amador Péres Fernando Vilar",
        "zipcode": "68630-627"
    },
    {
        "city": "Paragominas",
        "state": "PA",
        "district": "Andradina",
        "street": "Avenida Aureliano Darte Andrade",
        "zipcode": "68626-530"
    },
    {
        "city": "Paragominas",
        "state": "PA",
        "district": "Jardim Camboatã II",
        "street": "Rua Betinho",
        "zipcode": "68626-407"
    },
    {
        "city": "Paragominas",
        "state": "PA",
        "district": "Andradina",
        "street": "Rua Felix",
        "zipcode": "68626-532"
    },
    {
        "city": "Paragominas",
        "state": "PA",
        "district": "Promissão",
        "street": "Rua Edson F da Silva",
        "zipcode": "68627-642"
    },
    {
        "city": "Paragominas",
        "state": "PA",
        "district": "Angelim",
        "street": "Rua Guilherme Gabriel",
        "zipcode": "68627-694"
    },
    {
        "city": "Paragominas",
        "state": "PA",
        "district": "Nova Conquista",
        "street": "Rua Caramuru",
        "zipcode": "68627-546"
    },
    {
        "city": "Paragominas",
        "state": "PA",
        "district": "Uraim",
        "street": "Rua Copacabana",
        "zipcode": "68626-390"
    },
    {
        "city": "Paragominas",
        "state": "PA",
        "district": "Jardim Atlântico",
        "street": "Rua São Marcos",
        "zipcode": "68627-145"
    },
    {
        "city": "Paragominas",
        "state": "PA",
        "district": "Juparanã",
        "street": "Rua dos Girassóis",
        "zipcode": "68629-040"
    },
    {
        "city": "Paragominas",
        "state": "PA",
        "district": "Juparanã",
        "street": "Rua das Arrudas",
        "zipcode": "68629-038"
    },
    {
        "city": "Paragominas",
        "state": "PA",
        "district": "Juparanã",
        "street": "Avenida dos Bacuris",
        "zipcode": "68629-030"
    },
    {
        "city": "Paragominas",
        "state": "PA",
        "district": "Juparanã",
        "street": "Avenida dos Paricás",
        "zipcode": "68629-028"
    },
    {
        "city": "Paragominas",
        "state": "PA",
        "district": "Juparanã",
        "street": "Avenida dos Açaís",
        "zipcode": "68629-022"
    },
    {
        "city": "Paragominas",
        "state": "PA",
        "district": "Juparanã",
        "street": "Avenida dos Cedros",
        "zipcode": "68629-020"
    },
    {
        "city": "Paragominas",
        "state": "PA",
        "district": "Juparanã",
        "street": "Avenida dos Jatobás",
        "zipcode": "68629-014"
    },
    {
        "city": "Paragominas",
        "state": "PA",
        "district": "Juparanã",
        "street": "Avenida dos Buritis",
        "zipcode": "68629-012"
    },
    {
        "city": "Paragominas",
        "state": "PA",
        "district": "Juparanã",
        "street": "Rua das Violetas",
        "zipcode": "68629-032"
    },
    {
        "city": "Paragominas",
        "state": "PA",
        "district": "Juparanã",
        "street": "Avenida das Seringueiras",
        "zipcode": "68629-016"
    },
    {
        "city": "Paragominas",
        "state": "PA",
        "district": "Jardim Camboatã I",
        "street": "Rua Amilcar Tocantins",
        "zipcode": "68626-507"
    },
    {
        "city": "Paragominas",
        "state": "PA",
        "district": "Vila Rica",
        "street": "Rua São Paulo",
        "zipcode": "68626-424"
    },
    {
        "city": "Paragominas",
        "state": "PA",
        "district": "Módulo II",
        "street": "Rua Araguaína",
        "zipcode": "68625-380"
    },
    {
        "city": "Paragominas",
        "state": "PA",
        "district": "Promissão II",
        "street": "Rua Belém",
        "zipcode": "68628-470"
    },
    {
        "city": "Paragominas",
        "state": "PA",
        "district": "Centro",
        "street": "Praça Célio Miranda",
        "zipcode": "68625-230"
    },
    {
        "city": "Paragominas",
        "state": "PA",
        "district": "Centro",
        "street": "Rua Costa e Silva",
        "zipcode": "68625-040"
    },
    {
        "city": "Paragominas",
        "state": "PA",
        "district": "Centro",
        "street": "Rua Diamantina",
        "zipcode": "68625-270"
    },
    {
        "city": "Paragominas",
        "state": "PA",
        "district": "Centro",
        "street": "Rua do Espírito Santo",
        "zipcode": "68625-240"
    },
    {
        "city": "Paragominas",
        "state": "PA",
        "district": "Centro",
        "street": "Rua Estado do Maranhão",
        "zipcode": "68625-100"
    },
    {
        "city": "Paragominas",
        "state": "PA",
        "district": "Centro",
        "street": "Travessa Estado do Pará",
        "zipcode": "68625-020"
    },
    {
        "city": "Paragominas",
        "state": "PA",
        "district": "Trecho Seco",
        "street": "Rua Florianópolis",
        "zipcode": "68627-040"
    },
    {
        "city": "Paragominas",
        "state": "PA",
        "district": "Uraim",
        "street": "Rua Gaspar Dutra",
        "zipcode": "68626-220"
    },
    {
        "city": "Paragominas",
        "state": "PA",
        "district": "Centro",
        "street": "Rua Gonçalves Ledo",
        "zipcode": "68626-100"
    },
    {
        "city": "Paragominas",
        "state": "PA",
        "district": "Módulo II",
        "street": "Rua Jequié",
        "zipcode": "68626-020"
    },
    {
        "city": "Paragominas",
        "state": "PA",
        "district": "Cidade Nova",
        "street": "Rua Nossa Senhora de Fátima",
        "zipcode": "68625-500"
    },
    {
        "city": "Paragominas",
        "state": "PA",
        "district": "Cidade Nova",
        "street": "Rua Nossa Senhora de Nazaré",
        "zipcode": "68625-470"
    },
    {
        "city": "Paragominas",
        "state": "PA",
        "district": "Cidade Nova",
        "street": "Rodovia PA",
        "zipcode": "68625-620"
    },
    {
        "city": "Paragominas",
        "state": "PA",
        "district": "Centro",
        "street": "Avenida Quinze de Maio",
        "zipcode": "68625-010"
    },
    {
        "city": "Paragominas",
        "state": "PA",
        "district": "Trecho Seco",
        "street": "Rua Salvador",
        "zipcode": "68627-060"
    },
    {
        "city": "Paragominas",
        "state": "PA",
        "district": "Centro",
        "street": "Rua Santa Teresinha",
        "zipcode": "68625-080"
    },
    {
        "city": "Paragominas",
        "state": "PA",
        "district": "Centro",
        "street": "Rua Santarém",
        "zipcode": "68625-310"
    },
    {
        "city": "Paragominas",
        "state": "PA",
        "district": "Jardim Atlântico",
        "street": "Rua São Bento",
        "zipcode": "68627-270"
    },
    {
        "city": "Paragominas",
        "state": "PA",
        "district": "Jardim Atlântico",
        "street": "Rua São João",
        "zipcode": "68627-110"
    },
    {
        "city": "Paragominas",
        "state": "PA",
        "district": "Jardim Atlântico",
        "street": "Rua São Judas Tadeu",
        "zipcode": "68627-160"
    },
    {
        "city": "Paragominas",
        "state": "PA",
        "district": "Centro",
        "street": "Rua Teófilo Otoni",
        "zipcode": "68625-260"
    },
    {
        "city": "Paragominas",
        "state": "PA",
        "district": "Centro",
        "street": "Rua Vinte e Um de Abril",
        "zipcode": "68625-180"
    },
    {
        "city": "Paragominas",
        "state": "PA",
        "district": "Uraim",
        "street": "Rua Wenceslau Brás",
        "zipcode": "68626-250"
    },
    {
        "city": "Paragominas",
        "state": "PA",
        "district": "Módulo II",
        "street": "Avenida Belo Horizonte",
        "zipcode": "68626-290"
    },
    {
        "city": "Paragominas",
        "state": "PA",
        "district": "Jardim Atlântico",
        "street": "Rua Carlos Gomes",
        "zipcode": "68627-190"
    },
    {
        "city": "Paragominas",
        "state": "PA",
        "district": "Cidade Nova",
        "street": "Rua Paulo VI",
        "zipcode": "68625-540"
    },
    {
        "city": "Paragominas",
        "state": "PA",
        "district": "Centro",
        "street": "Rua Fernando Guilhon",
        "zipcode": "68625-006"
    },
    {
        "city": "Paragominas",
        "state": "PA",
        "district": "Angelim",
        "street": "Rua Irituia",
        "zipcode": "68626-351"
    },
    {
        "city": "Paragominas",
        "state": "PA",
        "district": "Jardim Camboatã II",
        "street": "Rua José do Patrocínio",
        "zipcode": "68626-405"
    },
    {
        "city": "Paragominas",
        "state": "PA",
        "district": "Jardim Camboatã II",
        "street": "Travessa Maria Rosa",
        "zipcode": "68626-413"
    },
    {
        "city": "Paragominas",
        "state": "PA",
        "district": "JK",
        "street": "Avenida Alexandre Fleming",
        "zipcode": "68628-559"
    },
    {
        "city": "Paragominas",
        "state": "PA",
        "district": "Uraim II",
        "street": "Rua Ulisses Guimarães",
        "zipcode": "68626-380"
    },
    {
        "city": "Paragominas",
        "state": "PA",
        "district": "Uraim II",
        "street": "Avenida Ayrton Sena",
        "zipcode": "68626-383"
    },
    {
        "city": "Paragominas",
        "state": "PA",
        "district": "Vila Rica",
        "street": "Rua Piauí",
        "zipcode": "68626-421"
    },
    {
        "city": "Paragominas",
        "state": "PA",
        "district": "Nova Conquista",
        "street": "Travessa Pareira",
        "zipcode": "68627-592"
    },
    {
        "city": "Paragominas",
        "state": "PA",
        "district": "Camboatã",
        "street": "Rua Brasil",
        "zipcode": "68627-602"
    },
    {
        "city": "Paragominas",
        "state": "PA",
        "district": "Camboatã",
        "street": "Rua Condieu",
        "zipcode": "68627-608"
    },
    {
        "city": "Paragominas",
        "state": "PA",
        "district": "Uraim",
        "street": "Rua Valdemir Amorim",
        "zipcode": "68630-794"
    },
    {
        "city": "Paragominas",
        "state": "PA",
        "district": "Promissão",
        "street": "Rua São Raimundo",
        "zipcode": "68627-658"
    },
    {
        "city": "Paragominas",
        "state": "PA",
        "district": "Uraim",
        "street": "Rua Brasil 500 Anos",
        "zipcode": "68626-388"
    },
    {
        "city": "Paragominas",
        "state": "PA",
        "district": "Promissão",
        "street": "Rua Belos Campos",
        "zipcode": "68628-205"
    },
    {
        "city": "Paragominas",
        "state": "PA",
        "district": "Promissão",
        "street": "Rua Projetada III",
        "zipcode": "68628-215"
    },
    {
        "city": "Paragominas",
        "state": "PA",
        "district": "Promissão",
        "street": "Rua Santa Clara",
        "zipcode": "68628-082"
    },
    {
        "city": "Paragominas",
        "state": "PA",
        "district": "Camboatã",
        "street": "Rua das Palmeiras",
        "zipcode": "68626-620"
    },
    {
        "city": "Paragominas",
        "state": "PA",
        "district": "Industrial",
        "street": "Travessa Parepará",
        "zipcode": "68629-430"
    },
    {
        "city": "Paragominas",
        "state": "PA",
        "district": "Juparanã",
        "street": "Rua das Cerejeiras",
        "zipcode": "68629-102"
    },
    {
        "city": "Paragominas",
        "state": "PA",
        "district": "Juparanã",
        "street": "Rua Flor",
        "zipcode": "68629-066"
    },
    {
        "city": "Paragominas",
        "state": "PA",
        "district": "Juparanã",
        "street": "Avenida das Castanheiras",
        "zipcode": "68629-018"
    },
    {
        "city": "Paragominas",
        "state": "PA",
        "district": "Camboatã",
        "street": "Rua Campo Maior",
        "zipcode": "68627-604"
    },
    {
        "city": "Paragominas",
        "state": "PA",
        "district": "Camboatã",
        "street": "Rua Cecília",
        "zipcode": "68627-606"
    },
    {
        "city": "Paragominas",
        "state": "PA",
        "district": "Camboatã",
        "street": "Rua Nova Esperança",
        "zipcode": "68627-628"
    },
    {
        "city": "Paragominas",
        "state": "PA",
        "district": "Camboatã",
        "street": "Rua Terto Veloso",
        "zipcode": "68627-632"
    },
    {
        "city": "Paragominas",
        "state": "PA",
        "district": "Jardim Atlântico",
        "street": "Rua Elias Pinheiro",
        "zipcode": "68627-014"
    },
    {
        "city": "Paragominas",
        "state": "PA",
        "district": "Nagibão",
        "street": "Rua Venâncio de Abreu Silva",
        "zipcode": "68630-540"
    },
    {
        "city": "Paragominas",
        "state": "PA",
        "district": "Uraim",
        "street": "Rua Joaquim Lopes Gonçalves",
        "zipcode": "68630-784"
    },
    {
        "city": "Paragominas",
        "state": "PA",
        "district": "Centro",
        "street": "Praça Célio Miranda",
        "zipcode": "68625-970"
    },
    {
        "city": "Paragominas",
        "state": "PA",
        "district": "Promissão II",
        "street": "Rua Adoniran Barbosa",
        "zipcode": "68628-230"
    },
    {
        "city": "Paragominas",
        "state": "PA",
        "district": "Promissão II",
        "street": "Rua Barão Araruna",
        "zipcode": "68628-300"
    },
    {
        "city": "Paragominas",
        "state": "PA",
        "district": "Guanabara",
        "street": "Rua Bolívia",
        "zipcode": "68625-580"
    },
    {
        "city": "Paragominas",
        "state": "PA",
        "district": "Promissão II",
        "street": "Rua Capanema",
        "zipcode": "68628-350"
    },
    {
        "city": "Paragominas",
        "state": "PA",
        "district": "Centro",
        "street": "Rua Luís Carlos",
        "zipcode": "68626-160"
    },
    {
        "city": "Paragominas",
        "state": "PA",
        "district": "Cidade Nova",
        "street": "Rua Nossa Senhora do Perpétuo Socorro",
        "zipcode": "68625-480"
    },
    {
        "city": "Paragominas",
        "state": "PA",
        "district": "Módulo II",
        "street": "Avenida Portugal",
        "zipcode": "68626-080"
    },
    {
        "city": "Paragominas",
        "state": "PA",
        "district": "Jardim Atlântico",
        "street": "Rua São Pedro",
        "zipcode": "68627-120"
    },
    {
        "city": "Paragominas",
        "state": "PA",
        "district": "Centro",
        "street": "Rua Transamazônica",
        "zipcode": "68625-090"
    },
    {
        "city": "Paragominas",
        "state": "PA",
        "district": "Jardim Camboatã II",
        "street": "Rua São Luís",
        "zipcode": "68626-414"
    },
    {
        "city": "Paragominas",
        "state": "PA",
        "district": "Nova Conquista",
        "street": "Rua Adelaide Bernadete",
        "zipcode": "68627-454"
    },
    {
        "city": "Paragominas",
        "state": "PA",
        "district": "Nova Conquista",
        "street": "Rua Dalmo Nunes Coelho",
        "zipcode": "68627-458"
    },
    {
        "city": "Paragominas",
        "state": "PA",
        "district": "Jaderlândia",
        "street": "Travessa do Amor",
        "zipcode": "68627-510"
    },
    {
        "city": "Paragominas",
        "state": "PA",
        "district": "Promissão I",
        "street": "Rua José Mutt Pedreira",
        "zipcode": "68628-015"
    },
    {
        "city": "Paragominas",
        "state": "PA",
        "district": "Promissão III",
        "street": "Rua Gercino Pereira (Cj Olga Moreira)",
        "zipcode": "68628-500"
    },
    {
        "city": "Paragominas",
        "state": "PA",
        "district": "JK",
        "street": "Rua de José de Alencar",
        "zipcode": "68628-583"
    },
    {
        "city": "Paragominas",
        "state": "PA",
        "district": "Promissão",
        "street": "Rua Titan",
        "zipcode": "68627-646"
    },
    {
        "city": "Paragominas",
        "state": "PA",
        "district": "Jardim Atlântico",
        "street": "Rua Aninha Andrade",
        "zipcode": "68627-006"
    },
    {
        "city": "Paragominas",
        "state": "PA",
        "district": "Camboatã",
        "street": "Rua Ubirajara Sampaio Almeida",
        "zipcode": "68630-850"
    },
    {
        "city": "Paragominas",
        "state": "PA",
        "district": "Camboatã",
        "street": "Avenida José Trajano da Silva",
        "zipcode": "68630-852"
    },
    {
        "city": "Paragominas",
        "state": "PA",
        "district": "Parque Village Flamboyant",
        "street": "Rua Cipreste",
        "zipcode": "68630-750"
    },
    {
        "city": "Paragominas",
        "state": "PA",
        "district": "Andradina",
        "street": "Travessa Jose Machado Carvalho",
        "zipcode": "68626-540"
    },
    {
        "city": "Paragominas",
        "state": "PA",
        "district": "Jardim Camboatã I",
        "street": "Rua Oriental do Mercado",
        "zipcode": "68626-501"
    },
    {
        "city": "Paragominas",
        "state": "PA",
        "district": "Laércio Cabeline",
        "street": "Travessa Lauro Cardoso",
        "zipcode": "68627-442"
    },
    {
        "city": "Paragominas",
        "state": "PA",
        "district": "Paraíso",
        "street": "Rua Xingu",
        "zipcode": "68626-616"
    },
    {
        "city": "Paragominas",
        "state": "PA",
        "district": "Centro",
        "street": "Rua João Sobrinho",
        "zipcode": "68626-150"
    },
    {
        "city": "Paragominas",
        "state": "PA",
        "district": "Parque Village Flamboyant",
        "street": "Rua Hermenegilda Rodrigues (Residencial Helena Coutinho)",
        "zipcode": "68630-737"
    },
    {
        "city": "Paragominas",
        "state": "PA",
        "district": "Nagib Demachki",
        "street": "Travessa Imazol",
        "zipcode": "68630-643"
    },
    {
        "city": "Paragominas",
        "state": "PA",
        "district": "Camboatã",
        "street": "Rua Edeltrudes Maria dos Santos",
        "zipcode": "68630-854"
    },
    {
        "city": "Paragominas",
        "state": "PA",
        "district": "Camboatã",
        "street": "Travessa Maria Luciana de Lima Melo",
        "zipcode": "68630-856"
    },
    {
        "city": "Paragominas",
        "state": "PA",
        "district": "Camboatã",
        "street": "Rua Paulo Macêdo Medeiros",
        "zipcode": "68630-858"
    },
    {
        "city": "Paragominas",
        "state": "PA",
        "district": "Jardim Atlântico",
        "street": "Rua Angélica Ávila",
        "zipcode": "68627-002"
    },
    {
        "city": "Paragominas",
        "state": "PA",
        "district": "Nagibão",
        "street": "Rua Francisco da Silva Xavier",
        "zipcode": "68630-620"
    },
    {
        "city": "Paragominas",
        "state": "PA",
        "district": "Jardim Atlântico",
        "street": "Rua Brigadeiro Eduardo Gomes",
        "zipcode": "68627-476"
    },
    {
        "city": "Paragominas",
        "state": "PA",
        "district": "Jardim Atlântico",
        "street": "Rua Graciliano Ramos",
        "zipcode": "68627-492"
    },
    {
        "city": "Paragominas",
        "state": "PA",
        "district": "Jardim Atlântico",
        "street": "Rua Dom Irineu Jof Fily",
        "zipcode": "68627-445"
    },
    {
        "city": "Paragominas",
        "state": "PA",
        "district": "Industrial",
        "street": "Rua do Angelim",
        "zipcode": "68629-428"
    },
    {
        "city": "Paragominas",
        "state": "PA",
        "district": "Industrial",
        "street": "Rua do Freijó",
        "zipcode": "68629-426"
    },
    {
        "city": "Paragominas",
        "state": "PA",
        "district": "Juparanã",
        "street": "Rua das Hortênsias",
        "zipcode": "68629-110"
    },
    {
        "city": "Paragominas",
        "state": "PA",
        "district": "Juparanã",
        "street": "Rua das Samambaias",
        "zipcode": "68629-100"
    },
    {
        "city": "Paragominas",
        "state": "PA",
        "district": "Nagib Demachki",
        "street": "Travessa Mavil",
        "zipcode": "68630-639"
    },
    {
        "city": "Paragominas",
        "state": "PA",
        "district": "Paraíso",
        "street": "Rua Marajó",
        "zipcode": "68626-619"
    },
    {
        "city": "Paragominas",
        "state": "PA",
        "district": "Parque das Américas",
        "street": "Rua Noêmio Dias",
        "zipcode": "68627-691"
    },
    {
        "city": "Paragominas",
        "state": "PA",
        "district": "Morada do Sol",
        "street": "Rua W",
        "zipcode": "68626-592"
    },
    {
        "city": "Paragominas",
        "state": "PA",
        "district": "Andradina",
        "street": "Travessa Joaquim Gonçalves",
        "zipcode": "68626-542"
    },
    {
        "city": "Paragominas",
        "state": "PA",
        "district": "Nagib Demachki",
        "street": "Rua Roberto Irineu Marinho",
        "zipcode": "68630-641"
    },
    {
        "city": "Paragominas",
        "state": "PA",
        "district": "Parque Village Flamboyant",
        "street": "Rua Jasmim",
        "zipcode": "68630-701"
    },
    {
        "city": "Paragominas",
        "state": "PA",
        "district": "Jaderlândia",
        "street": "Rua Itapetinga",
        "zipcode": "68627-529"
    },
    {
        "city": "Paragominas",
        "state": "PA",
        "district": "Juparanã",
        "street": "Rua dos Amarílis",
        "zipcode": "68629-082"
    },
    {
        "city": "Paragominas",
        "state": "PA",
        "district": "Juparanã",
        "street": "Avenida dos Ipês",
        "zipcode": "68629-024"
    },
    {
        "city": "Paragominas",
        "state": "PA",
        "district": "Área Rural de Paragominas",
        "street": "Área Rural",
        "zipcode": "68630-899"
    },
    {
        "city": "Paragominas",
        "state": "PA",
        "district": "Juparanã",
        "street": "Rua dos Lírios",
        "zipcode": "68629-114"
    },
    {
        "city": "Paragominas",
        "state": "PA",
        "district": "Tião Mineiro",
        "street": "Rua Sucupira",
        "zipcode": "68630-732"
    },
    {
        "city": "Paragominas",
        "state": "PA",
        "district": "Uraim",
        "street": "Acesso Belém",
        "zipcode": "68626-310"
    },
    {
        "city": "Paragominas",
        "state": "PA",
        "district": "Camboatã",
        "street": "Rua Goiânia",
        "zipcode": "68626-412"
    },
    {
        "city": "Paragominas",
        "state": "PA",
        "district": "Célio Miranda",
        "street": "Rua Goiânia",
        "zipcode": "68625-370"
    },
    {
        "city": "Paragominas",
        "state": "PA",
        "district": "Promissão III",
        "street": "Rua Aílson Neves do Carmo",
        "zipcode": "68628-508"
    },
    {
        "city": "Paragominas",
        "state": "PA",
        "district": "Camboatã",
        "street": "Rua Álvaro da Costa",
        "zipcode": "68627-600"
    },
    {
        "city": "Paragominas",
        "state": "PA",
        "district": "Nagibão",
        "street": "Rua Otaviano Inácio de Aguiar",
        "zipcode": "68630-545"
    },
    {
        "city": "Paragominas",
        "state": "PA",
        "district": "Uraim",
        "street": "Rua Antônio Marques Sobrinho",
        "zipcode": "68630-782"
    },
    {
        "city": "Paragominas",
        "state": "PA",
        "district": "Uraim",
        "street": "Rua Arcebílio Rocha Bicalho",
        "zipcode": "68630-808"
    },
    {
        "city": "Paragominas",
        "state": "PA",
        "district": "Camboatã",
        "street": "Rua Antônio Miguel Mota",
        "zipcode": "68630-834"
    },
    {
        "city": "Paragominas",
        "state": "PA",
        "district": "Camboatã",
        "street": "Rua Valdência Campos Martins",
        "zipcode": "68630-840"
    },
    {
        "city": "Paragominas",
        "state": "PA",
        "district": "Camboatã",
        "street": "Rua Luiz Pedro Nascimento",
        "zipcode": "68630-848"
    },
    {
        "city": "Paragominas",
        "state": "PA",
        "district": "Jardim Atlântico",
        "street": "Alameda Osvaldo Orico",
        "zipcode": "68627-488"
    },
    {
        "city": "Paragominas",
        "state": "PA",
        "district": "Angelim",
        "street": "Rua Raimundo Cândido",
        "zipcode": "68626-369"
    },
    {
        "city": "Paragominas",
        "state": "PA",
        "district": "Tião Mineiro",
        "street": "Rua Pinheiro Imperial",
        "zipcode": "68630-746"
    },
    {
        "city": "Paragominas",
        "state": "PA",
        "district": "Industrial",
        "street": "Rua da Andiroba",
        "zipcode": "68629-422"
    },
    {
        "city": "Paragominas",
        "state": "PA",
        "district": "Juparanã",
        "street": "Rua Petúnias",
        "zipcode": "68629-108"
    },
    {
        "city": "Paragominas",
        "state": "PA",
        "district": "Juparanã",
        "street": "Rua das Mangueiras",
        "zipcode": "68629-112"
    },
    {
        "city": "Paragominas",
        "state": "PA",
        "district": "Industrial",
        "street": "Rua do Breu Branco",
        "zipcode": "68629-420"
    },
    {
        "city": "Paragominas",
        "state": "PA",
        "district": "Juparanã",
        "street": "Rua das Angélicas",
        "zipcode": "68629-118"
    },
    {
        "city": "Paragominas",
        "state": "PA",
        "district": "Juparanã",
        "street": "Rua das Mimosas",
        "zipcode": "68629-088"
    },
    {
        "city": "Paragominas",
        "state": "PA",
        "district": "Juparanã",
        "street": "Rua das Cravinas",
        "zipcode": "68629-070"
    },
    {
        "city": "Paragominas",
        "state": "PA",
        "district": "Juparanã",
        "street": "Rua das Iris",
        "zipcode": "68629-052"
    },
    {
        "city": "Paragominas",
        "state": "PA",
        "district": "Juparanã",
        "street": "Rua das Acácias",
        "zipcode": "68629-042"
    },
    {
        "city": "Paragominas",
        "state": "PA",
        "district": "Juparanã",
        "street": "Rua das Camomilas",
        "zipcode": "68629-036"
    },
    {
        "city": "Paragominas",
        "state": "PA",
        "district": "Juparanã",
        "street": "Rua das Tulipas",
        "zipcode": "68629-096"
    },
    {
        "city": "Paragominas",
        "state": "PA",
        "district": "Juparanã",
        "street": "Rua das Azaléias",
        "zipcode": "68629-034"
    },
    {
        "city": "Paragominas",
        "state": "PA",
        "district": "Industrial",
        "street": "Rua da Maçaranduba",
        "zipcode": "68629-424"
    },
    {
        "city": "Paragominas",
        "state": "PA",
        "district": "Juparanã",
        "street": "Rua das Primaveras",
        "zipcode": "68629-058"
    },
    {
        "city": "Paragominas",
        "state": "PA",
        "district": "Industrial",
        "street": "Rodovia Clodomiro de Figueiredo Bicalho",
        "zipcode": "68629-408"
    },
    {
        "city": "Paragominas",
        "state": "PA",
        "district": "Juparanã",
        "street": "Rodovia do Polo Moveleiro",
        "zipcode": "68629-010"
    },
    {
        "city": "Paragominas",
        "state": "PA",
        "district": "Centro",
        "street": "Rua Qunze de Novembro",
        "zipcode": "68625-215"
    },
    {
        "city": "Paragominas",
        "state": "PA",
        "district": "Angelim",
        "street": "Rua Presidente Médici",
        "zipcode": "68626-363"
    },
    {
        "city": "Paragominas",
        "state": "PA",
        "district": "Bela Vista",
        "street": "Rua Salinópolis",
        "zipcode": "68627-015"
    },
    {
        "city": "Paragominas",
        "state": "PA",
        "district": "Bela Vista",
        "street": "Rua Araguaia",
        "zipcode": "68627-029"
    },
    {
        "city": "Paragominas",
        "state": "PA",
        "district": "Promissão III",
        "street": "Rua Francico da Silva (Cj Olga Moreira)",
        "zipcode": "68628-528"
    },
    {
        "city": "Paragominas",
        "state": "PA",
        "district": "Jardim Camboatã I",
        "street": "Rua Gregório Santos Araújo",
        "zipcode": "68626-506"
    },
    {
        "city": "Paragominas",
        "state": "PA",
        "district": "Jardim Camboatã I",
        "street": "Rua Doutor Pedreira",
        "zipcode": "68626-508"
    },
    {
        "city": "Paragominas",
        "state": "PA",
        "district": "Jardim Camboatã I",
        "street": "Rua Doutor Urbano",
        "zipcode": "68626-504"
    },
    {
        "city": "Paragominas",
        "state": "PA",
        "district": "Jardim Atlântico",
        "street": "Rua São Francisco de Assis",
        "zipcode": "68627-375"
    },
    {
        "city": "Paragominas",
        "state": "PA",
        "district": "Jardim Atlântico",
        "street": "Rua Santa Bárbara",
        "zipcode": "68627-125"
    },
    {
        "city": "Paragominas",
        "state": "PA",
        "district": "Centro",
        "street": "Travessa Valadares",
        "zipcode": "68625-265"
    },
    {
        "city": "Paragominas",
        "state": "PA",
        "district": "Promissão III",
        "street": "Rua Doutor Antonio José da Costa",
        "zipcode": "68628-549"
    },
    {
        "city": "Paragominas",
        "state": "PA",
        "district": "Laércio Cabeline",
        "street": "Rua Geraldo Pedro Sarmento",
        "zipcode": "68627-463"
    },
    {
        "city": "Paragominas",
        "state": "PA",
        "district": "Parque Village Flamboyant",
        "street": "Rua Três",
        "zipcode": "68630-871"
    },
    {
        "city": "Paragominas",
        "state": "PA",
        "district": "Jardim Camboatã I",
        "street": "Passagem São Francisco",
        "zipcode": "68626-510"
    },
    {
        "city": "Paragominas",
        "state": "PA",
        "district": "Promissão I",
        "street": "Avenida Afonso Leão",
        "zipcode": "68628-020"
    },
    {
        "city": "Paragominas",
        "state": "PA",
        "district": "Módulo II",
        "street": "Rua Altamira",
        "zipcode": "68625-320"
    },
    {
        "city": "Paragominas",
        "state": "PA",
        "district": "Promissão I",
        "street": "Avenida Antero Bonifácio",
        "zipcode": "68628-000"
    },
    {
        "city": "Paragominas",
        "state": "PA",
        "district": "Andradina",
        "street": "Rua Jose Machado de Carvalho",
        "zipcode": "68626-534"
    },
    {
        "city": "Paragominas",
        "state": "PA",
        "district": "Nagib Demachki",
        "street": "Avenida Léo Bruno Pimenta Rocha",
        "zipcode": "68630-637"
    },
    {
        "city": "Paragominas",
        "state": "PA",
        "district": "Promissão I",
        "street": "Rodovia BR",
        "zipcode": "68625-295"
    },
    {
        "city": "Paragominas",
        "state": "PA",
        "district": "Promissão II",
        "street": "Rua Luís de Camões",
        "zipcode": "68628-260"
    },
    {
        "city": "Paragominas",
        "state": "PA",
        "district": "Jardim Atlântico",
        "street": "Rua Santa Mônica",
        "zipcode": "68627-220"
    },
    {
        "city": "Paragominas",
        "state": "PA",
        "district": "Promissão III",
        "street": "Rua Maria de Lourdes Sobrinho",
        "zipcode": "68628-483"
    },
    {
        "city": "Paragominas",
        "state": "PA",
        "district": "Promissão IV",
        "street": "Rua José Alves de Araújo",
        "zipcode": "68628-536"
    },
    {
        "city": "Paragominas",
        "state": "PA",
        "district": "Promissão IV",
        "street": "Rua José Luís Menezes da Silva",
        "zipcode": "68628-538"
    },
    {
        "city": "Paragominas",
        "state": "PA",
        "district": "Célio Miranda",
        "street": "Avenida Portugal",
        "zipcode": "68626-970"
    }
]