[
    {
        "city": "Xinguara",
        "state": "PA",
        "district": "Marajoara",
        "street": "Rua Petrônio Portela (Cordeiro de Farias)",
        "zipcode": "68557-320"
    },
    {
        "city": "Xinguara",
        "state": "PA",
        "district": "Itamarati",
        "street": "Rua Tres",
        "zipcode": "68557-110"
    },
    {
        "city": "Xinguara",
        "state": "PA",
        "district": "Selectas",
        "street": "Rua Olavo Bilac",
        "zipcode": "68557-255"
    },
    {
        "city": "Xinguara",
        "state": "PA",
        "district": "Setor Marajoara II",
        "street": "Rua Rodrigues Alves",
        "zipcode": "68557-520"
    },
    {
        "city": "Xinguara",
        "state": "PA",
        "district": "Selectas",
        "street": "Rua Machado de Assis",
        "zipcode": "68557-075"
    },
    {
        "city": "Xinguara",
        "state": "PA",
        "district": "Tanaka",
        "street": "Rua Dezessete",
        "zipcode": "68556-250"
    },
    {
        "city": "Xinguara",
        "state": "PA",
        "district": "Jardim América",
        "street": "Rua Vinte e Sete",
        "zipcode": "68557-849"
    },
    {
        "city": "Xinguara",
        "state": "PA",
        "district": "Setor Marajoara II",
        "street": "Rua Jupiter",
        "zipcode": "68557-486"
    },
    {
        "city": "Xinguara",
        "state": "PA",
        "district": "Marajoara",
        "street": "Rua Francisco Caldeira Castelo Branco",
        "zipcode": "68557-290"
    },
    {
        "city": "Xinguara",
        "state": "PA",
        "district": "Centro",
        "street": "Rua Clara Nunes",
        "zipcode": "68555-035"
    },
    {
        "city": "Xinguara",
        "state": "PA",
        "district": "Selectas",
        "street": "Rua Martin A.Souza",
        "zipcode": "68557-366"
    },
    {
        "city": "Xinguara",
        "state": "PA",
        "district": "Itamarati",
        "street": "Rua Doze",
        "zipcode": "68557-200"
    },
    {
        "city": "Xinguara",
        "state": "PA",
        "district": "Itamarati",
        "street": "Rua Quatro",
        "zipcode": "68557-120"
    },
    {
        "city": "Xinguara",
        "state": "PA",
        "district": "Selectas",
        "street": "Rua Alberto Santos Dumont",
        "zipcode": "68557-335"
    },
    {
        "city": "Xinguara",
        "state": "PA",
        "district": "Setor Pagnoceli",
        "street": "Rua Primavera",
        "zipcode": "68556-302"
    },
    {
        "city": "Xinguara",
        "state": "PA",
        "district": "Selectas",
        "street": "Rua C.Sales",
        "zipcode": "68557-372"
    },
    {
        "city": "Xinguara",
        "state": "PA",
        "district": "Setor Marajoara II",
        "street": "Rua Saturno",
        "zipcode": "68557-500"
    },
    {
        "city": "Xinguara",
        "state": "PA",
        "district": "Jardim América",
        "street": "Rua Seis",
        "zipcode": "68557-816"
    },
    {
        "city": "Xinguara",
        "state": "PA",
        "district": "Park das Nações",
        "street": "Rua Suíça",
        "zipcode": "68557-684"
    },
    {
        "city": "Xinguara",
        "state": "PA",
        "district": "Centro",
        "street": "Rua Brasil",
        "zipcode": "68555-101"
    },
    {
        "city": "Xinguara",
        "state": "PA",
        "district": "Condomínio Residencial Maranata",
        "street": "Rua Cafarnaum",
        "zipcode": "68557-702"
    },
    {
        "city": "Xinguara",
        "state": "PA",
        "district": "Jardim América",
        "street": "Rua Dezessete",
        "zipcode": "68557-850"
    },
    {
        "city": "Xinguara",
        "state": "PA",
        "district": "Jardim América",
        "street": "Rua Américo Vespúcio",
        "zipcode": "68557-862"
    },
    {
        "city": "Xinguara",
        "state": "PA",
        "district": "Jardim Goiás",
        "street": "Avenida Níquel",
        "zipcode": "68557-650"
    },
    {
        "city": "Xinguara",
        "state": "PA",
        "district": "Jardim Goiás",
        "street": "Rua Pôr do Sol",
        "zipcode": "68557-658"
    },
    {
        "city": "Xinguara",
        "state": "PA",
        "district": "Itamarati",
        "street": "Rua Dez",
        "zipcode": "68555-620"
    },
    {
        "city": "Xinguara",
        "state": "PA",
        "district": "Setor Novo Horizonte",
        "street": "Rua Dois",
        "zipcode": "68556-410"
    },
    {
        "city": "Xinguara",
        "state": "PA",
        "district": "Itamarati",
        "street": "Rua Doze",
        "zipcode": "68555-600"
    },
    {
        "city": "Xinguara",
        "state": "PA",
        "district": "Marajoara",
        "street": "Rua Francisco Caldeira Castelo Branco",
        "zipcode": "68556-585"
    },
    {
        "city": "Xinguara",
        "state": "PA",
        "district": "Marajoara",
        "street": "Rua Gorotire",
        "zipcode": "68556-575"
    },
    {
        "city": "Xinguara",
        "state": "PA",
        "district": "Itamarati",
        "street": "Rua Nove",
        "zipcode": "68555-630"
    },
    {
        "city": "Xinguara",
        "state": "PA",
        "district": "Itamarati",
        "street": "Rua Oito",
        "zipcode": "68555-640"
    },
    {
        "city": "Xinguara",
        "state": "PA",
        "district": "Itamarati",
        "street": "Rua Oito",
        "zipcode": "68555-645"
    },
    {
        "city": "Xinguara",
        "state": "PA",
        "district": "Setor Bela Vista",
        "street": "Rua Oito",
        "zipcode": "68556-455"
    },
    {
        "city": "Xinguara",
        "state": "PA",
        "district": "Marajoara",
        "street": "Rua Ouro e Prata",
        "zipcode": "68556-505"
    },
    {
        "city": "Xinguara",
        "state": "PA",
        "district": "Marajoara",
        "street": "Rua dos Pioneiros",
        "zipcode": "68556-560"
    },
    {
        "city": "Xinguara",
        "state": "PA",
        "district": "Marajoara",
        "street": "Rua Pontes de Miranda",
        "zipcode": "68556-595"
    },
    {
        "city": "Xinguara",
        "state": "PA",
        "district": "Itamarati",
        "street": "Rua Quatorze",
        "zipcode": "68555-580"
    },
    {
        "city": "Xinguara",
        "state": "PA",
        "district": "Marajoara",
        "street": "Rua Rio Araguaia",
        "zipcode": "68556-545"
    },
    {
        "city": "Xinguara",
        "state": "PA",
        "district": "Marajoara",
        "street": "Rua Rio Araguaia",
        "zipcode": "68556-550"
    },
    {
        "city": "Xinguara",
        "state": "PA",
        "district": "Marajoara",
        "street": "Rua Rio Itacaiúnas",
        "zipcode": "68556-520"
    },
    {
        "city": "Xinguara",
        "state": "PA",
        "district": "Marajoara",
        "street": "Rua Rio Maria",
        "zipcode": "68556-510"
    },
    {
        "city": "Xinguara",
        "state": "PA",
        "district": "Marajoara",
        "street": "Rua Rio Vermelho",
        "zipcode": "68556-535"
    },
    {
        "city": "Xinguara",
        "state": "PA",
        "district": "Setor Bela Vista",
        "street": "Rua Seis",
        "zipcode": "68556-460"
    },
    {
        "city": "Xinguara",
        "state": "PA",
        "district": "Itamarati",
        "street": "Rua Treze",
        "zipcode": "68555-590"
    },
    {
        "city": "Xinguara",
        "state": "PA",
        "district": "Centro",
        "street": "Rua dos Pioneiros",
        "zipcode": "68555-541"
    },
    {
        "city": "Xinguara",
        "state": "PA",
        "district": "Itamarati",
        "street": "Rua Onze",
        "zipcode": "68555-610"
    },
    {
        "city": "Xinguara",
        "state": "PA",
        "district": "Itamarati",
        "street": "Rua Onze",
        "zipcode": "68555-615"
    },
    {
        "city": "Xinguara",
        "state": "PA",
        "district": "Centro",
        "street": "Rua Carajás",
        "zipcode": "68555-570"
    },
    {
        "city": "Xinguara",
        "state": "PA",
        "district": "Centro",
        "street": "Rua Guriata",
        "zipcode": "68555-560"
    },
    {
        "city": "Xinguara",
        "state": "PA",
        "district": "Tanaka",
        "street": "Rua Itaipavas",
        "zipcode": "68556-050"
    },
    {
        "city": "Xinguara",
        "state": "PA",
        "district": "Tanaka",
        "street": "Rua Treze",
        "zipcode": "68556-230"
    },
    {
        "city": "Xinguara",
        "state": "PA",
        "district": "Marajoara",
        "street": "Rodovia Amazonas",
        "zipcode": "68557-535"
    },
    {
        "city": "Xinguara",
        "state": "PA",
        "district": "Marajoara",
        "street": "Rua das Margaridas",
        "zipcode": "68557-532"
    },
    {
        "city": "Xinguara",
        "state": "PA",
        "district": "Park das Nações",
        "street": "Rua França",
        "zipcode": "68557-686"
    },
    {
        "city": "Xinguara",
        "state": "PA",
        "district": "Jardim América",
        "street": "Rua Quatro",
        "zipcode": "68557-808"
    },
    {
        "city": "Xinguara",
        "state": "PA",
        "district": "Centro",
        "street": "Rua Petrônio Portela",
        "zipcode": "68555-233"
    },
    {
        "city": "Xinguara",
        "state": "PA",
        "district": "Centro",
        "street": "Rua Borba Gato",
        "zipcode": "68555-051"
    },
    {
        "city": "Xinguara",
        "state": "PA",
        "district": "Centro",
        "street": "Rua Borba Gato",
        "zipcode": "68555-053"
    },
    {
        "city": "Xinguara",
        "state": "PA",
        "district": "Centro",
        "street": "Rua Borba Gato",
        "zipcode": "68555-057"
    },
    {
        "city": "Xinguara",
        "state": "PA",
        "district": "Centro",
        "street": "Rua Brigadeiro Eduardo Gomes",
        "zipcode": "68555-087"
    },
    {
        "city": "Xinguara",
        "state": "PA",
        "district": "Centro",
        "street": "Rua Cecília Meirelles",
        "zipcode": "68555-091"
    },
    {
        "city": "Xinguara",
        "state": "PA",
        "district": "Centro",
        "street": "Rua Cruz e Souza",
        "zipcode": "68555-061"
    },
    {
        "city": "Xinguara",
        "state": "PA",
        "district": "Centro",
        "street": "Rua Cruz e Souza",
        "zipcode": "68555-063"
    },
    {
        "city": "Xinguara",
        "state": "PA",
        "district": "Centro",
        "street": "Avenida Lauro Sodré",
        "zipcode": "68555-006"
    },
    {
        "city": "Xinguara",
        "state": "PA",
        "district": "Centro",
        "street": "Avenida Lauro Sodré",
        "zipcode": "68555-014"
    },
    {
        "city": "Xinguara",
        "state": "PA",
        "district": "Centro",
        "street": "Rua Maranhão",
        "zipcode": "68555-253"
    },
    {
        "city": "Xinguara",
        "state": "PA",
        "district": "Centro",
        "street": "Rua Pontes de Miranda",
        "zipcode": "68555-241"
    },
    {
        "city": "Xinguara",
        "state": "PA",
        "district": "Centro",
        "street": "Rua Rio Tapajós",
        "zipcode": "68555-031"
    },
    {
        "city": "Xinguara",
        "state": "PA",
        "district": "Centro",
        "street": "Rua Rio Tapajós",
        "zipcode": "68555-036"
    },
    {
        "city": "Xinguara",
        "state": "PA",
        "district": "Centro",
        "street": "Rua Rio Tapajós",
        "zipcode": "68555-038"
    },
    {
        "city": "Xinguara",
        "state": "PA",
        "district": "Setor Novo Horizonte",
        "street": "Rua Três",
        "zipcode": "68556-403"
    },
    {
        "city": "Xinguara",
        "state": "PA",
        "district": "Centro",
        "street": "Avenida Xingu",
        "zipcode": "68555-013"
    },
    {
        "city": "Xinguara",
        "state": "PA",
        "district": "Centro",
        "street": "Avenida Xingu",
        "zipcode": "68555-018"
    },
    {
        "city": "Xinguara",
        "state": "PA",
        "district": "Centro",
        "street": "Rua Vinícius de Moraes",
        "zipcode": "68555-041"
    },
    {
        "city": "Xinguara",
        "state": "PA",
        "district": "Centro",
        "street": "Rua Vinícius de Moraes",
        "zipcode": "68555-043"
    },
    {
        "city": "Xinguara",
        "state": "PA",
        "district": "Tanaka",
        "street": "Rua Marabas",
        "zipcode": "68556-060"
    },
    {
        "city": "Xinguara",
        "state": "PA",
        "district": "Centro",
        "street": "Rua Água Azul",
        "zipcode": "68555-410"
    },
    {
        "city": "Xinguara",
        "state": "PA",
        "district": "Centro",
        "street": "Rua Arueiras",
        "zipcode": "68555-380"
    },
    {
        "city": "Xinguara",
        "state": "PA",
        "district": "Centro",
        "street": "Rua Beco do Xingu",
        "zipcode": "68555-400"
    },
    {
        "city": "Xinguara",
        "state": "PA",
        "district": "Centro",
        "street": "Rua Cruzeiro do Sul",
        "zipcode": "68555-460"
    },
    {
        "city": "Xinguara",
        "state": "PA",
        "district": "Centro",
        "street": "Rua Guanabara",
        "zipcode": "68555-510"
    },
    {
        "city": "Xinguara",
        "state": "PA",
        "district": "Centro",
        "street": "Rua Jair Ribeiro Campos",
        "zipcode": "68555-140"
    },
    {
        "city": "Xinguara",
        "state": "PA",
        "district": "Centro",
        "street": "Rua Jatobá",
        "zipcode": "68555-320"
    },
    {
        "city": "Xinguara",
        "state": "PA",
        "district": "Centro",
        "street": "Rua Mogno",
        "zipcode": "68555-310"
    },
    {
        "city": "Xinguara",
        "state": "PA",
        "district": "Centro",
        "street": "Rua Paraná",
        "zipcode": "68555-270"
    },
    {
        "city": "Xinguara",
        "state": "PA",
        "district": "Centro",
        "street": "Rua Pau Brasil",
        "zipcode": "68555-340"
    },
    {
        "city": "Xinguara",
        "state": "PA",
        "district": "Centro",
        "street": "Rua Primeiro de Maio",
        "zipcode": "68555-480"
    },
    {
        "city": "Xinguara",
        "state": "PA",
        "district": "Centro",
        "street": "Rua São Paulo",
        "zipcode": "68555-430"
    },
    {
        "city": "Xinguara",
        "state": "PA",
        "district": "Centro",
        "street": "Rua Viela",
        "zipcode": "68555-390"
    },
    {
        "city": "Xinguara",
        "state": "PA",
        "district": "Centro",
        "street": "Rua Tauba",
        "zipcode": "68555-350"
    },
    {
        "city": "Xinguara",
        "state": "PA",
        "district": "Centro",
        "street": "Rua Gonçalves Ledo",
        "zipcode": "68555-450"
    },
    {
        "city": "Xinguara",
        "state": "PA",
        "district": "Centro",
        "street": "Rua Rio Grande do Sul",
        "zipcode": "68555-280"
    },
    {
        "city": "Xinguara",
        "state": "PA",
        "district": "Centro",
        "street": "Rua Pau Darco",
        "zipcode": "68555-540"
    },
    {
        "city": "Xinguara",
        "state": "PA",
        "district": "Selectas",
        "street": "Rua Sete de Setembro",
        "zipcode": "68557-363"
    },
    {
        "city": "Xinguara",
        "state": "PA",
        "district": "Selectas",
        "street": "Rua P. de Morais",
        "zipcode": "68557-364"
    },
    {
        "city": "Xinguara",
        "state": "PA",
        "district": "Centro",
        "street": "Rua Doutor Fidelis",
        "zipcode": "68555-015"
    },
    {
        "city": "Xinguara",
        "state": "PA",
        "district": "Setor Marajoara II",
        "street": "Rua Valdeis Divino Dutra",
        "zipcode": "68557-501"
    },
    {
        "city": "Xinguara",
        "state": "PA",
        "district": "Setor Marajoara II",
        "street": "Rua Princesa Isabel",
        "zipcode": "68557-504"
    },
    {
        "city": "Xinguara",
        "state": "PA",
        "district": "Setor Marajoara II",
        "street": "Rua Francisco Matarazo",
        "zipcode": "68557-505"
    },
    {
        "city": "Xinguara",
        "state": "PA",
        "district": "Setor Marajoara II",
        "street": "Rua Guajajaras",
        "zipcode": "68557-508"
    },
    {
        "city": "Xinguara",
        "state": "PA",
        "district": "Setor Marajoara II",
        "street": "Rua Central",
        "zipcode": "68557-509"
    },
    {
        "city": "Xinguara",
        "state": "PA",
        "district": "Setor Marajoara II",
        "street": "Rua Turmalina",
        "zipcode": "68557-512"
    },
    {
        "city": "Xinguara",
        "state": "PA",
        "district": "Setor Marajoara II",
        "street": "Rua Topázio",
        "zipcode": "68557-514"
    },
    {
        "city": "Xinguara",
        "state": "PA",
        "district": "Setor Marajoara II",
        "street": "Rua Monteiro Lobato",
        "zipcode": "68557-517"
    },
    {
        "city": "Xinguara",
        "state": "PA",
        "district": "Nova Xinguara",
        "street": "Rua Prata",
        "zipcode": "68557-554"
    },
    {
        "city": "Xinguara",
        "state": "PA",
        "district": "Jardim América",
        "street": "Avenida B",
        "zipcode": "68557-810"
    },
    {
        "city": "Xinguara",
        "state": "PA",
        "district": "Jardim América",
        "street": "Rua Três",
        "zipcode": "68557-806"
    },
    {
        "city": "Xinguara",
        "state": "PA",
        "district": "Jardim América",
        "street": "Rua Sete",
        "zipcode": "68557-818"
    },
    {
        "city": "Xinguara",
        "state": "PA",
        "district": "Jardim América",
        "street": "Rua Treze A",
        "zipcode": "68557-834"
    },
    {
        "city": "Xinguara",
        "state": "PA",
        "district": "Jardim América",
        "street": "Rua Quatorze",
        "zipcode": "68557-836"
    },
    {
        "city": "Xinguara",
        "state": "PA",
        "district": "Jardim América",
        "street": "Rua Quinze",
        "zipcode": "68557-838"
    },
    {
        "city": "Xinguara",
        "state": "PA",
        "district": "Jardim América",
        "street": "Rua Quinze B",
        "zipcode": "68557-844"
    },
    {
        "city": "Xinguara",
        "state": "PA",
        "district": "Jardim América",
        "street": "Rua Alumínio",
        "zipcode": "68557-864"
    },
    {
        "city": "Xinguara",
        "state": "PA",
        "district": "Centro",
        "street": "Rua Petrônio Portela",
        "zipcode": "68555-231"
    },
    {
        "city": "Xinguara",
        "state": "PA",
        "district": "Centro",
        "street": "Rua Barão do Rio Branco",
        "zipcode": "68555-193"
    },
    {
        "city": "Xinguara",
        "state": "PA",
        "district": "Centro",
        "street": "Rua Brasil",
        "zipcode": "68555-105"
    },
    {
        "city": "Xinguara",
        "state": "PA",
        "district": "Centro",
        "street": "Rua Brasil",
        "zipcode": "68555-107"
    },
    {
        "city": "Xinguara",
        "state": "PA",
        "district": "Centro",
        "street": "Rua das Castanheiras",
        "zipcode": "68555-117"
    },
    {
        "city": "Xinguara",
        "state": "PA",
        "district": "Centro",
        "street": "Rua Francisco Caldeira Castelo Branco",
        "zipcode": "68555-201"
    },
    {
        "city": "Xinguara",
        "state": "PA",
        "district": "Centro",
        "street": "Rua Gorotire",
        "zipcode": "68555-171"
    },
    {
        "city": "Xinguara",
        "state": "PA",
        "district": "Centro",
        "street": "Rua Guajajaras",
        "zipcode": "68555-161"
    },
    {
        "city": "Xinguara",
        "state": "PA",
        "district": "Centro",
        "street": "Rua Marechal Rondon",
        "zipcode": "68555-205"
    },
    {
        "city": "Xinguara",
        "state": "PA",
        "district": "Centro",
        "street": "Rua Marechal Rondon",
        "zipcode": "68555-207"
    },
    {
        "city": "Xinguara",
        "state": "PA",
        "district": "Centro",
        "street": "Rua Serra Norte",
        "zipcode": "68555-123"
    },
    {
        "city": "Xinguara",
        "state": "PA",
        "district": "Centro",
        "street": "Rua Tangará",
        "zipcode": "68555-151"
    },
    {
        "city": "Xinguara",
        "state": "PA",
        "district": "Centro",
        "street": "Rua Tangará",
        "zipcode": "68555-153"
    },
    {
        "city": "Xinguara",
        "state": "PA",
        "district": "Centro",
        "street": "Rua Duque de Caxias",
        "zipcode": "68555-181"
    },
    {
        "city": "Xinguara",
        "state": "PA",
        "district": "Centro",
        "street": "Rua Duque de Caxias",
        "zipcode": "68555-183"
    },
    {
        "city": "Xinguara",
        "state": "PA",
        "district": "Tanaka",
        "street": "Rua Negreiros",
        "zipcode": "68556-015"
    },
    {
        "city": "Xinguara",
        "state": "PA",
        "district": "Selectas",
        "street": "Rua Anita Garibaldi",
        "zipcode": "68557-165"
    },
    {
        "city": "Xinguara",
        "state": "PA",
        "district": "Marajoara",
        "street": "Rua Barão do Rio Branco",
        "zipcode": "68557-280"
    },
    {
        "city": "Xinguara",
        "state": "PA",
        "district": "Tanaka",
        "street": "Rua Cinco",
        "zipcode": "68556-190"
    },
    {
        "city": "Xinguara",
        "state": "PA",
        "district": "Selectas",
        "street": "Rua Eurico Dutra",
        "zipcode": "68557-205"
    },
    {
        "city": "Xinguara",
        "state": "PA",
        "district": "Marajoara",
        "street": "Rua Goiás",
        "zipcode": "68557-350"
    },
    {
        "city": "Xinguara",
        "state": "PA",
        "district": "Tanaka",
        "street": "Rua Hiroshima",
        "zipcode": "68556-080"
    },
    {
        "city": "Xinguara",
        "state": "PA",
        "district": "Tanaka",
        "street": "Avenida Lauro Sodré",
        "zipcode": "68556-000"
    },
    {
        "city": "Xinguara",
        "state": "PA",
        "district": "Tanaka",
        "street": "Rua Liberdade",
        "zipcode": "68556-100"
    },
    {
        "city": "Xinguara",
        "state": "PA",
        "district": "Marajoara",
        "street": "Rua Maranhão",
        "zipcode": "68557-340"
    },
    {
        "city": "Xinguara",
        "state": "PA",
        "district": "Tanaka",
        "street": "Rua Nove",
        "zipcode": "68556-210"
    },
    {
        "city": "Xinguara",
        "state": "PA",
        "district": "Tanaka",
        "street": "Rua Onze",
        "zipcode": "68556-220"
    },
    {
        "city": "Xinguara",
        "state": "PA",
        "district": "Itamarati",
        "street": "Rua Quinze",
        "zipcode": "68557-230"
    },
    {
        "city": "Xinguara",
        "state": "PA",
        "district": "Tanaka",
        "street": "Rua Redenção",
        "zipcode": "68556-070"
    },
    {
        "city": "Xinguara",
        "state": "PA",
        "district": "Tanaka",
        "street": "Rua São Geraldo",
        "zipcode": "68556-030"
    },
    {
        "city": "Xinguara",
        "state": "PA",
        "district": "Itamarati",
        "street": "Rua Sete",
        "zipcode": "68557-150"
    },
    {
        "city": "Xinguara",
        "state": "PA",
        "district": "Selectas",
        "street": "Rua Tucumã",
        "zipcode": "68557-355"
    },
    {
        "city": "Xinguara",
        "state": "PA",
        "district": "Tanaka",
        "street": "Rua Valdecy João da Cruz",
        "zipcode": "68556-160"
    },
    {
        "city": "Xinguara",
        "state": "PA",
        "district": "Tanaka",
        "street": "Rua Valter Fernandes",
        "zipcode": "68556-130"
    },
    {
        "city": "Xinguara",
        "state": "PA",
        "district": "Tanaka",
        "street": "Rua Vinte e Um",
        "zipcode": "68556-270"
    },
    {
        "city": "Xinguara",
        "state": "PA",
        "district": "Tanaka",
        "street": "Rua Elis Costa",
        "zipcode": "68556-150"
    },
    {
        "city": "Xinguara",
        "state": "PA",
        "district": "Selectas",
        "street": "Rua Presidente Médice",
        "zipcode": "68557-357"
    },
    {
        "city": "Xinguara",
        "state": "PA",
        "district": "Selectas",
        "street": "Rua Castro Alves",
        "zipcode": "68557-358"
    },
    {
        "city": "Xinguara",
        "state": "PA",
        "district": "Selectas",
        "street": "Rua Álvares Cabral",
        "zipcode": "68557-362"
    },
    {
        "city": "Xinguara",
        "state": "PA",
        "district": "Setor Marajoara II",
        "street": "Rua Osvaldo Cruz",
        "zipcode": "68557-507"
    },
    {
        "city": "Xinguara",
        "state": "PA",
        "district": "Setor Marajoara II",
        "street": "Rua Washigton Luiz",
        "zipcode": "68557-511"
    },
    {
        "city": "Xinguara",
        "state": "PA",
        "district": "Setor Marajoara II",
        "street": "Rua Luiz Gonzaga",
        "zipcode": "68557-516"
    },
    {
        "city": "Xinguara",
        "state": "PA",
        "district": "Setor Marajoara II",
        "street": "Rua Presidente Kenedy",
        "zipcode": "68557-518"
    },
    {
        "city": "Xinguara",
        "state": "PA",
        "district": "Park das Nações",
        "street": "Rua Espanha",
        "zipcode": "68557-698"
    },
    {
        "city": "Xinguara",
        "state": "PA",
        "district": "Condomínio Residencial Maranata",
        "street": "Rua Antióquia",
        "zipcode": "68557-704"
    },
    {
        "city": "Xinguara",
        "state": "PA",
        "district": "Condomínio Residencial Maranata",
        "street": "Avenida Corinto",
        "zipcode": "68557-700"
    },
    {
        "city": "Xinguara",
        "state": "PA",
        "district": "Condomínio Residencial Maranata",
        "street": "Rua Filipos",
        "zipcode": "68557-708"
    },
    {
        "city": "Xinguara",
        "state": "PA",
        "district": "Condomínio Residencial Maranata",
        "street": "Rua Efeso",
        "zipcode": "68557-710"
    },
    {
        "city": "Xinguara",
        "state": "PA",
        "district": "Condomínio Nova Suíça Residence",
        "street": "Avenida Boulevar Nova Suíça",
        "zipcode": "68557-750"
    },
    {
        "city": "Xinguara",
        "state": "PA",
        "district": "Condomínio Nova Suíça Residence",
        "street": "Alameda Genéve",
        "zipcode": "68557-752"
    },
    {
        "city": "Xinguara",
        "state": "PA",
        "district": "Condomínio Nova Suíça Residence",
        "street": "Alameda Orbe",
        "zipcode": "68557-754"
    },
    {
        "city": "Xinguara",
        "state": "PA",
        "district": "Condomínio Nova Suíça Residence",
        "street": "Alameda Lausanne",
        "zipcode": "68557-756"
    },
    {
        "city": "Xinguara",
        "state": "PA",
        "district": "Condomínio Nova Suíça Residence",
        "street": "Alameda Savigny",
        "zipcode": "68557-762"
    },
    {
        "city": "Xinguara",
        "state": "PA",
        "district": "Condomínio Nova Suíça Residence",
        "street": "Alameda Bern",
        "zipcode": "68557-764"
    },
    {
        "city": "Xinguara",
        "state": "PA",
        "district": "Condomínio Nova Suíça Residence",
        "street": "Alameda Lugano",
        "zipcode": "68557-772"
    },
    {
        "city": "Xinguara",
        "state": "PA",
        "district": "Jardim América",
        "street": "Avenida A",
        "zipcode": "68557-800"
    },
    {
        "city": "Xinguara",
        "state": "PA",
        "district": "Jardim América",
        "street": "Rua Um",
        "zipcode": "68557-802"
    },
    {
        "city": "Xinguara",
        "state": "PA",
        "district": "Jardim América",
        "street": "Rua Dois",
        "zipcode": "68557-804"
    },
    {
        "city": "Xinguara",
        "state": "PA",
        "district": "Jardim América",
        "street": "Rua Oito",
        "zipcode": "68557-820"
    },
    {
        "city": "Xinguara",
        "state": "PA",
        "district": "Itamarati",
        "street": "Rua Guajajaras",
        "zipcode": "68555-815"
    },
    {
        "city": "Xinguara",
        "state": "PA",
        "district": "Itamarati",
        "street": "Rua Dois",
        "zipcode": "68555-690"
    },
    {
        "city": "Xinguara",
        "state": "PA",
        "district": "Itamarati",
        "street": "Rua Dois",
        "zipcode": "68555-695"
    },
    {
        "city": "Xinguara",
        "state": "PA",
        "district": "Itamarati",
        "street": "Rua Gorotire",
        "zipcode": "68555-820"
    },
    {
        "city": "Xinguara",
        "state": "PA",
        "district": "Setor Novo Horizonte",
        "street": "Rua Ouro e Prata",
        "zipcode": "68556-409"
    },
    {
        "city": "Xinguara",
        "state": "PA",
        "district": "Centro",
        "street": "Rua Raul Bopp",
        "zipcode": "68555-071"
    },
    {
        "city": "Xinguara",
        "state": "PA",
        "district": "Centro",
        "street": "Rua Raul Bopp",
        "zipcode": "68555-073"
    },
    {
        "city": "Xinguara",
        "state": "PA",
        "district": "Centro",
        "street": "Rua Raul Bopp",
        "zipcode": "68555-077"
    },
    {
        "city": "Xinguara",
        "state": "PA",
        "district": "Setor Novo Horizonte",
        "street": "Rua Rio Maria",
        "zipcode": "68556-411"
    },
    {
        "city": "Xinguara",
        "state": "PA",
        "district": "Itamarati",
        "street": "Rua Tancredo Neves",
        "zipcode": "68555-700"
    },
    {
        "city": "Xinguara",
        "state": "PA",
        "district": "Setor Novo Horizonte",
        "street": "Rua Tancredo Neves",
        "zipcode": "68556-405"
    },
    {
        "city": "Xinguara",
        "state": "PA",
        "district": "Itamarati",
        "street": "Rua Três",
        "zipcode": "68555-680"
    },
    {
        "city": "Xinguara",
        "state": "PA",
        "district": "Itamarati",
        "street": "Rua Quatro",
        "zipcode": "68555-670"
    },
    {
        "city": "Xinguara",
        "state": "PA",
        "district": "Setor Marajoara II",
        "street": "Rua Marte",
        "zipcode": "68557-502"
    },
    {
        "city": "Xinguara",
        "state": "PA",
        "district": "Setor Marajoara II",
        "street": "Rua das Ametistas",
        "zipcode": "68557-519"
    },
    {
        "city": "Xinguara",
        "state": "PA",
        "district": "Itamarati",
        "street": "Rua Quatro",
        "zipcode": "68555-675"
    },
    {
        "city": "Xinguara",
        "state": "PA",
        "district": "Marajoara",
        "street": "Rua Amazonas",
        "zipcode": "68557-070"
    },
    {
        "city": "Xinguara",
        "state": "PA",
        "district": "Selectas",
        "street": "Rua Américo Vespúcio",
        "zipcode": "68557-115"
    },
    {
        "city": "Xinguara",
        "state": "PA",
        "district": "Tanaka",
        "street": "Rua Barreiras de Campo",
        "zipcode": "68556-020"
    },
    {
        "city": "Xinguara",
        "state": "PA",
        "district": "Tanaka",
        "street": "Rua Dezenove",
        "zipcode": "68556-260"
    },
    {
        "city": "Xinguara",
        "state": "PA",
        "district": "Selectas",
        "street": "Rua José de Alencar",
        "zipcode": "68557-145"
    },
    {
        "city": "Xinguara",
        "state": "PA",
        "district": "Tanaka",
        "street": "Rua José Iwassaki",
        "zipcode": "68556-090"
    },
    {
        "city": "Xinguara",
        "state": "PA",
        "district": "Tanaka",
        "street": "Rua Luís Pedro Zambotto",
        "zipcode": "68556-120"
    },
    {
        "city": "Xinguara",
        "state": "PA",
        "district": "Marajoara",
        "street": "Rua Marechal Cordeiro de Farias",
        "zipcode": "68557-310"
    },
    {
        "city": "Xinguara",
        "state": "PA",
        "district": "Marajoara",
        "street": "Rodovia PA",
        "zipcode": "68557-080"
    },
    {
        "city": "Xinguara",
        "state": "PA",
        "district": "Selectas",
        "street": "Rua Pedro Álvares Cabral",
        "zipcode": "68557-105"
    },
    {
        "city": "Xinguara",
        "state": "PA",
        "district": "Selectas",
        "street": "Rua Presidente Médici",
        "zipcode": "68557-185"
    },
    {
        "city": "Xinguara",
        "state": "PA",
        "district": "Selectas",
        "street": "Rua Presidente Vargas",
        "zipcode": "68557-095"
    },
    {
        "city": "Xinguara",
        "state": "PA",
        "district": "Tanaka",
        "street": "Rua Quinze",
        "zipcode": "68556-240"
    },
    {
        "city": "Xinguara",
        "state": "PA",
        "district": "Tanaka",
        "street": "Rua Sete",
        "zipcode": "68556-200"
    },
    {
        "city": "Xinguara",
        "state": "PA",
        "district": "Tanaka",
        "street": "Rua Um",
        "zipcode": "68556-170"
    },
    {
        "city": "Xinguara",
        "state": "PA",
        "district": "Selectas",
        "street": "Rua Jânio Quadros",
        "zipcode": "68557-135"
    },
    {
        "city": "Xinguara",
        "state": "PA",
        "district": "Selectas",
        "street": "Rua Anita Garibalde",
        "zipcode": "68557-359"
    },
    {
        "city": "Xinguara",
        "state": "PA",
        "district": "Nova Xinguara",
        "street": "Rua Diamante",
        "zipcode": "68557-562"
    },
    {
        "city": "Xinguara",
        "state": "PA",
        "district": "Nova Xinguara",
        "street": "Rua Calcário",
        "zipcode": "68557-564"
    },
    {
        "city": "Xinguara",
        "state": "PA",
        "district": "Nova Xinguara",
        "street": "Rua Silício",
        "zipcode": "68557-566"
    },
    {
        "city": "Xinguara",
        "state": "PA",
        "district": "Nova Xinguara",
        "street": "Rua Manganês",
        "zipcode": "68557-568"
    },
    {
        "city": "Xinguara",
        "state": "PA",
        "district": "Nova Xinguara",
        "street": "Rua Bauxita",
        "zipcode": "68557-574"
    },
    {
        "city": "Xinguara",
        "state": "PA",
        "district": "Nova Xinguara",
        "street": "Rua Alumínio",
        "zipcode": "68557-576"
    },
    {
        "city": "Xinguara",
        "state": "PA",
        "district": "Park das Nações",
        "street": "Rua Portugal",
        "zipcode": "68557-688"
    },
    {
        "city": "Xinguara",
        "state": "PA",
        "district": "Park das Nações",
        "street": "Rua Alemanha",
        "zipcode": "68557-692"
    },
    {
        "city": "Xinguara",
        "state": "PA",
        "district": "Setor Novo Horizonte",
        "street": "Rua José Luís Carvalho Pereira",
        "zipcode": "68556-400"
    },
    {
        "city": "Xinguara",
        "state": "PA",
        "district": "Centro",
        "street": "Rua Brasil",
        "zipcode": "68555-103"
    },
    {
        "city": "Xinguara",
        "state": "PA",
        "district": "Itamarati",
        "street": "Rua Cinco",
        "zipcode": "68555-660"
    },
    {
        "city": "Xinguara",
        "state": "PA",
        "district": "Itamarati",
        "street": "Rua Cinco",
        "zipcode": "68555-665"
    },
    {
        "city": "Xinguara",
        "state": "PA",
        "district": "Itamarati",
        "street": "Rua Dez",
        "zipcode": "68555-625"
    },
    {
        "city": "Xinguara",
        "state": "PA",
        "district": "Itamarati",
        "street": "Rua Doze",
        "zipcode": "68555-605"
    },
    {
        "city": "Xinguara",
        "state": "PA",
        "district": "Itamarati",
        "street": "Rua Duque de Caxias",
        "zipcode": "68555-825"
    },
    {
        "city": "Xinguara",
        "state": "PA",
        "district": "Itamarati",
        "street": "Rua Francisco Caldeira Castelo Branco",
        "zipcode": "68555-830"
    },
    {
        "city": "Xinguara",
        "state": "PA",
        "district": "Centro",
        "street": "Rua Francisco Caldeira Castelo Branco",
        "zipcode": "68555-203"
    },
    {
        "city": "Xinguara",
        "state": "PA",
        "district": "Marajoara",
        "street": "Rua Ouro e Prata",
        "zipcode": "68556-500"
    },
    {
        "city": "Xinguara",
        "state": "PA",
        "district": "Itamarati",
        "street": "Rua Quatorze",
        "zipcode": "68555-585"
    },
    {
        "city": "Xinguara",
        "state": "PA",
        "district": "Marajoara",
        "street": "Rua Rio Araguaia",
        "zipcode": "68556-555"
    },
    {
        "city": "Xinguara",
        "state": "PA",
        "district": "Marajoara",
        "street": "Rua Rio Maria",
        "zipcode": "68556-515"
    },
    {
        "city": "Xinguara",
        "state": "PA",
        "district": "Marajoara",
        "street": "Rua Rio Vermelho",
        "zipcode": "68556-530"
    },
    {
        "city": "Xinguara",
        "state": "PA",
        "district": "Itamarati",
        "street": "Rua Seis",
        "zipcode": "68555-650"
    },
    {
        "city": "Xinguara",
        "state": "PA",
        "district": "Itamarati",
        "street": "Rua Três",
        "zipcode": "68555-685"
    },
    {
        "city": "Xinguara",
        "state": "PA",
        "district": "Centro",
        "street": "Rua Amazonas",
        "zipcode": "68555-901"
    },
    {
        "city": "Xinguara",
        "state": "PA",
        "district": "Centro",
        "street": "Avenida Xingu",
        "zipcode": "68555-905"
    },
    {
        "city": "Xinguara",
        "state": "PA",
        "district": "Centro",
        "street": "Avenida Xingu",
        "zipcode": "68555-902"
    },
    {
        "city": "Xinguara",
        "state": "PA",
        "district": "Centro",
        "street": "Avenida Xingu",
        "zipcode": "68555-907"
    },
    {
        "city": "Xinguara",
        "state": "PA",
        "district": "Centro",
        "street": "Rua Amazonas",
        "zipcode": "68555-904"
    },
    {
        "city": "Xinguara",
        "state": "PA",
        "district": "Centro",
        "street": "Avenida Xingu",
        "zipcode": "68555-903"
    },
    {
        "city": "Xinguara",
        "state": "PA",
        "district": "Selectas",
        "street": "Rua Pio XI",
        "zipcode": "68557-368"
    },
    {
        "city": "Xinguara",
        "state": "PA",
        "district": "Selectas",
        "street": "Rua Jesuíno Marcondes",
        "zipcode": "68557-305"
    },
    {
        "city": "Xinguara",
        "state": "PA",
        "district": "Selectas",
        "street": "Rua Afonso Pena",
        "zipcode": "68557-285"
    },
    {
        "city": "Xinguara",
        "state": "PA",
        "district": "Selectas",
        "street": "Rua Neceu Ramos",
        "zipcode": "68557-356"
    },
    {
        "city": "Xinguara",
        "state": "PA",
        "district": "Centro",
        "street": "Rua Carlos Chagas",
        "zipcode": "68555-025"
    },
    {
        "city": "Xinguara",
        "state": "PA",
        "district": "Selectas",
        "street": "Rua Pio XII",
        "zipcode": "68557-315"
    },
    {
        "city": "Xinguara",
        "state": "PA",
        "district": "Selectas",
        "street": "Rua Bernado Sayão",
        "zipcode": "68557-369"
    },
    {
        "city": "Xinguara",
        "state": "PA",
        "district": "Selectas",
        "street": "Rua Martin Afonso de Souza",
        "zipcode": "68557-325"
    },
    {
        "city": "Xinguara",
        "state": "PA",
        "district": "Selectas",
        "street": "Rua Costa e Silva",
        "zipcode": "68557-215"
    },
    {
        "city": "Xinguara",
        "state": "PA",
        "district": "Tanaka",
        "street": "Rua Floresta",
        "zipcode": "68556-040"
    },
    {
        "city": "Xinguara",
        "state": "PA",
        "district": "Itamarati",
        "street": "Rua João Luís Carvalho Pereira",
        "zipcode": "68555-530"
    },
    {
        "city": "Xinguara",
        "state": "PA",
        "district": "Selectas",
        "street": "Rua Padre Antônio Vieira",
        "zipcode": "68557-125"
    },
    {
        "city": "Xinguara",
        "state": "PA",
        "district": "Marajoara",
        "street": "Rua Paraná",
        "zipcode": "68557-050"
    },
    {
        "city": "Xinguara",
        "state": "PA",
        "district": "Tanaka",
        "street": "Rua Sol Nascente",
        "zipcode": "68556-110"
    },
    {
        "city": "Xinguara",
        "state": "PA",
        "district": "Tanaka",
        "street": "Rua Três",
        "zipcode": "68556-180"
    },
    {
        "city": "Xinguara",
        "state": "PA",
        "district": "Marajoara",
        "street": "Rua Marechal Rondon",
        "zipcode": "68557-300"
    },
    {
        "city": "Xinguara",
        "state": "PA",
        "district": "Tanaka",
        "street": "Rua Antônio Cury",
        "zipcode": "68556-140"
    },
    {
        "city": "Xinguara",
        "state": "PA",
        "district": "Marajoara",
        "street": "Avenida Minas Gerais",
        "zipcode": "68557-000"
    },
    {
        "city": "Xinguara",
        "state": "PA",
        "district": "Centro",
        "street": "Rua Uirapuru",
        "zipcode": "68555-550"
    },
    {
        "city": "Xinguara",
        "state": "PA",
        "district": "Selectas",
        "street": "Rua Tiradentes",
        "zipcode": "68557-371"
    },
    {
        "city": "Xinguara",
        "state": "PA",
        "district": "Setor Marajoara II",
        "street": "Rua Cora Coralina",
        "zipcode": "68557-506"
    },
    {
        "city": "Xinguara",
        "state": "PA",
        "district": "Setor Marajoara II",
        "street": "Rua das Esmeraldas",
        "zipcode": "68557-513"
    },
    {
        "city": "Xinguara",
        "state": "PA",
        "district": "Setor Marajoara II",
        "street": "Rua Brás Cubas",
        "zipcode": "68557-522"
    },
    {
        "city": "Xinguara",
        "state": "PA",
        "district": "Marajoara",
        "street": "Rua Rubi",
        "zipcode": "68557-534"
    },
    {
        "city": "Xinguara",
        "state": "PA",
        "district": "Jardim Goiás",
        "street": "Avenida Cristal",
        "zipcode": "68557-660"
    },
    {
        "city": "Xinguara",
        "state": "PA",
        "district": "Jardim Goiás",
        "street": "Rua Norte",
        "zipcode": "68557-652"
    },
    {
        "city": "Xinguara",
        "state": "PA",
        "district": "Jardim Goiás",
        "street": "Rua Iguatemi",
        "zipcode": "68557-654"
    },
    {
        "city": "Xinguara",
        "state": "PA",
        "district": "Jardim Goiás",
        "street": "Rua Alphaville",
        "zipcode": "68557-656"
    },
    {
        "city": "Xinguara",
        "state": "PA",
        "district": "Selectas",
        "street": "Rua Campos Sales",
        "zipcode": "68557-245"
    },
    {
        "city": "Xinguara",
        "state": "PA",
        "district": "Selectas",
        "street": "Rua J.K",
        "zipcode": "68557-365"
    },
    {
        "city": "Xinguara",
        "state": "PA",
        "district": "Marajoara",
        "street": "Rua Guajajaras",
        "zipcode": "68556-565"
    },
    {
        "city": "Xinguara",
        "state": "PA",
        "district": "Marajoara",
        "street": "Rua Petrônio Portela",
        "zipcode": "68556-590"
    },
    {
        "city": "Xinguara",
        "state": "PA",
        "district": "Setor Novo Horizonte",
        "street": "Rua Petrônio Portela",
        "zipcode": "68556-408"
    },
    {
        "city": "Xinguara",
        "state": "PA",
        "district": "Centro",
        "street": "Rua Borba Gato",
        "zipcode": "68555-055"
    },
    {
        "city": "Xinguara",
        "state": "PA",
        "district": "Centro",
        "street": "Rua Brigadeiro Eduardo Gomes",
        "zipcode": "68555-083"
    },
    {
        "city": "Xinguara",
        "state": "PA",
        "district": "Centro",
        "street": "Rua Cruz e Souza",
        "zipcode": "68555-065"
    },
    {
        "city": "Xinguara",
        "state": "PA",
        "district": "Centro",
        "street": "Rua Cruz e Souza",
        "zipcode": "68555-067"
    },
    {
        "city": "Xinguara",
        "state": "PA",
        "district": "Centro",
        "street": "Rua Goiás",
        "zipcode": "68555-261"
    },
    {
        "city": "Xinguara",
        "state": "PA",
        "district": "Centro",
        "street": "Rua Guajajaras",
        "zipcode": "68555-163"
    },
    {
        "city": "Xinguara",
        "state": "PA",
        "district": "Centro",
        "street": "Avenida Lauro Sodré",
        "zipcode": "68555-008"
    },
    {
        "city": "Xinguara",
        "state": "PA",
        "district": "Centro",
        "street": "Avenida Lauro Sodré",
        "zipcode": "68555-012"
    },
    {
        "city": "Xinguara",
        "state": "PA",
        "district": "Centro",
        "street": "Rua Marechal Cordeiro de Farias",
        "zipcode": "68555-221"
    },
    {
        "city": "Xinguara",
        "state": "PA",
        "district": "Itamarati",
        "street": "Rua Nove",
        "zipcode": "68555-635"
    },
    {
        "city": "Xinguara",
        "state": "PA",
        "district": "Setor Bela Vista",
        "street": "Rua Nove",
        "zipcode": "68556-450"
    },
    {
        "city": "Xinguara",
        "state": "PA",
        "district": "Centro",
        "street": "Rua Pontes de Miranda",
        "zipcode": "68555-243"
    },
    {
        "city": "Xinguara",
        "state": "PA",
        "district": "Marajoara",
        "street": "Rua Rio Itacaiúnas",
        "zipcode": "68556-525"
    },
    {
        "city": "Xinguara",
        "state": "PA",
        "district": "Centro",
        "street": "Rua Rio Tapajós",
        "zipcode": "68555-033"
    },
    {
        "city": "Xinguara",
        "state": "PA",
        "district": "Itamarati",
        "street": "Rua Seis",
        "zipcode": "68555-655"
    },
    {
        "city": "Xinguara",
        "state": "PA",
        "district": "Centro",
        "street": "Rua Serra Norte",
        "zipcode": "68555-121"
    },
    {
        "city": "Xinguara",
        "state": "PA",
        "district": "Centro",
        "street": "Rua Sete de Setembro",
        "zipcode": "68555-473"
    },
    {
        "city": "Xinguara",
        "state": "PA",
        "district": "Itamarati",
        "street": "Rua Tancredo Neves",
        "zipcode": "68555-705"
    },
    {
        "city": "Xinguara",
        "state": "PA",
        "district": "Centro",
        "street": "Avenida Xingu",
        "zipcode": "68555-016"
    },
    {
        "city": "Xinguara",
        "state": "PA",
        "district": "Nova Xinguara",
        "street": "Rua Bronze",
        "zipcode": "68557-556"
    },
    {
        "city": "Xinguara",
        "state": "PA",
        "district": "Condomínio Residencial Maranata",
        "street": "Rua Macedônia",
        "zipcode": "68557-706"
    },
    {
        "city": "Xinguara",
        "state": "PA",
        "district": "Condomínio Nova Suíça Residence",
        "street": "Alameda Zurique",
        "zipcode": "68557-768"
    },
    {
        "city": "Xinguara",
        "state": "PA",
        "district": "Condomínio Nova Suíça Residence",
        "street": "Alameda Lucenna",
        "zipcode": "68557-774"
    },
    {
        "city": "Xinguara",
        "state": "PA",
        "district": "Condomínio Nova Suíça Residence",
        "street": "Alameda Zouz",
        "zipcode": "68557-782"
    },
    {
        "city": "Xinguara",
        "state": "PA",
        "district": "Selectas",
        "street": "Rua Nereu Ramos",
        "zipcode": "68557-225"
    },
    {
        "city": "Xinguara",
        "state": "PA",
        "district": "Selectas",
        "street": "Rua Bernardo Sayão",
        "zipcode": "68557-265"
    },
    {
        "city": "Xinguara",
        "state": "PA",
        "district": "Selectas",
        "street": "Rua Graciliano Ramos",
        "zipcode": "68557-275"
    },
    {
        "city": "Xinguara",
        "state": "PA",
        "district": "Selectas",
        "street": "Rua J. K.",
        "zipcode": "68557-055"
    },
    {
        "city": "Xinguara",
        "state": "PA",
        "district": "Selectas",
        "street": "Rua Prudente de Moraes",
        "zipcode": "68557-045"
    },
    {
        "city": "Xinguara",
        "state": "PA",
        "district": "Selectas",
        "street": "Rua Bartolomeu Dias",
        "zipcode": "68557-295"
    },
    {
        "city": "Xinguara",
        "state": "PA",
        "district": "Condomínio Nova Suíça Residence",
        "street": "Alameda St. Montreux",
        "zipcode": "68557-784"
    },
    {
        "city": "Xinguara",
        "state": "PA",
        "district": "Jardim América",
        "street": "Rua Nove",
        "zipcode": "68557-822"
    },
    {
        "city": "Xinguara",
        "state": "PA",
        "district": "Itamarati",
        "street": "Rua Amazonas",
        "zipcode": "68557-900"
    },
    {
        "city": "Xinguara",
        "state": "PA",
        "district": "Centro",
        "street": "Rua Amazonas",
        "zipcode": "68555-906"
    },
    {
        "city": "Xinguara",
        "state": "PA",
        "district": "Centro",
        "street": "Rua Amazonas",
        "zipcode": "68555-360"
    },
    {
        "city": "Xinguara",
        "state": "PA",
        "district": "Centro",
        "street": "Rua Bahia",
        "zipcode": "68555-500"
    },
    {
        "city": "Xinguara",
        "state": "PA",
        "district": "Centro",
        "street": "Rua Doutor Fidellis",
        "zipcode": "68555-420"
    },
    {
        "city": "Xinguara",
        "state": "PA",
        "district": "Centro",
        "street": "Rua Ipê",
        "zipcode": "68555-300"
    },
    {
        "city": "Xinguara",
        "state": "PA",
        "district": "Selectas",
        "street": "Rua Marechal Deodoro da Fonseca",
        "zipcode": "68557-035"
    },
    {
        "city": "Xinguara",
        "state": "PA",
        "district": "Centro",
        "street": "Avenida Minas Gerais",
        "zipcode": "68555-020"
    },
    {
        "city": "Xinguara",
        "state": "PA",
        "district": "Centro",
        "street": "Rodovia PA",
        "zipcode": "68555-330"
    },
    {
        "city": "Xinguara",
        "state": "PA",
        "district": "Centro",
        "street": "Rua Palmeiras",
        "zipcode": "68555-370"
    },
    {
        "city": "Xinguara",
        "state": "PA",
        "district": "Selectas",
        "street": "Rua Rui Barbosa",
        "zipcode": "68557-155"
    },
    {
        "city": "Xinguara",
        "state": "PA",
        "district": "Centro",
        "street": "Rua dos Viajantes",
        "zipcode": "68555-290"
    },
    {
        "city": "Xinguara",
        "state": "PA",
        "district": "Centro",
        "street": "Rua Adiel Alves dos Santos",
        "zipcode": "68555-130"
    },
    {
        "city": "Xinguara",
        "state": "PA",
        "district": "Selectas",
        "street": "Avenida Tiradentes",
        "zipcode": "68557-005"
    },
    {
        "city": "Xinguara",
        "state": "PA",
        "district": "Setor Marajoara II",
        "street": "Rua Fernando pessoa",
        "zipcode": "68557-503"
    },
    {
        "city": "Xinguara",
        "state": "PA",
        "district": "Setor Marajoara II",
        "street": "Rua Erivelton Martins",
        "zipcode": "68557-510"
    },
    {
        "city": "Xinguara",
        "state": "PA",
        "district": "Jardim América",
        "street": "Rua Treze",
        "zipcode": "68557-832"
    },
    {
        "city": "Xinguara",
        "state": "PA",
        "district": "Jardim América",
        "street": "Rua Dezesseis A",
        "zipcode": "68557-848"
    },
    {
        "city": "Xinguara",
        "state": "PA",
        "district": "Jardim América",
        "street": "Rua Dezoito",
        "zipcode": "68557-852"
    },
    {
        "city": "Xinguara",
        "state": "PA",
        "district": "Jardim América",
        "street": "Rua Vinte",
        "zipcode": "68557-856"
    },
    {
        "city": "Xinguara",
        "state": "PA",
        "district": "Jardim América",
        "street": "Rua Osvaldo de Andrade",
        "zipcode": "68557-860"
    },
    {
        "city": "Xinguara",
        "state": "PA",
        "district": "Centro",
        "street": "Rua Barão do Rio Branco",
        "zipcode": "68555-191"
    },
    {
        "city": "Xinguara",
        "state": "PA",
        "district": "Centro",
        "street": "Rua Brigadeiro Eduardo Gomes",
        "zipcode": "68555-081"
    },
    {
        "city": "Xinguara",
        "state": "PA",
        "district": "Centro",
        "street": "Rua das Castanheiras",
        "zipcode": "68555-111"
    },
    {
        "city": "Xinguara",
        "state": "PA",
        "district": "Centro",
        "street": "Rua das Castanheiras",
        "zipcode": "68555-113"
    },
    {
        "city": "Xinguara",
        "state": "PA",
        "district": "Centro",
        "street": "Rua Cecília Meirelles",
        "zipcode": "68555-093"
    },
    {
        "city": "Xinguara",
        "state": "PA",
        "district": "Centro",
        "street": "Rua Cecília Meirelles",
        "zipcode": "68555-095"
    },
    {
        "city": "Xinguara",
        "state": "PA",
        "district": "Marajoara",
        "street": "Rua Duque de Caxias",
        "zipcode": "68556-580"
    },
    {
        "city": "Xinguara",
        "state": "PA",
        "district": "Centro",
        "street": "Rua Goiás",
        "zipcode": "68555-263"
    },
    {
        "city": "Xinguara",
        "state": "PA",
        "district": "Centro",
        "street": "Rua Gorotire",
        "zipcode": "68555-173"
    },
    {
        "city": "Xinguara",
        "state": "PA",
        "district": "Centro",
        "street": "Rua Maranhão",
        "zipcode": "68555-251"
    },
    {
        "city": "Xinguara",
        "state": "PA",
        "district": "Centro",
        "street": "Rua Marechal Cordeiro de Farias",
        "zipcode": "68555-223"
    },
    {
        "city": "Xinguara",
        "state": "PA",
        "district": "Centro",
        "street": "Rua Raul Bopp",
        "zipcode": "68555-075"
    },
    {
        "city": "Xinguara",
        "state": "PA",
        "district": "Setor Novo Horizonte",
        "street": "Rua Rio Itacaiúnas",
        "zipcode": "68556-413"
    },
    {
        "city": "Xinguara",
        "state": "PA",
        "district": "Centro",
        "street": "Rua Serra Norte",
        "zipcode": "68555-125"
    },
    {
        "city": "Xinguara",
        "state": "PA",
        "district": "Centro",
        "street": "Rua Serra Norte",
        "zipcode": "68555-127"
    },
    {
        "city": "Xinguara",
        "state": "PA",
        "district": "Centro",
        "street": "Rua Sete de Setembro",
        "zipcode": "68555-471"
    },
    {
        "city": "Xinguara",
        "state": "PA",
        "district": "Itamarati",
        "street": "Rua Treze",
        "zipcode": "68555-595"
    },
    {
        "city": "Xinguara",
        "state": "PA",
        "district": "Centro",
        "street": "Avenida Xingu",
        "zipcode": "68555-011"
    },
    {
        "city": "Xinguara",
        "state": "PA",
        "district": "Centro",
        "street": "Rua dos Pioneiros",
        "zipcode": "68555-545"
    },
    {
        "city": "Xinguara",
        "state": "PA",
        "district": "Centro",
        "street": "Rua Vinícius de Moraes",
        "zipcode": "68555-045"
    },
    {
        "city": "Xinguara",
        "state": "PA",
        "district": "Itamarati",
        "street": "Rua Barão do Rio Branco",
        "zipcode": "68557-232"
    },
    {
        "city": "Xinguara",
        "state": "PA",
        "district": "Setor Marajoara II",
        "street": "Rua Princesa das Izabel",
        "zipcode": "68557-485"
    },
    {
        "city": "Xinguara",
        "state": "PA",
        "district": "Setor Marajoara II",
        "street": "Rua Dom João VI",
        "zipcode": "68557-480"
    },
    {
        "city": "Xinguara",
        "state": "PA",
        "district": "Setor Novo Horizonte",
        "street": "Rua Airton Senna",
        "zipcode": "68556-430"
    },
    {
        "city": "Xinguara",
        "state": "PA",
        "district": "Setor Novo Horizonte",
        "street": "Rua Ana Neres",
        "zipcode": "68556-425"
    },
    {
        "city": "Xinguara",
        "state": "PA",
        "district": "Setor Novo Horizonte",
        "street": "Rua Mário Covas",
        "zipcode": "68556-420"
    },
    {
        "city": "Xinguara",
        "state": "PA",
        "district": "Setor Novo Horizonte",
        "street": "Rua Osmir Lázaro",
        "zipcode": "68556-415"
    },
    {
        "city": "Xinguara",
        "state": "PA",
        "district": "Selectas",
        "street": "Rua Dom Pedro I",
        "zipcode": "68557-345"
    },
    {
        "city": "Xinguara",
        "state": "PA",
        "district": "Selectas",
        "street": "Rua Clara Nunes",
        "zipcode": "68557-025"
    },
    {
        "city": "Xinguara",
        "state": "PA",
        "district": "Selectas",
        "street": "Rua Carlos Chagas",
        "zipcode": "68557-015"
    },
    {
        "city": "Xinguara",
        "state": "PA",
        "district": "Selectas",
        "street": "Rua Carlos Drumond de Andrade",
        "zipcode": "68557-065"
    },
    {
        "city": "Xinguara",
        "state": "PA",
        "district": "Nova Xinguara",
        "street": "Rua Platina",
        "zipcode": "68557-572"
    },
    {
        "city": "Xinguara",
        "state": "PA",
        "district": "Park das Nações",
        "street": "Rua Inglaterra",
        "zipcode": "68557-694"
    },
    {
        "city": "Xinguara",
        "state": "PA",
        "district": "Park das Nações",
        "street": "Rua Holanda",
        "zipcode": "68557-696"
    },
    {
        "city": "Xinguara",
        "state": "PA",
        "district": "Itamarati",
        "street": "Rua José Luís Carvalho Pereira",
        "zipcode": "68555-710"
    },
    {
        "city": "Xinguara",
        "state": "PA",
        "district": "Condomínio Nova Suíça Residence",
        "street": "Avenida Boulevard Le Mann",
        "zipcode": "68557-760"
    },
    {
        "city": "Xinguara",
        "state": "PA",
        "district": "Condomínio Nova Suíça Residence",
        "street": "Alameda Roche",
        "zipcode": "68557-776"
    },
    {
        "city": "Xinguara",
        "state": "PA",
        "district": "Jardim América",
        "street": "Rua Cinco",
        "zipcode": "68557-814"
    },
    {
        "city": "Xinguara",
        "state": "PA",
        "district": "Jardim América",
        "street": "Rua Doze",
        "zipcode": "68557-828"
    },
    {
        "city": "Xinguara",
        "state": "PA",
        "district": "Jardim América",
        "street": "Rua Quinze A",
        "zipcode": "68557-842"
    },
    {
        "city": "Xinguara",
        "state": "PA",
        "district": "Jardim América",
        "street": "Rua Dezesseis",
        "zipcode": "68557-846"
    },
    {
        "city": "Xinguara",
        "state": "PA",
        "district": "Setor Novo Horizonte",
        "street": "Rua Pontes de Miranda",
        "zipcode": "68556-412"
    },
    {
        "city": "Xinguara",
        "state": "PA",
        "district": "Área Rural de Xinguara",
        "street": "Área Rural",
        "zipcode": "68558-899"
    },
    {
        "city": "Xinguara",
        "state": "PA",
        "district": "Centro",
        "street": "Rodovia Amazonas",
        "zipcode": "68555-175"
    },
    {
        "city": "Xinguara",
        "state": "PA",
        "district": "Itamarati",
        "street": "Rodovia Amazonas",
        "zipcode": "68555-845"
    },
    {
        "city": "Xinguara",
        "state": "PA",
        "district": "Centro",
        "street": "Rua Nova Esperança",
        "zipcode": "68555-543"
    },
    {
        "city": "Xinguara",
        "state": "PA",
        "district": "Marajoara",
        "street": "Rua Severo Gomes",
        "zipcode": "68557-525"
    },
    {
        "city": "Xinguara",
        "state": "PA",
        "district": "Marajoara",
        "street": "Avenida Orlando Luis Muraro",
        "zipcode": "68557-530"
    },
    {
        "city": "Xinguara",
        "state": "PA",
        "district": "Itamarati",
        "street": "Rua Dezesseis",
        "zipcode": "68555-575"
    },
    {
        "city": "Xinguara",
        "state": "PA",
        "district": "Nova Xinguara",
        "street": "Rua Topázio",
        "zipcode": "68557-552"
    },
    {
        "city": "Xinguara",
        "state": "PA",
        "district": "Nova Xinguara",
        "street": "Avenida Níquel",
        "zipcode": "68557-550"
    },
    {
        "city": "Xinguara",
        "state": "PA",
        "district": "Nova Xinguara",
        "street": "Rua Ametista",
        "zipcode": "68557-558"
    },
    {
        "city": "Xinguara",
        "state": "PA",
        "district": "Nova Xinguara",
        "street": "Avenida Ouro",
        "zipcode": "68557-560"
    },
    {
        "city": "Xinguara",
        "state": "PA",
        "district": "Selectas",
        "street": "Rua Nilo Peçanha",
        "zipcode": "68557-235"
    },
    {
        "city": "Xinguara",
        "state": "PA",
        "district": "Park das Nações",
        "street": "Rua Suécia",
        "zipcode": "68557-682"
    },
    {
        "city": "Xinguara",
        "state": "PA",
        "district": "Park das Nações",
        "street": "Avenida Japão",
        "zipcode": "68557-680"
    },
    {
        "city": "Xinguara",
        "state": "PA",
        "district": "Condomínio Residencial Maranata",
        "street": "Rua Tessalônica",
        "zipcode": "68557-712"
    },
    {
        "city": "Xinguara",
        "state": "PA",
        "district": "Jardim América",
        "street": "Rua Silício",
        "zipcode": "68557-866"
    },
    {
        "city": "Xinguara",
        "state": "PA",
        "district": "Jardim América",
        "street": "Rodovia PA",
        "zipcode": "68557-870"
    },
    {
        "city": "Xinguara",
        "state": "PA",
        "district": "Itamarati",
        "street": "Rua José Luís Carvalho Pereira",
        "zipcode": "68555-715"
    },
    {
        "city": "Xinguara",
        "state": "PA",
        "district": "Condomínio Nova Suíça Residence",
        "street": "Alameda Champagne",
        "zipcode": "68557-758"
    },
    {
        "city": "Xinguara",
        "state": "PA",
        "district": "Condomínio Nova Suíça Residence",
        "street": "Alameda Sion",
        "zipcode": "68557-778"
    },
    {
        "city": "Xinguara",
        "state": "PA",
        "district": "Jardim América",
        "street": "Rua Quatro A",
        "zipcode": "68557-812"
    },
    {
        "city": "Xinguara",
        "state": "PA",
        "district": "Jardim América",
        "street": "Rua Dez",
        "zipcode": "68557-824"
    },
    {
        "city": "Xinguara",
        "state": "PA",
        "district": "Jardim América",
        "street": "Rua Onze",
        "zipcode": "68557-826"
    },
    {
        "city": "Xinguara",
        "state": "PA",
        "district": "Jardim América",
        "street": "Rua Dezenove",
        "zipcode": "68557-854"
    },
    {
        "city": "Xinguara",
        "state": "PA",
        "district": "Centro",
        "street": "Rua Brigadeiro Eduardo Gomes",
        "zipcode": "68555-085"
    },
    {
        "city": "Xinguara",
        "state": "PA",
        "district": "Centro",
        "street": "Rua das Castanheiras",
        "zipcode": "68555-115"
    },
    {
        "city": "Xinguara",
        "state": "PA",
        "district": "Centro",
        "street": "Rua Cecília Meirelles",
        "zipcode": "68555-097"
    },
    {
        "city": "Xinguara",
        "state": "PA",
        "district": "Setor Bela Vista",
        "street": "Rua Cinco",
        "zipcode": "68556-465"
    },
    {
        "city": "Xinguara",
        "state": "PA",
        "district": "Setor Novo Horizonte",
        "street": "Rua Marechal Cordeiro de Farias",
        "zipcode": "68556-402"
    },
    {
        "city": "Xinguara",
        "state": "PA",
        "district": "Setor Novo Horizonte",
        "street": "Rua Marechal Rondon",
        "zipcode": "68556-401"
    },
    {
        "city": "Xinguara",
        "state": "PA",
        "district": "Itamarati",
        "street": "Rua dos Pioneiros",
        "zipcode": "68555-805"
    },
    {
        "city": "Xinguara",
        "state": "PA",
        "district": "Marajoara",
        "street": "Rua Rio Vermelho",
        "zipcode": "68556-540"
    },
    {
        "city": "Xinguara",
        "state": "PA",
        "district": "Centro",
        "street": "Rua Vinícius de Moraes",
        "zipcode": "68555-047"
    },
    {
        "city": "Xinguara",
        "state": "PA",
        "district": "Jardim América",
        "street": "Rua Quarenta e Três",
        "zipcode": "68557-815"
    },
    {
        "city": "Xinguara",
        "state": "PA",
        "district": "Itamarati",
        "street": "Rua Dezessete",
        "zipcode": "68555-578"
    },
    {
        "city": "Xinguara",
        "state": "PA",
        "district": "Jardim América",
        "street": "Rua Trinta e Um",
        "zipcode": "68557-825"
    },
    {
        "city": "Xinguara",
        "state": "PA",
        "district": "Jardim América",
        "street": "Rua Trinta",
        "zipcode": "68557-823"
    },
    {
        "city": "Xinguara",
        "state": "PA",
        "district": "Selectas",
        "street": "Rua Antônio Vilela",
        "zipcode": "68557-361"
    },
    {
        "city": "Xinguara",
        "state": "PA",
        "district": "Jardim América",
        "street": "Rua Quarenta e Dois",
        "zipcode": "68557-805"
    },
    {
        "city": "Xinguara",
        "state": "PA",
        "district": "Jardim América",
        "street": "Rua Vinte e Cinco",
        "zipcode": "68557-851"
    },
    {
        "city": "Xinguara",
        "state": "PA",
        "district": "Centro",
        "street": "Avenida Xingu",
        "zipcode": "68555-010"
    },
    {
        "city": "Xinguara",
        "state": "PA",
        "district": "Centro",
        "street": "Rua Borba Gato",
        "zipcode": "68555-050"
    },
    {
        "city": "Xinguara",
        "state": "PA",
        "district": "Centro",
        "street": "Rua Pontes De Miranda",
        "zipcode": "68557-330"
    },
    {
        "city": "Xinguara",
        "state": "PA",
        "district": "Setor Marajoara II",
        "street": "Rua Cedro",
        "zipcode": "68557-523"
    },
    {
        "city": "Xinguara",
        "state": "PA",
        "district": "Centro",
        "street": "Rua Gorotire",
        "zipcode": "68555-970"
    },
    {
        "city": "Xinguara",
        "state": "PA",
        "district": "Centro",
        "street": "Rua Francisco Caldeira Castelo Branco",
        "zipcode": "68555-900"
    },
    {
        "city": "Xinguara",
        "state": "PA",
        "district": "Tanaka",
        "street": "Rua Alacilândia",
        "zipcode": "68556-010"
    },
    {
        "city": "Xinguara",
        "state": "PA",
        "district": "Selectas",
        "street": "Rua Castro Alves",
        "zipcode": "68557-175"
    },
    {
        "city": "Xinguara",
        "state": "PA",
        "district": "Selectas",
        "street": "Rua Floriano Peixoto",
        "zipcode": "68557-195"
    },
    {
        "city": "Xinguara",
        "state": "PA",
        "district": "Setor Marajoara II",
        "street": "Rua Rui Logui de Melo",
        "zipcode": "68557-515"
    },
    {
        "city": "Xinguara",
        "state": "PA",
        "district": "Centro",
        "street": "Rua Cecilia Meirelles",
        "zipcode": "68555-090"
    },
    {
        "city": "Xinguara",
        "state": "PA",
        "district": "Jardim América",
        "street": "Rua Quarenta",
        "zipcode": "68557-803"
    },
    {
        "city": "Xinguara",
        "state": "PA",
        "district": "Centro",
        "street": "Rua Marechal Rondon",
        "zipcode": "68555-210"
    },
    {
        "city": "Xinguara",
        "state": "PA",
        "district": "Itamarati",
        "street": "Rua Quatorze",
        "zipcode": "68557-220"
    },
    {
        "city": "Xinguara",
        "state": "PA",
        "district": "Itamarati",
        "street": "Rua Oito",
        "zipcode": "68557-160"
    },
    {
        "city": "Xinguara",
        "state": "PA",
        "district": "Jardim América",
        "street": "Rua Vinte e Três",
        "zipcode": "68557-859"
    },
    {
        "city": "Xinguara",
        "state": "PA",
        "district": "Jardim América",
        "street": "Rua Trinta e Cinco",
        "zipcode": "68557-835"
    },
    {
        "city": "Xinguara",
        "state": "PA",
        "district": "Centro",
        "street": "Rua Raul Bopp",
        "zipcode": "68555-070"
    },
    {
        "city": "Xinguara",
        "state": "PA",
        "district": "Jardim América",
        "street": "Rua Trinta e Quatro",
        "zipcode": "68557-821"
    },
    {
        "city": "Xinguara",
        "state": "PA",
        "district": "Centro",
        "street": "Rua Dos Pioneiros",
        "zipcode": "68555-520"
    },
    {
        "city": "Xinguara",
        "state": "PA",
        "district": "Itamarati",
        "street": "Rua Cinco",
        "zipcode": "68557-130"
    },
    {
        "city": "Xinguara",
        "state": "PA",
        "district": "Centro",
        "street": "Rua Francisco Caldeira Castelo Branco",
        "zipcode": "68555-200"
    },
    {
        "city": "Xinguara",
        "state": "PA",
        "district": "Marajoara",
        "street": "Rua Ouro E Prata",
        "zipcode": "68557-040"
    },
    {
        "city": "Xinguara",
        "state": "PA",
        "district": "Jardim América",
        "street": "Rua Vinte e Dois",
        "zipcode": "68557-855"
    },
    {
        "city": "Xinguara",
        "state": "PA",
        "district": "Centro",
        "street": "Rua Marechal Cordeiro De Farias",
        "zipcode": "68555-220"
    },
    {
        "city": "Xinguara",
        "state": "PA",
        "district": "Marajoara",
        "street": "Rua Gorotire",
        "zipcode": "68557-260"
    },
    {
        "city": "Xinguara",
        "state": "PA",
        "district": "Marajoara",
        "street": "Rua Duque De Caxias",
        "zipcode": "68557-270"
    },
    {
        "city": "Xinguara",
        "state": "PA",
        "district": "Jardim América",
        "street": "Rua Vinte e Quatro",
        "zipcode": "68557-853"
    },
    {
        "city": "Xinguara",
        "state": "PA",
        "district": "Jardim América",
        "street": "Rua Trinta e Dois",
        "zipcode": "68557-833"
    },
    {
        "city": "Xinguara",
        "state": "PA",
        "district": "Itamarati",
        "street": "Rua Nove",
        "zipcode": "68557-170"
    },
    {
        "city": "Xinguara",
        "state": "PA",
        "district": "Jardim América",
        "street": "Rua Vinte e Oito",
        "zipcode": "68557-847"
    },
    {
        "city": "Xinguara",
        "state": "PA",
        "district": "Marajoara",
        "street": "Rua Rio Maria",
        "zipcode": "68557-030"
    },
    {
        "city": "Xinguara",
        "state": "PA",
        "district": "Centro",
        "street": "Rua Barao Do Rio Branco",
        "zipcode": "68555-190"
    },
    {
        "city": "Xinguara",
        "state": "PA",
        "district": "Marajoara",
        "street": "Rua Rio Araguaia",
        "zipcode": "68557-060"
    },
    {
        "city": "Xinguara",
        "state": "PA",
        "district": "Centro",
        "street": "Rua Brasil",
        "zipcode": "68555-100"
    },
    {
        "city": "Xinguara",
        "state": "PA",
        "district": "Centro",
        "street": "Rua Brigadeiro Eduardo Gomes",
        "zipcode": "68555-080"
    },
    {
        "city": "Xinguara",
        "state": "PA",
        "district": "Itamarati",
        "street": "Rua Dois",
        "zipcode": "68557-100"
    },
    {
        "city": "Xinguara",
        "state": "PA",
        "district": "Itamarati",
        "street": "Rua Treze",
        "zipcode": "68557-210"
    },
    {
        "city": "Xinguara",
        "state": "PA",
        "district": "Centro",
        "street": "Rua Cruz E Souza",
        "zipcode": "68555-060"
    },
    {
        "city": "Xinguara",
        "state": "PA",
        "district": "Jardim América",
        "street": "Rua Vinte e Nove",
        "zipcode": "68557-837"
    },
    {
        "city": "Xinguara",
        "state": "PA",
        "district": "Setor Marajoara II",
        "street": "Rua Bartolomeu",
        "zipcode": "68557-521"
    },
    {
        "city": "Xinguara",
        "state": "PA",
        "district": "Jardim América",
        "street": "Rua Vinte e Seis",
        "zipcode": "68557-857"
    },
    {
        "city": "Xinguara",
        "state": "PA",
        "district": "Centro",
        "street": "Rua Guajajaras",
        "zipcode": "68555-160"
    },
    {
        "city": "Xinguara",
        "state": "PA",
        "district": "Centro",
        "street": "Rua Tangara",
        "zipcode": "68555-150"
    },
    {
        "city": "Xinguara",
        "state": "PA",
        "district": "Centro",
        "street": "Rua Serra Norte",
        "zipcode": "68555-120"
    },
    {
        "city": "Xinguara",
        "state": "PA",
        "district": "Centro",
        "street": "Avenida Lauro Sodre",
        "zipcode": "68555-005"
    },
    {
        "city": "Xinguara",
        "state": "PA",
        "district": "Centro",
        "street": "Rua Sete De Setembro",
        "zipcode": "68555-470"
    },
    {
        "city": "Xinguara",
        "state": "PA",
        "district": "Itamarati",
        "street": "Rua Onze",
        "zipcode": "68557-190"
    },
    {
        "city": "Xinguara",
        "state": "PA",
        "district": "Centro",
        "street": "Rua Pontes De Miranda",
        "zipcode": "68555-240"
    },
    {
        "city": "Xinguara",
        "state": "PA",
        "district": "Jardim América",
        "street": "Rua Trinta e Três",
        "zipcode": "68557-829"
    },
    {
        "city": "Xinguara",
        "state": "PA",
        "district": "Itamarati",
        "street": "Rua Tancredo Neves",
        "zipcode": "68557-090"
    },
    {
        "city": "Xinguara",
        "state": "PA",
        "district": "Marajoara",
        "street": "Rua Rio Itacaiunas",
        "zipcode": "68557-020"
    },
    {
        "city": "Xinguara",
        "state": "PA",
        "district": "Centro",
        "street": "Rua Maranhao",
        "zipcode": "68555-250"
    },
    {
        "city": "Xinguara",
        "state": "PA",
        "district": "Centro",
        "street": "Rua Gorotire",
        "zipcode": "68555-170"
    },
    {
        "city": "Xinguara",
        "state": "PA",
        "district": "Centro",
        "street": "Rua Rio Tapajos",
        "zipcode": "68555-030"
    },
    {
        "city": "Xinguara",
        "state": "PA",
        "district": "Marajoara",
        "street": "Rua Guajajaras",
        "zipcode": "68557-240"
    },
    {
        "city": "Xinguara",
        "state": "PA",
        "district": "Itamarati",
        "street": "Rua Dez",
        "zipcode": "68557-180"
    },
    {
        "city": "Xinguara",
        "state": "PA",
        "district": "Itamarati",
        "street": "Rua Seis",
        "zipcode": "68557-140"
    },
    {
        "city": "Xinguara",
        "state": "PA",
        "district": "Centro",
        "street": "Rua Goias",
        "zipcode": "68555-260"
    },
    {
        "city": "Xinguara",
        "state": "PA",
        "district": "Centro",
        "street": "Rua Das Castanheiras",
        "zipcode": "68555-110"
    },
    {
        "city": "Xinguara",
        "state": "PA",
        "district": "Marajoara",
        "street": "Rua Rio Vermelho",
        "zipcode": "68557-010"
    },
    {
        "city": "Xinguara",
        "state": "PA",
        "district": "Centro",
        "street": "Rua Petronio Portela",
        "zipcode": "68555-230"
    },
    {
        "city": "Xinguara",
        "state": "PA",
        "district": "Jardim América",
        "street": "Rua Quarenta e Um",
        "zipcode": "68557-809"
    },
    {
        "city": "Xinguara",
        "state": "PA",
        "district": "Centro",
        "street": "Rua Duque De Caxias",
        "zipcode": "68555-180"
    },
    {
        "city": "Xinguara",
        "state": "PA",
        "district": "Centro",
        "street": "Rua Vinicius De Moraes",
        "zipcode": "68555-040"
    },
    {
        "city": "Xinguara",
        "state": "PA",
        "district": "Marajoara",
        "street": "Rua Dos Pioneiros",
        "zipcode": "68557-250"
    },
    {
        "city": "Xinguara",
        "state": "PA",
        "district": "Jardim América",
        "street": "Rua Vinte e Um",
        "zipcode": "68557-858"
    }
]