[
    {
        "city": "Afonso Cláudio",
        "state": "ES",
        "district": "Centro",
        "street": "Rua Marechal Deodoro 159",
        "zipcode": "29600-971"
    },
    {
        "city": "Afonso Cláudio",
        "state": "ES",
        "district": null,
        "street": "Rua José Martins da Silva",
        "zipcode": "29600-991"
    },
    {
        "city": "Afonso Cláudio",
        "state": "ES",
        "district": null,
        "street": "Rodovia Sebastião Alves de Lima",
        "zipcode": "29600-992"
    },
    {
        "city": "Afonso Cláudio",
        "state": "ES",
        "district": "",
        "street": "",
        "zipcode": "29600-000"
    },
    {
        "city": "Afonso Cláudio",
        "state": "ES",
        "district": null,
        "street": "Avenida Francisco Tosta",
        "zipcode": "29609-990"
    },
    {
        "city": "Afonso Cláudio",
        "state": "ES",
        "district": null,
        "street": "Edifício Elecy Maria Hackbart de Carvalho",
        "zipcode": "29603-990"
    },
    {
        "city": "Afonso Cláudio",
        "state": "ES",
        "district": "Centro",
        "street": "Rua Marechal Deodoro 159",
        "zipcode": "29600-970"
    },
    {
        "city": "Afonso Cláudio",
        "state": "ES",
        "district": "Serra Pelada",
        "street": "",
        "zipcode": "29603-000"
    }
]