[
    {
        "city": "Alegre",
        "state": "ES",
        "district": "Centro",
        "street": "Avenida Jerônimo Monteiro 133",
        "zipcode": "29500-970"
    },
    {
        "city": "Alegre",
        "state": "ES",
        "district": "São João do Norte",
        "street": "Rodovia ES",
        "zipcode": "29537-970"
    },
    {
        "city": "Alegre",
        "state": "ES",
        "district": "Centro",
        "street": "Avenida Jerônimo Monteiro 133",
        "zipcode": "29500-971"
    },
    {
        "city": "Alegre",
        "state": "ES",
        "district": null,
        "street": "Praça Godofredo Costa de Menezes",
        "zipcode": "29515-990"
    },
    {
        "city": "Alegre",
        "state": "ES",
        "district": null,
        "street": "Avenida Senador Atílio Vivácqua",
        "zipcode": "29510-990"
    },
    {
        "city": "Alegre",
        "state": "ES",
        "district": null,
        "street": "Estrada Principal",
        "zipcode": "29525-990"
    },
    {
        "city": "Alegre",
        "state": "ES",
        "district": null,
        "street": "Rua Hugo Furtado",
        "zipcode": "29535-990"
    },
    {
        "city": "Alegre",
        "state": "ES",
        "district": "",
        "street": "",
        "zipcode": "29500-000"
    },
    {
        "city": "Alegre",
        "state": "ES",
        "district": null,
        "street": "Rua Bernardo Vargas",
        "zipcode": "29520-990"
    },
    {
        "city": "Alegre",
        "state": "ES",
        "district": null,
        "street": "Praça São José",
        "zipcode": "29530-990"
    }
]