[
    {
        "city": "Anchieta",
        "state": "ES",
        "district": "Centro",
        "street": "Praça Governador Carlos Lindenberg 258  AC Anchieta",
        "zipcode": "29230-970"
    },
    {
        "city": "Anchieta",
        "state": "ES",
        "district": null,
        "street": "Rua Icaraí",
        "zipcode": "29230-992"
    },
    {
        "city": "Anchieta",
        "state": "ES",
        "district": "",
        "street": "Avenida Jovina dos Anjos",
        "zipcode": "29230-993"
    },
    {
        "city": "Anchieta",
        "state": "ES",
        "district": null,
        "street": "Rodovia do Sol",
        "zipcode": "29230-998"
    },
    {
        "city": "Anchieta",
        "state": "ES",
        "district": null,
        "street": "Rodovia do Sol",
        "zipcode": "29230-996"
    },
    {
        "city": "Anchieta",
        "state": "ES",
        "district": "",
        "street": "Rua Laudelino Neves",
        "zipcode": "29230-995"
    },
    {
        "city": "Anchieta",
        "state": "ES",
        "district": "",
        "street": "Rua Heleno Medeiros",
        "zipcode": "29230-991"
    },
    {
        "city": "Anchieta",
        "state": "ES",
        "district": null,
        "street": "Rua Manoel Miranda Garcia",
        "zipcode": "29230-994"
    },
    {
        "city": "Anchieta",
        "state": "ES",
        "district": "Ubú",
        "street": "Rua Laudelino Neves s/n  AGC Ubú",
        "zipcode": "29230-981"
    },
    {
        "city": "Anchieta",
        "state": "ES",
        "district": "Alto Pongal",
        "street": "Rodovia Virgílio Lorencini s/n  AGC Alto Pongal",
        "zipcode": "29238-980"
    },
    {
        "city": "Anchieta",
        "state": "ES",
        "district": "",
        "street": "",
        "zipcode": "29230-000"
    },
    {
        "city": "Anchieta",
        "state": "ES",
        "district": "",
        "street": "Rua Damaceno Perira",
        "zipcode": "29236-990"
    },
    {
        "city": "Anchieta",
        "state": "ES",
        "district": "Ubú",
        "street": "Avenida Jovina dos Santos 100  AGC Praia dos Castelhanos",
        "zipcode": "29230-974"
    },
    {
        "city": "Anchieta",
        "state": "ES",
        "district": "",
        "street": "Rodovia Virgílio Lorencini",
        "zipcode": "29238-990"
    },
    {
        "city": "Anchieta",
        "state": "ES",
        "district": "Ponta de Ubu",
        "street": "Rodovia ES",
        "zipcode": "29230-900"
    },
    {
        "city": "Anchieta",
        "state": "ES",
        "district": "",
        "street": "Rodovia Virgílio Lorencini",
        "zipcode": "29230-997"
    },
    {
        "city": "Anchieta",
        "state": "ES",
        "district": "Iriri",
        "street": "Rua Diógenes Tosta s/n  AGC Iriri",
        "zipcode": "29230-980"
    },
    {
        "city": "Anchieta",
        "state": "ES",
        "district": "",
        "street": "Avenida Dom Helvécio Gomes",
        "zipcode": "29230-990"
    },
    {
        "city": "Anchieta",
        "state": "ES",
        "district": "Mãe",
        "street": "Avenida Heleno de Medeiros s/n  AGC Mãe",
        "zipcode": "29230-982"
    }
]