[
    {
        "city": "Barra de São Francisco",
        "state": "ES",
        "district": "Itaperuna",
        "street": "Rua Wilson Neves da Cunha s/n",
        "zipcode": "29812-981"
    },
    {
        "city": "Barra de São Francisco",
        "state": "ES",
        "district": "",
        "street": "",
        "zipcode": "29800-000"
    },
    {
        "city": "Barra de São Francisco",
        "state": "ES",
        "district": "Centro",
        "street": "Avenida Jones Santos Neves 335",
        "zipcode": "29800-970"
    },
    {
        "city": "Barra de São Francisco",
        "state": "ES",
        "district": "Monte Senir",
        "street": "Rodovia ES",
        "zipcode": "29800-982"
    },
    {
        "city": "Barra de São Francisco",
        "state": "ES",
        "district": "Poranga",
        "street": "Estrada Principal s/n",
        "zipcode": "29817-985"
    },
    {
        "city": "Barra de São Francisco",
        "state": "ES",
        "district": "Miracema",
        "street": "Estrada Principal s/n",
        "zipcode": "29800-983"
    },
    {
        "city": "Barra de São Francisco",
        "state": "ES",
        "district": "Centro",
        "street": "Avenida Prefeito Manoel Vilá 100",
        "zipcode": "29800-971"
    },
    {
        "city": "Barra de São Francisco",
        "state": "ES",
        "district": null,
        "street": "Avenida São Francisco",
        "zipcode": "29807-990"
    },
    {
        "city": "Barra de São Francisco",
        "state": "ES",
        "district": null,
        "street": "Rua B",
        "zipcode": "29800-990"
    },
    {
        "city": "Barra de São Francisco",
        "state": "ES",
        "district": null,
        "street": "Estrada Principal",
        "zipcode": "29805-990"
    },
    {
        "city": "Barra de São Francisco",
        "state": "ES",
        "district": null,
        "street": "Avenida Alexandre Pereira Gomes",
        "zipcode": "29800-992"
    },
    {
        "city": "Barra de São Francisco",
        "state": "ES",
        "district": "Cachoeirinha de Itaúnas",
        "street": "Estrada Principal s/n",
        "zipcode": "29805-980"
    },
    {
        "city": "Barra de São Francisco",
        "state": "ES",
        "district": "Vargem Alegre",
        "street": "Rua Danton Bastos 1",
        "zipcode": "29800-985"
    },
    {
        "city": "Barra de São Francisco",
        "state": "ES",
        "district": "Vila Paulista",
        "street": "Praça Municipal s/n",
        "zipcode": "29815-984"
    },
    {
        "city": "Barra de São Francisco",
        "state": "ES",
        "district": "Monte Sinai",
        "street": "Rua José Santiago s/n",
        "zipcode": "29807-983"
    },
    {
        "city": "Barra de São Francisco",
        "state": "ES",
        "district": null,
        "street": "Praça Municipal",
        "zipcode": "29815-990"
    },
    {
        "city": "Barra de São Francisco",
        "state": "ES",
        "district": "Santo Antônio",
        "street": "Rua José Guaitolini s/n",
        "zipcode": "29810-986"
    }
]