[
    {
        "city": "Domingos Martins",
        "state": "ES",
        "district": null,
        "street": "Rua Padre Francisco Albert",
        "zipcode": "29263-990"
    },
    {
        "city": "Domingos Martins",
        "state": "ES",
        "district": "Biriricas",
        "street": "Estrada Principal s/n",
        "zipcode": "29260-984"
    },
    {
        "city": "Domingos Martins",
        "state": "ES",
        "district": "Centro",
        "street": "Avenida Presidente Vargas 875",
        "zipcode": "29260-970"
    },
    {
        "city": "Domingos Martins",
        "state": "ES",
        "district": "Centro",
        "street": "Avenida Presidente Vargas s/n",
        "zipcode": "29260-971"
    },
    {
        "city": "Domingos Martins",
        "state": "ES",
        "district": "",
        "street": "",
        "zipcode": "29260-000"
    },
    {
        "city": "Domingos Martins",
        "state": "ES",
        "district": null,
        "street": "Praça Pedro Ewald",
        "zipcode": "29273-990"
    },
    {
        "city": "Domingos Martins",
        "state": "ES",
        "district": null,
        "street": "Rodovia BR",
        "zipcode": "29278-990"
    },
    {
        "city": "Domingos Martins",
        "state": "ES",
        "district": null,
        "street": "Rua Principal",
        "zipcode": "29260-992"
    },
    {
        "city": "Domingos Martins",
        "state": "ES",
        "district": null,
        "street": "Rua Principal de Perobas",
        "zipcode": "29273-994"
    },
    {
        "city": "Domingos Martins",
        "state": "ES",
        "district": null,
        "street": "Estrada Municipal",
        "zipcode": "29276-993"
    },
    {
        "city": "Domingos Martins",
        "state": "ES",
        "district": null,
        "street": "Estrada Principal",
        "zipcode": "29276-990"
    },
    {
        "city": "Domingos Martins",
        "state": "ES",
        "district": null,
        "street": "Comunidade São Sebastião de Aracê",
        "zipcode": "29278-997"
    },
    {
        "city": "Domingos Martins",
        "state": "ES",
        "district": null,
        "street": "Praça Reinoso Kiffer",
        "zipcode": "29273-993"
    },
    {
        "city": "Domingos Martins",
        "state": "ES",
        "district": null,
        "street": "Córrego Cristo Rei",
        "zipcode": "29278-993"
    },
    {
        "city": "Domingos Martins",
        "state": "ES",
        "district": "Vale da Estação",
        "street": "Praça da Estação s/n",
        "zipcode": "29260-985"
    }
]