[
    {
        "city": "Ecoporanga",
        "state": "ES",
        "district": "Centro",
        "street": "Avenida Milton Mota 875",
        "zipcode": "29850-970"
    },
    {
        "city": "Ecoporanga",
        "state": "ES",
        "district": "Imburana",
        "street": "Estrada Imburana",
        "zipcode": "29850-974"
    },
    {
        "city": "Ecoporanga",
        "state": "ES",
        "district": "Joaçuba",
        "street": "Estrada Joaçuba",
        "zipcode": "29850-972"
    },
    {
        "city": "Ecoporanga",
        "state": "ES",
        "district": "Prata dos Baianos",
        "street": "Contorno Ecoporanga",
        "zipcode": "29850-973"
    },
    {
        "city": "Ecoporanga",
        "state": "ES",
        "district": "Santa Luzia do Norte",
        "street": "Rua Mucurici",
        "zipcode": "29850-975"
    },
    {
        "city": "Ecoporanga",
        "state": "ES",
        "district": "",
        "street": "",
        "zipcode": "29850-000"
    },
    {
        "city": "Ecoporanga",
        "state": "ES",
        "district": "Cotoxé",
        "street": "Estrada Cotoxé",
        "zipcode": "29850-971"
    },
    {
        "city": "Ecoporanga",
        "state": "ES",
        "district": "Ribeirãozinho",
        "street": "Rodovia Ecoporanga",
        "zipcode": "29850-977"
    },
    {
        "city": "Ecoporanga",
        "state": "ES",
        "district": "Assentamento Miragem",
        "street": "Estrada Miragem",
        "zipcode": "29850-976"
    }
]