[
    {
        "city": "João Neiva",
        "state": "ES",
        "district": "Barra do Triunfo",
        "street": "Rua Principal s/n",
        "zipcode": "29680-980"
    },
    {
        "city": "João Neiva",
        "state": "ES",
        "district": "",
        "street": "",
        "zipcode": "29680-000"
    },
    {
        "city": "João Neiva",
        "state": "ES",
        "district": "Demétrio Ribeiro",
        "street": "Rua Principal s/n",
        "zipcode": "29680-984"
    },
    {
        "city": "João Neiva",
        "state": "ES",
        "district": "Cristal",
        "street": "Rua Principal s/n",
        "zipcode": "29680-982"
    },
    {
        "city": "João Neiva",
        "state": "ES",
        "district": "Piraqueaçu",
        "street": "Ferrovia Vitória x Minas s/n",
        "zipcode": "29680-983"
    },
    {
        "city": "João Neiva",
        "state": "ES",
        "district": "Cavalinho",
        "street": "Rua Principal s/n",
        "zipcode": "29680-981"
    },
    {
        "city": "João Neiva",
        "state": "ES",
        "district": "Centro",
        "street": "Praça Hilda Garcia 100",
        "zipcode": "29680-970"
    },
    {
        "city": "João Neiva",
        "state": "ES",
        "district": null,
        "street": "Rua Felipe Raizer",
        "zipcode": "29687-990"
    }
]