[
    {
        "city": "Nova Venécia",
        "state": "ES",
        "district": "Patrimônio da Penha",
        "street": "Estrada Principal s/n",
        "zipcode": "29830-983"
    },
    {
        "city": "Nova Venécia",
        "state": "ES",
        "district": "",
        "street": "",
        "zipcode": "29830-000"
    },
    {
        "city": "Nova Venécia",
        "state": "ES",
        "district": "Boa Vista",
        "street": "Avenida Principal s/n",
        "zipcode": "29830-980"
    },
    {
        "city": "Nova Venécia",
        "state": "ES",
        "district": "Centro",
        "street": "Praça Jones dos Santos Neves 43",
        "zipcode": "29830-970"
    },
    {
        "city": "Nova Venécia",
        "state": "ES",
        "district": "Guararema",
        "street": "Rua Presidente Vargas 60",
        "zipcode": "29842-980"
    },
    {
        "city": "Nova Venécia",
        "state": "ES",
        "district": "São Gonçalo",
        "street": "Estrada Principal s/n",
        "zipcode": "29830-985"
    },
    {
        "city": "Nova Venécia",
        "state": "ES",
        "district": "Centro",
        "street": "Rua do Riacho 87",
        "zipcode": "29830-971"
    },
    {
        "city": "Nova Venécia",
        "state": "ES",
        "district": null,
        "street": "Estrada Principal",
        "zipcode": "29839-990"
    },
    {
        "city": "Nova Venécia",
        "state": "ES",
        "district": null,
        "street": "Rua Itaperuna",
        "zipcode": "29830-991"
    },
    {
        "city": "Nova Venécia",
        "state": "ES",
        "district": null,
        "street": "Estrada Principal",
        "zipcode": "29830-995"
    },
    {
        "city": "Nova Venécia",
        "state": "ES",
        "district": "",
        "street": "Praça da Igreja",
        "zipcode": "29830-994"
    },
    {
        "city": "Nova Venécia",
        "state": "ES",
        "district": "Cristalino",
        "street": "Estrada Principal s/n",
        "zipcode": "29830-982"
    },
    {
        "city": "Nova Venécia",
        "state": "ES",
        "district": "Guararema",
        "street": "Estrada Guararema",
        "zipcode": "29842-985"
    },
    {
        "city": "Nova Venécia",
        "state": "ES",
        "district": "Poção",
        "street": "Praça Central s/n",
        "zipcode": "29830-984"
    },
    {
        "city": "Nova Venécia",
        "state": "ES",
        "district": null,
        "street": "Praça Central",
        "zipcode": "29830-992"
    },
    {
        "city": "Nova Venécia",
        "state": "ES",
        "district": "Santo Antônio do Quinze",
        "street": "Rodovia do Café 13",
        "zipcode": "29842-978"
    },
    {
        "city": "Nova Venécia",
        "state": "ES",
        "district": null,
        "street": "Praça da Amizade",
        "zipcode": "29830-993"
    },
    {
        "city": "Nova Venécia",
        "state": "ES",
        "district": "Cedrolândia",
        "street": "Estrada Principal 325",
        "zipcode": "29830-981"
    },
    {
        "city": "Nova Venécia",
        "state": "ES",
        "district": null,
        "street": "Rua Getúlio Vargas",
        "zipcode": "29842-990"
    }
]