[
    {
        "city": "Santa Maria de Jetibá",
        "state": "ES",
        "district": "Centro",
        "street": "Avenida Frederico Grulke 461",
        "zipcode": "29645-970"
    },
    {
        "city": "Santa Maria de Jetibá",
        "state": "ES",
        "district": "",
        "street": "",
        "zipcode": "29645-000"
    },
    {
        "city": "Santa Maria de Jetibá",
        "state": "ES",
        "district": null,
        "street": "Estrada Principal",
        "zipcode": "29649-994"
    },
    {
        "city": "Santa Maria de Jetibá",
        "state": "ES",
        "district": null,
        "street": "Estrada Principal",
        "zipcode": "29645-996"
    },
    {
        "city": "Santa Maria de Jetibá",
        "state": "ES",
        "district": null,
        "street": "Estrada Principal",
        "zipcode": "29645-997"
    },
    {
        "city": "Santa Maria de Jetibá",
        "state": "ES",
        "district": null,
        "street": "Usina de Rio Bonito",
        "zipcode": "29645-995"
    },
    {
        "city": "Santa Maria de Jetibá",
        "state": "ES",
        "district": "São João do Garrafão",
        "street": "Avenida João Pedro Lauvers 13",
        "zipcode": "29649-986"
    },
    {
        "city": "Santa Maria de Jetibá",
        "state": "ES",
        "district": "Rio Bonito",
        "street": "Largo da Usina Rio Bonito s/n",
        "zipcode": "29645-981"
    },
    {
        "city": "Santa Maria de Jetibá",
        "state": "ES",
        "district": "Caramuru",
        "street": "Rua Líttio da Silva Rosa 13",
        "zipcode": "29645-984"
    },
    {
        "city": "Santa Maria de Jetibá",
        "state": "ES",
        "district": null,
        "street": "Praça do Centro Comunitário",
        "zipcode": "29645-992"
    },
    {
        "city": "Santa Maria de Jetibá",
        "state": "ES",
        "district": null,
        "street": "Avenida João Pedro Lauvers",
        "zipcode": "29649-993"
    },
    {
        "city": "Santa Maria de Jetibá",
        "state": "ES",
        "district": null,
        "street": "Salão da Comunidade Luterana",
        "zipcode": "29645-994"
    },
    {
        "city": "Santa Maria de Jetibá",
        "state": "ES",
        "district": null,
        "street": "Rua Reinaldo Berger",
        "zipcode": "29645-991"
    },
    {
        "city": "Santa Maria de Jetibá",
        "state": "ES",
        "district": "São Sebastião de Belém",
        "street": "Estrada Principal Km 15",
        "zipcode": "29645-983"
    },
    {
        "city": "Santa Maria de Jetibá",
        "state": "ES",
        "district": null,
        "street": "Avenida Ottom Thom",
        "zipcode": "29645-990"
    },
    {
        "city": "Santa Maria de Jetibá",
        "state": "ES",
        "district": null,
        "street": "Rua Lídio Rosa",
        "zipcode": "29645-993"
    },
    {
        "city": "Santa Maria de Jetibá",
        "state": "ES",
        "district": "Alto Rio Possmozer",
        "street": "Rua Reynaldo Berger 13",
        "zipcode": "29645-980"
    },
    {
        "city": "Santa Maria de Jetibá",
        "state": "ES",
        "district": "Recreio",
        "street": "Avenida Otto Thom 13",
        "zipcode": "29645-985"
    }
]