[
    {
        "city": "Venda Nova do Imigrante",
        "state": "ES",
        "district": "Centro",
        "street": "Avenida Domingos Perin 119",
        "zipcode": "29375-970"
    },
    {
        "city": "Venda Nova do Imigrante",
        "state": "ES",
        "district": "São João de Viçosa",
        "street": "Avenida Vinte e Quatro de Julho 110",
        "zipcode": "29378-973"
    },
    {
        "city": "Venda Nova do Imigrante",
        "state": "ES",
        "district": "Centro",
        "street": "Avenida Domingos Perin 119",
        "zipcode": "29375-971"
    },
    {
        "city": "Venda Nova do Imigrante",
        "state": "ES",
        "district": null,
        "street": "Avenida Vinte de Quatro de Junho",
        "zipcode": "29378-990"
    },
    {
        "city": "Venda Nova do Imigrante",
        "state": "ES",
        "district": null,
        "street": "Estrada Principal",
        "zipcode": "29375-994"
    },
    {
        "city": "Venda Nova do Imigrante",
        "state": "ES",
        "district": null,
        "street": "Estrada de Lavrinhas",
        "zipcode": "29375-991"
    },
    {
        "city": "Venda Nova do Imigrante",
        "state": "ES",
        "district": "",
        "street": "",
        "zipcode": "29375-000"
    },
    {
        "city": "Venda Nova do Imigrante",
        "state": "ES",
        "district": "Alto Caxixe",
        "street": "Avenida Principal s/n",
        "zipcode": "29375-982"
    }
]