[
    {
        "city": "Viana",
        "state": "ES",
        "district": "Primavera",
        "street": "Rua Altiva da Silva Bressiani",
        "zipcode": "29135-224"
    },
    {
        "city": "Viana",
        "state": "ES",
        "district": "Morada Bethânia",
        "street": "Rua Caramuru",
        "zipcode": "29138-759"
    },
    {
        "city": "Viana",
        "state": "ES",
        "district": "Marcílio de Noronha",
        "street": "Beco Kenned",
        "zipcode": "29135-512"
    },
    {
        "city": "Viana",
        "state": "ES",
        "district": "Areinha",
        "street": "Travessa Floriano Varejão",
        "zipcode": "29137-165"
    },
    {
        "city": "Viana",
        "state": "ES",
        "district": "Morada Bethânia",
        "street": "Rua Café Filho",
        "zipcode": "29138-858"
    },
    {
        "city": "Viana",
        "state": "ES",
        "district": "Universal",
        "street": "Rua Tietê",
        "zipcode": "29134-616"
    },
    {
        "city": "Viana",
        "state": "ES",
        "district": "Parque Industrial",
        "street": "Rua Manoel Antônio Nascimento",
        "zipcode": "29136-528"
    },
    {
        "city": "Viana",
        "state": "ES",
        "district": "Boa Esperança",
        "street": "Avenida Beira Rio",
        "zipcode": "29130-303"
    },
    {
        "city": "Viana",
        "state": "ES",
        "district": "Pedra da Mulata Setor I",
        "street": "Comunidade Mucuri",
        "zipcode": "29131-426"
    },
    {
        "city": "Viana",
        "state": "ES",
        "district": "Nova Bethânia",
        "street": "Rua Caité",
        "zipcode": "29138-158"
    },
    {
        "city": "Viana",
        "state": "ES",
        "district": "Marcílio de Noronha",
        "street": "Praça João Aruela Maio",
        "zipcode": "29135-496"
    },
    {
        "city": "Viana",
        "state": "ES",
        "district": "Nova Bethânia",
        "street": "Rua Rio Capibaribe",
        "zipcode": "29138-180"
    },
    {
        "city": "Viana",
        "state": "ES",
        "district": "Morada Bethânia",
        "street": "Rua Anchieta",
        "zipcode": "29138-584"
    },
    {
        "city": "Viana",
        "state": "ES",
        "district": "Universal",
        "street": "Rua Sibipiruna",
        "zipcode": "29134-655"
    },
    {
        "city": "Viana",
        "state": "ES",
        "district": "Bom Pastor",
        "street": "Rua Mário Ribeiro Grijó",
        "zipcode": "29132-654"
    },
    {
        "city": "Viana",
        "state": "ES",
        "district": "Areinha",
        "street": "Rua Nossa Senhora de Nazaré",
        "zipcode": "29137-012"
    },
    {
        "city": "Viana",
        "state": "ES",
        "district": "Nova Bethânia",
        "street": "Rua São Francisco de Assis",
        "zipcode": "29138-294"
    },
    {
        "city": "Viana",
        "state": "ES",
        "district": "Arlindo Villaschi",
        "street": "Rua São Mateus",
        "zipcode": "29136-186"
    },
    {
        "city": "Viana",
        "state": "ES",
        "district": "São Paulo Setor IV",
        "street": "Comunidade Córrego da Onça",
        "zipcode": "29130-508"
    },
    {
        "city": "Viana",
        "state": "ES",
        "district": "Caxias do Sul",
        "street": "Beco Valdivino",
        "zipcode": "29136-442"
    },
    {
        "city": "Viana",
        "state": "ES",
        "district": "Vila Bethânia",
        "street": "Rua Padre Zeferino Magnago",
        "zipcode": "29136-058"
    },
    {
        "city": "Viana",
        "state": "ES",
        "district": "Piapitangui Setor III",
        "street": "Comunidade Formate",
        "zipcode": "29134-010"
    },
    {
        "city": "Viana",
        "state": "ES",
        "district": "Caxias do Sul",
        "street": "Rua Laurentino Theodoro de Souza",
        "zipcode": "29136-452"
    },
    {
        "city": "Viana",
        "state": "ES",
        "district": "Pedra da Mulata Setor I",
        "street": "Comunidade Santo Antônio",
        "zipcode": "29131-438"
    },
    {
        "city": "Viana",
        "state": "ES",
        "district": "Campo Verde",
        "street": "Rua Sudeste",
        "zipcode": "29138-463"
    },
    {
        "city": "Viana",
        "state": "ES",
        "district": "São Paulo Setor IV",
        "street": "Comunidade Piedade",
        "zipcode": "29130-522"
    },
    {
        "city": "Viana",
        "state": "ES",
        "district": "Universal",
        "street": "Rua Pastor Edson",
        "zipcode": "29134-482"
    },
    {
        "city": "Viana",
        "state": "ES",
        "district": "Morada Bethânia",
        "street": "Rua Zumbi dos Palmares",
        "zipcode": "29138-681"
    },
    {
        "city": "Viana",
        "state": "ES",
        "district": "Parque Industrial",
        "street": "Rua Idalino Carvalho",
        "zipcode": "29136-900"
    },
    {
        "city": "Viana",
        "state": "ES",
        "district": "Canaã",
        "street": "Rua Padre José de Anchieta",
        "zipcode": "29135-069"
    },
    {
        "city": "Viana",
        "state": "ES",
        "district": "Morada Bethânia",
        "street": "Rua Elis Regina",
        "zipcode": "29138-780"
    },
    {
        "city": "Viana",
        "state": "ES",
        "district": "Marcílio de Noronha",
        "street": "Avenida Democrata",
        "zipcode": "29135-327"
    },
    {
        "city": "Viana",
        "state": "ES",
        "district": "Jucu Setor II",
        "street": "Comunidade Icaraí",
        "zipcode": "29132-014"
    },
    {
        "city": "Viana",
        "state": "ES",
        "district": "Marcílio de Noronha",
        "street": "Rua do Trigo",
        "zipcode": "29135-458"
    },
    {
        "city": "Viana",
        "state": "ES",
        "district": "Vila Bethânia",
        "street": "Escadaria Leonor Pereira da Silva",
        "zipcode": "29136-037"
    },
    {
        "city": "Viana",
        "state": "ES",
        "district": "Universal",
        "street": "Rua Pascoal Marques",
        "zipcode": "29134-523"
    },
    {
        "city": "Viana",
        "state": "ES",
        "district": "Morada Bethânia",
        "street": "Rua Imperatriz Leopoldina",
        "zipcode": "29138-699"
    },
    {
        "city": "Viana",
        "state": "ES",
        "district": "Campo Verde",
        "street": "Rua Transversal",
        "zipcode": "29138-448"
    },
    {
        "city": "Viana",
        "state": "ES",
        "district": "Boa Esperança",
        "street": "Rua Thieres Monteiro de Barros",
        "zipcode": "29130-330"
    },
    {
        "city": "Viana",
        "state": "ES",
        "district": "Jucu Setor II",
        "street": "Comunidade Jucupitanga",
        "zipcode": "29132-018"
    },
    {
        "city": "Viana",
        "state": "ES",
        "district": "Jucu Setor II",
        "street": "Comunidade Capoeira Ussu",
        "zipcode": "29132-038"
    },
    {
        "city": "Viana",
        "state": "ES",
        "district": "São Paulo Setor IV",
        "street": "Comunidade Biriricas de Baixo",
        "zipcode": "29130-510"
    },
    {
        "city": "Viana",
        "state": "ES",
        "district": "Nova Bethânia",
        "street": "Rua Ilha de Marajó",
        "zipcode": "29138-089"
    },
    {
        "city": "Viana",
        "state": "ES",
        "district": "São Paulo Setor IV",
        "street": "Comunidade São Paulo de Baixo",
        "zipcode": "29130-524"
    },
    {
        "city": "Viana",
        "state": "ES",
        "district": "Centro",
        "street": "Rua Doze",
        "zipcode": "29130-236"
    },
    {
        "city": "Viana",
        "state": "ES",
        "district": "Areinha",
        "street": "Rua Uruguaiana",
        "zipcode": "29137-062"
    },
    {
        "city": "Viana",
        "state": "ES",
        "district": "Morada Bethânia",
        "street": "Rua José de Anchieta",
        "zipcode": "29138-647"
    },
    {
        "city": "Viana",
        "state": "ES",
        "district": "Marcílio de Noronha",
        "street": "Rua Londres",
        "zipcode": "29135-608"
    },
    {
        "city": "Viana",
        "state": "ES",
        "district": "Universal",
        "street": "Rua Floriano Peixoto",
        "zipcode": "29134-541"
    },
    {
        "city": "Viana",
        "state": "ES",
        "district": "Canaã",
        "street": "Rua do Cedro",
        "zipcode": "29135-079"
    },
    {
        "city": "Viana",
        "state": "ES",
        "district": "Centro",
        "street": "Rua Joaquim Gonçalves",
        "zipcode": "29130-071"
    },
    {
        "city": "Viana",
        "state": "ES",
        "district": "Centro",
        "street": "Rua Vergílio Ferreira",
        "zipcode": "29130-208"
    },
    {
        "city": "Viana",
        "state": "ES",
        "district": "Centro",
        "street": "Rua Luiz Alvarenga",
        "zipcode": "29130-211"
    },
    {
        "city": "Viana",
        "state": "ES",
        "district": "Centro",
        "street": "Beco São Jorge",
        "zipcode": "29130-221"
    },
    {
        "city": "Viana",
        "state": "ES",
        "district": "Pedra da Mulata Setor I",
        "street": "Comunidade Jacarandá",
        "zipcode": "29131-418"
    },
    {
        "city": "Viana",
        "state": "ES",
        "district": "Centro",
        "street": "Rua Dez",
        "zipcode": "29130-224"
    },
    {
        "city": "Viana",
        "state": "ES",
        "district": "Centro",
        "street": "Rua Oito",
        "zipcode": "29130-233"
    },
    {
        "city": "Viana",
        "state": "ES",
        "district": "Vila Bethânia",
        "street": "Rua Coronel Nunes Ferreira",
        "zipcode": "29136-111"
    },
    {
        "city": "Viana",
        "state": "ES",
        "district": "Campo Verde",
        "street": "Rua F",
        "zipcode": "29138-418"
    },
    {
        "city": "Viana",
        "state": "ES",
        "district": "Centro",
        "street": "Rua Francisco Gomes",
        "zipcode": "29130-196"
    },
    {
        "city": "Viana",
        "state": "ES",
        "district": "Centro",
        "street": "Rua São Sebastião",
        "zipcode": "29130-202"
    },
    {
        "city": "Viana",
        "state": "ES",
        "district": "Centro",
        "street": "Rua Boa Vista",
        "zipcode": "29130-205"
    },
    {
        "city": "Viana",
        "state": "ES",
        "district": "Centro",
        "street": "Rua Vieira Pimentel",
        "zipcode": "29130-050"
    },
    {
        "city": "Viana",
        "state": "ES",
        "district": "Centro",
        "street": "Rodovia BR",
        "zipcode": "29130-056"
    },
    {
        "city": "Viana",
        "state": "ES",
        "district": "Centro",
        "street": "Rua Quintino Bocaiúva",
        "zipcode": "29130-068"
    },
    {
        "city": "Viana",
        "state": "ES",
        "district": "Centro",
        "street": "Avenida Florentino Avidos",
        "zipcode": "29130-065"
    },
    {
        "city": "Viana",
        "state": "ES",
        "district": "Centro",
        "street": "Rua Antenor Vieira",
        "zipcode": "29130-124"
    },
    {
        "city": "Viana",
        "state": "ES",
        "district": "Centro",
        "street": "Rua Augusto Alves de Araújo",
        "zipcode": "29130-127"
    },
    {
        "city": "Viana",
        "state": "ES",
        "district": "Centro",
        "street": "Rua Costa Pereira",
        "zipcode": "29130-130"
    },
    {
        "city": "Viana",
        "state": "ES",
        "district": "Centro",
        "street": "Rua Domingos Vicente",
        "zipcode": "29130-142"
    },
    {
        "city": "Viana",
        "state": "ES",
        "district": "Centro",
        "street": "Rua Olival Pimentel",
        "zipcode": "29130-145"
    },
    {
        "city": "Viana",
        "state": "ES",
        "district": "Centro",
        "street": "Rua Laurentino Pimentel",
        "zipcode": "29130-151"
    },
    {
        "city": "Viana",
        "state": "ES",
        "district": "Centro",
        "street": "Rua Frederico Ozanan",
        "zipcode": "29130-154"
    },
    {
        "city": "Viana",
        "state": "ES",
        "district": "Centro",
        "street": "Rua Felismina Siqueira do Nascimento",
        "zipcode": "29130-157"
    },
    {
        "city": "Viana",
        "state": "ES",
        "district": "Centro",
        "street": "Rua Presidente Kennedy",
        "zipcode": "29130-166"
    },
    {
        "city": "Viana",
        "state": "ES",
        "district": "Centro",
        "street": "Rua Luiz Lyrio",
        "zipcode": "29130-169"
    },
    {
        "city": "Viana",
        "state": "ES",
        "district": "Centro",
        "street": "Rua Alvimar Silva",
        "zipcode": "29130-172"
    },
    {
        "city": "Viana",
        "state": "ES",
        "district": "Centro",
        "street": "Rua Coronel Nunes Ferreira",
        "zipcode": "29130-175"
    },
    {
        "city": "Viana",
        "state": "ES",
        "district": "Centro",
        "street": "Travessa Um",
        "zipcode": "29130-103"
    },
    {
        "city": "Viana",
        "state": "ES",
        "district": "Centro",
        "street": "Rua Três",
        "zipcode": "29130-106"
    },
    {
        "city": "Viana",
        "state": "ES",
        "district": "Centro",
        "street": "Rodovia BR",
        "zipcode": "29130-077"
    },
    {
        "city": "Viana",
        "state": "ES",
        "district": "Centro",
        "street": "Rodovia BR",
        "zipcode": "29130-060"
    },
    {
        "city": "Viana",
        "state": "ES",
        "district": "Canaã",
        "street": "Rua Santa Catarina",
        "zipcode": "29135-014"
    },
    {
        "city": "Viana",
        "state": "ES",
        "district": "Marcílio de Noronha",
        "street": "Rua Ataíde Ervate",
        "zipcode": "29135-578"
    },
    {
        "city": "Viana",
        "state": "ES",
        "district": "Centro",
        "street": "Avenida Quatorze",
        "zipcode": "29130-239"
    },
    {
        "city": "Viana",
        "state": "ES",
        "district": "Centro",
        "street": "Avenida Quinze",
        "zipcode": "29130-245"
    },
    {
        "city": "Viana",
        "state": "ES",
        "district": "Centro",
        "street": "Rua Dezesseis",
        "zipcode": "29130-248"
    },
    {
        "city": "Viana",
        "state": "ES",
        "district": "Centro",
        "street": "Rua Luiz Rodrigues Siqueira",
        "zipcode": "29130-251"
    },
    {
        "city": "Viana",
        "state": "ES",
        "district": "Centro",
        "street": "Rua Thieres Monteiro de Barros",
        "zipcode": "29130-269"
    },
    {
        "city": "Viana",
        "state": "ES",
        "district": "Centro",
        "street": "Rua João Nascimento",
        "zipcode": "29130-275"
    },
    {
        "city": "Viana",
        "state": "ES",
        "district": "Centro",
        "street": "Avenida Beira Rio",
        "zipcode": "29130-278"
    },
    {
        "city": "Viana",
        "state": "ES",
        "district": "Boa Esperança",
        "street": "Avenida Quinze",
        "zipcode": "29130-315"
    },
    {
        "city": "Viana",
        "state": "ES",
        "district": "Boa Esperança",
        "street": "Rua Doutor Raul Hilário",
        "zipcode": "29130-312"
    },
    {
        "city": "Viana",
        "state": "ES",
        "district": "Centro",
        "street": "Praça Soldado Apolinário",
        "zipcode": "29130-114"
    },
    {
        "city": "Viana",
        "state": "ES",
        "district": "Centro",
        "street": "Rua Ovidio Alvarenga",
        "zipcode": "29130-193"
    },
    {
        "city": "Viana",
        "state": "ES",
        "district": "Centro",
        "street": "Praça Írio Pinto Lopes",
        "zipcode": "29130-185"
    },
    {
        "city": "Viana",
        "state": "ES",
        "district": "Areinha",
        "street": "Rua Iguatemi",
        "zipcode": "29137-207"
    },
    {
        "city": "Viana",
        "state": "ES",
        "district": "Centro",
        "street": "Rua Basílio Lyra",
        "zipcode": "29130-181"
    },
    {
        "city": "Viana",
        "state": "ES",
        "district": "Centro",
        "street": "Rua Dulcino Coelho",
        "zipcode": "29130-257"
    },
    {
        "city": "Viana",
        "state": "ES",
        "district": "Boa Esperança",
        "street": "Rua Militino Miranda",
        "zipcode": "29130-333"
    },
    {
        "city": "Viana",
        "state": "ES",
        "district": "Centro",
        "street": "Rua Militino Miranda",
        "zipcode": "29130-266"
    },
    {
        "city": "Viana",
        "state": "ES",
        "district": "Centro",
        "street": "Rua Doutor Rodolfo Cabas",
        "zipcode": "29130-254"
    },
    {
        "city": "Viana",
        "state": "ES",
        "district": "Jucu",
        "street": "Rua Quinze",
        "zipcode": "29131-006"
    },
    {
        "city": "Viana",
        "state": "ES",
        "district": "Jucu",
        "street": "Rua Cinco",
        "zipcode": "29131-009"
    },
    {
        "city": "Viana",
        "state": "ES",
        "district": "Centro",
        "street": "Rua Ormindo de Oliveira Barcellos",
        "zipcode": "29130-115"
    },
    {
        "city": "Viana",
        "state": "ES",
        "district": "Centro",
        "street": "Avenida Doutor Denizar Santos",
        "zipcode": "29130-284"
    },
    {
        "city": "Viana",
        "state": "ES",
        "district": "Centro",
        "street": "Beco Braga Moraes",
        "zipcode": "29130-190"
    },
    {
        "city": "Viana",
        "state": "ES",
        "district": "Jucu",
        "street": "Rua Jason Vieira Sanglard",
        "zipcode": "29131-003"
    },
    {
        "city": "Viana",
        "state": "ES",
        "district": "Centro",
        "street": "Beco Lacy Bravin Ruin",
        "zipcode": "29130-160"
    },
    {
        "city": "Viana",
        "state": "ES",
        "district": "Boa Esperança",
        "street": "Rua Doutor Denizar Santos",
        "zipcode": "29130-309"
    },
    {
        "city": "Viana",
        "state": "ES",
        "district": "Centro",
        "street": "Rua Doutor Raul Hilário Filho",
        "zipcode": "29130-281"
    },
    {
        "city": "Viana",
        "state": "ES",
        "district": "Centro",
        "street": "Rua Heribaldo Lopes Balestrero",
        "zipcode": "29130-133"
    },
    {
        "city": "Viana",
        "state": "ES",
        "district": "Boa Esperança",
        "street": "Rua João Nascimento",
        "zipcode": "29130-324"
    },
    {
        "city": "Viana",
        "state": "ES",
        "district": "Boa Esperança",
        "street": "Avenida Rio de Janeiro",
        "zipcode": "29130-327"
    },
    {
        "city": "Viana",
        "state": "ES",
        "district": "Boa Esperança",
        "street": "Avenida Aníbal Moutinho",
        "zipcode": "29130-336"
    },
    {
        "city": "Viana",
        "state": "ES",
        "district": "Boa Esperança",
        "street": "Rua Carlos Paulo Silva",
        "zipcode": "29130-321"
    },
    {
        "city": "Viana",
        "state": "ES",
        "district": "São Paulo Setor IV",
        "street": "Comunidade São Paulo de Cima",
        "zipcode": "29130-526"
    },
    {
        "city": "Viana",
        "state": "ES",
        "district": "Canaã",
        "street": "Rua Curitiba",
        "zipcode": "29135-020"
    },
    {
        "city": "Viana",
        "state": "ES",
        "district": "Boa Esperança",
        "street": "Rodovia BR",
        "zipcode": "29130-306"
    },
    {
        "city": "Viana",
        "state": "ES",
        "district": "Primavera",
        "street": "Rua Ana Paula",
        "zipcode": "29135-237"
    },
    {
        "city": "Viana",
        "state": "ES",
        "district": "Jucu",
        "street": "Rodovia Governador Mário Govas",
        "zipcode": "29131-002"
    },
    {
        "city": "Viana",
        "state": "ES",
        "district": "Centro",
        "street": "Rua Domingos Vicente",
        "zipcode": "29130-911"
    },
    {
        "city": "Viana",
        "state": "ES",
        "district": "Centro",
        "street": "Rua Governador Rubim",
        "zipcode": "29130-905"
    },
    {
        "city": "Viana",
        "state": "ES",
        "district": "Jucu",
        "street": "Rua Quatro",
        "zipcode": "29131-012"
    },
    {
        "city": "Viana",
        "state": "ES",
        "district": "Jucu",
        "street": "Rua Sebastião Correia",
        "zipcode": "29131-015"
    },
    {
        "city": "Viana",
        "state": "ES",
        "district": "Jucu",
        "street": "Rua Seis",
        "zipcode": "29131-018"
    },
    {
        "city": "Viana",
        "state": "ES",
        "district": "Jucu",
        "street": "Rua Augusto Soares",
        "zipcode": "29131-087"
    },
    {
        "city": "Viana",
        "state": "ES",
        "district": "Jucu",
        "street": "Rua Antônio Menezes",
        "zipcode": "29131-060"
    },
    {
        "city": "Viana",
        "state": "ES",
        "district": "Jucu",
        "street": "Rua Boa Vista",
        "zipcode": "29131-072"
    },
    {
        "city": "Viana",
        "state": "ES",
        "district": "Jucu",
        "street": "Rua Nossa Senhora de Belém",
        "zipcode": "29131-081"
    },
    {
        "city": "Viana",
        "state": "ES",
        "district": "Jucu",
        "street": "Rua Moisés Gera",
        "zipcode": "29131-084"
    },
    {
        "city": "Viana",
        "state": "ES",
        "district": "Araçatiba",
        "street": "Rua João Colombo Neves",
        "zipcode": "29131-353"
    },
    {
        "city": "Viana",
        "state": "ES",
        "district": "Araçatiba",
        "street": "Rua Antônio Campos",
        "zipcode": "29131-344"
    },
    {
        "city": "Viana",
        "state": "ES",
        "district": "Araçatiba",
        "street": "Rua Leôncio Sales",
        "zipcode": "29131-320"
    },
    {
        "city": "Viana",
        "state": "ES",
        "district": "Araçatiba",
        "street": "Rua Antônia Loroza",
        "zipcode": "29131-338"
    },
    {
        "city": "Viana",
        "state": "ES",
        "district": "Araçatiba",
        "street": "Rua Francisco Palassi",
        "zipcode": "29131-341"
    },
    {
        "city": "Viana",
        "state": "ES",
        "district": "Araçatiba",
        "street": "Rua João Nascimento",
        "zipcode": "29131-350"
    },
    {
        "city": "Viana",
        "state": "ES",
        "district": "Araçatiba",
        "street": "Rodovia Governador Mário Govas",
        "zipcode": "29131-368"
    },
    {
        "city": "Viana",
        "state": "ES",
        "district": "Araçatiba",
        "street": "Rodovia Governador Mário Govas",
        "zipcode": "29131-366"
    },
    {
        "city": "Viana",
        "state": "ES",
        "district": "Pedra da Mulata Setor I",
        "street": "Comunidade Bom Jesus",
        "zipcode": "29131-404"
    },
    {
        "city": "Viana",
        "state": "ES",
        "district": "São Paulo Setor IV",
        "street": "Comunidade Bico do Grilo",
        "zipcode": "29130-504"
    },
    {
        "city": "Viana",
        "state": "ES",
        "district": "Jucu",
        "street": "Ladeira Miguel Alves Lima",
        "zipcode": "29131-075"
    },
    {
        "city": "Viana",
        "state": "ES",
        "district": "Pedra da Mulata Setor I",
        "street": "Comunidade Alecrim",
        "zipcode": "29131-402"
    },
    {
        "city": "Viana",
        "state": "ES",
        "district": "Jucu",
        "street": "Travessa Antônio Menezes",
        "zipcode": "29131-063"
    },
    {
        "city": "Viana",
        "state": "ES",
        "district": "São Paulo Setor IV",
        "street": "Comunidade Glória",
        "zipcode": "29130-514"
    },
    {
        "city": "Viana",
        "state": "ES",
        "district": "Jucu",
        "street": "Rua Miguel Rodrigues de Lima",
        "zipcode": "29131-105"
    },
    {
        "city": "Viana",
        "state": "ES",
        "district": "São Paulo Setor IV",
        "street": "Comunidade Uruba",
        "zipcode": "29130-532"
    },
    {
        "city": "Viana",
        "state": "ES",
        "district": "Jucu",
        "street": "Rua Alcides Rodrigues Sales",
        "zipcode": "29131-039"
    },
    {
        "city": "Viana",
        "state": "ES",
        "district": "São Paulo Setor IV",
        "street": "Comunidade São Paulo",
        "zipcode": "29130-534"
    },
    {
        "city": "Viana",
        "state": "ES",
        "district": "Jucu",
        "street": "Rua Rita Bragança",
        "zipcode": "29131-057"
    },
    {
        "city": "Viana",
        "state": "ES",
        "district": "Pedra da Mulata Setor I",
        "street": "Comunidade Crubixá",
        "zipcode": "29131-416"
    },
    {
        "city": "Viana",
        "state": "ES",
        "district": "Boa Esperança",
        "street": "Rua Antônio Malheiro",
        "zipcode": "29130-339"
    },
    {
        "city": "Viana",
        "state": "ES",
        "district": "Jucu",
        "street": "Rua Cristina Rober Leopansn",
        "zipcode": "29131-021"
    },
    {
        "city": "Viana",
        "state": "ES",
        "district": "São Paulo Setor IV",
        "street": "Comunidade Monte Verde",
        "zipcode": "29130-516"
    },
    {
        "city": "Viana",
        "state": "ES",
        "district": "Araçatiba",
        "street": "Rua Zeolino Pinto",
        "zipcode": "29131-326"
    },
    {
        "city": "Viana",
        "state": "ES",
        "district": "São Paulo Setor IV",
        "street": "Comunidade Alegre",
        "zipcode": "29130-502"
    },
    {
        "city": "Viana",
        "state": "ES",
        "district": "Jucu",
        "street": "Rua Erwin Balle",
        "zipcode": "29131-099"
    },
    {
        "city": "Viana",
        "state": "ES",
        "district": "Araçatiba",
        "street": "Rua Mãe Petronilha",
        "zipcode": "29131-332"
    },
    {
        "city": "Viana",
        "state": "ES",
        "district": "Pedra da Mulata Setor I",
        "street": "Comunidade Caramuru",
        "zipcode": "29131-410"
    },
    {
        "city": "Viana",
        "state": "ES",
        "district": "Jucu",
        "street": "Rua Ondina Teixeira",
        "zipcode": "29131-069"
    },
    {
        "city": "Viana",
        "state": "ES",
        "district": "São Paulo Setor IV",
        "street": "Comunidade Duas Bocas",
        "zipcode": "29130-512"
    },
    {
        "city": "Viana",
        "state": "ES",
        "district": "São Paulo Setor IV",
        "street": "Comunidade Três Barras",
        "zipcode": "29130-528"
    },
    {
        "city": "Viana",
        "state": "ES",
        "district": "Pedra da Mulata Setor I",
        "street": "Comunidade Taquaras",
        "zipcode": "29131-444"
    },
    {
        "city": "Viana",
        "state": "ES",
        "district": "Jucu",
        "street": "Rua Alcides Boldrinni",
        "zipcode": "29131-045"
    },
    {
        "city": "Viana",
        "state": "ES",
        "district": "Jucu",
        "street": "Avenida Ondina Teixeira",
        "zipcode": "29131-054"
    },
    {
        "city": "Viana",
        "state": "ES",
        "district": "Pedra da Mulata Setor I",
        "street": "Comunidade Lapinha",
        "zipcode": "29131-422"
    },
    {
        "city": "Viana",
        "state": "ES",
        "district": "Pedra da Mulata Setor I",
        "street": "Comunidade Santa Rita",
        "zipcode": "29131-436"
    },
    {
        "city": "Viana",
        "state": "ES",
        "district": "São Paulo Setor IV",
        "street": "Comunidade Vargem Grande",
        "zipcode": "29130-530"
    },
    {
        "city": "Viana",
        "state": "ES",
        "district": "Araçatiba",
        "street": "Rua Narcísio Machado",
        "zipcode": "29131-329"
    },
    {
        "city": "Viana",
        "state": "ES",
        "district": "São Paulo Setor IV",
        "street": "Comunidade Bico do Galo",
        "zipcode": "29130-506"
    },
    {
        "city": "Viana",
        "state": "ES",
        "district": "Pedra da Mulata Setor I",
        "street": "Comunidade Canto Grande",
        "zipcode": "29131-408"
    },
    {
        "city": "Viana",
        "state": "ES",
        "district": "Jucu Setor II",
        "street": "Comunidade Boa Baixa",
        "zipcode": "29132-008"
    },
    {
        "city": "Viana",
        "state": "ES",
        "district": "Pedra da Mulata Setor I",
        "street": "Comunidade Bonito",
        "zipcode": "29131-406"
    },
    {
        "city": "Viana",
        "state": "ES",
        "district": "Pedra da Mulata Setor I",
        "street": "Comunidade Carioca",
        "zipcode": "29131-412"
    },
    {
        "city": "Viana",
        "state": "ES",
        "district": "Araçatiba",
        "street": "Rua José Carvalho",
        "zipcode": "29131-347"
    },
    {
        "city": "Viana",
        "state": "ES",
        "district": "Pedra da Mulata Setor I",
        "street": "Comunidade Nova Manta",
        "zipcode": "29131-428"
    },
    {
        "city": "Viana",
        "state": "ES",
        "district": "Jucu",
        "street": "Rua Eudorico Viana",
        "zipcode": "29131-078"
    },
    {
        "city": "Viana",
        "state": "ES",
        "district": "Pedra da Mulata Setor I",
        "street": "Comunidade Estação",
        "zipcode": "29131-446"
    },
    {
        "city": "Viana",
        "state": "ES",
        "district": "Universal",
        "street": "Rua Vila B",
        "zipcode": "29134-670"
    },
    {
        "city": "Viana",
        "state": "ES",
        "district": "Universal",
        "street": "Rua Goiás",
        "zipcode": "29134-439"
    },
    {
        "city": "Viana",
        "state": "ES",
        "district": "Bom Pastor",
        "street": "Avenida Sagarana",
        "zipcode": "29132-536"
    },
    {
        "city": "Viana",
        "state": "ES",
        "district": "Bom Pastor",
        "street": "Rua Ari Barroso",
        "zipcode": "29132-542"
    },
    {
        "city": "Viana",
        "state": "ES",
        "district": "Bom Pastor",
        "street": "Rua Orestes Barbosa",
        "zipcode": "29132-548"
    },
    {
        "city": "Viana",
        "state": "ES",
        "district": "Bom Pastor",
        "street": "Rua Sumaré",
        "zipcode": "29132-551"
    },
    {
        "city": "Viana",
        "state": "ES",
        "district": "Bom Pastor",
        "street": "Rua Francisco Alves",
        "zipcode": "29132-557"
    },
    {
        "city": "Viana",
        "state": "ES",
        "district": "Bom Pastor",
        "street": "Rua Guaratiba",
        "zipcode": "29132-560"
    },
    {
        "city": "Viana",
        "state": "ES",
        "district": "Bom Pastor",
        "street": "Rua Tocantins",
        "zipcode": "29132-563"
    },
    {
        "city": "Viana",
        "state": "ES",
        "district": "Bom Pastor",
        "street": "Rua Pasteur",
        "zipcode": "29132-566"
    },
    {
        "city": "Viana",
        "state": "ES",
        "district": "Bom Pastor",
        "street": "Rua Buritis",
        "zipcode": "29132-585"
    },
    {
        "city": "Viana",
        "state": "ES",
        "district": "Universal",
        "street": "Rua Santa Helena",
        "zipcode": "29134-409"
    },
    {
        "city": "Viana",
        "state": "ES",
        "district": "Universal",
        "street": "Rua São José",
        "zipcode": "29134-415"
    },
    {
        "city": "Viana",
        "state": "ES",
        "district": "Universal",
        "street": "Rua São João",
        "zipcode": "29134-421"
    },
    {
        "city": "Viana",
        "state": "ES",
        "district": "Ribeira",
        "street": "Rua Antônio Rodrigues Siqueira",
        "zipcode": "29132-708"
    },
    {
        "city": "Viana",
        "state": "ES",
        "district": "Ribeira",
        "street": "Rua Castorina Rodrigues Siqueira",
        "zipcode": "29132-711"
    },
    {
        "city": "Viana",
        "state": "ES",
        "district": "Ribeira",
        "street": "Travessa Castorina Rodrigues Siqueira",
        "zipcode": "29132-714"
    },
    {
        "city": "Viana",
        "state": "ES",
        "district": "Bom Pastor",
        "street": "Rua Itu",
        "zipcode": "29132-605"
    },
    {
        "city": "Viana",
        "state": "ES",
        "district": "Bom Pastor",
        "street": "Rua Piratininga",
        "zipcode": "29132-611"
    },
    {
        "city": "Viana",
        "state": "ES",
        "district": "Bom Pastor",
        "street": "Rua Morumbi",
        "zipcode": "29132-620"
    },
    {
        "city": "Viana",
        "state": "ES",
        "district": "Bom Pastor",
        "street": "Rua Anhanguera",
        "zipcode": "29132-627"
    },
    {
        "city": "Viana",
        "state": "ES",
        "district": "Bom Pastor",
        "street": "Rua Um",
        "zipcode": "29132-642"
    },
    {
        "city": "Viana",
        "state": "ES",
        "district": "Bom Pastor",
        "street": "Rua Floriano Corradi",
        "zipcode": "29132-648"
    },
    {
        "city": "Viana",
        "state": "ES",
        "district": "Jucu Setor II",
        "street": "Comunidade Santa Clara",
        "zipcode": "29132-006"
    },
    {
        "city": "Viana",
        "state": "ES",
        "district": "Pedra da Mulata Setor I",
        "street": "Comunidade Montalvão",
        "zipcode": "29131-424"
    },
    {
        "city": "Viana",
        "state": "ES",
        "district": "Pedra da Mulata Setor I",
        "street": "Comunidade São Roque",
        "zipcode": "29131-442"
    },
    {
        "city": "Viana",
        "state": "ES",
        "district": "Bom Pastor",
        "street": "Beco Santa Maria",
        "zipcode": "29132-624"
    },
    {
        "city": "Viana",
        "state": "ES",
        "district": "Bom Pastor",
        "street": "Rua Noel Rosa",
        "zipcode": "29132-539"
    },
    {
        "city": "Viana",
        "state": "ES",
        "district": "Jucu Setor II",
        "street": "Comunidade Mamoeiro",
        "zipcode": "29132-022"
    },
    {
        "city": "Viana",
        "state": "ES",
        "district": "Bom Pastor",
        "street": "Rua Iraci Paiva",
        "zipcode": "29132-645"
    },
    {
        "city": "Viana",
        "state": "ES",
        "district": "Jucu Setor II",
        "street": "Comunidade Cotia",
        "zipcode": "29132-012"
    },
    {
        "city": "Viana",
        "state": "ES",
        "district": "Bom Pastor",
        "street": "Rua Luiz Vaz de Camões",
        "zipcode": "29132-579"
    },
    {
        "city": "Viana",
        "state": "ES",
        "district": "Bom Pastor",
        "street": "Rua Aracê",
        "zipcode": "29132-588"
    },
    {
        "city": "Viana",
        "state": "ES",
        "district": "Jucu Setor II",
        "street": "Comunidade Três Rios",
        "zipcode": "29132-042"
    },
    {
        "city": "Viana",
        "state": "ES",
        "district": "Jucu Setor II",
        "street": "Comunidade Ladeira Grande",
        "zipcode": "29132-020"
    },
    {
        "city": "Viana",
        "state": "ES",
        "district": "Bom Pastor",
        "street": "Rua Cyro Monteiro",
        "zipcode": "29132-533"
    },
    {
        "city": "Viana",
        "state": "ES",
        "district": "Pedra da Mulata Setor I",
        "street": "Comunidade Manteiga",
        "zipcode": "29131-420"
    },
    {
        "city": "Viana",
        "state": "ES",
        "district": "Jucu Setor II",
        "street": "Comunidade Jucuruaba",
        "zipcode": "29132-004"
    },
    {
        "city": "Viana",
        "state": "ES",
        "district": "Jucu Setor II",
        "street": "Comunidade Morobá",
        "zipcode": "29132-024"
    },
    {
        "city": "Viana",
        "state": "ES",
        "district": "Jucu Setor II",
        "street": "Comunidade Quiçambé",
        "zipcode": "29132-030"
    },
    {
        "city": "Viana",
        "state": "ES",
        "district": "Bom Pastor",
        "street": "Rua Verônica Folli da Silva",
        "zipcode": "29132-636"
    },
    {
        "city": "Viana",
        "state": "ES",
        "district": "Bom Pastor",
        "street": "Rua Pedro Huber",
        "zipcode": "29132-651"
    },
    {
        "city": "Viana",
        "state": "ES",
        "district": "Bom Pastor",
        "street": "Rua Edson Carneiro",
        "zipcode": "29132-630"
    },
    {
        "city": "Viana",
        "state": "ES",
        "district": "Bom Pastor",
        "street": "Avenida Hilda Brandão Pimentel",
        "zipcode": "29132-639"
    },
    {
        "city": "Viana",
        "state": "ES",
        "district": "Jucu Setor II",
        "street": "Comunidade Araçatiba",
        "zipcode": "29132-002"
    },
    {
        "city": "Viana",
        "state": "ES",
        "district": "Jucu Setor II",
        "street": "Comunidade Seringal",
        "zipcode": "29132-034"
    },
    {
        "city": "Viana",
        "state": "ES",
        "district": "Pedra da Mulata Setor I",
        "street": "Comunidade São Rafael",
        "zipcode": "29131-440"
    },
    {
        "city": "Viana",
        "state": "ES",
        "district": "Jucu Setor II",
        "street": "Comunidade Morro Seco",
        "zipcode": "29132-028"
    },
    {
        "city": "Viana",
        "state": "ES",
        "district": "Universal",
        "street": "Rua Machado de Assis",
        "zipcode": "29134-451"
    },
    {
        "city": "Viana",
        "state": "ES",
        "district": "Bom Pastor",
        "street": "Rua Garcia Lorca",
        "zipcode": "29132-591"
    },
    {
        "city": "Viana",
        "state": "ES",
        "district": "Ribeira",
        "street": "Alameda Castorina Rodrigues Siqueira",
        "zipcode": "29132-717"
    },
    {
        "city": "Viana",
        "state": "ES",
        "district": "Bom Pastor",
        "street": "Rua do Irerê",
        "zipcode": "29132-582"
    },
    {
        "city": "Viana",
        "state": "ES",
        "district": "Universal",
        "street": "Rua José Ferreira de Lima",
        "zipcode": "29134-406"
    },
    {
        "city": "Viana",
        "state": "ES",
        "district": "Bom Pastor",
        "street": "Rua Ipê",
        "zipcode": "29132-614"
    },
    {
        "city": "Viana",
        "state": "ES",
        "district": "Piapitangui Setor III",
        "street": "Comunidade Borbas",
        "zipcode": "29134-004"
    },
    {
        "city": "Viana",
        "state": "ES",
        "district": "Ribeira",
        "street": "Rua Odon Nascimento",
        "zipcode": "29132-732"
    },
    {
        "city": "Viana",
        "state": "ES",
        "district": "Piapitangui Setor III",
        "street": "Comunidade Piapitangui",
        "zipcode": "29134-030"
    },
    {
        "city": "Viana",
        "state": "ES",
        "district": "Universal",
        "street": "Rua Carlos Alberto Nascimento",
        "zipcode": "29134-457"
    },
    {
        "city": "Viana",
        "state": "ES",
        "district": "Jucu Setor II",
        "street": "Comunidade Tanque",
        "zipcode": "29132-036"
    },
    {
        "city": "Viana",
        "state": "ES",
        "district": "Bom Pastor",
        "street": "Travessa Pedro Huber",
        "zipcode": "29132-660"
    },
    {
        "city": "Viana",
        "state": "ES",
        "district": "Bom Pastor",
        "street": "Rua Pastor Gezo Gonçalves",
        "zipcode": "29132-617"
    },
    {
        "city": "Viana",
        "state": "ES",
        "district": "Universal",
        "street": "Rua Sete de Setembro",
        "zipcode": "29134-424"
    },
    {
        "city": "Viana",
        "state": "ES",
        "district": "Jucu Setor II",
        "street": "Comunidade Samborque",
        "zipcode": "29132-032"
    },
    {
        "city": "Viana",
        "state": "ES",
        "district": "Bom Pastor",
        "street": "Rodovia Governador Mário Covas",
        "zipcode": "29132-665"
    },
    {
        "city": "Viana",
        "state": "ES",
        "district": "Canaã",
        "street": "Rua José de Souza",
        "zipcode": "29135-023"
    },
    {
        "city": "Viana",
        "state": "ES",
        "district": "Canaã",
        "street": "Rua Santos Dumont",
        "zipcode": "29135-026"
    },
    {
        "city": "Viana",
        "state": "ES",
        "district": "Canaã",
        "street": "Rua Barra Seca",
        "zipcode": "29135-029"
    },
    {
        "city": "Viana",
        "state": "ES",
        "district": "Canaã",
        "street": "Rua dos Pires",
        "zipcode": "29135-035"
    },
    {
        "city": "Viana",
        "state": "ES",
        "district": "Canaã",
        "street": "Rua Central",
        "zipcode": "29135-038"
    },
    {
        "city": "Viana",
        "state": "ES",
        "district": "Universal",
        "street": "Rua Quarenta e Sete",
        "zipcode": "29134-577"
    },
    {
        "city": "Viana",
        "state": "ES",
        "district": "Universal",
        "street": "Rua Fortaleza",
        "zipcode": "29134-583"
    },
    {
        "city": "Viana",
        "state": "ES",
        "district": "Universal",
        "street": "Rua Barcelona",
        "zipcode": "29134-592"
    },
    {
        "city": "Viana",
        "state": "ES",
        "district": "Universal",
        "street": "Rua Diamantina",
        "zipcode": "29134-598"
    },
    {
        "city": "Viana",
        "state": "ES",
        "district": "Universal",
        "street": "Rua Quarenta e Quatro",
        "zipcode": "29134-604"
    },
    {
        "city": "Viana",
        "state": "ES",
        "district": "Universal",
        "street": "Rua Gomes da Silva",
        "zipcode": "29134-625"
    },
    {
        "city": "Viana",
        "state": "ES",
        "district": "Universal",
        "street": "Rua Pedro Palácio",
        "zipcode": "29134-634"
    },
    {
        "city": "Viana",
        "state": "ES",
        "district": "Universal",
        "street": "Rua 13 de Maio",
        "zipcode": "29134-649"
    },
    {
        "city": "Viana",
        "state": "ES",
        "district": "Universal",
        "street": "Rua Loredo",
        "zipcode": "29134-652"
    },
    {
        "city": "Viana",
        "state": "ES",
        "district": "Universal",
        "street": "Rua São Vicente",
        "zipcode": "29134-658"
    },
    {
        "city": "Viana",
        "state": "ES",
        "district": "Universal",
        "street": "Rua Getúlio Vargas",
        "zipcode": "29134-676"
    },
    {
        "city": "Viana",
        "state": "ES",
        "district": "Universal",
        "street": "Rua Cosseno",
        "zipcode": "29134-680"
    },
    {
        "city": "Viana",
        "state": "ES",
        "district": "Universal",
        "street": "Rua Antonio Conde",
        "zipcode": "29134-686"
    },
    {
        "city": "Viana",
        "state": "ES",
        "district": "Universal",
        "street": "Rua Santo Antonio",
        "zipcode": "29134-689"
    },
    {
        "city": "Viana",
        "state": "ES",
        "district": "Universal",
        "street": "Rua Duque de Caxias",
        "zipcode": "29134-695"
    },
    {
        "city": "Viana",
        "state": "ES",
        "district": "Universal",
        "street": "Rua Egisto Botelho de Almeida",
        "zipcode": "29134-698"
    },
    {
        "city": "Viana",
        "state": "ES",
        "district": "Universal",
        "street": "Rua Missionária",
        "zipcode": "29134-463"
    },
    {
        "city": "Viana",
        "state": "ES",
        "district": "Piapitangui Setor III",
        "street": "Rua Moendas",
        "zipcode": "29134-018"
    },
    {
        "city": "Viana",
        "state": "ES",
        "district": "Bom Pastor",
        "street": "Travessa Floriano Corradi",
        "zipcode": "29132-657"
    },
    {
        "city": "Viana",
        "state": "ES",
        "district": "Universal",
        "street": "Travessa Carlos Gomes",
        "zipcode": "29134-613"
    },
    {
        "city": "Viana",
        "state": "ES",
        "district": "Universal",
        "street": "Rua Beija Flor",
        "zipcode": "29134-460"
    },
    {
        "city": "Viana",
        "state": "ES",
        "district": "Piapitangui Setor III",
        "street": "Comunidade Perobas",
        "zipcode": "29134-024"
    },
    {
        "city": "Viana",
        "state": "ES",
        "district": "Universal",
        "street": "Rua Guarani",
        "zipcode": "29134-559"
    },
    {
        "city": "Viana",
        "state": "ES",
        "district": "Universal",
        "street": "Rua Flauzilio Vaccari",
        "zipcode": "29134-692"
    },
    {
        "city": "Viana",
        "state": "ES",
        "district": "Ribeira",
        "street": "Rua Sebastião Siqueira",
        "zipcode": "29132-699"
    },
    {
        "city": "Viana",
        "state": "ES",
        "district": "Canaã",
        "street": "Rua Tavares Neto",
        "zipcode": "29135-011"
    },
    {
        "city": "Viana",
        "state": "ES",
        "district": "Universal",
        "street": "Rua Rodrigues Neto",
        "zipcode": "29134-664"
    },
    {
        "city": "Viana",
        "state": "ES",
        "district": "Universal",
        "street": "Rua Carlos Gomes",
        "zipcode": "29134-628"
    },
    {
        "city": "Viana",
        "state": "ES",
        "district": "Piapitangui Setor III",
        "street": "Comunidade Moinhos",
        "zipcode": "29134-020"
    },
    {
        "city": "Viana",
        "state": "ES",
        "district": "Piapitangui Setor III",
        "street": "Comunidade Povoação",
        "zipcode": "29134-034"
    },
    {
        "city": "Viana",
        "state": "ES",
        "district": "Piapitangui Setor III",
        "street": "Comunidade Cabral",
        "zipcode": "29134-006"
    },
    {
        "city": "Viana",
        "state": "ES",
        "district": "Bom Pastor",
        "street": "Rua Itaipu",
        "zipcode": "29132-595"
    },
    {
        "city": "Viana",
        "state": "ES",
        "district": "Bom Pastor",
        "street": "Rua Malvino Cezarino Sobrinho",
        "zipcode": "29132-663"
    },
    {
        "city": "Viana",
        "state": "ES",
        "district": "Piapitangui Setor III",
        "street": "Comunidade Jatitá",
        "zipcode": "29134-016"
    },
    {
        "city": "Viana",
        "state": "ES",
        "district": "Piapitangui Setor III",
        "street": "Comunidade Pirão Sem Sal",
        "zipcode": "29134-032"
    },
    {
        "city": "Viana",
        "state": "ES",
        "district": "Universal",
        "street": "Travessa do Flamengo",
        "zipcode": "29134-442"
    },
    {
        "city": "Viana",
        "state": "ES",
        "district": "Piapitangui Setor III",
        "street": "Comunidade Itapoca",
        "zipcode": "29134-012"
    },
    {
        "city": "Viana",
        "state": "ES",
        "district": "Universal",
        "street": "Rua Pouso Alegre",
        "zipcode": "29134-637"
    },
    {
        "city": "Viana",
        "state": "ES",
        "district": "Universal",
        "street": "Rua Thomé de Souza",
        "zipcode": "29134-610"
    },
    {
        "city": "Viana",
        "state": "ES",
        "district": "Universal",
        "street": "Rua 22 de Abril",
        "zipcode": "29134-640"
    },
    {
        "city": "Viana",
        "state": "ES",
        "district": "Universal",
        "street": "Rua Gama",
        "zipcode": "29134-466"
    },
    {
        "city": "Viana",
        "state": "ES",
        "district": "Universal",
        "street": "Rua Vista Linda",
        "zipcode": "29134-469"
    },
    {
        "city": "Viana",
        "state": "ES",
        "district": "Universal",
        "street": "Rua X",
        "zipcode": "29134-479"
    },
    {
        "city": "Viana",
        "state": "ES",
        "district": "Universal",
        "street": "Rua Piracicaba",
        "zipcode": "29134-488"
    },
    {
        "city": "Viana",
        "state": "ES",
        "district": "Universal",
        "street": "Rua Presidente Kennedy",
        "zipcode": "29134-491"
    },
    {
        "city": "Viana",
        "state": "ES",
        "district": "Universal",
        "street": "Rua Dom Pedro II",
        "zipcode": "29134-501"
    },
    {
        "city": "Viana",
        "state": "ES",
        "district": "Universal",
        "street": "Rua Colatina",
        "zipcode": "29134-507"
    },
    {
        "city": "Viana",
        "state": "ES",
        "district": "Universal",
        "street": "Rua Pastor Gezo Gonçalves",
        "zipcode": "29134-473"
    },
    {
        "city": "Viana",
        "state": "ES",
        "district": "Universal",
        "street": "Rua Florianópolis",
        "zipcode": "29134-589"
    },
    {
        "city": "Viana",
        "state": "ES",
        "district": "Universal",
        "street": "Rua Caetano da Silva",
        "zipcode": "29134-607"
    },
    {
        "city": "Viana",
        "state": "ES",
        "district": "Universal",
        "street": "Rua Paulista",
        "zipcode": "29134-622"
    },
    {
        "city": "Viana",
        "state": "ES",
        "district": "Universal",
        "street": "Rua Barão do Rio Branco",
        "zipcode": "29134-586"
    },
    {
        "city": "Viana",
        "state": "ES",
        "district": "Universal",
        "street": "Rua Castelo Branco",
        "zipcode": "29134-562"
    },
    {
        "city": "Viana",
        "state": "ES",
        "district": "Universal",
        "street": "Rua Presidente Vargas",
        "zipcode": "29134-504"
    },
    {
        "city": "Viana",
        "state": "ES",
        "district": "Universal",
        "street": "Rua Marquês de Barbacena",
        "zipcode": "29134-595"
    },
    {
        "city": "Viana",
        "state": "ES",
        "district": "Piapitangui Setor III",
        "street": "Comunidade Jabaquara",
        "zipcode": "29134-014"
    },
    {
        "city": "Viana",
        "state": "ES",
        "district": "Piapitangui Setor III",
        "street": "Comunidade Coacas",
        "zipcode": "29134-008"
    },
    {
        "city": "Viana",
        "state": "ES",
        "district": "Universal",
        "street": "Rua Formate",
        "zipcode": "29134-703"
    },
    {
        "city": "Viana",
        "state": "ES",
        "district": "Universal",
        "street": "Rua Tancredo Neves",
        "zipcode": "29134-510"
    },
    {
        "city": "Viana",
        "state": "ES",
        "district": "Universal",
        "street": "Rua Evaristo Canal",
        "zipcode": "29134-513"
    },
    {
        "city": "Viana",
        "state": "ES",
        "district": "Universal",
        "street": "Rua Elizabeth II",
        "zipcode": "29134-526"
    },
    {
        "city": "Viana",
        "state": "ES",
        "district": "Universal",
        "street": "Rua Rio Doce",
        "zipcode": "29134-532"
    },
    {
        "city": "Viana",
        "state": "ES",
        "district": "Universal",
        "street": "Rua Carlos Drumond de Andrade",
        "zipcode": "29134-535"
    },
    {
        "city": "Viana",
        "state": "ES",
        "district": "Universal",
        "street": "Rua Santos Dumont",
        "zipcode": "29134-538"
    },
    {
        "city": "Viana",
        "state": "ES",
        "district": "Universal",
        "street": "Rua Rui Barbosa",
        "zipcode": "29134-544"
    },
    {
        "city": "Viana",
        "state": "ES",
        "district": "Canaã",
        "street": "Rodovia BR",
        "zipcode": "29135-001"
    },
    {
        "city": "Viana",
        "state": "ES",
        "district": "Canaã",
        "street": "Rua Amazonas",
        "zipcode": "29135-044"
    },
    {
        "city": "Viana",
        "state": "ES",
        "district": "Canaã",
        "street": "Rua Resplendor",
        "zipcode": "29135-056"
    },
    {
        "city": "Viana",
        "state": "ES",
        "district": "Canaã",
        "street": "Rua Francisco",
        "zipcode": "29135-060"
    },
    {
        "city": "Viana",
        "state": "ES",
        "district": "Canaã",
        "street": "Rua Monte Pascoal",
        "zipcode": "29135-076"
    },
    {
        "city": "Viana",
        "state": "ES",
        "district": "Canaã",
        "street": "Rua Bom Pastor",
        "zipcode": "29135-097"
    },
    {
        "city": "Viana",
        "state": "ES",
        "district": "Canaã",
        "street": "Rua das Hortênsias",
        "zipcode": "29135-100"
    },
    {
        "city": "Viana",
        "state": "ES",
        "district": "Canaã",
        "street": "Rua Primavera",
        "zipcode": "29135-103"
    },
    {
        "city": "Viana",
        "state": "ES",
        "district": "Canaã",
        "street": "Rua Niterói",
        "zipcode": "29135-106"
    },
    {
        "city": "Viana",
        "state": "ES",
        "district": "Canaã",
        "street": "Rua São Paulo",
        "zipcode": "29135-112"
    },
    {
        "city": "Viana",
        "state": "ES",
        "district": "Canaã",
        "street": "Rua Nove",
        "zipcode": "29135-115"
    },
    {
        "city": "Viana",
        "state": "ES",
        "district": "Primavera",
        "street": "Rua Galdino Pimentel",
        "zipcode": "29135-204"
    },
    {
        "city": "Viana",
        "state": "ES",
        "district": "Marcílio de Noronha",
        "street": "Rua Galdino Pimentel",
        "zipcode": "29135-404"
    },
    {
        "city": "Viana",
        "state": "ES",
        "district": "Primavera",
        "street": "Avenida Primavera",
        "zipcode": "29135-265"
    },
    {
        "city": "Viana",
        "state": "ES",
        "district": "Marcílio de Noronha",
        "street": "Avenida Primavera",
        "zipcode": "29135-365"
    },
    {
        "city": "Viana",
        "state": "ES",
        "district": "Marcílio de Noronha",
        "street": "Rua Osasco",
        "zipcode": "29135-407"
    },
    {
        "city": "Viana",
        "state": "ES",
        "district": "Marcílio de Noronha",
        "street": "Rua São Caetano do Sul",
        "zipcode": "29135-416"
    },
    {
        "city": "Viana",
        "state": "ES",
        "district": "Marcílio de Noronha",
        "street": "Rua Marília",
        "zipcode": "29135-422"
    },
    {
        "city": "Viana",
        "state": "ES",
        "district": "Marcílio de Noronha",
        "street": "Rua Santo André",
        "zipcode": "29135-425"
    },
    {
        "city": "Viana",
        "state": "ES",
        "district": "Marcílio de Noronha",
        "street": "Rua Guarulhos",
        "zipcode": "29135-431"
    },
    {
        "city": "Viana",
        "state": "ES",
        "district": "Marcílio de Noronha",
        "street": "Rodovia BR",
        "zipcode": "29135-320"
    },
    {
        "city": "Viana",
        "state": "ES",
        "district": "Primavera",
        "street": "Rua Antonio Carlos Gerardt",
        "zipcode": "29135-167"
    },
    {
        "city": "Viana",
        "state": "ES",
        "district": "Primavera",
        "street": "Rua Presidente Tancredo Neves",
        "zipcode": "29135-170"
    },
    {
        "city": "Viana",
        "state": "ES",
        "district": "Primavera",
        "street": "Rua Cristiano Dias Lopes",
        "zipcode": "29135-180"
    },
    {
        "city": "Viana",
        "state": "ES",
        "district": "Primavera",
        "street": "Rua Clério Falcão",
        "zipcode": "29135-186"
    },
    {
        "city": "Viana",
        "state": "ES",
        "district": "Primavera",
        "street": "Rua Pernambuco",
        "zipcode": "29135-198"
    },
    {
        "city": "Viana",
        "state": "ES",
        "district": "Primavera",
        "street": "Rua Pedrelina Caetano Rodrigues",
        "zipcode": "29135-211"
    },
    {
        "city": "Viana",
        "state": "ES",
        "district": "Primavera",
        "street": "Rua João Lopes de Aquino",
        "zipcode": "29135-217"
    },
    {
        "city": "Viana",
        "state": "ES",
        "district": "Primavera",
        "street": "Rua José Marcelino de Melo",
        "zipcode": "29135-228"
    },
    {
        "city": "Viana",
        "state": "ES",
        "district": "Primavera",
        "street": "Rua Irineu Gasparini",
        "zipcode": "29135-231"
    },
    {
        "city": "Viana",
        "state": "ES",
        "district": "Canaã",
        "street": "Rua Geraldino Inácio de Oliveira",
        "zipcode": "29135-082"
    },
    {
        "city": "Viana",
        "state": "ES",
        "district": "Primavera",
        "street": "Avenida Democrata",
        "zipcode": "29135-268"
    },
    {
        "city": "Viana",
        "state": "ES",
        "district": "Primavera",
        "street": "Avenida Orlando Alfredo Schulthais",
        "zipcode": "29135-192"
    },
    {
        "city": "Viana",
        "state": "ES",
        "district": "Marcílio de Noronha",
        "street": "Rua Taubaté",
        "zipcode": "29135-428"
    },
    {
        "city": "Viana",
        "state": "ES",
        "district": "Canaã",
        "street": "Rua Ana Maria dos Santos",
        "zipcode": "29135-085"
    },
    {
        "city": "Viana",
        "state": "ES",
        "district": "Universal",
        "street": "Rua Ulisses Guimarães",
        "zipcode": "29134-547"
    },
    {
        "city": "Viana",
        "state": "ES",
        "district": "Universal",
        "street": "Praça Emílio Zekel",
        "zipcode": "29134-685"
    },
    {
        "city": "Viana",
        "state": "ES",
        "district": "Canaã",
        "street": "Rua Márcia Mariana",
        "zipcode": "29135-091"
    },
    {
        "city": "Viana",
        "state": "ES",
        "district": "Primavera",
        "street": "Rua Angelina Bortolotti",
        "zipcode": "29135-189"
    },
    {
        "city": "Viana",
        "state": "ES",
        "district": "Arlindo Villaschi",
        "street": "Rua Aquarela",
        "zipcode": "29136-236"
    },
    {
        "city": "Viana",
        "state": "ES",
        "district": "Primavera",
        "street": "Rua Delice Barbosa Gomes",
        "zipcode": "29135-234"
    },
    {
        "city": "Viana",
        "state": "ES",
        "district": "Marcílio de Noronha",
        "street": "Avenida Rio Grande do Sul",
        "zipcode": "29135-341"
    },
    {
        "city": "Viana",
        "state": "ES",
        "district": "Marcílio de Noronha",
        "street": "Rua Santa Maria",
        "zipcode": "29135-344"
    },
    {
        "city": "Viana",
        "state": "ES",
        "district": "Marcílio de Noronha",
        "street": "Rua Passo Fundo",
        "zipcode": "29135-347"
    },
    {
        "city": "Viana",
        "state": "ES",
        "district": "Marcílio de Noronha",
        "street": "Rua Gramado",
        "zipcode": "29135-353"
    },
    {
        "city": "Viana",
        "state": "ES",
        "district": "Marcílio de Noronha",
        "street": "Rua Bajé",
        "zipcode": "29135-356"
    },
    {
        "city": "Viana",
        "state": "ES",
        "district": "Marcílio de Noronha",
        "street": "Rua Pelotas",
        "zipcode": "29135-359"
    },
    {
        "city": "Viana",
        "state": "ES",
        "district": "Marcílio de Noronha",
        "street": "Rua Sorocaba",
        "zipcode": "29135-372"
    },
    {
        "city": "Viana",
        "state": "ES",
        "district": "Marcílio de Noronha",
        "street": "Rua São Vicente",
        "zipcode": "29135-378"
    },
    {
        "city": "Viana",
        "state": "ES",
        "district": "Marcílio de Noronha",
        "street": "Rua São José do Rio Preto",
        "zipcode": "29135-381"
    },
    {
        "city": "Viana",
        "state": "ES",
        "district": "Primavera",
        "street": "Rua Aristeu Módolo",
        "zipcode": "29135-195"
    },
    {
        "city": "Viana",
        "state": "ES",
        "district": "Universal",
        "street": "Estrada João Ferreira de Nascimento",
        "zipcode": "29134-720"
    },
    {
        "city": "Viana",
        "state": "ES",
        "district": "Primavera",
        "street": "Rua Florêncio de Souza",
        "zipcode": "29135-214"
    },
    {
        "city": "Viana",
        "state": "ES",
        "district": "Marcílio de Noronha",
        "street": "Rua Diadema",
        "zipcode": "29135-384"
    },
    {
        "city": "Viana",
        "state": "ES",
        "district": "Marcílio de Noronha",
        "street": "Rua Campos do Jordão",
        "zipcode": "29135-388"
    },
    {
        "city": "Viana",
        "state": "ES",
        "district": "Marcílio de Noronha",
        "street": "Rua Campinas",
        "zipcode": "29135-394"
    },
    {
        "city": "Viana",
        "state": "ES",
        "district": "Marcílio de Noronha",
        "street": "Avenida São Paulo",
        "zipcode": "29135-397"
    },
    {
        "city": "Viana",
        "state": "ES",
        "district": "Canaã",
        "street": "Rua Vale Alegre",
        "zipcode": "29135-088"
    },
    {
        "city": "Viana",
        "state": "ES",
        "district": "Canaã",
        "street": "Avenida Orlando Alfredo Schulthais",
        "zipcode": "29135-072"
    },
    {
        "city": "Viana",
        "state": "ES",
        "district": "Marcílio de Noronha",
        "street": "Avenida Espírito Santo",
        "zipcode": "29135-508"
    },
    {
        "city": "Viana",
        "state": "ES",
        "district": "Marcílio de Noronha",
        "street": "Rua São Paulo",
        "zipcode": "29135-551"
    },
    {
        "city": "Viana",
        "state": "ES",
        "district": "Marcílio de Noronha",
        "street": "Rua Rio Grande do Sul",
        "zipcode": "29135-554"
    },
    {
        "city": "Viana",
        "state": "ES",
        "district": "Marcílio de Noronha",
        "street": "Rua Brasília",
        "zipcode": "29135-557"
    },
    {
        "city": "Viana",
        "state": "ES",
        "district": "Marcílio de Noronha",
        "street": "Rua Amapá",
        "zipcode": "29135-560"
    },
    {
        "city": "Viana",
        "state": "ES",
        "district": "Marcílio de Noronha",
        "street": "Rua Bahia",
        "zipcode": "29135-566"
    },
    {
        "city": "Viana",
        "state": "ES",
        "district": "Marcílio de Noronha",
        "street": "Rua Alagoas",
        "zipcode": "29135-569"
    },
    {
        "city": "Viana",
        "state": "ES",
        "district": "Marcílio de Noronha",
        "street": "Rua Pedro Machado da Silva",
        "zipcode": "29135-572"
    },
    {
        "city": "Viana",
        "state": "ES",
        "district": "Marcílio de Noronha",
        "street": "Rua Distrito Federal",
        "zipcode": "29135-575"
    },
    {
        "city": "Viana",
        "state": "ES",
        "district": "Marcílio de Noronha",
        "street": "Rua Xavier",
        "zipcode": "29135-581"
    },
    {
        "city": "Viana",
        "state": "ES",
        "district": "Marcílio de Noronha",
        "street": "Rua Mato Grosso",
        "zipcode": "29135-587"
    },
    {
        "city": "Viana",
        "state": "ES",
        "district": "Marcílio de Noronha",
        "street": "Rua Belo Horizonte",
        "zipcode": "29135-590"
    },
    {
        "city": "Viana",
        "state": "ES",
        "district": "Marcílio de Noronha",
        "street": "Rua Minas Gerais",
        "zipcode": "29135-593"
    },
    {
        "city": "Viana",
        "state": "ES",
        "district": "Marcílio de Noronha",
        "street": "Rua São Francisco",
        "zipcode": "29135-596"
    },
    {
        "city": "Viana",
        "state": "ES",
        "district": "Marcílio de Noronha",
        "street": "Rua Maranhão",
        "zipcode": "29135-599"
    },
    {
        "city": "Viana",
        "state": "ES",
        "district": "Marcílio de Noronha",
        "street": "Rua Paraná",
        "zipcode": "29135-602"
    },
    {
        "city": "Viana",
        "state": "ES",
        "district": "Marcílio de Noronha",
        "street": "Rua do Comércio",
        "zipcode": "29135-614"
    },
    {
        "city": "Viana",
        "state": "ES",
        "district": "Marcílio de Noronha",
        "street": "Rua Ecoporanga",
        "zipcode": "29135-617"
    },
    {
        "city": "Viana",
        "state": "ES",
        "district": "Marcílio de Noronha",
        "street": "Rua Águia Branca",
        "zipcode": "29135-620"
    },
    {
        "city": "Viana",
        "state": "ES",
        "district": "Marcílio de Noronha",
        "street": "Travessa Ecoporanga",
        "zipcode": "29135-626"
    },
    {
        "city": "Viana",
        "state": "ES",
        "district": "Marcílio de Noronha",
        "street": "Rua Marilândia",
        "zipcode": "29135-629"
    },
    {
        "city": "Viana",
        "state": "ES",
        "district": "Marcílio de Noronha",
        "street": "Rua Aracruz",
        "zipcode": "29135-635"
    },
    {
        "city": "Viana",
        "state": "ES",
        "district": "Marcílio de Noronha",
        "street": "Rua Santa Tereza",
        "zipcode": "29135-638"
    },
    {
        "city": "Viana",
        "state": "ES",
        "district": "Marcílio de Noronha",
        "street": "Rua Colatina",
        "zipcode": "29135-644"
    },
    {
        "city": "Viana",
        "state": "ES",
        "district": "Marcílio de Noronha",
        "street": "Rua Pancas",
        "zipcode": "29135-647"
    },
    {
        "city": "Viana",
        "state": "ES",
        "district": "Marcílio de Noronha",
        "street": "Rua Poços de Calda",
        "zipcode": "29135-501"
    },
    {
        "city": "Viana",
        "state": "ES",
        "district": "Marcílio de Noronha",
        "street": "Beco Nanuque",
        "zipcode": "29135-515"
    },
    {
        "city": "Viana",
        "state": "ES",
        "district": "Marcílio de Noronha",
        "street": "Rua Ouro Preto",
        "zipcode": "29135-518"
    },
    {
        "city": "Viana",
        "state": "ES",
        "district": "Marcílio de Noronha",
        "street": "Rua Uberlândia",
        "zipcode": "29135-521"
    },
    {
        "city": "Viana",
        "state": "ES",
        "district": "Marcílio de Noronha",
        "street": "Rua Teófilo Otoni",
        "zipcode": "29135-542"
    },
    {
        "city": "Viana",
        "state": "ES",
        "district": "Marcílio de Noronha",
        "street": "Rua Jundiaí",
        "zipcode": "29135-437"
    },
    {
        "city": "Viana",
        "state": "ES",
        "district": "Marcílio de Noronha",
        "street": "Rua Rio Doce",
        "zipcode": "29135-443"
    },
    {
        "city": "Viana",
        "state": "ES",
        "district": "Marcílio de Noronha",
        "street": "Rua Santa Clara",
        "zipcode": "29135-452"
    },
    {
        "city": "Viana",
        "state": "ES",
        "district": "Marcílio de Noronha",
        "street": "Rua Jerusalem",
        "zipcode": "29135-455"
    },
    {
        "city": "Viana",
        "state": "ES",
        "district": "Marcílio de Noronha",
        "street": "Rua dos Romanos",
        "zipcode": "29135-461"
    },
    {
        "city": "Viana",
        "state": "ES",
        "district": "Marcílio de Noronha",
        "street": "Rua São Mateus",
        "zipcode": "29135-464"
    },
    {
        "city": "Viana",
        "state": "ES",
        "district": "Primavera",
        "street": "Praça Henrique Gardi",
        "zipcode": "29135-190"
    },
    {
        "city": "Viana",
        "state": "ES",
        "district": "Marcílio de Noronha",
        "street": "Avenida Hozache Ferreira Brant",
        "zipcode": "29135-334"
    },
    {
        "city": "Viana",
        "state": "ES",
        "district": "Marcílio de Noronha",
        "street": "Rua Gernerino Arcanjo Miranda",
        "zipcode": "29135-440"
    },
    {
        "city": "Viana",
        "state": "ES",
        "district": "Marcílio de Noronha",
        "street": "Rua Montes Claros",
        "zipcode": "29135-477"
    },
    {
        "city": "Viana",
        "state": "ES",
        "district": "Marcílio de Noronha",
        "street": "Rua Barbacena",
        "zipcode": "29135-480"
    },
    {
        "city": "Viana",
        "state": "ES",
        "district": "Marcílio de Noronha",
        "street": "Rua Diamantina",
        "zipcode": "29135-483"
    },
    {
        "city": "Viana",
        "state": "ES",
        "district": "Marcílio de Noronha",
        "street": "Rua Uberaba",
        "zipcode": "29135-486"
    },
    {
        "city": "Viana",
        "state": "ES",
        "district": "Marcílio de Noronha",
        "street": "Beco São José",
        "zipcode": "29135-492"
    },
    {
        "city": "Viana",
        "state": "ES",
        "district": "Marcílio de Noronha",
        "street": "Rua Afonso Cláudio",
        "zipcode": "29135-495"
    },
    {
        "city": "Viana",
        "state": "ES",
        "district": "Vila Bethânia",
        "street": "Avenida Guarapari",
        "zipcode": "29136-027"
    },
    {
        "city": "Viana",
        "state": "ES",
        "district": "Canaã",
        "street": "Rodovia BR",
        "zipcode": "29135-920"
    },
    {
        "city": "Viana",
        "state": "ES",
        "district": "Marcílio de Noronha",
        "street": "Rodovia BR",
        "zipcode": "29135-900"
    },
    {
        "city": "Viana",
        "state": "ES",
        "district": "Marcílio de Noronha",
        "street": "Avenida Vitória",
        "zipcode": "29135-905"
    },
    {
        "city": "Viana",
        "state": "ES",
        "district": "Vila Bethânia",
        "street": "Rua Acezilio Marianelli",
        "zipcode": "29136-020"
    },
    {
        "city": "Viana",
        "state": "ES",
        "district": "Marcílio de Noronha",
        "street": "Rua Morro do Chapéu",
        "zipcode": "29135-449"
    },
    {
        "city": "Viana",
        "state": "ES",
        "district": "Arlindo Villaschi",
        "street": "Rua São Paulo",
        "zipcode": "29136-287"
    },
    {
        "city": "Viana",
        "state": "ES",
        "district": "Arlindo Villaschi",
        "street": "Rua das Palmeiras",
        "zipcode": "29136-290"
    },
    {
        "city": "Viana",
        "state": "ES",
        "district": "Arlindo Villaschi",
        "street": "Avenida Guarapari",
        "zipcode": "29136-176"
    },
    {
        "city": "Viana",
        "state": "ES",
        "district": "Arlindo Villaschi",
        "street": "Rua Luíza Cazotti",
        "zipcode": "29136-170"
    },
    {
        "city": "Viana",
        "state": "ES",
        "district": "Vila Bethânia",
        "street": "Rua Gertrudes",
        "zipcode": "29136-052"
    },
    {
        "city": "Viana",
        "state": "ES",
        "district": "Vila Bethânia",
        "street": "Rua Sergipe",
        "zipcode": "29136-055"
    },
    {
        "city": "Viana",
        "state": "ES",
        "district": "Vila Bethânia",
        "street": "Rua Aristides Carvalho",
        "zipcode": "29136-064"
    },
    {
        "city": "Viana",
        "state": "ES",
        "district": "Vila Bethânia",
        "street": "Rua Francisco Alves",
        "zipcode": "29136-067"
    },
    {
        "city": "Viana",
        "state": "ES",
        "district": "Vila Bethânia",
        "street": "Rua Olival Pimentel",
        "zipcode": "29136-073"
    },
    {
        "city": "Viana",
        "state": "ES",
        "district": "Vila Bethânia",
        "street": "Rua Paraná",
        "zipcode": "29136-076"
    },
    {
        "city": "Viana",
        "state": "ES",
        "district": "Vila Bethânia",
        "street": "Rua Arthur Bernardes",
        "zipcode": "29136-082"
    },
    {
        "city": "Viana",
        "state": "ES",
        "district": "Vila Bethânia",
        "street": "Rua Pernambuco",
        "zipcode": "29136-086"
    },
    {
        "city": "Viana",
        "state": "ES",
        "district": "Vila Bethânia",
        "street": "Rua Amapá",
        "zipcode": "29136-089"
    },
    {
        "city": "Viana",
        "state": "ES",
        "district": "Vila Bethânia",
        "street": "Rua Minas Gerais",
        "zipcode": "29136-092"
    },
    {
        "city": "Viana",
        "state": "ES",
        "district": "Vila Bethânia",
        "street": "Beco Minas Gerais",
        "zipcode": "29136-099"
    },
    {
        "city": "Viana",
        "state": "ES",
        "district": "Vila Bethânia",
        "street": "Rua da Assembléia",
        "zipcode": "29136-108"
    },
    {
        "city": "Viana",
        "state": "ES",
        "district": "Vila Bethânia",
        "street": "Rua Domingos Vicente",
        "zipcode": "29136-114"
    },
    {
        "city": "Viana",
        "state": "ES",
        "district": "Vila Bethânia",
        "street": "Rua Getúlio Vargas",
        "zipcode": "29136-120"
    },
    {
        "city": "Viana",
        "state": "ES",
        "district": "Vila Bethânia",
        "street": "Rua Ceará",
        "zipcode": "29136-123"
    },
    {
        "city": "Viana",
        "state": "ES",
        "district": "Vila Bethânia",
        "street": "Beco São João I",
        "zipcode": "29136-132"
    },
    {
        "city": "Viana",
        "state": "ES",
        "district": "Vila Bethânia",
        "street": "Beco São João",
        "zipcode": "29136-135"
    },
    {
        "city": "Viana",
        "state": "ES",
        "district": "Vila Bethânia",
        "street": "Avenida Santa Clara",
        "zipcode": "29136-138"
    },
    {
        "city": "Viana",
        "state": "ES",
        "district": "Arlindo Villaschi",
        "street": "Avenida Arlindo Villaschi",
        "zipcode": "29136-246"
    },
    {
        "city": "Viana",
        "state": "ES",
        "district": "Vila Bethânia",
        "street": "Avenida Arlindo Villaschi",
        "zipcode": "29136-141"
    },
    {
        "city": "Viana",
        "state": "ES",
        "district": "Vila Bethânia",
        "street": "Rua Copo de Leite",
        "zipcode": "29136-144"
    },
    {
        "city": "Viana",
        "state": "ES",
        "district": "Arlindo Villaschi",
        "street": "Rua Bela Vista",
        "zipcode": "29136-180"
    },
    {
        "city": "Viana",
        "state": "ES",
        "district": "Arlindo Villaschi",
        "street": "Rua Santo Antônio",
        "zipcode": "29136-190"
    },
    {
        "city": "Viana",
        "state": "ES",
        "district": "Arlindo Villaschi",
        "street": "Rua São Jorge",
        "zipcode": "29136-196"
    },
    {
        "city": "Viana",
        "state": "ES",
        "district": "Arlindo Villaschi",
        "street": "Rua São José",
        "zipcode": "29136-206"
    },
    {
        "city": "Viana",
        "state": "ES",
        "district": "Arlindo Villaschi",
        "street": "Rua São Pedro",
        "zipcode": "29136-212"
    },
    {
        "city": "Viana",
        "state": "ES",
        "district": "Arlindo Villaschi",
        "street": "Avenida Santa Clara",
        "zipcode": "29136-221"
    },
    {
        "city": "Viana",
        "state": "ES",
        "district": "Marcílio de Noronha",
        "street": "Rua João Paulo II",
        "zipcode": "29135-467"
    },
    {
        "city": "Viana",
        "state": "ES",
        "district": "Arlindo Villaschi",
        "street": "Rua Nossa Senhora de Fátima",
        "zipcode": "29136-218"
    },
    {
        "city": "Viana",
        "state": "ES",
        "district": "Arlindo Villaschi",
        "street": "Rua São Lucas",
        "zipcode": "29136-200"
    },
    {
        "city": "Viana",
        "state": "ES",
        "district": "Vila Bethânia",
        "street": "Rua Ida Spalenza Pedroni",
        "zipcode": "29136-024"
    },
    {
        "city": "Viana",
        "state": "ES",
        "district": "Marcílio de Noronha",
        "street": "Praça João Sedde Neto",
        "zipcode": "29135-468"
    },
    {
        "city": "Viana",
        "state": "ES",
        "district": "Vila Bethânia",
        "street": "Rua do Canal",
        "zipcode": "29136-147"
    },
    {
        "city": "Viana",
        "state": "ES",
        "district": "Vila Bethânia",
        "street": "Beco Manoel Timóteo",
        "zipcode": "29136-043"
    },
    {
        "city": "Viana",
        "state": "ES",
        "district": "Arlindo Villaschi",
        "street": "Rua Rio Novo do Sul",
        "zipcode": "29136-299"
    },
    {
        "city": "Viana",
        "state": "ES",
        "district": "Arlindo Villaschi",
        "street": "Rua do Canal",
        "zipcode": "29136-315"
    },
    {
        "city": "Viana",
        "state": "ES",
        "district": "Marcílio de Noronha",
        "street": "Praça Edevaldo Avelino Merscher",
        "zipcode": "29135-556"
    },
    {
        "city": "Viana",
        "state": "ES",
        "district": "Arlindo Villaschi",
        "street": "Rua São Vicente",
        "zipcode": "29136-227"
    },
    {
        "city": "Viana",
        "state": "ES",
        "district": "Arlindo Villaschi",
        "street": "Rua São Gabriel",
        "zipcode": "29136-230"
    },
    {
        "city": "Viana",
        "state": "ES",
        "district": "Arlindo Villaschi",
        "street": "Rua São João",
        "zipcode": "29136-233"
    },
    {
        "city": "Viana",
        "state": "ES",
        "district": "Arlindo Villaschi",
        "street": "Avenida Espírito Santo",
        "zipcode": "29136-242"
    },
    {
        "city": "Viana",
        "state": "ES",
        "district": "Arlindo Villaschi",
        "street": "Rua Copo de Leite",
        "zipcode": "29136-249"
    },
    {
        "city": "Viana",
        "state": "ES",
        "district": "Arlindo Villaschi",
        "street": "Rua Pernambuco",
        "zipcode": "29136-252"
    },
    {
        "city": "Viana",
        "state": "ES",
        "district": "Arlindo Villaschi",
        "street": "Rua Goiás",
        "zipcode": "29136-256"
    },
    {
        "city": "Viana",
        "state": "ES",
        "district": "Arlindo Villaschi",
        "street": "Rua das Flores",
        "zipcode": "29136-263"
    },
    {
        "city": "Viana",
        "state": "ES",
        "district": "Arlindo Villaschi",
        "street": "Rua das Hortênsias",
        "zipcode": "29136-275"
    },
    {
        "city": "Viana",
        "state": "ES",
        "district": "Arlindo Villaschi",
        "street": "Rua dos Lírios",
        "zipcode": "29136-281"
    },
    {
        "city": "Viana",
        "state": "ES",
        "district": "Arlindo Villaschi",
        "street": "Rua das Orquídeas",
        "zipcode": "29136-284"
    },
    {
        "city": "Viana",
        "state": "ES",
        "district": "Arlindo Villaschi",
        "street": "Rua dos Limoeiros",
        "zipcode": "29136-293"
    },
    {
        "city": "Viana",
        "state": "ES",
        "district": "Arlindo Villaschi",
        "street": "Rua do Girassol",
        "zipcode": "29136-272"
    },
    {
        "city": "Viana",
        "state": "ES",
        "district": "Arlindo Villaschi",
        "street": "Rua Nossa Senhora da Conceição",
        "zipcode": "29136-224"
    },
    {
        "city": "Viana",
        "state": "ES",
        "district": "Arlindo Villaschi",
        "street": "Rua Santa Lúcia",
        "zipcode": "29136-215"
    },
    {
        "city": "Viana",
        "state": "ES",
        "district": "Vila Bethânia",
        "street": "Beco Maria Pereira",
        "zipcode": "29136-040"
    },
    {
        "city": "Viana",
        "state": "ES",
        "district": "Vila Bethânia",
        "street": "Rua Alexandre Ferreira",
        "zipcode": "29136-046"
    },
    {
        "city": "Viana",
        "state": "ES",
        "district": "Arlindo Villaschi",
        "street": "Rua São Roque",
        "zipcode": "29136-203"
    },
    {
        "city": "Viana",
        "state": "ES",
        "district": "Arlindo Villaschi",
        "street": "Rua Pará",
        "zipcode": "29136-319"
    },
    {
        "city": "Viana",
        "state": "ES",
        "district": "Arlindo Villaschi",
        "street": "Rua Macapá",
        "zipcode": "29136-322"
    },
    {
        "city": "Viana",
        "state": "ES",
        "district": "Caxias do Sul",
        "street": "Avenida Guarapari",
        "zipcode": "29136-371"
    },
    {
        "city": "Viana",
        "state": "ES",
        "district": "Caxias do Sul",
        "street": "Rua Luzia dos Santos Vicente",
        "zipcode": "29136-387"
    },
    {
        "city": "Viana",
        "state": "ES",
        "district": "Caxias do Sul",
        "street": "Rua São Miguel",
        "zipcode": "29136-390"
    },
    {
        "city": "Viana",
        "state": "ES",
        "district": "Caxias do Sul",
        "street": "Rua Santa Rita",
        "zipcode": "29136-398"
    },
    {
        "city": "Viana",
        "state": "ES",
        "district": "Caxias do Sul",
        "street": "Rua Sagrada Família",
        "zipcode": "29136-404"
    },
    {
        "city": "Viana",
        "state": "ES",
        "district": "Caxias do Sul",
        "street": "Rua Cinco",
        "zipcode": "29136-413"
    },
    {
        "city": "Viana",
        "state": "ES",
        "district": "Caxias do Sul",
        "street": "Rua Fortaleza",
        "zipcode": "29136-420"
    },
    {
        "city": "Viana",
        "state": "ES",
        "district": "Caxias do Sul",
        "street": "Avenida José Acácio Ferreira",
        "zipcode": "29136-423"
    },
    {
        "city": "Viana",
        "state": "ES",
        "district": "Areinha",
        "street": "Avenida Amazonas",
        "zipcode": "29137-034"
    },
    {
        "city": "Viana",
        "state": "ES",
        "district": "Areinha",
        "street": "Avenida Rio de Janeiro",
        "zipcode": "29137-030"
    },
    {
        "city": "Viana",
        "state": "ES",
        "district": "Areinha",
        "street": "Rua Barata Ribeiro",
        "zipcode": "29137-003"
    },
    {
        "city": "Viana",
        "state": "ES",
        "district": "Areinha",
        "street": "Rua Delfim Moreira",
        "zipcode": "29137-015"
    },
    {
        "city": "Viana",
        "state": "ES",
        "district": "Areinha",
        "street": "Rua Bela",
        "zipcode": "29137-018"
    },
    {
        "city": "Viana",
        "state": "ES",
        "district": "Areinha",
        "street": "Rua das Laranjeiras",
        "zipcode": "29137-021"
    },
    {
        "city": "Viana",
        "state": "ES",
        "district": "Areinha",
        "street": "Rua México",
        "zipcode": "29137-037"
    },
    {
        "city": "Viana",
        "state": "ES",
        "district": "Areinha",
        "street": "Avenida Senador Vergueiro",
        "zipcode": "29137-040"
    },
    {
        "city": "Viana",
        "state": "ES",
        "district": "Areinha",
        "street": "Rua Sergipe",
        "zipcode": "29137-053"
    },
    {
        "city": "Viana",
        "state": "ES",
        "district": "Areinha",
        "street": "Travessa Quatro",
        "zipcode": "29137-056"
    },
    {
        "city": "Viana",
        "state": "ES",
        "district": "Areinha",
        "street": "Rua Toneleiro Augusto",
        "zipcode": "29137-072"
    },
    {
        "city": "Viana",
        "state": "ES",
        "district": "Areinha",
        "street": "Rua Augusta",
        "zipcode": "29137-079"
    },
    {
        "city": "Viana",
        "state": "ES",
        "district": "Areinha",
        "street": "Rua do Ouvidor",
        "zipcode": "29137-085"
    },
    {
        "city": "Viana",
        "state": "ES",
        "district": "Areinha",
        "street": "Rua Paissandú",
        "zipcode": "29137-091"
    },
    {
        "city": "Viana",
        "state": "ES",
        "district": "Parque Industrial",
        "street": "Rua Idalino Carvalho",
        "zipcode": "29136-519"
    },
    {
        "city": "Viana",
        "state": "ES",
        "district": "Parque Industrial",
        "street": "Rua José Acácio Ferreira",
        "zipcode": "29136-510"
    },
    {
        "city": "Viana",
        "state": "ES",
        "district": "Parque Industrial",
        "street": "Estrada Ladeira Grande",
        "zipcode": "29136-537"
    },
    {
        "city": "Viana",
        "state": "ES",
        "district": "Parque Industrial",
        "street": "Rua São Luiz",
        "zipcode": "29136-540"
    },
    {
        "city": "Viana",
        "state": "ES",
        "district": "Parque Industrial",
        "street": "Rua Sebastião Paulo Mendonça",
        "zipcode": "29136-543"
    },
    {
        "city": "Viana",
        "state": "ES",
        "district": "Parque Industrial",
        "street": "Estrada Velha",
        "zipcode": "29136-549"
    },
    {
        "city": "Viana",
        "state": "ES",
        "district": "Caxias do Sul",
        "street": "Rua Distrito Federal",
        "zipcode": "29136-464"
    },
    {
        "city": "Viana",
        "state": "ES",
        "district": "Caxias do Sul",
        "street": "Rua São Luiz",
        "zipcode": "29136-430"
    },
    {
        "city": "Viana",
        "state": "ES",
        "district": "Caxias do Sul",
        "street": "Travessa do Comércio",
        "zipcode": "29136-356"
    },
    {
        "city": "Viana",
        "state": "ES",
        "district": "Parque Industrial",
        "street": "Rua Sebastião Carlos Oliveira",
        "zipcode": "29136-525"
    },
    {
        "city": "Viana",
        "state": "ES",
        "district": "Caxias do Sul",
        "street": "Rua Maria Joana Correa",
        "zipcode": "29136-384"
    },
    {
        "city": "Viana",
        "state": "ES",
        "district": "Caxias do Sul",
        "street": "Rua Dejanira Ferreira",
        "zipcode": "29136-353"
    },
    {
        "city": "Viana",
        "state": "ES",
        "district": "Parque Industrial",
        "street": "Rua do Comércio",
        "zipcode": "29136-513"
    },
    {
        "city": "Viana",
        "state": "ES",
        "district": "Caxias do Sul",
        "street": "Rua Nilton Xavier",
        "zipcode": "29136-427"
    },
    {
        "city": "Viana",
        "state": "ES",
        "district": "Parque Industrial",
        "street": "Rua Ministro Rui Barreto",
        "zipcode": "29136-534"
    },
    {
        "city": "Viana",
        "state": "ES",
        "district": "Arlindo Villaschi",
        "street": "Rua das Azaléias",
        "zipcode": "29136-278"
    },
    {
        "city": "Viana",
        "state": "ES",
        "district": "Caxias do Sul",
        "street": "Rua São Silvano",
        "zipcode": "29136-395"
    },
    {
        "city": "Viana",
        "state": "ES",
        "district": "Caxias do Sul",
        "street": "Rua São Francisco",
        "zipcode": "29136-436"
    },
    {
        "city": "Viana",
        "state": "ES",
        "district": "Caxias do Sul",
        "street": "Rua São Paulo",
        "zipcode": "29136-445"
    },
    {
        "city": "Viana",
        "state": "ES",
        "district": "Caxias do Sul",
        "street": "Rua Alfredo Cavallieri",
        "zipcode": "29136-449"
    },
    {
        "city": "Viana",
        "state": "ES",
        "district": "Caxias do Sul",
        "street": "Beco São Benedito",
        "zipcode": "29136-470"
    },
    {
        "city": "Viana",
        "state": "ES",
        "district": "Caxias do Sul",
        "street": "Rua América",
        "zipcode": "29136-476"
    },
    {
        "city": "Viana",
        "state": "ES",
        "district": "Caxias do Sul",
        "street": "Rua Belém",
        "zipcode": "29136-479"
    },
    {
        "city": "Viana",
        "state": "ES",
        "district": "Caxias do Sul",
        "street": "Rua Ametista",
        "zipcode": "29136-491"
    },
    {
        "city": "Viana",
        "state": "ES",
        "district": "Parque Industrial",
        "street": "Rodovia BR",
        "zipcode": "29136-522"
    },
    {
        "city": "Viana",
        "state": "ES",
        "district": "Parque Industrial",
        "street": "Rodovia Governador Mário Govas",
        "zipcode": "29136-555"
    },
    {
        "city": "Viana",
        "state": "ES",
        "district": "Caxias do Sul",
        "street": "Rua Maravilha",
        "zipcode": "29136-410"
    },
    {
        "city": "Viana",
        "state": "ES",
        "district": "Caxias do Sul",
        "street": "Rua do Comércio",
        "zipcode": "29136-362"
    },
    {
        "city": "Viana",
        "state": "ES",
        "district": "Caxias do Sul",
        "street": "Rua Durvalino Trabach",
        "zipcode": "29136-497"
    },
    {
        "city": "Viana",
        "state": "ES",
        "district": "Caxias do Sul",
        "street": "Rua Turmalina",
        "zipcode": "29136-488"
    },
    {
        "city": "Viana",
        "state": "ES",
        "district": "Caxias do Sul",
        "street": "Rua Idalino Carvalho",
        "zipcode": "29136-359"
    },
    {
        "city": "Viana",
        "state": "ES",
        "district": "Caxias do Sul",
        "street": "Rua Daniel Ribeiro",
        "zipcode": "29136-368"
    },
    {
        "city": "Viana",
        "state": "ES",
        "district": "Areinha",
        "street": "Rua Camerinos",
        "zipcode": "29137-094"
    },
    {
        "city": "Viana",
        "state": "ES",
        "district": "Parque Industrial",
        "street": "Travessa do Comércio",
        "zipcode": "29136-516"
    },
    {
        "city": "Viana",
        "state": "ES",
        "district": "Areinha",
        "street": "Rua Humaitá",
        "zipcode": "29137-069"
    },
    {
        "city": "Viana",
        "state": "ES",
        "district": "Caxias do Sul",
        "street": "Escadaria João Araújo",
        "zipcode": "29136-473"
    },
    {
        "city": "Viana",
        "state": "ES",
        "district": "Caxias do Sul",
        "street": "Beco Sebastião Loureiro",
        "zipcode": "29136-458"
    },
    {
        "city": "Viana",
        "state": "ES",
        "district": "Parque Industrial",
        "street": "Rodovia Governador Mário Govas",
        "zipcode": "29136-558"
    },
    {
        "city": "Viana",
        "state": "ES",
        "district": "Vila Bethânia",
        "street": "Rodovia BR",
        "zipcode": "29136-905"
    },
    {
        "city": "Viana",
        "state": "ES",
        "district": "Vila Bethânia",
        "street": "Rua Santa Helena",
        "zipcode": "29136-915"
    },
    {
        "city": "Viana",
        "state": "ES",
        "district": "Vila Bethânia",
        "street": "Rodovia BR",
        "zipcode": "29136-925"
    },
    {
        "city": "Viana",
        "state": "ES",
        "district": "Areinha",
        "street": "Rua Uranos",
        "zipcode": "29137-249"
    },
    {
        "city": "Viana",
        "state": "ES",
        "district": "Areinha",
        "street": "Rua 13 de Maio",
        "zipcode": "29137-261"
    },
    {
        "city": "Viana",
        "state": "ES",
        "district": "Areinha",
        "street": "Rua Senhor dos Passos",
        "zipcode": "29137-267"
    },
    {
        "city": "Viana",
        "state": "ES",
        "district": "Areinha",
        "street": "Rua Senador Dantas",
        "zipcode": "29137-270"
    },
    {
        "city": "Viana",
        "state": "ES",
        "district": "Areinha",
        "street": "Rua Georgina Azevedo",
        "zipcode": "29137-288"
    },
    {
        "city": "Viana",
        "state": "ES",
        "district": "Areinha",
        "street": "Rua Monte Pascoal",
        "zipcode": "29137-303"
    },
    {
        "city": "Viana",
        "state": "ES",
        "district": "Nova Bethânia",
        "street": "Rua Rio Araguaia",
        "zipcode": "29138-028"
    },
    {
        "city": "Viana",
        "state": "ES",
        "district": "Nova Bethânia",
        "street": "Rua da Alfândega",
        "zipcode": "29138-037"
    },
    {
        "city": "Viana",
        "state": "ES",
        "district": "Nova Bethânia",
        "street": "Travessa Rio Tapajós",
        "zipcode": "29138-040"
    },
    {
        "city": "Viana",
        "state": "ES",
        "district": "Nova Bethânia",
        "street": "Rua Pico da Bandeira",
        "zipcode": "29138-062"
    },
    {
        "city": "Viana",
        "state": "ES",
        "district": "Nova Bethânia",
        "street": "Rua Almirante Tamandaré",
        "zipcode": "29138-065"
    },
    {
        "city": "Viana",
        "state": "ES",
        "district": "Areinha",
        "street": "Rua Martin Vaz",
        "zipcode": "29137-258"
    },
    {
        "city": "Viana",
        "state": "ES",
        "district": "Areinha",
        "street": "Rua Amazonas",
        "zipcode": "29137-097"
    },
    {
        "city": "Viana",
        "state": "ES",
        "district": "Areinha",
        "street": "Rua Bahia",
        "zipcode": "29137-117"
    },
    {
        "city": "Viana",
        "state": "ES",
        "district": "Areinha",
        "street": "Rua Minas Gerais",
        "zipcode": "29137-120"
    },
    {
        "city": "Viana",
        "state": "ES",
        "district": "Areinha",
        "street": "Rua Alfredo Chaves",
        "zipcode": "29137-132"
    },
    {
        "city": "Viana",
        "state": "ES",
        "district": "Areinha",
        "street": "Rua Pernambuco",
        "zipcode": "29137-135"
    },
    {
        "city": "Viana",
        "state": "ES",
        "district": "Areinha",
        "street": "Rua Goiás",
        "zipcode": "29137-138"
    },
    {
        "city": "Viana",
        "state": "ES",
        "district": "Areinha",
        "street": "Rua Espírito Santo",
        "zipcode": "29137-147"
    },
    {
        "city": "Viana",
        "state": "ES",
        "district": "Areinha",
        "street": "Rua Vitória",
        "zipcode": "29137-153"
    },
    {
        "city": "Viana",
        "state": "ES",
        "district": "Areinha",
        "street": "Rua Floriano Varejão",
        "zipcode": "29137-156"
    },
    {
        "city": "Viana",
        "state": "ES",
        "district": "Areinha",
        "street": "Travessa da Assembléia",
        "zipcode": "29137-159"
    },
    {
        "city": "Viana",
        "state": "ES",
        "district": "Areinha",
        "street": "Travessa Guarapari",
        "zipcode": "29137-162"
    },
    {
        "city": "Viana",
        "state": "ES",
        "district": "Areinha",
        "street": "Avenida Guarapari",
        "zipcode": "29137-110"
    },
    {
        "city": "Viana",
        "state": "ES",
        "district": "Caxias do Sul",
        "street": "Rua Laurito Sales",
        "zipcode": "29136-455"
    },
    {
        "city": "Viana",
        "state": "ES",
        "district": "Areinha",
        "street": "Rua Mem de Sá",
        "zipcode": "29137-279"
    },
    {
        "city": "Viana",
        "state": "ES",
        "district": "Areinha",
        "street": "Rua Miguel Rimello",
        "zipcode": "29137-297"
    },
    {
        "city": "Viana",
        "state": "ES",
        "district": "Areinha",
        "street": "Praça Leal Ferrari",
        "zipcode": "29137-074"
    },
    {
        "city": "Viana",
        "state": "ES",
        "district": "Nova Bethânia",
        "street": "Rua do Chuí",
        "zipcode": "29138-052"
    },
    {
        "city": "Viana",
        "state": "ES",
        "district": "Caxias do Sul",
        "street": "Beco do Jovino",
        "zipcode": "29136-482"
    },
    {
        "city": "Viana",
        "state": "ES",
        "district": "Nova Bethânia",
        "street": "Rua Rio Japurá",
        "zipcode": "29138-031"
    },
    {
        "city": "Viana",
        "state": "ES",
        "district": "Caxias do Sul",
        "street": "Rua Javarine",
        "zipcode": "29136-500"
    },
    {
        "city": "Viana",
        "state": "ES",
        "district": "Nova Bethânia",
        "street": "Rua Rio Guaporé",
        "zipcode": "29138-034"
    },
    {
        "city": "Viana",
        "state": "ES",
        "district": "Areinha",
        "street": "Rua Barão da Torre",
        "zipcode": "29137-177"
    },
    {
        "city": "Viana",
        "state": "ES",
        "district": "Areinha",
        "street": "Rua Prefeito Benício Cabral",
        "zipcode": "29137-183"
    },
    {
        "city": "Viana",
        "state": "ES",
        "district": "Areinha",
        "street": "Rua São Cristóvão",
        "zipcode": "29137-201"
    },
    {
        "city": "Viana",
        "state": "ES",
        "district": "Areinha",
        "street": "Rua Marques Abrantes",
        "zipcode": "29137-213"
    },
    {
        "city": "Viana",
        "state": "ES",
        "district": "Areinha",
        "street": "Rua Paraná",
        "zipcode": "29137-216"
    },
    {
        "city": "Viana",
        "state": "ES",
        "district": "Areinha",
        "street": "Travessa Seis",
        "zipcode": "29137-238"
    },
    {
        "city": "Viana",
        "state": "ES",
        "district": "Areinha",
        "street": "Rua Buenos Aires",
        "zipcode": "29137-234"
    },
    {
        "city": "Viana",
        "state": "ES",
        "district": "Nova Bethânia",
        "street": "Rua Rio Tapajós",
        "zipcode": "29138-009"
    },
    {
        "city": "Viana",
        "state": "ES",
        "district": "Nova Bethânia",
        "street": "Avenida Central",
        "zipcode": "29138-012"
    },
    {
        "city": "Viana",
        "state": "ES",
        "district": "Morada Bethânia",
        "street": "Rua Um",
        "zipcode": "29138-560"
    },
    {
        "city": "Viana",
        "state": "ES",
        "district": "Nova Bethânia",
        "street": "Rua Martin Vaz",
        "zipcode": "29138-074"
    },
    {
        "city": "Viana",
        "state": "ES",
        "district": "Nova Bethânia",
        "street": "Rua Oiapoque",
        "zipcode": "29138-041"
    },
    {
        "city": "Viana",
        "state": "ES",
        "district": "Areinha",
        "street": "Rua Carlos Ramos",
        "zipcode": "29137-282"
    },
    {
        "city": "Viana",
        "state": "ES",
        "district": "Areinha",
        "street": "Rua Izolino Feliciano do Couto",
        "zipcode": "29137-294"
    },
    {
        "city": "Viana",
        "state": "ES",
        "district": "Nova Bethânia",
        "street": "Rua Rio Japuramirim",
        "zipcode": "29138-043"
    },
    {
        "city": "Viana",
        "state": "ES",
        "district": "Areinha",
        "street": "Rua Javarine",
        "zipcode": "29137-114"
    },
    {
        "city": "Viana",
        "state": "ES",
        "district": "Areinha",
        "street": "Rua Liberalino Francisco dos Santos",
        "zipcode": "29137-171"
    },
    {
        "city": "Viana",
        "state": "ES",
        "district": "Areinha",
        "street": "Rua Madureira",
        "zipcode": "29137-231"
    },
    {
        "city": "Viana",
        "state": "ES",
        "district": "Areinha",
        "street": "Rua Anete Maria de Barros",
        "zipcode": "29137-174"
    },
    {
        "city": "Viana",
        "state": "ES",
        "district": "Nova Bethânia",
        "street": "Rua Senador Tarcísio Miranda",
        "zipcode": "29138-071"
    },
    {
        "city": "Viana",
        "state": "ES",
        "district": "Areinha",
        "street": "Rua Santo Onofre",
        "zipcode": "29137-192"
    },
    {
        "city": "Viana",
        "state": "ES",
        "district": "Areinha",
        "street": "Rua Santa Hedwirges",
        "zipcode": "29137-195"
    },
    {
        "city": "Viana",
        "state": "ES",
        "district": "Areinha",
        "street": "Rua Gomes Freire",
        "zipcode": "29137-228"
    },
    {
        "city": "Viana",
        "state": "ES",
        "district": "Areinha",
        "street": "Travessa Acre",
        "zipcode": "29137-141"
    },
    {
        "city": "Viana",
        "state": "ES",
        "district": "Nova Bethânia",
        "street": "Rua Ilha de Paquetá",
        "zipcode": "29138-058"
    },
    {
        "city": "Viana",
        "state": "ES",
        "district": "Areinha",
        "street": "Rua Barão de Cotegipe",
        "zipcode": "29137-306"
    },
    {
        "city": "Viana",
        "state": "ES",
        "district": "Nova Bethânia",
        "street": "Rua Barão de Cotegipe",
        "zipcode": "29138-086"
    },
    {
        "city": "Viana",
        "state": "ES",
        "district": "Nova Bethânia",
        "street": "Rua Fernando de Noronha",
        "zipcode": "29138-095"
    },
    {
        "city": "Viana",
        "state": "ES",
        "district": "Nova Bethânia",
        "street": "Rua Ilha da Trindade",
        "zipcode": "29138-101"
    },
    {
        "city": "Viana",
        "state": "ES",
        "district": "Nova Bethânia",
        "street": "Rua das Cordilheiras",
        "zipcode": "29138-105"
    },
    {
        "city": "Viana",
        "state": "ES",
        "district": "Nova Bethânia",
        "street": "Rua das Palmas",
        "zipcode": "29138-108"
    },
    {
        "city": "Viana",
        "state": "ES",
        "district": "Nova Bethânia",
        "street": "Avenida Rio Eldorado",
        "zipcode": "29138-111"
    },
    {
        "city": "Viana",
        "state": "ES",
        "district": "Nova Bethânia",
        "street": "Rua do Planalto",
        "zipcode": "29138-114"
    },
    {
        "city": "Viana",
        "state": "ES",
        "district": "Nova Bethânia",
        "street": "Avenida Amazonas",
        "zipcode": "29138-126"
    },
    {
        "city": "Viana",
        "state": "ES",
        "district": "Nova Bethânia",
        "street": "Rua dos Alpes",
        "zipcode": "29138-130"
    },
    {
        "city": "Viana",
        "state": "ES",
        "district": "Nova Bethânia",
        "street": "Rua Himalaia",
        "zipcode": "29138-133"
    },
    {
        "city": "Viana",
        "state": "ES",
        "district": "Nova Bethânia",
        "street": "Rua Rio Doce",
        "zipcode": "29138-136"
    },
    {
        "city": "Viana",
        "state": "ES",
        "district": "Nova Bethânia",
        "street": "Rua Rio Paraná",
        "zipcode": "29138-140"
    },
    {
        "city": "Viana",
        "state": "ES",
        "district": "Nova Bethânia",
        "street": "Rua Santa Terezinha",
        "zipcode": "29138-146"
    },
    {
        "city": "Viana",
        "state": "ES",
        "district": "Nova Bethânia",
        "street": "Rua da Amizade",
        "zipcode": "29138-149"
    },
    {
        "city": "Viana",
        "state": "ES",
        "district": "Nova Bethânia",
        "street": "Avenida Rio de Janeiro",
        "zipcode": "29138-161"
    },
    {
        "city": "Viana",
        "state": "ES",
        "district": "Nova Bethânia",
        "street": "Rua dos Carajás",
        "zipcode": "29138-164"
    },
    {
        "city": "Viana",
        "state": "ES",
        "district": "Nova Bethânia",
        "street": "Rua Rio Marinho",
        "zipcode": "29138-192"
    },
    {
        "city": "Viana",
        "state": "ES",
        "district": "Nova Bethânia",
        "street": "Rua Moacir Vacari",
        "zipcode": "29138-198"
    },
    {
        "city": "Viana",
        "state": "ES",
        "district": "Nova Bethânia",
        "street": "Rua Monte Negro",
        "zipcode": "29138-214"
    },
    {
        "city": "Viana",
        "state": "ES",
        "district": "Nova Bethânia",
        "street": "Rua Marcondes",
        "zipcode": "29138-217"
    },
    {
        "city": "Viana",
        "state": "ES",
        "district": "Nova Bethânia",
        "street": "Travessa Himalaia",
        "zipcode": "29138-223"
    },
    {
        "city": "Viana",
        "state": "ES",
        "district": "Nova Bethânia",
        "street": "Rua Vesúvio",
        "zipcode": "29138-226"
    },
    {
        "city": "Viana",
        "state": "ES",
        "district": "Nova Bethânia",
        "street": "Rua Castelo Branco",
        "zipcode": "29138-229"
    },
    {
        "city": "Viana",
        "state": "ES",
        "district": "Campo Verde",
        "street": "Rua Castelo Branco",
        "zipcode": "29138-352"
    },
    {
        "city": "Viana",
        "state": "ES",
        "district": "Campo Verde",
        "street": "Rua São Gabriel da Palha",
        "zipcode": "29138-355"
    },
    {
        "city": "Viana",
        "state": "ES",
        "district": "Nova Bethânia",
        "street": "Rua Levino Ferreira Reboli",
        "zipcode": "29138-238"
    },
    {
        "city": "Viana",
        "state": "ES",
        "district": "Campo Verde",
        "street": "Rua do Canal",
        "zipcode": "29138-330"
    },
    {
        "city": "Viana",
        "state": "ES",
        "district": "Nova Bethânia",
        "street": "Rua Manoel Gomes",
        "zipcode": "29138-241"
    },
    {
        "city": "Viana",
        "state": "ES",
        "district": "Nova Bethânia",
        "street": "Rua Ézio Volponi",
        "zipcode": "29138-244"
    },
    {
        "city": "Viana",
        "state": "ES",
        "district": "Nova Bethânia",
        "street": "Rua do Canal",
        "zipcode": "29138-210"
    },
    {
        "city": "Viana",
        "state": "ES",
        "district": "Nova Bethânia",
        "street": "Rua Madureira",
        "zipcode": "29138-001"
    },
    {
        "city": "Viana",
        "state": "ES",
        "district": "Nova Bethânia",
        "street": "Rua Batista dos Anjos",
        "zipcode": "29138-204"
    },
    {
        "city": "Viana",
        "state": "ES",
        "district": "Nova Bethânia",
        "street": "Rua Ilha do Bananal",
        "zipcode": "29138-092"
    },
    {
        "city": "Viana",
        "state": "ES",
        "district": "Areinha",
        "street": "Rua Riachuelo",
        "zipcode": "29137-186"
    },
    {
        "city": "Viana",
        "state": "ES",
        "district": "Areinha",
        "street": "Rua Marquês de Olinda",
        "zipcode": "29137-198"
    },
    {
        "city": "Viana",
        "state": "ES",
        "district": "Nova Bethânia",
        "street": "Rua Rio Paissandú",
        "zipcode": "29138-016"
    },
    {
        "city": "Viana",
        "state": "ES",
        "district": "Nova Bethânia",
        "street": "Rua Miguel Rimello",
        "zipcode": "29138-077"
    },
    {
        "city": "Viana",
        "state": "ES",
        "district": "Nova Bethânia",
        "street": "Rua Rio Solimões",
        "zipcode": "29138-019"
    },
    {
        "city": "Viana",
        "state": "ES",
        "district": "Nova Bethânia",
        "street": "Rua Pedro Azevedo Júnior",
        "zipcode": "29138-083"
    },
    {
        "city": "Viana",
        "state": "ES",
        "district": "Nova Bethânia",
        "street": "Rua Rio Madeira",
        "zipcode": "29138-025"
    },
    {
        "city": "Viana",
        "state": "ES",
        "district": "Nova Bethânia",
        "street": "Rua Albertina Maciel Azevedo",
        "zipcode": "29138-080"
    },
    {
        "city": "Viana",
        "state": "ES",
        "district": "Nova Bethânia",
        "street": "Rua Rio Xingu",
        "zipcode": "29138-022"
    },
    {
        "city": "Viana",
        "state": "ES",
        "district": "Areinha",
        "street": "Rua Theodomiro Pery Miranda",
        "zipcode": "29137-180"
    },
    {
        "city": "Viana",
        "state": "ES",
        "district": "Nova Bethânia",
        "street": "Rua Maquart",
        "zipcode": "29138-247"
    },
    {
        "city": "Viana",
        "state": "ES",
        "district": "Nova Bethânia",
        "street": "Rua Bom Pastor",
        "zipcode": "29138-257"
    },
    {
        "city": "Viana",
        "state": "ES",
        "district": "Nova Bethânia",
        "street": "Rua do Rosário",
        "zipcode": "29138-263"
    },
    {
        "city": "Viana",
        "state": "ES",
        "district": "Nova Bethânia",
        "street": "Rua São Jorge",
        "zipcode": "29138-266"
    },
    {
        "city": "Viana",
        "state": "ES",
        "district": "Nova Bethânia",
        "street": "Rua São Marcos",
        "zipcode": "29138-276"
    },
    {
        "city": "Viana",
        "state": "ES",
        "district": "Nova Bethânia",
        "street": "Rua São Clemente",
        "zipcode": "29138-279"
    },
    {
        "city": "Viana",
        "state": "ES",
        "district": "Nova Bethânia",
        "street": "Rua São José",
        "zipcode": "29138-285"
    },
    {
        "city": "Viana",
        "state": "ES",
        "district": "Nova Bethânia",
        "street": "Rua São Pedro",
        "zipcode": "29138-288"
    },
    {
        "city": "Viana",
        "state": "ES",
        "district": "Nova Bethânia",
        "street": "Rua São João",
        "zipcode": "29138-291"
    },
    {
        "city": "Viana",
        "state": "ES",
        "district": "Nova Bethânia",
        "street": "Rua Santo Antônio",
        "zipcode": "29138-300"
    },
    {
        "city": "Viana",
        "state": "ES",
        "district": "Nova Bethânia",
        "street": "Rua São Cristovão",
        "zipcode": "29138-303"
    },
    {
        "city": "Viana",
        "state": "ES",
        "district": "Nova Bethânia",
        "street": "Rua São Paulo",
        "zipcode": "29138-306"
    },
    {
        "city": "Viana",
        "state": "ES",
        "district": "Campo Verde",
        "street": "Avenida Central",
        "zipcode": "29138-333"
    },
    {
        "city": "Viana",
        "state": "ES",
        "district": "Campo Verde",
        "street": "Rua Santa Rita",
        "zipcode": "29138-340"
    },
    {
        "city": "Viana",
        "state": "ES",
        "district": "Campo Verde",
        "street": "Rua São Bernardo",
        "zipcode": "29138-343"
    },
    {
        "city": "Viana",
        "state": "ES",
        "district": "Campo Verde",
        "street": "Rua Santa Bárbara",
        "zipcode": "29138-346"
    },
    {
        "city": "Viana",
        "state": "ES",
        "district": "Nova Bethânia",
        "street": "Rua Rio Beberibe",
        "zipcode": "29138-183"
    },
    {
        "city": "Viana",
        "state": "ES",
        "district": "Nova Bethânia",
        "street": "Rua Rio Santa Maria",
        "zipcode": "29138-195"
    },
    {
        "city": "Viana",
        "state": "ES",
        "district": "Campo Verde",
        "street": "Rua C",
        "zipcode": "29138-409"
    },
    {
        "city": "Viana",
        "state": "ES",
        "district": "Campo Verde",
        "street": "Rua Q",
        "zipcode": "29138-454"
    },
    {
        "city": "Viana",
        "state": "ES",
        "district": "Campo Verde",
        "street": "Rua Vesúvio",
        "zipcode": "29138-358"
    },
    {
        "city": "Viana",
        "state": "ES",
        "district": "Campo Verde",
        "street": "Rua Ézio Volponi",
        "zipcode": "29138-394"
    },
    {
        "city": "Viana",
        "state": "ES",
        "district": "Campo Verde",
        "street": "Rua Maquart",
        "zipcode": "29138-400"
    },
    {
        "city": "Viana",
        "state": "ES",
        "district": "Campo Verde",
        "street": "Rua Divino Espírito Santo",
        "zipcode": "29138-403"
    },
    {
        "city": "Viana",
        "state": "ES",
        "district": "Campo Verde",
        "street": "Rua São José",
        "zipcode": "29138-406"
    },
    {
        "city": "Viana",
        "state": "ES",
        "district": "Morada Bethânia",
        "street": "Rua Guarapari",
        "zipcode": "29138-566"
    },
    {
        "city": "Viana",
        "state": "ES",
        "district": "Morada Bethânia",
        "street": "Rua Vila Velha",
        "zipcode": "29138-569"
    },
    {
        "city": "Viana",
        "state": "ES",
        "district": "Morada Bethânia",
        "street": "Rua Araribóia",
        "zipcode": "29138-575"
    },
    {
        "city": "Viana",
        "state": "ES",
        "district": "Morada Bethânia",
        "street": "Rua Piúma",
        "zipcode": "29138-578"
    },
    {
        "city": "Viana",
        "state": "ES",
        "district": "Morada Bethânia",
        "street": "Rua Viana",
        "zipcode": "29138-590"
    },
    {
        "city": "Viana",
        "state": "ES",
        "district": "Morada Bethânia",
        "street": "Rua Nova Venécia",
        "zipcode": "29138-593"
    },
    {
        "city": "Viana",
        "state": "ES",
        "district": "Morada Bethânia",
        "street": "Rua Vasco da Gama",
        "zipcode": "29138-611"
    },
    {
        "city": "Viana",
        "state": "ES",
        "district": "Morada Bethânia",
        "street": "Rua Joaquim Nabuco",
        "zipcode": "29138-620"
    },
    {
        "city": "Viana",
        "state": "ES",
        "district": "Morada Bethânia",
        "street": "Rua Frei Caneca",
        "zipcode": "29138-632"
    },
    {
        "city": "Viana",
        "state": "ES",
        "district": "Campo Verde",
        "street": "Rua Santa Luzia",
        "zipcode": "29138-361"
    },
    {
        "city": "Viana",
        "state": "ES",
        "district": "Campo Verde",
        "street": "Rua Nossa Senhora da Penha",
        "zipcode": "29138-364"
    },
    {
        "city": "Viana",
        "state": "ES",
        "district": "Campo Verde",
        "street": "Rua Nossa Senhora Aparecida",
        "zipcode": "29138-370"
    },
    {
        "city": "Viana",
        "state": "ES",
        "district": "Campo Verde",
        "street": "Rua Santo Antônio",
        "zipcode": "29138-373"
    },
    {
        "city": "Viana",
        "state": "ES",
        "district": "Campo Verde",
        "street": "Rua B",
        "zipcode": "29138-379"
    },
    {
        "city": "Viana",
        "state": "ES",
        "district": "Campo Verde",
        "street": "Rua D",
        "zipcode": "29138-382"
    },
    {
        "city": "Viana",
        "state": "ES",
        "district": "Campo Verde",
        "street": "Rua São Pedro",
        "zipcode": "29138-385"
    },
    {
        "city": "Viana",
        "state": "ES",
        "district": "Campo Verde",
        "street": "Rua I",
        "zipcode": "29138-412"
    },
    {
        "city": "Viana",
        "state": "ES",
        "district": "Campo Verde",
        "street": "Rua E",
        "zipcode": "29138-415"
    },
    {
        "city": "Viana",
        "state": "ES",
        "district": "Campo Verde",
        "street": "Rua São João",
        "zipcode": "29138-421"
    },
    {
        "city": "Viana",
        "state": "ES",
        "district": "Campo Verde",
        "street": "Rua G",
        "zipcode": "29138-424"
    },
    {
        "city": "Viana",
        "state": "ES",
        "district": "Campo Verde",
        "street": "Rua H",
        "zipcode": "29138-427"
    },
    {
        "city": "Viana",
        "state": "ES",
        "district": "Campo Verde",
        "street": "Rua N",
        "zipcode": "29138-436"
    },
    {
        "city": "Viana",
        "state": "ES",
        "district": "Campo Verde",
        "street": "Rua O",
        "zipcode": "29138-445"
    },
    {
        "city": "Viana",
        "state": "ES",
        "district": "Campo Verde",
        "street": "Rua P",
        "zipcode": "29138-451"
    },
    {
        "city": "Viana",
        "state": "ES",
        "district": "Campo Verde",
        "street": "Rua V",
        "zipcode": "29138-466"
    },
    {
        "city": "Viana",
        "state": "ES",
        "district": "Campo Verde",
        "street": "Rua Beira Rio",
        "zipcode": "29138-472"
    },
    {
        "city": "Viana",
        "state": "ES",
        "district": "Campo Verde",
        "street": "Rua U",
        "zipcode": "29138-478"
    },
    {
        "city": "Viana",
        "state": "ES",
        "district": "Campo Verde",
        "street": "Rua Y",
        "zipcode": "29138-481"
    },
    {
        "city": "Viana",
        "state": "ES",
        "district": "Campo Verde",
        "street": "Rua X",
        "zipcode": "29138-484"
    },
    {
        "city": "Viana",
        "state": "ES",
        "district": "Campo Verde",
        "street": "Rua Um",
        "zipcode": "29138-487"
    },
    {
        "city": "Viana",
        "state": "ES",
        "district": "Morada Bethânia",
        "street": "Rua Esmeralda",
        "zipcode": "29138-599"
    },
    {
        "city": "Viana",
        "state": "ES",
        "district": "Morada Bethânia",
        "street": "Rua Bartolomeu Dias",
        "zipcode": "29138-641"
    },
    {
        "city": "Viana",
        "state": "ES",
        "district": "Morada Bethânia",
        "street": "Rua Simão Bacamarth",
        "zipcode": "29138-629"
    },
    {
        "city": "Viana",
        "state": "ES",
        "district": "Morada Bethânia",
        "street": "Rua Euclides da Cunha",
        "zipcode": "29138-617"
    },
    {
        "city": "Viana",
        "state": "ES",
        "district": "Morada Bethânia",
        "street": "Rua Osório Duque Estrada",
        "zipcode": "29138-623"
    },
    {
        "city": "Viana",
        "state": "ES",
        "district": "Morada Bethânia",
        "street": "Rua Barão de Mauá",
        "zipcode": "29138-635"
    },
    {
        "city": "Viana",
        "state": "ES",
        "district": "Morada Bethânia",
        "street": "Rua Beija Flor",
        "zipcode": "29138-602"
    },
    {
        "city": "Viana",
        "state": "ES",
        "district": "Campo Verde",
        "street": "Rua G 2",
        "zipcode": "29138-496"
    },
    {
        "city": "Viana",
        "state": "ES",
        "district": "Campo Verde",
        "street": "Rua F 2",
        "zipcode": "29138-499"
    },
    {
        "city": "Viana",
        "state": "ES",
        "district": "Campo Verde",
        "street": "Rua A 2",
        "zipcode": "29138-502"
    },
    {
        "city": "Viana",
        "state": "ES",
        "district": "Campo Verde",
        "street": "Rua B 2",
        "zipcode": "29138-505"
    },
    {
        "city": "Viana",
        "state": "ES",
        "district": "Campo Verde",
        "street": "Rua D 2",
        "zipcode": "29138-511"
    },
    {
        "city": "Viana",
        "state": "ES",
        "district": "Campo Verde",
        "street": "Rua E 2",
        "zipcode": "29138-514"
    },
    {
        "city": "Viana",
        "state": "ES",
        "district": "Campo Verde",
        "street": "Rua Rondon Pacheco",
        "zipcode": "29138-517"
    },
    {
        "city": "Viana",
        "state": "ES",
        "district": "Campo Verde",
        "street": "Rua J 2",
        "zipcode": "29138-523"
    },
    {
        "city": "Viana",
        "state": "ES",
        "district": "Campo Verde",
        "street": "Rua das Hortênsias",
        "zipcode": "29138-529"
    },
    {
        "city": "Viana",
        "state": "ES",
        "district": "Morada Bethânia",
        "street": "Rua Vitória",
        "zipcode": "29138-553"
    },
    {
        "city": "Viana",
        "state": "ES",
        "district": "Campo Verde",
        "street": "Rua Domingos Martins",
        "zipcode": "29138-532"
    },
    {
        "city": "Viana",
        "state": "ES",
        "district": "Morada Bethânia",
        "street": "Rua Getúlio Vargas",
        "zipcode": "29138-656"
    },
    {
        "city": "Viana",
        "state": "ES",
        "district": "Morada Bethânia",
        "street": "Rua Dom Pedro II",
        "zipcode": "29138-786"
    },
    {
        "city": "Viana",
        "state": "ES",
        "district": "Morada Bethânia",
        "street": "Rua Monteiro Lobato",
        "zipcode": "29138-795"
    },
    {
        "city": "Viana",
        "state": "ES",
        "district": "Morada Bethânia",
        "street": "Rua Teófilo Otoni",
        "zipcode": "29138-653"
    },
    {
        "city": "Viana",
        "state": "ES",
        "district": "Morada Bethânia",
        "street": "Rua Claide Cruz",
        "zipcode": "29138-792"
    },
    {
        "city": "Viana",
        "state": "ES",
        "district": "Morada Bethânia",
        "street": "Rua Afonso Pena",
        "zipcode": "29138-771"
    },
    {
        "city": "Viana",
        "state": "ES",
        "district": "Morada Bethânia",
        "street": "Rua Raquel de Queiroz",
        "zipcode": "29138-626"
    },
    {
        "city": "Viana",
        "state": "ES",
        "district": "Morada Bethânia",
        "street": "Rua Rui Barbosa",
        "zipcode": "29138-804"
    },
    {
        "city": "Viana",
        "state": "ES",
        "district": "Morada Bethânia",
        "street": "Rua Carlos Chagas",
        "zipcode": "29138-822"
    },
    {
        "city": "Viana",
        "state": "ES",
        "district": "Morada Bethânia",
        "street": "Rua Princesa Isabel",
        "zipcode": "29138-870"
    },
    {
        "city": "Viana",
        "state": "ES",
        "district": "Morada Bethânia",
        "street": "Rua Castro Alves",
        "zipcode": "29138-876"
    },
    {
        "city": "Viana",
        "state": "ES",
        "district": "Morada Bethânia",
        "street": "Rua José Bonifácio",
        "zipcode": "29138-882"
    },
    {
        "city": "Viana",
        "state": "ES",
        "district": "Morada Bethânia",
        "street": "Avenida Rio Branco",
        "zipcode": "29138-675"
    },
    {
        "city": "Viana",
        "state": "ES",
        "district": "Morada Bethânia",
        "street": "Rua Dom Pedro I",
        "zipcode": "29138-732"
    },
    {
        "city": "Viana",
        "state": "ES",
        "district": "Morada Bethânia",
        "street": "Avenida Arthur Bernardes",
        "zipcode": "29138-738"
    },
    {
        "city": "Viana",
        "state": "ES",
        "district": "Morada Bethânia",
        "street": "Avenida Elysio Neves",
        "zipcode": "29138-741"
    },
    {
        "city": "Viana",
        "state": "ES",
        "district": "Morada Bethânia",
        "street": "Rua João Goulart",
        "zipcode": "29138-861"
    },
    {
        "city": "Viana",
        "state": "ES",
        "district": "Morada Bethânia",
        "street": "Rua Estácio de Sá",
        "zipcode": "29138-843"
    },
    {
        "city": "Viana",
        "state": "ES",
        "district": "Morada Bethânia",
        "street": "Rua Joana DArc",
        "zipcode": "29138-723"
    },
    {
        "city": "Viana",
        "state": "ES",
        "district": "Morada Bethânia",
        "street": "Rua Carlos Lacerda",
        "zipcode": "29138-855"
    },
    {
        "city": "Viana",
        "state": "ES",
        "district": "Morada Bethânia",
        "street": "Rua Júlia Wernner",
        "zipcode": "29138-669"
    },
    {
        "city": "Viana",
        "state": "ES",
        "district": "Morada Bethânia",
        "street": "Rua Maurício de Nassau",
        "zipcode": "29138-837"
    },
    {
        "city": "Viana",
        "state": "ES",
        "district": "Morada Bethânia",
        "street": "Rua Manoel Vitorino",
        "zipcode": "29138-672"
    },
    {
        "city": "Viana",
        "state": "ES",
        "district": "Morada Bethânia",
        "street": "Rua Gonçalves Coelho",
        "zipcode": "29138-813"
    },
    {
        "city": "Viana",
        "state": "ES",
        "district": "Morada Bethânia",
        "street": "Rua Mem de Sá",
        "zipcode": "29138-789"
    },
    {
        "city": "Viana",
        "state": "ES",
        "district": "Morada Bethânia",
        "street": "Rua Venceslau Braz",
        "zipcode": "29138-729"
    },
    {
        "city": "Viana",
        "state": "ES",
        "district": "Morada Bethânia",
        "street": "Rua Rodrigues Alves",
        "zipcode": "29138-777"
    },
    {
        "city": "Viana",
        "state": "ES",
        "district": "Morada Bethânia",
        "street": "Rua Manoel Blackman",
        "zipcode": "29138-819"
    },
    {
        "city": "Viana",
        "state": "ES",
        "district": "Morada Bethânia",
        "street": "Travessa Estácio de Sá",
        "zipcode": "29138-834"
    },
    {
        "city": "Viana",
        "state": "ES",
        "district": "Morada Bethânia",
        "street": "Rua Barão do Amazonas",
        "zipcode": "29138-720"
    },
    {
        "city": "Viana",
        "state": "ES",
        "district": "Morada Bethânia",
        "street": "Rua Borba Gato",
        "zipcode": "29138-801"
    },
    {
        "city": "Viana",
        "state": "ES",
        "district": "Morada Bethânia",
        "street": "Rua Tibiriçá",
        "zipcode": "29138-660"
    },
    {
        "city": "Viana",
        "state": "ES",
        "district": "Morada Bethânia",
        "street": "Rua Pero Vaz de Caminha",
        "zipcode": "29138-666"
    },
    {
        "city": "Viana",
        "state": "ES",
        "district": "Morada Bethânia",
        "street": "Avenida Duarte da Costa",
        "zipcode": "29138-831"
    },
    {
        "city": "Viana",
        "state": "ES",
        "district": "Morada Bethânia",
        "street": "Rua Maria Ortiz",
        "zipcode": "29138-879"
    },
    {
        "city": "Viana",
        "state": "ES",
        "district": "Morada Bethânia",
        "street": "Rua Marquês de Pombal",
        "zipcode": "29138-867"
    },
    {
        "city": "Viana",
        "state": "ES",
        "district": "Morada Bethânia",
        "street": "Rua Martins Soares",
        "zipcode": "29138-816"
    },
    {
        "city": "Viana",
        "state": "ES",
        "district": "Morada Bethânia",
        "street": "Rua Domingos Gomes de Almeida",
        "zipcode": "29138-705"
    },
    {
        "city": "Viana",
        "state": "ES",
        "district": "Morada Bethânia",
        "street": "Rua Casimiro de Abreu",
        "zipcode": "29138-693"
    },
    {
        "city": "Viana",
        "state": "ES",
        "district": "Morada Bethânia",
        "street": "Rua Dom João III",
        "zipcode": "29138-846"
    },
    {
        "city": "Viana",
        "state": "ES",
        "district": "Morada Bethânia",
        "street": "Rua José do Patrocínio",
        "zipcode": "29138-750"
    },
    {
        "city": "Viana",
        "state": "ES",
        "district": "Centro",
        "street": "Rua Seis",
        "zipcode": "29130-025"
    },
    {
        "city": "Viana",
        "state": "ES",
        "district": "Marcílio de Noronha",
        "street": "Rua Distrito Federal",
        "zipcode": "29135-974"
    },
    {
        "city": "Viana",
        "state": "ES",
        "district": "Vila Bethânia",
        "street": "Rua Santa Helena",
        "zipcode": "29135-975"
    },
    {
        "city": "Viana",
        "state": "ES",
        "district": "Centro",
        "street": "Rodovia BR",
        "zipcode": "29130-055"
    },
    {
        "city": "Viana",
        "state": "ES",
        "district": "Centro",
        "street": "Rua Dezessete",
        "zipcode": "29130-227"
    },
    {
        "city": "Viana",
        "state": "ES",
        "district": "Centro",
        "street": "Rua Treze",
        "zipcode": "29130-242"
    },
    {
        "city": "Viana",
        "state": "ES",
        "district": "Centro",
        "street": "Avenida Rio de Janeiro",
        "zipcode": "29130-272"
    },
    {
        "city": "Viana",
        "state": "ES",
        "district": "Jucu",
        "street": "Rua Dez",
        "zipcode": "29131-027"
    },
    {
        "city": "Viana",
        "state": "ES",
        "district": "Jucu",
        "street": "Rua Onze",
        "zipcode": "29131-030"
    },
    {
        "city": "Viana",
        "state": "ES",
        "district": "Jucu",
        "street": "Rua Treze",
        "zipcode": "29131-036"
    },
    {
        "city": "Viana",
        "state": "ES",
        "district": "Jucu",
        "street": "Rua Sete",
        "zipcode": "29131-048"
    },
    {
        "city": "Viana",
        "state": "ES",
        "district": "Universal",
        "street": "Rua Quarenta e Dois",
        "zipcode": "29134-565"
    },
    {
        "city": "Viana",
        "state": "ES",
        "district": "Universal",
        "street": "Rua São Jorge",
        "zipcode": "29134-412"
    },
    {
        "city": "Viana",
        "state": "ES",
        "district": "Jucu",
        "street": "Rua Nove",
        "zipcode": "29131-024"
    },
    {
        "city": "Viana",
        "state": "ES",
        "district": "Bom Pastor",
        "street": "Rua Cervantes",
        "zipcode": "29132-608"
    },
    {
        "city": "Viana",
        "state": "ES",
        "district": "Bom Pastor",
        "street": "Rua Vista Alegre",
        "zipcode": "29132-633"
    },
    {
        "city": "Viana",
        "state": "ES",
        "district": "Morada Bethânia",
        "street": "Rua José de Alencar",
        "zipcode": "29138-714"
    },
    {
        "city": "Viana",
        "state": "ES",
        "district": "Morada Bethânia",
        "street": "Rua Costa e Silva",
        "zipcode": "29138-864"
    },
    {
        "city": "Viana",
        "state": "ES",
        "district": "Morada Bethânia",
        "street": "Rua Henrique Dias",
        "zipcode": "29138-744"
    },
    {
        "city": "Viana",
        "state": "ES",
        "district": "Morada Bethânia",
        "street": "Rua Mário Filho",
        "zipcode": "29138-756"
    },
    {
        "city": "Viana",
        "state": "ES",
        "district": "Morada Bethânia",
        "street": "Rua Dom Fradique de Toledo",
        "zipcode": "29138-807"
    },
    {
        "city": "Viana",
        "state": "ES",
        "district": "Morada Bethânia",
        "street": "Avenida Washington Luiz",
        "zipcode": "29138-684"
    },
    {
        "city": "Viana",
        "state": "ES",
        "district": "Morada Bethânia",
        "street": "Rua Marechal Deodoro da Fonseca",
        "zipcode": "29138-747"
    },
    {
        "city": "Viana",
        "state": "ES",
        "district": "Morada Bethânia",
        "street": "Rua Gaspar Lemos",
        "zipcode": "29138-852"
    },
    {
        "city": "Viana",
        "state": "ES",
        "district": "Morada Bethânia",
        "street": "Rua José Linhares",
        "zipcode": "29138-810"
    },
    {
        "city": "Viana",
        "state": "ES",
        "district": "Morada Bethânia",
        "street": "Rua Juscelino Kubitschek",
        "zipcode": "29138-708"
    },
    {
        "city": "Viana",
        "state": "ES",
        "district": "Morada Bethânia",
        "street": "Rua Gama Filho",
        "zipcode": "29138-696"
    },
    {
        "city": "Viana",
        "state": "ES",
        "district": "Morada Bethânia",
        "street": "Rua Hermes da Fonseca",
        "zipcode": "29138-726"
    },
    {
        "city": "Viana",
        "state": "ES",
        "district": "Universal",
        "street": "Rua Santa Luzia",
        "zipcode": "29134-445"
    },
    {
        "city": "Viana",
        "state": "ES",
        "district": "Universal",
        "street": "Rua Quarenta e Três",
        "zipcode": "29134-517"
    },
    {
        "city": "Viana",
        "state": "ES",
        "district": "Bom Pastor",
        "street": "Rodovia BR",
        "zipcode": "29132-530"
    },
    {
        "city": "Viana",
        "state": "ES",
        "district": "Ribeira",
        "street": "Rodovia BR",
        "zipcode": "29132-690"
    },
    {
        "city": "Viana",
        "state": "ES",
        "district": "Centro",
        "street": "Rua Sebastião Barcellos do Nascimento",
        "zipcode": "29130-074"
    },
    {
        "city": "Viana",
        "state": "ES",
        "district": "Centro",
        "street": "Rua Francisco da Costa Pimentel",
        "zipcode": "29130-121"
    },
    {
        "city": "Viana",
        "state": "ES",
        "district": "Centro",
        "street": "Rua Governador Rubim",
        "zipcode": "29130-148"
    },
    {
        "city": "Viana",
        "state": "ES",
        "district": "Centro",
        "street": "Rua Padre Pestana",
        "zipcode": "29130-163"
    },
    {
        "city": "Viana",
        "state": "ES",
        "district": "Centro",
        "street": "Rua Getúlio Vargas",
        "zipcode": "29130-184"
    },
    {
        "city": "Viana",
        "state": "ES",
        "district": "Bom Pastor",
        "street": "Rua Bolivar",
        "zipcode": "29132-554"
    },
    {
        "city": "Viana",
        "state": "ES",
        "district": "Bom Pastor",
        "street": "Travessa Bolivar",
        "zipcode": "29132-573"
    },
    {
        "city": "Viana",
        "state": "ES",
        "district": "Centro",
        "street": "Praça Jerônimo Monteiro",
        "zipcode": "29130-970"
    },
    {
        "city": "Viana",
        "state": "ES",
        "district": "Universal",
        "street": "Avenida Alcacibas Furtado",
        "zipcode": "29134-970"
    },
    {
        "city": "Viana",
        "state": "ES",
        "district": "Centro",
        "street": "Avenida Florentino Avidos",
        "zipcode": "29130-915"
    },
    {
        "city": "Viana",
        "state": "ES",
        "district": "Bom Pastor",
        "street": "Rodovia BR",
        "zipcode": "29132-900"
    },
    {
        "city": "Viana",
        "state": "ES",
        "district": "Areinha",
        "street": "Rua Barão do Bom Retiro",
        "zipcode": "29137-032"
    },
    {
        "city": "Viana",
        "state": "ES",
        "district": "Marcílio de Noronha",
        "street": "Rua Pedro Álvares Cabral",
        "zipcode": "29135-584"
    },
    {
        "city": "Viana",
        "state": "ES",
        "district": "Marcílio de Noronha",
        "street": "Rua Pernambuco",
        "zipcode": "29135-611"
    },
    {
        "city": "Viana",
        "state": "ES",
        "district": "Marcílio de Noronha",
        "street": "Rua Constantino José Vieira",
        "zipcode": "29135-623"
    },
    {
        "city": "Viana",
        "state": "ES",
        "district": "Marcílio de Noronha",
        "street": "Rua Guarapari",
        "zipcode": "29135-641"
    },
    {
        "city": "Viana",
        "state": "ES",
        "district": "Canaã",
        "street": "Rua Boa Vista",
        "zipcode": "29135-017"
    },
    {
        "city": "Viana",
        "state": "ES",
        "district": "Canaã",
        "street": "Rua Afonso Cláudio",
        "zipcode": "29135-032"
    },
    {
        "city": "Viana",
        "state": "ES",
        "district": "Canaã",
        "street": "Rua Boa Sorte",
        "zipcode": "29135-047"
    },
    {
        "city": "Viana",
        "state": "ES",
        "district": "Canaã",
        "street": "Rua Eldorado",
        "zipcode": "29135-063"
    },
    {
        "city": "Viana",
        "state": "ES",
        "district": "Canaã",
        "street": "Rua Vale Encantado",
        "zipcode": "29135-066"
    },
    {
        "city": "Viana",
        "state": "ES",
        "district": "Universal",
        "street": "Rua Quarenta e Cinco",
        "zipcode": "29134-574"
    },
    {
        "city": "Viana",
        "state": "ES",
        "district": "Universal",
        "street": "Rua Amazonas",
        "zipcode": "29134-601"
    },
    {
        "city": "Viana",
        "state": "ES",
        "district": "Universal",
        "street": "Rua 1º de Maio",
        "zipcode": "29134-646"
    },
    {
        "city": "Viana",
        "state": "ES",
        "district": "Universal",
        "street": "Rua das Flores",
        "zipcode": "29134-661"
    },
    {
        "city": "Viana",
        "state": "ES",
        "district": "Universal",
        "street": "Avenida Resplendor",
        "zipcode": "29134-683"
    },
    {
        "city": "Viana",
        "state": "ES",
        "district": "Canaã",
        "street": "Rua Mirim",
        "zipcode": "29135-094"
    },
    {
        "city": "Viana",
        "state": "ES",
        "district": "Canaã",
        "street": "Rua Bom Sucesso",
        "zipcode": "29135-109"
    },
    {
        "city": "Viana",
        "state": "ES",
        "district": "Marcílio de Noronha",
        "street": "Avenida Minas Gerais",
        "zipcode": "29135-504"
    },
    {
        "city": "Viana",
        "state": "ES",
        "district": "Marcílio de Noronha",
        "street": "Rua Juiz de Fora",
        "zipcode": "29135-548"
    },
    {
        "city": "Viana",
        "state": "ES",
        "district": "Areinha",
        "street": "Rua Santa Clara",
        "zipcode": "29137-006"
    },
    {
        "city": "Viana",
        "state": "ES",
        "district": "Areinha",
        "street": "Rua dos Andradas",
        "zipcode": "29137-027"
    },
    {
        "city": "Viana",
        "state": "ES",
        "district": "Areinha",
        "street": "Rua da Alfândega",
        "zipcode": "29137-044"
    },
    {
        "city": "Viana",
        "state": "ES",
        "district": "Morada Bethânia",
        "street": "Rua Bernardo Saião",
        "zipcode": "29138-753"
    },
    {
        "city": "Viana",
        "state": "ES",
        "district": "Morada Bethânia",
        "street": "Rua Eça de Queiroz",
        "zipcode": "29138-762"
    },
    {
        "city": "Viana",
        "state": "ES",
        "district": "Areinha",
        "street": "Rua Duque de Caxias",
        "zipcode": "29137-065"
    },
    {
        "city": "Viana",
        "state": "ES",
        "district": "Areinha",
        "street": "Rua Monte Negro",
        "zipcode": "29137-082"
    },
    {
        "city": "Viana",
        "state": "ES",
        "district": "Marcílio de Noronha",
        "street": "Rua Santos",
        "zipcode": "29135-410"
    },
    {
        "city": "Viana",
        "state": "ES",
        "district": "Marcílio de Noronha",
        "street": "Rua São José dos Campos",
        "zipcode": "29135-413"
    },
    {
        "city": "Viana",
        "state": "ES",
        "district": "Marcílio de Noronha",
        "street": "Rua São Bernardo do Campo",
        "zipcode": "29135-419"
    },
    {
        "city": "Viana",
        "state": "ES",
        "district": "Marcílio de Noronha",
        "street": "Rua São Pedro",
        "zipcode": "29135-446"
    },
    {
        "city": "Viana",
        "state": "ES",
        "district": "Marcílio de Noronha",
        "street": "Avenida Belo Horizonte",
        "zipcode": "29135-470"
    },
    {
        "city": "Viana",
        "state": "ES",
        "district": "Vila Bethânia",
        "street": "Rua Jerônimo Monteiro",
        "zipcode": "29136-079"
    },
    {
        "city": "Viana",
        "state": "ES",
        "district": "Vila Bethânia",
        "street": "Avenida Espírito Santo",
        "zipcode": "29136-096"
    },
    {
        "city": "Viana",
        "state": "ES",
        "district": "Vila Bethânia",
        "street": "Beco São João II",
        "zipcode": "29136-129"
    },
    {
        "city": "Viana",
        "state": "ES",
        "district": "Universal",
        "street": "Rua Marcelino José da Silva",
        "zipcode": "29134-485"
    },
    {
        "city": "Viana",
        "state": "ES",
        "district": "Vila Bethânia",
        "street": "Rua São João",
        "zipcode": "29136-150"
    },
    {
        "city": "Viana",
        "state": "ES",
        "district": "Arlindo Villaschi",
        "street": "Travessa São João",
        "zipcode": "29136-193"
    },
    {
        "city": "Viana",
        "state": "ES",
        "district": "Arlindo Villaschi",
        "street": "Rua Nossa Senhora Aparecida",
        "zipcode": "29136-209"
    },
    {
        "city": "Viana",
        "state": "ES",
        "district": "Caxias do Sul",
        "street": "Rua Maranhão",
        "zipcode": "29136-467"
    },
    {
        "city": "Viana",
        "state": "ES",
        "district": "Caxias do Sul",
        "street": "Rua Vivaldo Brandão",
        "zipcode": "29136-416"
    },
    {
        "city": "Viana",
        "state": "ES",
        "district": "Caxias do Sul",
        "street": "Rua Maria Soares de Jesus",
        "zipcode": "29136-439"
    },
    {
        "city": "Viana",
        "state": "ES",
        "district": "Jucu",
        "street": "Rua Carmem Maria Mai Kirmse",
        "zipcode": "29131-108"
    },
    {
        "city": "Viana",
        "state": "ES",
        "district": "Universal",
        "street": "Rua Tavares Neto",
        "zipcode": "29134-709"
    },
    {
        "city": "Viana",
        "state": "ES",
        "district": "Campo Verde",
        "street": "Rua Luiz Cézar",
        "zipcode": "29138-493"
    },
    {
        "city": "Viana",
        "state": "ES",
        "district": "Caxias do Sul",
        "street": "Rua Sebastião Nonato",
        "zipcode": "29136-494"
    },
    {
        "city": "Viana",
        "state": "ES",
        "district": "Primavera",
        "street": "Rua João de Almeida",
        "zipcode": "29135-201"
    },
    {
        "city": "Viana",
        "state": "ES",
        "district": "Marcílio de Noronha",
        "street": "Rua Porto Alegre",
        "zipcode": "29135-350"
    },
    {
        "city": "Viana",
        "state": "ES",
        "district": "Marcílio de Noronha",
        "street": "Rua Bauru",
        "zipcode": "29135-375"
    },
    {
        "city": "Viana",
        "state": "ES",
        "district": "Marcílio de Noronha",
        "street": "Avenida Piracicaba",
        "zipcode": "29135-391"
    },
    {
        "city": "Viana",
        "state": "ES",
        "district": "Vila Bethânia",
        "street": "Rodovia BR",
        "zipcode": "29136-010"
    },
    {
        "city": "Viana",
        "state": "ES",
        "district": "Caxias do Sul",
        "street": "Rodovia BR",
        "zipcode": "29136-350"
    },
    {
        "city": "Viana",
        "state": "ES",
        "district": "Nova Bethânia",
        "street": "Rua dos Andes",
        "zipcode": "29138-970"
    },
    {
        "city": "Viana",
        "state": "ES",
        "district": "Arlindo Villaschi",
        "street": "Avenida Guarapari",
        "zipcode": "29136-970"
    },
    {
        "city": "Viana",
        "state": "ES",
        "district": "Marcílio de Noronha",
        "street": "Avenida Espírito Santo",
        "zipcode": "29135-973"
    },
    {
        "city": "Viana",
        "state": "ES",
        "district": "Vila Bethânia",
        "street": "Rodovia Governador Mário Covas",
        "zipcode": "29136-975"
    },
    {
        "city": "Viana",
        "state": "ES",
        "district": "Vila Bethânia",
        "street": "Rodovia Governador Mário Covas",
        "zipcode": "29136-980"
    },
    {
        "city": "Viana",
        "state": "ES",
        "district": "Areinha",
        "street": "Rua Visconde de Inhauma",
        "zipcode": "29137-264"
    },
    {
        "city": "Viana",
        "state": "ES",
        "district": "Arlindo Villaschi",
        "street": "Rua dos Coqueiros",
        "zipcode": "29136-296"
    },
    {
        "city": "Viana",
        "state": "ES",
        "district": "Universal",
        "street": "Rua Bom Jardim",
        "zipcode": "29134-643"
    },
    {
        "city": "Viana",
        "state": "ES",
        "district": "Nova Bethânia",
        "street": "Rua Rio Negro",
        "zipcode": "29138-046"
    },
    {
        "city": "Viana",
        "state": "ES",
        "district": "Nova Bethânia",
        "street": "Rua Monte Pascoal",
        "zipcode": "29138-068"
    },
    {
        "city": "Viana",
        "state": "ES",
        "district": "Nova Bethânia",
        "street": "Rua Ilha Grande",
        "zipcode": "29138-098"
    },
    {
        "city": "Viana",
        "state": "ES",
        "district": "Nova Bethânia",
        "street": "Rua Mestre Álvaro",
        "zipcode": "29138-117"
    },
    {
        "city": "Viana",
        "state": "ES",
        "district": "Nova Bethânia",
        "street": "Rua Caparaó",
        "zipcode": "29138-120"
    },
    {
        "city": "Viana",
        "state": "ES",
        "district": "Nova Bethânia",
        "street": "Rua Rio São Francisco",
        "zipcode": "29138-143"
    },
    {
        "city": "Viana",
        "state": "ES",
        "district": "Nova Bethânia",
        "street": "Rua Tupinambás",
        "zipcode": "29138-170"
    },
    {
        "city": "Viana",
        "state": "ES",
        "district": "Nova Bethânia",
        "street": "Rua Tupiniquins",
        "zipcode": "29138-201"
    },
    {
        "city": "Viana",
        "state": "ES",
        "district": "Nova Bethânia",
        "street": "Rua do Cruzeiro",
        "zipcode": "29138-207"
    },
    {
        "city": "Viana",
        "state": "ES",
        "district": "Campo Verde",
        "street": "Rua Nossa Senhora das Graças",
        "zipcode": "29138-367"
    },
    {
        "city": "Viana",
        "state": "ES",
        "district": "Areinha",
        "street": "Rua Mário Ribeiro",
        "zipcode": "29137-107"
    },
    {
        "city": "Viana",
        "state": "ES",
        "district": "Areinha",
        "street": "Rua Mato Grosso",
        "zipcode": "29137-129"
    },
    {
        "city": "Viana",
        "state": "ES",
        "district": "Areinha",
        "street": "Rua 31 de Março",
        "zipcode": "29137-168"
    },
    {
        "city": "Viana",
        "state": "ES",
        "district": "Areinha",
        "street": "Rua Vieira Souto",
        "zipcode": "29137-210"
    },
    {
        "city": "Viana",
        "state": "ES",
        "district": "Piapitangui Setor III",
        "street": "Comunidade Balestreiros",
        "zipcode": "29134-002"
    },
    {
        "city": "Viana",
        "state": "ES",
        "district": "Pedra da Mulata Setor I",
        "street": "Comunidade Pedra da Mulata",
        "zipcode": "29131-430"
    },
    {
        "city": "Viana",
        "state": "ES",
        "district": "Areinha",
        "street": "Rua Eugênio Jacob Velten",
        "zipcode": "29137-150"
    },
    {
        "city": "Viana",
        "state": "ES",
        "district": "Areinha",
        "street": "Rua Pedro Azevedo Júnior",
        "zipcode": "29137-300"
    },
    {
        "city": "Viana",
        "state": "ES",
        "district": "Marcílio de Noronha",
        "street": "Rua Angelina Bortolotti",
        "zipcode": "29135-331"
    },
    {
        "city": "Viana",
        "state": "ES",
        "district": "Universal",
        "street": "Rua Bom Jesus",
        "zipcode": "29134-673"
    },
    {
        "city": "Viana",
        "state": "ES",
        "district": "Jucu Setor II",
        "street": "Comunidade Itaúnas",
        "zipcode": "29132-016"
    },
    {
        "city": "Viana",
        "state": "ES",
        "district": "Areinha",
        "street": "Rua Albertina Maciel Azevedo",
        "zipcode": "29137-291"
    },
    {
        "city": "Viana",
        "state": "ES",
        "district": "Primavera",
        "street": "Avenida Terezinha Pereira Abranches",
        "zipcode": "29135-220"
    },
    {
        "city": "Viana",
        "state": "ES",
        "district": "Arlindo Villaschi",
        "street": "Rua das Roseiras",
        "zipcode": "29136-239"
    },
    {
        "city": "Viana",
        "state": "ES",
        "district": "Nova Bethânia",
        "street": "Rua da Consolação",
        "zipcode": "29138-254"
    },
    {
        "city": "Viana",
        "state": "ES",
        "district": "Morada Bethânia",
        "street": "Rua Alegre",
        "zipcode": "29138-572"
    },
    {
        "city": "Viana",
        "state": "ES",
        "district": "Morada Bethânia",
        "street": "Rua Alfredo Chaves",
        "zipcode": "29138-587"
    },
    {
        "city": "Viana",
        "state": "ES",
        "district": "Nova Bethânia",
        "street": "Rua Nossa Senhora da Penha",
        "zipcode": "29138-297"
    },
    {
        "city": "Viana",
        "state": "ES",
        "district": "Campo Verde",
        "street": "Rua Santa Clara",
        "zipcode": "29138-337"
    },
    {
        "city": "Viana",
        "state": "ES",
        "district": "Campo Verde",
        "street": "Rua Santa Paula",
        "zipcode": "29138-349"
    },
    {
        "city": "Viana",
        "state": "ES",
        "district": "Campo Verde",
        "street": "Rua São Francisco",
        "zipcode": "29138-388"
    },
    {
        "city": "Viana",
        "state": "ES",
        "district": "Campo Verde",
        "street": "Rua K",
        "zipcode": "29138-430"
    },
    {
        "city": "Viana",
        "state": "ES",
        "district": "Campo Verde",
        "street": "Rua R",
        "zipcode": "29138-457"
    },
    {
        "city": "Viana",
        "state": "ES",
        "district": "Campo Verde",
        "street": "Rua Limoeiro",
        "zipcode": "29138-460"
    },
    {
        "city": "Viana",
        "state": "ES",
        "district": "Campo Verde",
        "street": "Rua T",
        "zipcode": "29138-475"
    },
    {
        "city": "Viana",
        "state": "ES",
        "district": "Campo Verde",
        "street": "Rua Z",
        "zipcode": "29138-490"
    },
    {
        "city": "Viana",
        "state": "ES",
        "district": "Campo Verde",
        "street": "Rua C 2",
        "zipcode": "29138-508"
    },
    {
        "city": "Viana",
        "state": "ES",
        "district": "Campo Verde",
        "street": "Rua Vitória",
        "zipcode": "29138-526"
    },
    {
        "city": "Viana",
        "state": "ES",
        "district": "Morada Bethânia",
        "street": "Rua Domingos Martins",
        "zipcode": "29138-556"
    },
    {
        "city": "Viana",
        "state": "ES",
        "district": "Morada Bethânia",
        "street": "Rua Duque de Caxias",
        "zipcode": "29138-735"
    },
    {
        "city": "Viana",
        "state": "ES",
        "district": "Universal",
        "street": "Rua Domingos Martins",
        "zipcode": "29134-498"
    },
    {
        "city": "Viana",
        "state": "ES",
        "district": "Arlindo Villaschi",
        "street": "Travessa Rosa Amarela",
        "zipcode": "29136-260"
    },
    {
        "city": "Viana",
        "state": "ES",
        "district": "Nova Bethânia",
        "street": "Rua Nosso Senhor do Bonfim",
        "zipcode": "29138-220"
    },
    {
        "city": "Viana",
        "state": "ES",
        "district": "Morada Bethânia",
        "street": "Rua João XXIII",
        "zipcode": "29138-614"
    },
    {
        "city": "Viana",
        "state": "ES",
        "district": "Arlindo Villaschi",
        "street": "Avenida Amazonas",
        "zipcode": "29136-308"
    },
    {
        "city": "Viana",
        "state": "ES",
        "district": "Centro",
        "street": "Avenida Paris",
        "zipcode": "29130-260"
    },
    {
        "city": "Viana",
        "state": "ES",
        "district": "Jucu",
        "street": "Rua Jovelino Pereira Campos",
        "zipcode": "29131-111"
    },
    {
        "city": "Viana",
        "state": "ES",
        "district": "Universal",
        "street": "Rua Minas Gerais",
        "zipcode": "29134-571"
    },
    {
        "city": "Viana",
        "state": "ES",
        "district": "Universal",
        "street": "Rua da Escadaria",
        "zipcode": "29134-706"
    },
    {
        "city": "Viana",
        "state": "ES",
        "district": "Universal",
        "street": "Rua São Lucas",
        "zipcode": "29134-418"
    },
    {
        "city": "Viana",
        "state": "ES",
        "district": "Universal",
        "street": "Rua Nossa Senhora Auxiliadora",
        "zipcode": "29134-433"
    },
    {
        "city": "Viana",
        "state": "ES",
        "district": "Jucu",
        "street": "Rua Eugênio Jaime de Paiva",
        "zipcode": "29131-090"
    },
    {
        "city": "Viana",
        "state": "ES",
        "district": "Nova Bethânia",
        "street": "Rua Tumucumaque",
        "zipcode": "29138-055"
    },
    {
        "city": "Viana",
        "state": "ES",
        "district": "Caxias do Sul",
        "street": "Avenida Rio de Janeiro",
        "zipcode": "29136-407"
    },
    {
        "city": "Viana",
        "state": "ES",
        "district": "Nova Bethânia",
        "street": "Rua Juparanã",
        "zipcode": "29138-174"
    },
    {
        "city": "Viana",
        "state": "ES",
        "district": "Morada Bethânia",
        "street": "Rua Campos Sales",
        "zipcode": "29138-774"
    },
    {
        "city": "Viana",
        "state": "ES",
        "district": "Morada Bethânia",
        "street": "Rua Castelo Branco",
        "zipcode": "29138-873"
    },
    {
        "city": "Viana",
        "state": "ES",
        "district": "Marcílio de Noronha",
        "street": "Rua Cachoeiro de Itapemirim",
        "zipcode": "29135-533"
    },
    {
        "city": "Viana",
        "state": "ES",
        "district": "Bom Pastor",
        "street": "Rua Antônio Borges Rocha",
        "zipcode": "29132-598"
    },
    {
        "city": "Viana",
        "state": "ES",
        "district": "Areinha",
        "street": "Rua Guarani",
        "zipcode": "29137-047"
    },
    {
        "city": "Viana",
        "state": "ES",
        "district": "Areinha",
        "street": "Rua Barão de Mesquita",
        "zipcode": "29137-059"
    },
    {
        "city": "Viana",
        "state": "ES",
        "district": "Marcílio de Noronha",
        "street": "Rua Divinópolis",
        "zipcode": "29135-489"
    },
    {
        "city": "Viana",
        "state": "ES",
        "district": "Marcílio de Noronha",
        "street": "Rua Governador Valadares",
        "zipcode": "29135-498"
    },
    {
        "city": "Viana",
        "state": "ES",
        "district": "Vila Bethânia",
        "street": "Beco Santa Fé",
        "zipcode": "29136-049"
    },
    {
        "city": "Viana",
        "state": "ES",
        "district": "Morada Bethânia",
        "street": "Rua Couto Magalhães",
        "zipcode": "29138-690"
    },
    {
        "city": "Viana",
        "state": "ES",
        "district": "Nova Bethânia",
        "street": "Rua Rio Guaíba",
        "zipcode": "29138-177"
    },
    {
        "city": "Viana",
        "state": "ES",
        "district": "Centro",
        "street": "Avenida Aníbal Moutinho",
        "zipcode": "29130-263"
    },
    {
        "city": "Viana",
        "state": "ES",
        "district": "Nova Bethânia",
        "street": "Rua Rio Trombetas",
        "zipcode": "29138-006"
    },
    {
        "city": "Viana",
        "state": "ES",
        "district": "Caxias do Sul",
        "street": "Rua Gercino Almeida Ricas",
        "zipcode": "29136-433"
    },
    {
        "city": "Viana",
        "state": "ES",
        "district": "Araçatiba",
        "street": "Rua Maria da Conceição Gomes",
        "zipcode": "29131-323"
    },
    {
        "city": "Viana",
        "state": "ES",
        "district": "São Paulo Setor IV",
        "street": "Comunidade Biriricas",
        "zipcode": "29130-500"
    },
    {
        "city": "Viana",
        "state": "ES",
        "district": "Jucu",
        "street": "Praça Daniel José de Oliveira",
        "zipcode": "29131-106"
    },
    {
        "city": "Viana",
        "state": "ES",
        "district": "Universal",
        "street": "Rua Santa Rosa",
        "zipcode": "29134-667"
    },
    {
        "city": "Viana",
        "state": "ES",
        "district": "Vila Bethânia",
        "street": "Rua Jones dos Santos Neves",
        "zipcode": "29136-117"
    },
    {
        "city": "Viana",
        "state": "ES",
        "district": "Areinha",
        "street": "Rua Clóvis José",
        "zipcode": "29137-189"
    },
    {
        "city": "Viana",
        "state": "ES",
        "district": "Areinha",
        "street": "Rua Joaquim Nabuco",
        "zipcode": "29137-222"
    },
    {
        "city": "Viana",
        "state": "ES",
        "district": "Arlindo Villaschi",
        "street": "Rua dos Antulhos",
        "zipcode": "29136-269"
    },
    {
        "city": "Viana",
        "state": "ES",
        "district": "Caxias do Sul",
        "street": "Rua Sebastião de Paulo Mendonça",
        "zipcode": "29136-485"
    },
    {
        "city": "Viana",
        "state": "ES",
        "district": "Campo Verde",
        "street": "Rua A",
        "zipcode": "29138-376"
    },
    {
        "city": "Viana",
        "state": "ES",
        "district": "Campo Verde",
        "street": "Rua da Igreja",
        "zipcode": "29138-442"
    },
    {
        "city": "Viana",
        "state": "ES",
        "district": "Bom Pastor",
        "street": "Rua Winston Churchill",
        "zipcode": "29132-576"
    },
    {
        "city": "Viana",
        "state": "ES",
        "district": "Primavera",
        "street": "Rua Waldimiro Cândido de Souza",
        "zipcode": "29135-177"
    },
    {
        "city": "Viana",
        "state": "ES",
        "district": "Marcílio de Noronha",
        "street": "Avenida Vitória",
        "zipcode": "29135-368"
    },
    {
        "city": "Viana",
        "state": "ES",
        "district": "Centro",
        "street": "Praça Expedicionário Jeronimo Leite",
        "zipcode": "29130-043"
    },
    {
        "city": "Viana",
        "state": "ES",
        "district": "Centro",
        "street": "Rua Dois",
        "zipcode": "29130-010"
    },
    {
        "city": "Viana",
        "state": "ES",
        "district": "Centro",
        "street": "Rodovia BR",
        "zipcode": "29130-085"
    },
    {
        "city": "Viana",
        "state": "ES",
        "district": "Arlindo Villaschi",
        "street": "Rua Pedra Azul",
        "zipcode": "29136-305"
    },
    {
        "city": "Viana",
        "state": "ES",
        "district": "Vila Bethânia",
        "street": "Escadaria Ana Marianelli",
        "zipcode": "29136-126"
    },
    {
        "city": "Viana",
        "state": "ES",
        "district": "Nova Bethânia",
        "street": "Rua do Everest",
        "zipcode": "29138-123"
    },
    {
        "city": "Viana",
        "state": "ES",
        "district": "Jucu Setor II",
        "street": "Comunidade Morro dos Cocos",
        "zipcode": "29132-026"
    },
    {
        "city": "Viana",
        "state": "ES",
        "district": "Morada Bethânia",
        "street": "Rua Vasco de Ataídes",
        "zipcode": "29138-885"
    },
    {
        "city": "Viana",
        "state": "ES",
        "district": "Morada Bethânia",
        "street": "Rua Américo Vespúcio",
        "zipcode": "29138-828"
    },
    {
        "city": "Viana",
        "state": "ES",
        "district": "Morada Bethânia",
        "street": "Rua Nilo Peçanha",
        "zipcode": "29138-783"
    },
    {
        "city": "Viana",
        "state": "ES",
        "district": "Areinha",
        "street": "Rua Senador Tarcísio Miranda",
        "zipcode": "29137-276"
    },
    {
        "city": "Viana",
        "state": "ES",
        "district": "Bom Pastor",
        "street": "Rodovia Governador Mário Govas",
        "zipcode": "29132-666"
    },
    {
        "city": "Viana",
        "state": "ES",
        "district": "Caxias do Sul",
        "street": "Rua Maria D Telles da Silva",
        "zipcode": "29136-375"
    },
    {
        "city": "Viana",
        "state": "ES",
        "district": "Areinha",
        "street": "Praça José Sérgio da Silva",
        "zipcode": "29137-073"
    },
    {
        "city": "Viana",
        "state": "ES",
        "district": "Bom Pastor",
        "street": "Rua Manoel Madalena",
        "zipcode": "29132-570"
    },
    {
        "city": "Viana",
        "state": "ES",
        "district": "Universal",
        "street": "Rua Linhares",
        "zipcode": "29134-448"
    },
    {
        "city": "Viana",
        "state": "ES",
        "district": "Vila Bethânia",
        "street": "Avenida Valdecy Cândido de Moraes",
        "zipcode": "29136-034"
    },
    {
        "city": "Viana",
        "state": "ES",
        "district": "Areinha",
        "street": "Rua Alamedas",
        "zipcode": "29137-273"
    },
    {
        "city": "Viana",
        "state": "ES",
        "district": "Primavera",
        "street": "Avenida Hozache Ferreira Brant",
        "zipcode": "29135-163"
    },
    {
        "city": "Viana",
        "state": "ES",
        "district": "Jucu",
        "street": "Rua Theodomiro Peri de Miranda",
        "zipcode": "29131-970"
    },
    {
        "city": "Viana",
        "state": "ES",
        "district": "Jucu",
        "street": "Travessa Ondina Teixeira",
        "zipcode": "29131-051"
    },
    {
        "city": "Viana",
        "state": "ES",
        "district": "Jucu",
        "street": "Rua Manoel Claudio de Freitas",
        "zipcode": "29131-042"
    },
    {
        "city": "Viana",
        "state": "ES",
        "district": "Jucu",
        "street": "Rua Theodomiro Peri de Miranda",
        "zipcode": "29131-093"
    },
    {
        "city": "Viana",
        "state": "ES",
        "district": "Nova Bethânia",
        "street": "Rua Rio Tocantins",
        "zipcode": "29138-049"
    },
    {
        "city": "Viana",
        "state": "ES",
        "district": "Nova Bethânia",
        "street": "Rua São Gabriel da Palha",
        "zipcode": "29138-232"
    },
    {
        "city": "Viana",
        "state": "ES",
        "district": "Morada Bethânia",
        "street": "Rua Carlos Gomes",
        "zipcode": "29138-840"
    },
    {
        "city": "Viana",
        "state": "ES",
        "district": "Ribeira",
        "street": "Rua Maria Zuleika de Siqueira Pádua",
        "zipcode": "29132-702"
    },
    {
        "city": "Viana",
        "state": "ES",
        "district": "Areinha",
        "street": "Rua do Catete",
        "zipcode": "29137-024"
    },
    {
        "city": "Viana",
        "state": "ES",
        "district": "Universal",
        "street": "Avenida Linhares",
        "zipcode": "29134-494"
    },
    {
        "city": "Viana",
        "state": "ES",
        "district": "Nova Bethânia",
        "street": "Rua Divino Espírito Santo",
        "zipcode": "29138-250"
    },
    {
        "city": "Viana",
        "state": "ES",
        "district": "Nova Bethânia",
        "street": "Rua São Benedito",
        "zipcode": "29138-269"
    },
    {
        "city": "Viana",
        "state": "ES",
        "district": "Nova Bethânia",
        "street": "Avenida Nossa Senhora Aparecida",
        "zipcode": "29138-272"
    },
    {
        "city": "Viana",
        "state": "ES",
        "district": "Nova Bethânia",
        "street": "Rua São Caetano",
        "zipcode": "29138-282"
    },
    {
        "city": "Viana",
        "state": "ES",
        "district": "Morada Bethânia",
        "street": "Rua Fernando de Noronha",
        "zipcode": "29138-608"
    },
    {
        "city": "Viana",
        "state": "ES",
        "district": "Campo Verde",
        "street": "Rua M",
        "zipcode": "29138-433"
    },
    {
        "city": "Viana",
        "state": "ES",
        "district": "Campo Verde",
        "street": "Rua Xavier",
        "zipcode": "29138-469"
    },
    {
        "city": "Viana",
        "state": "ES",
        "district": "Areinha",
        "street": "Rua Conde Bonfim",
        "zipcode": "29137-204"
    },
    {
        "city": "Viana",
        "state": "ES",
        "district": "Arlindo Villaschi",
        "street": "Avenida Valdecy Cândido de Moraes",
        "zipcode": "29136-173"
    },
    {
        "city": "Viana",
        "state": "ES",
        "district": "Vila Bethânia",
        "street": "Escadaria João Cândido de Morais",
        "zipcode": "29136-061"
    },
    {
        "city": "Viana",
        "state": "ES",
        "district": "Caxias do Sul",
        "street": "Rua Antônio Golvea",
        "zipcode": "29136-378"
    },
    {
        "city": "Viana",
        "state": "ES",
        "district": "Nova Bethânia",
        "street": "Travessa Nosso Senhor do Bonfim",
        "zipcode": "29138-260"
    },
    {
        "city": "Viana",
        "state": "ES",
        "district": "Jucu Setor II",
        "street": "Comunidade Coqueiral",
        "zipcode": "29132-040"
    },
    {
        "city": "Viana",
        "state": "ES",
        "district": "Caxias do Sul",
        "street": "Rua Júlio Emílio Cristy",
        "zipcode": "29136-365"
    },
    {
        "city": "Viana",
        "state": "ES",
        "district": "Morada Bethânia",
        "street": "Rua Marechal Mascarenhas de Morais",
        "zipcode": "29138-663"
    },
    {
        "city": "Viana",
        "state": "ES",
        "district": "Marcílio de Noronha",
        "street": "Rua São João del Rey",
        "zipcode": "29135-545"
    },
    {
        "city": "Viana",
        "state": "ES",
        "district": "Vila Bethânia",
        "street": "Rua Idalino Carvalho",
        "zipcode": "29136-017"
    },
    {
        "city": "Viana",
        "state": "ES",
        "district": "Bom Pastor",
        "street": "Rua Itacoatiara",
        "zipcode": "29132-602"
    },
    {
        "city": "Viana",
        "state": "ES",
        "district": "Areinha",
        "street": "Rua Judith Schwab Carvalho",
        "zipcode": "29137-123"
    },
    {
        "city": "Viana",
        "state": "ES",
        "district": "Parque Industrial",
        "street": "Rua Judith Schwab Carvalho",
        "zipcode": "29136-546"
    },
    {
        "city": "Viana",
        "state": "ES",
        "district": "Araçatiba",
        "street": "Estrada Perciliano Lyra Trancoso",
        "zipcode": "29131-360"
    },
    {
        "city": "Viana",
        "state": "ES",
        "district": "Morada Bethânia",
        "street": "Rua Duarte Coelho",
        "zipcode": "29138-825"
    },
    {
        "city": "Viana",
        "state": "ES",
        "district": "Primavera",
        "street": "Rua Daniel Veríssimo",
        "zipcode": "29135-262"
    },
    {
        "city": "Viana",
        "state": "ES",
        "district": "Morada Bethânia",
        "street": "Rua Conde DEu",
        "zipcode": "29138-849"
    },
    {
        "city": "Viana",
        "state": "ES",
        "district": "Pedra da Mulata Setor I",
        "street": "Comunidade Costa Pereira",
        "zipcode": "29131-414"
    },
    {
        "city": "Viana",
        "state": "ES",
        "district": "Marcílio de Noronha",
        "street": "Rua Berlin",
        "zipcode": "29135-530"
    },
    {
        "city": "Viana",
        "state": "ES",
        "district": "Parque Industrial",
        "street": "Rua Idalino Carvalho",
        "zipcode": "29136-910"
    },
    {
        "city": "Viana",
        "state": "ES",
        "district": "Morada Bethânia",
        "street": "Rua Machado de Assis",
        "zipcode": "29138-717"
    },
    {
        "city": "Viana",
        "state": "ES",
        "district": "Centro",
        "street": "Rua Aspazia Varejão Dias",
        "zipcode": "29130-013"
    },
    {
        "city": "Viana",
        "state": "ES",
        "district": "Centro",
        "street": "Rua Sizenando Grijó",
        "zipcode": "29130-199"
    },
    {
        "city": "Viana",
        "state": "ES",
        "district": "Areinha",
        "street": "Rua Santa Catarina",
        "zipcode": "29137-100"
    },
    {
        "city": "Viana",
        "state": "ES",
        "district": "Areinha",
        "street": "Rua Antônio Fernandes Coutinho",
        "zipcode": "29137-285"
    },
    {
        "city": "Viana",
        "state": "ES",
        "district": "Morada Bethânia",
        "street": "Rua Graça Aranha",
        "zipcode": "29138-644"
    },
    {
        "city": "Viana",
        "state": "ES",
        "district": "Canaã",
        "street": "Avenida Alcacibas Furtado",
        "zipcode": "29135-008"
    },
    {
        "city": "Viana",
        "state": "ES",
        "district": "Universal",
        "street": "Rua Blumenau",
        "zipcode": "29134-553"
    },
    {
        "city": "Viana",
        "state": "ES",
        "district": "Nova Bethânia",
        "street": "Rua Serra da Mantiqueira",
        "zipcode": "29138-189"
    },
    {
        "city": "Viana",
        "state": "ES",
        "district": "Universal",
        "street": "Rua Catarina Ferreira",
        "zipcode": "29134-520"
    },
    {
        "city": "Viana",
        "state": "ES",
        "district": "Universal",
        "street": "Rua Domingos Romanha",
        "zipcode": "29134-454"
    },
    {
        "city": "Viana",
        "state": "ES",
        "district": "Centro",
        "street": "Estrada Hugo Eduardo Proscholdt",
        "zipcode": "29130-285"
    },
    {
        "city": "Viana",
        "state": "ES",
        "district": "Areinha",
        "street": "Rua Almirante Tamandaré",
        "zipcode": "29137-241"
    },
    {
        "city": "Viana",
        "state": "ES",
        "district": "Centro",
        "street": "Rua Onze",
        "zipcode": "29130-230"
    },
    {
        "city": "Viana",
        "state": "ES",
        "district": "Jucu",
        "street": "Rua Doze",
        "zipcode": "29131-033"
    },
    {
        "city": "Viana",
        "state": "ES",
        "district": "Universal",
        "street": "Avenida Alcacibas Furtado",
        "zipcode": "29134-403"
    },
    {
        "city": "Viana",
        "state": "ES",
        "district": "Jucu",
        "street": "Rua Pascoinha Cei",
        "zipcode": "29131-102"
    },
    {
        "city": "Viana",
        "state": "ES",
        "district": "Piapitangui Setor III",
        "street": "Comunidade Pimentas",
        "zipcode": "29134-026"
    },
    {
        "city": "Viana",
        "state": "ES",
        "district": "Areinha",
        "street": "Travessa Gomes Freire",
        "zipcode": "29137-225"
    },
    {
        "city": "Viana",
        "state": "ES",
        "district": "Pedra da Mulata Setor I",
        "street": "Comunidade Pau Lavrado",
        "zipcode": "29131-432"
    },
    {
        "city": "Viana",
        "state": "ES",
        "district": "Campo Verde",
        "street": "Rua Levino Ferreira Reboli",
        "zipcode": "29138-397"
    },
    {
        "city": "Viana",
        "state": "ES",
        "district": "Marcílio de Noronha",
        "street": "Travessa Anchieta",
        "zipcode": "29135-539"
    },
    {
        "city": "Viana",
        "state": "ES",
        "district": "Parque Industrial",
        "street": "Rua Idalino Carvalho",
        "zipcode": "29136-920"
    },
    {
        "city": "Viana",
        "state": "ES",
        "district": "Centro",
        "street": "Avenida Cléria Patrocínio Pimentel",
        "zipcode": "29130-053"
    },
    {
        "city": "Viana",
        "state": "ES",
        "district": "Universal",
        "street": "Rua Efigenio Coelho",
        "zipcode": "29134-568"
    },
    {
        "city": "Viana",
        "state": "ES",
        "district": "Arlindo Villaschi",
        "street": "Rua Castelo",
        "zipcode": "29136-312"
    },
    {
        "city": "Viana",
        "state": "ES",
        "district": "Nova Bethânia",
        "street": "Rua Castelo",
        "zipcode": "29138-167"
    },
    {
        "city": "Viana",
        "state": "ES",
        "district": "Marcílio de Noronha",
        "street": "Rua Marataízes",
        "zipcode": "29135-527"
    },
    {
        "city": "Viana",
        "state": "ES",
        "district": "Ribeira",
        "street": "Rua Luiz Rodrigues de Siqueira",
        "zipcode": "29132-705"
    },
    {
        "city": "Viana",
        "state": "ES",
        "district": "Areinha",
        "street": "Rua Durvalino Trabach",
        "zipcode": "29137-000"
    },
    {
        "city": "Viana",
        "state": "ES",
        "district": "Areinha",
        "street": "Rua Acre",
        "zipcode": "29137-009"
    },
    {
        "city": "Viana",
        "state": "ES",
        "district": "Marcílio de Noronha",
        "street": "Rua da Chácara",
        "zipcode": "29135-474"
    },
    {
        "city": "Viana",
        "state": "ES",
        "district": "Vila Bethânia",
        "street": "Rua Goiás",
        "zipcode": "29136-070"
    },
    {
        "city": "Viana",
        "state": "ES",
        "district": "Campo Verde",
        "street": "Rua Manoel Gomes",
        "zipcode": "29138-391"
    },
    {
        "city": "Viana",
        "state": "ES",
        "district": "Campo Verde",
        "street": "Rua São Paulo",
        "zipcode": "29138-439"
    },
    {
        "city": "Viana",
        "state": "ES",
        "district": "Centro",
        "street": "Travessa Costa Pereira",
        "zipcode": "29130-136"
    },
    {
        "city": "Viana",
        "state": "ES",
        "district": "Primavera",
        "street": "Avenida Brasil",
        "zipcode": "29135-173"
    },
    {
        "city": "Viana",
        "state": "ES",
        "district": "Centro",
        "street": "Rua Quatro",
        "zipcode": "29130-019"
    },
    {
        "city": "Viana",
        "state": "ES",
        "district": "Centro",
        "street": "Rua Cinco",
        "zipcode": "29130-022"
    },
    {
        "city": "Viana",
        "state": "ES",
        "district": "Centro",
        "street": "Rua Sete",
        "zipcode": "29130-028"
    },
    {
        "city": "Viana",
        "state": "ES",
        "district": "Campo Verde",
        "street": "Rua Cláudia Raia",
        "zipcode": "29138-520"
    },
    {
        "city": "Viana",
        "state": "ES",
        "district": "Morada Bethânia",
        "street": "Avenida Cláudio Manoel da Costa",
        "zipcode": "29138-711"
    },
    {
        "city": "Viana",
        "state": "ES",
        "district": "São Paulo Setor IV",
        "street": "Comunidade Pau Amarelo",
        "zipcode": "29130-518"
    },
    {
        "city": "Viana",
        "state": "ES",
        "district": "Marcílio de Noronha",
        "street": "Rua Paris",
        "zipcode": "29135-401"
    },
    {
        "city": "Viana",
        "state": "ES",
        "district": "Marcílio de Noronha",
        "street": "Rua Anchieta",
        "zipcode": "29135-524"
    },
    {
        "city": "Viana",
        "state": "ES",
        "district": "Morada Bethânia",
        "street": "Rua Dom João IV",
        "zipcode": "29138-702"
    },
    {
        "city": "Viana",
        "state": "ES",
        "district": "Universal",
        "street": "Rua Padre Anchieta",
        "zipcode": "29134-580"
    },
    {
        "city": "Viana",
        "state": "ES",
        "district": "Marcílio de Noronha",
        "street": "Rua Nodir Benedito",
        "zipcode": "29135-338"
    },
    {
        "city": "Viana",
        "state": "ES",
        "district": "Araçatiba",
        "street": "Estrada Doutor Aguinaldo Prezotti",
        "zipcode": "29131-365"
    },
    {
        "city": "Viana",
        "state": "ES",
        "district": "Piapitangui Setor III",
        "street": "Comunidade Piranema",
        "zipcode": "29134-028"
    },
    {
        "city": "Viana",
        "state": "ES",
        "district": "Centro",
        "street": "Rua Desembargador Levino Chacon",
        "zipcode": "29130-139"
    },
    {
        "city": "Viana",
        "state": "ES",
        "district": "Canaã",
        "street": "Rua Mutum",
        "zipcode": "29135-053"
    },
    {
        "city": "Viana",
        "state": "ES",
        "district": "Piapitangui Setor III",
        "street": "Comunidade Munguba",
        "zipcode": "29134-022"
    },
    {
        "city": "Viana",
        "state": "ES",
        "district": "Primavera",
        "street": "Rua Francisco Lacerda de Aguiar",
        "zipcode": "29135-183"
    },
    {
        "city": "Viana",
        "state": "ES",
        "district": "Centro",
        "street": "Praça Carlos Alberto Balestrero",
        "zipcode": "29130-105"
    },
    {
        "city": "Viana",
        "state": "ES",
        "district": "Boa Esperança",
        "street": "Rua João Farias",
        "zipcode": "29130-318"
    },
    {
        "city": "Viana",
        "state": "ES",
        "district": "Areinha",
        "street": "Rua Graça Aranha",
        "zipcode": "29137-219"
    },
    {
        "city": "Viana",
        "state": "ES",
        "district": "Morada Bethânia",
        "street": "Rua Cariacica",
        "zipcode": "29138-563"
    },
    {
        "city": "Viana",
        "state": "ES",
        "district": "Boa Esperança",
        "street": "Rua Coronel Sebastão Carlos de Oliveira",
        "zipcode": "29130-300"
    },
    {
        "city": "Viana",
        "state": "ES",
        "district": "Universal",
        "street": "Rua Goiânia",
        "zipcode": "29134-619"
    },
    {
        "city": "Viana",
        "state": "ES",
        "district": "Canaã",
        "street": "Rua Tancredo de Almeida Neves",
        "zipcode": "29135-004"
    },
    {
        "city": "Viana",
        "state": "ES",
        "district": "Areinha",
        "street": "Rua Cariacica",
        "zipcode": "29137-144"
    },
    {
        "city": "Viana",
        "state": "ES",
        "district": "Morada Bethânia",
        "street": "Rua Epitácio Pessoa",
        "zipcode": "29138-798"
    },
    {
        "city": "Viana",
        "state": "ES",
        "district": "Vila Bethânia",
        "street": "Rodovia Governador Mário Covas",
        "zipcode": "29136-971"
    },
    {
        "city": "Viana",
        "state": "ES",
        "district": "Vila Bethânia",
        "street": "Rodovia Governador Mário Covas",
        "zipcode": "29136-985"
    },
    {
        "city": "Viana",
        "state": "ES",
        "district": "Área Rural de Viana",
        "street": "Área Rural",
        "zipcode": "29139-899"
    },
    {
        "city": "Viana",
        "state": "ES",
        "district": "Vila Bethânia",
        "street": "Rodovia BR",
        "zipcode": "29136-930"
    },
    {
        "city": "Viana",
        "state": "ES",
        "district": "Vila Bethânia",
        "street": "Rodovia BR",
        "zipcode": "29136-974"
    },
    {
        "city": "Viana",
        "state": "ES",
        "district": "Centro",
        "street": "Praça Jerônimo Monteiro",
        "zipcode": "29130-178"
    },
    {
        "city": "Viana",
        "state": "ES",
        "district": "Nova Bethânia",
        "street": "Rua dos Andes",
        "zipcode": "29138-186"
    },
    {
        "city": "Viana",
        "state": "ES",
        "district": "Vila Bethânia",
        "street": "Rua Santa Helena",
        "zipcode": "29136-013"
    },
    {
        "city": "Viana",
        "state": "ES",
        "district": "Areinha",
        "street": "Rua Voluntários da Pátria",
        "zipcode": "29137-245"
    },
    {
        "city": "Viana",
        "state": "ES",
        "district": "Marcílio de Noronha",
        "street": "Avenida Benjamim Vitorio",
        "zipcode": "29135-563"
    },
    {
        "city": "Viana",
        "state": "ES",
        "district": "Marcílio de Noronha",
        "street": "Rua Acre",
        "zipcode": "29135-605"
    },
    {
        "city": "Viana",
        "state": "ES",
        "district": "Areinha",
        "street": "Rua Dias da Cruz",
        "zipcode": "29137-252"
    },
    {
        "city": "Viana",
        "state": "ES",
        "district": "Areinha",
        "street": "Rua José de Araújo Arantes",
        "zipcode": "29137-255"
    },
    {
        "city": "Viana",
        "state": "ES",
        "district": "Universal",
        "street": "Rua Quatitumba",
        "zipcode": "29134-550"
    },
    {
        "city": "Viana",
        "state": "ES",
        "district": "Arlindo Villaschi",
        "street": "Avenida São Sebastião",
        "zipcode": "29136-183"
    },
    {
        "city": "Viana",
        "state": "ES",
        "district": "São Paulo Setor IV",
        "street": "Comunidade Piaíba",
        "zipcode": "29130-520"
    },
    {
        "city": "Viana",
        "state": "ES",
        "district": "Areinha",
        "street": "Rua Canavieira",
        "zipcode": "29137-088"
    },
    {
        "city": "Viana",
        "state": "ES",
        "district": "Morada Bethânia",
        "street": "Rua Visconde de Ouro Preto",
        "zipcode": "29138-605"
    },
    {
        "city": "Viana",
        "state": "ES",
        "district": "Nova Bethânia",
        "street": "Rua Tupi",
        "zipcode": "29138-152"
    },
    {
        "city": "Viana",
        "state": "ES",
        "district": "Jucu Setor II",
        "street": "Comunidade Jucu",
        "zipcode": "29132-044"
    },
    {
        "city": "Viana",
        "state": "ES",
        "district": "Jucu Setor II",
        "street": "Comunidade Congo",
        "zipcode": "29132-010"
    },
    {
        "city": "Viana",
        "state": "ES",
        "district": "Pedra da Mulata Setor I",
        "street": "Comunidade Peixe Verde",
        "zipcode": "29131-434"
    },
    {
        "city": "Viana",
        "state": "ES",
        "district": "Centro",
        "street": "Rua Solange José de Souza",
        "zipcode": "29130-215"
    },
    {
        "city": "Viana",
        "state": "ES",
        "district": "Jucu",
        "street": "Rodovia Governador Mário Govas",
        "zipcode": "29131-000"
    },
    {
        "city": "Viana",
        "state": "ES",
        "district": "Parque Industrial",
        "street": "Rodovia Governador Mário Govas",
        "zipcode": "29136-552"
    },
    {
        "city": "Viana",
        "state": "ES",
        "district": "Marcílio de Noronha",
        "street": "Rua Barra de São Francisco",
        "zipcode": "29135-632"
    },
    {
        "city": "Viana",
        "state": "ES",
        "district": "Arlindo Villaschi",
        "street": "Rua Natal",
        "zipcode": "29136-302"
    },
    {
        "city": "Viana",
        "state": "ES",
        "district": "Canaã",
        "street": "Rua Fonte Limpa",
        "zipcode": "29135-041"
    },
    {
        "city": "Viana",
        "state": "ES",
        "district": "Canaã",
        "street": "Rua José Engiliardit",
        "zipcode": "29135-050"
    },
    {
        "city": "Viana",
        "state": "ES",
        "district": "Universal",
        "street": "Rua Quarenta e Um",
        "zipcode": "29134-556"
    },
    {
        "city": "Viana",
        "state": "ES",
        "district": "Universal",
        "street": "Rua Pedro Álvares Cabral",
        "zipcode": "29134-631"
    },
    {
        "city": "Viana",
        "state": "ES",
        "district": "Universal",
        "street": "Rua João Evangelista",
        "zipcode": "29134-427"
    },
    {
        "city": "Viana",
        "state": "ES",
        "district": "Universal",
        "street": "Rua da Amizade",
        "zipcode": "29134-430"
    },
    {
        "city": "Viana",
        "state": "ES",
        "district": "Areinha",
        "street": "Rua Rio Araguaia",
        "zipcode": "29137-050"
    },
    {
        "city": "Viana",
        "state": "ES",
        "district": "Nova Bethânia",
        "street": "Rua Nossa Senhora das Graças",
        "zipcode": "29138-235"
    },
    {
        "city": "Viana",
        "state": "ES",
        "district": "Morada Bethânia",
        "street": "Rua Prudente de Morais",
        "zipcode": "29138-768"
    },
    {
        "city": "Viana",
        "state": "ES",
        "district": "Jucu",
        "street": "Rua Adelino Jeremias Mendes",
        "zipcode": "29131-066"
    },
    {
        "city": "Viana",
        "state": "ES",
        "district": "Areinha",
        "street": "Rua do Castelinho",
        "zipcode": "29137-076"
    },
    {
        "city": "Viana",
        "state": "ES",
        "district": "Areinha",
        "street": "Rua Celestino José de Barros",
        "zipcode": "29137-126"
    },
    {
        "city": "Viana",
        "state": "ES",
        "district": "Marcílio de Noronha",
        "street": "Rua Guarujá",
        "zipcode": "29135-434"
    },
    {
        "city": "Viana",
        "state": "ES",
        "district": "Vila Bethânia",
        "street": "Rua Luíza Cazotti",
        "zipcode": "29136-030"
    },
    {
        "city": "Viana",
        "state": "ES",
        "district": "Vila Bethânia",
        "street": "Rua Beira Rio Formate",
        "zipcode": "29136-102"
    },
    {
        "city": "Viana",
        "state": "ES",
        "district": "Vila Bethânia",
        "street": "Rua São Cristovão",
        "zipcode": "29136-105"
    },
    {
        "city": "Viana",
        "state": "ES",
        "district": "Universal",
        "street": "Rua dos Atalaias",
        "zipcode": "29134-476"
    },
    {
        "city": "Viana",
        "state": "ES",
        "district": "Universal",
        "street": "Avenida Afonso Cláudio",
        "zipcode": "29134-529"
    },
    {
        "city": "Viana",
        "state": "ES",
        "district": "Arlindo Villaschi",
        "street": "Rua das Laranjeiras",
        "zipcode": "29136-266"
    },
    {
        "city": "Viana",
        "state": "ES",
        "district": "Nova Bethânia",
        "street": "Rua Buenos Aires",
        "zipcode": "29138-003"
    },
    {
        "city": "Viana",
        "state": "ES",
        "district": "Bom Pastor",
        "street": "Rua Ataufo Alves",
        "zipcode": "29132-545"
    },
    {
        "city": "Viana",
        "state": "ES",
        "district": "Morada Bethânia",
        "street": "Rua Almirante Tamandaré",
        "zipcode": "29138-638"
    },
    {
        "city": "Viana",
        "state": "ES",
        "district": "Caxias do Sul",
        "street": "Rua Santa Luzia",
        "zipcode": "29136-401"
    },
    {
        "city": "Viana",
        "state": "ES",
        "district": "Caxias do Sul",
        "street": "Rua Pernambuco",
        "zipcode": "29136-461"
    },
    {
        "city": "Viana",
        "state": "ES",
        "district": "Ribeira",
        "street": "Rua Adalberto Dias de Alvarenga",
        "zipcode": "29132-720"
    },
    {
        "city": "Viana",
        "state": "ES",
        "district": "Parque Industrial",
        "street": "Rua Desembargador Walter Moraes Siqueira",
        "zipcode": "29136-531"
    },
    {
        "city": "Viana",
        "state": "ES",
        "district": "Morada Bethânia",
        "street": "Rua Floriano Peixoto",
        "zipcode": "29138-765"
    },
    {
        "city": "Viana",
        "state": "ES",
        "district": "Caxias do Sul",
        "street": "Rua Geralda Silva Pereira",
        "zipcode": "29136-381"
    },
    {
        "city": "Viana",
        "state": "ES",
        "district": "Morada Bethânia",
        "street": "Rua das Hortênsias",
        "zipcode": "29138-550"
    },
    {
        "city": "Viana",
        "state": "ES",
        "district": "Morada Bethânia",
        "street": "Rua Marechal Rondon",
        "zipcode": "29138-687"
    },
    {
        "city": "Viana",
        "state": "ES",
        "district": "Universal",
        "street": "Rodovia BR",
        "zipcode": "29134-400"
    },
    {
        "city": "Viana",
        "state": "ES",
        "district": "Primavera",
        "street": "Rodovia BR",
        "zipcode": "29135-160"
    },
    {
        "city": "Viana",
        "state": "ES",
        "district": "Centro",
        "street": "Rua Coronel Sebastião Carlos de Oliveira",
        "zipcode": "29130-118"
    },
    {
        "city": "Viana",
        "state": "ES",
        "district": "Marcílio de Noronha",
        "street": "Avenida Antonio Freire",
        "zipcode": "29135-323"
    },
    {
        "city": "Viana",
        "state": "ES",
        "district": "Jucu",
        "street": "Rodovia Governador Mário Govas",
        "zipcode": "29131-005"
    },
    {
        "city": "Viana",
        "state": "ES",
        "district": "Morada Bethânia",
        "street": "Rua Serra",
        "zipcode": "29138-581"
    },
    {
        "city": "Viana",
        "state": "ES",
        "district": "Morada Bethânia",
        "street": "Rua Vasco Fernades Coutinho",
        "zipcode": "29138-650"
    },
    {
        "city": "Viana",
        "state": "ES",
        "district": "Nova Bethânia",
        "street": "Rua Fabiano Siqueira",
        "zipcode": "29138-155"
    },
    {
        "city": "Viana",
        "state": "ES",
        "district": "Araçatiba",
        "street": "Rua Vereadora Hercília Jantorno de Azevedo",
        "zipcode": "29131-335"
    }
]