[
    {
        "city": "Abreu E Lima",
        "state": "PE",
        "district": "Alto Sao Miguel",
        "street": "Rua Timbauba",
        "zipcode": "53560-500"
    },
    {
        "city": "Abreu E Lima",
        "state": "PE",
        "district": "Caetes I",
        "street": "Rua Cento E Tres",
        "zipcode": "53540-600"
    },
    {
        "city": "Abreu E Lima",
        "state": "PE",
        "district": "Caetes Iii",
        "street": "Rua Sessenta E Tres",
        "zipcode": "53520-801"
    },
    {
        "city": "Abreu E Lima",
        "state": "PE",
        "district": "Centro",
        "street": "Rua Do Hidrogenio",
        "zipcode": "53560-804"
    },
    {
        "city": "Abreu E Lima",
        "state": "PE",
        "district": "Centro",
        "street": "Rua Rio Grande",
        "zipcode": "53560-764"
    },
    {
        "city": "Abreu E Lima",
        "state": "PE",
        "district": "Timbo",
        "street": "Rua Belo Horizonte",
        "zipcode": "53520-530"
    },
    {
        "city": "Abreu E Lima",
        "state": "PE",
        "district": "Alto Sao Miguel",
        "street": "Rua Camacari",
        "zipcode": "53560-580"
    },
    {
        "city": "Abreu E Lima",
        "state": "PE",
        "district": "Centro",
        "street": "Rua Do Radio",
        "zipcode": "53560-763"
    },
    {
        "city": "Abreu E Lima",
        "state": "PE",
        "district": "Timbo",
        "street": "Rua F",
        "zipcode": "53510-110"
    },
    {
        "city": "Abreu E Lima",
        "state": "PE",
        "district": "Centro",
        "street": "Rua Sulfato",
        "zipcode": "53560-803"
    },
    {
        "city": "Abreu E Lima",
        "state": "PE",
        "district": "Alto Da Bela Vista",
        "street": "Rua Do Bauxita",
        "zipcode": "53510-010"
    },
    {
        "city": "Abreu E Lima",
        "state": "PE",
        "district": "Timbo",
        "street": "Rua G",
        "zipcode": "53510-120"
    },
    {
        "city": "Abreu E Lima",
        "state": "PE",
        "district": "Alto Da Bela Vista",
        "street": "Rua Nitrato",
        "zipcode": "53510-150"
    },
    {
        "city": "Abreu E Lima",
        "state": "PE",
        "district": "Caetes Iii",
        "street": "Rua Setenta E Dois",
        "zipcode": "53520-165"
    },
    {
        "city": "Abreu E Lima",
        "state": "PE",
        "district": "Caetes Iii",
        "street": "Rua Setenta E Nove",
        "zipcode": "53520-235"
    },
    {
        "city": "Abreu E Lima",
        "state": "PE",
        "district": "Caetes Iii",
        "street": "Rua Oitenta",
        "zipcode": "53520-242"
    },
    {
        "city": "Abreu E Lima",
        "state": "PE",
        "district": "Caetes Iii",
        "street": "Rua Setenta E Sete",
        "zipcode": "53520-295"
    },
    {
        "city": "Abreu E Lima",
        "state": "PE",
        "district": "Caetes Iii",
        "street": "Rua Quarenta E Cinco",
        "zipcode": "53520-590"
    },
    {
        "city": "Abreu E Lima",
        "state": "PE",
        "district": "Caetes Iii",
        "street": "Rua Oitenta E Sete",
        "zipcode": "53520-613"
    },
    {
        "city": "Abreu E Lima",
        "state": "PE",
        "district": "Caetes Iii",
        "street": "Rua Setenta",
        "zipcode": "53520-622"
    },
    {
        "city": "Abreu E Lima",
        "state": "PE",
        "district": "Caetes Iii",
        "street": "Rua Quarenta",
        "zipcode": "53520-662"
    },
    {
        "city": "Abreu E Lima",
        "state": "PE",
        "district": "Caetes Iii",
        "street": "Rua Cinquenta",
        "zipcode": "53520-680"
    },
    {
        "city": "Abreu E Lima",
        "state": "PE",
        "district": "Caetes Iii",
        "street": "Rua Cinquenta E Dois",
        "zipcode": "53520-690"
    },
    {
        "city": "Abreu E Lima",
        "state": "PE",
        "district": "Caetes Iii",
        "street": "Rua Sessenta E Cinco",
        "zipcode": "53520-803"
    },
    {
        "city": "Abreu E Lima",
        "state": "PE",
        "district": "Caetes Iii",
        "street": "Rua Oitenta E Cinco",
        "zipcode": "53520-805"
    },
    {
        "city": "Abreu E Lima",
        "state": "PE",
        "district": "Caetes Iii",
        "street": "Rua Sessenta E Um",
        "zipcode": "53520-815"
    },
    {
        "city": "Abreu E Lima",
        "state": "PE",
        "district": "Caetes Iii",
        "street": "Rua Oitenta E Um",
        "zipcode": "53520-825"
    },
    {
        "city": "Abreu E Lima",
        "state": "PE",
        "district": "Caetes Iii",
        "street": "Rua Oitenta E Quatro",
        "zipcode": "53520-829"
    },
    {
        "city": "Abreu E Lima",
        "state": "PE",
        "district": "Caetes Iii",
        "street": "Rua Cinquenta E Oito",
        "zipcode": "53520-834"
    },
    {
        "city": "Abreu E Lima",
        "state": "PE",
        "district": "Alto Da Bela Vista",
        "street": "Rua Do Berilo",
        "zipcode": "53510-220"
    },
    {
        "city": "Abreu E Lima",
        "state": "PE",
        "district": "Caetes Iii",
        "street": "Rua Quarenta E Tres",
        "zipcode": "53520-661"
    },
    {
        "city": "Abreu E Lima",
        "state": "PE",
        "district": "Caetes Iii",
        "street": "Rua Oitenta E Tres",
        "zipcode": "53520-828"
    },
    {
        "city": "Abreu E Lima",
        "state": "PE",
        "district": "Alto Da Bela Vista",
        "street": "Rua Do Badio",
        "zipcode": "53510-240"
    },
    {
        "city": "Abreu E Lima",
        "state": "PE",
        "district": "Alto Da Bela Vista",
        "street": "Rua Rio Do Oxigenio",
        "zipcode": "53510-260"
    },
    {
        "city": "Abreu E Lima",
        "state": "PE",
        "district": "Caetes Iii",
        "street": "Rua Setenta E Tres",
        "zipcode": "53520-175"
    },
    {
        "city": "Abreu E Lima",
        "state": "PE",
        "district": "Timbo",
        "street": "Rua D",
        "zipcode": "53510-090"
    },
    {
        "city": "Abreu E Lima",
        "state": "PE",
        "district": "Alto Da Bela Vista",
        "street": "Rua Rio Andrade",
        "zipcode": "53510-250"
    },
    {
        "city": "Abreu E Lima",
        "state": "PE",
        "district": "Alto Da Bela Vista",
        "street": "Rua Do Carvao",
        "zipcode": "53510-000"
    },
    {
        "city": "Abreu E Lima",
        "state": "PE",
        "district": "Timbo",
        "street": "2A Tv Trinta E Um De Marco",
        "zipcode": "53520-582"
    },
    {
        "city": "Abreu E Lima",
        "state": "PE",
        "district": "Caetes Iii",
        "street": "Rua Juraci",
        "zipcode": "53520-540"
    },
    {
        "city": "Abreu E Lima",
        "state": "PE",
        "district": "Caetes Iii",
        "street": "Rua Quarenta E Tres",
        "zipcode": "53520-660"
    },
    {
        "city": "Abreu E Lima",
        "state": "PE",
        "district": "Timbo",
        "street": "Rua B",
        "zipcode": "53510-070"
    },
    {
        "city": "Abreu E Lima",
        "state": "PE",
        "district": "Caetes Iii",
        "street": "Rua Rutenio",
        "zipcode": "53520-480"
    },
    {
        "city": "Abreu E Lima",
        "state": "PE",
        "district": "Caetes Iii",
        "street": "Rua Sessenta E Seis",
        "zipcode": "53520-804"
    },
    {
        "city": "Abreu E Lima",
        "state": "PE",
        "district": "Centro",
        "street": "Rua Do Manganes",
        "zipcode": "53520-770"
    },
    {
        "city": "Abreu E Lima",
        "state": "PE",
        "district": "Caetes Iii",
        "street": "Rua Cinquenta E Seis",
        "zipcode": "53520-830"
    },
    {
        "city": "Abreu E Lima",
        "state": "PE",
        "district": "Timbo",
        "street": "Rua Domingos",
        "zipcode": "53520-380"
    },
    {
        "city": "Abreu E Lima",
        "state": "PE",
        "district": "Centro",
        "street": "Rua Manjope",
        "zipcode": "53520-550"
    },
    {
        "city": "Abreu E Lima",
        "state": "PE",
        "district": "Timbo",
        "street": "Rua H",
        "zipcode": "53510-130"
    },
    {
        "city": "Abreu E Lima",
        "state": "PE",
        "district": "Caetes Iii",
        "street": "Rua Oitenta E Oito",
        "zipcode": "53520-812"
    },
    {
        "city": "Abreu E Lima",
        "state": "PE",
        "district": "Caetes I",
        "street": "Rua Oitenta E Nove",
        "zipcode": "53540-460"
    },
    {
        "city": "Abreu E Lima",
        "state": "PE",
        "district": "Caetes I",
        "street": "Rua Noventa",
        "zipcode": "53540-470"
    },
    {
        "city": "Abreu E Lima",
        "state": "PE",
        "district": "Caetes I",
        "street": "Rua Noventa E Um",
        "zipcode": "53540-480"
    },
    {
        "city": "Abreu E Lima",
        "state": "PE",
        "district": "Caetes I",
        "street": "Rua Noventa E Cinco",
        "zipcode": "53540-520"
    },
    {
        "city": "Abreu E Lima",
        "state": "PE",
        "district": "Caetes I",
        "street": "Rua Noventa E Sete",
        "zipcode": "53540-540"
    },
    {
        "city": "Abreu E Lima",
        "state": "PE",
        "district": "Caetes I",
        "street": "Rua Noventa E Oito",
        "zipcode": "53540-550"
    },
    {
        "city": "Abreu E Lima",
        "state": "PE",
        "district": "Caetes Iii",
        "street": "Rua Malazia",
        "zipcode": "53520-490"
    },
    {
        "city": "Abreu E Lima",
        "state": "PE",
        "district": "Caetes Iii",
        "street": "Rua Orobo",
        "zipcode": "53520-370"
    },
    {
        "city": "Abreu E Lima",
        "state": "PE",
        "district": "Caetes I",
        "street": "Rua Noventa E Quatro",
        "zipcode": "53540-510"
    },
    {
        "city": "Abreu E Lima",
        "state": "PE",
        "district": "Centro",
        "street": "Rua Do Magnesio",
        "zipcode": "53520-760"
    },
    {
        "city": "Abreu E Lima",
        "state": "PE",
        "district": "Centro",
        "street": "Rua Nobrega",
        "zipcode": "53520-720"
    },
    {
        "city": "Abreu E Lima",
        "state": "PE",
        "district": "Caetes Iii",
        "street": "Rua Tabira",
        "zipcode": "53520-520"
    },
    {
        "city": "Abreu E Lima",
        "state": "PE",
        "district": "Alto Da Bela Vista",
        "street": "Rua Do Zinco",
        "zipcode": "53510-210"
    },
    {
        "city": "Abreu E Lima",
        "state": "PE",
        "district": "Caetes I",
        "street": "Rua Cem",
        "zipcode": "53540-570"
    },
    {
        "city": "Abreu E Lima",
        "state": "PE",
        "district": "Alto Da Bela Vista",
        "street": "Rua Do Sodio",
        "zipcode": "53510-230"
    },
    {
        "city": "Abreu E Lima",
        "state": "PE",
        "district": "Centro",
        "street": "Travessa Nova Descoberta",
        "zipcode": "53520-711"
    },
    {
        "city": "Abreu E Lima",
        "state": "PE",
        "district": "Caetes Iii",
        "street": "Rua Sessenta E Oito",
        "zipcode": "53520-410"
    },
    {
        "city": "Abreu E Lima",
        "state": "PE",
        "district": "Centro",
        "street": "Avenida Brasil",
        "zipcode": "53520-790"
    },
    {
        "city": "Abreu E Lima",
        "state": "PE",
        "district": "Centro",
        "street": "Travessa Nobrega",
        "zipcode": "53520-740"
    },
    {
        "city": "Abreu E Lima",
        "state": "PE",
        "district": "Caetes Iii",
        "street": "Rua Sessenta E Sete",
        "zipcode": "53520-145"
    },
    {
        "city": "Abreu E Lima",
        "state": "PE",
        "district": "Timbo",
        "street": "3A Tv Trinta E Um De Marco",
        "zipcode": "53520-583"
    },
    {
        "city": "Abreu E Lima",
        "state": "PE",
        "district": "Caetes Iii",
        "street": "Rua Itaci",
        "zipcode": "53520-500"
    },
    {
        "city": "Abreu E Lima",
        "state": "PE",
        "district": "Caetes I",
        "street": "Rua Cento E Dois",
        "zipcode": "53540-590"
    },
    {
        "city": "Abreu E Lima",
        "state": "PE",
        "district": "Caetes I",
        "street": "Rua Cento E Cinco",
        "zipcode": "53540-620"
    },
    {
        "city": "Abreu E Lima",
        "state": "PE",
        "district": "Caetes I",
        "street": "Rua Cento E Seis",
        "zipcode": "53540-630"
    },
    {
        "city": "Abreu E Lima",
        "state": "PE",
        "district": "Caetes I",
        "street": "Rua Cento E Sete",
        "zipcode": "53540-640"
    },
    {
        "city": "Abreu E Lima",
        "state": "PE",
        "district": "Caetes I",
        "street": "Rua Cento E Nove",
        "zipcode": "53540-660"
    },
    {
        "city": "Abreu E Lima",
        "state": "PE",
        "district": "Caetes I",
        "street": "Rua Cento E Dez",
        "zipcode": "53540-670"
    },
    {
        "city": "Abreu E Lima",
        "state": "PE",
        "district": "Caetes I",
        "street": "Rua Cento E Doze",
        "zipcode": "53540-690"
    },
    {
        "city": "Abreu E Lima",
        "state": "PE",
        "district": "Alto Sao Miguel",
        "street": "Rua Artur Campelo",
        "zipcode": "53560-755"
    },
    {
        "city": "Abreu E Lima",
        "state": "PE",
        "district": "Alto Sao Miguel",
        "street": "Rua Algaroba",
        "zipcode": "53560-460"
    },
    {
        "city": "Abreu E Lima",
        "state": "PE",
        "district": "Caetes Iii",
        "street": "Rua Cinquenta E Nove",
        "zipcode": "53520-836"
    },
    {
        "city": "Abreu E Lima",
        "state": "PE",
        "district": "Alto Sao Miguel",
        "street": "Rua Do Eucalipto",
        "zipcode": "53560-440"
    },
    {
        "city": "Abreu E Lima",
        "state": "PE",
        "district": "Alto Sao Miguel",
        "street": "Rua Ibira",
        "zipcode": "53560-751"
    },
    {
        "city": "Abreu E Lima",
        "state": "PE",
        "district": "Alto Sao Miguel",
        "street": "Rua Rio Bolivia",
        "zipcode": "53560-450"
    },
    {
        "city": "Abreu E Lima",
        "state": "PE",
        "district": "Matinha",
        "street": "Avenida Clarice Marroquim",
        "zipcode": "53560-705"
    },
    {
        "city": "Abreu E Lima",
        "state": "PE",
        "district": "Planalto",
        "street": "1A Tv Torres Galvao",
        "zipcode": "53550-551"
    },
    {
        "city": "Abreu E Lima",
        "state": "PE",
        "district": "Alto Sao Miguel",
        "street": "Rua Murici",
        "zipcode": "53560-470"
    },
    {
        "city": "Abreu E Lima",
        "state": "PE",
        "district": "Alto Sao Miguel",
        "street": "Rua Da Macaiba",
        "zipcode": "53560-750"
    },
    {
        "city": "Abreu E Lima",
        "state": "PE",
        "district": "Matinha",
        "street": "Rua Do Xenonio",
        "zipcode": "53560-766"
    },
    {
        "city": "Abreu E Lima",
        "state": "PE",
        "district": "Matinha",
        "street": "Rua Do Radonio",
        "zipcode": "53560-773"
    },
    {
        "city": "Abreu E Lima",
        "state": "PE",
        "district": "Alto Sao Miguel",
        "street": "1A Tv Bahia",
        "zipcode": "53560-711"
    },
    {
        "city": "Abreu E Lima",
        "state": "PE",
        "district": "Alto Sao Miguel",
        "street": "Rua Araramar",
        "zipcode": "53560-530"
    },
    {
        "city": "Abreu E Lima",
        "state": "PE",
        "district": "Alto Sao Miguel",
        "street": "Rua Jacaranda",
        "zipcode": "53560-490"
    },
    {
        "city": "Abreu E Lima",
        "state": "PE",
        "district": "Matinha",
        "street": "Rua Litio",
        "zipcode": "53560-768"
    },
    {
        "city": "Abreu E Lima",
        "state": "PE",
        "district": "Alto Sao Miguel",
        "street": "Avenida Salgueiro",
        "zipcode": "53560-510"
    },
    {
        "city": "Abreu E Lima",
        "state": "PE",
        "district": "Alto Sao Miguel",
        "street": "Rua Henrique Dias",
        "zipcode": "53560-680"
    },
    {
        "city": "Abreu E Lima",
        "state": "PE",
        "district": "Alto Sao Miguel",
        "street": "Rua Bahia",
        "zipcode": "53560-710"
    },
    {
        "city": "Abreu E Lima",
        "state": "PE",
        "district": "Alto Sao Miguel",
        "street": "Rua Santa Luzia",
        "zipcode": "53560-780"
    },
    {
        "city": "Abreu E Lima",
        "state": "PE",
        "district": "Alto Sao Miguel",
        "street": "2A Tv Perto Do Ceu",
        "zipcode": "53560-401"
    },
    {
        "city": "Abreu E Lima",
        "state": "PE",
        "district": "Alto Sao Miguel",
        "street": "Rua Ana De Souza Goncalves",
        "zipcode": "53560-765"
    },
    {
        "city": "Abreu E Lima",
        "state": "PE",
        "district": "Caetes Iii",
        "street": "Rua Setenta E Seis",
        "zipcode": "53520-840"
    },
    {
        "city": "Abreu E Lima",
        "state": "PE",
        "district": "Matinha",
        "street": "Rua Rosa Pereira Da Cruz",
        "zipcode": "53560-795"
    },
    {
        "city": "Abreu E Lima",
        "state": "PE",
        "district": "Alto Sao Miguel",
        "street": "Rua Tres Americas",
        "zipcode": "53560-756"
    },
    {
        "city": "Abreu E Lima",
        "state": "PE",
        "district": "Alto Sao Miguel",
        "street": "Rua Sao Francisco",
        "zipcode": "53560-660"
    },
    {
        "city": "Abreu E Lima",
        "state": "PE",
        "district": "Caetes I",
        "street": "Rua Noventa E Tres",
        "zipcode": "53540-500"
    },
    {
        "city": "Abreu E Lima",
        "state": "PE",
        "district": "Alto Sao Miguel",
        "street": "Rua Suecia",
        "zipcode": "53560-754"
    },
    {
        "city": "Abreu E Lima",
        "state": "PE",
        "district": "Alto Sao Miguel",
        "street": "Rua Do Derby",
        "zipcode": "53560-758"
    },
    {
        "city": "Abreu E Lima",
        "state": "PE",
        "district": "Caetes I",
        "street": "Rua Noventa E Nove",
        "zipcode": "53540-560"
    },
    {
        "city": "Abreu E Lima",
        "state": "PE",
        "district": "Centro",
        "street": "Rua Redencao",
        "zipcode": "53560-823"
    },
    {
        "city": "Abreu E Lima",
        "state": "PE",
        "district": "Alto Sao Miguel",
        "street": "2A Tv Bahia",
        "zipcode": "53560-712"
    },
    {
        "city": "Abreu E Lima",
        "state": "PE",
        "district": "Matinha",
        "street": "Rua Imbauba",
        "zipcode": "53560-811"
    },
    {
        "city": "Abreu E Lima",
        "state": "PE",
        "district": "Fosfato",
        "street": "Travessa Silva Jardim",
        "zipcode": "53580-410"
    },
    {
        "city": "Abreu E Lima",
        "state": "PE",
        "district": "Centro",
        "street": "Rua Do Iodo",
        "zipcode": "53560-769"
    },
    {
        "city": "Abreu E Lima",
        "state": "PE",
        "district": "Alto Sao Miguel",
        "street": "Rua Castro Alves",
        "zipcode": "53560-600"
    },
    {
        "city": "Abreu E Lima",
        "state": "PE",
        "district": "Centro",
        "street": "Rua Virgem",
        "zipcode": "53560-809"
    },
    {
        "city": "Abreu E Lima",
        "state": "PE",
        "district": "Alto Sao Miguel",
        "street": "Rua Vitoria",
        "zipcode": "53560-730"
    },
    {
        "city": "Abreu E Lima",
        "state": "PE",
        "district": "Centro",
        "street": "Rua Quartzo",
        "zipcode": "53560-819"
    },
    {
        "city": "Abreu E Lima",
        "state": "PE",
        "district": "Alto Sao Miguel",
        "street": "Rua Maria Jose Da Silva",
        "zipcode": "53560-775"
    },
    {
        "city": "Abreu E Lima",
        "state": "PE",
        "district": "Alto Sao Miguel",
        "street": "Rua Rio Mamona",
        "zipcode": "53560-759"
    },
    {
        "city": "Abreu E Lima",
        "state": "PE",
        "district": "Alto Sao Miguel",
        "street": "Rua Sao Goncalo",
        "zipcode": "53560-785"
    },
    {
        "city": "Abreu E Lima",
        "state": "PE",
        "district": "Alto Sao Miguel",
        "street": "Rua Bom Jesus",
        "zipcode": "53560-650"
    },
    {
        "city": "Abreu E Lima",
        "state": "PE",
        "district": "Alto Sao Miguel",
        "street": "Rua Fitia",
        "zipcode": "53560-753"
    },
    {
        "city": "Abreu E Lima",
        "state": "PE",
        "district": "Alto Sao Miguel",
        "street": "Travessa Da Macaiba",
        "zipcode": "53560-761"
    },
    {
        "city": "Abreu E Lima",
        "state": "PE",
        "district": "Alto Sao Miguel",
        "street": "Rua Rio Helia",
        "zipcode": "53560-350"
    },
    {
        "city": "Abreu E Lima",
        "state": "PE",
        "district": "Centro",
        "street": "Avenida Brasil",
        "zipcode": "53560-740"
    },
    {
        "city": "Abreu E Lima",
        "state": "PE",
        "district": "Alto Sao Miguel",
        "street": "Rua Sao Pedro",
        "zipcode": "53560-760"
    },
    {
        "city": "Abreu E Lima",
        "state": "PE",
        "district": "Alto Sao Miguel",
        "street": "Rua Da Concordia",
        "zipcode": "53560-520"
    },
    {
        "city": "Abreu E Lima",
        "state": "PE",
        "district": "Matinha",
        "street": "Rua Natividade",
        "zipcode": "53560-805"
    },
    {
        "city": "Abreu E Lima",
        "state": "PE",
        "district": "Matinha",
        "street": "Rua Cacau",
        "zipcode": "53560-800"
    },
    {
        "city": "Abreu E Lima",
        "state": "PE",
        "district": "Centro",
        "street": "Rua Gemeos",
        "zipcode": "53560-813"
    },
    {
        "city": "Abreu E Lima",
        "state": "PE",
        "district": "Centro",
        "street": "Rua Rio Eider",
        "zipcode": "53560-807"
    },
    {
        "city": "Abreu E Lima",
        "state": "PE",
        "district": "Centro",
        "street": "Rua Rio Angelim",
        "zipcode": "53560-816"
    },
    {
        "city": "Abreu E Lima",
        "state": "PE",
        "district": "Centro",
        "street": "Rua Anaja",
        "zipcode": "53560-814"
    },
    {
        "city": "Abreu E Lima",
        "state": "PE",
        "district": "Centro",
        "street": "Rua Rio Graviuna",
        "zipcode": "53560-818"
    },
    {
        "city": "Abreu E Lima",
        "state": "PE",
        "district": "Centro",
        "street": "Rua Venus",
        "zipcode": "53560-812"
    },
    {
        "city": "Abreu E Lima",
        "state": "PE",
        "district": "Centro",
        "street": "Rua Do Acido",
        "zipcode": "53560-817"
    },
    {
        "city": "Abreu E Lima",
        "state": "PE",
        "district": "Caetes Iii",
        "street": "Rua D",
        "zipcode": "53540-000"
    },
    {
        "city": "Abreu E Lima",
        "state": "PE",
        "district": "Caetes I",
        "street": "Avenida D",
        "zipcode": "53540-250"
    },
    {
        "city": "Abreu E Lima",
        "state": "PE",
        "district": "Caetes I",
        "street": "Rua Noventa E Dois",
        "zipcode": "53540-490"
    },
    {
        "city": "Abreu E Lima",
        "state": "PE",
        "district": "Caetes I",
        "street": "Rua Noventa E Seis",
        "zipcode": "53540-530"
    },
    {
        "city": "Abreu E Lima",
        "state": "PE",
        "district": "Caetes I",
        "street": "Rua Cento E Quatro",
        "zipcode": "53540-610"
    },
    {
        "city": "Abreu E Lima",
        "state": "PE",
        "district": "Caetes I",
        "street": "Rua Cento E Oito",
        "zipcode": "53540-650"
    },
    {
        "city": "Abreu E Lima",
        "state": "PE",
        "district": "Caetes I",
        "street": "Rua Cento E Quatorze",
        "zipcode": "53540-710"
    },
    {
        "city": "Abreu E Lima",
        "state": "PE",
        "district": "Distrito Industrial",
        "street": "Rua Jose Rosa Dos Santos",
        "zipcode": "53520-180"
    },
    {
        "city": "Abreu E Lima",
        "state": "PE",
        "district": "Caetes Velho",
        "street": "Rua Nossa Senhora Aparecida",
        "zipcode": "53560-190"
    },
    {
        "city": "Abreu E Lima",
        "state": "PE",
        "district": "Caetes I",
        "street": "Rua Cento E Um",
        "zipcode": "53540-580"
    },
    {
        "city": "Abreu E Lima",
        "state": "PE",
        "district": "Caetes Iii",
        "street": "Rua Setenta E Quatro",
        "zipcode": "53520-185"
    },
    {
        "city": "Abreu E Lima",
        "state": "PE",
        "district": "Caetes Iii",
        "street": "Rua Setenta E Oito",
        "zipcode": "53520-285"
    },
    {
        "city": "Abreu E Lima",
        "state": "PE",
        "district": "Caetes Iii",
        "street": "Rua Sessenta E Nove",
        "zipcode": "53520-420"
    },
    {
        "city": "Abreu E Lima",
        "state": "PE",
        "district": "Caetes Iii",
        "street": "Rua Quarenta E Sete",
        "zipcode": "53520-650"
    },
    {
        "city": "Abreu E Lima",
        "state": "PE",
        "district": "Caetes Iii",
        "street": "Rua Quarenta E Um",
        "zipcode": "53520-670"
    },
    {
        "city": "Abreu E Lima",
        "state": "PE",
        "district": "Centro",
        "street": "Rua Rio Casua",
        "zipcode": "53560-806"
    },
    {
        "city": "Abreu E Lima",
        "state": "PE",
        "district": "Alto Sao Miguel",
        "street": "Rua Da Varzea",
        "zipcode": "53560-430"
    },
    {
        "city": "Abreu E Lima",
        "state": "PE",
        "district": "Alto Sao Miguel",
        "street": "Rua Da Gloria",
        "zipcode": "53560-770"
    },
    {
        "city": "Abreu E Lima",
        "state": "PE",
        "district": "Caetes Iii",
        "street": "Rua Quarenta E Dois",
        "zipcode": "53520-601"
    },
    {
        "city": "Abreu E Lima",
        "state": "PE",
        "district": "Alto Sao Miguel",
        "street": "Rua Santa Ines",
        "zipcode": "53560-670"
    },
    {
        "city": "Abreu E Lima",
        "state": "PE",
        "district": "Caetes I",
        "street": "Rua Cento E Treze",
        "zipcode": "53540-700"
    },
    {
        "city": "Abreu E Lima",
        "state": "PE",
        "district": "Alto Da Bela Vista",
        "street": "Rua Do Balio",
        "zipcode": "53510-140"
    },
    {
        "city": "Abreu E Lima",
        "state": "PE",
        "district": "Caetes Iii",
        "street": "Rua Sessenta E Quatro",
        "zipcode": "53520-802"
    },
    {
        "city": "Abreu E Lima",
        "state": "PE",
        "district": "Caetes Iii",
        "street": "Rua Oitenta E Seis",
        "zipcode": "53520-806"
    },
    {
        "city": "Abreu E Lima",
        "state": "PE",
        "district": "Caetes Iii",
        "street": "Rua Oitenta E Dois",
        "zipcode": "53520-827"
    },
    {
        "city": "Abreu E Lima",
        "state": "PE",
        "district": "Caetes Iii",
        "street": "Rua Cinquenta E Sete",
        "zipcode": "53520-832"
    },
    {
        "city": "Abreu E Lima",
        "state": "PE",
        "district": "Caetes Iii",
        "street": "Rua Sessenta",
        "zipcode": "53520-838"
    },
    {
        "city": "Abreu E Lima",
        "state": "PE",
        "district": "Caetes I",
        "street": "Rua Cento E Onze",
        "zipcode": "53540-680"
    },
    {
        "city": "Abreu E Lima",
        "state": "PE",
        "district": "Alto Sao Miguel",
        "street": "Rua Secundino Lima",
        "zipcode": "53560-790"
    },
    {
        "city": "Abreu E Lima",
        "state": "PE",
        "district": "Centro",
        "street": "Rua Do Argonio",
        "zipcode": "53520-780"
    },
    {
        "city": "Abreu E Lima",
        "state": "PE",
        "district": "Timbo",
        "street": "1A Tv Trinta E Um De Marco",
        "zipcode": "53520-581"
    },
    {
        "city": "Abreu E Lima",
        "state": "PE",
        "district": "Matinha",
        "street": "Rua Elagio Rocha",
        "zipcode": "53560-820"
    },
    {
        "city": "Abreu E Lima",
        "state": "PE",
        "district": "Caetes Iii",
        "street": "Rua Setenta E Um",
        "zipcode": "53520-155"
    },
    {
        "city": "Abreu E Lima",
        "state": "PE",
        "district": "Alto Sao Miguel",
        "street": "3A Tv Perto Do Ceu",
        "zipcode": "53560-402"
    },
    {
        "city": "Abreu E Lima",
        "state": "PE",
        "district": "Alto Da Bela Vista",
        "street": "Rua Julio De Souza Murtinho",
        "zipcode": "53510-060"
    },
    {
        "city": "Abreu E Lima",
        "state": "PE",
        "district": "Alto Sao Miguel",
        "street": "Rua Nossa Senhora De Fatima",
        "zipcode": "53560-757"
    },
    {
        "city": "Abreu E Lima",
        "state": "PE",
        "district": "Matinha",
        "street": "Rua Macaranduba",
        "zipcode": "53560-815"
    },
    {
        "city": "Abreu E Lima",
        "state": "PE",
        "district": "Centro",
        "street": "Rua Marte",
        "zipcode": "53520-730"
    },
    {
        "city": "Abreu E Lima",
        "state": "PE",
        "district": "Alto Sao Miguel",
        "street": "Rua Ibiriba",
        "zipcode": "53560-480"
    },
    {
        "city": "Abreu E Lima",
        "state": "PE",
        "district": "Matinha",
        "street": "Rua Sao Bento",
        "zipcode": "53560-810"
    },
    {
        "city": "Abreu E Lima",
        "state": "PE",
        "district": "Alto Sao Miguel",
        "street": "3A Tv Bahia",
        "zipcode": "53560-713"
    },
    {
        "city": "Abreu E Lima",
        "state": "PE",
        "district": "Caetes Iii",
        "street": "Rua Itamoyos",
        "zipcode": "53520-510"
    },
    {
        "city": "Abreu E Lima",
        "state": "PE",
        "district": "Alto Sao Miguel",
        "street": "Rua Pitia",
        "zipcode": "53560-420"
    },
    {
        "city": "Abreu E Lima",
        "state": "PE",
        "district": "Alto Sao Miguel",
        "street": "Rua Pau Darco",
        "zipcode": "53560-570"
    },
    {
        "city": "Abreu E Lima",
        "state": "PE",
        "district": "Alto Sao Miguel",
        "street": "Rua Pedro",
        "zipcode": "53560-752"
    }
]