[
    {
        "city": "Belo Jardim",
        "state": "PE",
        "district": "Gameleira",
        "street": "1ª Travessa Boaventura Joaquim de Moura",
        "zipcode": "55153-526"
    },
    {
        "city": "Belo Jardim",
        "state": "PE",
        "district": "Ayrton Maciel",
        "street": "Avenida Dona Adalgisa Ribeiro Maciel",
        "zipcode": "55154-100"
    },
    {
        "city": "Belo Jardim",
        "state": "PE",
        "district": "Floresta",
        "street": "Avenida Doutor Sebastião Cabral",
        "zipcode": "55158-115"
    },
    {
        "city": "Belo Jardim",
        "state": "PE",
        "district": "Gameleira",
        "street": "Avenida Jesuína Maria da Conceição",
        "zipcode": "55153-555"
    },
    {
        "city": "Belo Jardim",
        "state": "PE",
        "district": "Gameleira",
        "street": "Rua Adelma Barbosa",
        "zipcode": "55153-580"
    },
    {
        "city": "Belo Jardim",
        "state": "PE",
        "district": "Gameleira",
        "street": "Rua Zélia Maria de Melo",
        "zipcode": "55153-560"
    },
    {
        "city": "Belo Jardim",
        "state": "PE",
        "district": "Floresta",
        "street": "Travessa Auta Maria",
        "zipcode": "55158-206"
    },
    {
        "city": "Belo Jardim",
        "state": "PE",
        "district": "Ayrton Maciel",
        "street": "Rua Centenário do Rotary",
        "zipcode": "55154-130"
    },
    {
        "city": "Belo Jardim",
        "state": "PE",
        "district": "Pontilhão",
        "street": "Travessa Treze de Maio",
        "zipcode": "55157-546"
    },
    {
        "city": "Belo Jardim",
        "state": "PE",
        "district": "COHAB",
        "street": "Rua José Dantas",
        "zipcode": "55158-820"
    },
    {
        "city": "Belo Jardim",
        "state": "PE",
        "district": "Gameleira",
        "street": "Rua Maria Rosicleide F. de Oliveira",
        "zipcode": "55153-500"
    },
    {
        "city": "Belo Jardim",
        "state": "PE",
        "district": "Ayrton Maciel",
        "street": "Rua José Barbosa Maciel",
        "zipcode": "55154-105"
    },
    {
        "city": "Belo Jardim",
        "state": "PE",
        "district": "COHAB",
        "street": "Rua Maria do Socorro Cavalcante Ramos (Lot Marco Aurelio)",
        "zipcode": "55158-830"
    },
    {
        "city": "Belo Jardim",
        "state": "PE",
        "district": "Floresta",
        "street": "Rua Capitão José Medeiros",
        "zipcode": "55158-145"
    },
    {
        "city": "Belo Jardim",
        "state": "PE",
        "district": null,
        "street": "Avenida Principal",
        "zipcode": "55160-990"
    },
    {
        "city": "Belo Jardim",
        "state": "PE",
        "district": "Gameleira",
        "street": "Rua Cecílio Cintra Galvão",
        "zipcode": "55153-605"
    },
    {
        "city": "Belo Jardim",
        "state": "PE",
        "district": "Gameleira",
        "street": "Rua Macário Machado da Silva",
        "zipcode": "55153-660"
    },
    {
        "city": "Belo Jardim",
        "state": "PE",
        "district": "Floresta",
        "street": "Rua do Sossego",
        "zipcode": "55158-035"
    },
    {
        "city": "Belo Jardim",
        "state": "PE",
        "district": "Floresta",
        "street": "Rua José Armando de Souza",
        "zipcode": "55158-015"
    },
    {
        "city": "Belo Jardim",
        "state": "PE",
        "district": "COHAB",
        "street": "Rua Mestre Vitalino",
        "zipcode": "55158-790"
    },
    {
        "city": "Belo Jardim",
        "state": "PE",
        "district": "Floresta",
        "street": "Rua Joaquim Franklin Cordeiro",
        "zipcode": "55158-135"
    },
    {
        "city": "Belo Jardim",
        "state": "PE",
        "district": "Gameleira",
        "street": "Rua André Cirino",
        "zipcode": "55153-575"
    },
    {
        "city": "Belo Jardim",
        "state": "PE",
        "district": "Pontilhão",
        "street": "Rua Luiz Barbosa da Silva",
        "zipcode": "55157-605"
    },
    {
        "city": "Belo Jardim",
        "state": "PE",
        "district": "COHAB",
        "street": "Rua Camilo Benevides",
        "zipcode": "55152-225"
    },
    {
        "city": "Belo Jardim",
        "state": "PE",
        "district": "Ayrton Maciel",
        "street": "Rua João Franklin Cordeiro",
        "zipcode": "55154-055"
    },
    {
        "city": "Belo Jardim",
        "state": "PE",
        "district": "Ayrton Maciel",
        "street": "Rua Antônio Franklin Cordeiro",
        "zipcode": "55154-040"
    },
    {
        "city": "Belo Jardim",
        "state": "PE",
        "district": "São Pedro",
        "street": "Rua Amélia Soares Paes",
        "zipcode": "55155-310"
    },
    {
        "city": "Belo Jardim",
        "state": "PE",
        "district": "Gameleira",
        "street": "Rua Terezinha Cintra Galvão",
        "zipcode": "55153-610"
    },
    {
        "city": "Belo Jardim",
        "state": "PE",
        "district": "Euno Andrade da Silva",
        "street": "Rua Zé de Gordinha (Lot Jd Helem)",
        "zipcode": "55156-545"
    },
    {
        "city": "Belo Jardim",
        "state": "PE",
        "district": "COHAB",
        "street": "Rua Zé Dantas",
        "zipcode": "55158-405"
    },
    {
        "city": "Belo Jardim",
        "state": "PE",
        "district": "Centro",
        "street": "Avenida Coronel Geminiano Maciel",
        "zipcode": "55150-030"
    },
    {
        "city": "Belo Jardim",
        "state": "PE",
        "district": "Santo Antônio",
        "street": "Avenida Custódio Ferreira",
        "zipcode": "55152-060"
    },
    {
        "city": "Belo Jardim",
        "state": "PE",
        "district": "Bom Conselho",
        "street": "Avenida Coronel João Leite",
        "zipcode": "55153-005"
    },
    {
        "city": "Belo Jardim",
        "state": "PE",
        "district": "Bom Conselho",
        "street": "Avenida Nossa Senhora do Bom Conselho",
        "zipcode": "55153-180"
    },
    {
        "city": "Belo Jardim",
        "state": "PE",
        "district": "Gameleira",
        "street": "Avenida Professora Inês (Lot Tereza Mendonça)",
        "zipcode": "55153-800"
    },
    {
        "city": "Belo Jardim",
        "state": "PE",
        "district": "São Pedro",
        "street": "Avenida Melvin Jones",
        "zipcode": "55155-200"
    },
    {
        "city": "Belo Jardim",
        "state": "PE",
        "district": "Floresta",
        "street": "Avenida Júlia Rodrigues Torres",
        "zipcode": "55158-108"
    },
    {
        "city": "Belo Jardim",
        "state": "PE",
        "district": "COHAB",
        "street": "Avenida Júlia Rodrigues Torres",
        "zipcode": "55158-815"
    },
    {
        "city": "Belo Jardim",
        "state": "PE",
        "district": "Área Rural de Belo Jardim",
        "street": "Área Rural",
        "zipcode": "55159-899"
    },
    {
        "city": "Belo Jardim",
        "state": "PE",
        "district": "Boa Vista",
        "street": "Avenida Luciano Cassio Bezerra da Silva",
        "zipcode": "55157-390"
    },
    {
        "city": "Belo Jardim",
        "state": "PE",
        "district": "São Pedro",
        "street": "Rua Adélia Francisca dos Santos",
        "zipcode": "55155-420"
    },
    {
        "city": "Belo Jardim",
        "state": "PE",
        "district": "Euno Andrade da Silva",
        "street": "Rodovia PE 166 KM 5",
        "zipcode": "55156-580"
    },
    {
        "city": "Belo Jardim",
        "state": "PE",
        "district": "Frei Damião",
        "street": "Rua João do Arca (Lot Frei Damião)",
        "zipcode": "55151-260"
    },
    {
        "city": "Belo Jardim",
        "state": "PE",
        "district": "Gameleira",
        "street": "Rua Doutora Socorro Padilha (Lot Tereza Mendonça)",
        "zipcode": "55153-802"
    },
    {
        "city": "Belo Jardim",
        "state": "PE",
        "district": "Gameleira",
        "street": "Rua Gercina Lavadeira (Lot Tereza Mendonça)",
        "zipcode": "55153-820"
    },
    {
        "city": "Belo Jardim",
        "state": "PE",
        "district": "Gameleira",
        "street": "Rua Haninho Germano (Lot Tereza Mendonça)",
        "zipcode": "55153-822"
    },
    {
        "city": "Belo Jardim",
        "state": "PE",
        "district": "Euno Andrade da Silva",
        "street": "Rua Deputado José de Lamartine Távora (Lot Jd Helem)",
        "zipcode": "55156-565"
    },
    {
        "city": "Belo Jardim",
        "state": "PE",
        "district": "Gameleira",
        "street": "Rua Itamar Souza Ramos (Lot Tereza Mendonça)",
        "zipcode": "55153-812"
    },
    {
        "city": "Belo Jardim",
        "state": "PE",
        "district": "Gameleira",
        "street": "Rua José Raimundo Neto (Lot Tereza Mendonça)",
        "zipcode": "55153-814"
    },
    {
        "city": "Belo Jardim",
        "state": "PE",
        "district": "Gameleira",
        "street": "Rua Radialista José Lucena (Lot Tereza Mendonça)",
        "zipcode": "55153-804"
    },
    {
        "city": "Belo Jardim",
        "state": "PE",
        "district": "Gameleira",
        "street": "Rua Olga Cavalcanti da Silva (Lot Tereza Mendonça)",
        "zipcode": "55153-828"
    },
    {
        "city": "Belo Jardim",
        "state": "PE",
        "district": "Gameleira",
        "street": "Rua Professor Adelmo Domingos (Lot Tereza Mendonça)",
        "zipcode": "55153-830"
    },
    {
        "city": "Belo Jardim",
        "state": "PE",
        "district": "Gameleira",
        "street": "Rua Professora Maria José (Lot Tereza Mendonça)",
        "zipcode": "55153-816"
    },
    {
        "city": "Belo Jardim",
        "state": "PE",
        "district": "Floresta",
        "street": "Avenida Abílio Bezerra de Melo",
        "zipcode": "55158-074"
    },
    {
        "city": "Belo Jardim",
        "state": "PE",
        "district": "São Pedro",
        "street": "Rua Cícero Gercino Godoi",
        "zipcode": "55155-423"
    },
    {
        "city": "Belo Jardim",
        "state": "PE",
        "district": "Floresta",
        "street": "Rua Maria do Socorro Cavalcante Ramos (Lot Marco Aurélio Campelo)",
        "zipcode": "55158-092"
    },
    {
        "city": "Belo Jardim",
        "state": "PE",
        "district": "Floresta",
        "street": "Rua Paulo Alves (Lot Marco Aurélio Campelo)",
        "zipcode": "55158-094"
    },
    {
        "city": "Belo Jardim",
        "state": "PE",
        "district": "Floresta",
        "street": "Rua Luiz Barbosa da Silva",
        "zipcode": "55158-212"
    },
    {
        "city": "Belo Jardim",
        "state": "PE",
        "district": "Gameleira",
        "street": "Rua José Cicero de Freitas (Lot Tereza Mendonça)",
        "zipcode": "55153-826"
    },
    {
        "city": "Belo Jardim",
        "state": "PE",
        "district": "Euno Andrade da Silva",
        "street": "Rua Otaviano Gouveia de Arruda (Lot Jd Helem)",
        "zipcode": "55156-550"
    },
    {
        "city": "Belo Jardim",
        "state": "PE",
        "district": "Euno Andrade da Silva",
        "street": "Rua Miguel de Souza Marinho (Lot Jd Helem)",
        "zipcode": "55156-560"
    },
    {
        "city": "Belo Jardim",
        "state": "PE",
        "district": "Floresta",
        "street": "Rua João Tavares Fraga (Lot Marco Aurélio Campelo)",
        "zipcode": "55158-102"
    },
    {
        "city": "Belo Jardim",
        "state": "PE",
        "district": "Euno Andrade da Silva",
        "street": "Rua Edileuza Santana da Silva (Lot Jd Helem)",
        "zipcode": "55156-570"
    },
    {
        "city": "Belo Jardim",
        "state": "PE",
        "district": "Edson Mororó Moura",
        "street": "Rua Pedro Alves",
        "zipcode": "55150-700"
    },
    {
        "city": "Belo Jardim",
        "state": "PE",
        "district": "Centro",
        "street": "Avenida Beira Rio",
        "zipcode": "55150-460"
    },
    {
        "city": "Belo Jardim",
        "state": "PE",
        "district": "Bom Conselho",
        "street": "Avenida Amazonas",
        "zipcode": "55153-210"
    },
    {
        "city": "Belo Jardim",
        "state": "PE",
        "district": "Centro",
        "street": "Rua Cândido Mergulhão",
        "zipcode": "55150-290"
    },
    {
        "city": "Belo Jardim",
        "state": "PE",
        "district": "Centro",
        "street": "Rua Dom Luiz",
        "zipcode": "55150-330"
    },
    {
        "city": "Belo Jardim",
        "state": "PE",
        "district": "Frei Damião",
        "street": "Rua Isabel Cordeiro Ferreira",
        "zipcode": "55151-110"
    },
    {
        "city": "Belo Jardim",
        "state": "PE",
        "district": "Santo Antônio",
        "street": "Rua do Chorão",
        "zipcode": "55152-470"
    },
    {
        "city": "Belo Jardim",
        "state": "PE",
        "district": "Euno Andrade da Silva",
        "street": "Rua Geraldo Bezerra da Silva (Lot VianaeMoura Inhumas)",
        "zipcode": "55156-480"
    },
    {
        "city": "Belo Jardim",
        "state": "PE",
        "district": "Euno Andrade da Silva",
        "street": "Rua José Gerônimo da Silva (Lot VianaeMoura Inhumas)",
        "zipcode": "55156-495"
    },
    {
        "city": "Belo Jardim",
        "state": "PE",
        "district": "Euno Andrade da Silva",
        "street": "Rua Maria Gomes de Espindola (Lot VianaeMoura Inhumas)",
        "zipcode": "55156-500"
    },
    {
        "city": "Belo Jardim",
        "state": "PE",
        "district": "Centro",
        "street": "Rua São Lourenço",
        "zipcode": "55150-300"
    },
    {
        "city": "Belo Jardim",
        "state": "PE",
        "district": "Edson Mororó Moura",
        "street": "Travessa Santa Maria",
        "zipcode": "55150-601"
    },
    {
        "city": "Belo Jardim",
        "state": "PE",
        "district": "Euno Andrade da Silva",
        "street": "Rua José Luiz da Silva (Lot VianaeMoura Inhumas)",
        "zipcode": "55156-520"
    },
    {
        "city": "Belo Jardim",
        "state": "PE",
        "district": "Euno Andrade da Silva",
        "street": "Rua Amélia Áurea da Costa (Lot Jd Hélem)",
        "zipcode": "55156-190"
    },
    {
        "city": "Belo Jardim",
        "state": "PE",
        "district": "Centro",
        "street": "Rua Major João Gomes",
        "zipcode": "55150-050"
    },
    {
        "city": "Belo Jardim",
        "state": "PE",
        "district": "Centro",
        "street": "Rua Numeriano Alves Bezerra",
        "zipcode": "55150-020"
    },
    {
        "city": "Belo Jardim",
        "state": "PE",
        "district": "Centro",
        "street": "Rua Tenente Francisco Frade da Silva",
        "zipcode": "55150-220"
    },
    {
        "city": "Belo Jardim",
        "state": "PE",
        "district": "Frei Damião",
        "street": "Rua Augusta de Andrade",
        "zipcode": "55151-100"
    },
    {
        "city": "Belo Jardim",
        "state": "PE",
        "district": "Centro",
        "street": "Praça Capitão Tomás Ferreira",
        "zipcode": "55150-130"
    },
    {
        "city": "Belo Jardim",
        "state": "PE",
        "district": "Floresta",
        "street": "Avenida Maria Lidia Torres",
        "zipcode": "55158-063"
    },
    {
        "city": "Belo Jardim",
        "state": "PE",
        "district": "Centro",
        "street": "Rua Cleto Campelo",
        "zipcode": "55150-160"
    },
    {
        "city": "Belo Jardim",
        "state": "PE",
        "district": "Edson Mororó Moura",
        "street": "Rua Carlos Caetano",
        "zipcode": "55150-505"
    },
    {
        "city": "Belo Jardim",
        "state": "PE",
        "district": "Frei Damião",
        "street": "Rua Berenice Cintra de Melo",
        "zipcode": "55151-080"
    },
    {
        "city": "Belo Jardim",
        "state": "PE",
        "district": "Bom Conselho",
        "street": "Rua Beira Rio",
        "zipcode": "55153-230"
    },
    {
        "city": "Belo Jardim",
        "state": "PE",
        "district": "Ayrton Maciel",
        "street": "Rua Cícero Barobsa da Silva",
        "zipcode": "55154-035"
    },
    {
        "city": "Belo Jardim",
        "state": "PE",
        "district": "Euno Andrade da Silva",
        "street": "Rua Ariano Suassuna (Lot Heliópolis)",
        "zipcode": "55156-075"
    },
    {
        "city": "Belo Jardim",
        "state": "PE",
        "district": "Frei Damião",
        "street": "Rua João Ananias",
        "zipcode": "55151-050"
    },
    {
        "city": "Belo Jardim",
        "state": "PE",
        "district": "Euno Andrade da Silva",
        "street": "Rua Escritor Érico Veríssimo (Lot Heliópolis)",
        "zipcode": "55156-085"
    },
    {
        "city": "Belo Jardim",
        "state": "PE",
        "district": "Ayrton Maciel",
        "street": "Rua Jaime Vilela",
        "zipcode": "55154-110"
    },
    {
        "city": "Belo Jardim",
        "state": "PE",
        "district": "Frei Damião",
        "street": "Rua Maria Torres de Oliveira",
        "zipcode": "55151-130"
    },
    {
        "city": "Belo Jardim",
        "state": "PE",
        "district": "Frei Damião",
        "street": "Rua Justino de Oliveira",
        "zipcode": "55151-170"
    },
    {
        "city": "Belo Jardim",
        "state": "PE",
        "district": "Bom Conselho",
        "street": "Rua José Nunes Ribeiro",
        "zipcode": "55153-260"
    },
    {
        "city": "Belo Jardim",
        "state": "PE",
        "district": "Santo Antônio",
        "street": "Rua Maria do Socorro Machado",
        "zipcode": "55152-460"
    },
    {
        "city": "Belo Jardim",
        "state": "PE",
        "district": "COHAB",
        "street": "Rua Lindalvo Assis de Melo (COHAB II)",
        "zipcode": "55152-520"
    },
    {
        "city": "Belo Jardim",
        "state": "PE",
        "district": "Gameleira",
        "street": "Rua José Romildo Cordeiro",
        "zipcode": "55153-715"
    },
    {
        "city": "Belo Jardim",
        "state": "PE",
        "district": "Euno Andrade da Silva",
        "street": "Rua Josefa Ferreira Sobral (Lot Inhumas)",
        "zipcode": "55156-440"
    },
    {
        "city": "Belo Jardim",
        "state": "PE",
        "district": "Euno Andrade da Silva",
        "street": "Rua Maria Quitéria dos Santos (Lot VianaeMoura Inhumas)",
        "zipcode": "55156-525"
    },
    {
        "city": "Belo Jardim",
        "state": "PE",
        "district": "Frei Damião",
        "street": "Rua Marcílio Acioly de Amorim",
        "zipcode": "55151-200"
    },
    {
        "city": "Belo Jardim",
        "state": "PE",
        "district": "Frei Damião",
        "street": "Rua Rebeca Augusta",
        "zipcode": "55151-070"
    },
    {
        "city": "Belo Jardim",
        "state": "PE",
        "district": "Centro",
        "street": "Rua Pedro Firmino",
        "zipcode": "55150-310"
    },
    {
        "city": "Belo Jardim",
        "state": "PE",
        "district": "Centro",
        "street": "Rua Quitéria Neves",
        "zipcode": "55150-350"
    },
    {
        "city": "Belo Jardim",
        "state": "PE",
        "district": "Euno Andrade da Silva",
        "street": "Rua Poeta Gonçalves Dias (Lot Heliópolis)",
        "zipcode": "55156-090"
    },
    {
        "city": "Belo Jardim",
        "state": "PE",
        "district": "Euno Andrade da Silva",
        "street": "Rua Rosa Cordeiro Trindade (Lot Inhumas)",
        "zipcode": "55156-450"
    },
    {
        "city": "Belo Jardim",
        "state": "PE",
        "district": "Euno Andrade da Silva",
        "street": "Rua Sebastião Barbosa da Silva (Lot VianaeMoura Inhumas)",
        "zipcode": "55156-510"
    },
    {
        "city": "Belo Jardim",
        "state": "PE",
        "district": "Euno Andrade da Silva",
        "street": "Rua Roseli Maria de Lira Silva (Lot VianaeMoura Inhumas)",
        "zipcode": "55156-515"
    },
    {
        "city": "Belo Jardim",
        "state": "PE",
        "district": "Centro",
        "street": "1ª Travessa Coronel Geminiano Maciel",
        "zipcode": "55150-031"
    },
    {
        "city": "Belo Jardim",
        "state": "PE",
        "district": "Centro",
        "street": "2ª Travessa Coronel Geminiano Maciel",
        "zipcode": "55150-032"
    },
    {
        "city": "Belo Jardim",
        "state": "PE",
        "district": "Centro",
        "street": "2ª Travessa Agostinho Rodrigues",
        "zipcode": "55150-101"
    },
    {
        "city": "Belo Jardim",
        "state": "PE",
        "district": "Centro",
        "street": "Travessa Sebastião José da Silva",
        "zipcode": "55150-165"
    },
    {
        "city": "Belo Jardim",
        "state": "PE",
        "district": "Centro",
        "street": "Rua Valdomiro Rodrigues Praeiro",
        "zipcode": "55150-390"
    },
    {
        "city": "Belo Jardim",
        "state": "PE",
        "district": "Edson Mororó Moura",
        "street": "1ª Travessa Tibúrcio Gomes de Oliveira",
        "zipcode": "55150-662"
    },
    {
        "city": "Belo Jardim",
        "state": "PE",
        "district": "Gameleira",
        "street": "Rua José Ramos de Queiroz",
        "zipcode": "55153-725"
    },
    {
        "city": "Belo Jardim",
        "state": "PE",
        "district": "Euno Andrade da Silva",
        "street": "Rua Poeta Manoel Pedro Clemente (Lor Heliópolis)",
        "zipcode": "55156-095"
    },
    {
        "city": "Belo Jardim",
        "state": "PE",
        "district": "Gameleira",
        "street": "Rua Projetada Cinco",
        "zipcode": "55153-545"
    },
    {
        "city": "Belo Jardim",
        "state": "PE",
        "district": "Euno Andrade da Silva",
        "street": "Rua Poeta Mario Quintana (Lot Heiópolis)",
        "zipcode": "55156-070"
    },
    {
        "city": "Belo Jardim",
        "state": "PE",
        "district": "Floresta",
        "street": "Rua Tânia Trindade",
        "zipcode": "55158-185"
    },
    {
        "city": "Belo Jardim",
        "state": "PE",
        "district": "COHAB",
        "street": "Rua Maria Cristina da Conceição",
        "zipcode": "55158-620"
    },
    {
        "city": "Belo Jardim",
        "state": "PE",
        "district": "Gameleira",
        "street": "Rua Projetada Quatro",
        "zipcode": "55153-544"
    },
    {
        "city": "Belo Jardim",
        "state": "PE",
        "district": "Morada Nobre",
        "street": "Rua Dorgival R. Martins",
        "zipcode": "55154-511"
    },
    {
        "city": "Belo Jardim",
        "state": "PE",
        "district": "Centro",
        "street": "Praça da Conceição",
        "zipcode": "55150-200"
    },
    {
        "city": "Belo Jardim",
        "state": "PE",
        "district": "Centro",
        "street": "Beco Abilio de Barros Correia",
        "zipcode": "55150-445"
    },
    {
        "city": "Belo Jardim",
        "state": "PE",
        "district": "Centro",
        "street": "Praça Jorge Aleixo da Cunha",
        "zipcode": "55150-230"
    },
    {
        "city": "Belo Jardim",
        "state": "PE",
        "district": "Edson Mororó Moura",
        "street": "Rua Brás Alves Magalhães",
        "zipcode": "55150-685"
    },
    {
        "city": "Belo Jardim",
        "state": "PE",
        "district": "Frei Damião",
        "street": "Rua Aureliano Torres de Andrade",
        "zipcode": "55151-180"
    },
    {
        "city": "Belo Jardim",
        "state": "PE",
        "district": "Santo Antônio",
        "street": "Rua Agamenon Magalhães",
        "zipcode": "55152-090"
    },
    {
        "city": "Belo Jardim",
        "state": "PE",
        "district": "COHAB",
        "street": "Rua Antenor Procópio da Cunha (Lot Cohab II)",
        "zipcode": "55152-255"
    },
    {
        "city": "Belo Jardim",
        "state": "PE",
        "district": "COHAB",
        "street": "Rua Cilene Lisboa Coelho (Lot Cohab II)",
        "zipcode": "55152-265"
    },
    {
        "city": "Belo Jardim",
        "state": "PE",
        "district": "Santo Antônio",
        "street": "Rua Artur Paes",
        "zipcode": "55152-370"
    },
    {
        "city": "Belo Jardim",
        "state": "PE",
        "district": "Bom Conselho",
        "street": "Rua Ana Alves",
        "zipcode": "55153-150"
    },
    {
        "city": "Belo Jardim",
        "state": "PE",
        "district": "Edson Mororó Moura",
        "street": "Rua Ana Alexandrina",
        "zipcode": "55150-715"
    },
    {
        "city": "Belo Jardim",
        "state": "PE",
        "district": "Edson Mororó Moura",
        "street": "Rodovia BR",
        "zipcode": "55150-790"
    },
    {
        "city": "Belo Jardim",
        "state": "PE",
        "district": "Floresta",
        "street": "Rua da Liberdade",
        "zipcode": "55158-085"
    },
    {
        "city": "Belo Jardim",
        "state": "PE",
        "district": "COHAB",
        "street": "Rua Coronel Ludugero",
        "zipcode": "55158-780"
    },
    {
        "city": "Belo Jardim",
        "state": "PE",
        "district": "Santo Antônio",
        "street": "Rua Antônio Moreira",
        "zipcode": "55152-360"
    },
    {
        "city": "Belo Jardim",
        "state": "PE",
        "district": "Edson Mororó Moura",
        "street": "Rua João Belarmino de Souza",
        "zipcode": "55150-570"
    },
    {
        "city": "Belo Jardim",
        "state": "PE",
        "district": "Frei Damião",
        "street": "Rua Edilson Soares de Moura",
        "zipcode": "55151-245"
    },
    {
        "city": "Belo Jardim",
        "state": "PE",
        "district": "Santo Antônio",
        "street": "Rua Deusdete Santos Aguiar",
        "zipcode": "55152-030"
    },
    {
        "city": "Belo Jardim",
        "state": "PE",
        "district": "COHAB",
        "street": "Rua Hemenegildo Rodrigues da Costa (COHAB II)",
        "zipcode": "55152-290"
    },
    {
        "city": "Belo Jardim",
        "state": "PE",
        "district": "Santo Antônio",
        "street": "Rua das Flores",
        "zipcode": "55152-440"
    },
    {
        "city": "Belo Jardim",
        "state": "PE",
        "district": "COHAB",
        "street": "Rua Dois (COHAB II)",
        "zipcode": "55152-620"
    },
    {
        "city": "Belo Jardim",
        "state": "PE",
        "district": "Edson Mororó Moura",
        "street": "Rua Josebias Alves",
        "zipcode": "55150-515"
    },
    {
        "city": "Belo Jardim",
        "state": "PE",
        "district": "Edson Mororó Moura",
        "street": "Rua José Vieira de Souza",
        "zipcode": "55150-550"
    },
    {
        "city": "Belo Jardim",
        "state": "PE",
        "district": "Frei Damião",
        "street": "Rua Maria das Dores Cumaru",
        "zipcode": "55151-020"
    },
    {
        "city": "Belo Jardim",
        "state": "PE",
        "district": "COHAB",
        "street": "Rua José de Almeida (COHAB II)",
        "zipcode": "55152-260"
    },
    {
        "city": "Belo Jardim",
        "state": "PE",
        "district": "COHAB",
        "street": "Rua Josivaldo Menezes (COHAB II)",
        "zipcode": "55152-280"
    },
    {
        "city": "Belo Jardim",
        "state": "PE",
        "district": "Bom Conselho",
        "street": "Rua Juvita Bezerra Nascimento (Lot Izaque Alves de Souza)",
        "zipcode": "55153-380"
    },
    {
        "city": "Belo Jardim",
        "state": "PE",
        "district": "Centro",
        "street": "Rua Pedro Simões de Macedo",
        "zipcode": "55150-495"
    },
    {
        "city": "Belo Jardim",
        "state": "PE",
        "district": "Santo Antônio",
        "street": "Rua Santos Dumont",
        "zipcode": "55152-390"
    },
    {
        "city": "Belo Jardim",
        "state": "PE",
        "district": "Santo Antônio",
        "street": "Rua Padre Diniz",
        "zipcode": "55152-410"
    },
    {
        "city": "Belo Jardim",
        "state": "PE",
        "district": "Bom Conselho",
        "street": "Rua Pátio da Feira",
        "zipcode": "55153-270"
    },
    {
        "city": "Belo Jardim",
        "state": "PE",
        "district": "Euno Andrade da Silva",
        "street": "Rua Poeta Olavo Bilac (Lot Heliópolis)",
        "zipcode": "55156-040"
    },
    {
        "city": "Belo Jardim",
        "state": "PE",
        "district": "Euno Andrade da Silva",
        "street": "Rua Poeta Alvares de Azevedo (Lot Heliópolis)",
        "zipcode": "55156-050"
    },
    {
        "city": "Belo Jardim",
        "state": "PE",
        "district": "Euno Andrade da Silva",
        "street": "Rua Poeta Manoel Bandeira (Lot Heliópolis)",
        "zipcode": "55156-060"
    },
    {
        "city": "Belo Jardim",
        "state": "PE",
        "district": "Centro",
        "street": "Rua Padre Pedro Paes",
        "zipcode": "55150-080"
    },
    {
        "city": "Belo Jardim",
        "state": "PE",
        "district": "Edson Mororó Moura",
        "street": "Rua Tibúrcio Gomes de Oliveira",
        "zipcode": "55150-660"
    },
    {
        "city": "Belo Jardim",
        "state": "PE",
        "district": "Frei Damião",
        "street": "1ª Travessa Maria das Dores Cumaru",
        "zipcode": "55151-021"
    },
    {
        "city": "Belo Jardim",
        "state": "PE",
        "district": "Santo Antônio",
        "street": "Travessa Deusdete Santos Aguiar",
        "zipcode": "55152-195"
    },
    {
        "city": "Belo Jardim",
        "state": "PE",
        "district": "Bom Conselho",
        "street": "Rua Vinte e Cinco de Dezembro (Lot Izaque Alves de Souza)",
        "zipcode": "55153-365"
    },
    {
        "city": "Belo Jardim",
        "state": "PE",
        "district": "Bom Conselho",
        "street": "Rua Vinte e Oito de Agosto (Lot Izaque Alves de Souza)",
        "zipcode": "55153-370"
    },
    {
        "city": "Belo Jardim",
        "state": "PE",
        "district": "São Pedro",
        "street": "Rua Ulisses Guimarães",
        "zipcode": "55155-740"
    },
    {
        "city": "Belo Jardim",
        "state": "PE",
        "district": "Centro",
        "street": "Travessa Alfredo Matias da Silva",
        "zipcode": "55150-151"
    },
    {
        "city": "Belo Jardim",
        "state": "PE",
        "district": "Centro",
        "street": "Travessa Jorge Aleixo da Cunha",
        "zipcode": "55150-231"
    },
    {
        "city": "Belo Jardim",
        "state": "PE",
        "district": "Santo Antônio",
        "street": "Rua Dirce Miranda Bezerra",
        "zipcode": "55152-420"
    },
    {
        "city": "Belo Jardim",
        "state": "PE",
        "district": "Euno Andrade da Silva",
        "street": "Rua Escritor Mario de Andrade (Lot Heliópolis)",
        "zipcode": "55156-065"
    },
    {
        "city": "Belo Jardim",
        "state": "PE",
        "district": "Floresta",
        "street": "Rua Seis Morada do Sol",
        "zipcode": "55158-122"
    },
    {
        "city": "Belo Jardim",
        "state": "PE",
        "district": "COHAB",
        "street": "Rua Telú Batista",
        "zipcode": "55158-445"
    },
    {
        "city": "Belo Jardim",
        "state": "PE",
        "district": "Bom Conselho",
        "street": "Beco São Geraldo",
        "zipcode": "55153-011"
    },
    {
        "city": "Belo Jardim",
        "state": "PE",
        "district": "São Pedro",
        "street": "Beco Antônio Gonzaga",
        "zipcode": "55155-141"
    },
    {
        "city": "Belo Jardim",
        "state": "PE",
        "district": "Edson Mororó Moura",
        "street": "Rua Araripina",
        "zipcode": "55150-680"
    },
    {
        "city": "Belo Jardim",
        "state": "PE",
        "district": "COHAB",
        "street": "Rua Cinco (COHAB II)",
        "zipcode": "55152-650"
    },
    {
        "city": "Belo Jardim",
        "state": "PE",
        "district": "Santo Antônio",
        "street": "Rua Antônio Bezerra Zeca",
        "zipcode": "55152-080"
    },
    {
        "city": "Belo Jardim",
        "state": "PE",
        "district": "COHAB",
        "street": "Rua Rozenaldo Menezes",
        "zipcode": "55152-245"
    },
    {
        "city": "Belo Jardim",
        "state": "PE",
        "district": "Gameleira",
        "street": "Rua Abílio Ramos de Queiroz",
        "zipcode": "55153-710"
    },
    {
        "city": "Belo Jardim",
        "state": "PE",
        "district": "São Pedro",
        "street": "Praça Doutor Fernando Dias de Abreu",
        "zipcode": "55155-850"
    },
    {
        "city": "Belo Jardim",
        "state": "PE",
        "district": "Santo Antônio",
        "street": "Rua Honório Torres de Melo",
        "zipcode": "55152-140"
    },
    {
        "city": "Belo Jardim",
        "state": "PE",
        "district": "Santo Antônio",
        "street": "Rua Geraldino Antônio Menezes",
        "zipcode": "55152-190"
    },
    {
        "city": "Belo Jardim",
        "state": "PE",
        "district": "COHAB",
        "street": "Rua Eurico Napoleão (COHAB II)",
        "zipcode": "55152-600"
    },
    {
        "city": "Belo Jardim",
        "state": "PE",
        "district": "COHAB",
        "street": "Rua Doze (COHAB II)",
        "zipcode": "55152-720"
    },
    {
        "city": "Belo Jardim",
        "state": "PE",
        "district": "Bom Conselho",
        "street": "Rua Guilherme Henrique",
        "zipcode": "55153-055"
    },
    {
        "city": "Belo Jardim",
        "state": "PE",
        "district": "COHAB",
        "street": "Rua Pedro Benevides",
        "zipcode": "55152-235"
    },
    {
        "city": "Belo Jardim",
        "state": "PE",
        "district": "Edson Mororó Moura",
        "street": "Rua José Cintra Galvão",
        "zipcode": "55150-610"
    },
    {
        "city": "Belo Jardim",
        "state": "PE",
        "district": "Bom Conselho",
        "street": "Rua Rita Luiza Pereira (Lot Izaque Alves de Souza)",
        "zipcode": "55153-385"
    },
    {
        "city": "Belo Jardim",
        "state": "PE",
        "district": "Bom Conselho",
        "street": "Rua João Bezerra Filho",
        "zipcode": "55153-130"
    },
    {
        "city": "Belo Jardim",
        "state": "PE",
        "district": "Gameleira",
        "street": "Rua do Parque",
        "zipcode": "55153-680"
    },
    {
        "city": "Belo Jardim",
        "state": "PE",
        "district": "Gameleira",
        "street": "Rua João Jorge de Barros",
        "zipcode": "55153-760"
    },
    {
        "city": "Belo Jardim",
        "state": "PE",
        "district": "Bom Conselho",
        "street": "Rua Ivanildo Ricardo",
        "zipcode": "55153-045"
    },
    {
        "city": "Belo Jardim",
        "state": "PE",
        "district": "Bom Conselho",
        "street": "Rua das Margaridas",
        "zipcode": "55153-080"
    },
    {
        "city": "Belo Jardim",
        "state": "PE",
        "district": "Edson Mororó Moura",
        "street": "Rua Josué Cordeiro",
        "zipcode": "55150-555"
    },
    {
        "city": "Belo Jardim",
        "state": "PE",
        "district": "Santo Antônio",
        "street": "Rua Lucielma Cavalcante",
        "zipcode": "55152-205"
    },
    {
        "city": "Belo Jardim",
        "state": "PE",
        "district": "Bom Conselho",
        "street": "Rua Joel da Costa Pereira",
        "zipcode": "55153-035"
    },
    {
        "city": "Belo Jardim",
        "state": "PE",
        "district": "Gameleira",
        "street": "Rua João Nunes de Oliveira",
        "zipcode": "55153-735"
    },
    {
        "city": "Belo Jardim",
        "state": "PE",
        "district": "Santo Antônio",
        "street": "Rua Santa Rita de Cássia",
        "zipcode": "55152-100"
    },
    {
        "city": "Belo Jardim",
        "state": "PE",
        "district": "Santo Antônio",
        "street": "Rua São Basílio",
        "zipcode": "55152-155"
    },
    {
        "city": "Belo Jardim",
        "state": "PE",
        "district": "Santo Antônio",
        "street": "Rua Projetada",
        "zipcode": "55152-160"
    },
    {
        "city": "Belo Jardim",
        "state": "PE",
        "district": "COHAB",
        "street": "Rua Seis (COHAB II)",
        "zipcode": "55152-660"
    },
    {
        "city": "Belo Jardim",
        "state": "PE",
        "district": "COHAB",
        "street": "Rua Sete (COHAB II)",
        "zipcode": "55152-670"
    },
    {
        "city": "Belo Jardim",
        "state": "PE",
        "district": "COHAB",
        "street": "Rua Onze (COHAB II)",
        "zipcode": "55152-710"
    },
    {
        "city": "Belo Jardim",
        "state": "PE",
        "district": "Bom Conselho",
        "street": "Rua São Geraldo",
        "zipcode": "55153-010"
    },
    {
        "city": "Belo Jardim",
        "state": "PE",
        "district": "Bom Conselho",
        "street": "Rua São Cristovão",
        "zipcode": "55153-065"
    },
    {
        "city": "Belo Jardim",
        "state": "PE",
        "district": "Bom Conselho",
        "street": "Rua Pedro Bezerra da Silva",
        "zipcode": "55153-220"
    },
    {
        "city": "Belo Jardim",
        "state": "PE",
        "district": "Edson Mororó Moura",
        "street": "Rua Santa Maria",
        "zipcode": "55150-600"
    },
    {
        "city": "Belo Jardim",
        "state": "PE",
        "district": "Santo Antônio",
        "street": "Rua Santa Rosa",
        "zipcode": "55152-200"
    },
    {
        "city": "Belo Jardim",
        "state": "PE",
        "district": "Bom Conselho",
        "street": "Rua São Gerônimo",
        "zipcode": "55153-070"
    },
    {
        "city": "Belo Jardim",
        "state": "PE",
        "district": "COHAB",
        "street": "Rua Três (COHAB II)",
        "zipcode": "55152-630"
    },
    {
        "city": "Belo Jardim",
        "state": "PE",
        "district": "Bom Conselho",
        "street": "Travessa Coronel João Leite",
        "zipcode": "55153-001"
    },
    {
        "city": "Belo Jardim",
        "state": "PE",
        "district": "Bom Conselho",
        "street": "1ª Travessa Coronel João Leite",
        "zipcode": "55153-002"
    },
    {
        "city": "Belo Jardim",
        "state": "PE",
        "district": "Bom Conselho",
        "street": "Travessa Ana Alves",
        "zipcode": "55153-151"
    },
    {
        "city": "Belo Jardim",
        "state": "PE",
        "district": "Bom Conselho",
        "street": "Travessa Nossa Senhora do Bom Conselho",
        "zipcode": "55153-181"
    },
    {
        "city": "Belo Jardim",
        "state": "PE",
        "district": "Edson Mororó Moura",
        "street": "Travessa Jacó Alves da Silva",
        "zipcode": "55150-621"
    },
    {
        "city": "Belo Jardim",
        "state": "PE",
        "district": "Edson Mororó Moura",
        "street": "Travessa José Antônio de Santana",
        "zipcode": "55150-761"
    },
    {
        "city": "Belo Jardim",
        "state": "PE",
        "district": "Edson Mororó Moura",
        "street": "Travessa Capitão José Medeiros",
        "zipcode": "55150-781"
    },
    {
        "city": "Belo Jardim",
        "state": "PE",
        "district": "São Pedro",
        "street": "Travessa São Roque",
        "zipcode": "55155-231"
    },
    {
        "city": "Belo Jardim",
        "state": "PE",
        "district": "Ayrton Maciel",
        "street": "Rua Valdemar Lima",
        "zipcode": "55154-075"
    },
    {
        "city": "Belo Jardim",
        "state": "PE",
        "district": "Santo Antônio",
        "street": "Rua Ricardo Vidal",
        "zipcode": "55152-105"
    },
    {
        "city": "Belo Jardim",
        "state": "PE",
        "district": "Bom Conselho",
        "street": "2ª Travessa Nossa Senhora do Bom Conselho",
        "zipcode": "55153-182"
    },
    {
        "city": "Belo Jardim",
        "state": "PE",
        "district": "Santo Antônio",
        "street": "2ª Travessa Santo Antônio",
        "zipcode": "55152-011"
    },
    {
        "city": "Belo Jardim",
        "state": "PE",
        "district": "Santo Antônio",
        "street": "Rua São Tomaz",
        "zipcode": "55152-135"
    },
    {
        "city": "Belo Jardim",
        "state": "PE",
        "district": "Edson Mororó Moura",
        "street": "Rua Diário de Pernambuco",
        "zipcode": "55150-615"
    },
    {
        "city": "Belo Jardim",
        "state": "PE",
        "district": "São Pedro",
        "street": "Rua José Augusto Maciel",
        "zipcode": "55155-680"
    },
    {
        "city": "Belo Jardim",
        "state": "PE",
        "district": "São Pedro",
        "street": "Rua Jornalista Silvino Lopes",
        "zipcode": "55155-700"
    },
    {
        "city": "Belo Jardim",
        "state": "PE",
        "district": "Bom Conselho",
        "street": "Avenida Bom Conselho",
        "zipcode": "55153-340"
    },
    {
        "city": "Belo Jardim",
        "state": "PE",
        "district": "São Pedro",
        "street": "Beco Boaventura Cavalcante",
        "zipcode": "55155-413"
    },
    {
        "city": "Belo Jardim",
        "state": "PE",
        "district": "São Pedro",
        "street": "Beco José Justino",
        "zipcode": "55155-565"
    },
    {
        "city": "Belo Jardim",
        "state": "PE",
        "district": "Ayrton Maciel",
        "street": "Rua Coronel Antônio Marinho",
        "zipcode": "55154-015"
    },
    {
        "city": "Belo Jardim",
        "state": "PE",
        "district": "Gameleira",
        "street": "Rua Osório B. Pereira",
        "zipcode": "55153-565"
    },
    {
        "city": "Belo Jardim",
        "state": "PE",
        "district": "COHAB",
        "street": "Rua Carmelita Pontes Costa",
        "zipcode": "55152-557"
    },
    {
        "city": "Belo Jardim",
        "state": "PE",
        "district": "Gameleira",
        "street": "Rua Ana Maria de Queiroz",
        "zipcode": "55153-640"
    },
    {
        "city": "Belo Jardim",
        "state": "PE",
        "district": "Gameleira",
        "street": "Rua Cilene Augusta Silva Vasconcelos",
        "zipcode": "55153-675"
    },
    {
        "city": "Belo Jardim",
        "state": "PE",
        "district": "Gameleira",
        "street": "Rua Amara Ramos dos Santos",
        "zipcode": "55153-785"
    },
    {
        "city": "Belo Jardim",
        "state": "PE",
        "district": "Morada Nobre",
        "street": "Rua Ataide Pontes Figueira",
        "zipcode": "55154-595"
    },
    {
        "city": "Belo Jardim",
        "state": "PE",
        "district": "Morada Nobre",
        "street": "Rua Antônio Filho",
        "zipcode": "55154-640"
    },
    {
        "city": "Belo Jardim",
        "state": "PE",
        "district": "Morada Nobre",
        "street": "Rua Alaides Pontes Figueira",
        "zipcode": "55154-645"
    },
    {
        "city": "Belo Jardim",
        "state": "PE",
        "district": "São Pedro",
        "street": "Praça dos Motoristas",
        "zipcode": "55155-500"
    },
    {
        "city": "Belo Jardim",
        "state": "PE",
        "district": "COHAB",
        "street": "Rua Hugo do Rego Barros (COHAB II)",
        "zipcode": "55152-590"
    },
    {
        "city": "Belo Jardim",
        "state": "PE",
        "district": "Alto Limpo",
        "street": "Rua Dionísio Rodrigues Pinheiro",
        "zipcode": "55152-820"
    },
    {
        "city": "Belo Jardim",
        "state": "PE",
        "district": "COHAB",
        "street": "Rua Duque de Caxias",
        "zipcode": "55152-585"
    },
    {
        "city": "Belo Jardim",
        "state": "PE",
        "district": "Morada Nobre",
        "street": "Rua Filomena de Souza Barbosa",
        "zipcode": "55154-605"
    },
    {
        "city": "Belo Jardim",
        "state": "PE",
        "district": "Morada Nobre",
        "street": "Rua Honório Guimarães",
        "zipcode": "55154-610"
    },
    {
        "city": "Belo Jardim",
        "state": "PE",
        "district": "São Pedro",
        "street": "Rua Felipe Apolinário Santiago",
        "zipcode": "55155-220"
    },
    {
        "city": "Belo Jardim",
        "state": "PE",
        "district": "COHAB",
        "street": "Rua Eduardo Alves (COHAB II)",
        "zipcode": "55152-550"
    },
    {
        "city": "Belo Jardim",
        "state": "PE",
        "district": "COHAB",
        "street": "Rua João Batista Senhorinho",
        "zipcode": "55152-553"
    },
    {
        "city": "Belo Jardim",
        "state": "PE",
        "district": "Morada Nobre",
        "street": "Rua José de Souza Barbosa",
        "zipcode": "55154-615"
    },
    {
        "city": "Belo Jardim",
        "state": "PE",
        "district": "São Pedro",
        "street": "Rua João Monteiro Leite",
        "zipcode": "55155-070"
    },
    {
        "city": "Belo Jardim",
        "state": "PE",
        "district": "São Pedro",
        "street": "Rua José de Alencar",
        "zipcode": "55155-120"
    },
    {
        "city": "Belo Jardim",
        "state": "PE",
        "district": "São Pedro",
        "street": "Rua José Barbosa Neto",
        "zipcode": "55155-160"
    },
    {
        "city": "Belo Jardim",
        "state": "PE",
        "district": "São Pedro",
        "street": "Rua José Franklin Cordeiro",
        "zipcode": "55155-760"
    },
    {
        "city": "Belo Jardim",
        "state": "PE",
        "district": "São Pedro",
        "street": "Rua José Caboclo da Silva",
        "zipcode": "55155-840"
    },
    {
        "city": "Belo Jardim",
        "state": "PE",
        "district": "Gameleira",
        "street": "Rua José Marcena Irmão",
        "zipcode": "55153-745"
    },
    {
        "city": "Belo Jardim",
        "state": "PE",
        "district": "Gameleira",
        "street": "Rua Neblídio Barbosa da Silva",
        "zipcode": "55153-790"
    },
    {
        "city": "Belo Jardim",
        "state": "PE",
        "district": "São Pedro",
        "street": "Rua Pedro Cândido",
        "zipcode": "55155-630"
    },
    {
        "city": "Belo Jardim",
        "state": "PE",
        "district": "Edson Mororó Moura",
        "street": "Travessa Pedro Figueira de Araújo",
        "zipcode": "55150-641"
    },
    {
        "city": "Belo Jardim",
        "state": "PE",
        "district": "Gameleira",
        "street": "Travessa do Parque",
        "zipcode": "55153-681"
    },
    {
        "city": "Belo Jardim",
        "state": "PE",
        "district": "Ayrton Maciel",
        "street": "Rua Tito de Barros Correia",
        "zipcode": "55154-025"
    },
    {
        "city": "Belo Jardim",
        "state": "PE",
        "district": "São Pedro",
        "street": "Rua Vicente Barbosa da Silva",
        "zipcode": "55155-080"
    },
    {
        "city": "Belo Jardim",
        "state": "PE",
        "district": "São Pedro",
        "street": "Travessa São Caetano",
        "zipcode": "55155-131"
    },
    {
        "city": "Belo Jardim",
        "state": "PE",
        "district": "São Pedro",
        "street": "Travessa da Vila",
        "zipcode": "55155-585"
    },
    {
        "city": "Belo Jardim",
        "state": "PE",
        "district": "São Pedro",
        "street": "Rua Triunfo",
        "zipcode": "55155-620"
    },
    {
        "city": "Belo Jardim",
        "state": "PE",
        "district": "São Pedro",
        "street": "1ª Travessa José Lopes da Silva",
        "zipcode": "55155-592"
    },
    {
        "city": "Belo Jardim",
        "state": "PE",
        "district": "Boa Vista",
        "street": "Rua Valdemar de Lima",
        "zipcode": "55157-040"
    },
    {
        "city": "Belo Jardim",
        "state": "PE",
        "district": "Gameleira",
        "street": "Rua Alberto Estanislau Queiroz",
        "zipcode": "55153-765"
    },
    {
        "city": "Belo Jardim",
        "state": "PE",
        "district": "Ayrton Maciel",
        "street": "Travessa Luiz Rodrigues de Araújo",
        "zipcode": "55154-050"
    },
    {
        "city": "Belo Jardim",
        "state": "PE",
        "district": "São Pedro",
        "street": "Rua Manoel Aleixo da Cunha",
        "zipcode": "55155-210"
    },
    {
        "city": "Belo Jardim",
        "state": "PE",
        "district": "Santo Antônio",
        "street": "Travessa São João",
        "zipcode": "55152-006"
    },
    {
        "city": "Belo Jardim",
        "state": "PE",
        "district": "São Pedro",
        "street": "Rua José Lopes da Silva",
        "zipcode": "55155-590"
    },
    {
        "city": "Belo Jardim",
        "state": "PE",
        "district": "São Pedro",
        "street": "Rua Santo Amaro",
        "zipcode": "55155-600"
    },
    {
        "city": "Belo Jardim",
        "state": "PE",
        "district": "São Pedro",
        "street": "Rua Maria Urquiza Tenório",
        "zipcode": "55155-640"
    },
    {
        "city": "Belo Jardim",
        "state": "PE",
        "district": "São Pedro",
        "street": "Rua Sebastião Rodrigues da Costa",
        "zipcode": "55155-730"
    },
    {
        "city": "Belo Jardim",
        "state": "PE",
        "district": "Boa Vista",
        "street": "Rua Humberto Siqueira",
        "zipcode": "55157-090"
    },
    {
        "city": "Belo Jardim",
        "state": "PE",
        "district": "Floresta",
        "street": "Rua Arruda Marinho",
        "zipcode": "55158-080"
    },
    {
        "city": "Belo Jardim",
        "state": "PE",
        "district": "Santo Antônio",
        "street": "Rua Jaime Vilela",
        "zipcode": "55152-040"
    },
    {
        "city": "Belo Jardim",
        "state": "PE",
        "district": "COHAB",
        "street": "Avenida Senador Paulo Guerra",
        "zipcode": "55158-370"
    },
    {
        "city": "Belo Jardim",
        "state": "PE",
        "district": "COHAB",
        "street": "Avenida Nossa Senhora da Saúde",
        "zipcode": "55158-580"
    },
    {
        "city": "Belo Jardim",
        "state": "PE",
        "district": "São Pedro",
        "street": "Rua da Baixinha",
        "zipcode": "55155-525"
    },
    {
        "city": "Belo Jardim",
        "state": "PE",
        "district": "Morada Nobre",
        "street": "Rua Marlene Pereira da Silva",
        "zipcode": "55154-525"
    },
    {
        "city": "Belo Jardim",
        "state": "PE",
        "district": "São Pedro",
        "street": "Rua Joaquim Carlos da Silva",
        "zipcode": "55155-520"
    },
    {
        "city": "Belo Jardim",
        "state": "PE",
        "district": "Ayrton Maciel",
        "street": "Rua Jornalista Aníbal Fernandes",
        "zipcode": "55154-140"
    },
    {
        "city": "Belo Jardim",
        "state": "PE",
        "district": "Morada Nobre",
        "street": "Rua Luzia Alves de Barros",
        "zipcode": "55154-585"
    },
    {
        "city": "Belo Jardim",
        "state": "PE",
        "district": "Gameleira",
        "street": "Rua Maria Cintra de Araújo",
        "zipcode": "55153-620"
    },
    {
        "city": "Belo Jardim",
        "state": "PE",
        "district": "Morada Nobre",
        "street": "Rua Projetada Dez",
        "zipcode": "55154-509"
    },
    {
        "city": "Belo Jardim",
        "state": "PE",
        "district": "Morada Nobre",
        "street": "Rua Projetada Onze",
        "zipcode": "55154-510"
    },
    {
        "city": "Belo Jardim",
        "state": "PE",
        "district": "Morada Nobre",
        "street": "Rua Sofia Simões de Macêdo",
        "zipcode": "55154-565"
    },
    {
        "city": "Belo Jardim",
        "state": "PE",
        "district": "São Pedro",
        "street": "Rua São Pedro",
        "zipcode": "55155-480"
    },
    {
        "city": "Belo Jardim",
        "state": "PE",
        "district": "São Pedro",
        "street": "Rua Primeiro de Janeiro",
        "zipcode": "55155-490"
    },
    {
        "city": "Belo Jardim",
        "state": "PE",
        "district": "São Pedro",
        "street": "Rua Quitéria Neves",
        "zipcode": "55155-550"
    },
    {
        "city": "Belo Jardim",
        "state": "PE",
        "district": "São Pedro",
        "street": "Travessa Horácio de Barros Campelo",
        "zipcode": "55155-431"
    },
    {
        "city": "Belo Jardim",
        "state": "PE",
        "district": "São Pedro",
        "street": "2ª Travessa Horácio de Barros Campelo",
        "zipcode": "55155-433"
    },
    {
        "city": "Belo Jardim",
        "state": "PE",
        "district": "Morada Nobre",
        "street": "Rua Cícero Romão Barbosa",
        "zipcode": "55154-545"
    },
    {
        "city": "Belo Jardim",
        "state": "PE",
        "district": "Gameleira",
        "street": "Rua Joaquim de Melo Silva",
        "zipcode": "55153-655"
    },
    {
        "city": "Belo Jardim",
        "state": "PE",
        "district": "Gameleira",
        "street": "Rua Projetada Um",
        "zipcode": "55153-541"
    },
    {
        "city": "Belo Jardim",
        "state": "PE",
        "district": "Morada Nobre",
        "street": "Rua Sebastão dos Santos",
        "zipcode": "55154-540"
    },
    {
        "city": "Belo Jardim",
        "state": "PE",
        "district": "São Pedro",
        "street": "Rua Francisco Bezerra",
        "zipcode": "55155-450"
    },
    {
        "city": "Belo Jardim",
        "state": "PE",
        "district": "São Pedro",
        "street": "Rua Nemésio Feitosa de Lima",
        "zipcode": "55155-650"
    },
    {
        "city": "Belo Jardim",
        "state": "PE",
        "district": "Boa Vista",
        "street": "Rua Hermínio Jose de Torres",
        "zipcode": "55157-240"
    },
    {
        "city": "Belo Jardim",
        "state": "PE",
        "district": "Boa Vista",
        "street": "Rua Airton Barbosa Maciel",
        "zipcode": "55157-410"
    },
    {
        "city": "Belo Jardim",
        "state": "PE",
        "district": "Boa Vista",
        "street": "Rua José Alves Figueredo",
        "zipcode": "55157-420"
    },
    {
        "city": "Belo Jardim",
        "state": "PE",
        "district": "Floresta",
        "street": "Rua São Francisco",
        "zipcode": "55158-010"
    },
    {
        "city": "Belo Jardim",
        "state": "PE",
        "district": "Floresta",
        "street": "Rua Josefa Nancy Torres",
        "zipcode": "55158-030"
    },
    {
        "city": "Belo Jardim",
        "state": "PE",
        "district": "Floresta",
        "street": "Travessa Josefa Nancy Torres",
        "zipcode": "55158-031"
    },
    {
        "city": "Belo Jardim",
        "state": "PE",
        "district": "Floresta",
        "street": "Rua Artur Sabino dos Santos",
        "zipcode": "55158-050"
    },
    {
        "city": "Belo Jardim",
        "state": "PE",
        "district": "Floresta",
        "street": "Rua Pedro Cintra Galvão",
        "zipcode": "55158-060"
    },
    {
        "city": "Belo Jardim",
        "state": "PE",
        "district": "Floresta",
        "street": "Rua do Mulungú",
        "zipcode": "55158-190"
    },
    {
        "city": "Belo Jardim",
        "state": "PE",
        "district": "Floresta",
        "street": "Rua do Carvalho",
        "zipcode": "55158-200"
    },
    {
        "city": "Belo Jardim",
        "state": "PE",
        "district": "COHAB",
        "street": "Rua Martins de Ataíde",
        "zipcode": "55158-360"
    },
    {
        "city": "Belo Jardim",
        "state": "PE",
        "district": "COHAB",
        "street": "Rua Sete de Setembro",
        "zipcode": "55158-390"
    },
    {
        "city": "Belo Jardim",
        "state": "PE",
        "district": "COHAB",
        "street": "Travessa Sete de Setembro",
        "zipcode": "55158-391"
    },
    {
        "city": "Belo Jardim",
        "state": "PE",
        "district": "COHAB",
        "street": "Rua Baraúna",
        "zipcode": "55158-400"
    },
    {
        "city": "Belo Jardim",
        "state": "PE",
        "district": "COHAB",
        "street": "Rua Castro Alves",
        "zipcode": "55158-510"
    },
    {
        "city": "Belo Jardim",
        "state": "PE",
        "district": "COHAB",
        "street": "Rua Santa Quitéria",
        "zipcode": "55158-550"
    },
    {
        "city": "Belo Jardim",
        "state": "PE",
        "district": "COHAB",
        "street": "Rua Maria Francisca",
        "zipcode": "55158-690"
    },
    {
        "city": "Belo Jardim",
        "state": "PE",
        "district": "COHAB",
        "street": "Rua João José do Nascimento",
        "zipcode": "55158-700"
    },
    {
        "city": "Belo Jardim",
        "state": "PE",
        "district": "Morada Nobre",
        "street": "Rua Luiza Amaral da Silva",
        "zipcode": "55154-635"
    },
    {
        "city": "Belo Jardim",
        "state": "PE",
        "district": "São Pedro",
        "street": "Rua Tancredo de Souza",
        "zipcode": "55155-040"
    },
    {
        "city": "Belo Jardim",
        "state": "PE",
        "district": "Gameleira",
        "street": "Rua Projetada Três",
        "zipcode": "55153-543"
    },
    {
        "city": "Belo Jardim",
        "state": "PE",
        "district": "COHAB",
        "street": "Rua Zé Pretinho",
        "zipcode": "55158-320"
    },
    {
        "city": "Belo Jardim",
        "state": "PE",
        "district": "São Pedro",
        "street": "Praça Dom Luiz",
        "zipcode": "55155-531"
    },
    {
        "city": "Belo Jardim",
        "state": "PE",
        "district": "São Pedro",
        "street": "Beco Amélia Lacerda",
        "zipcode": "55155-572"
    },
    {
        "city": "Belo Jardim",
        "state": "PE",
        "district": "Boa Vista",
        "street": "Praça Amélia Soares Paes",
        "zipcode": "55157-300"
    },
    {
        "city": "Belo Jardim",
        "state": "PE",
        "district": "Floresta",
        "street": "Avenida Severino Pedro Torres",
        "zipcode": "55158-072"
    },
    {
        "city": "Belo Jardim",
        "state": "PE",
        "district": "Boa Vista",
        "street": "Avenida Gabriel de Almeida",
        "zipcode": "55157-400"
    },
    {
        "city": "Belo Jardim",
        "state": "PE",
        "district": "São Pedro",
        "street": "Rua Adelmo Monteiro",
        "zipcode": "55155-515"
    },
    {
        "city": "Belo Jardim",
        "state": "PE",
        "district": "Ayrton Maciel",
        "street": "Rua Maria Santos Cordeiro",
        "zipcode": "55154-160"
    },
    {
        "city": "Belo Jardim",
        "state": "PE",
        "district": "Ayrton Maciel",
        "street": "Rua José Francisco Feitosa",
        "zipcode": "55154-135"
    },
    {
        "city": "Belo Jardim",
        "state": "PE",
        "district": "Morada Nobre",
        "street": "Rua José Faustino Ferreira (Lot Morada Nobre)",
        "zipcode": "55154-506"
    },
    {
        "city": "Belo Jardim",
        "state": "PE",
        "district": "Ayrton Maciel",
        "street": "Rua Padre Jeferson Diniz",
        "zipcode": "55154-115"
    },
    {
        "city": "Belo Jardim",
        "state": "PE",
        "district": "São Pedro",
        "street": "Travessa Boaventura Joaquim de Moura",
        "zipcode": "55155-411"
    },
    {
        "city": "Belo Jardim",
        "state": "PE",
        "district": "São Pedro",
        "street": "Rua Benjamin Constant",
        "zipcode": "55155-370"
    },
    {
        "city": "Belo Jardim",
        "state": "PE",
        "district": "São Pedro",
        "street": "Rua Horácio de Barros Campelo",
        "zipcode": "55155-430"
    },
    {
        "city": "Belo Jardim",
        "state": "PE",
        "district": "Ayrton Maciel",
        "street": "Rua Pedro Domingos dos Santos",
        "zipcode": "55154-175"
    },
    {
        "city": "Belo Jardim",
        "state": "PE",
        "district": "Boa Vista",
        "street": "Rua da Linha Férrea",
        "zipcode": "55157-220"
    },
    {
        "city": "Belo Jardim",
        "state": "PE",
        "district": "Boa Vista",
        "street": "Rua José Cadete",
        "zipcode": "55157-230"
    },
    {
        "city": "Belo Jardim",
        "state": "PE",
        "district": "Pontilhão",
        "street": "Rua Vicente Manoel do Nascimento",
        "zipcode": "55157-535"
    },
    {
        "city": "Belo Jardim",
        "state": "PE",
        "district": "Floresta",
        "street": "Rua José Antônio de Santana",
        "zipcode": "55158-225"
    },
    {
        "city": "Belo Jardim",
        "state": "PE",
        "district": "Floresta",
        "street": "Avenida Maria Leopoldina de Freitas",
        "zipcode": "55158-175"
    },
    {
        "city": "Belo Jardim",
        "state": "PE",
        "district": "Pontilhão",
        "street": "Rua Treze de Maio",
        "zipcode": "55157-545"
    },
    {
        "city": "Belo Jardim",
        "state": "PE",
        "district": "Pontilhão",
        "street": "Rua Men de Sá",
        "zipcode": "55157-565"
    },
    {
        "city": "Belo Jardim",
        "state": "PE",
        "district": "Floresta",
        "street": "Rua Pedro Manoel de Freitas",
        "zipcode": "55158-045"
    },
    {
        "city": "Belo Jardim",
        "state": "PE",
        "district": "Floresta",
        "street": "Rua Giusepe Mazzon",
        "zipcode": "55158-025"
    },
    {
        "city": "Belo Jardim",
        "state": "PE",
        "district": "Floresta",
        "street": "Rua Maria Santina do Nascimento",
        "zipcode": "55158-075"
    },
    {
        "city": "Belo Jardim",
        "state": "PE",
        "district": "COHAB",
        "street": "Rua Maria das Dores Rodrigues",
        "zipcode": "55158-740"
    },
    {
        "city": "Belo Jardim",
        "state": "PE",
        "district": "Floresta",
        "street": "Rua Auta Maria",
        "zipcode": "55158-205"
    },
    {
        "city": "Belo Jardim",
        "state": "PE",
        "district": "COHAB",
        "street": "Rua Dona Santa",
        "zipcode": "55158-770"
    },
    {
        "city": "Belo Jardim",
        "state": "PE",
        "district": "Boa Vista",
        "street": "Rua Josué Cordeiro",
        "zipcode": "55157-245"
    },
    {
        "city": "Belo Jardim",
        "state": "PE",
        "district": "Boa Vista",
        "street": "Travessa Oito de Maio",
        "zipcode": "55157-280"
    },
    {
        "city": "Belo Jardim",
        "state": "PE",
        "district": "Pontilhão",
        "street": "Rua Projeta II",
        "zipcode": "55157-585"
    },
    {
        "city": "Belo Jardim",
        "state": "PE",
        "district": "Pontilhão",
        "street": "Rua Manoel José de Oliveira",
        "zipcode": "55157-595"
    },
    {
        "city": "Belo Jardim",
        "state": "PE",
        "district": "Pontilhão",
        "street": "Rua José Veras Campelo",
        "zipcode": "55157-615"
    },
    {
        "city": "Belo Jardim",
        "state": "PE",
        "district": "Pontilhão",
        "street": "Rua Antônio Cassimiro dos Santos",
        "zipcode": "55157-620"
    },
    {
        "city": "Belo Jardim",
        "state": "PE",
        "district": "Floresta",
        "street": "Praça Maria Josefina Torres",
        "zipcode": "55158-083"
    },
    {
        "city": "Belo Jardim",
        "state": "PE",
        "district": "Floresta",
        "street": "Rua Maximino Gabriel de Souza (Lot Morada do Sol)",
        "zipcode": "55158-302"
    },
    {
        "city": "Belo Jardim",
        "state": "PE",
        "district": "Floresta",
        "street": "Rua Heleno Bernardino de Oliveira (Lot Nova Floresta)",
        "zipcode": "55158-304"
    },
    {
        "city": "Belo Jardim",
        "state": "PE",
        "district": "COHAB",
        "street": "Rua João Joaquim do Nascimento",
        "zipcode": "55158-355"
    },
    {
        "city": "Belo Jardim",
        "state": "PE",
        "district": "COHAB",
        "street": "Rua Luiz Adebaldo",
        "zipcode": "55158-415"
    },
    {
        "city": "Belo Jardim",
        "state": "PE",
        "district": "COHAB",
        "street": "Rua Ascenso Ferreira",
        "zipcode": "55158-460"
    },
    {
        "city": "Belo Jardim",
        "state": "PE",
        "district": "COHAB",
        "street": "Rua Manoel Monteiro",
        "zipcode": "55158-500"
    },
    {
        "city": "Belo Jardim",
        "state": "PE",
        "district": "COHAB",
        "street": "Rua Marciano Luís da Costa",
        "zipcode": "55158-530"
    },
    {
        "city": "Belo Jardim",
        "state": "PE",
        "district": "COHAB",
        "street": "Rua Quinze de Novembro",
        "zipcode": "55158-590"
    },
    {
        "city": "Belo Jardim",
        "state": "PE",
        "district": "COHAB",
        "street": "Travessa Maria Francisca",
        "zipcode": "55158-691"
    },
    {
        "city": "Belo Jardim",
        "state": "PE",
        "district": "Gameleira",
        "street": "Rua Manoel Aleixo da Cunha",
        "zipcode": "55153-510"
    },
    {
        "city": "Belo Jardim",
        "state": "PE",
        "district": "Boa Vista",
        "street": "Rua Cícero Barbosa Maciel",
        "zipcode": "55157-350"
    },
    {
        "city": "Belo Jardim",
        "state": "PE",
        "district": "Pontilhão",
        "street": "Rua José Nunes da Silva",
        "zipcode": "55157-635"
    },
    {
        "city": "Belo Jardim",
        "state": "PE",
        "district": "Floresta",
        "street": "Rua do Ipiranga",
        "zipcode": "55158-120"
    },
    {
        "city": "Belo Jardim",
        "state": "PE",
        "district": "Floresta",
        "street": "Rua Jessé Rodrigues Torres",
        "zipcode": "55158-125"
    },
    {
        "city": "Belo Jardim",
        "state": "PE",
        "district": "Floresta",
        "street": "Rua José Antonio dos Santos",
        "zipcode": "55158-132"
    },
    {
        "city": "Belo Jardim",
        "state": "PE",
        "district": "COHAB",
        "street": "Rua Cego Aderaldo",
        "zipcode": "55158-310"
    },
    {
        "city": "Belo Jardim",
        "state": "PE",
        "district": "COHAB",
        "street": "Rua Graciliano Ramos",
        "zipcode": "55158-430"
    },
    {
        "city": "Belo Jardim",
        "state": "PE",
        "district": "São Pedro",
        "street": "Rua Quitéria Neves",
        "zipcode": "55155-971"
    },
    {
        "city": "Belo Jardim",
        "state": "PE",
        "district": "Santo Antônio",
        "street": "Avenida Oscar Pereira da Silva",
        "zipcode": "55152-110"
    },
    {
        "city": "Belo Jardim",
        "state": "PE",
        "district": "Bom Conselho",
        "street": "Beco Coronel João Leite",
        "zipcode": "55153-280"
    },
    {
        "city": "Belo Jardim",
        "state": "PE",
        "district": "Bom Conselho",
        "street": "Beco Pedro Bezerra da Silva",
        "zipcode": "55153-300"
    },
    {
        "city": "Belo Jardim",
        "state": "PE",
        "district": "Bom Conselho",
        "street": "Beco Santa Inês",
        "zipcode": "55153-310"
    },
    {
        "city": "Belo Jardim",
        "state": "PE",
        "district": "Floresta",
        "street": "Avenida Lina Francisca dos Santos",
        "zipcode": "55158-042"
    },
    {
        "city": "Belo Jardim",
        "state": "PE",
        "district": "Morada Nobre",
        "street": "Rua Antônio Cordeiro",
        "zipcode": "55154-600"
    },
    {
        "city": "Belo Jardim",
        "state": "PE",
        "district": "São Pedro",
        "street": "Rua Capitão José Izidoro",
        "zipcode": "55155-110"
    },
    {
        "city": "Belo Jardim",
        "state": "PE",
        "district": "Santo Antônio",
        "street": "Rua Francisco Julião de Lima",
        "zipcode": "55152-400"
    },
    {
        "city": "Belo Jardim",
        "state": "PE",
        "district": "Bom Conselho",
        "street": "Rua da Saudade",
        "zipcode": "55153-140"
    },
    {
        "city": "Belo Jardim",
        "state": "PE",
        "district": "Bom Conselho",
        "street": "Rua João Leite Filho",
        "zipcode": "55153-190"
    },
    {
        "city": "Belo Jardim",
        "state": "PE",
        "district": "São Pedro",
        "street": "Rua Jacira Gouveia",
        "zipcode": "55155-505"
    },
    {
        "city": "Belo Jardim",
        "state": "PE",
        "district": "Gameleira",
        "street": "Rua Josefa Germano Ferreira",
        "zipcode": "55153-770"
    },
    {
        "city": "Belo Jardim",
        "state": "PE",
        "district": "Morada Nobre",
        "street": "Rua Maria Belks Lacerda",
        "zipcode": "55154-515"
    },
    {
        "city": "Belo Jardim",
        "state": "PE",
        "district": "Morada Nobre",
        "street": "Rua Luiz Carlos da Silva",
        "zipcode": "55154-580"
    },
    {
        "city": "Belo Jardim",
        "state": "PE",
        "district": "Morada Nobre",
        "street": "Rua Júlio Aniceto da Silva",
        "zipcode": "55154-560"
    },
    {
        "city": "Belo Jardim",
        "state": "PE",
        "district": "Santo Antônio",
        "street": "Rua Santa Clara",
        "zipcode": "55152-310"
    },
    {
        "city": "Belo Jardim",
        "state": "PE",
        "district": "Bom Conselho",
        "street": "Rua Santa Sofia",
        "zipcode": "55153-060"
    },
    {
        "city": "Belo Jardim",
        "state": "PE",
        "district": "Pontilhão",
        "street": "Rua Antônio Francisco dos Santos",
        "zipcode": "55157-530"
    },
    {
        "city": "Belo Jardim",
        "state": "PE",
        "district": "Floresta",
        "street": "Rua Severino Ramos Chaves",
        "zipcode": "55158-195"
    },
    {
        "city": "Belo Jardim",
        "state": "PE",
        "district": "Pontilhão",
        "street": "Rua Jethe de Barros Campelo",
        "zipcode": "55157-645"
    },
    {
        "city": "Belo Jardim",
        "state": "PE",
        "district": "Bom Conselho",
        "street": "Rua Projeto Ciata",
        "zipcode": "55153-090"
    },
    {
        "city": "Belo Jardim",
        "state": "PE",
        "district": "Santo Antônio",
        "street": "Travessa Deputado José Bezerra Alves",
        "zipcode": "55152-451"
    },
    {
        "city": "Belo Jardim",
        "state": "PE",
        "district": "COHAB",
        "street": "Rua Um (COHAB II)",
        "zipcode": "55152-610"
    },
    {
        "city": "Belo Jardim",
        "state": "PE",
        "district": "Pontilhão",
        "street": "Rua Quitéria Maria Senhorinho",
        "zipcode": "55157-515"
    },
    {
        "city": "Belo Jardim",
        "state": "PE",
        "district": "COHAB",
        "street": "Rua Vicente do Rego Monteiro",
        "zipcode": "55158-800"
    },
    {
        "city": "Belo Jardim",
        "state": "PE",
        "district": "Floresta",
        "street": "Rua Alcides Izidoro",
        "zipcode": "55158-215"
    },
    {
        "city": "Belo Jardim",
        "state": "PE",
        "district": "Ayrton Maciel",
        "street": "Rua José Francisco de Freitas",
        "zipcode": "55154-085"
    },
    {
        "city": "Belo Jardim",
        "state": "PE",
        "district": "São Pedro",
        "street": "Rua Sebastião Ricardo de Melo",
        "zipcode": "55155-675"
    },
    {
        "city": "Belo Jardim",
        "state": "PE",
        "district": "Bom Conselho",
        "street": "Travessa do Cemitério",
        "zipcode": "55153-021"
    },
    {
        "city": "Belo Jardim",
        "state": "PE",
        "district": "Gameleira",
        "street": "Travessa Maria Auxiliadora Noberto",
        "zipcode": "55153-506"
    },
    {
        "city": "Belo Jardim",
        "state": "PE",
        "district": "São Pedro",
        "street": "Travessa Macário Machado da Silva",
        "zipcode": "55155-151"
    },
    {
        "city": "Belo Jardim",
        "state": "PE",
        "district": "Ayrton Maciel",
        "street": "Rua Vicente Rodrigues",
        "zipcode": "55154-165"
    },
    {
        "city": "Belo Jardim",
        "state": "PE",
        "district": "São Pedro",
        "street": "Travessa Amélia Soares Paes",
        "zipcode": "55155-622"
    },
    {
        "city": "Belo Jardim",
        "state": "PE",
        "district": "COHAB",
        "street": "Rua Possidônio Bernardino de Lima (COHAB II)",
        "zipcode": "55152-300"
    },
    {
        "city": "Belo Jardim",
        "state": "PE",
        "district": "São Pedro",
        "street": "Rua São Roque",
        "zipcode": "55155-230"
    },
    {
        "city": "Belo Jardim",
        "state": "PE",
        "district": "Ayrton Maciel",
        "street": "Rua José Augusto Maciel",
        "zipcode": "55154-120"
    },
    {
        "city": "Belo Jardim",
        "state": "PE",
        "district": "São Pedro",
        "street": "Rua Pedro José Torres",
        "zipcode": "55155-470"
    },
    {
        "city": "Belo Jardim",
        "state": "PE",
        "district": "Boa Vista",
        "street": "Rua Presidente Costa e Silva",
        "zipcode": "55157-250"
    },
    {
        "city": "Belo Jardim",
        "state": "PE",
        "district": "Boa Vista",
        "street": "Rua Cecília Meireles",
        "zipcode": "55157-340"
    },
    {
        "city": "Belo Jardim",
        "state": "PE",
        "district": "Boa Vista",
        "street": "Rua Jane Vilela",
        "zipcode": "55157-440"
    },
    {
        "city": "Belo Jardim",
        "state": "PE",
        "district": "Boa Vista",
        "street": "Rua Maria Odete Souza (Lot Paulo Guerra II)",
        "zipcode": "55157-460"
    },
    {
        "city": "Belo Jardim",
        "state": "PE",
        "district": "Boa Vista",
        "street": "Rua João Leite Neto (Lot Paulo Guerra II)",
        "zipcode": "55157-470"
    },
    {
        "city": "Belo Jardim",
        "state": "PE",
        "district": "Boa Vista",
        "street": "Rua Aluizio Bezerra de Melo (Lot Paulo Guerra II)",
        "zipcode": "55157-490"
    },
    {
        "city": "Belo Jardim",
        "state": "PE",
        "district": "Pontilhão",
        "street": "Rua Irineu Sebastião de Menezes",
        "zipcode": "55157-610"
    },
    {
        "city": "Belo Jardim",
        "state": "PE",
        "district": "Floresta",
        "street": "Travessa Alcides Izidoro",
        "zipcode": "55158-216"
    },
    {
        "city": "Belo Jardim",
        "state": "PE",
        "district": "Floresta",
        "street": "Rua Romão Ribeiro Gomes (Lot Marcos Leite)",
        "zipcode": "55158-238"
    },
    {
        "city": "Belo Jardim",
        "state": "PE",
        "district": "Floresta",
        "street": "Rua Vicente Pedro da Silva (Lot Nova Floresta)",
        "zipcode": "55158-308"
    },
    {
        "city": "Belo Jardim",
        "state": "PE",
        "district": "Morada Nobre",
        "street": "Rua Zizo Pereira Barbosa",
        "zipcode": "55154-630"
    },
    {
        "city": "Belo Jardim",
        "state": "PE",
        "district": "São Pedro",
        "street": "Rua Pedro Firmino",
        "zipcode": "55155-000"
    },
    {
        "city": "Belo Jardim",
        "state": "PE",
        "district": "Pontilhão",
        "street": "Rua Pontilhão da Floresta",
        "zipcode": "55157-660"
    },
    {
        "city": "Belo Jardim",
        "state": "PE",
        "district": "Floresta",
        "street": "Rua do Futuro",
        "zipcode": "55158-130"
    },
    {
        "city": "Belo Jardim",
        "state": "PE",
        "district": "Floresta",
        "street": "Rua José Paulo Mancio da Silva",
        "zipcode": "55158-155"
    },
    {
        "city": "Belo Jardim",
        "state": "PE",
        "district": "Floresta",
        "street": "Rua João José Torres",
        "zipcode": "55158-165"
    },
    {
        "city": "Belo Jardim",
        "state": "PE",
        "district": "Pontilhão",
        "street": "Rua Canal do Pontilhão",
        "zipcode": "55157-625"
    },
    {
        "city": "Belo Jardim",
        "state": "PE",
        "district": "Pontilhão",
        "street": "Rua José Everaldo Benevides de Barros",
        "zipcode": "55157-640"
    },
    {
        "city": "Belo Jardim",
        "state": "PE",
        "district": "COHAB",
        "street": "Rua Haroldo Jorge Campos",
        "zipcode": "55158-375"
    },
    {
        "city": "Belo Jardim",
        "state": "PE",
        "district": "São Pedro",
        "street": "Praça Dom Luiz",
        "zipcode": "55155-970"
    },
    {
        "city": "Belo Jardim",
        "state": "PE",
        "district": "Centro",
        "street": "Praça Dom Luiz",
        "zipcode": "55150-400"
    },
    {
        "city": "Belo Jardim",
        "state": "PE",
        "district": "COHAB",
        "street": "Beco José de Ribamar",
        "zipcode": "55158-345"
    },
    {
        "city": "Belo Jardim",
        "state": "PE",
        "district": "COHAB",
        "street": "Avenida Cinqüentenário",
        "zipcode": "55158-520"
    },
    {
        "city": "Belo Jardim",
        "state": "PE",
        "district": "COHAB",
        "street": "Avenida da Integração",
        "zipcode": "55158-660"
    },
    {
        "city": "Belo Jardim",
        "state": "PE",
        "district": "Pontilhão",
        "street": "Beco Santo Onofre",
        "zipcode": "55157-580"
    },
    {
        "city": "Belo Jardim",
        "state": "PE",
        "district": "Frei Damião",
        "street": "Rua Antônio Augusto da Silva",
        "zipcode": "55151-030"
    },
    {
        "city": "Belo Jardim",
        "state": "PE",
        "district": "Frei Damião",
        "street": "Rua Antõnio Cazé Sobrinho",
        "zipcode": "55151-150"
    },
    {
        "city": "Belo Jardim",
        "state": "PE",
        "district": "José Maciel",
        "street": "Rua Antônio Numeriano Bezerra (Lot Portal Kennedy)",
        "zipcode": "55151-680"
    },
    {
        "city": "Belo Jardim",
        "state": "PE",
        "district": "José Maciel",
        "street": "Rua Ana Paula Costa Torres (Lot VL Azulão II)",
        "zipcode": "55151-755"
    },
    {
        "city": "Belo Jardim",
        "state": "PE",
        "district": "José Maciel",
        "street": "Rua Cassia Jane Amorim (Lot VI Azulão II)",
        "zipcode": "55151-760"
    },
    {
        "city": "Belo Jardim",
        "state": "PE",
        "district": "José Maciel",
        "street": "Rua Antônio Manoel Guimarães (Lot VI Azulão II)",
        "zipcode": "55151-765"
    },
    {
        "city": "Belo Jardim",
        "state": "PE",
        "district": "José Maciel",
        "street": "Rua Braz Soares Correia (Lot VI Azulão I)",
        "zipcode": "55151-822"
    },
    {
        "city": "Belo Jardim",
        "state": "PE",
        "district": "José Maciel",
        "street": "Rua Adeilton de Lima (Lot VI Azulão II)",
        "zipcode": "55151-775"
    },
    {
        "city": "Belo Jardim",
        "state": "PE",
        "district": "COHAB",
        "street": "Rua Ataíde Pontes Figueira (COHAB II)",
        "zipcode": "55152-565"
    },
    {
        "city": "Belo Jardim",
        "state": "PE",
        "district": "Gameleira",
        "street": "Rua Beato José Maria Escrivão de Balagüer",
        "zipcode": "55153-635"
    },
    {
        "city": "Belo Jardim",
        "state": "PE",
        "district": "Gameleira",
        "street": "Rua Antônio Marcal da Silva",
        "zipcode": "55153-780"
    },
    {
        "city": "Belo Jardim",
        "state": "PE",
        "district": "Boa Vista",
        "street": "Rua Abílio Pereira Torres",
        "zipcode": "55157-140"
    },
    {
        "city": "Belo Jardim",
        "state": "PE",
        "district": "José Maciel",
        "street": "Rua João Henrique Filho (Lot Portal Kennedy I)",
        "zipcode": "55151-715"
    },
    {
        "city": "Belo Jardim",
        "state": "PE",
        "district": "José Maciel",
        "street": "Rua Helder Tulio Guimarães e Silva (Lot VI Azulão II)",
        "zipcode": "55151-800"
    },
    {
        "city": "Belo Jardim",
        "state": "PE",
        "district": "COHAB",
        "street": "Rua Jasmelina Castelo Branco (COHAB II)",
        "zipcode": "55152-530"
    },
    {
        "city": "Belo Jardim",
        "state": "PE",
        "district": "COHAB",
        "street": "Rua do Sesi (COHAB II)",
        "zipcode": "55152-535"
    },
    {
        "city": "Belo Jardim",
        "state": "PE",
        "district": "COHAB",
        "street": "Rua Heleno Bezerra da Silva (COHAB II)",
        "zipcode": "55152-540"
    },
    {
        "city": "Belo Jardim",
        "state": "PE",
        "district": "Alto Limpo",
        "street": "Rua Darcy Barbosa da Silva",
        "zipcode": "55152-825"
    },
    {
        "city": "Belo Jardim",
        "state": "PE",
        "district": "José Maciel",
        "street": "Rua Manoel Belo da Silva (Lot Portal Kennedy I)",
        "zipcode": "55151-730"
    },
    {
        "city": "Belo Jardim",
        "state": "PE",
        "district": "José Maciel",
        "street": "Rua Manoel Pedro dos Santos (Lot VI Azulão II)",
        "zipcode": "55151-810"
    },
    {
        "city": "Belo Jardim",
        "state": "PE",
        "district": "Santo Antônio",
        "street": "Rua Laudenor C. de Medeiros",
        "zipcode": "55152-020"
    },
    {
        "city": "Belo Jardim",
        "state": "PE",
        "district": "Frei Damião",
        "street": "Rua Maria Eliete Monteiro",
        "zipcode": "55151-220"
    },
    {
        "city": "Belo Jardim",
        "state": "PE",
        "district": "Gameleira",
        "street": "Rua Júlio Augusto de Oliveira",
        "zipcode": "55153-570"
    },
    {
        "city": "Belo Jardim",
        "state": "PE",
        "district": "Centro",
        "street": "Rua Monteiro Lobato",
        "zipcode": "55150-090"
    },
    {
        "city": "Belo Jardim",
        "state": "PE",
        "district": "Centro",
        "street": "Rua Raimundo de Moraes",
        "zipcode": "55150-110"
    },
    {
        "city": "Belo Jardim",
        "state": "PE",
        "district": "José Maciel",
        "street": "Rua Nair Barbosa Calado (Lot Vl Azulão II)",
        "zipcode": "55151-740"
    },
    {
        "city": "Belo Jardim",
        "state": "PE",
        "district": "José Maciel",
        "street": "Rua Roque Bernardo de Oliveira (Lot VI Azulão I)",
        "zipcode": "55151-812"
    },
    {
        "city": "Belo Jardim",
        "state": "PE",
        "district": "José Maciel",
        "street": "Rua Rui Leite Torres (Lot VI Azulão I)",
        "zipcode": "55151-826"
    },
    {
        "city": "Belo Jardim",
        "state": "PE",
        "district": "Santo Antônio",
        "street": "Rua Silvestre Pacheco Lins",
        "zipcode": "55152-070"
    },
    {
        "city": "Belo Jardim",
        "state": "PE",
        "district": "COHAB",
        "street": "Rua Pedro Leite Cavalcante",
        "zipcode": "55152-655"
    },
    {
        "city": "Belo Jardim",
        "state": "PE",
        "district": "José Maciel",
        "street": "Rua Pastor José Gonçalves da Silva (Lot Novo Horizonte I)",
        "zipcode": "55151-830"
    },
    {
        "city": "Belo Jardim",
        "state": "PE",
        "district": "José Maciel",
        "street": "Rua Rubem Cavalcanti (Lot Novo Horizonte II)",
        "zipcode": "55151-838"
    },
    {
        "city": "Belo Jardim",
        "state": "PE",
        "district": "José Maciel",
        "street": "Rua Valdeci Figueira de Araújo (Lot Portal Kennedy I)",
        "zipcode": "55151-710"
    },
    {
        "city": "Belo Jardim",
        "state": "PE",
        "district": "Santo Antônio",
        "street": "1ª Travessa Duque de Caxias",
        "zipcode": "55152-212"
    },
    {
        "city": "Belo Jardim",
        "state": "PE",
        "district": "Ayrton Maciel",
        "street": "Travessa Rogaciano Cícero de Castro",
        "zipcode": "55154-021"
    },
    {
        "city": "Belo Jardim",
        "state": "PE",
        "district": "José Maciel",
        "street": "Rua José Leonardo Bezerra (Lot VI Azulão II)",
        "zipcode": "55151-745"
    },
    {
        "city": "Belo Jardim",
        "state": "PE",
        "district": "COHAB",
        "street": "Rua José Café Filho (COHAB II)",
        "zipcode": "55152-525"
    },
    {
        "city": "Belo Jardim",
        "state": "PE",
        "district": "Bom Conselho",
        "street": "Rua Heleno Laurindo de Lima",
        "zipcode": "55153-330"
    },
    {
        "city": "Belo Jardim",
        "state": "PE",
        "district": "COHAB",
        "street": "Rodovia BR",
        "zipcode": "55158-090"
    },
    {
        "city": "Belo Jardim",
        "state": "PE",
        "district": "Bom Conselho",
        "street": "Rua Adilma Nascimento da Silva Aciole",
        "zipcode": "55153-350"
    },
    {
        "city": "Belo Jardim",
        "state": "PE",
        "district": "Pontilhão",
        "street": "Rua Luiz Senhorinho",
        "zipcode": "55157-630"
    },
    {
        "city": "Belo Jardim",
        "state": "PE",
        "district": "José Maciel",
        "street": "Rua Geraldo de Souza Barbosa (Lot Portal Kennedy I)",
        "zipcode": "55151-690"
    },
    {
        "city": "Belo Jardim",
        "state": "PE",
        "district": "Edson Mororó Moura",
        "street": "Praça Cristiane de Melo Brito",
        "zipcode": "55150-800"
    },
    {
        "city": "Belo Jardim",
        "state": "PE",
        "district": "Bom Conselho",
        "street": "Beco da Saudade",
        "zipcode": "55153-153"
    },
    {
        "city": "Belo Jardim",
        "state": "PE",
        "district": "Edson Mororó Moura",
        "street": "Beco Ricardo Manoel dos Santos",
        "zipcode": "55150-692"
    },
    {
        "city": "Belo Jardim",
        "state": "PE",
        "district": "Santo Antônio",
        "street": "Praça da Paz",
        "zipcode": "55152-165"
    },
    {
        "city": "Belo Jardim",
        "state": "PE",
        "district": "Bom Conselho",
        "street": "Beco Ana Alves",
        "zipcode": "55153-290"
    },
    {
        "city": "Belo Jardim",
        "state": "PE",
        "district": "São Pedro",
        "street": "Praça da Matriz de São Pedro",
        "zipcode": "55155-535"
    },
    {
        "city": "Belo Jardim",
        "state": "PE",
        "district": "Bom Conselho",
        "street": "Beco do Cemitério",
        "zipcode": "55153-022"
    },
    {
        "city": "Belo Jardim",
        "state": "PE",
        "district": "Centro",
        "street": "Rua Alfredo Matias da Silva",
        "zipcode": "55150-150"
    },
    {
        "city": "Belo Jardim",
        "state": "PE",
        "district": "Centro",
        "street": "Praça Nossa Senhora da Conceiçao",
        "zipcode": "55150-370"
    },
    {
        "city": "Belo Jardim",
        "state": "PE",
        "district": "Santo Antônio",
        "street": "Rua Cicinato Pires Raposo",
        "zipcode": "55152-120"
    },
    {
        "city": "Belo Jardim",
        "state": "PE",
        "district": "Santo Antônio",
        "street": "Rodovia BR",
        "zipcode": "55152-130"
    },
    {
        "city": "Belo Jardim",
        "state": "PE",
        "district": "COHAB",
        "street": "Rua Artur Barbosa Maciel (COHAB II)",
        "zipcode": "55152-240"
    },
    {
        "city": "Belo Jardim",
        "state": "PE",
        "district": "São Pedro",
        "street": "Rua Antônino Gonzaga",
        "zipcode": "55155-140"
    },
    {
        "city": "Belo Jardim",
        "state": "PE",
        "district": "Ayrton Maciel",
        "street": "Rua Amélia Soares Paes",
        "zipcode": "55154-038"
    },
    {
        "city": "Belo Jardim",
        "state": "PE",
        "district": "São Pedro",
        "street": "Rua Antônio Branco",
        "zipcode": "55155-400"
    },
    {
        "city": "Belo Jardim",
        "state": "PE",
        "district": "Centro",
        "street": "Rua João Monteiro",
        "zipcode": "55150-360"
    },
    {
        "city": "Belo Jardim",
        "state": "PE",
        "district": "Edson Mororó Moura",
        "street": "Rua Eurico Rodrigues",
        "zipcode": "55150-540"
    },
    {
        "city": "Belo Jardim",
        "state": "PE",
        "district": "José Maciel",
        "street": "Rua Gilvan de Souza Moraes (Lot Portal Kennedy)",
        "zipcode": "55151-685"
    },
    {
        "city": "Belo Jardim",
        "state": "PE",
        "district": "COHAB",
        "street": "Rua Dez (COHAB II)",
        "zipcode": "55152-700"
    },
    {
        "city": "Belo Jardim",
        "state": "PE",
        "district": "José Maciel",
        "street": "Rua Francisco Solom de Lima (Lot Portal Kennedy)",
        "zipcode": "55151-675"
    },
    {
        "city": "Belo Jardim",
        "state": "PE",
        "district": "Edson Mororó Moura",
        "street": "Rua José Lucas Pereira",
        "zipcode": "55150-595"
    },
    {
        "city": "Belo Jardim",
        "state": "PE",
        "district": "José Maciel",
        "street": "Rua José Lourenço de Oliveira (Lot VI Cardeal)",
        "zipcode": "55151-620"
    },
    {
        "city": "Belo Jardim",
        "state": "PE",
        "district": "José Maciel",
        "street": "Rua José Pacheco Ramos (Lot Portal Kennedy I)",
        "zipcode": "55151-695"
    },
    {
        "city": "Belo Jardim",
        "state": "PE",
        "district": "COHAB",
        "street": "Rua João Salvador (COHAB II)",
        "zipcode": "55152-560"
    },
    {
        "city": "Belo Jardim",
        "state": "PE",
        "district": "Ayrton Maciel",
        "street": "Rua Jornalista Silvino Lopes",
        "zipcode": "55154-150"
    },
    {
        "city": "Belo Jardim",
        "state": "PE",
        "district": "Pontilhão",
        "street": "Rua da Solidão",
        "zipcode": "55157-570"
    },
    {
        "city": "Belo Jardim",
        "state": "PE",
        "district": "Frei Damião",
        "street": "Rua Rute Felix de Andrade",
        "zipcode": "55151-060"
    },
    {
        "city": "Belo Jardim",
        "state": "PE",
        "district": "José Maciel",
        "street": "Rua Pedro Francisco de Lima (Lot VI Cardeal)",
        "zipcode": "55151-630"
    },
    {
        "city": "Belo Jardim",
        "state": "PE",
        "district": "José Maciel",
        "street": "Rua Severino Pereira de Oliveira (Lot VI Cardeal)",
        "zipcode": "55151-655"
    },
    {
        "city": "Belo Jardim",
        "state": "PE",
        "district": "José Maciel",
        "street": "Rua Sabino Gomes do Nascimento (Lot Portal Kennedy)",
        "zipcode": "55151-665"
    },
    {
        "city": "Belo Jardim",
        "state": "PE",
        "district": "Edson Mororó Moura",
        "street": "Rua São Severino",
        "zipcode": "55150-675"
    },
    {
        "city": "Belo Jardim",
        "state": "PE",
        "district": "Centro",
        "street": "Rua Quatro de Outubro",
        "zipcode": "55150-280"
    },
    {
        "city": "Belo Jardim",
        "state": "PE",
        "district": "Edson Mororó Moura",
        "street": "Travessa Manoel Araújo da Silva",
        "zipcode": "55150-521"
    },
    {
        "city": "Belo Jardim",
        "state": "PE",
        "district": "José Maciel",
        "street": "Rua Terezinha Pereira Barbosa (Lot VI Cardeal)",
        "zipcode": "55151-645"
    },
    {
        "city": "Belo Jardim",
        "state": "PE",
        "district": "COHAB",
        "street": "Rua Aldo Alves Ramos (COHAB II)",
        "zipcode": "55152-640"
    },
    {
        "city": "Belo Jardim",
        "state": "PE",
        "district": "São Pedro",
        "street": "Rua Luís Rodrigues de Araújo",
        "zipcode": "55155-610"
    },
    {
        "city": "Belo Jardim",
        "state": "PE",
        "district": "Boa Vista",
        "street": "1ª Travessa Treze de Maio",
        "zipcode": "55157-182"
    },
    {
        "city": "Belo Jardim",
        "state": "PE",
        "district": "Boa Vista",
        "street": "Travessa Sete de Setembro",
        "zipcode": "55157-411"
    },
    {
        "city": "Belo Jardim",
        "state": "PE",
        "district": "Boa Vista",
        "street": "Rua José Siqueira Santa Cruz (Lot Paulo Guerra II)",
        "zipcode": "55157-500"
    },
    {
        "city": "Belo Jardim",
        "state": "PE",
        "district": "Floresta",
        "street": "Travessa Francisco Muniz Arraes",
        "zipcode": "55158-111"
    },
    {
        "city": "Belo Jardim",
        "state": "PE",
        "district": "Floresta",
        "street": "Rua Pau DArco",
        "zipcode": "55158-180"
    },
    {
        "city": "Belo Jardim",
        "state": "PE",
        "district": "COHAB",
        "street": "Rua Marinete Soares Freire",
        "zipcode": "55158-340"
    },
    {
        "city": "Belo Jardim",
        "state": "PE",
        "district": "COHAB",
        "street": "Rua Levino Ferreira",
        "zipcode": "55158-410"
    },
    {
        "city": "Belo Jardim",
        "state": "PE",
        "district": "COHAB",
        "street": "Travessa Ascenso Ferreira",
        "zipcode": "55158-461"
    },
    {
        "city": "Belo Jardim",
        "state": "PE",
        "district": "COHAB",
        "street": "Rua Marcos Luís Cordeiro",
        "zipcode": "55158-570"
    },
    {
        "city": "Belo Jardim",
        "state": "PE",
        "district": "Gameleira",
        "street": "Rua Elias Francisco da Silva",
        "zipcode": "55153-650"
    },
    {
        "city": "Belo Jardim",
        "state": "PE",
        "district": "Morada Nobre",
        "street": "Rua Manoel Alves Feitosa",
        "zipcode": "55154-570"
    },
    {
        "city": "Belo Jardim",
        "state": "PE",
        "district": "Boa Vista",
        "street": "Rua João Barbosa Maciel",
        "zipcode": "55157-070"
    },
    {
        "city": "Belo Jardim",
        "state": "PE",
        "district": "Euno Andrade da Silva",
        "street": "Rua Antônio Brasil Ferreira (Lot Inhumas)",
        "zipcode": "55156-370"
    },
    {
        "city": "Belo Jardim",
        "state": "PE",
        "district": "Edson Mororó Moura",
        "street": "Beco Jacó Alves da Silva",
        "zipcode": "55150-622"
    },
    {
        "city": "Belo Jardim",
        "state": "PE",
        "district": "Ayrton Maciel",
        "street": "Rua Cícero Franklin Cordeiro",
        "zipcode": "55154-095"
    },
    {
        "city": "Belo Jardim",
        "state": "PE",
        "district": "Boa Vista",
        "street": "Rua Ceci Leite Cavalcante de Souza",
        "zipcode": "55157-030"
    },
    {
        "city": "Belo Jardim",
        "state": "PE",
        "district": "Centro",
        "street": "Rua Floriano Peixoto",
        "zipcode": "55150-010"
    },
    {
        "city": "Belo Jardim",
        "state": "PE",
        "district": "Bom Conselho",
        "street": "Rua do Cruzeiro",
        "zipcode": "55153-050"
    },
    {
        "city": "Belo Jardim",
        "state": "PE",
        "district": "Euno Andrade da Silva",
        "street": "Rua João Lima Leite (Lot Inhumas)",
        "zipcode": "55156-395"
    },
    {
        "city": "Belo Jardim",
        "state": "PE",
        "district": "Santo Antônio",
        "street": "Rua Maria Izabel de Medeiros",
        "zipcode": "55152-380"
    },
    {
        "city": "Belo Jardim",
        "state": "PE",
        "district": "Bom Conselho",
        "street": "Rua Marcionila Alves",
        "zipcode": "55153-100"
    },
    {
        "city": "Belo Jardim",
        "state": "PE",
        "district": "Gameleira",
        "street": "Rua Maria Auxiliadora Noberto",
        "zipcode": "55153-505"
    },
    {
        "city": "Belo Jardim",
        "state": "PE",
        "district": "Morada Nobre",
        "street": "Rua Manoel Andrade da Silva",
        "zipcode": "55154-555"
    },
    {
        "city": "Belo Jardim",
        "state": "PE",
        "district": "Euno Andrade da Silva",
        "street": "Rua José Antônio Ramos (Lot Jd Hélem)",
        "zipcode": "55156-165"
    },
    {
        "city": "Belo Jardim",
        "state": "PE",
        "district": "Euno Andrade da Silva",
        "street": "Rua Maria José de Souza (Lot Inhumas)",
        "zipcode": "55156-380"
    },
    {
        "city": "Belo Jardim",
        "state": "PE",
        "district": "Euno Andrade da Silva",
        "street": "Rua João Pedro (Lot Inhumas)",
        "zipcode": "55156-425"
    },
    {
        "city": "Belo Jardim",
        "state": "PE",
        "district": "Frei Damião",
        "street": "Rua Professora Maria Arlete Pereira de Cordeiro Ferreira",
        "zipcode": "55151-190"
    },
    {
        "city": "Belo Jardim",
        "state": "PE",
        "district": "Frei Damião",
        "street": "Rua Pedro Pereira Barbosa Junior",
        "zipcode": "55151-240"
    },
    {
        "city": "Belo Jardim",
        "state": "PE",
        "district": "Santo Antônio",
        "street": "Rua Santo Antônio",
        "zipcode": "55152-010"
    },
    {
        "city": "Belo Jardim",
        "state": "PE",
        "district": "Euno Andrade da Silva",
        "street": "Rua Professor Mario Maragon (Lot Inhumas)",
        "zipcode": "55156-400"
    },
    {
        "city": "Belo Jardim",
        "state": "PE",
        "district": "Euno Andrade da Silva",
        "street": "Rua Miguel Barros (Lot Inhumas)",
        "zipcode": "55156-420"
    },
    {
        "city": "Belo Jardim",
        "state": "PE",
        "district": "Santo Antônio",
        "street": "Travessa Silvestre Pacheco Lins",
        "zipcode": "55152-071"
    },
    {
        "city": "Belo Jardim",
        "state": "PE",
        "district": "Santo Antônio",
        "street": "Travessa Joaquim Medeiros Cabral",
        "zipcode": "55152-431"
    },
    {
        "city": "Belo Jardim",
        "state": "PE",
        "district": "Centro",
        "street": "Travessa José Robalinho",
        "zipcode": "55150-121"
    },
    {
        "city": "Belo Jardim",
        "state": "PE",
        "district": "Centro",
        "street": "Travessa São Lourenço",
        "zipcode": "55150-301"
    },
    {
        "city": "Belo Jardim",
        "state": "PE",
        "district": "Centro",
        "street": "2ª Travessa São Lourenço",
        "zipcode": "55150-302"
    },
    {
        "city": "Belo Jardim",
        "state": "PE",
        "district": "São Pedro",
        "street": "2ª Travessa Amélia Lacerda",
        "zipcode": "55155-571"
    },
    {
        "city": "Belo Jardim",
        "state": "PE",
        "district": "São Pedro",
        "street": "Travessa Agamenon Rodrigues Caraciolo",
        "zipcode": "55155-721"
    },
    {
        "city": "Belo Jardim",
        "state": "PE",
        "district": "Euno Andrade da Silva",
        "street": "Rua Vital Moreira de Brito (Lot Inhumas)",
        "zipcode": "55156-445"
    },
    {
        "city": "Belo Jardim",
        "state": "PE",
        "district": "São Pedro",
        "street": "1ª Travessa Horácio de Barros Campelo",
        "zipcode": "55155-432"
    },
    {
        "city": "Belo Jardim",
        "state": "PE",
        "district": "São Pedro",
        "street": "Vila Doutor Fernando Dias de Abreu",
        "zipcode": "55155-660"
    },
    {
        "city": "Belo Jardim",
        "state": "PE",
        "district": "Euno Andrade da Silva",
        "street": "Rua Valdira Martins Leite (Lot Inhumas)",
        "zipcode": "55156-410"
    },
    {
        "city": "Belo Jardim",
        "state": "PE",
        "district": "São Pedro",
        "street": "2ª Travessa José Lopes da Silva",
        "zipcode": "55155-593"
    },
    {
        "city": "Belo Jardim",
        "state": "PE",
        "district": "Edson Mororó Moura",
        "street": "Rua Ricardo Manoel dos Santos",
        "zipcode": "55150-690"
    },
    {
        "city": "Belo Jardim",
        "state": "PE",
        "district": "Morada Nobre",
        "street": "Rua Projetada Nove",
        "zipcode": "55154-508"
    },
    {
        "city": "Belo Jardim",
        "state": "PE",
        "district": "São Pedro",
        "street": "Rua Valdemar Maciel",
        "zipcode": "55155-460"
    },
    {
        "city": "Belo Jardim",
        "state": "PE",
        "district": "Boa Vista",
        "street": "Rua Mocinha Mergulhão (Lot Airton Maciel)",
        "zipcode": "55157-332"
    },
    {
        "city": "Belo Jardim",
        "state": "PE",
        "district": "Boa Vista",
        "street": "Rua Natanael Pereira (Lot Airton Maciel)",
        "zipcode": "55157-338"
    },
    {
        "city": "Belo Jardim",
        "state": "PE",
        "district": "Boa Vista",
        "street": "Rua Maria dos Anjos Vieira Monteiro (Lot Airton Maciel)",
        "zipcode": "55157-344"
    },
    {
        "city": "Belo Jardim",
        "state": "PE",
        "district": "Boa Vista",
        "street": "Rua Poeta Manoel Basílio de Lima (Lot Airton Maciel)",
        "zipcode": "55157-352"
    },
    {
        "city": "Belo Jardim",
        "state": "PE",
        "district": "Boa Vista",
        "street": "Rua Estácio Bezerra da Costa (Lot Paulo Guerra II)",
        "zipcode": "55157-455"
    },
    {
        "city": "Belo Jardim",
        "state": "PE",
        "district": "Floresta",
        "street": "Rua Rivaldir Gouveia de Barros (Lot Kaun Kennedy)",
        "zipcode": "55158-196"
    },
    {
        "city": "Belo Jardim",
        "state": "PE",
        "district": "São Pedro",
        "street": "Rua Tenente Francisco Frade da Silva",
        "zipcode": "55155-020"
    },
    {
        "city": "Belo Jardim",
        "state": "PE",
        "district": "Boa Vista",
        "street": "Travessa Manoel Gomes do Nascimento",
        "zipcode": "55157-101"
    },
    {
        "city": "Belo Jardim",
        "state": "PE",
        "district": "Boa Vista",
        "street": "Rua Alair Lacerda (Lot Airton Maciel)",
        "zipcode": "55157-334"
    },
    {
        "city": "Belo Jardim",
        "state": "PE",
        "district": "Boa Vista",
        "street": "Rua Geraldo Alves Moura (Lot Airton Maciel)",
        "zipcode": "55157-354"
    },
    {
        "city": "Belo Jardim",
        "state": "PE",
        "district": "Boa Vista",
        "street": "Rua Manoel Francisco de Lucena (Lot Airton Maciel)",
        "zipcode": "55157-362"
    },
    {
        "city": "Belo Jardim",
        "state": "PE",
        "district": "Floresta",
        "street": "Rua Dorgival Rodrigues Galvão",
        "zipcode": "55158-105"
    },
    {
        "city": "Belo Jardim",
        "state": "PE",
        "district": "Boa Vista",
        "street": "Rua Petrucio Pimenteira de Abreu (Lot Airton Maciel)",
        "zipcode": "55157-358"
    },
    {
        "city": "Belo Jardim",
        "state": "PE",
        "district": "Floresta",
        "street": "Rua Pedro Domingos dos Santos",
        "zipcode": "55158-065"
    },
    {
        "city": "Belo Jardim",
        "state": "PE",
        "district": "Euno Andrade da Silva",
        "street": "Rua Julieta de Lima e Silva (Lot Inhumas)",
        "zipcode": "55156-360"
    },
    {
        "city": "Belo Jardim",
        "state": "PE",
        "district": "Euno Andrade da Silva",
        "street": "Rua José Alexandre de Barros (Lot Inhumas)",
        "zipcode": "55156-350"
    },
    {
        "city": "Belo Jardim",
        "state": "PE",
        "district": "Euno Andrade da Silva",
        "street": "Rua Manoel Nunes da Silva (Lot Inhumas)",
        "zipcode": "55156-345"
    },
    {
        "city": "Belo Jardim",
        "state": "PE",
        "district": "Euno Andrade da Silva",
        "street": "Rua Neci Maria Ferreira (Lot Inhumas)",
        "zipcode": "55156-340"
    },
    {
        "city": "Belo Jardim",
        "state": "PE",
        "district": "Euno Andrade da Silva",
        "street": "Rua Quitéria Aparecida da Silva (Lot Inhumas)",
        "zipcode": "55156-335"
    },
    {
        "city": "Belo Jardim",
        "state": "PE",
        "district": "Euno Andrade da Silva",
        "street": "Rua Ivaldo Bezerra da Silva (Lot Inhumas)",
        "zipcode": "55156-330"
    },
    {
        "city": "Belo Jardim",
        "state": "PE",
        "district": "Euno Andrade da Silva",
        "street": "Rua José Brasiliano da Silva (Lot Inhumas)",
        "zipcode": "55156-320"
    },
    {
        "city": "Belo Jardim",
        "state": "PE",
        "district": "Euno Andrade da Silva",
        "street": "Rua Alice Olindina Alves (Lot Inhumas)",
        "zipcode": "55156-315"
    },
    {
        "city": "Belo Jardim",
        "state": "PE",
        "district": "Euno Andrade da Silva",
        "street": "Rua Ave Onze de Setembro (Lot Inhumas)",
        "zipcode": "55156-310"
    },
    {
        "city": "Belo Jardim",
        "state": "PE",
        "district": "Euno Andrade da Silva",
        "street": "Rua Sebastião Gonçalves Torres (Lot Inhumas)",
        "zipcode": "55156-305"
    },
    {
        "city": "Belo Jardim",
        "state": "PE",
        "district": "Euno Andrade da Silva",
        "street": "Rua José Soares Teixeira (Lot Inhumas)",
        "zipcode": "55156-300"
    },
    {
        "city": "Belo Jardim",
        "state": "PE",
        "district": "Euno Andrade da Silva",
        "street": "Rua Marciano Vidal Pereira (Lot Inhumas)",
        "zipcode": "55156-290"
    },
    {
        "city": "Belo Jardim",
        "state": "PE",
        "district": "Euno Andrade da Silva",
        "street": "Rua Francisca Maria dos Passos (Lot Inhumas)",
        "zipcode": "55156-285"
    },
    {
        "city": "Belo Jardim",
        "state": "PE",
        "district": "Euno Andrade da Silva",
        "street": "Rua Elias Monteiro Senhorinho (Lot Inhumas)",
        "zipcode": "55156-280"
    },
    {
        "city": "Belo Jardim",
        "state": "PE",
        "district": "Euno Andrade da Silva",
        "street": "Rua José Sales de Moura (Lot Inhumas)",
        "zipcode": "55156-275"
    },
    {
        "city": "Belo Jardim",
        "state": "PE",
        "district": "Euno Andrade da Silva",
        "street": "Rua João Benedito da Silva (Lot Inhumas)",
        "zipcode": "55156-270"
    },
    {
        "city": "Belo Jardim",
        "state": "PE",
        "district": "Euno Andrade da Silva",
        "street": "Rua Antônio Carlos Senhorinho (Lot Inhumas)",
        "zipcode": "55156-255"
    },
    {
        "city": "Belo Jardim",
        "state": "PE",
        "district": "Euno Andrade da Silva",
        "street": "Rua Manoel Alves da Silva Irmão (Lot Inhumas)",
        "zipcode": "55156-250"
    },
    {
        "city": "Belo Jardim",
        "state": "PE",
        "district": "Euno Andrade da Silva",
        "street": "Rua Erasmo Pereira de Albuquerque (Lot Inhumas)",
        "zipcode": "55156-245"
    },
    {
        "city": "Belo Jardim",
        "state": "PE",
        "district": "Euno Andrade da Silva",
        "street": "Rua Professora Cremilda Xavier de Souza (Lot Inhumas)",
        "zipcode": "55156-240"
    },
    {
        "city": "Belo Jardim",
        "state": "PE",
        "district": "Euno Andrade da Silva",
        "street": "Rua Sebastiana Cardoso Amorim (Lot Jd Hélem)",
        "zipcode": "55156-220"
    },
    {
        "city": "Belo Jardim",
        "state": "PE",
        "district": "Euno Andrade da Silva",
        "street": "Rua Verdiano Alves do Nascimento (Lot Jd Hélem)",
        "zipcode": "55156-210"
    },
    {
        "city": "Belo Jardim",
        "state": "PE",
        "district": "Euno Andrade da Silva",
        "street": "Rua Ismael Barnabé da Silva (Lot Jd Hélem)",
        "zipcode": "55156-200"
    },
    {
        "city": "Belo Jardim",
        "state": "PE",
        "district": "Euno Andrade da Silva",
        "street": "Rua Desembargador Itamar Pereira (Lot Jd Hélem)",
        "zipcode": "55156-180"
    },
    {
        "city": "Belo Jardim",
        "state": "PE",
        "district": "Euno Andrade da Silva",
        "street": "Rua Deputado Sérgio Guerra (Lot Jd Hélem)",
        "zipcode": "55156-175"
    },
    {
        "city": "Belo Jardim",
        "state": "PE",
        "district": "Euno Andrade da Silva",
        "street": "Rua Francisco de Assis Pontes (Lot Jd Hélem)",
        "zipcode": "55156-170"
    },
    {
        "city": "Belo Jardim",
        "state": "PE",
        "district": "Euno Andrade da Silva",
        "street": "Rua Pedro Raimundo da Silva (Lot Jd Hélem)",
        "zipcode": "55156-195"
    },
    {
        "city": "Belo Jardim",
        "state": "PE",
        "district": "Euno Andrade da Silva",
        "street": "Rua Ave Vereador Zequinha de Jacó (Lot Jd Hélem)",
        "zipcode": "55156-205"
    },
    {
        "city": "Belo Jardim",
        "state": "PE",
        "district": "Gameleira",
        "street": "Rua Caminho da Barragem",
        "zipcode": "55153-705"
    },
    {
        "city": "Belo Jardim",
        "state": "PE",
        "district": "Gameleira",
        "street": "Rua Assis Firmino Lemos",
        "zipcode": "55153-750"
    },
    {
        "city": "Belo Jardim",
        "state": "PE",
        "district": "Gameleira",
        "street": "Rua Diomar Pereira dos Santos",
        "zipcode": "55153-690"
    },
    {
        "city": "Belo Jardim",
        "state": "PE",
        "district": "Ayrton Maciel",
        "street": "Rua Dona Luzila Feitosa de Castro",
        "zipcode": "55154-090"
    },
    {
        "city": "Belo Jardim",
        "state": "PE",
        "district": "Ayrton Maciel",
        "street": "Rua Geraldo Alves da Silva (Lot Jd Eldorado)",
        "zipcode": "55154-190"
    },
    {
        "city": "Belo Jardim",
        "state": "PE",
        "district": "Bom Conselho",
        "street": "Rua Manoel Alves de Souza (Lot Izaque Alves de Souza)",
        "zipcode": "55153-400"
    },
    {
        "city": "Belo Jardim",
        "state": "PE",
        "district": "Boa Vista",
        "street": "Travessa Juracy de Almeida",
        "zipcode": "55157-080"
    },
    {
        "city": "Belo Jardim",
        "state": "PE",
        "district": "Euno Andrade da Silva",
        "street": "Rua Michel Liberato (Lot Inhumas)",
        "zipcode": "55156-390"
    },
    {
        "city": "Belo Jardim",
        "state": "PE",
        "district": "Boa Vista",
        "street": "Travessa Humberto Siqueira",
        "zipcode": "55157-091"
    },
    {
        "city": "Belo Jardim",
        "state": "PE",
        "district": "Floresta",
        "street": "Avenida Salustiano José Torres",
        "zipcode": "55158-057"
    },
    {
        "city": "Belo Jardim",
        "state": "PE",
        "district": "Morada Nobre",
        "street": "Rua Antônio Pereira da Silva",
        "zipcode": "55154-550"
    },
    {
        "city": "Belo Jardim",
        "state": "PE",
        "district": "Morada Nobre",
        "street": "Rua Antônio Cândido Monteiro (Lot VI da Serra)",
        "zipcode": "55154-680"
    },
    {
        "city": "Belo Jardim",
        "state": "PE",
        "district": "Morada Nobre",
        "street": "Rua Ademir Holanda da Silva (Lot VI da Serra)",
        "zipcode": "55154-700"
    },
    {
        "city": "Belo Jardim",
        "state": "PE",
        "district": "São Pedro",
        "street": "Rua Boaventura Cavalcante",
        "zipcode": "55155-540"
    },
    {
        "city": "Belo Jardim",
        "state": "PE",
        "district": "Euno Andrade da Silva",
        "street": "Rua Carlos Drummond de Andrade (Lot Heliópolis)",
        "zipcode": "55156-005"
    },
    {
        "city": "Belo Jardim",
        "state": "PE",
        "district": "Euno Andrade da Silva",
        "street": "Rua Cecilia Meireles (Lot Heliópolis)",
        "zipcode": "55156-020"
    },
    {
        "city": "Belo Jardim",
        "state": "PE",
        "district": "Morada Nobre",
        "street": "Rua Elenicio Antônio Vitorino (Lot VI da Serra)",
        "zipcode": "55154-695"
    },
    {
        "city": "Belo Jardim",
        "state": "PE",
        "district": "Euno Andrade da Silva",
        "street": "Rua Escritor José Lins do Rego (Lot Heliópolis)",
        "zipcode": "55156-100"
    },
    {
        "city": "Belo Jardim",
        "state": "PE",
        "district": "Euno Andrade da Silva",
        "street": "Rua Doutor Carlos de Andrade (Lot Jd Hélem)",
        "zipcode": "55156-135"
    },
    {
        "city": "Belo Jardim",
        "state": "PE",
        "district": "Alto Limpo",
        "street": "Rua João Batista Senhorinho",
        "zipcode": "55152-840"
    },
    {
        "city": "Belo Jardim",
        "state": "PE",
        "district": "Gameleira",
        "street": "Rua Fabio Patrício de Carvalho (Lot Abilio Ramos de Queiroz)",
        "zipcode": "55153-795"
    },
    {
        "city": "Belo Jardim",
        "state": "PE",
        "district": "Morada Nobre",
        "street": "Rua José Cordeiro Mergulhão (Lot VI da Serra)",
        "zipcode": "55154-675"
    },
    {
        "city": "Belo Jardim",
        "state": "PE",
        "district": "São Pedro",
        "street": "Rua Marta Verônica Feitosa",
        "zipcode": "55155-790"
    },
    {
        "city": "Belo Jardim",
        "state": "PE",
        "district": "Bom Conselho",
        "street": "Rua José Aleixo da Silva (Lot Izaque Alves de Souza)",
        "zipcode": "55153-405"
    },
    {
        "city": "Belo Jardim",
        "state": "PE",
        "district": "Morada Nobre",
        "street": "Rua Manoel Lopes de Mendonça (Lot VI da Serra)",
        "zipcode": "55154-685"
    },
    {
        "city": "Belo Jardim",
        "state": "PE",
        "district": "Morada Nobre",
        "street": "Rua Poeta Roberto Cesar Lins (Lot VI da Serra)",
        "zipcode": "55154-705"
    },
    {
        "city": "Belo Jardim",
        "state": "PE",
        "district": "Euno Andrade da Silva",
        "street": "Rua Poeta Aluízio de Azevedo (Lot Heliópolis)",
        "zipcode": "55156-015"
    },
    {
        "city": "Belo Jardim",
        "state": "PE",
        "district": "Euno Andrade da Silva",
        "street": "Rua Poeta Roberto Cesar Lins (Lot Jd Hélem)",
        "zipcode": "55156-140"
    },
    {
        "city": "Belo Jardim",
        "state": "PE",
        "district": "São Pedro",
        "street": "Rua Josefa Germano Ferreira",
        "zipcode": "55155-810"
    },
    {
        "city": "Belo Jardim",
        "state": "PE",
        "district": "Euno Andrade da Silva",
        "street": "Rua Luiz Adelino da Silva (Lot Jd Hélem)",
        "zipcode": "55156-130"
    },
    {
        "city": "Belo Jardim",
        "state": "PE",
        "district": "Floresta",
        "street": "Rua Sebastião Andrade da Silva (Lot Kaun Kennedy)",
        "zipcode": "55158-194"
    },
    {
        "city": "Belo Jardim",
        "state": "PE",
        "district": "COHAB",
        "street": "Rua Antônio Batista de Souza Araújo",
        "zipcode": "55158-435"
    },
    {
        "city": "Belo Jardim",
        "state": "PE",
        "district": "COHAB",
        "street": "Rua Helena de Souza Cordeiro",
        "zipcode": "55158-630"
    },
    {
        "city": "Belo Jardim",
        "state": "PE",
        "district": "Euno Andrade da Silva",
        "street": "Rua Tabelião Renato da Silva (Lot Jd Hélem)",
        "zipcode": "55156-145"
    },
    {
        "city": "Belo Jardim",
        "state": "PE",
        "district": "COHAB",
        "street": "Rua Zequéu Motorista",
        "zipcode": "55158-395"
    },
    {
        "city": "Belo Jardim",
        "state": "PE",
        "district": "Santo Antônio",
        "street": "Travessa Duque de Caxias",
        "zipcode": "55152-211"
    },
    {
        "city": "Belo Jardim",
        "state": "PE",
        "district": "Centro",
        "street": "Praça Amelia Soares Paes",
        "zipcode": "55150-410"
    },
    {
        "city": "Belo Jardim",
        "state": "PE",
        "district": "Santo Antônio",
        "street": "Rua do Jardim",
        "zipcode": "55152-330"
    },
    {
        "city": "Belo Jardim",
        "state": "PE",
        "district": "Euno Andrade da Silva",
        "street": "Rua João Gonçalves Torres (Lot Inhumas)",
        "zipcode": "55156-455"
    },
    {
        "city": "Belo Jardim",
        "state": "PE",
        "district": "Ayrton Maciel",
        "street": "Rua Deputado Ulisses Guimarães",
        "zipcode": "55154-155"
    },
    {
        "city": "Belo Jardim",
        "state": "PE",
        "district": "Centro",
        "street": "Rua João Monteiro Leite",
        "zipcode": "55150-380"
    },
    {
        "city": "Belo Jardim",
        "state": "PE",
        "district": "COHAB",
        "street": "Rua Luiz Hermínio da Silva",
        "zipcode": "55152-595"
    },
    {
        "city": "Belo Jardim",
        "state": "PE",
        "district": "Frei Damião",
        "street": "Rua José Figueira de Menezes",
        "zipcode": "55151-120"
    },
    {
        "city": "Belo Jardim",
        "state": "PE",
        "district": "Bom Conselho",
        "street": "Rua Paulo Mergulhão Nunes",
        "zipcode": "55153-250"
    },
    {
        "city": "Belo Jardim",
        "state": "PE",
        "district": "José Maciel",
        "street": "Rua Pastor Antônio Quirino dos Santos (Lot VI Azulão I)",
        "zipcode": "55151-824"
    },
    {
        "city": "Belo Jardim",
        "state": "PE",
        "district": "São Pedro",
        "street": "Travessa Luiz Rodrigues de Araújo",
        "zipcode": "55155-611"
    },
    {
        "city": "Belo Jardim",
        "state": "PE",
        "district": null,
        "street": "Avenida Principal",
        "zipcode": "55165-990"
    },
    {
        "city": "Belo Jardim",
        "state": "PE",
        "district": "Bom Conselho",
        "street": "Rua Doutor Hermano José de Sampaio Lucena (Lot Izaque Alves de Souza)",
        "zipcode": "55153-360"
    },
    {
        "city": "Belo Jardim",
        "state": "PE",
        "district": "Euno Andrade da Silva",
        "street": "Rua João Bezerra de Almeida (Lot Inhumas)",
        "zipcode": "55156-385"
    },
    {
        "city": "Belo Jardim",
        "state": "PE",
        "district": "Boa Vista",
        "street": "Rua Roberto Arruda Silva (Lot Paulo Guerra II)",
        "zipcode": "55157-320"
    },
    {
        "city": "Belo Jardim",
        "state": "PE",
        "district": "Pontilhão",
        "street": "Rua Doutor Paulo André Dias da Silva",
        "zipcode": "55157-600"
    },
    {
        "city": "Belo Jardim",
        "state": "PE",
        "district": "Morada Nobre",
        "street": "Rua Zivaldo Galvão Pereira (Lot Morada Nobre)",
        "zipcode": "55154-507"
    },
    {
        "city": "Belo Jardim",
        "state": "PE",
        "district": "Boa Vista",
        "street": "Rua Sargento Romão Ribeiro (Lot Paulo Guerra II)",
        "zipcode": "55157-465"
    },
    {
        "city": "Belo Jardim",
        "state": "PE",
        "district": "Centro",
        "street": "Avenida Deputado José Mendonça Bezerra",
        "zipcode": "55150-005"
    },
    {
        "city": "Belo Jardim",
        "state": "PE",
        "district": "Centro",
        "street": "Travessa Numeriano Alves Bezerra",
        "zipcode": "55150-021"
    },
    {
        "city": "Belo Jardim",
        "state": "PE",
        "district": "Centro",
        "street": "Rua Coronel Adjar Maciel",
        "zipcode": "55150-040"
    },
    {
        "city": "Belo Jardim",
        "state": "PE",
        "district": "Centro",
        "street": "Rua Coronel João Monteiro",
        "zipcode": "55150-060"
    },
    {
        "city": "Belo Jardim",
        "state": "PE",
        "district": "Centro",
        "street": "Travessa Siqueira Campos",
        "zipcode": "55150-001"
    },
    {
        "city": "Belo Jardim",
        "state": "PE",
        "district": "Centro",
        "street": "3ª Travessa Coronel Geminiano Maciel",
        "zipcode": "55150-033"
    },
    {
        "city": "Belo Jardim",
        "state": "PE",
        "district": "Centro",
        "street": "Travessa Coronel Adjar Maciel",
        "zipcode": "55150-041"
    },
    {
        "city": "Belo Jardim",
        "state": "PE",
        "district": "Edson Mororó Moura",
        "street": "Rua João Torres Galindo",
        "zipcode": "55150-590"
    },
    {
        "city": "Belo Jardim",
        "state": "PE",
        "district": "Frei Damião",
        "street": "2ª Travessa Maria das Dores Cumaru",
        "zipcode": "55151-022"
    },
    {
        "city": "Belo Jardim",
        "state": "PE",
        "district": "Centro",
        "street": "Praça Desembargador João Paes",
        "zipcode": "55150-170"
    },
    {
        "city": "Belo Jardim",
        "state": "PE",
        "district": "Centro",
        "street": "Beco Coronel Germiniano Maciel",
        "zipcode": "55150-430"
    },
    {
        "city": "Belo Jardim",
        "state": "PE",
        "district": "Centro",
        "street": "Beco Padre Pedro Paes",
        "zipcode": "55150-440"
    },
    {
        "city": "Belo Jardim",
        "state": "PE",
        "district": "Centro",
        "street": "Beco São Lourenço",
        "zipcode": "55150-450"
    },
    {
        "city": "Belo Jardim",
        "state": "PE",
        "district": "Edson Mororó Moura",
        "street": "Beco Manoel Araújo da Silva",
        "zipcode": "55150-522"
    },
    {
        "city": "Belo Jardim",
        "state": "PE",
        "district": "Edson Mororó Moura",
        "street": "Beco Erasmo Rodrigues de M. Freitas",
        "zipcode": "55150-810"
    },
    {
        "city": "Belo Jardim",
        "state": "PE",
        "district": "Centro",
        "street": "Rua Agostinho Rodrigues",
        "zipcode": "55150-100"
    },
    {
        "city": "Belo Jardim",
        "state": "PE",
        "district": "Centro",
        "street": "Rua Agamenon Batista Magalhães",
        "zipcode": "55150-140"
    },
    {
        "city": "Belo Jardim",
        "state": "PE",
        "district": "Centro",
        "street": "Praça Joaquim Soares",
        "zipcode": "55150-180"
    },
    {
        "city": "Belo Jardim",
        "state": "PE",
        "district": "Centro",
        "street": "Rua Coronel Firmino Rodrigues",
        "zipcode": "55150-210"
    },
    {
        "city": "Belo Jardim",
        "state": "PE",
        "district": "Centro",
        "street": "Praça Padre Cícero",
        "zipcode": "55150-340"
    },
    {
        "city": "Belo Jardim",
        "state": "PE",
        "district": "Frei Damião",
        "street": "Rua Aureliano Tomás",
        "zipcode": "55151-090"
    },
    {
        "city": "Belo Jardim",
        "state": "PE",
        "district": "Frei Damião",
        "street": "Rua Amanda Ramos de Queiroz",
        "zipcode": "55151-160"
    },
    {
        "city": "Belo Jardim",
        "state": "PE",
        "district": "Frei Damião",
        "street": "Rua Avelina da Conceição Silva",
        "zipcode": "55151-210"
    },
    {
        "city": "Belo Jardim",
        "state": "PE",
        "district": "Centro",
        "street": "Rua Dom Moura",
        "zipcode": "55150-070"
    },
    {
        "city": "Belo Jardim",
        "state": "PE",
        "district": "Edson Mororó Moura",
        "street": "Rua do Loureiro",
        "zipcode": "55150-510"
    },
    {
        "city": "Belo Jardim",
        "state": "PE",
        "district": "Edson Mororó Moura",
        "street": "Rua Jacó Alves da Silva",
        "zipcode": "55150-620"
    },
    {
        "city": "Belo Jardim",
        "state": "PE",
        "district": "Frei Damião",
        "street": "Rua Irene Maciel de Lira",
        "zipcode": "55151-010"
    },
    {
        "city": "Belo Jardim",
        "state": "PE",
        "district": "Frei Damião",
        "street": "Rua Estér Andrade Cordeiro",
        "zipcode": "55151-140"
    },
    {
        "city": "Belo Jardim",
        "state": "PE",
        "district": "Frei Damião",
        "street": "Rua Eleuza Figueira (Lot Frei Damião)",
        "zipcode": "55151-270"
    },
    {
        "city": "Belo Jardim",
        "state": "PE",
        "district": "Centro",
        "street": "Rua Marechal Deodoro",
        "zipcode": "55150-260"
    },
    {
        "city": "Belo Jardim",
        "state": "PE",
        "district": "Centro",
        "street": "Rua Manoel Domingos de Melo",
        "zipcode": "55150-320"
    },
    {
        "city": "Belo Jardim",
        "state": "PE",
        "district": "Edson Mororó Moura",
        "street": "Rua Manoel Araújo da Silva",
        "zipcode": "55150-520"
    },
    {
        "city": "Belo Jardim",
        "state": "PE",
        "district": "Edson Mororó Moura",
        "street": "Rua José Feliciano de Freitas",
        "zipcode": "55150-670"
    },
    {
        "city": "Belo Jardim",
        "state": "PE",
        "district": "José Maciel",
        "street": "Rua Maria de Lourdes Queiroz (Lot VI Cardeal)",
        "zipcode": "55151-635"
    },
    {
        "city": "Belo Jardim",
        "state": "PE",
        "district": "Centro",
        "street": "Rua Monsenhor Francisco de Assis Neves",
        "zipcode": "55150-190"
    },
    {
        "city": "Belo Jardim",
        "state": "PE",
        "district": "Edson Mororó Moura",
        "street": "Rua Regina Alves",
        "zipcode": "55150-560"
    },
    {
        "city": "Belo Jardim",
        "state": "PE",
        "district": "Frei Damião",
        "street": "Rua Odilon Severino",
        "zipcode": "55151-040"
    },
    {
        "city": "Belo Jardim",
        "state": "PE",
        "district": "Centro",
        "street": "Travessa Cleto Campelo",
        "zipcode": "55150-161"
    },
    {
        "city": "Belo Jardim",
        "state": "PE",
        "district": "Centro",
        "street": "Travessa Joaquim Soares",
        "zipcode": "55150-181"
    },
    {
        "city": "Belo Jardim",
        "state": "PE",
        "district": "Centro",
        "street": "Travessa Coronel Firmino Rodrigues",
        "zipcode": "55150-211"
    },
    {
        "city": "Belo Jardim",
        "state": "PE",
        "district": "Centro",
        "street": "Travessa Imaculada Conceição",
        "zipcode": "55150-250"
    },
    {
        "city": "Belo Jardim",
        "state": "PE",
        "district": "Centro",
        "street": "Travessa Marechal Deodoro",
        "zipcode": "55150-261"
    },
    {
        "city": "Belo Jardim",
        "state": "PE",
        "district": "Centro",
        "street": "Rua Tereza Augusta Maciel",
        "zipcode": "55150-420"
    },
    {
        "city": "Belo Jardim",
        "state": "PE",
        "district": "Edson Mororó Moura",
        "street": "Travessa Regina Alves",
        "zipcode": "55150-561"
    },
    {
        "city": "Belo Jardim",
        "state": "PE",
        "district": "Frei Damião",
        "street": "Travessa Isabel Cordeiro Ferreira",
        "zipcode": "55151-111"
    },
    {
        "city": "Belo Jardim",
        "state": "PE",
        "district": "José Maciel",
        "street": "Rua Antônio Amaro Dias (Lot VI Azulão II)",
        "zipcode": "55151-770"
    },
    {
        "city": "Belo Jardim",
        "state": "PE",
        "district": "Santo Antônio",
        "street": "Rua Albina Cintra Galvão",
        "zipcode": "55152-320"
    },
    {
        "city": "Belo Jardim",
        "state": "PE",
        "district": "COHAB",
        "street": "Rua Ageu Joaquim da Silva (COHAB II)",
        "zipcode": "55152-580"
    },
    {
        "city": "Belo Jardim",
        "state": "PE",
        "district": "Bom Conselho",
        "street": "Rua Antônio R. Pinheiro",
        "zipcode": "55153-040"
    },
    {
        "city": "Belo Jardim",
        "state": "PE",
        "district": "Bom Conselho",
        "street": "Rua Coronel Antônio Vilela",
        "zipcode": "55153-200"
    },
    {
        "city": "Belo Jardim",
        "state": "PE",
        "district": "José Maciel",
        "street": "Rua Erenilton Bezerra dos Santos (Lot VI Cardeal)",
        "zipcode": "55151-650"
    },
    {
        "city": "Belo Jardim",
        "state": "PE",
        "district": "José Maciel",
        "street": "Rua Erinaldo Sabino dos Santos (Lot VI Cardeal)",
        "zipcode": "55151-660"
    },
    {
        "city": "Belo Jardim",
        "state": "PE",
        "district": "José Maciel",
        "street": "Rua Doutor Mauricio Carlos da Silva (Lot Nova Floresta II)",
        "zipcode": "55151-840"
    },
    {
        "city": "Belo Jardim",
        "state": "PE",
        "district": "Santo Antônio",
        "street": "Rua Duque de Caxias",
        "zipcode": "55152-210"
    },
    {
        "city": "Belo Jardim",
        "state": "PE",
        "district": "COHAB",
        "street": "Rua João Demétrio Sobrinho (COHAB II)",
        "zipcode": "55152-270"
    },
    {
        "city": "Belo Jardim",
        "state": "PE",
        "district": "Alto Limpo",
        "street": "Rua da Palestina",
        "zipcode": "55152-810"
    },
    {
        "city": "Belo Jardim",
        "state": "PE",
        "district": "Alto Limpo",
        "street": "Rua Honório Torres de Melo",
        "zipcode": "55152-815"
    },
    {
        "city": "Belo Jardim",
        "state": "PE",
        "district": "Bom Conselho",
        "street": "Rua Francisco Marques de Siqueira",
        "zipcode": "55153-120"
    },
    {
        "city": "Belo Jardim",
        "state": "PE",
        "district": "Bom Conselho",
        "street": "Rua Jacques Cavalcante",
        "zipcode": "55153-160"
    },
    {
        "city": "Belo Jardim",
        "state": "PE",
        "district": "COHAB",
        "street": "Rua José Severo da Silva (COHAB II)",
        "zipcode": "55152-220"
    },
    {
        "city": "Belo Jardim",
        "state": "PE",
        "district": "COHAB",
        "street": "Rua José de Souza Barbosa (COHAB II)",
        "zipcode": "55152-555"
    },
    {
        "city": "Belo Jardim",
        "state": "PE",
        "district": "José Maciel",
        "street": "Rua Severino Fidelis (Lot Portal Kennedy I)",
        "zipcode": "55151-700"
    },
    {
        "city": "Belo Jardim",
        "state": "PE",
        "district": "José Maciel",
        "street": "Rua Severino Bento da Silva (Lot Portal Kennedy I)",
        "zipcode": "55151-705"
    },
    {
        "city": "Belo Jardim",
        "state": "PE",
        "district": "José Maciel",
        "street": "Rua Sebastiana Clementina (Lot Portal Kennedy I)",
        "zipcode": "55151-735"
    },
    {
        "city": "Belo Jardim",
        "state": "PE",
        "district": "José Maciel",
        "street": "Rua Quiteria Maria Bezerra (Lot VI Azulão II)",
        "zipcode": "55151-750"
    },
    {
        "city": "Belo Jardim",
        "state": "PE",
        "district": "José Maciel",
        "street": "Rua Natan Erminio de Almeida (Lot VI Azulão I)",
        "zipcode": "55151-818"
    },
    {
        "city": "Belo Jardim",
        "state": "PE",
        "district": "Santo Antônio",
        "street": "Rua Rita Barbosa",
        "zipcode": "55152-115"
    },
    {
        "city": "Belo Jardim",
        "state": "PE",
        "district": "Santo Antônio",
        "street": "Rua Santa Terezinha",
        "zipcode": "55152-125"
    },
    {
        "city": "Belo Jardim",
        "state": "PE",
        "district": "Santo Antônio",
        "street": "Rua São Rafael",
        "zipcode": "55152-145"
    },
    {
        "city": "Belo Jardim",
        "state": "PE",
        "district": "COHAB",
        "street": "Rua Senador Antônio Farias (COHAB II)",
        "zipcode": "55152-230"
    },
    {
        "city": "Belo Jardim",
        "state": "PE",
        "district": "COHAB",
        "street": "Rua Olindina Cordeiro Mergulhão (COHAB II)",
        "zipcode": "55152-250"
    },
    {
        "city": "Belo Jardim",
        "state": "PE",
        "district": "COHAB",
        "street": "Rua Oito (COHAB II)",
        "zipcode": "55152-680"
    },
    {
        "city": "Belo Jardim",
        "state": "PE",
        "district": "COHAB",
        "street": "Rua Nove (COHAB II)",
        "zipcode": "55152-690"
    },
    {
        "city": "Belo Jardim",
        "state": "PE",
        "district": "Bom Conselho",
        "street": "Rua Quitéria Cordeiro Mergulhão Nunes",
        "zipcode": "55153-240"
    },
    {
        "city": "Belo Jardim",
        "state": "PE",
        "district": "Santo Antônio",
        "street": "Travessa Agamenon Magalhães",
        "zipcode": "55152-091"
    },
    {
        "city": "Belo Jardim",
        "state": "PE",
        "district": "Santo Antônio",
        "street": "Travessa Honório Torres de Melo",
        "zipcode": "55152-141"
    },
    {
        "city": "Belo Jardim",
        "state": "PE",
        "district": "Santo Antônio",
        "street": "Travessa Antônio Moreira",
        "zipcode": "55152-361"
    },
    {
        "city": "Belo Jardim",
        "state": "PE",
        "district": "Santo Antônio",
        "street": "Travessa Santos Dumont",
        "zipcode": "55152-391"
    },
    {
        "city": "Belo Jardim",
        "state": "PE",
        "district": "Bom Conselho",
        "street": "2ª Travessa Coronel João Leite",
        "zipcode": "55153-004"
    },
    {
        "city": "Belo Jardim",
        "state": "PE",
        "district": "Bom Conselho",
        "street": "Travessa Bom Conselho",
        "zipcode": "55153-184"
    },
    {
        "city": "Belo Jardim",
        "state": "PE",
        "district": "José Maciel",
        "street": "Rua Paulo Benedito dos Santos (Lot Portal Kennedy I)",
        "zipcode": "55151-725"
    },
    {
        "city": "Belo Jardim",
        "state": "PE",
        "district": "José Maciel",
        "street": "Rua Antônio Gouveia do Nascimento (Lot Novo Horizonte II)",
        "zipcode": "55151-836"
    },
    {
        "city": "Belo Jardim",
        "state": "PE",
        "district": "Santo Antônio",
        "street": "Travessa Francisco Julião de Lima",
        "zipcode": "55152-401"
    },
    {
        "city": "Belo Jardim",
        "state": "PE",
        "district": "Alto Limpo",
        "street": "Rua Izaque Alves de Souza",
        "zipcode": "55152-830"
    },
    {
        "city": "Belo Jardim",
        "state": "PE",
        "district": "Bom Conselho",
        "street": "Rua Luis Nunes de Siqueira",
        "zipcode": "55153-015"
    },
    {
        "city": "Belo Jardim",
        "state": "PE",
        "district": "Bom Conselho",
        "street": "Rua Santa Inês",
        "zipcode": "55153-030"
    },
    {
        "city": "Belo Jardim",
        "state": "PE",
        "district": "Bom Conselho",
        "street": "Avenida Izaque Alves (Lot Izaque Alves de Souza)",
        "zipcode": "55153-355"
    },
    {
        "city": "Belo Jardim",
        "state": "PE",
        "district": "Ayrton Maciel",
        "street": "Avenida Coronel Germiniano Maciel",
        "zipcode": "55154-060"
    },
    {
        "city": "Belo Jardim",
        "state": "PE",
        "district": "Ayrton Maciel",
        "street": "Avenida Sebastião Rodrigues da Costa",
        "zipcode": "55154-065"
    },
    {
        "city": "Belo Jardim",
        "state": "PE",
        "district": "Centro",
        "street": "Rua Abílio de Barros Correia",
        "zipcode": "55150-270"
    },
    {
        "city": "Belo Jardim",
        "state": "PE",
        "district": "Santo Antônio",
        "street": "Rua Brás Pereira Barbosa",
        "zipcode": "55152-050"
    },
    {
        "city": "Belo Jardim",
        "state": "PE",
        "district": "Alto Limpo",
        "street": "Rodovia PE",
        "zipcode": "55152-835"
    },
    {
        "city": "Belo Jardim",
        "state": "PE",
        "district": "Bom Conselho",
        "street": "Rua Cecilia Alves de Souza (Lot Izaque Alves de Souza)",
        "zipcode": "55153-390"
    },
    {
        "city": "Belo Jardim",
        "state": "PE",
        "district": "Gameleira",
        "street": "Rua Apolinário Felipe Santiago",
        "zipcode": "55153-590"
    },
    {
        "city": "Belo Jardim",
        "state": "PE",
        "district": "Gameleira",
        "street": "Rua Antônio Amaro de Araújo",
        "zipcode": "55153-630"
    },
    {
        "city": "Belo Jardim",
        "state": "PE",
        "district": "Gameleira",
        "street": "Rua Aristóteles Bezerra de Araújo",
        "zipcode": "55153-665"
    },
    {
        "city": "Belo Jardim",
        "state": "PE",
        "district": "COHAB",
        "street": "Rua Olívia Leite Calado",
        "zipcode": "55152-295"
    },
    {
        "city": "Belo Jardim",
        "state": "PE",
        "district": "Gameleira",
        "street": "Rua Antônio Marcal de Freitas",
        "zipcode": "55153-720"
    },
    {
        "city": "Belo Jardim",
        "state": "PE",
        "district": "Gameleira",
        "street": "Rua Cícero Santino dos Santos",
        "zipcode": "55153-755"
    },
    {
        "city": "Belo Jardim",
        "state": "PE",
        "district": "Ayrton Maciel",
        "street": "Rua Cecília Mendes Ribeiro",
        "zipcode": "55154-045"
    },
    {
        "city": "Belo Jardim",
        "state": "PE",
        "district": "Ayrton Maciel",
        "street": "Rua Carlos Alexandre",
        "zipcode": "55154-170"
    },
    {
        "city": "Belo Jardim",
        "state": "PE",
        "district": "Edson Mororó Moura",
        "street": "Rua Etelvina Cordeiro Mergulhão",
        "zipcode": "55150-580"
    },
    {
        "city": "Belo Jardim",
        "state": "PE",
        "district": "Edson Mororó Moura",
        "street": "Rua do Índio",
        "zipcode": "55150-650"
    },
    {
        "city": "Belo Jardim",
        "state": "PE",
        "district": "Santo Antônio",
        "street": "Rua Deputado José Bezerra Alves",
        "zipcode": "55152-450"
    },
    {
        "city": "Belo Jardim",
        "state": "PE",
        "district": "Bom Conselho",
        "street": "Rua do Cemitério",
        "zipcode": "55153-020"
    },
    {
        "city": "Belo Jardim",
        "state": "PE",
        "district": "Bom Conselho",
        "street": "Rua Inhumas",
        "zipcode": "55153-170"
    },
    {
        "city": "Belo Jardim",
        "state": "PE",
        "district": "Gameleira",
        "street": "Rua Generosa Maria da Conceição",
        "zipcode": "55153-740"
    },
    {
        "city": "Belo Jardim",
        "state": "PE",
        "district": "Gameleira",
        "street": "Rua Edvaldo Ramos da Silva (Lot Tereza Mendonça)",
        "zipcode": "55153-806"
    },
    {
        "city": "Belo Jardim",
        "state": "PE",
        "district": "Morada Nobre",
        "street": "Rua Gerilson de Lacerda Prata",
        "zipcode": "55154-530"
    },
    {
        "city": "Belo Jardim",
        "state": "PE",
        "district": "José Maciel",
        "street": "Rua Luiz Monteiro Senhorinho (Lot VI Cardeal)",
        "zipcode": "55151-625"
    },
    {
        "city": "Belo Jardim",
        "state": "PE",
        "district": "Santo Antônio",
        "street": "Rua Maria Xavier Martins",
        "zipcode": "55152-215"
    },
    {
        "city": "Belo Jardim",
        "state": "PE",
        "district": "Santo Antônio",
        "street": "Rua Joaquim Medeiros Cabral",
        "zipcode": "55152-430"
    },
    {
        "city": "Belo Jardim",
        "state": "PE",
        "district": "Santo Antônio",
        "street": "Rua Luís Hermínio da Silva",
        "zipcode": "55152-510"
    },
    {
        "city": "Belo Jardim",
        "state": "PE",
        "district": "Gameleira",
        "street": "Rua Manoel Sebastião Chaves",
        "zipcode": "55153-730"
    },
    {
        "city": "Belo Jardim",
        "state": "PE",
        "district": "Edson Mororó Moura",
        "street": "Rua Pedro Figueira de Araújo",
        "zipcode": "55150-640"
    },
    {
        "city": "Belo Jardim",
        "state": "PE",
        "district": "Santo Antônio",
        "street": "Rua São Manoel",
        "zipcode": "55152-350"
    },
    {
        "city": "Belo Jardim",
        "state": "PE",
        "district": "COHAB",
        "street": "Rua São Jorge (COHAB II)",
        "zipcode": "55152-570"
    },
    {
        "city": "Belo Jardim",
        "state": "PE",
        "district": "Bom Conselho",
        "street": "Rua Nelson da Laranja (Lot Izaque Alves de Souza)",
        "zipcode": "55153-375"
    },
    {
        "city": "Belo Jardim",
        "state": "PE",
        "district": "Gameleira",
        "street": "Rua Sebastião José dos Santos",
        "zipcode": "55153-775"
    },
    {
        "city": "Belo Jardim",
        "state": "PE",
        "district": "Ayrton Maciel",
        "street": "Rua Rogaciano Cícero de Castro",
        "zipcode": "55154-020"
    },
    {
        "city": "Belo Jardim",
        "state": "PE",
        "district": "Ayrton Maciel",
        "street": "Rua Presidente Costa e Silva",
        "zipcode": "55154-080"
    },
    {
        "city": "Belo Jardim",
        "state": "PE",
        "district": "Edson Mororó Moura",
        "street": "Travessa Tibúrcio Gomes de Oliveira",
        "zipcode": "55150-661"
    },
    {
        "city": "Belo Jardim",
        "state": "PE",
        "district": "Edson Mororó Moura",
        "street": "Travessa Ricardo Manoel dos Santos",
        "zipcode": "55150-691"
    },
    {
        "city": "Belo Jardim",
        "state": "PE",
        "district": "Santo Antônio",
        "street": "2ª Travessa Agamenon Magalhães",
        "zipcode": "55152-092"
    },
    {
        "city": "Belo Jardim",
        "state": "PE",
        "district": "Bom Conselho",
        "street": "Travessa Jacques Cavalcante",
        "zipcode": "55153-161"
    },
    {
        "city": "Belo Jardim",
        "state": "PE",
        "district": "Gameleira",
        "street": "Travessa do Peixe",
        "zipcode": "55153-698"
    },
    {
        "city": "Belo Jardim",
        "state": "PE",
        "district": "José Maciel",
        "street": "Rua Benedito Manoel da Silva (Lot Novo Horizonte II)",
        "zipcode": "55151-834"
    },
    {
        "city": "Belo Jardim",
        "state": "PE",
        "district": "COHAB",
        "street": "Rua Filomena de Souza Barbosa (COHAB II)",
        "zipcode": "55152-545"
    },
    {
        "city": "Belo Jardim",
        "state": "PE",
        "district": "Gameleira",
        "street": "Rua Eunice Demetrio Monteiro (Lot Tereza Mendonça)",
        "zipcode": "55153-824"
    },
    {
        "city": "Belo Jardim",
        "state": "PE",
        "district": "São Pedro",
        "street": "Rua Amélia Lacerda",
        "zipcode": "55155-570"
    },
    {
        "city": "Belo Jardim",
        "state": "PE",
        "district": "Euno Andrade da Silva",
        "street": "Rua Ave Heliópolis (Lot Heliópolis)",
        "zipcode": "55156-010"
    },
    {
        "city": "Belo Jardim",
        "state": "PE",
        "district": "Euno Andrade da Silva",
        "street": "Rua Attalita Mizziara de Melo (Lot Jd Helem)",
        "zipcode": "55156-540"
    },
    {
        "city": "Belo Jardim",
        "state": "PE",
        "district": "Boa Vista",
        "street": "Rua Amélia Soares Paes",
        "zipcode": "55157-310"
    },
    {
        "city": "Belo Jardim",
        "state": "PE",
        "district": "São Pedro",
        "street": "Rua Francisco Oliveira de Lima",
        "zipcode": "55155-060"
    },
    {
        "city": "Belo Jardim",
        "state": "PE",
        "district": "São Pedro",
        "street": "Rua Helânia Cristina Pereira da Silva (Lot João Bezerra Filho)",
        "zipcode": "55155-090"
    },
    {
        "city": "Belo Jardim",
        "state": "PE",
        "district": "São Pedro",
        "street": "Rua Dom Luiz",
        "zipcode": "55155-530"
    },
    {
        "city": "Belo Jardim",
        "state": "PE",
        "district": "São Pedro",
        "street": "Rua Doutor Henrique Nascimento",
        "zipcode": "55155-580"
    },
    {
        "city": "Belo Jardim",
        "state": "PE",
        "district": "São Pedro",
        "street": "Rua Gildete de Souza Conserva (Lot Josefa Germano Ferreira III)",
        "zipcode": "55155-805"
    },
    {
        "city": "Belo Jardim",
        "state": "PE",
        "district": "São Pedro",
        "street": "Rua dos Motoristas",
        "zipcode": "55155-820"
    },
    {
        "city": "Belo Jardim",
        "state": "PE",
        "district": "Euno Andrade da Silva",
        "street": "Rua Escritora Clarice Lispector (Lot Heliópolis)",
        "zipcode": "55156-025"
    },
    {
        "city": "Belo Jardim",
        "state": "PE",
        "district": "Euno Andrade da Silva",
        "street": "Rua Escritor Oswald de Andrade (Lot Heliópolis)",
        "zipcode": "55156-035"
    },
    {
        "city": "Belo Jardim",
        "state": "PE",
        "district": "Euno Andrade da Silva",
        "street": "Rua Escritor Euclides da Cunha (Lot Heliópolis)",
        "zipcode": "55156-080"
    },
    {
        "city": "Belo Jardim",
        "state": "PE",
        "district": "Euno Andrade da Silva",
        "street": "Rua João Capitulino dos Santos (Lot Inhumas)",
        "zipcode": "55156-430"
    },
    {
        "city": "Belo Jardim",
        "state": "PE",
        "district": "Euno Andrade da Silva",
        "street": "Rua Iraci Ester do Carmo (Lot VianaeMoura Inhumas)",
        "zipcode": "55156-485"
    },
    {
        "city": "Belo Jardim",
        "state": "PE",
        "district": "Morada Nobre",
        "street": "Rua Maria Xavier Martins",
        "zipcode": "55154-590"
    },
    {
        "city": "Belo Jardim",
        "state": "PE",
        "district": "Morada Nobre",
        "street": "Rua José Alexandre de Barros (Lot VI da Serra)",
        "zipcode": "55154-665"
    },
    {
        "city": "Belo Jardim",
        "state": "PE",
        "district": "Morada Nobre",
        "street": "Rua João Teixeira da Costa (Lot VI da Serra)",
        "zipcode": "55154-690"
    },
    {
        "city": "Belo Jardim",
        "state": "PE",
        "district": "São Pedro",
        "street": "Rua José Siqueira Prata",
        "zipcode": "55155-010"
    },
    {
        "city": "Belo Jardim",
        "state": "PE",
        "district": "São Pedro",
        "street": "Rua Júlio Augusto de Oliveira",
        "zipcode": "55155-250"
    },
    {
        "city": "Belo Jardim",
        "state": "PE",
        "district": "São Pedro",
        "street": "Rua Maria das Dores",
        "zipcode": "55155-260"
    },
    {
        "city": "Belo Jardim",
        "state": "PE",
        "district": "São Pedro",
        "street": "Rua José Wellington Santos",
        "zipcode": "55155-380"
    },
    {
        "city": "Belo Jardim",
        "state": "PE",
        "district": "São Pedro",
        "street": "Rua Lúcio José Cordeiro",
        "zipcode": "55155-390"
    },
    {
        "city": "Belo Jardim",
        "state": "PE",
        "district": "São Pedro",
        "street": "Rua Joaquim Cordeiro Wanderley",
        "zipcode": "55155-510"
    },
    {
        "city": "Belo Jardim",
        "state": "PE",
        "district": "São Pedro",
        "street": "Rua Joaquim Gonçalves de Lima",
        "zipcode": "55155-560"
    },
    {
        "city": "Belo Jardim",
        "state": "PE",
        "district": "São Pedro",
        "street": "Rua Maria Aparecida",
        "zipcode": "55155-800"
    },
    {
        "city": "Belo Jardim",
        "state": "PE",
        "district": "Euno Andrade da Silva",
        "street": "Rua José Mauricio de Andrade (Lot Jd Hélem)",
        "zipcode": "55156-155"
    },
    {
        "city": "Belo Jardim",
        "state": "PE",
        "district": "Centro",
        "street": "Rua José Robalinho",
        "zipcode": "55150-120"
    },
    {
        "city": "Belo Jardim",
        "state": "PE",
        "district": "Morada Nobre",
        "street": "Rua Pedro Domingos dos Santos",
        "zipcode": "55154-620"
    },
    {
        "city": "Belo Jardim",
        "state": "PE",
        "district": "São Pedro",
        "street": "Rua São Caetano",
        "zipcode": "55155-130"
    },
    {
        "city": "Belo Jardim",
        "state": "PE",
        "district": "São Pedro",
        "street": "Rua Padre Geovane",
        "zipcode": "55155-170"
    },
    {
        "city": "Belo Jardim",
        "state": "PE",
        "district": "São Pedro",
        "street": "Rua São Judas Tadeu",
        "zipcode": "55155-750"
    },
    {
        "city": "Belo Jardim",
        "state": "PE",
        "district": "Euno Andrade da Silva",
        "street": "Rua Narciso Vidal de Melo (Lot Inhumas)",
        "zipcode": "55156-405"
    },
    {
        "city": "Belo Jardim",
        "state": "PE",
        "district": "Euno Andrade da Silva",
        "street": "Rua Ocilia Ferreira de Lima (Lot VianaeMoura Inhumas)",
        "zipcode": "55156-490"
    },
    {
        "city": "Belo Jardim",
        "state": "PE",
        "district": "Euno Andrade da Silva",
        "street": "Rua Severino José da Silva (Lot VianaeMoura Inhumas)",
        "zipcode": "55156-530"
    },
    {
        "city": "Belo Jardim",
        "state": "PE",
        "district": "Morada Nobre",
        "street": "Rua Vicentinho Pereira",
        "zipcode": "55154-535"
    },
    {
        "city": "Belo Jardim",
        "state": "PE",
        "district": "São Pedro",
        "street": "Travessa Maria Rosicleide F. de Oliveira",
        "zipcode": "55155-181"
    },
    {
        "city": "Belo Jardim",
        "state": "PE",
        "district": "São Pedro",
        "street": "Travessa Caruaru",
        "zipcode": "55155-190"
    },
    {
        "city": "Belo Jardim",
        "state": "PE",
        "district": "São Pedro",
        "street": "3ª Travessa Jose Lopes da Silva",
        "zipcode": "55155-594"
    },
    {
        "city": "Belo Jardim",
        "state": "PE",
        "district": "São Pedro",
        "street": "4ª Travessa José Lopes da Silva",
        "zipcode": "55155-595"
    },
    {
        "city": "Belo Jardim",
        "state": "PE",
        "district": "São Pedro",
        "street": "Travessa Nemésio Feitosa de Lima",
        "zipcode": "55155-653"
    },
    {
        "city": "Belo Jardim",
        "state": "PE",
        "district": "Morada Nobre",
        "street": "Rua Manoel M. Senhorinho",
        "zipcode": "55154-575"
    },
    {
        "city": "Belo Jardim",
        "state": "PE",
        "district": "Euno Andrade da Silva",
        "street": "Rua Afonso Lourenço Bezerra (Lot Inhumas)",
        "zipcode": "55156-460"
    },
    {
        "city": "Belo Jardim",
        "state": "PE",
        "district": "São Pedro",
        "street": "Rua Boaventura Joaquim de Moura",
        "zipcode": "55155-410"
    },
    {
        "city": "Belo Jardim",
        "state": "PE",
        "district": "Frei Damião",
        "street": "Rua Joseni de Souza Alves",
        "zipcode": "55151-250"
    },
    {
        "city": "Belo Jardim",
        "state": "PE",
        "district": "José Maciel",
        "street": "Rua Maria Arlete Pereira de Cordeiro Ferreira (Lot VI Azulão I)",
        "zipcode": "55151-820"
    },
    {
        "city": "Belo Jardim",
        "state": "PE",
        "district": "Bom Conselho",
        "street": "Rua José Abaeté Barros Correia",
        "zipcode": "55153-110"
    },
    {
        "city": "Belo Jardim",
        "state": "PE",
        "district": "Bom Conselho",
        "street": "Rua Maria Senhorinho Souza (Lot Izaque Alves de Souza)",
        "zipcode": "55153-395"
    },
    {
        "city": "Belo Jardim",
        "state": "PE",
        "district": "Morada Nobre",
        "street": "Rua Laudiceia Pereira da Paz (Lot Morada Nobre)",
        "zipcode": "55154-505"
    },
    {
        "city": "Belo Jardim",
        "state": "PE",
        "district": "Morada Nobre",
        "street": "Rua Lauriene Menezes Nunes (Lot VI da Serra)",
        "zipcode": "55154-670"
    },
    {
        "city": "Belo Jardim",
        "state": "PE",
        "district": "Frei Damião",
        "street": "Rua Severina de Melo Ferreira",
        "zipcode": "55151-230"
    },
    {
        "city": "Belo Jardim",
        "state": "PE",
        "district": "José Maciel",
        "street": "Rua Sebastião Natanael de Souza (Lot VI Cardeal)",
        "zipcode": "55151-640"
    },
    {
        "city": "Belo Jardim",
        "state": "PE",
        "district": "São Pedro",
        "street": "Travessa Boaventura Cavalcante",
        "zipcode": "55155-414"
    },
    {
        "city": "Belo Jardim",
        "state": "PE",
        "district": "São Pedro",
        "street": "Travessa Euclides de Melo Lins",
        "zipcode": "55155-441"
    },
    {
        "city": "Belo Jardim",
        "state": "PE",
        "district": "São Pedro",
        "street": "5ª Travessa José Lopes da Silva",
        "zipcode": "55155-596"
    },
    {
        "city": "Belo Jardim",
        "state": "PE",
        "district": "São Pedro",
        "street": "6ª Travessa José Lopes da Silva",
        "zipcode": "55155-597"
    },
    {
        "city": "Belo Jardim",
        "state": "PE",
        "district": "São Pedro",
        "street": "1ª Travessa Amélia Soares Paes",
        "zipcode": "55155-621"
    },
    {
        "city": "Belo Jardim",
        "state": "PE",
        "district": "Gameleira",
        "street": "Rua São Benedito",
        "zipcode": "55153-695"
    },
    {
        "city": "Belo Jardim",
        "state": "PE",
        "district": "Gameleira",
        "street": "Rua Salomão Ferreira Amâncio (Lot Tereza Mendonça)",
        "zipcode": "55153-808"
    },
    {
        "city": "Belo Jardim",
        "state": "PE",
        "district": "Ayrton Maciel",
        "street": "Rua Professor Cícero Aderaldo Araújo Silva",
        "zipcode": "55154-145"
    },
    {
        "city": "Belo Jardim",
        "state": "PE",
        "district": "Morada Nobre",
        "street": "Rua Projetada Doze",
        "zipcode": "55154-512"
    },
    {
        "city": "Belo Jardim",
        "state": "PE",
        "district": "Morada Nobre",
        "street": "Rua Isabel da Natividade de Leire Macêdo",
        "zipcode": "55154-520"
    },
    {
        "city": "Belo Jardim",
        "state": "PE",
        "district": "São Pedro",
        "street": "Rua Jocelyno Alves Campelo (Lot João Bezerra Filho)",
        "zipcode": "55155-100"
    },
    {
        "city": "Belo Jardim",
        "state": "PE",
        "district": "São Pedro",
        "street": "Rua Sebastião Luciano Cordeiro",
        "zipcode": "55155-425"
    },
    {
        "city": "Belo Jardim",
        "state": "PE",
        "district": "São Pedro",
        "street": "Rua Euclides de Melo Lins",
        "zipcode": "55155-440"
    },
    {
        "city": "Belo Jardim",
        "state": "PE",
        "district": "São Pedro",
        "street": "Rua João Faustino Ferreira",
        "zipcode": "55155-770"
    },
    {
        "city": "Belo Jardim",
        "state": "PE",
        "district": "Euno Andrade da Silva",
        "street": "Rua Maria Luiza da Silva Moita (Lot Jd Hélem)",
        "zipcode": "55156-160"
    },
    {
        "city": "Belo Jardim",
        "state": "PE",
        "district": "Boa Vista",
        "street": "Rua Manoel Gabriel Almeida",
        "zipcode": "55157-020"
    },
    {
        "city": "Belo Jardim",
        "state": "PE",
        "district": "Boa Vista",
        "street": "Rua Jornalista Aníbal Fernandes",
        "zipcode": "55157-060"
    },
    {
        "city": "Belo Jardim",
        "state": "PE",
        "district": "Boa Vista",
        "street": "Travessa José Cadete",
        "zipcode": "55157-231"
    },
    {
        "city": "Belo Jardim",
        "state": "PE",
        "district": "Boa Vista",
        "street": "Rua Nélson Meireles R. de Castro",
        "zipcode": "55157-270"
    },
    {
        "city": "Belo Jardim",
        "state": "PE",
        "district": "Boa Vista",
        "street": "Rua Tereza Augusta Maciel",
        "zipcode": "55157-290"
    },
    {
        "city": "Belo Jardim",
        "state": "PE",
        "district": "Boa Vista",
        "street": "Rua Rogaciano de Castro",
        "zipcode": "55157-330"
    },
    {
        "city": "Belo Jardim",
        "state": "PE",
        "district": "Boa Vista",
        "street": "Rua Pedro Campos da Silva (Lot Airton Maciel)",
        "zipcode": "55157-342"
    },
    {
        "city": "Belo Jardim",
        "state": "PE",
        "district": "Boa Vista",
        "street": "Rua José Camilo da Silva (Lot Airton Maciel)",
        "zipcode": "55157-356"
    },
    {
        "city": "Belo Jardim",
        "state": "PE",
        "district": "Boa Vista",
        "street": "Rua Francisco Sidronio de Oliveira (Lot Paulo Guerra II)",
        "zipcode": "55157-450"
    },
    {
        "city": "Belo Jardim",
        "state": "PE",
        "district": "Boa Vista",
        "street": "Rua Diomar Ramos dos Santos Alves (Lot Paulo Guerra II)",
        "zipcode": "55157-480"
    },
    {
        "city": "Belo Jardim",
        "state": "PE",
        "district": "Pontilhão",
        "street": "Rua Maria Otacilia A. Bezerra",
        "zipcode": "55157-590"
    },
    {
        "city": "Belo Jardim",
        "state": "PE",
        "district": "Floresta",
        "street": "Rua Maria Cordeiro Barbosa",
        "zipcode": "55158-020"
    },
    {
        "city": "Belo Jardim",
        "state": "PE",
        "district": "Floresta",
        "street": "Rua Antônio José Torres",
        "zipcode": "55158-033"
    },
    {
        "city": "Belo Jardim",
        "state": "PE",
        "district": "Floresta",
        "street": "Rua José Romero Costa Pereira",
        "zipcode": "55158-040"
    },
    {
        "city": "Belo Jardim",
        "state": "PE",
        "district": "Floresta",
        "street": "Travessa José Romero Costa Pereira",
        "zipcode": "55158-041"
    },
    {
        "city": "Belo Jardim",
        "state": "PE",
        "district": "Floresta",
        "street": "Rua Geminiano Joaquim",
        "zipcode": "55158-070"
    },
    {
        "city": "Belo Jardim",
        "state": "PE",
        "district": "Floresta",
        "street": "Travessa Arruda Marinho",
        "zipcode": "55158-081"
    },
    {
        "city": "Belo Jardim",
        "state": "PE",
        "district": "Floresta",
        "street": "Rua José Carlos Batista",
        "zipcode": "55158-082"
    },
    {
        "city": "Belo Jardim",
        "state": "PE",
        "district": "Floresta",
        "street": "Rua Lourival Diniz Costa (Lot Marco Aurélio Campelo)",
        "zipcode": "55158-096"
    },
    {
        "city": "Belo Jardim",
        "state": "PE",
        "district": "Floresta",
        "street": "Rua Coriolano de Souza (Lot Marco Aurélio Campelo)",
        "zipcode": "55158-098"
    },
    {
        "city": "Belo Jardim",
        "state": "PE",
        "district": "Floresta",
        "street": "Rua Aristides Luiz Pereira",
        "zipcode": "55158-100"
    },
    {
        "city": "Belo Jardim",
        "state": "PE",
        "district": "Floresta",
        "street": "Rua Pau Brasil",
        "zipcode": "55158-170"
    },
    {
        "city": "Belo Jardim",
        "state": "PE",
        "district": "Floresta",
        "street": "Rua Francisco Monteiro Senhorinho (Lot Morada do Sol)",
        "zipcode": "55158-198"
    },
    {
        "city": "Belo Jardim",
        "state": "PE",
        "district": "Floresta",
        "street": "Rua do Ipê",
        "zipcode": "55158-210"
    },
    {
        "city": "Belo Jardim",
        "state": "PE",
        "district": "Floresta",
        "street": "Rua Agenor Barbosa Maciel",
        "zipcode": "55158-230"
    },
    {
        "city": "Belo Jardim",
        "state": "PE",
        "district": "Floresta",
        "street": "Rua Olivia Alves dos Santos (Lot Marcos Leite)",
        "zipcode": "55158-232"
    },
    {
        "city": "Belo Jardim",
        "state": "PE",
        "district": "Floresta",
        "street": "Rua Aluízio Pimentel Filho",
        "zipcode": "55158-300"
    },
    {
        "city": "Belo Jardim",
        "state": "PE",
        "district": "Floresta",
        "street": "Travessa Aluízio Pimentel",
        "zipcode": "55158-301"
    },
    {
        "city": "Belo Jardim",
        "state": "PE",
        "district": "Floresta",
        "street": "Rua Antônio Clementino dos Santos (Lot Nova Floresta)",
        "zipcode": "55158-306"
    },
    {
        "city": "Belo Jardim",
        "state": "PE",
        "district": "COHAB",
        "street": "Rua Cristina Maria",
        "zipcode": "55158-365"
    },
    {
        "city": "Belo Jardim",
        "state": "PE",
        "district": "COHAB",
        "street": "Rua José Ribamar",
        "zipcode": "55158-380"
    },
    {
        "city": "Belo Jardim",
        "state": "PE",
        "district": "COHAB",
        "street": "Rua Presidente Prudente de Moraes",
        "zipcode": "55158-425"
    },
    {
        "city": "Belo Jardim",
        "state": "PE",
        "district": "COHAB",
        "street": "Rua José Monteiro Senhorinho",
        "zipcode": "55158-440"
    },
    {
        "city": "Belo Jardim",
        "state": "PE",
        "district": "COHAB",
        "street": "Rua Augusto dos Anjos",
        "zipcode": "55158-450"
    },
    {
        "city": "Belo Jardim",
        "state": "PE",
        "district": "COHAB",
        "street": "Rua Teófilo José",
        "zipcode": "55158-480"
    },
    {
        "city": "Belo Jardim",
        "state": "PE",
        "district": "COHAB",
        "street": "Rua Getúlio Vargas",
        "zipcode": "55158-490"
    },
    {
        "city": "Belo Jardim",
        "state": "PE",
        "district": "COHAB",
        "street": "Rua Chico Mendes",
        "zipcode": "55158-540"
    },
    {
        "city": "Belo Jardim",
        "state": "PE",
        "district": "COHAB",
        "street": "Rua Marechal Hermes da Fonseca",
        "zipcode": "55158-640"
    },
    {
        "city": "Belo Jardim",
        "state": "PE",
        "district": "COHAB",
        "street": "Rua Carmelita Costa de Melo",
        "zipcode": "55158-680"
    },
    {
        "city": "Belo Jardim",
        "state": "PE",
        "district": "Gameleira",
        "street": "Rua Projetada Dois",
        "zipcode": "55153-542"
    },
    {
        "city": "Belo Jardim",
        "state": "PE",
        "district": "Ayrton Maciel",
        "street": "Avenida Antônio Mendes Ribeiro",
        "zipcode": "55154-070"
    },
    {
        "city": "Belo Jardim",
        "state": "PE",
        "district": "Ayrton Maciel",
        "street": "Rua Hermínio José de Torres",
        "zipcode": "55154-125"
    },
    {
        "city": "Belo Jardim",
        "state": "PE",
        "district": "Morada Nobre",
        "street": "Rua José Orlando Ramos (Lot VI da Serra)",
        "zipcode": "55154-650"
    },
    {
        "city": "Belo Jardim",
        "state": "PE",
        "district": "Floresta",
        "street": "Travessa Joaquim Franklin Cordeiro",
        "zipcode": "55158-156"
    },
    {
        "city": "Belo Jardim",
        "state": "PE",
        "district": "Pontilhão",
        "street": "Rua Manoel Gomes do Nascimento",
        "zipcode": "55157-520"
    },
    {
        "city": "Belo Jardim",
        "state": "PE",
        "district": "COHAB",
        "street": "Rua Zé Limeira",
        "zipcode": "55158-750"
    },
    {
        "city": "Belo Jardim",
        "state": "PE",
        "district": "Pontilhão",
        "street": "Rua Tomé de Souza",
        "zipcode": "55157-560"
    },
    {
        "city": "Belo Jardim",
        "state": "PE",
        "district": "Pontilhão",
        "street": "Rua Ricardo Luzia dos Santos",
        "zipcode": "55157-525"
    },
    {
        "city": "Belo Jardim",
        "state": "PE",
        "district": "Pontilhão",
        "street": "Rua Antônio Gonçalves de Freitas",
        "zipcode": "55157-540"
    },
    {
        "city": "Belo Jardim",
        "state": "PE",
        "district": "São Pedro",
        "street": "Rua Pedro Fabrício",
        "zipcode": "55155-030"
    },
    {
        "city": "Belo Jardim",
        "state": "PE",
        "district": "São Pedro",
        "street": "Travessa José Justino de Oliveira",
        "zipcode": "55155-051"
    },
    {
        "city": "Belo Jardim",
        "state": "PE",
        "district": "São Pedro",
        "street": "Rua Nossa Senhora de Fátima",
        "zipcode": "55155-780"
    },
    {
        "city": "Belo Jardim",
        "state": "PE",
        "district": "Euno Andrade da Silva",
        "street": "Rua Lauriza Alves de Freitas (Lot Inhumas)",
        "zipcode": "55156-375"
    },
    {
        "city": "Belo Jardim",
        "state": "PE",
        "district": "Euno Andrade da Silva",
        "street": "Rua Doutor Fernando de Freitas (Lot Inhumas)",
        "zipcode": "55156-415"
    },
    {
        "city": "Belo Jardim",
        "state": "PE",
        "district": "Euno Andrade da Silva",
        "street": "Rua Ministro Oswaldo de Lima Filho (Lot Jd Helem)",
        "zipcode": "55156-555"
    },
    {
        "city": "Belo Jardim",
        "state": "PE",
        "district": "Boa Vista",
        "street": "Rua Lígia Xavier de Souza",
        "zipcode": "55157-150"
    },
    {
        "city": "Belo Jardim",
        "state": "PE",
        "district": "Boa Vista",
        "street": "Rua Sebastião Ferreira Torres Galindo (Lot Airton Maciel)",
        "zipcode": "55157-336"
    },
    {
        "city": "Belo Jardim",
        "state": "PE",
        "district": "Boa Vista",
        "street": "Rua José Evandro de Araújo Calado (Lot Airton Maciel)",
        "zipcode": "55157-346"
    },
    {
        "city": "Belo Jardim",
        "state": "PE",
        "district": "Floresta",
        "street": "Rua Francisco Muniz Arraes",
        "zipcode": "55158-110"
    },
    {
        "city": "Belo Jardim",
        "state": "PE",
        "district": "Floresta",
        "street": "Rua da Esperança",
        "zipcode": "55158-140"
    },
    {
        "city": "Belo Jardim",
        "state": "PE",
        "district": "Floresta",
        "street": "Rua Inácio Bezerra da Rocha Júnior",
        "zipcode": "55158-160"
    },
    {
        "city": "Belo Jardim",
        "state": "PE",
        "district": "COHAB",
        "street": "Rua São Sebastião",
        "zipcode": "55158-420"
    },
    {
        "city": "Belo Jardim",
        "state": "PE",
        "district": "COHAB",
        "street": "Rua Padre Cícero",
        "zipcode": "55158-600"
    },
    {
        "city": "Belo Jardim",
        "state": "PE",
        "district": "Gameleira",
        "street": "Beco São Benedito",
        "zipcode": "55153-696"
    },
    {
        "city": "Belo Jardim",
        "state": "PE",
        "district": "José Maciel",
        "street": "Rua Pedro Alves Ferreira (Lot VI Azulão I)",
        "zipcode": "55151-814"
    },
    {
        "city": "Belo Jardim",
        "state": "PE",
        "district": "Gameleira",
        "street": "Rua José Cordeiro Galvão",
        "zipcode": "55153-615"
    },
    {
        "city": "Belo Jardim",
        "state": "PE",
        "district": "Boa Vista",
        "street": "Rua Antônio Braz de Lima",
        "zipcode": "55157-430"
    },
    {
        "city": "Belo Jardim",
        "state": "PE",
        "district": "Pontilhão",
        "street": "Rua José Pereira da Silva",
        "zipcode": "55157-650"
    },
    {
        "city": "Belo Jardim",
        "state": "PE",
        "district": "COHAB",
        "street": "Rua Rogaciano Leite",
        "zipcode": "55158-350"
    },
    {
        "city": "Belo Jardim",
        "state": "PE",
        "district": "COHAB",
        "street": "Rua João Joaquim de Freitas",
        "zipcode": "55158-670"
    },
    {
        "city": "Belo Jardim",
        "state": "PE",
        "district": "COHAB",
        "street": "Rua Joaquim de Freitas",
        "zipcode": "55158-730"
    },
    {
        "city": "Belo Jardim",
        "state": "PE",
        "district": "São Pedro",
        "street": "Rua José Justino de Oliveira",
        "zipcode": "55155-050"
    },
    {
        "city": "Belo Jardim",
        "state": "PE",
        "district": "Gameleira",
        "street": "Avenida Professora Dulce Ramos (Lot Tereza Mendonça)",
        "zipcode": "55153-810"
    },
    {
        "city": "Belo Jardim",
        "state": "PE",
        "district": "Euno Andrade da Silva",
        "street": "Rua Oscar Bezerra Cavalcante (Lot Jd Hélem)",
        "zipcode": "55156-185"
    },
    {
        "city": "Belo Jardim",
        "state": "PE",
        "district": "Euno Andrade da Silva",
        "street": "Rua João de Menezes Sá (Lot Inhumas)",
        "zipcode": "55156-365"
    },
    {
        "city": "Belo Jardim",
        "state": "PE",
        "district": "Euno Andrade da Silva",
        "street": "Rua João Teixeira da Silva (Lot Inhumas)",
        "zipcode": "55156-355"
    },
    {
        "city": "Belo Jardim",
        "state": "PE",
        "district": "Euno Andrade da Silva",
        "street": "Rua Fernando Manoel dos Santos (Lot Inhumas)",
        "zipcode": "55156-325"
    },
    {
        "city": "Belo Jardim",
        "state": "PE",
        "district": "Euno Andrade da Silva",
        "street": "Rua Willes Soares Teixeira (Lot Inhumas)",
        "zipcode": "55156-295"
    },
    {
        "city": "Belo Jardim",
        "state": "PE",
        "district": "Euno Andrade da Silva",
        "street": "Rua Francisco Barbosa Maciel Filho (Lot Inhumas)",
        "zipcode": "55156-260"
    },
    {
        "city": "Belo Jardim",
        "state": "PE",
        "district": "Euno Andrade da Silva",
        "street": "Rua Ave Sebastião Lopes da Silva (Lot Jd Hélem)",
        "zipcode": "55156-215"
    },
    {
        "city": "Belo Jardim",
        "state": "PE",
        "district": "Euno Andrade da Silva",
        "street": "Rua Professora Jullyana Galvão Magalhães (Lot Inhumas)",
        "zipcode": "55156-265"
    },
    {
        "city": "Belo Jardim",
        "state": "PE",
        "district": "São Pedro",
        "street": "Rua José Maciel",
        "zipcode": "55155-670"
    },
    {
        "city": "Belo Jardim",
        "state": "PE",
        "district": "São Pedro",
        "street": "Rua Ulisses Tenório de Albuquerque",
        "zipcode": "55155-690"
    },
    {
        "city": "Belo Jardim",
        "state": "PE",
        "district": "São Pedro",
        "street": "Rua Padre Jeferson Diniz",
        "zipcode": "55155-710"
    },
    {
        "city": "Belo Jardim",
        "state": "PE",
        "district": "São Pedro",
        "street": "Rua Agamenon Rodrigues Caraciolo",
        "zipcode": "55155-720"
    },
    {
        "city": "Belo Jardim",
        "state": "PE",
        "district": "COHAB",
        "street": "Avenida Júlia Rodrigues Torres",
        "zipcode": "55158-810"
    },
    {
        "city": "Belo Jardim",
        "state": "PE",
        "district": "Santo Antônio",
        "street": "Rua São João",
        "zipcode": "55152-005"
    },
    {
        "city": "Belo Jardim",
        "state": "PE",
        "district": "Gameleira",
        "street": "Rua Maria das Dores",
        "zipcode": "55153-585"
    },
    {
        "city": "Belo Jardim",
        "state": "PE",
        "district": "COHAB",
        "street": "Travessa Duque de Caxias",
        "zipcode": "55152-586"
    },
    {
        "city": "Belo Jardim",
        "state": "PE",
        "district": "Centro",
        "street": "Rua Capitão Gaudêncio",
        "zipcode": "55150-240"
    },
    {
        "city": "Belo Jardim",
        "state": "PE",
        "district": "Edson Mororó Moura",
        "street": "Rua Erasmo Rodrigues de M. Freitas",
        "zipcode": "55150-630"
    },
    {
        "city": "Belo Jardim",
        "state": "PE",
        "district": "Edson Mororó Moura",
        "street": "Beco Antônio Rodrigues de M. Freitas",
        "zipcode": "55150-535"
    },
    {
        "city": "Belo Jardim",
        "state": "PE",
        "district": "José Maciel",
        "street": "Avenida Raimunda Agueda de Melo (Lot Portal Kennedy)",
        "zipcode": "55151-670"
    },
    {
        "city": "Belo Jardim",
        "state": "PE",
        "district": "COHAB",
        "street": "Rua José Raimundo de Castro",
        "zipcode": "55158-760"
    },
    {
        "city": "Belo Jardim",
        "state": "PE",
        "district": "Floresta",
        "street": "Rua José Admilson Pacheco",
        "zipcode": "55158-235"
    },
    {
        "city": "Belo Jardim",
        "state": "PE",
        "district": "Gameleira",
        "street": "Rua Manoel José Melo",
        "zipcode": "55153-595"
    },
    {
        "city": "Belo Jardim",
        "state": "PE",
        "district": "Bom Conselho",
        "street": "Beco do Cruzeiro",
        "zipcode": "55153-345"
    },
    {
        "city": "Belo Jardim",
        "state": "PE",
        "district": "São Pedro",
        "street": "Praça Aluízio Pimentel",
        "zipcode": "55155-830"
    },
    {
        "city": "Belo Jardim",
        "state": "PE",
        "district": "São Pedro",
        "street": "Rua Francisco Leite de Oliveira",
        "zipcode": "55155-665"
    },
    {
        "city": "Belo Jardim",
        "state": "PE",
        "district": "Santo Antônio",
        "street": "Beco Silvestre Pacheco Lins",
        "zipcode": "55152-072"
    },
    {
        "city": "Belo Jardim",
        "state": "PE",
        "district": "Boa Vista",
        "street": "Avenida Coronel Geminiano Maciel",
        "zipcode": "55157-010"
    },
    {
        "city": "Belo Jardim",
        "state": "PE",
        "district": "Floresta",
        "street": "Praça do Batalhão",
        "zipcode": "55158-055"
    },
    {
        "city": "Belo Jardim",
        "state": "PE",
        "district": "Edson Mororó Moura",
        "street": "Rua Antônio Rodrigues Medeiros de Freitas",
        "zipcode": "55150-530"
    },
    {
        "city": "Belo Jardim",
        "state": "PE",
        "district": "José Maciel",
        "street": "Rua Ana Evangelista de Souza (Lot VI Azulão II)",
        "zipcode": "55151-805"
    },
    {
        "city": "Belo Jardim",
        "state": "PE",
        "district": "Ayrton Maciel",
        "street": "Rua Armando Sobreira Filho (Lot Morada Nobre)",
        "zipcode": "55154-180"
    },
    {
        "city": "Belo Jardim",
        "state": "PE",
        "district": "Morada Nobre",
        "street": "Rua Antônio Madalena",
        "zipcode": "55154-625"
    },
    {
        "city": "Belo Jardim",
        "state": "PE",
        "district": "Euno Andrade da Silva",
        "street": "Rua Beatriz Gouveia Arruda (Lot Inhumas)",
        "zipcode": "55156-465"
    },
    {
        "city": "Belo Jardim",
        "state": "PE",
        "district": "Gameleira",
        "street": "Rua Helena Alves Cordeiro",
        "zipcode": "55153-645"
    },
    {
        "city": "Belo Jardim",
        "state": "PE",
        "district": "São Pedro",
        "street": "Rua Francisca Maria de Moura (Lot Vera Cruz)",
        "zipcode": "55155-635"
    },
    {
        "city": "Belo Jardim",
        "state": "PE",
        "district": "Euno Andrade da Silva",
        "street": "Rua Escritor Lima Barreto (Lot Heliópolis)",
        "zipcode": "55156-045"
    },
    {
        "city": "Belo Jardim",
        "state": "PE",
        "district": "José Maciel",
        "street": "Rua Maria da Soledade Pacheco Souza (Lot Novo Horizonte I)",
        "zipcode": "55151-832"
    },
    {
        "city": "Belo Jardim",
        "state": "PE",
        "district": "Euno Andrade da Silva",
        "street": "Rua Machado de Assis (Lot Heliópolis)",
        "zipcode": "55156-055"
    },
    {
        "city": "Belo Jardim",
        "state": "PE",
        "district": "Euno Andrade da Silva",
        "street": "Rua José Lopes Muniz (Lot Inhumas)",
        "zipcode": "55156-435"
    },
    {
        "city": "Belo Jardim",
        "state": "PE",
        "district": "Edson Mororó Moura",
        "street": "Rua Monteiro Lobato",
        "zipcode": "55150-500"
    },
    {
        "city": "Belo Jardim",
        "state": "PE",
        "district": "Santo Antônio",
        "street": "Travessa Cicinato Pires Raposo",
        "zipcode": "55152-121"
    },
    {
        "city": "Belo Jardim",
        "state": "PE",
        "district": "São Pedro",
        "street": "Travessa José Lopes da Silva",
        "zipcode": "55155-591"
    },
    {
        "city": "Belo Jardim",
        "state": "PE",
        "district": "Gameleira",
        "street": "Rua Sebastião Luciano Cordeiro (Lot Tereza Mendonça)",
        "zipcode": "55153-818"
    },
    {
        "city": "Belo Jardim",
        "state": "PE",
        "district": "Euno Andrade da Silva",
        "street": "Rua Josefa Ferreira de Barros da Silva (Lot VianaeMoura Inhumas)",
        "zipcode": "55156-505"
    },
    {
        "city": "Belo Jardim",
        "state": "PE",
        "district": "Floresta",
        "street": "Rua Adilson Barnabé Gomes (Lot Kaun Kennedy)",
        "zipcode": "55158-192"
    },
    {
        "city": "Belo Jardim",
        "state": "PE",
        "district": "COHAB",
        "street": "Rua José Augusto Maciel",
        "zipcode": "55158-330"
    },
    {
        "city": "Belo Jardim",
        "state": "PE",
        "district": "Boa Vista",
        "street": "Rua Everaldo José Bezerra Torres (Lot Airton Maciel)",
        "zipcode": "55157-348"
    },
    {
        "city": "Belo Jardim",
        "state": "PE",
        "district": "José Maciel",
        "street": "Rua Alzira Fernandes de Oliveira (Lot VI Azulão I)",
        "zipcode": "55151-816"
    }
]