[
    {
        "city": "Bezerros",
        "state": "PE",
        "district": "Centro",
        "street": "Rua Martins Júnior 28",
        "zipcode": "55660-970"
    },
    {
        "city": "Bezerros",
        "state": "PE",
        "district": "",
        "street": "",
        "zipcode": "55660-000"
    },
    {
        "city": "Bezerros",
        "state": "PE",
        "district": "Centro",
        "street": "Praça Duque de Caxias 6 1º 1",
        "zipcode": "55660-974"
    },
    {
        "city": "Bezerros",
        "state": "PE",
        "district": null,
        "street": "Rua da Conceição",
        "zipcode": "55662-990"
    },
    {
        "city": "Bezerros",
        "state": "PE",
        "district": null,
        "street": "Rua José do Patrocínio",
        "zipcode": "55661-990"
    },
    {
        "city": "Bezerros",
        "state": "PE",
        "district": "Povoado Encruzilhada de São João",
        "street": "Rua Antonio M. Castanha s/n",
        "zipcode": "55660-975"
    },
    {
        "city": "Bezerros",
        "state": "PE",
        "district": null,
        "street": "Rua do Comércio",
        "zipcode": "55660-991"
    },
    {
        "city": "Bezerros",
        "state": "PE",
        "district": null,
        "street": "Rua Antônio M. Castanho",
        "zipcode": "55660-990"
    },
    {
        "city": "Bezerros",
        "state": "PE",
        "district": "Sítio dos Remédios",
        "street": "Rua Rui Barbosa s/n",
        "zipcode": "55660-977"
    },
    {
        "city": "Bezerros",
        "state": "PE",
        "district": "Povoado de Cajazeiras",
        "street": "Rua do Comércio s/n",
        "zipcode": "55660-971"
    },
    {
        "city": "Bezerros",
        "state": "PE",
        "district": null,
        "street": "Rua João Francisco da Silva",
        "zipcode": "55660-992"
    },
    {
        "city": "Bezerros",
        "state": "PE",
        "district": null,
        "street": "Rua Rui Barbosa",
        "zipcode": "55660-993"
    },
    {
        "city": "Bezerros",
        "state": "PE",
        "district": "Povoado de Areias",
        "street": "Rua do Comércio s/n",
        "zipcode": "55660-976"
    },
    {
        "city": "Bezerros",
        "state": "PE",
        "district": "Povoado Vila Serra Negra",
        "street": "Rua João Francisco da Silva s/n",
        "zipcode": "55660-972"
    },
    {
        "city": "Bezerros",
        "state": "PE",
        "district": "Distrito Sapucarana",
        "street": "Rua José do Patrocinio s/n",
        "zipcode": "55662-972"
    },
    {
        "city": "Bezerros",
        "state": "PE",
        "district": "Boas Novas",
        "street": "Rua da Conceição s/n",
        "zipcode": "55662-970"
    }
]