[
    {
        "city": "Carpina",
        "state": "PE",
        "district": "São Sebastião",
        "street": "2ª Travessa Dantas Barreto",
        "zipcode": "55818-502"
    },
    {
        "city": "Carpina",
        "state": "PE",
        "district": "São Sebastião",
        "street": "2ª Travessa Santos Dumont",
        "zipcode": "55818-512"
    },
    {
        "city": "Carpina",
        "state": "PE",
        "district": "São Sebastião",
        "street": "Rua Herculano Bandeira",
        "zipcode": "55818-595"
    },
    {
        "city": "Carpina",
        "state": "PE",
        "district": "Santo Antonio",
        "street": "Rua Marcílio Dias",
        "zipcode": "55814-350"
    },
    {
        "city": "Carpina",
        "state": "PE",
        "district": "São Sebastião",
        "street": "Rua Tertuliano Augusto Santiago",
        "zipcode": "55818-555"
    },
    {
        "city": "Carpina",
        "state": "PE",
        "district": "São Sebastião",
        "street": "Travessa Dantas Barreto",
        "zipcode": "55818-501"
    },
    {
        "city": "Carpina",
        "state": "PE",
        "district": "Caja",
        "street": "Rua Santo Amaro",
        "zipcode": "55813-375"
    },
    {
        "city": "Carpina",
        "state": "PE",
        "district": "Bairro Novo",
        "street": "Travessa José Sales de Lima",
        "zipcode": "55819-751"
    },
    {
        "city": "Carpina",
        "state": "PE",
        "district": "São José",
        "street": "Rua Francisco Bezerra da Silva (Lot Casa Nova)",
        "zipcode": "55815-205"
    },
    {
        "city": "Carpina",
        "state": "PE",
        "district": "Senzala",
        "street": "Rua Dr Barbosa Lima",
        "zipcode": "55813-200"
    },
    {
        "city": "Carpina",
        "state": "PE",
        "district": "Cajá",
        "street": "Rua José Manoel da Silva",
        "zipcode": "55813-325"
    },
    {
        "city": "Carpina",
        "state": "PE",
        "district": "São José",
        "street": "Rua Alexandre Ribeiro Maciel (Lot São João)",
        "zipcode": "55815-085"
    },
    {
        "city": "Carpina",
        "state": "PE",
        "district": "Santo Antônio",
        "street": "Rua Nove (Alamêda das Casuarinas)",
        "zipcode": "55816-226"
    },
    {
        "city": "Carpina",
        "state": "PE",
        "district": "Santo Antonio",
        "street": "Rua Matilde Severina Pereira (Lot N Sr Aparecida)",
        "zipcode": "55816-735"
    },
    {
        "city": "Carpina",
        "state": "PE",
        "district": "Cajá",
        "street": "Rua Joaquim Gomes de Melo (5ª Etapa do Lot Cajá)",
        "zipcode": "55813-210"
    },
    {
        "city": "Carpina",
        "state": "PE",
        "district": "Senzala",
        "street": "Rua João Cézar Ferreira (Lot Carneiro Leão)",
        "zipcode": "55818-040"
    },
    {
        "city": "Carpina",
        "state": "PE",
        "district": "Bairro Novo",
        "street": "7A Tv Sizenando Carneiro Leao",
        "zipcode": "55819-227"
    },
    {
        "city": "Carpina",
        "state": "PE",
        "district": "Cajá",
        "street": "Travessa Carlos Henrique L Souza (5ª Etapa do Lot Cajá)",
        "zipcode": "55813-306"
    },
    {
        "city": "Carpina",
        "state": "PE",
        "district": "Bairro Novo",
        "street": "Rua Projetada Vinte e Dois (Lot Jd Néopolis)",
        "zipcode": "55819-055"
    },
    {
        "city": "Carpina",
        "state": "PE",
        "district": "Cajá",
        "street": "3ª Travessa Sergiorlando Santa Cruz (5ª Etapa do Lot Cajá)",
        "zipcode": "55813-308"
    },
    {
        "city": "Carpina",
        "state": "PE",
        "district": "Cajá",
        "street": "Rua José Natal Souto Maior (5ª Etapa do Lot Cajá)",
        "zipcode": "55813-280"
    },
    {
        "city": "Carpina",
        "state": "PE",
        "district": "Senzala",
        "street": "Rua Rui Freire (Lot Carneiro Leão)",
        "zipcode": "55818-030"
    },
    {
        "city": "Carpina",
        "state": "PE",
        "district": "Bairro Novo",
        "street": "1ª Travessa José Arnoz da Silva",
        "zipcode": "55819-662"
    },
    {
        "city": "Carpina",
        "state": "PE",
        "district": "São José",
        "street": "Rua Eugênio Manoel dos Santos",
        "zipcode": "55817-195"
    },
    {
        "city": "Carpina",
        "state": "PE",
        "district": "São José",
        "street": "Rua do Jambo",
        "zipcode": "55815-350"
    },
    {
        "city": "Carpina",
        "state": "PE",
        "district": "Senzala",
        "street": "Rua Deputado Alcides Teixeira",
        "zipcode": "55818-150"
    },
    {
        "city": "Carpina",
        "state": "PE",
        "district": "Madre Rosa",
        "street": "Rua Filhas de Santana",
        "zipcode": "55817-720"
    },
    {
        "city": "Carpina",
        "state": "PE",
        "district": "Santo Antônio",
        "street": "Rua João Antonio Tavares (Lot.Teto do Povo)",
        "zipcode": "55816-355"
    },
    {
        "city": "Carpina",
        "state": "PE",
        "district": "Santa Cruz",
        "street": "Rua Odenita Bezerra do Carmo Cavalcanti (Lot Severino Bione)",
        "zipcode": "55811-240"
    },
    {
        "city": "Carpina",
        "state": "PE",
        "district": "Santo Antônio",
        "street": "Rua Dez (Alamêda das Casuarinas)",
        "zipcode": "55816-228"
    },
    {
        "city": "Carpina",
        "state": "PE",
        "district": "Bairro Novo",
        "street": "Travessa Ministro Marcos Freire (Jd Neopólis)",
        "zipcode": "55819-741"
    },
    {
        "city": "Carpina",
        "state": "PE",
        "district": "Santo Antonio",
        "street": "Rua Nove (Cohab lI)",
        "zipcode": "55814-265"
    },
    {
        "city": "Carpina",
        "state": "PE",
        "district": "Senzala",
        "street": "Rua Severino Barbosa da Silva",
        "zipcode": "55818-305"
    },
    {
        "city": "Carpina",
        "state": "PE",
        "district": "São José",
        "street": "Rua Antônio José dos Santos (Lot. Senhor do Bomfim)",
        "zipcode": "55815-067"
    },
    {
        "city": "Carpina",
        "state": "PE",
        "district": "Santo Antônio",
        "street": "Rua Almerinda Maria do Nascimento (Lot N Sra Aparecida)",
        "zipcode": "55816-750"
    },
    {
        "city": "Carpina",
        "state": "PE",
        "district": "São José",
        "street": "Rua Tenente Rubens Quirino de Souza (Lot. Senhor do Bomfim)",
        "zipcode": "55815-075"
    },
    {
        "city": "Carpina",
        "state": "PE",
        "district": "Cajá",
        "street": "Rua Elza Maria de Melo França (5ª Etapa do Lot Cajá)",
        "zipcode": "55813-220"
    },
    {
        "city": "Carpina",
        "state": "PE",
        "district": "Senzala",
        "street": "Rua José Bernardino de Santana",
        "zipcode": "55818-390"
    },
    {
        "city": "Carpina",
        "state": "PE",
        "district": "Cajá",
        "street": "Rua Samuel Severino de Moura",
        "zipcode": "55813-595"
    },
    {
        "city": "Carpina",
        "state": "PE",
        "district": "Cajá",
        "street": "Rua Manoel Dias de Lima",
        "zipcode": "55813-600"
    },
    {
        "city": "Carpina",
        "state": "PE",
        "district": "São José",
        "street": "Rua João Ribeiro de Lima",
        "zipcode": "55815-370"
    },
    {
        "city": "Carpina",
        "state": "PE",
        "district": "Bairro Novo",
        "street": "Rua Espírito Santo",
        "zipcode": "55819-355"
    },
    {
        "city": "Carpina",
        "state": "PE",
        "district": "Bairro Novo",
        "street": "Rua Espírito Santo (Lot Virgínia Correia)",
        "zipcode": "55819-085"
    },
    {
        "city": "Carpina",
        "state": "PE",
        "district": "Madre Rosa",
        "street": "Rua José Barbosa de Oliveira",
        "zipcode": "55817-680"
    },
    {
        "city": "Carpina",
        "state": "PE",
        "district": "Cajá",
        "street": "Rua Alberto Freire",
        "zipcode": "55813-450"
    },
    {
        "city": "Carpina",
        "state": "PE",
        "district": "Cajá",
        "street": "Rua Antônio Bione",
        "zipcode": "55813-490"
    },
    {
        "city": "Carpina",
        "state": "PE",
        "district": "Bairro Novo",
        "street": "Rodovia BR",
        "zipcode": "55819-320"
    },
    {
        "city": "Carpina",
        "state": "PE",
        "district": "Cajá",
        "street": "Avenida Capitão Oswaldo Freire",
        "zipcode": "55813-550"
    },
    {
        "city": "Carpina",
        "state": "PE",
        "district": "Cajá",
        "street": "Rua Josefa Bione",
        "zipcode": "55813-530"
    },
    {
        "city": "Carpina",
        "state": "PE",
        "district": "Cajá",
        "street": "Rua Josefa Ferreira de Melo",
        "zipcode": "55813-500"
    },
    {
        "city": "Carpina",
        "state": "PE",
        "district": "Cajá",
        "street": "Rua Martinho Francisco",
        "zipcode": "55813-451"
    },
    {
        "city": "Carpina",
        "state": "PE",
        "district": "São José",
        "street": "Rua Pau Brasil",
        "zipcode": "55817-050"
    },
    {
        "city": "Carpina",
        "state": "PE",
        "district": "São José",
        "street": "Praça São José",
        "zipcode": "55815-040"
    },
    {
        "city": "Carpina",
        "state": "PE",
        "district": "São José",
        "street": "Avenida Agamenon Magalhães",
        "zipcode": "55815-060"
    },
    {
        "city": "Carpina",
        "state": "PE",
        "district": "São José",
        "street": "Rua Nova Descoberta",
        "zipcode": "55815-070"
    },
    {
        "city": "Carpina",
        "state": "PE",
        "district": "Santa Cruz",
        "street": "Rua José Moisés Vieira da Silva (Lot Santana)",
        "zipcode": "55811-130"
    },
    {
        "city": "Carpina",
        "state": "PE",
        "district": "Santa Cruz",
        "street": "Rua Marcos Antonio da Mota (Lot Santana)",
        "zipcode": "55811-110"
    },
    {
        "city": "Carpina",
        "state": "PE",
        "district": "Santo Antonio",
        "street": "Travessa J (Cohab I)",
        "zipcode": "55814-221"
    },
    {
        "city": "Carpina",
        "state": "PE",
        "district": "Santo Antonio",
        "street": "Travessa I (Cohab I)",
        "zipcode": "55814-211"
    },
    {
        "city": "Carpina",
        "state": "PE",
        "district": "Santa Cruz",
        "street": "Rua Edvaldo Ferreira Barros",
        "zipcode": "55811-060"
    },
    {
        "city": "Carpina",
        "state": "PE",
        "district": "Cajá",
        "street": "Rua Iolanda Maria de Lima",
        "zipcode": "55813-310"
    },
    {
        "city": "Carpina",
        "state": "PE",
        "district": "Cajá",
        "street": "Rua Regina Célia Ramos da Costa",
        "zipcode": "55813-240"
    },
    {
        "city": "Carpina",
        "state": "PE",
        "district": "Cajá",
        "street": "Rua Jaime José Borba",
        "zipcode": "55813-165"
    },
    {
        "city": "Carpina",
        "state": "PE",
        "district": "Santa Cruz",
        "street": "Rua Dom Lustosa",
        "zipcode": "55811-145"
    },
    {
        "city": "Carpina",
        "state": "PE",
        "district": "Santo Antonio",
        "street": "Rua João Coelho Muniz",
        "zipcode": "55814-400"
    },
    {
        "city": "Carpina",
        "state": "PE",
        "district": "Santo Antonio",
        "street": "Rua Josefa Maria da Conceição",
        "zipcode": "55814-405"
    },
    {
        "city": "Carpina",
        "state": "PE",
        "district": "Santo Antonio",
        "street": "Rua Dois (Cohab I)",
        "zipcode": "55814-233"
    },
    {
        "city": "Carpina",
        "state": "PE",
        "district": "Santo Antonio",
        "street": "Rua Seis (Cohab I)",
        "zipcode": "55814-255"
    },
    {
        "city": "Carpina",
        "state": "PE",
        "district": "Santa Cruz",
        "street": "Travessa Santa Cruz",
        "zipcode": "55811-011"
    },
    {
        "city": "Carpina",
        "state": "PE",
        "district": "Cajá",
        "street": "Rua Agostinho Bezerra",
        "zipcode": "55813-350"
    },
    {
        "city": "Carpina",
        "state": "PE",
        "district": "Santo Antonio",
        "street": "Rua Aldo Moro (Cohab I)",
        "zipcode": "55814-250"
    },
    {
        "city": "Carpina",
        "state": "PE",
        "district": "Cajá",
        "street": "Rua Antônio Bezerra de Araújo",
        "zipcode": "55813-340"
    },
    {
        "city": "Carpina",
        "state": "PE",
        "district": "Santo Antonio",
        "street": "Rua B (Cohab I)",
        "zipcode": "55814-060"
    },
    {
        "city": "Carpina",
        "state": "PE",
        "district": "Santo Antonio",
        "street": "Rua Baependi",
        "zipcode": "55814-660"
    },
    {
        "city": "Carpina",
        "state": "PE",
        "district": "Santa Cruz",
        "street": "Avenida Conselheiro João Alfredo",
        "zipcode": "55811-030"
    },
    {
        "city": "Carpina",
        "state": "PE",
        "district": "Cajá",
        "street": "1ª Travessa Doutor Gonçalves Guerra",
        "zipcode": "55813-391"
    },
    {
        "city": "Carpina",
        "state": "PE",
        "district": "São José",
        "street": "Avenida Estácio Coimbra",
        "zipcode": "55815-000"
    },
    {
        "city": "Carpina",
        "state": "PE",
        "district": "Santo Antonio",
        "street": "Rua F (Cohab I)",
        "zipcode": "55814-170"
    },
    {
        "city": "Carpina",
        "state": "PE",
        "district": "São José",
        "street": "Rua Frei Caneca",
        "zipcode": "55815-010"
    },
    {
        "city": "Carpina",
        "state": "PE",
        "district": "Cajá",
        "street": "Rua Gercina Carneiro",
        "zipcode": "55813-410"
    },
    {
        "city": "Carpina",
        "state": "PE",
        "district": "Santo Antonio",
        "street": "Rua H (Cohab I)",
        "zipcode": "55814-200"
    },
    {
        "city": "Carpina",
        "state": "PE",
        "district": "São Sebastião",
        "street": "Rua Pio X",
        "zipcode": "55818-540"
    },
    {
        "city": "Carpina",
        "state": "PE",
        "district": "Cajá",
        "street": "4ª Travessa Neném Mara",
        "zipcode": "55813-419"
    },
    {
        "city": "Carpina",
        "state": "PE",
        "district": "Cajá",
        "street": "Rua Manoel Ferreira da Silva (5ª Etapa do Lot Cajá)",
        "zipcode": "55813-290"
    },
    {
        "city": "Carpina",
        "state": "PE",
        "district": "São José",
        "street": "Rua Ayrton Senna do Brasil (Lot Santana)",
        "zipcode": "55817-310"
    },
    {
        "city": "Carpina",
        "state": "PE",
        "district": "Cajá",
        "street": "Rua João Jovino Pereira da Silva",
        "zipcode": "55813-425"
    },
    {
        "city": "Carpina",
        "state": "PE",
        "district": "Cajá",
        "street": "Rua Leôncio Ribeiro da Silva (5ª Etapa do Lot Cajá)",
        "zipcode": "55813-300"
    },
    {
        "city": "Carpina",
        "state": "PE",
        "district": "Cajá",
        "street": "Rua Joaquim José Mara",
        "zipcode": "55813-421"
    },
    {
        "city": "Carpina",
        "state": "PE",
        "district": "Cajá",
        "street": "3ª Travessa Neném Mara",
        "zipcode": "55813-418"
    },
    {
        "city": "Carpina",
        "state": "PE",
        "district": "Senzala",
        "street": "Rua do Curtume",
        "zipcode": "55818-090"
    },
    {
        "city": "Carpina",
        "state": "PE",
        "district": "Cajá",
        "street": "Rua Jardim Santo Amaro",
        "zipcode": "55813-480"
    },
    {
        "city": "Carpina",
        "state": "PE",
        "district": "Santa Terezinha",
        "street": "Rua Tupi",
        "zipcode": "55812-120"
    },
    {
        "city": "Carpina",
        "state": "PE",
        "district": "Santo Antonio",
        "street": "Rua I (Cohab I)",
        "zipcode": "55814-210"
    },
    {
        "city": "Carpina",
        "state": "PE",
        "district": "Cajá",
        "street": "Rua Joaquim Francisco",
        "zipcode": "55813-370"
    },
    {
        "city": "Carpina",
        "state": "PE",
        "district": "Cajá",
        "street": "Rua Rita Rodrigues de Lima",
        "zipcode": "55813-334"
    },
    {
        "city": "Carpina",
        "state": "PE",
        "district": "São José",
        "street": "Beco da Caixa DÁgua",
        "zipcode": "55815-050"
    },
    {
        "city": "Carpina",
        "state": "PE",
        "district": "Santa Cruz",
        "street": "Rua Renê Soares Filho (Lot Santana)",
        "zipcode": "55811-200"
    },
    {
        "city": "Carpina",
        "state": "PE",
        "district": "São José",
        "street": "Acampamento A",
        "zipcode": "55815-170"
    },
    {
        "city": "Carpina",
        "state": "PE",
        "district": "Cajá",
        "street": "Rua José Dioclecio de Melo (5ª Etapa do Lot Cajá)",
        "zipcode": "55813-230"
    },
    {
        "city": "Carpina",
        "state": "PE",
        "district": "Cajá",
        "street": "Rua Maria de Lourdes Souza Cordeiro (5ª Etapa do Lot Cajá)",
        "zipcode": "55813-320"
    },
    {
        "city": "Carpina",
        "state": "PE",
        "district": "Santo Antonio",
        "street": "Avenida Joaquim Pinto Lapa",
        "zipcode": "55814-600"
    },
    {
        "city": "Carpina",
        "state": "PE",
        "district": "Santo Antonio",
        "street": "Rua L (Cohab I)",
        "zipcode": "55814-090"
    },
    {
        "city": "Carpina",
        "state": "PE",
        "district": "Santo Antonio",
        "street": "1ª Travessa Mendes Martins",
        "zipcode": "55814-291"
    },
    {
        "city": "Carpina",
        "state": "PE",
        "district": "Santo Antonio",
        "street": "Rua P (Cohab I)",
        "zipcode": "55814-100"
    },
    {
        "city": "Carpina",
        "state": "PE",
        "district": "Santo Antonio",
        "street": "Rodovia PE",
        "zipcode": "55814-280"
    },
    {
        "city": "Carpina",
        "state": "PE",
        "district": "Cajá",
        "street": "Rua Presidente Castelo Branco",
        "zipcode": "55813-400"
    },
    {
        "city": "Carpina",
        "state": "PE",
        "district": "Cajá",
        "street": "Avenida Rádio Clube de Pernambuco",
        "zipcode": "55813-380"
    },
    {
        "city": "Carpina",
        "state": "PE",
        "district": "Santa Cruz",
        "street": "Rua Sizenando Carneiro Leão",
        "zipcode": "55811-120"
    },
    {
        "city": "Carpina",
        "state": "PE",
        "district": "Santo Antonio",
        "street": "Rua T (Cohab I)",
        "zipcode": "55814-140"
    },
    {
        "city": "Carpina",
        "state": "PE",
        "district": "Santo Antonio",
        "street": "Rua V (Cohab I)",
        "zipcode": "55814-160"
    },
    {
        "city": "Carpina",
        "state": "PE",
        "district": "Santo Antonio",
        "street": "Rua S (Cohab I)",
        "zipcode": "55814-130"
    },
    {
        "city": "Carpina",
        "state": "PE",
        "district": "Santa Cruz",
        "street": "Rua Arthur Salgado de Vasconcelos",
        "zipcode": "55811-190"
    },
    {
        "city": "Carpina",
        "state": "PE",
        "district": "Santo Antonio",
        "street": "Rua Cinco (Cohab I)",
        "zipcode": "55814-240"
    },
    {
        "city": "Carpina",
        "state": "PE",
        "district": "Santo Antonio",
        "street": "1ª Travessa Vinte e Um de Abril",
        "zipcode": "55814-672"
    },
    {
        "city": "Carpina",
        "state": "PE",
        "district": "Santo Antonio",
        "street": "Rua D (Cohab I)",
        "zipcode": "55814-080"
    },
    {
        "city": "Carpina",
        "state": "PE",
        "district": "Santo Antônio",
        "street": "Rua A (Cohab l)",
        "zipcode": "55816-295"
    },
    {
        "city": "Carpina",
        "state": "PE",
        "district": "São José",
        "street": "3ª Travessa Presidente Getúlio Vargas",
        "zipcode": "55815-113"
    },
    {
        "city": "Carpina",
        "state": "PE",
        "district": "Cajá",
        "street": "Rua João Ferreira da Silva",
        "zipcode": "55813-145"
    },
    {
        "city": "Carpina",
        "state": "PE",
        "district": "São José",
        "street": "Rua Dom Lustosa",
        "zipcode": "55815-135"
    },
    {
        "city": "Carpina",
        "state": "PE",
        "district": "Madre Rosa",
        "street": "Rua Antônio Benício Barbosa",
        "zipcode": "55817-690"
    },
    {
        "city": "Carpina",
        "state": "PE",
        "district": "Santo Antonio",
        "street": "Rua Manoel Marques da Silva",
        "zipcode": "55814-415"
    },
    {
        "city": "Carpina",
        "state": "PE",
        "district": "Santo Antônio",
        "street": "Rua Seis (Alamêda das Casuarinas)",
        "zipcode": "55816-220"
    },
    {
        "city": "Carpina",
        "state": "PE",
        "district": "Santo Antônio",
        "street": "Rua Doze (Alamêda das Casuarinas)",
        "zipcode": "55816-232"
    },
    {
        "city": "Carpina",
        "state": "PE",
        "district": "São José",
        "street": "Rua Lourival da Silva Bastos",
        "zipcode": "55815-290"
    },
    {
        "city": "Carpina",
        "state": "PE",
        "district": "São José",
        "street": "Rua do Pau D Arco",
        "zipcode": "55815-330"
    },
    {
        "city": "Carpina",
        "state": "PE",
        "district": "São José",
        "street": "Rua das Laranjeiras",
        "zipcode": "55815-340"
    },
    {
        "city": "Carpina",
        "state": "PE",
        "district": "Santa Terezinha",
        "street": "Avenida das Jaqueiras",
        "zipcode": "55812-090"
    },
    {
        "city": "Carpina",
        "state": "PE",
        "district": "Santo Antônio",
        "street": "Rua Alberes Coutinho do Rego",
        "zipcode": "55816-300"
    },
    {
        "city": "Carpina",
        "state": "PE",
        "district": "Santo Antônio",
        "street": "Rua Antônio Bezerra de Menezes",
        "zipcode": "55816-360"
    },
    {
        "city": "Carpina",
        "state": "PE",
        "district": "Santo Antonio",
        "street": "Rua Benedita Borges da Silva (Cohab I)",
        "zipcode": "55814-000"
    },
    {
        "city": "Carpina",
        "state": "PE",
        "district": "São José",
        "street": "Rua Deoclécio Coutinho",
        "zipcode": "55815-410"
    },
    {
        "city": "Carpina",
        "state": "PE",
        "district": "Cajá",
        "street": "Rua Doutor Freire Filho",
        "zipcode": "55813-630"
    },
    {
        "city": "Carpina",
        "state": "PE",
        "district": "Santo Antônio",
        "street": "Rua Ernesto Pompílio",
        "zipcode": "55816-430"
    },
    {
        "city": "Carpina",
        "state": "PE",
        "district": "Senzala",
        "street": "Avenida Estácio Coimbra",
        "zipcode": "55818-000"
    },
    {
        "city": "Carpina",
        "state": "PE",
        "district": "Santo Antônio",
        "street": "Rua Fagundes Varela",
        "zipcode": "55816-330"
    },
    {
        "city": "Carpina",
        "state": "PE",
        "district": "Santo Antônio",
        "street": "Avenida Francisco Viana",
        "zipcode": "55816-270"
    },
    {
        "city": "Carpina",
        "state": "PE",
        "district": "Santo Antônio",
        "street": "3ª Travessa Francisco Viana",
        "zipcode": "55816-273"
    },
    {
        "city": "Carpina",
        "state": "PE",
        "district": "Santo Antônio",
        "street": "Rua Frei Caneca",
        "zipcode": "55816-400"
    },
    {
        "city": "Carpina",
        "state": "PE",
        "district": "Santo Antônio",
        "street": "Rua Humberto de Campos",
        "zipcode": "55816-320"
    },
    {
        "city": "Carpina",
        "state": "PE",
        "district": "Santa Terezinha",
        "street": "Rua Isabel Teobaldo Pereira",
        "zipcode": "55812-060"
    },
    {
        "city": "Carpina",
        "state": "PE",
        "district": "Santo Antônio",
        "street": "Rua Joaquim Gonçalves Guerra",
        "zipcode": "55816-470"
    },
    {
        "city": "Carpina",
        "state": "PE",
        "district": "Centro",
        "street": "Praça Joaquim Nabuco",
        "zipcode": "55813-810"
    },
    {
        "city": "Carpina",
        "state": "PE",
        "district": "Santa Cruz",
        "street": "Rua Presidente Getúlio Vargas",
        "zipcode": "55811-020"
    },
    {
        "city": "Carpina",
        "state": "PE",
        "district": "Santa Cruz",
        "street": "Rua Poeta José Edson Gomes da Silva",
        "zipcode": "55811-055"
    },
    {
        "city": "Carpina",
        "state": "PE",
        "district": "Santa Terezinha",
        "street": "Rua Oraci",
        "zipcode": "55812-110"
    },
    {
        "city": "Carpina",
        "state": "PE",
        "district": "Santa Terezinha",
        "street": "Rua Guaraci",
        "zipcode": "55812-130"
    },
    {
        "city": "Carpina",
        "state": "PE",
        "district": "Santo Antonio",
        "street": "Rua Oito (Cohab llI)",
        "zipcode": "55814-263"
    },
    {
        "city": "Carpina",
        "state": "PE",
        "district": "Santa Cruz",
        "street": "Rua Stênio Márcio Lemos de Almeida",
        "zipcode": "55811-090"
    },
    {
        "city": "Carpina",
        "state": "PE",
        "district": "Cajá",
        "street": "Rua José Azevedo Guerra",
        "zipcode": "55813-620"
    },
    {
        "city": "Carpina",
        "state": "PE",
        "district": "Santo Antônio",
        "street": "Rua José do Patrocínio",
        "zipcode": "55816-340"
    },
    {
        "city": "Carpina",
        "state": "PE",
        "district": "Cajá",
        "street": "Rua José Jaime Borba",
        "zipcode": "55813-610"
    },
    {
        "city": "Carpina",
        "state": "PE",
        "district": "Santo Antonio",
        "street": "Rua M (Cohab I)",
        "zipcode": "55814-030"
    },
    {
        "city": "Carpina",
        "state": "PE",
        "district": "Santa Terezinha",
        "street": "Rua Pedro de Albuquerque e Silva",
        "zipcode": "55812-140"
    },
    {
        "city": "Carpina",
        "state": "PE",
        "district": "Cajá",
        "street": "Rua Gerinaldo Barbosa de Souza",
        "zipcode": "55813-175"
    },
    {
        "city": "Carpina",
        "state": "PE",
        "district": "Cajá",
        "street": "Rua Maria José Cordeiro",
        "zipcode": "55813-405"
    },
    {
        "city": "Carpina",
        "state": "PE",
        "district": "Santo Antonio",
        "street": "Rua Antônio Francisco de Almeida",
        "zipcode": "55814-425"
    },
    {
        "city": "Carpina",
        "state": "PE",
        "district": "Santo Antônio",
        "street": "Travessa Manoel Pereira de Morais",
        "zipcode": "55816-391"
    },
    {
        "city": "Carpina",
        "state": "PE",
        "district": "São José",
        "street": "Rua das Palmeiras",
        "zipcode": "55817-040"
    },
    {
        "city": "Carpina",
        "state": "PE",
        "district": "Santo Antônio",
        "street": "Rua Manoel Pereira de Morais",
        "zipcode": "55816-390"
    },
    {
        "city": "Carpina",
        "state": "PE",
        "district": "Senzala",
        "street": "Rua Marechal Tito",
        "zipcode": "55818-170"
    },
    {
        "city": "Carpina",
        "state": "PE",
        "district": "Senzala",
        "street": "Rua Martins Júnior",
        "zipcode": "55818-010"
    },
    {
        "city": "Carpina",
        "state": "PE",
        "district": "Santo Antônio",
        "street": "Rua Martins Júnior",
        "zipcode": "55816-420"
    },
    {
        "city": "Carpina",
        "state": "PE",
        "district": "Centro",
        "street": "Avenida Murilo Silva",
        "zipcode": "55813-820"
    },
    {
        "city": "Carpina",
        "state": "PE",
        "district": "São José",
        "street": "Rua Nunes Machado",
        "zipcode": "55815-180"
    },
    {
        "city": "Carpina",
        "state": "PE",
        "district": "Cajá",
        "street": "Rua Dom Rinaldi",
        "zipcode": "55813-645"
    },
    {
        "city": "Carpina",
        "state": "PE",
        "district": "Santa Terezinha",
        "street": "Rua Presidente Eurico Gaspar Dutra",
        "zipcode": "55812-040"
    },
    {
        "city": "Carpina",
        "state": "PE",
        "district": "Bairro Novo",
        "street": "10ª Travessa Sizenando Carneiro Leão",
        "zipcode": "55819-219"
    },
    {
        "city": "Carpina",
        "state": "PE",
        "district": "São José",
        "street": "Rua Vidal de Negreiros",
        "zipcode": "55815-420"
    },
    {
        "city": "Carpina",
        "state": "PE",
        "district": "Santo Antônio",
        "street": "2ª Travessa Francisco Viana",
        "zipcode": "55816-272"
    },
    {
        "city": "Carpina",
        "state": "PE",
        "district": "São José",
        "street": "Rua João Severino do Nascimento",
        "zipcode": "55815-380"
    },
    {
        "city": "Carpina",
        "state": "PE",
        "district": "Bairro Novo",
        "street": "Rua Eunice Silva Guerra (Jd Neópolis)",
        "zipcode": "55819-080"
    },
    {
        "city": "Carpina",
        "state": "PE",
        "district": "Bairro Novo",
        "street": "Rua David José da Silva (Jd Neópolis)",
        "zipcode": "55819-070"
    },
    {
        "city": "Carpina",
        "state": "PE",
        "district": "Bairro Novo",
        "street": "Rua Enfermeiro Antonio Vicente Firmino (Jd Neópolis)",
        "zipcode": "55819-050"
    },
    {
        "city": "Carpina",
        "state": "PE",
        "district": "Bairro Novo",
        "street": "Rua Pastor Salustiano Severino de Oliveira (Jd Neópolis)",
        "zipcode": "55819-040"
    },
    {
        "city": "Carpina",
        "state": "PE",
        "district": "Bairro Novo",
        "street": "Rua Ismael Ribeiro de Oliveira (Jd Neópolis)",
        "zipcode": "55819-030"
    },
    {
        "city": "Carpina",
        "state": "PE",
        "district": "São José",
        "street": "Rua Lia Mara",
        "zipcode": "55817-230"
    },
    {
        "city": "Carpina",
        "state": "PE",
        "district": "São José",
        "street": "Rua Boa Esperança",
        "zipcode": "55817-240"
    },
    {
        "city": "Carpina",
        "state": "PE",
        "district": "Bairro Novo",
        "street": "Rua Leda Rosa Dias Alves (Jd Neópolis)",
        "zipcode": "55819-130"
    },
    {
        "city": "Carpina",
        "state": "PE",
        "district": "Bairro Novo",
        "street": "Rua Severino Francisco da Fonte (Jd Neópolis)",
        "zipcode": "55819-110"
    },
    {
        "city": "Carpina",
        "state": "PE",
        "district": "Bairro Novo",
        "street": "Rua Doutor Aranha Moura",
        "zipcode": "55819-180"
    },
    {
        "city": "Carpina",
        "state": "PE",
        "district": "São José",
        "street": "Travessa Luís Otávio Guerra",
        "zipcode": "55817-151"
    },
    {
        "city": "Carpina",
        "state": "PE",
        "district": "São José",
        "street": "1ª Travessa Presidente Getulio Vargas",
        "zipcode": "55815-111"
    },
    {
        "city": "Carpina",
        "state": "PE",
        "district": "São José",
        "street": "1ª Travessa Deputado Mário Monteiro",
        "zipcode": "55815-081"
    },
    {
        "city": "Carpina",
        "state": "PE",
        "district": "Cajá",
        "street": "Rua Coronel Mozart Nunes de Pádua",
        "zipcode": "55813-670"
    },
    {
        "city": "Carpina",
        "state": "PE",
        "district": "São José",
        "street": "Rua Dom João Bosco",
        "zipcode": "55815-345"
    },
    {
        "city": "Carpina",
        "state": "PE",
        "district": "São José",
        "street": "Avenida Presidente Getúlio Vargas",
        "zipcode": "55815-105"
    },
    {
        "city": "Carpina",
        "state": "PE",
        "district": "São José",
        "street": "Rua das Algarobas",
        "zipcode": "55817-110"
    },
    {
        "city": "Carpina",
        "state": "PE",
        "district": "Santo Antônio",
        "street": "Rua Astrólogo Omar Cardoso",
        "zipcode": "55816-680"
    },
    {
        "city": "Carpina",
        "state": "PE",
        "district": "Santo Antônio",
        "street": "Rua B (COHAB III)",
        "zipcode": "55816-715"
    },
    {
        "city": "Carpina",
        "state": "PE",
        "district": "Santa Terezinha",
        "street": "Rua Baltazar Pinto",
        "zipcode": "55812-030"
    },
    {
        "city": "Carpina",
        "state": "PE",
        "district": "Santo Antônio",
        "street": "Rua Cinco (COHAB II)",
        "zipcode": "55816-580"
    },
    {
        "city": "Carpina",
        "state": "PE",
        "district": "Santo Antônio",
        "street": "Rua Dez (COHAB II)",
        "zipcode": "55816-630"
    },
    {
        "city": "Carpina",
        "state": "PE",
        "district": "São José",
        "street": "Rua Ernesto Libânio Pinheiro",
        "zipcode": "55817-160"
    },
    {
        "city": "Carpina",
        "state": "PE",
        "district": "São José",
        "street": "Rua das Cajaranas",
        "zipcode": "55815-310"
    },
    {
        "city": "Carpina",
        "state": "PE",
        "district": "Santa Cruz",
        "street": "Rua Cleber Miguel Barbosa",
        "zipcode": "55811-210"
    },
    {
        "city": "Carpina",
        "state": "PE",
        "district": "Santo Antônio",
        "street": "Rua Sete (Alameda das Casuarinas)",
        "zipcode": "55816-222"
    },
    {
        "city": "Carpina",
        "state": "PE",
        "district": "Santo Antônio",
        "street": "Rua Um (Alamêda das Casuarinas)",
        "zipcode": "55816-210"
    },
    {
        "city": "Carpina",
        "state": "PE",
        "district": "Santo Antônio",
        "street": "Rua Quatro de Outubro",
        "zipcode": "55816-260"
    },
    {
        "city": "Carpina",
        "state": "PE",
        "district": "São José",
        "street": "Rua da Pitombeira",
        "zipcode": "55815-360"
    },
    {
        "city": "Carpina",
        "state": "PE",
        "district": "Santo Antonio",
        "street": "Estrada das Pedrinhas",
        "zipcode": "55814-300"
    },
    {
        "city": "Carpina",
        "state": "PE",
        "district": "Santo Antônio",
        "street": "Rua Oito (Alamêda das Casuarinas)",
        "zipcode": "55816-224"
    },
    {
        "city": "Carpina",
        "state": "PE",
        "district": "Santo Antônio",
        "street": "Rua Quatro (Alamêda das Casuarinas)",
        "zipcode": "55816-216"
    },
    {
        "city": "Carpina",
        "state": "PE",
        "district": "São José",
        "street": "Rua Florestinha",
        "zipcode": "55817-030"
    },
    {
        "city": "Carpina",
        "state": "PE",
        "district": "São José",
        "street": "Rua da Guabiraba",
        "zipcode": "55817-020"
    },
    {
        "city": "Carpina",
        "state": "PE",
        "district": "São José",
        "street": "Rua dos Ipês Amarelos",
        "zipcode": "55817-120"
    },
    {
        "city": "Carpina",
        "state": "PE",
        "district": "São José",
        "street": "Rua Luíz Otávio Guerra",
        "zipcode": "55817-150"
    },
    {
        "city": "Carpina",
        "state": "PE",
        "district": "São José",
        "street": "Rua da Mangueiras",
        "zipcode": "55817-090"
    },
    {
        "city": "Carpina",
        "state": "PE",
        "district": "Santo Antônio",
        "street": "Rua Dois (Alamêda das Casuarinas)",
        "zipcode": "55816-212"
    },
    {
        "city": "Carpina",
        "state": "PE",
        "district": "Santa Terezinha",
        "street": "Rua dos Alameda Laranjais",
        "zipcode": "55812-080"
    },
    {
        "city": "Carpina",
        "state": "PE",
        "district": "Santo Antônio",
        "street": "Rua Onze (Alamêda das Casuarinas)",
        "zipcode": "55816-230"
    },
    {
        "city": "Carpina",
        "state": "PE",
        "district": "Santa Cruz",
        "street": "Rua Severino Alves da Silva",
        "zipcode": "55811-230"
    },
    {
        "city": "Carpina",
        "state": "PE",
        "district": "Santo Antônio",
        "street": "Rua Três (Alamêda das Casuarinas)",
        "zipcode": "55816-214"
    },
    {
        "city": "Carpina",
        "state": "PE",
        "district": "Santo Antônio",
        "street": "Rua Onze (COHAB lll)",
        "zipcode": "55816-640"
    },
    {
        "city": "Carpina",
        "state": "PE",
        "district": "Cajá",
        "street": "Rua Presidente Costa e Silva",
        "zipcode": "55813-580"
    },
    {
        "city": "Carpina",
        "state": "PE",
        "district": "Santo Antônio",
        "street": "Rua Primeiro de Maio",
        "zipcode": "55816-710"
    },
    {
        "city": "Carpina",
        "state": "PE",
        "district": "Santo Antônio",
        "street": "Rua Seis (COHAB II)",
        "zipcode": "55816-590"
    },
    {
        "city": "Carpina",
        "state": "PE",
        "district": "Santo Antônio",
        "street": "Rua Seis (COHAB III)",
        "zipcode": "55816-565"
    },
    {
        "city": "Carpina",
        "state": "PE",
        "district": "Santo Antônio",
        "street": "Rua Vinte e Um de Abril",
        "zipcode": "55816-670"
    },
    {
        "city": "Carpina",
        "state": "PE",
        "district": "Santo Antônio",
        "street": "1ª Travessa Vinte e Um de Abril",
        "zipcode": "55816-671"
    },
    {
        "city": "Carpina",
        "state": "PE",
        "district": "São José",
        "street": "Rua Deputado Mário Monteiro",
        "zipcode": "55815-080"
    },
    {
        "city": "Carpina",
        "state": "PE",
        "district": "São José",
        "street": "Avenida Ecológicas",
        "zipcode": "55817-130"
    },
    {
        "city": "Carpina",
        "state": "PE",
        "district": "Senzala",
        "street": "Rua Severino José de Moura",
        "zipcode": "55818-315"
    },
    {
        "city": "Carpina",
        "state": "PE",
        "district": "Bairro Novo",
        "street": "Avenida Ministro Marcos Freire (Jd Neópolis)",
        "zipcode": "55819-740"
    },
    {
        "city": "Carpina",
        "state": "PE",
        "district": "Bairro Novo",
        "street": "Rua Presbítero José Rozeno de Oliveira (Jd Neópolis)",
        "zipcode": "55819-800"
    },
    {
        "city": "Carpina",
        "state": "PE",
        "district": "Bairro Novo",
        "street": "Rua Eustáquio Manoel da Silva",
        "zipcode": "55819-715"
    },
    {
        "city": "Carpina",
        "state": "PE",
        "district": "Bairro Novo",
        "street": "Rua Eunice Soares Maciel (Jd Neópolis)",
        "zipcode": "55819-730"
    },
    {
        "city": "Carpina",
        "state": "PE",
        "district": "Senzala",
        "street": "Rua José Tavares de Almeida",
        "zipcode": "55818-410"
    },
    {
        "city": "Carpina",
        "state": "PE",
        "district": "Senzala",
        "street": "Avenida Elenita Xavier da Silva",
        "zipcode": "55818-430"
    },
    {
        "city": "Carpina",
        "state": "PE",
        "district": "São Sebastião",
        "street": "Rua Antônio Carneiro Cézar Menezes",
        "zipcode": "55818-655"
    },
    {
        "city": "Carpina",
        "state": "PE",
        "district": "Madre Rosa",
        "street": "Rua Alzira Santiago de Araújo",
        "zipcode": "55817-670"
    },
    {
        "city": "Carpina",
        "state": "PE",
        "district": "São Sebastião",
        "street": "Travessa Bernardino Caetano",
        "zipcode": "55818-571"
    },
    {
        "city": "Carpina",
        "state": "PE",
        "district": "Bairro Novo",
        "street": "Rua Vereador José Arno",
        "zipcode": "55819-670"
    },
    {
        "city": "Carpina",
        "state": "PE",
        "district": "São José",
        "street": "Praça São José",
        "zipcode": "55819-902"
    },
    {
        "city": "Carpina",
        "state": "PE",
        "district": "São José",
        "street": "Avenida Estácio Coimbra",
        "zipcode": "55819-906"
    },
    {
        "city": "Carpina",
        "state": "PE",
        "district": "São Sebastião",
        "street": "Rua Antônio Cavalcante de Albuquerque",
        "zipcode": "55818-640"
    },
    {
        "city": "Carpina",
        "state": "PE",
        "district": "São Sebastião",
        "street": "Rua Dantas Barreto",
        "zipcode": "55818-500"
    },
    {
        "city": "Carpina",
        "state": "PE",
        "district": "Bairro Novo",
        "street": "Rua Dez",
        "zipcode": "55819-470"
    },
    {
        "city": "Carpina",
        "state": "PE",
        "district": "Santo Antônio",
        "street": "Rua Dois (COHAB II)",
        "zipcode": "55816-550"
    },
    {
        "city": "Carpina",
        "state": "PE",
        "district": "São Sebastião",
        "street": "Rua Doutor Rawlinson",
        "zipcode": "55818-630"
    },
    {
        "city": "Carpina",
        "state": "PE",
        "district": "Santo Antônio",
        "street": "Rua Joaquim Egídio de Oliveira",
        "zipcode": "55816-500"
    },
    {
        "city": "Carpina",
        "state": "PE",
        "district": "Bairro Novo",
        "street": "Rua Joaquim Guerra",
        "zipcode": "55819-540"
    },
    {
        "city": "Carpina",
        "state": "PE",
        "district": "Bairro Novo",
        "street": "Rua José Arnoz da Silva",
        "zipcode": "55819-660"
    },
    {
        "city": "Carpina",
        "state": "PE",
        "district": "São Sebastião",
        "street": "Rua Maria Isabel Buarque",
        "zipcode": "55818-635"
    },
    {
        "city": "Carpina",
        "state": "PE",
        "district": "Bairro Novo",
        "street": "Rua Nove",
        "zipcode": "55819-480"
    },
    {
        "city": "Carpina",
        "state": "PE",
        "district": "São Sebastião",
        "street": "Rua Odom Benício de Miranda",
        "zipcode": "55818-620"
    },
    {
        "city": "Carpina",
        "state": "PE",
        "district": "Santo Antônio",
        "street": "Rua Papa João Paulo I",
        "zipcode": "55816-510"
    },
    {
        "city": "Carpina",
        "state": "PE",
        "district": "São Sebastião",
        "street": "Rua Doutor Manoel Borba",
        "zipcode": "55818-580"
    },
    {
        "city": "Carpina",
        "state": "PE",
        "district": "São Sebastião",
        "street": "Rua José Batista Ramos",
        "zipcode": "55818-545"
    },
    {
        "city": "Carpina",
        "state": "PE",
        "district": "São Sebastião",
        "street": "Rua Pastor José Joaquim dos Santos",
        "zipcode": "55818-530"
    },
    {
        "city": "Carpina",
        "state": "PE",
        "district": "São Sebastião",
        "street": "Rua Santos Dumont",
        "zipcode": "55818-510"
    },
    {
        "city": "Carpina",
        "state": "PE",
        "district": "São Sebastião",
        "street": "Travessa Santos Dumont",
        "zipcode": "55818-511"
    },
    {
        "city": "Carpina",
        "state": "PE",
        "district": "São Sebastião",
        "street": "Rua Bernardino Caetano",
        "zipcode": "55818-570"
    },
    {
        "city": "Carpina",
        "state": "PE",
        "district": "São José",
        "street": "Rua Vicente Araújo",
        "zipcode": "55815-120"
    },
    {
        "city": "Carpina",
        "state": "PE",
        "district": "Bairro Novo",
        "street": "Rua Dionísio Dias",
        "zipcode": "55819-315"
    },
    {
        "city": "Carpina",
        "state": "PE",
        "district": "São Sebastião",
        "street": "Rua Barbosa Lima",
        "zipcode": "55818-560"
    },
    {
        "city": "Carpina",
        "state": "PE",
        "district": "São José",
        "street": "Rua Ozéas Carvalho Oliveira",
        "zipcode": "55817-190"
    },
    {
        "city": "Carpina",
        "state": "PE",
        "district": "Santo Antônio",
        "street": "Rua Estela Martins de Oliveira (Lot.N.Sra.Aparecida)",
        "zipcode": "55816-760"
    },
    {
        "city": "Carpina",
        "state": "PE",
        "district": "Bairro Novo",
        "street": "Rua Solon Moraes Coutinho",
        "zipcode": "55819-680"
    },
    {
        "city": "Carpina",
        "state": "PE",
        "district": "São Sebastião",
        "street": "Avenida Tiradentes",
        "zipcode": "55818-490"
    },
    {
        "city": "Carpina",
        "state": "PE",
        "district": "Santo Antônio",
        "street": "Rua Três (COHAB II)",
        "zipcode": "55816-560"
    },
    {
        "city": "Carpina",
        "state": "PE",
        "district": "Santo Antônio",
        "street": "Rua Um (COHAB II)",
        "zipcode": "55816-540"
    },
    {
        "city": "Carpina",
        "state": "PE",
        "district": "Santo Antônio",
        "street": "Rua Um (COHAB III)",
        "zipcode": "55816-545"
    },
    {
        "city": "Carpina",
        "state": "PE",
        "district": "Bairro Novo",
        "street": "Rua Vista Alegre",
        "zipcode": "55819-560"
    },
    {
        "city": "Carpina",
        "state": "PE",
        "district": "Bairro Novo",
        "street": "Avenida Santana",
        "zipcode": "55819-640"
    },
    {
        "city": "Carpina",
        "state": "PE",
        "district": "São José",
        "street": "Rua Maria de Araújo Goulart",
        "zipcode": "55817-210"
    },
    {
        "city": "Carpina",
        "state": "PE",
        "district": "Santo Antônio",
        "street": "Rua Anacleto Jaimeson do Rego",
        "zipcode": "55816-720"
    },
    {
        "city": "Carpina",
        "state": "PE",
        "district": "Bairro Novo",
        "street": "Rua Francisco de Paulo Maciel (Jd Neópolis)",
        "zipcode": "55819-090"
    },
    {
        "city": "Carpina",
        "state": "PE",
        "district": "São Sebastião",
        "street": "Rua Doutor Paulo Pessoa Cavalcanti de Petribu",
        "zipcode": "55818-550"
    },
    {
        "city": "Carpina",
        "state": "PE",
        "district": "Bairro Novo",
        "street": "Rua Maria Tereza da Silva (Jd Neópolis)",
        "zipcode": "55819-010"
    },
    {
        "city": "Carpina",
        "state": "PE",
        "district": "São Sebastião",
        "street": "Travessa Antônio Cavalcante de Albuquerque",
        "zipcode": "55818-641"
    },
    {
        "city": "Carpina",
        "state": "PE",
        "district": "São Sebastião",
        "street": "Rua Antonio Tranquilino",
        "zipcode": "55818-610"
    },
    {
        "city": "Carpina",
        "state": "PE",
        "district": "Bairro Novo",
        "street": "3ª Travessa Conselheiro João Alfredo",
        "zipcode": "55819-233"
    },
    {
        "city": "Carpina",
        "state": "PE",
        "district": "Senzala",
        "street": "Rua Frei Miguelinho",
        "zipcode": "55818-415"
    },
    {
        "city": "Carpina",
        "state": "PE",
        "district": "Senzala",
        "street": "Avenida Doutor Severiano José Freire",
        "zipcode": "55818-385"
    },
    {
        "city": "Carpina",
        "state": "PE",
        "district": "Santo Antonio",
        "street": "Rua Três (Cohab I)",
        "zipcode": "55814-235"
    },
    {
        "city": "Carpina",
        "state": "PE",
        "district": "Bairro Novo",
        "street": "Rua Ricardo Nascimento",
        "zipcode": "55819-675"
    },
    {
        "city": "Carpina",
        "state": "PE",
        "district": "Bairro Novo",
        "street": "1ª Travessa José Jaime Coutinho Dias",
        "zipcode": "55819-381"
    },
    {
        "city": "Carpina",
        "state": "PE",
        "district": "Bairro Novo",
        "street": "2ª Travessa José Jaime Coutinho Dias",
        "zipcode": "55819-382"
    },
    {
        "city": "Carpina",
        "state": "PE",
        "district": "Bairro Novo",
        "street": "3ª Travessa José Jaime Coutinho Dias",
        "zipcode": "55819-383"
    },
    {
        "city": "Carpina",
        "state": "PE",
        "district": "Bairro Novo",
        "street": "4ª Travessa José Jaime Coutinho Dias",
        "zipcode": "55819-384"
    },
    {
        "city": "Carpina",
        "state": "PE",
        "district": "Bairro Novo",
        "street": "5ª Travessa José Jaime Coutinho Dias",
        "zipcode": "55819-385"
    },
    {
        "city": "Carpina",
        "state": "PE",
        "district": "Bairro Novo",
        "street": "4ª Travessa Jaime Vicente Pereira Filho",
        "zipcode": "55819-444"
    },
    {
        "city": "Carpina",
        "state": "PE",
        "district": "Senzala",
        "street": "Rua Maria Amélia",
        "zipcode": "55818-210"
    },
    {
        "city": "Carpina",
        "state": "PE",
        "district": "São Sebastião",
        "street": "Avenida da Bandeira",
        "zipcode": "55818-565"
    },
    {
        "city": "Carpina",
        "state": "PE",
        "district": "Bairro Novo",
        "street": "Travessa Bela Vista",
        "zipcode": "55819-246"
    },
    {
        "city": "Carpina",
        "state": "PE",
        "district": "Bairro Novo",
        "street": "Rua Bela Vista",
        "zipcode": "55819-245"
    },
    {
        "city": "Carpina",
        "state": "PE",
        "district": "Santo Antônio",
        "street": "Rua Bernardino de Campos",
        "zipcode": "55816-490"
    },
    {
        "city": "Carpina",
        "state": "PE",
        "district": "Bairro Novo",
        "street": "Rua Doutor Antônio Gusmão",
        "zipcode": "55819-420"
    },
    {
        "city": "Carpina",
        "state": "PE",
        "district": "Bairro Novo",
        "street": "2ª Travessa Doutor Antônio Gusmão",
        "zipcode": "55819-422"
    },
    {
        "city": "Carpina",
        "state": "PE",
        "district": "Bairro Novo",
        "street": "1ª Travessa Doutor Antônio Gusmão",
        "zipcode": "55819-421"
    },
    {
        "city": "Carpina",
        "state": "PE",
        "district": "Bairro Novo",
        "street": "Rua Doutor José Inácio da Silva",
        "zipcode": "55819-390"
    },
    {
        "city": "Carpina",
        "state": "PE",
        "district": "Bairro Novo",
        "street": "Rua Doutora Hercília Aranha de Moura",
        "zipcode": "55819-360"
    },
    {
        "city": "Carpina",
        "state": "PE",
        "district": "Bairro Novo",
        "street": "Rua Jaime Vicente Pereira Filho",
        "zipcode": "55819-440"
    },
    {
        "city": "Carpina",
        "state": "PE",
        "district": "Bairro Novo",
        "street": "Rua Joaquim Dias",
        "zipcode": "55819-350"
    },
    {
        "city": "Carpina",
        "state": "PE",
        "district": "Bairro Novo",
        "street": "Rua José Edmilson Bione",
        "zipcode": "55819-240"
    },
    {
        "city": "Carpina",
        "state": "PE",
        "district": "Bairro Novo",
        "street": "Rua José Jaime Coutinho Dias",
        "zipcode": "55819-380"
    },
    {
        "city": "Carpina",
        "state": "PE",
        "district": "Bairro Novo",
        "street": "Rua José Mário Amorim",
        "zipcode": "55819-410"
    },
    {
        "city": "Carpina",
        "state": "PE",
        "district": "Bairro Novo",
        "street": "Rua José Nazário Coutinho",
        "zipcode": "55819-250"
    },
    {
        "city": "Carpina",
        "state": "PE",
        "district": "São Sebastião",
        "street": "Rua José Pimentel",
        "zipcode": "55818-480"
    },
    {
        "city": "Carpina",
        "state": "PE",
        "district": "Bairro Novo",
        "street": "Rua Maria Araújo Caldeira",
        "zipcode": "55819-265"
    },
    {
        "city": "Carpina",
        "state": "PE",
        "district": "São Sebastião",
        "street": "Rua João Batista de Carvalho",
        "zipcode": "55818-585"
    },
    {
        "city": "Carpina",
        "state": "PE",
        "district": "São Sebastião",
        "street": "Rua São Sebastião",
        "zipcode": "55818-590"
    },
    {
        "city": "Carpina",
        "state": "PE",
        "district": "São Sebastião",
        "street": "1ª Travessa Tiradentes",
        "zipcode": "55818-491"
    },
    {
        "city": "Carpina",
        "state": "PE",
        "district": "São Sebastião",
        "street": "Rua Senador Paulo Pessoa Guerra",
        "zipcode": "55818-535"
    },
    {
        "city": "Carpina",
        "state": "PE",
        "district": "São Sebastião",
        "street": "Praça Carlos Pena Filho",
        "zipcode": "55818-615"
    },
    {
        "city": "Carpina",
        "state": "PE",
        "district": "Bairro Novo",
        "street": "Rua Alameda Riclândia",
        "zipcode": "55819-610"
    },
    {
        "city": "Carpina",
        "state": "PE",
        "district": "Senzala",
        "street": "Rua Marechal Floriano Peixoto",
        "zipcode": "55818-300"
    },
    {
        "city": "Carpina",
        "state": "PE",
        "district": "Bairro Novo",
        "street": "Rua Amaro Terto da Silva (Jd Neópolis)",
        "zipcode": "55819-710"
    },
    {
        "city": "Carpina",
        "state": "PE",
        "district": "Senzala",
        "street": "Rua dos Caminhoneiros",
        "zipcode": "55818-220"
    },
    {
        "city": "Carpina",
        "state": "PE",
        "district": "São Sebastião",
        "street": "Praça Lourival da Silva Bastos",
        "zipcode": "55818-625"
    },
    {
        "city": "Carpina",
        "state": "PE",
        "district": "Bairro Novo",
        "street": "Rua Jardim Santa Cruz",
        "zipcode": "55819-630"
    },
    {
        "city": "Carpina",
        "state": "PE",
        "district": "Bairro Novo",
        "street": "Rua Neópolis",
        "zipcode": "55819-450"
    },
    {
        "city": "Carpina",
        "state": "PE",
        "district": "São José",
        "street": "Rua dos Oitis",
        "zipcode": "55817-060"
    },
    {
        "city": "Carpina",
        "state": "PE",
        "district": "Bairro Novo",
        "street": "Rua Padre Machado",
        "zipcode": "55819-325"
    },
    {
        "city": "Carpina",
        "state": "PE",
        "district": "Bairro Novo",
        "street": "Rua Papa Paulo VI",
        "zipcode": "55819-260"
    },
    {
        "city": "Carpina",
        "state": "PE",
        "district": "Bairro Novo",
        "street": "Rua Professor Rocha Melo",
        "zipcode": "55819-370"
    },
    {
        "city": "Carpina",
        "state": "PE",
        "district": "Cajá",
        "street": "Rua Senador José Hermírio de Morais",
        "zipcode": "55813-570"
    },
    {
        "city": "Carpina",
        "state": "PE",
        "district": "Santo Antonio",
        "street": "Rua Z (Cohab I)",
        "zipcode": "55814-010"
    },
    {
        "city": "Carpina",
        "state": "PE",
        "district": "Bairro Novo",
        "street": "Rua Fernando Cysneiro de Oliveira",
        "zipcode": "55819-570"
    },
    {
        "city": "Carpina",
        "state": "PE",
        "district": "Senzala",
        "street": "Rua Aluizio Mendonça de Arruda",
        "zipcode": "55818-445"
    },
    {
        "city": "Carpina",
        "state": "PE",
        "district": "Bairro Novo",
        "street": "Rua Privê Vale do Sol",
        "zipcode": "55819-600"
    },
    {
        "city": "Carpina",
        "state": "PE",
        "district": "Bairro Novo",
        "street": "Loteamento Três Marias",
        "zipcode": "55819-520"
    },
    {
        "city": "Carpina",
        "state": "PE",
        "district": "Santo Antonio",
        "street": "Travessa Marcílio Dias",
        "zipcode": "55814-351"
    },
    {
        "city": "Carpina",
        "state": "PE",
        "district": "São José",
        "street": "1ª Travessa Padre Rocha",
        "zipcode": "55815-141"
    },
    {
        "city": "Carpina",
        "state": "PE",
        "district": "São José",
        "street": "2ª Travessa Presidente Getúlio Vargas",
        "zipcode": "55815-115"
    },
    {
        "city": "Carpina",
        "state": "PE",
        "district": "Madre Rosa",
        "street": "Rua João José Pessoa",
        "zipcode": "55817-700"
    },
    {
        "city": "Carpina",
        "state": "PE",
        "district": "Santo Antonio",
        "street": "Rua Cleto Jamersom do Rego",
        "zipcode": "55814-420"
    },
    {
        "city": "Carpina",
        "state": "PE",
        "district": "Santo Antonio",
        "street": "Rua Quatro (Cohab I)",
        "zipcode": "55814-237"
    },
    {
        "city": "Carpina",
        "state": "PE",
        "district": "Santo Antônio",
        "street": "Rua Cinco (Alamêda das Casuarinas)",
        "zipcode": "55816-218"
    },
    {
        "city": "Carpina",
        "state": "PE",
        "district": "São José",
        "street": "Rua dos Flamboyantes",
        "zipcode": "55815-320"
    },
    {
        "city": "Carpina",
        "state": "PE",
        "district": "Madre Rosa",
        "street": "Rua Engenheiro Edinaldo Miranda de Oliveira",
        "zipcode": "55817-660"
    },
    {
        "city": "Carpina",
        "state": "PE",
        "district": "São José",
        "street": "2ª Travessa Deputado Mário Monteiro",
        "zipcode": "55815-082"
    },
    {
        "city": "Carpina",
        "state": "PE",
        "district": "Santo Antonio",
        "street": "2ª Travessa Mendes Martins",
        "zipcode": "55814-292"
    },
    {
        "city": "Carpina",
        "state": "PE",
        "district": "Santo Antonio",
        "street": "Travessa Ana Guerra",
        "zipcode": "55814-271"
    },
    {
        "city": "Carpina",
        "state": "PE",
        "district": "Santo Antonio",
        "street": "Travessa Aldo Moro (Cohab l)",
        "zipcode": "55814-251"
    },
    {
        "city": "Carpina",
        "state": "PE",
        "district": "Santo Antônio",
        "street": "Avenida Doutor Assis Chateaubriand",
        "zipcode": "55816-410"
    },
    {
        "city": "Carpina",
        "state": "PE",
        "district": "Santo Antônio",
        "street": "2ª Travessa Bernardino de Campos",
        "zipcode": "55816-491"
    },
    {
        "city": "Carpina",
        "state": "PE",
        "district": "Santo Antonio",
        "street": "Rua C (Cohab I)",
        "zipcode": "55814-070"
    },
    {
        "city": "Carpina",
        "state": "PE",
        "district": "Santo Antônio",
        "street": "Rua Camilo Padilha Leitão",
        "zipcode": "55816-530"
    },
    {
        "city": "Carpina",
        "state": "PE",
        "district": "Santo Antônio",
        "street": "Rua Dois (COHAB III)",
        "zipcode": "55816-555"
    },
    {
        "city": "Carpina",
        "state": "PE",
        "district": "Santo Antônio",
        "street": "Rua Doutor Jonas Aquino",
        "zipcode": "55816-650"
    },
    {
        "city": "Carpina",
        "state": "PE",
        "district": "Santo Antônio",
        "street": "Rua Ernani Farias de Miranda",
        "zipcode": "55816-290"
    },
    {
        "city": "Carpina",
        "state": "PE",
        "district": "Santo Antônio",
        "street": "Travessa Ernesto Pompílio",
        "zipcode": "55816-440"
    },
    {
        "city": "Carpina",
        "state": "PE",
        "district": "São José",
        "street": "Rua dos Eucaliptos",
        "zipcode": "55817-000"
    },
    {
        "city": "Carpina",
        "state": "PE",
        "district": "Santo Antônio",
        "street": "Rua João Caldas",
        "zipcode": "55816-460"
    },
    {
        "city": "Carpina",
        "state": "PE",
        "district": "Santo Antonio",
        "street": "Travessa Joaquim Pinto Lapa",
        "zipcode": "55814-601"
    },
    {
        "city": "Carpina",
        "state": "PE",
        "district": "São José",
        "street": "Rua Luíz de Araújo Lucena",
        "zipcode": "55817-180"
    },
    {
        "city": "Carpina",
        "state": "PE",
        "district": "São José",
        "street": "Travessa Maria de Araújo Gulart",
        "zipcode": "55817-220"
    },
    {
        "city": "Carpina",
        "state": "PE",
        "district": "Santo Antônio",
        "street": "Rua Ministro Petrônio Portela",
        "zipcode": "55816-700"
    },
    {
        "city": "Carpina",
        "state": "PE",
        "district": "Santo Antônio",
        "street": "Rua Padre Melo",
        "zipcode": "55816-310"
    },
    {
        "city": "Carpina",
        "state": "PE",
        "district": "Santo Antonio",
        "street": "Rua Sete (Cohab I)",
        "zipcode": "55814-260"
    },
    {
        "city": "Carpina",
        "state": "PE",
        "district": "Bairro Novo",
        "street": "Rua Projetada Quarenta e Nove (Lot Jd Néopolis)",
        "zipcode": "55819-053"
    },
    {
        "city": "Carpina",
        "state": "PE",
        "district": "Bairro Novo",
        "street": "Rua Projetada Quatorze (Lot Jd Néopolis)",
        "zipcode": "55819-048"
    },
    {
        "city": "Carpina",
        "state": "PE",
        "district": "São Sebastião",
        "street": "Travessa Carlos Pena Filho",
        "zipcode": "55818-616"
    },
    {
        "city": "Carpina",
        "state": "PE",
        "district": "Cajá",
        "street": "Rua Doutora Patrícia Guerra de Melo (5ª Etapa do Lot Cajá)",
        "zipcode": "55813-120"
    },
    {
        "city": "Carpina",
        "state": "PE",
        "district": "Senzala",
        "street": "Rua Jesimiel Figueira da Silva",
        "zipcode": "55818-225"
    },
    {
        "city": "Carpina",
        "state": "PE",
        "district": "Bairro Novo",
        "street": "Rua Projetada Quinze (Lot Jd Néopolis)",
        "zipcode": "55819-045"
    },
    {
        "city": "Carpina",
        "state": "PE",
        "district": "Bairro Novo",
        "street": "Rua Iraci Ramos da Silva Flor",
        "zipcode": "55819-075"
    },
    {
        "city": "Carpina",
        "state": "PE",
        "district": "São José",
        "street": "Rua Professora Adelina de Souza Silva",
        "zipcode": "55815-300"
    },
    {
        "city": "Carpina",
        "state": "PE",
        "district": "Bairro Novo",
        "street": "Rua Alrislândia",
        "zipcode": "55819-275"
    },
    {
        "city": "Carpina",
        "state": "PE",
        "district": "Senzala",
        "street": "3ª Travessa Martins Júnior (Três Marias)",
        "zipcode": "55818-012"
    },
    {
        "city": "Carpina",
        "state": "PE",
        "district": "Bairro Novo",
        "street": "Rua Biu Fonte (Jd Neópolis)",
        "zipcode": "55819-060"
    },
    {
        "city": "Carpina",
        "state": "PE",
        "district": "Santo Antônio",
        "street": "Rua Siqueira Campos",
        "zipcode": "55816-350"
    },
    {
        "city": "Carpina",
        "state": "PE",
        "district": "Santo Antonio",
        "street": "Rua U (Cohab I)",
        "zipcode": "55814-150"
    },
    {
        "city": "Carpina",
        "state": "PE",
        "district": "Santo Antonio",
        "street": "Rua O (Cohab I)",
        "zipcode": "55814-020"
    },
    {
        "city": "Carpina",
        "state": "PE",
        "district": "São José",
        "street": "Rua Oliveira Lima",
        "zipcode": "55815-090"
    },
    {
        "city": "Carpina",
        "state": "PE",
        "district": "São José",
        "street": "Rua da Independência",
        "zipcode": "55815-020"
    },
    {
        "city": "Carpina",
        "state": "PE",
        "district": "Senzala",
        "street": "Rua José Antônio de Albuquerque",
        "zipcode": "55818-200"
    },
    {
        "city": "Carpina",
        "state": "PE",
        "district": "Santo Antonio",
        "street": "Rua Q (Cohab I)",
        "zipcode": "55814-110"
    },
    {
        "city": "Carpina",
        "state": "PE",
        "district": "Santa Cruz",
        "street": "Rua Luiz Gonzaga de Amorim Ribeiro (Lot Santana)",
        "zipcode": "55811-100"
    },
    {
        "city": "Carpina",
        "state": "PE",
        "district": "Bairro Novo",
        "street": "Rua Lylia Vieira da Cunha (Jd Neópolis)",
        "zipcode": "55819-020"
    },
    {
        "city": "Carpina",
        "state": "PE",
        "district": "Bairro Novo",
        "street": "2ª Travessa Francisco de Paulo Maciel (Jd Neópolis)",
        "zipcode": "55819-092"
    },
    {
        "city": "Carpina",
        "state": "PE",
        "district": "Bairro Novo",
        "street": "Travessa José Arnoz da Silva",
        "zipcode": "55819-661"
    },
    {
        "city": "Carpina",
        "state": "PE",
        "district": "São José",
        "street": "Rua Hercilia Aranha de Moura (Ipsep)",
        "zipcode": "55817-170"
    },
    {
        "city": "Carpina",
        "state": "PE",
        "district": "Senzala",
        "street": "Rua Antonio Cavalcanti de Andrade",
        "zipcode": "55818-455"
    },
    {
        "city": "Carpina",
        "state": "PE",
        "district": "Madre Rosa",
        "street": "Rua Severino Francisco Batista",
        "zipcode": "55817-740"
    },
    {
        "city": "Carpina",
        "state": "PE",
        "district": "Cajá",
        "street": "Rua Dona Izabel Cavalcante Câmara (5ª Etapa do Lot Cajá)",
        "zipcode": "55813-332"
    },
    {
        "city": "Carpina",
        "state": "PE",
        "district": "Bairro Novo",
        "street": "Rua Maria Anunciada Pinheiro Dias (Jd Neópolis)",
        "zipcode": "55819-735"
    },
    {
        "city": "Carpina",
        "state": "PE",
        "district": "Bairro Novo",
        "street": "Rua Severino Libânio Pinheiro (Jd Neópolis)",
        "zipcode": "55819-160"
    },
    {
        "city": "Carpina",
        "state": "PE",
        "district": "Bairro Novo",
        "street": "Travessa Jaime Vicente Pereira Filho",
        "zipcode": "55819-441"
    },
    {
        "city": "Carpina",
        "state": "PE",
        "district": "Cajá",
        "street": "8ª Travessa José Bonifácio",
        "zipcode": "55813-339"
    },
    {
        "city": "Carpina",
        "state": "PE",
        "district": "Cajá",
        "street": "Avenida Doutor José Otávio",
        "zipcode": "55813-710"
    },
    {
        "city": "Carpina",
        "state": "PE",
        "district": "Santa Terezinha",
        "street": "Rua Tupã",
        "zipcode": "55812-100"
    },
    {
        "city": "Carpina",
        "state": "PE",
        "district": "Cajá",
        "street": "Avenida Estácio Coimbra",
        "zipcode": "55813-190"
    },
    {
        "city": "Carpina",
        "state": "PE",
        "district": "Santa Cruz",
        "street": "11ª Travessa Sezenando Carneiro Leão",
        "zipcode": "55811-132"
    },
    {
        "city": "Carpina",
        "state": "PE",
        "district": "Cajá",
        "street": "8ª Travessa dos Emancipadores",
        "zipcode": "55813-428"
    },
    {
        "city": "Carpina",
        "state": "PE",
        "district": "Cajá",
        "street": "9ª Travessa dos Emancipadores",
        "zipcode": "55813-429"
    },
    {
        "city": "Carpina",
        "state": "PE",
        "district": "São José",
        "street": "1ª Travessa Vereador Sérgiorlando Santa Cruz",
        "zipcode": "55817-141"
    },
    {
        "city": "Carpina",
        "state": "PE",
        "district": "Cajá",
        "street": "10ª Travessa Capitão Oswaldo Freire",
        "zipcode": "55813-108"
    },
    {
        "city": "Carpina",
        "state": "PE",
        "district": "Cajá",
        "street": "11ª Travessa Capitão Oswaldo Freire",
        "zipcode": "55813-110"
    },
    {
        "city": "Carpina",
        "state": "PE",
        "district": "Cajá",
        "street": "1ª Travessa Capitão Oswaldo Freire",
        "zipcode": "55813-090"
    },
    {
        "city": "Carpina",
        "state": "PE",
        "district": "Cajá",
        "street": "2ª Travessa Capitão Oswaldo Freire",
        "zipcode": "55813-092"
    },
    {
        "city": "Carpina",
        "state": "PE",
        "district": "Cajá",
        "street": "3ª Travessa Capitão Oswaldo Freire",
        "zipcode": "55813-094"
    },
    {
        "city": "Carpina",
        "state": "PE",
        "district": "Cajá",
        "street": "4ª Travessa Capitão Oswaldo Freire",
        "zipcode": "55813-096"
    },
    {
        "city": "Carpina",
        "state": "PE",
        "district": "Cajá",
        "street": "6ª Travessa Capitão Oswaldo Freire",
        "zipcode": "55813-100"
    },
    {
        "city": "Carpina",
        "state": "PE",
        "district": "São José",
        "street": "Rua Presidente Getúlio Vargas",
        "zipcode": "55819-970"
    },
    {
        "city": "Carpina",
        "state": "PE",
        "district": "Senzala",
        "street": "Rua São Sebastião",
        "zipcode": "55813-901"
    },
    {
        "city": "Carpina",
        "state": "PE",
        "district": "Cajá",
        "street": "Avenida Murilo Silva",
        "zipcode": "55813-900"
    },
    {
        "city": "Carpina",
        "state": "PE",
        "district": "São José",
        "street": "Praça São José",
        "zipcode": "55819-901"
    },
    {
        "city": "Carpina",
        "state": "PE",
        "district": "São José",
        "street": "Avenida Estácio Coimbra",
        "zipcode": "55819-910"
    },
    {
        "city": "Carpina",
        "state": "PE",
        "district": "São José",
        "street": "Rua Padre Rocha",
        "zipcode": "55819-905"
    },
    {
        "city": "Carpina",
        "state": "PE",
        "district": "Senzala",
        "street": "Rua Djalma Dutra",
        "zipcode": "55818-340"
    },
    {
        "city": "Carpina",
        "state": "PE",
        "district": "Bairro Novo",
        "street": "Rua Doutor Francisco Pessoa de Queiroz",
        "zipcode": "55819-400"
    },
    {
        "city": "Carpina",
        "state": "PE",
        "district": "Cajá",
        "street": "Rua Doutor Gonçalves Guerra",
        "zipcode": "55813-390"
    },
    {
        "city": "Carpina",
        "state": "PE",
        "district": "Cajá",
        "street": "Rua dos Emancipadores",
        "zipcode": "55813-420"
    },
    {
        "city": "Carpina",
        "state": "PE",
        "district": "Bairro Novo",
        "street": "Rua Firmino Cisneiro",
        "zipcode": "55819-590"
    },
    {
        "city": "Carpina",
        "state": "PE",
        "district": "Cajá",
        "street": "Rua José Bonifácio",
        "zipcode": "55813-330"
    },
    {
        "city": "Carpina",
        "state": "PE",
        "district": "Bairro Novo",
        "street": "Rua Manoel Tavares",
        "zipcode": "55819-340"
    },
    {
        "city": "Carpina",
        "state": "PE",
        "district": "Bairro Novo",
        "street": "Rodovia PE",
        "zipcode": "55819-460"
    },
    {
        "city": "Carpina",
        "state": "PE",
        "district": "Cajá",
        "street": "Travessa Presidente Castelo Branco",
        "zipcode": "55813-401"
    },
    {
        "city": "Carpina",
        "state": "PE",
        "district": "Cajá",
        "street": "Rua Senador Felinto Muller",
        "zipcode": "55813-540"
    },
    {
        "city": "Carpina",
        "state": "PE",
        "district": "Bairro Novo",
        "street": "9ª Travessa Sizenando Carneiro Leão",
        "zipcode": "55819-229"
    },
    {
        "city": "Carpina",
        "state": "PE",
        "district": "Cajá",
        "street": "Rua Tomaz de Barros Melo",
        "zipcode": "55813-435"
    },
    {
        "city": "Carpina",
        "state": "PE",
        "district": "São Sebastião",
        "street": "Rua Padre João Ribeiro",
        "zipcode": "55818-525"
    },
    {
        "city": "Carpina",
        "state": "PE",
        "district": "São Sebastião",
        "street": "2ª Travessa Tiradentes",
        "zipcode": "55818-492"
    },
    {
        "city": "Carpina",
        "state": "PE",
        "district": "Santo Antônio",
        "street": "Rua Pedro José Severino (Lot.N.Sra.Aparecida)",
        "zipcode": "55816-755"
    },
    {
        "city": "Carpina",
        "state": "PE",
        "district": "Bairro Novo",
        "street": "Rua Barros Lima",
        "zipcode": "55819-300"
    },
    {
        "city": "Carpina",
        "state": "PE",
        "district": "Santo Antônio",
        "street": "Avenida Valdemar Mota Valença (Lot.N.Sra.Aparecida)",
        "zipcode": "55816-740"
    },
    {
        "city": "Carpina",
        "state": "PE",
        "district": "Santo Antônio",
        "street": "Rua Hermógenes Rodrigues dos Santos",
        "zipcode": "55816-250"
    },
    {
        "city": "Carpina",
        "state": "PE",
        "district": "Bairro Novo",
        "street": "Rua Presidente Juscelino Kubitschek de Oliveira",
        "zipcode": "55819-270"
    },
    {
        "city": "Carpina",
        "state": "PE",
        "district": "Cajá",
        "street": "Rua Verilda A. de Morais Coutinho Rosa",
        "zipcode": "55813-640"
    },
    {
        "city": "Carpina",
        "state": "PE",
        "district": "Santa Terezinha",
        "street": "Rua Severino Bione",
        "zipcode": "55812-020"
    },
    {
        "city": "Carpina",
        "state": "PE",
        "district": "Santa Cruz",
        "street": "Rua Adilson Guedes de Oliveira (Lot Santa Cruz II)",
        "zipcode": "55811-320"
    },
    {
        "city": "Carpina",
        "state": "PE",
        "district": "Santa Cruz",
        "street": "Rua Manoel Alves de Amorim",
        "zipcode": "55811-260"
    },
    {
        "city": "Carpina",
        "state": "PE",
        "district": "Santa Cruz",
        "street": "Rua José Terto de Andrade (Lot Santa Cruz)",
        "zipcode": "55811-160"
    },
    {
        "city": "Carpina",
        "state": "PE",
        "district": "São José",
        "street": "Rua Barão do Rio Branco",
        "zipcode": "55815-260"
    },
    {
        "city": "Carpina",
        "state": "PE",
        "district": "Santo Antônio",
        "street": "2ª Travessa Martins Júnior",
        "zipcode": "55816-422"
    },
    {
        "city": "Carpina",
        "state": "PE",
        "district": "São José",
        "street": "3ª Travessa Nova Descoberta",
        "zipcode": "55815-073"
    },
    {
        "city": "Carpina",
        "state": "PE",
        "district": "Cajá",
        "street": "2ª Travessa Doutor Gonçalves Guerra",
        "zipcode": "55813-392"
    },
    {
        "city": "Carpina",
        "state": "PE",
        "district": "Santa Cruz",
        "street": "Rua Jornal Voz do Planalto (Lot Santa Cruz II)",
        "zipcode": "55811-150"
    },
    {
        "city": "Carpina",
        "state": "PE",
        "district": "São José",
        "street": "Rua Haroldo de Moura Salgado (Lot.Casa Nova II)",
        "zipcode": "55815-270"
    },
    {
        "city": "Carpina",
        "state": "PE",
        "district": "São Sebastião",
        "street": "Avenida Doutor José Otávio",
        "zipcode": "55815-600"
    },
    {
        "city": "Carpina",
        "state": "PE",
        "district": "Cajá",
        "street": "Rua Maria das Dores de Lima",
        "zipcode": "55813-160"
    },
    {
        "city": "Carpina",
        "state": "PE",
        "district": "Cajá",
        "street": "Avenida Doutor Severiano José Freire",
        "zipcode": "55813-700"
    },
    {
        "city": "Carpina",
        "state": "PE",
        "district": "Madre Rosa",
        "street": "Rua Irene Maria da Silva",
        "zipcode": "55817-710"
    },
    {
        "city": "Carpina",
        "state": "PE",
        "district": "Santo Antonio",
        "street": "Rua Benedita Coelho Muniz",
        "zipcode": "55814-410"
    },
    {
        "city": "Carpina",
        "state": "PE",
        "district": "Santo Antônio",
        "street": "Rua Severino Gomes de Freitas",
        "zipcode": "55816-240"
    },
    {
        "city": "Carpina",
        "state": "PE",
        "district": "Cajá",
        "street": "6ª Travessa dos Emancipadores",
        "zipcode": "55813-426"
    },
    {
        "city": "Carpina",
        "state": "PE",
        "district": "Santo Antônio",
        "street": "Travessa Antônio Coelho Muniz",
        "zipcode": "55816-381"
    },
    {
        "city": "Carpina",
        "state": "PE",
        "district": "Santo Antônio",
        "street": "Rua Adrião Cavalcante de Albuquerque",
        "zipcode": "55816-520"
    },
    {
        "city": "Carpina",
        "state": "PE",
        "district": "Santo Antonio",
        "street": "Rua Ana Guerra",
        "zipcode": "55814-270"
    },
    {
        "city": "Carpina",
        "state": "PE",
        "district": "São José",
        "street": "Rua Bernardo Vieira de Melo",
        "zipcode": "55815-100"
    },
    {
        "city": "Carpina",
        "state": "PE",
        "district": "Cajá",
        "street": "Rua Doutor Jonas Aquino de Lucena",
        "zipcode": "55813-560"
    },
    {
        "city": "Carpina",
        "state": "PE",
        "district": "Santo Antonio",
        "street": "Rua E (Cohab I)",
        "zipcode": "55814-190"
    },
    {
        "city": "Carpina",
        "state": "PE",
        "district": "São José",
        "street": "Rua Farmacêutico José Vasconcelos Pereira",
        "zipcode": "55817-200"
    },
    {
        "city": "Carpina",
        "state": "PE",
        "district": "Santo Antônio",
        "street": "Avenida Francisco Montenegro",
        "zipcode": "55816-450"
    },
    {
        "city": "Carpina",
        "state": "PE",
        "district": "Santo Antonio",
        "street": "Rua G (Cohab I)",
        "zipcode": "55814-180"
    },
    {
        "city": "Carpina",
        "state": "PE",
        "district": "São José",
        "street": "Rua do Ipê Roxo",
        "zipcode": "55817-010"
    },
    {
        "city": "Carpina",
        "state": "PE",
        "district": "Santo Antonio",
        "street": "Rua J (Cohab I)",
        "zipcode": "55814-220"
    },
    {
        "city": "Carpina",
        "state": "PE",
        "district": "São José",
        "street": "Rua das Jaqueiras",
        "zipcode": "55817-080"
    },
    {
        "city": "Carpina",
        "state": "PE",
        "district": "Santo Antonio",
        "street": "Rua Mendes Martins",
        "zipcode": "55814-290"
    },
    {
        "city": "Carpina",
        "state": "PE",
        "district": "Santo Antonio",
        "street": "Rua N (Cohab I)",
        "zipcode": "55814-040"
    },
    {
        "city": "Carpina",
        "state": "PE",
        "district": "Santo Antônio",
        "street": "Rua Jornalista Roberto Marinho (Alameda das Casuarinas",
        "zipcode": "55816-610"
    },
    {
        "city": "Carpina",
        "state": "PE",
        "district": "Senzala",
        "street": "Rua Padre Bartolomeu Arnold",
        "zipcode": "55818-160"
    },
    {
        "city": "Carpina",
        "state": "PE",
        "district": "Santo Antônio",
        "street": "Travessa Padre Melo",
        "zipcode": "55816-311"
    },
    {
        "city": "Carpina",
        "state": "PE",
        "district": "São José",
        "street": "Rua Padre Rocha",
        "zipcode": "55815-140"
    },
    {
        "city": "Carpina",
        "state": "PE",
        "district": "São José",
        "street": "Rua Pastor Francisco Xavier de Brito",
        "zipcode": "55815-030"
    },
    {
        "city": "Carpina",
        "state": "PE",
        "district": "Cajá",
        "street": "Rua Perilo Rangel",
        "zipcode": "55813-520"
    },
    {
        "city": "Carpina",
        "state": "PE",
        "district": "Santo Antônio",
        "street": "Rua Quatro (COHAB II)",
        "zipcode": "55816-570"
    },
    {
        "city": "Carpina",
        "state": "PE",
        "district": "Santo Antonio",
        "street": "Rua R (Cohab I)",
        "zipcode": "55814-120"
    },
    {
        "city": "Carpina",
        "state": "PE",
        "district": "Cajá",
        "street": "Rua Rosita Freire",
        "zipcode": "55813-440"
    },
    {
        "city": "Carpina",
        "state": "PE",
        "district": "São José",
        "street": "Rua Professor Adalberto Teobaldo de Freitas",
        "zipcode": "55815-415"
    },
    {
        "city": "Carpina",
        "state": "PE",
        "district": "São Sebastião",
        "street": "Rua Santo Amaro",
        "zipcode": "55818-645"
    },
    {
        "city": "Carpina",
        "state": "PE",
        "district": "Santo Antônio",
        "street": "Rua Sete (COHAB III)",
        "zipcode": "55816-600"
    },
    {
        "city": "Carpina",
        "state": "PE",
        "district": "Santo Antônio",
        "street": "Rua Severino Marinho dos Santos",
        "zipcode": "55816-690"
    },
    {
        "city": "Carpina",
        "state": "PE",
        "district": "Santo Antonio",
        "street": "Rua Um (Cohab I)",
        "zipcode": "55814-230"
    },
    {
        "city": "Carpina",
        "state": "PE",
        "district": "Senzala",
        "street": "Rua Vereador Felipe Nery",
        "zipcode": "55818-140"
    },
    {
        "city": "Carpina",
        "state": "PE",
        "district": "São Sebastião",
        "street": "Rua Deputado João Teobaldo de Azevedo",
        "zipcode": "55818-520"
    },
    {
        "city": "Carpina",
        "state": "PE",
        "district": "Senzala",
        "street": "Rua Inacio Simão",
        "zipcode": "55818-450"
    },
    {
        "city": "Carpina",
        "state": "PE",
        "district": "Santo Antônio",
        "street": "Praça Santo Antônio",
        "zipcode": "55816-370"
    },
    {
        "city": "Carpina",
        "state": "PE",
        "district": "Santa Cruz",
        "street": "Rua Edise Araújo Freire",
        "zipcode": "55811-050"
    },
    {
        "city": "Carpina",
        "state": "PE",
        "district": "Santa Cruz",
        "street": "Rua Anicássio da Silva Santana (Lot Severino Bione)",
        "zipcode": "55811-040"
    },
    {
        "city": "Carpina",
        "state": "PE",
        "district": "Cajá",
        "street": "Rua José Bernardo da Silva",
        "zipcode": "55813-104"
    },
    {
        "city": "Carpina",
        "state": "PE",
        "district": "Cajá",
        "street": "Rua Célia Gomes Mara",
        "zipcode": "55813-416"
    },
    {
        "city": "Carpina",
        "state": "PE",
        "district": "Cajá",
        "street": "Rua Lupércia Virgínio de Melo (5ª Etapa de Lot Cajá)",
        "zipcode": "55813-102"
    },
    {
        "city": "Carpina",
        "state": "PE",
        "district": "Cajá",
        "street": "Rua Carteiro José Felix dos Santos (5ª Etapa do Lot Cajá)",
        "zipcode": "55813-270"
    },
    {
        "city": "Carpina",
        "state": "PE",
        "district": "São José",
        "street": "Rua Vereador Sérgiorlando Santa Cruz",
        "zipcode": "55817-140"
    },
    {
        "city": "Carpina",
        "state": "PE",
        "district": "Santo Antonio",
        "street": "2ª Travessa Vinte e Um de Abril",
        "zipcode": "55814-673"
    },
    {
        "city": "Carpina",
        "state": "PE",
        "district": "São José",
        "street": "Rua das Acácias",
        "zipcode": "55817-100"
    },
    {
        "city": "Carpina",
        "state": "PE",
        "district": "Bairro Novo",
        "street": "Rua Projetada Cinquenta e Um (Lot Jd Neópolis)",
        "zipcode": "55819-705"
    },
    {
        "city": "Carpina",
        "state": "PE",
        "district": "Bairro Novo",
        "street": "Rua Rubens José da Silva (Jd Neópolis)",
        "zipcode": "55819-780"
    },
    {
        "city": "Carpina",
        "state": "PE",
        "district": "Santa Cruz",
        "street": "Rua Mariza Maria de Souza (Lot Santana)",
        "zipcode": "55811-080"
    },
    {
        "city": "Carpina",
        "state": "PE",
        "district": "Bairro Novo",
        "street": "1ª Travessa Francisco de Paulo Maciel (Jd Neópolis)",
        "zipcode": "55819-091"
    },
    {
        "city": "Carpina",
        "state": "PE",
        "district": "Bairro Novo",
        "street": "Rua José Vicente Pereira Lima (Jd Neópolis)",
        "zipcode": "55819-700"
    },
    {
        "city": "Carpina",
        "state": "PE",
        "district": "Santo Antônio",
        "street": "Rua Araújo de Carvalho",
        "zipcode": "55816-730"
    },
    {
        "city": "Carpina",
        "state": "PE",
        "district": "Santo Antônio",
        "street": "Rua Francisco Rafael Santiago (Lot Júa)",
        "zipcode": "55816-285"
    },
    {
        "city": "Carpina",
        "state": "PE",
        "district": "Bairro Novo",
        "street": "Rua Benedita Ferreira Lima",
        "zipcode": "55819-190"
    },
    {
        "city": "Carpina",
        "state": "PE",
        "district": "São José",
        "street": "2ª Travessa Padre Rocha",
        "zipcode": "55815-142"
    },
    {
        "city": "Carpina",
        "state": "PE",
        "district": "Bairro Novo",
        "street": "2ª Travessa Conselheiro João Alfredo",
        "zipcode": "55819-232"
    },
    {
        "city": "Carpina",
        "state": "PE",
        "district": "Cajá",
        "street": "7ª Travessa José Bonifácio",
        "zipcode": "55813-338"
    },
    {
        "city": "Carpina",
        "state": "PE",
        "district": "Cajá",
        "street": "Rua José Felipe Nery",
        "zipcode": "55813-150"
    },
    {
        "city": "Carpina",
        "state": "PE",
        "district": "Santa Terezinha",
        "street": "Avenida Congresso Eucarístico Internacional",
        "zipcode": "55812-000"
    },
    {
        "city": "Carpina",
        "state": "PE",
        "district": "Bairro Novo",
        "street": "Avenida Congresso Eucarístico Internacional",
        "zipcode": "55819-000"
    },
    {
        "city": "Carpina",
        "state": "PE",
        "district": "São José",
        "street": "Avenida Congresso Eucarístico Internacional",
        "zipcode": "55815-005"
    },
    {
        "city": "Carpina",
        "state": "PE",
        "district": "Santo Antonio",
        "street": "2ª Travessa Benedita Borges da Silva",
        "zipcode": "55814-004"
    },
    {
        "city": "Carpina",
        "state": "PE",
        "district": "Cajá",
        "street": "Rua Rosa Maria da Conceição",
        "zipcode": "55813-106"
    },
    {
        "city": "Carpina",
        "state": "PE",
        "district": "Cajá",
        "street": "5ª Travessa Capitão Oswaldo Freire",
        "zipcode": "55813-098"
    },
    {
        "city": "Carpina",
        "state": "PE",
        "district": "São José",
        "street": "Avenida Estácio Coimbra",
        "zipcode": "55819-908"
    },
    {
        "city": "Carpina",
        "state": "PE",
        "district": "São José",
        "street": "Avenida Estácio Coimbra",
        "zipcode": "55819-907"
    },
    {
        "city": "Carpina",
        "state": "PE",
        "district": "São José",
        "street": "Travessa da Independência",
        "zipcode": "55815-021"
    },
    {
        "city": "Carpina",
        "state": "PE",
        "district": "Santa Cruz",
        "street": "Rua Madre Maria Madalena Fernandes",
        "zipcode": "55811-170"
    },
    {
        "city": "Carpina",
        "state": "PE",
        "district": "Santa Terezinha",
        "street": "Rua Murilo Maciel de Carvalho",
        "zipcode": "55812-050"
    },
    {
        "city": "Carpina",
        "state": "PE",
        "district": "São José",
        "street": "2ª Travessa Nova Descoberta",
        "zipcode": "55815-072"
    },
    {
        "city": "Carpina",
        "state": "PE",
        "district": "São José",
        "street": "1ª Travessa Nova Descoberta",
        "zipcode": "55815-071"
    },
    {
        "city": "Carpina",
        "state": "PE",
        "district": "Cajá",
        "street": "Rua Severino Banja da Silva",
        "zipcode": "55813-590"
    },
    {
        "city": "Carpina",
        "state": "PE",
        "district": "Bairro Novo",
        "street": "2ª Travessa Sizenando Carneiro Leão",
        "zipcode": "55819-222"
    },
    {
        "city": "Carpina",
        "state": "PE",
        "district": "Senzala",
        "street": "Rua Djalma Rodrigues Lima",
        "zipcode": "55818-190"
    },
    {
        "city": "Carpina",
        "state": "PE",
        "district": "Santa Terezinha",
        "street": "Rua Ângela Cristina Canto Pessoa Luna",
        "zipcode": "55812-010"
    },
    {
        "city": "Carpina",
        "state": "PE",
        "district": "Santo Antonio",
        "street": "Rua Severino Maximiano do Nascimento",
        "zipcode": "55814-430"
    },
    {
        "city": "Carpina",
        "state": "PE",
        "district": "Cajá",
        "street": "Rua Carlos Henrique Lacerda de Souza (5ª Etapa do Lot Cajá)",
        "zipcode": "55813-305"
    },
    {
        "city": "Carpina",
        "state": "PE",
        "district": "Bairro Novo",
        "street": "Rua Projetada Cinquenta e Seis (Lot Jd Néopolis)",
        "zipcode": "55819-068"
    },
    {
        "city": "Carpina",
        "state": "PE",
        "district": "Santo Antônio",
        "street": "Rua Josefa Batista da Silva (Lot.N.Sra.Aparecida)",
        "zipcode": "55816-765"
    },
    {
        "city": "Carpina",
        "state": "PE",
        "district": "Bairro Novo",
        "street": "Rua Manoel de Amorim",
        "zipcode": "55819-170"
    },
    {
        "city": "Carpina",
        "state": "PE",
        "district": "Bairro Novo",
        "street": "Rua José Sales (Jd Neópolis)",
        "zipcode": "55819-750"
    },
    {
        "city": "Carpina",
        "state": "PE",
        "district": "Santo Antonio",
        "street": "Rua Aprígio de Araújo Carvalho",
        "zipcode": "55814-680"
    },
    {
        "city": "Carpina",
        "state": "PE",
        "district": "Cajá",
        "street": "Rua Zacarias Guedes da Silva (Lot Carneiro Leão)",
        "zipcode": "55813-260"
    },
    {
        "city": "Carpina",
        "state": "PE",
        "district": "Bairro Novo",
        "street": "Rua Severino Urbâno Pinheiro (Jd Neópolis)",
        "zipcode": "55819-720"
    },
    {
        "city": "Carpina",
        "state": "PE",
        "district": "Madre Rosa",
        "street": "Rua Moacir Gomes Santiago",
        "zipcode": "55817-750"
    },
    {
        "city": "Carpina",
        "state": "PE",
        "district": "Bairro Novo",
        "street": "Rua Joaquim Domingos de Freitas (Jd. Neopólis)",
        "zipcode": "55819-745"
    },
    {
        "city": "Carpina",
        "state": "PE",
        "district": "Madre Rosa",
        "street": "Rua Severina Gonçalves da Silva",
        "zipcode": "55817-760"
    },
    {
        "city": "Carpina",
        "state": "PE",
        "district": "São José",
        "street": "Rua Vila Verde",
        "zipcode": "55817-070"
    },
    {
        "city": "Carpina",
        "state": "PE",
        "district": "Cajá",
        "street": "Rua Maria do Carmo Santos Pereira",
        "zipcode": "55813-250"
    },
    {
        "city": "Carpina",
        "state": "PE",
        "district": "Santa Cruz",
        "street": "Rua Júlia Tavares de Oliveira (Lot Santa Cruz ll)",
        "zipcode": "55811-180"
    },
    {
        "city": "Carpina",
        "state": "PE",
        "district": "São José",
        "street": "4ª Travessa Vereador Sérgiorlando Santa Cruz",
        "zipcode": "55817-144"
    },
    {
        "city": "Carpina",
        "state": "PE",
        "district": "São José",
        "street": "2ª Travessa Vereador Sérgiorlando Santa Cruz",
        "zipcode": "55817-142"
    },
    {
        "city": "Carpina",
        "state": "PE",
        "district": "Santo Antônio",
        "street": "Rua Antônio Coelho Muniz",
        "zipcode": "55816-380"
    },
    {
        "city": "Carpina",
        "state": "PE",
        "district": "Cajá",
        "street": "Rua Neném Mara",
        "zipcode": "55813-415"
    },
    {
        "city": "Carpina",
        "state": "PE",
        "district": "Cajá",
        "street": "Rua Epitácio Carneiro Leão",
        "zipcode": "55813-140"
    },
    {
        "city": "Carpina",
        "state": "PE",
        "district": "Santa Cruz",
        "street": "Rua Evandro Menezes do Rêgo Lima",
        "zipcode": "55811-225"
    },
    {
        "city": "Carpina",
        "state": "PE",
        "district": "São Sebastião",
        "street": "Rua Ana Ester Batista Ramos",
        "zipcode": "55818-575"
    },
    {
        "city": "Carpina",
        "state": "PE",
        "district": "Bairro Novo",
        "street": "Rua Vinte e Um de Outubro",
        "zipcode": "55819-335"
    },
    {
        "city": "Carpina",
        "state": "PE",
        "district": "São José",
        "street": "2ª Travessa José Moisés Vieira da Silva",
        "zipcode": "55817-282"
    },
    {
        "city": "Carpina",
        "state": "PE",
        "district": "Cajá",
        "street": "Rua Professora Maria José Rodrigues de Carvalho (5ª Etapa do Lot Cajá)",
        "zipcode": "55813-555"
    },
    {
        "city": "Carpina",
        "state": "PE",
        "district": "Santa Terezinha",
        "street": "Rua dos Coqueirais",
        "zipcode": "55812-070"
    },
    {
        "city": "Carpina",
        "state": "PE",
        "district": "Cajá",
        "street": "Rua Douglas Silvermont Silva de Oliveira",
        "zipcode": "55813-155"
    },
    {
        "city": "Carpina",
        "state": "PE",
        "district": "Bairro Novo",
        "street": "Rua Araci Carneiro de Araújo (Jd Neópolis)",
        "zipcode": "55819-140"
    },
    {
        "city": "Carpina",
        "state": "PE",
        "district": "Senzala",
        "street": "Rua Padre Augusto Genario de Melo (Três Marias)",
        "zipcode": "55818-335"
    },
    {
        "city": "Carpina",
        "state": "PE",
        "district": "Bairro Novo",
        "street": "Rua José Rubens Feitoza",
        "zipcode": "55819-065"
    },
    {
        "city": "Carpina",
        "state": "PE",
        "district": "Cajá",
        "street": "Rua Antônio Ferreira da Silva (Fumeiro)",
        "zipcode": "55813-180"
    },
    {
        "city": "Carpina",
        "state": "PE",
        "district": "Cajá",
        "street": "Rua José Joaquim da Silva (5ª Etapa do Lot Cajá)",
        "zipcode": "55813-337"
    },
    {
        "city": "Carpina",
        "state": "PE",
        "district": "Bairro Novo",
        "street": "Rua Severino Juliano da Silva",
        "zipcode": "55819-135"
    },
    {
        "city": "Carpina",
        "state": "PE",
        "district": "Santo Antônio",
        "street": "Rua Gabriel Soares da Cruz (Lot N Sra Aparecida)",
        "zipcode": "55816-800"
    },
    {
        "city": "Carpina",
        "state": "PE",
        "district": "Santa Cruz",
        "street": "Rua Antônio José dos Prazeres (Lot Santa Cruz)",
        "zipcode": "55811-250"
    },
    {
        "city": "Carpina",
        "state": "PE",
        "district": "São José",
        "street": "Rua Dom Rinaldi",
        "zipcode": "55815-095"
    },
    {
        "city": "Carpina",
        "state": "PE",
        "district": "Bairro Novo",
        "street": "Rua dos Professores",
        "zipcode": "55819-345"
    },
    {
        "city": "Carpina",
        "state": "PE",
        "district": "Bairro Novo",
        "street": "Rua Lygia Vieira da Cunha (Lot Jardim Neópolis)",
        "zipcode": "55819-035"
    },
    {
        "city": "Carpina",
        "state": "PE",
        "district": "Santo Antônio",
        "street": "Rua Espírito Santos (Lot Morada Bela)",
        "zipcode": "55816-445"
    },
    {
        "city": "Carpina",
        "state": "PE",
        "district": "Cajá",
        "street": "Rua Genésio Trajano da Silva",
        "zipcode": "55813-170"
    },
    {
        "city": "Carpina",
        "state": "PE",
        "district": "Santo Antonio",
        "street": "Rua Padre Augusto Genario de Melo (Três Marias)",
        "zipcode": "55816-405"
    },
    {
        "city": "Carpina",
        "state": "PE",
        "district": "Senzala",
        "street": "Rua Firmo Mendonça Rangel (Lot Carneiro Leão)",
        "zipcode": "55818-067"
    },
    {
        "city": "Carpina",
        "state": "PE",
        "district": "Cohab I",
        "street": "Rua Q",
        "zipcode": "55816-100"
    },
    {
        "city": "Carpina",
        "state": "PE",
        "district": "Santa Cruz",
        "street": "Avenida Congresso Eucarístico Internacional",
        "zipcode": "55811-000"
    },
    {
        "city": "Carpina",
        "state": "PE",
        "district": "Cajá",
        "street": "Rua Firmo Rangel de Lemos",
        "zipcode": "55813-417"
    },
    {
        "city": "Carpina",
        "state": "PE",
        "district": "Bairro Novo",
        "street": "Rua José Honório dos Passos",
        "zipcode": "55819-372"
    },
    {
        "city": "Carpina",
        "state": "PE",
        "district": "Cohab I",
        "street": "Rua V",
        "zipcode": "55816-150"
    },
    {
        "city": "Carpina",
        "state": "PE",
        "district": "Cajá",
        "street": "Rua Vinte (5ª Etapa do Lot Cajá)",
        "zipcode": "55813-315"
    },
    {
        "city": "Carpina",
        "state": "PE",
        "district": "Área Rural de Carpina",
        "street": "Área Rural",
        "zipcode": "55818-899"
    },
    {
        "city": "Carpina",
        "state": "PE",
        "district": "Caja",
        "street": "Rua Maria Isabel Buarque",
        "zipcode": "55813-360"
    },
    {
        "city": "Carpina",
        "state": "PE",
        "district": "Santo Antonio",
        "street": "Rua José Anchieta (Lot Morada Bela)",
        "zipcode": "55816-675"
    },
    {
        "city": "Carpina",
        "state": "PE",
        "district": "Cohab I",
        "street": "Rua B",
        "zipcode": "55816-060"
    },
    {
        "city": "Carpina",
        "state": "PE",
        "district": "Santo Antonio",
        "street": "Rua Manoel Joaquim da Silva (Lot ABC)",
        "zipcode": "55816-312"
    },
    {
        "city": "Carpina",
        "state": "PE",
        "district": "Cohab I",
        "street": "Rua L",
        "zipcode": "55816-080"
    },
    {
        "city": "Carpina",
        "state": "PE",
        "district": "Bairro Novo",
        "street": "Rua João Manoel de Oliveira",
        "zipcode": "55819-330"
    },
    {
        "city": "Carpina",
        "state": "PE",
        "district": "Cajá",
        "street": "9ª Travessa José Bonifácio (5ª Etapa do Lot Cajá)",
        "zipcode": "55813-403"
    },
    {
        "city": "Carpina",
        "state": "PE",
        "district": "São José",
        "street": "Rua Josefa Cabral da Silva",
        "zipcode": "55815-190"
    },
    {
        "city": "Carpina",
        "state": "PE",
        "district": "Cohab I",
        "street": "Rua N",
        "zipcode": "55816-040"
    },
    {
        "city": "Carpina",
        "state": "PE",
        "district": "Senzala",
        "street": "Rua José Inácio Simão",
        "zipcode": "55818-420"
    },
    {
        "city": "Carpina",
        "state": "PE",
        "district": "Senzala",
        "street": "Rua Elza Maria Correia de Oliveira e Silva",
        "zipcode": "55818-250"
    },
    {
        "city": "Carpina",
        "state": "PE",
        "district": "Bairro Novo",
        "street": "Rua Daniel Barbosa da Silva (Lot Jd Neopolis)",
        "zipcode": "55819-753"
    },
    {
        "city": "Carpina",
        "state": "PE",
        "district": "Madre Rosa",
        "street": "Rua Irmã Ana Lucília",
        "zipcode": "55817-730"
    },
    {
        "city": "Carpina",
        "state": "PE",
        "district": "Cohab I",
        "street": "Rua A",
        "zipcode": "55816-050"
    },
    {
        "city": "Carpina",
        "state": "PE",
        "district": "Santo Antonio",
        "street": "Rua Luiza Marques Cavalcante (Lot Morada Bela)",
        "zipcode": "55816-655"
    },
    {
        "city": "Carpina",
        "state": "PE",
        "district": "Sao Jose",
        "street": "Rua Marcilio Dias",
        "zipcode": "55819-690"
    },
    {
        "city": "Carpina",
        "state": "PE",
        "district": "Senzala",
        "street": "Rua Santos Dumont",
        "zipcode": "55813-040"
    },
    {
        "city": "Carpina",
        "state": "PE",
        "district": "Senzala",
        "street": "2A Tv Dantas Barreto",
        "zipcode": "55813-032"
    },
    {
        "city": "Carpina",
        "state": "PE",
        "district": "Vila Ipsep",
        "street": "Rua Josefa Cabral De Lima",
        "zipcode": "55819-165"
    },
    {
        "city": "Carpina",
        "state": "PE",
        "district": "Santo Antonio",
        "street": "Rua Ariano Suassuna (Lot Morada Bela)",
        "zipcode": "55816-648"
    },
    {
        "city": "Carpina",
        "state": "PE",
        "district": "Bairro Novo",
        "street": "Rua Sizenando Carneiro Leao",
        "zipcode": "55819-220"
    },
    {
        "city": "Carpina",
        "state": "PE",
        "district": "Bairro Novo",
        "street": "Avenida Conselheiro Joao Alfredo",
        "zipcode": "55819-230"
    },
    {
        "city": "Carpina",
        "state": "PE",
        "district": "Caja",
        "street": "Rua Dr Ranilson",
        "zipcode": "55813-355"
    },
    {
        "city": "Carpina",
        "state": "PE",
        "district": "Santo Antonio",
        "street": "1A Tv Francisco Viana",
        "zipcode": "55816-271"
    },
    {
        "city": "Carpina",
        "state": "PE",
        "district": "Caja",
        "street": "Travessa Joaquim Pinto Lapa",
        "zipcode": "55813-601"
    },
    {
        "city": "Carpina",
        "state": "PE",
        "district": "Santo Antonio",
        "street": "Rua Governador Eduardo Campos (Lot Morada Bela)",
        "zipcode": "55816-695"
    },
    {
        "city": "Carpina",
        "state": "PE",
        "district": "Senzala",
        "street": "2A Tv Tiradentes",
        "zipcode": "55813-022"
    },
    {
        "city": "Carpina",
        "state": "PE",
        "district": "Bairro Novo",
        "street": "4A Tv Sizenando Carneiro Leao",
        "zipcode": "55819-224"
    },
    {
        "city": "Carpina",
        "state": "PE",
        "district": "Senzala",
        "street": "Rua Senador Paulo Pessoa Guerra",
        "zipcode": "55813-080"
    },
    {
        "city": "Carpina",
        "state": "PE",
        "district": "Cohab I",
        "street": "Rua R",
        "zipcode": "55816-110"
    },
    {
        "city": "Carpina",
        "state": "PE",
        "district": "Cohab I",
        "street": "Rua S",
        "zipcode": "55816-120"
    },
    {
        "city": "Carpina",
        "state": "PE",
        "district": "Senzala",
        "street": "Rua Jose Pimentel",
        "zipcode": "55813-010"
    },
    {
        "city": "Carpina",
        "state": "PE",
        "district": "Bairro Novo",
        "street": "Loteamento Neopolis",
        "zipcode": "55819-451"
    },
    {
        "city": "Carpina",
        "state": "PE",
        "district": "Bairro Novo",
        "street": "Rua Ernesto Ponzio",
        "zipcode": "55819-530"
    },
    {
        "city": "Carpina",
        "state": "PE",
        "district": "Santa Cruz",
        "street": "Rua Adilson Guedes de Oliveira (lot Santa Cruz ll)",
        "zipcode": "55811-085"
    },
    {
        "city": "Carpina",
        "state": "PE",
        "district": "Cohab I",
        "street": "Rua I",
        "zipcode": "55816-190"
    },
    {
        "city": "Carpina",
        "state": "PE",
        "district": "Bairro Novo",
        "street": "Travessa Ernesto Ponzio",
        "zipcode": "55819-531"
    },
    {
        "city": "Carpina",
        "state": "PE",
        "district": "Santo Antonio",
        "street": "Rua José Luiz da Silva (COHAB lll)",
        "zipcode": "55814-558"
    },
    {
        "city": "Carpina",
        "state": "PE",
        "district": "Sao Jose",
        "street": "Rua Vicente Araujo",
        "zipcode": "55819-120"
    },
    {
        "city": "Carpina",
        "state": "PE",
        "district": "Senzala",
        "street": "Travessa Santos Dumont",
        "zipcode": "55813-041"
    },
    {
        "city": "Carpina",
        "state": "PE",
        "district": "Cohab I",
        "street": "Rua U",
        "zipcode": "55816-140"
    },
    {
        "city": "Carpina",
        "state": "PE",
        "district": "Santo Antonio",
        "street": "Rua Luiz Gonzaga (Lot Morada Bela)",
        "zipcode": "55816-688"
    },
    {
        "city": "Carpina",
        "state": "PE",
        "district": "Cajá",
        "street": "Rua Projetada 17 (5ª Etapa do Lot Cajá)",
        "zipcode": "55813-265"
    },
    {
        "city": "Carpina",
        "state": "PE",
        "district": "Senzala",
        "street": "Rua Júlio José Rosa (Lot Carneiro Leão)",
        "zipcode": "55818-425"
    },
    {
        "city": "Carpina",
        "state": "PE",
        "district": "Bairro Novo",
        "street": "Travessa Bela Vista",
        "zipcode": "55819-255"
    },
    {
        "city": "Carpina",
        "state": "PE",
        "district": "Florestinha",
        "street": "Rua Dos Eucaliptos",
        "zipcode": "55819-645"
    },
    {
        "city": "Carpina",
        "state": "PE",
        "district": "Caja",
        "street": "Rua Baependi",
        "zipcode": "55813-660"
    },
    {
        "city": "Carpina",
        "state": "PE",
        "district": "Senzala",
        "street": "Rua Martins Junior",
        "zipcode": "55819-490"
    },
    {
        "city": "Carpina",
        "state": "PE",
        "district": "Cohab I",
        "street": "Rua F",
        "zipcode": "55816-160"
    },
    {
        "city": "Carpina",
        "state": "PE",
        "district": "Bairro Novo",
        "street": "Rua Isabel Teobaldo Pereira",
        "zipcode": "55819-310"
    },
    {
        "city": "Carpina",
        "state": "PE",
        "district": "Senzala",
        "street": "Rua Dantas Barreto",
        "zipcode": "55813-030"
    },
    {
        "city": "Carpina",
        "state": "PE",
        "district": "Vila Ipsep",
        "street": "Rua Oseas Carvalho Oliveira",
        "zipcode": "55819-175"
    },
    {
        "city": "Carpina",
        "state": "PE",
        "district": "Florestinha",
        "street": "Rua Ipe Roxo",
        "zipcode": "55819-655"
    },
    {
        "city": "Carpina",
        "state": "PE",
        "district": "Sao Jose",
        "street": "Avenida Congresso Eucaristico Internacional",
        "zipcode": "55819-200"
    },
    {
        "city": "Carpina",
        "state": "PE",
        "district": "Senzala",
        "street": "Travessa Tiradentes",
        "zipcode": "55813-021"
    },
    {
        "city": "Carpina",
        "state": "PE",
        "district": "Bairro Novo",
        "street": "Rua Dom Bosco",
        "zipcode": "55819-500"
    },
    {
        "city": "Carpina",
        "state": "PE",
        "district": "Caja",
        "street": "Rua Aprigio De Carvalho",
        "zipcode": "55813-680"
    },
    {
        "city": "Carpina",
        "state": "PE",
        "district": "Senzala",
        "street": "Rua Padre Bartolomeu Arnolo",
        "zipcode": "55813-130"
    },
    {
        "city": "Carpina",
        "state": "PE",
        "district": "Senzala",
        "street": "2A Tv Santos Dumont",
        "zipcode": "55813-042"
    },
    {
        "city": "Carpina",
        "state": "PE",
        "district": "Bairro Novo",
        "street": "Rua Murilo Maciel De Carvalho",
        "zipcode": "55819-550"
    },
    {
        "city": "Carpina",
        "state": "PE",
        "district": "Senzala",
        "street": "Rua Frei Miguelinho",
        "zipcode": "55813-650"
    },
    {
        "city": "Carpina",
        "state": "PE",
        "district": "Bairro Novo",
        "street": "Rua Deoclecio Coutinho",
        "zipcode": "55819-620"
    },
    {
        "city": "Carpina",
        "state": "PE",
        "district": "Cohab I",
        "street": "Rua Mendes Martins",
        "zipcode": "55816-280"
    },
    {
        "city": "Carpina",
        "state": "PE",
        "district": "Cohab I",
        "street": "Rua H",
        "zipcode": "55816-180"
    },
    {
        "city": "Carpina",
        "state": "PE",
        "district": "Bairro Novo",
        "street": "1A Tv Sizenando Carneiro Leao",
        "zipcode": "55819-221"
    },
    {
        "city": "Carpina",
        "state": "PE",
        "district": "Cohab I",
        "street": "Rua Z",
        "zipcode": "55816-010"
    },
    {
        "city": "Carpina",
        "state": "PE",
        "district": "Sao Jose",
        "street": "Travessa Da Independencia",
        "zipcode": "55819-021"
    },
    {
        "city": "Carpina",
        "state": "PE",
        "district": "Caja",
        "street": "Praça Lourival Da Silva Bastos",
        "zipcode": "55813-345"
    },
    {
        "city": "Carpina",
        "state": "PE",
        "district": "Cohab I",
        "street": "Rua Benedita Borges Da Silva",
        "zipcode": "55816-000"
    },
    {
        "city": "Carpina",
        "state": "PE",
        "district": "Florestinha",
        "street": "Rua Das Palmeiras",
        "zipcode": "55819-685"
    },
    {
        "city": "Carpina",
        "state": "PE",
        "district": "Senzala",
        "street": "Rua Deputado Joao Teobaldo De Azevedo",
        "zipcode": "55813-055"
    },
    {
        "city": "Carpina",
        "state": "PE",
        "district": "Bairro Novo",
        "street": "8A Tv Sizenando Carneiro Leao",
        "zipcode": "55819-228"
    },
    {
        "city": "Carpina",
        "state": "PE",
        "district": "Bairro Novo",
        "street": "3A Tv Sizenando Carneiro Leao",
        "zipcode": "55819-223"
    },
    {
        "city": "Carpina",
        "state": "PE",
        "district": "Bairro Novo",
        "street": "Rua Presidente Eurico Chaves",
        "zipcode": "55819-290"
    },
    {
        "city": "Carpina",
        "state": "PE",
        "district": "Florestinha",
        "street": "Rua Pau Brasil",
        "zipcode": "55819-695"
    },
    {
        "city": "Carpina",
        "state": "PE",
        "district": "Bairro Novo",
        "street": "Rua Cobal",
        "zipcode": "55819-430"
    },
    {
        "city": "Carpina",
        "state": "PE",
        "district": "Sao Jose",
        "street": "2A Tv Nova Descoberta",
        "zipcode": "55819-072"
    },
    {
        "city": "Carpina",
        "state": "PE",
        "district": "Caja",
        "street": "2A Tv Vinte E Um De Abril",
        "zipcode": "55813-673"
    },
    {
        "city": "Carpina",
        "state": "PE",
        "district": "Sao Jose",
        "street": "1A Tv Nova Descoberta",
        "zipcode": "55819-071"
    },
    {
        "city": "Carpina",
        "state": "PE",
        "district": "Bairro Novo",
        "street": "Rua Baltazar Pinto",
        "zipcode": "55819-280"
    },
    {
        "city": "Carpina",
        "state": "PE",
        "district": "Bairro Novo",
        "street": "Rua Airton Sena Do Brasil",
        "zipcode": "55819-295"
    },
    {
        "city": "Carpina",
        "state": "PE",
        "district": "Bairro Novo",
        "street": "Avenida Santa Cruz",
        "zipcode": "55819-650"
    },
    {
        "city": "Carpina",
        "state": "PE",
        "district": "Caja",
        "street": "Praça Murilo Silva",
        "zipcode": "55813-510"
    },
    {
        "city": "Carpina",
        "state": "PE",
        "district": "Bairro Novo",
        "street": "6A Tv Sizenando Carneiro Leao",
        "zipcode": "55819-226"
    },
    {
        "city": "Carpina",
        "state": "PE",
        "district": "Cohab I",
        "street": "Rua J",
        "zipcode": "55816-200"
    },
    {
        "city": "Carpina",
        "state": "PE",
        "district": "Caja",
        "street": "Praça Joaquim Nabuco",
        "zipcode": "55813-470"
    },
    {
        "city": "Carpina",
        "state": "PE",
        "district": "Florestinha",
        "street": "Rua Das Acacias",
        "zipcode": "55819-725"
    },
    {
        "city": "Carpina",
        "state": "PE",
        "district": "Senzala",
        "street": "Rua Do Curtume",
        "zipcode": "55813-065"
    },
    {
        "city": "Carpina",
        "state": "PE",
        "district": "Vila Ipsep",
        "street": "Rua Vereador Sergio Orlando Santa Cruz",
        "zipcode": "55819-150"
    },
    {
        "city": "Carpina",
        "state": "PE",
        "district": "Senzala",
        "street": "Rua Padre Joao Ribeiro",
        "zipcode": "55813-060"
    },
    {
        "city": "Carpina",
        "state": "PE",
        "district": "Cohab I",
        "street": "Rua G",
        "zipcode": "55816-170"
    },
    {
        "city": "Carpina",
        "state": "PE",
        "district": "Santa Cruz",
        "street": "Avenida Santa Cruz",
        "zipcode": "55811-010"
    },
    {
        "city": "Carpina",
        "state": "PE",
        "district": "Santa Cruz",
        "street": "Rua José Antônio de Lima (Lot Santana)",
        "zipcode": "55811-070"
    },
    {
        "city": "Carpina",
        "state": "PE",
        "district": "Bairro Novo",
        "street": "Rua José Firmino (Jd Neópolis)",
        "zipcode": "55819-760"
    },
    {
        "city": "Carpina",
        "state": "PE",
        "district": "Senzala",
        "street": "1ª Travessa Martins Júnior",
        "zipcode": "55818-011"
    },
    {
        "city": "Carpina",
        "state": "PE",
        "district": "Senzala",
        "street": "Rua Antônio Carneiro Cézar Menezes",
        "zipcode": "55818-025"
    },
    {
        "city": "Carpina",
        "state": "PE",
        "district": "São Sebastião",
        "street": "Rua Frei Miguelinho",
        "zipcode": "55818-603"
    },
    {
        "city": "Carpina",
        "state": "PE",
        "district": "Santa Cruz",
        "street": "Rua Professora Amélia Lemos",
        "zipcode": "55811-220"
    },
    {
        "city": "Carpina",
        "state": "PE",
        "district": "Santo Antonio",
        "street": "1ª Travessa Benedita Borges da Silva",
        "zipcode": "55814-002"
    },
    {
        "city": "Carpina",
        "state": "PE",
        "district": "Bairro Novo",
        "street": "6ª Travessa José Jaime Coutinho Dias",
        "zipcode": "55819-386"
    },
    {
        "city": "Carpina",
        "state": "PE",
        "district": "São José",
        "street": "3ª Travessa Vereador Sérgiorlando Santa Cruz",
        "zipcode": "55817-143"
    },
    {
        "city": "Carpina",
        "state": "PE",
        "district": "Bairro Novo",
        "street": "Avenida Conselheiro João Alfredo",
        "zipcode": "55819-904"
    },
    {
        "city": "Carpina",
        "state": "PE",
        "district": "Santo Antônio",
        "street": "Travessa Antônio Bezerra de Menezes",
        "zipcode": "55816-361"
    },
    {
        "city": "Carpina",
        "state": "PE",
        "district": "Santo Antonio",
        "street": "Rua Antônio Carneiro da Silva",
        "zipcode": "55814-670"
    },
    {
        "city": "Carpina",
        "state": "PE",
        "district": "Cajá",
        "street": "Rua João Saturnino Cavalcanti",
        "zipcode": "55813-430"
    },
    {
        "city": "Carpina",
        "state": "PE",
        "district": "Santo Antônio",
        "street": "Rua José Machado Ferreira",
        "zipcode": "55816-480"
    },
    {
        "city": "Carpina",
        "state": "PE",
        "district": "Sao Jose",
        "street": "Rua Bernardo Vieira De Melo",
        "zipcode": "55819-100"
    },
    {
        "city": "Carpina",
        "state": "PE",
        "district": "Cohab I",
        "street": "Travessa Mendes Martins",
        "zipcode": "55816-281"
    },
    {
        "city": "Carpina",
        "state": "PE",
        "district": "Bairro Novo",
        "street": "5A Tv Sizenando Carneiro Leao",
        "zipcode": "55819-225"
    },
    {
        "city": "Carpina",
        "state": "PE",
        "district": "Bairro Novo",
        "street": "Rua Lourival Da Silva Bastos",
        "zipcode": "55819-510"
    },
    {
        "city": "Carpina",
        "state": "PE",
        "district": "Cajá",
        "street": "Rua Maria José Deodato da Silva",
        "zipcode": "55813-665"
    },
    {
        "city": "Carpina",
        "state": "PE",
        "district": "Cohab I",
        "street": "Rua P",
        "zipcode": "55816-090"
    },
    {
        "city": "Carpina",
        "state": "PE",
        "district": "Senzala",
        "street": "Travessa Dantas Barreto",
        "zipcode": "55813-031"
    },
    {
        "city": "Carpina",
        "state": "PE",
        "district": "Santo Antonio",
        "street": "Rua Dr Freire Filho",
        "zipcode": "55816-660"
    },
    {
        "city": "Carpina",
        "state": "PE",
        "district": "Bairro Novo",
        "street": "Rua Angela Cristina",
        "zipcode": "55819-285"
    },
    {
        "city": "Carpina",
        "state": "PE",
        "district": "Bairro Novo",
        "street": "Rua Madre Maria Madalena Fernandes",
        "zipcode": "55819-210"
    },
    {
        "city": "Carpina",
        "state": "PE",
        "district": "São José",
        "street": "Rua Severina Tavares da Silva (Lot. Senhor do Bomfim)",
        "zipcode": "55815-065"
    },
    {
        "city": "Carpina",
        "state": "PE",
        "district": "Senzala",
        "street": "Rua Mãe Rainha (Lot Carneiro Leão)",
        "zipcode": "55818-020"
    },
    {
        "city": "Carpina",
        "state": "PE",
        "district": "Caja",
        "street": "Rua Odom Benicio De Miranda",
        "zipcode": "55813-335"
    },
    {
        "city": "Carpina",
        "state": "PE",
        "district": "Cajá",
        "street": "4ª Travessa José Bonifácio (5ª Etapa do Lot Cajá)",
        "zipcode": "55813-331"
    },
    {
        "city": "Carpina",
        "state": "PE",
        "district": "Santo Antonio",
        "street": "Rua Senador Sérgio Guerra (Lot Morada Nova)",
        "zipcode": "55816-645"
    },
    {
        "city": "Carpina",
        "state": "PE",
        "district": "Vila Ipsep",
        "street": "Rua Luis Otavio Guerra",
        "zipcode": "55819-155"
    },
    {
        "city": "Carpina",
        "state": "PE",
        "district": "Cohab I",
        "street": "Rua T",
        "zipcode": "55816-130"
    },
    {
        "city": "Carpina",
        "state": "PE",
        "district": "Florestinha",
        "street": "Rua Guabirabas",
        "zipcode": "55819-665"
    },
    {
        "city": "Carpina",
        "state": "PE",
        "district": "Cohab I",
        "street": "Rua E",
        "zipcode": "55816-175"
    },
    {
        "city": "Carpina",
        "state": "PE",
        "district": "São José",
        "street": "Rua Maria da Paz Figueredo Falcão (Lot. Senhor do Bomfim)",
        "zipcode": "55815-077"
    },
    {
        "city": "Carpina",
        "state": "PE",
        "district": "São José",
        "street": "Rua José Pereira Barbosa (Lot. Senhor do Bomfim)",
        "zipcode": "55815-083"
    },
    {
        "city": "Carpina",
        "state": "PE",
        "district": "Senzala",
        "street": "Rua Joao Ribeiro",
        "zipcode": "55813-050"
    },
    {
        "city": "Carpina",
        "state": "PE",
        "district": "Cohab I",
        "street": "Rua O",
        "zipcode": "55816-020"
    },
    {
        "city": "Carpina",
        "state": "PE",
        "district": "Cohab I",
        "street": "Rua M",
        "zipcode": "55816-030"
    },
    {
        "city": "Carpina",
        "state": "PE",
        "district": "Caja",
        "street": "1A Tv Vinte E Um De Abril",
        "zipcode": "55813-672"
    },
    {
        "city": "Carpina",
        "state": "PE",
        "district": "Bairro Novo",
        "street": "Rua José Luiz Ferreira de Moura",
        "zipcode": "55819-743"
    },
    {
        "city": "Carpina",
        "state": "PE",
        "district": "Senzala",
        "street": "Rua Tiradentes",
        "zipcode": "55813-020"
    },
    {
        "city": "Carpina",
        "state": "PE",
        "district": "Santo Antonio",
        "street": "Rua Nove",
        "zipcode": "55816-620"
    },
    {
        "city": "Carpina",
        "state": "PE",
        "district": "Vila Ipsep",
        "street": "Travessa Maria De Araujo Gulart",
        "zipcode": "55819-191"
    },
    {
        "city": "Carpina",
        "state": "PE",
        "district": "Caja",
        "street": "Rua Antonio Cavalcante De Albuquerque",
        "zipcode": "55813-365"
    },
    {
        "city": "Carpina",
        "state": "PE",
        "district": "Cajá",
        "street": "Rua Projetada 01 (5ª Etapa do Lot Cajá)",
        "zipcode": "55813-275"
    },
    {
        "city": "Carpina",
        "state": "PE",
        "district": "Bairro Novo",
        "street": "Rua Edise Araujo Freire",
        "zipcode": "55819-305"
    },
    {
        "city": "Carpina",
        "state": "PE",
        "district": "Bairro Novo",
        "street": "Rua Severino Bione",
        "zipcode": "55819-580"
    },
    {
        "city": "Carpina",
        "state": "PE",
        "district": "Senzala",
        "street": "Rua Pastor Jose Joaquim Dos Santos",
        "zipcode": "55813-070"
    },
    {
        "city": "Carpina",
        "state": "PE",
        "district": "Cohab I",
        "street": "Rua C",
        "zipcode": "55816-070"
    }
]