[
    {
        "city": "Goiana",
        "state": "PE",
        "district": "Centro",
        "street": "Rua da Telpe s/n",
        "zipcode": "55900-971"
    },
    {
        "city": "Goiana",
        "state": "PE",
        "district": "Centro",
        "street": "Rua São Jorge 60",
        "zipcode": "55900-972"
    },
    {
        "city": "Goiana",
        "state": "PE",
        "district": "Centro",
        "street": "Rua da Igreja s/n",
        "zipcode": "55900-973"
    },
    {
        "city": "Goiana",
        "state": "PE",
        "district": "Centro",
        "street": "Rua da Matriz s/n",
        "zipcode": "55900-974"
    },
    {
        "city": "Goiana",
        "state": "PE",
        "district": "Centro",
        "street": "Praça Duque de Caxias 584",
        "zipcode": "55900-970"
    },
    {
        "city": "Goiana",
        "state": "PE",
        "district": "Pontas de Pedra",
        "street": "Rua do Meio s/n",
        "zipcode": "55908-970"
    },
    {
        "city": "Goiana",
        "state": "PE",
        "district": "Tejucopapo",
        "street": "Avenida Goiana s/n",
        "zipcode": "55905-970"
    },
    {
        "city": "Goiana",
        "state": "PE",
        "district": null,
        "street": "Avenida Goiana s/n",
        "zipcode": "55905-990"
    },
    {
        "city": "Goiana",
        "state": "PE",
        "district": null,
        "street": "Rua do Meio",
        "zipcode": "55908-990"
    },
    {
        "city": "Goiana",
        "state": "PE",
        "district": "",
        "street": "",
        "zipcode": "55900-000"
    },
    {
        "city": "Goiana",
        "state": "PE",
        "district": "Povoado de Carne de Vaca",
        "street": "Rua São Jorge 60",
        "zipcode": "55900-975"
    }
]