[
    {
        "city": "Ipojuca",
        "state": "PE",
        "district": "Distrito de Camela",
        "street": "Praça Afonso Luiz Soares",
        "zipcode": "55595-976"
    },
    {
        "city": "Ipojuca",
        "state": "PE",
        "district": "Nossa Senhora do O",
        "street": "Rua do Colégio 20",
        "zipcode": "55592-972"
    },
    {
        "city": "Ipojuca",
        "state": "PE",
        "district": "Centro",
        "street": "Loteamento Santo Cristo s/n",
        "zipcode": "55590-971"
    },
    {
        "city": "Ipojuca",
        "state": "PE",
        "district": null,
        "street": "Rua Projetada",
        "zipcode": "55592-991"
    },
    {
        "city": "Ipojuca",
        "state": "PE",
        "district": null,
        "street": "Rua Projetada s/n",
        "zipcode": "55592-992"
    },
    {
        "city": "Ipojuca",
        "state": "PE",
        "district": "Centro",
        "street": "Rua Coronel João Souza Leão 20",
        "zipcode": "55590-970"
    },
    {
        "city": "Ipojuca",
        "state": "PE",
        "district": "Camela",
        "street": "Rua Posto Telefonico s/n",
        "zipcode": "55595-970"
    },
    {
        "city": "Ipojuca",
        "state": "PE",
        "district": null,
        "street": "Vila dos Pescadores",
        "zipcode": "55590-990"
    },
    {
        "city": "Ipojuca",
        "state": "PE",
        "district": "Distrito de Camela",
        "street": "Rua Posto Telefonico Camela",
        "zipcode": "55595-975"
    },
    {
        "city": "Ipojuca",
        "state": "PE",
        "district": "",
        "street": "",
        "zipcode": "55590-000"
    },
    {
        "city": "Ipojuca",
        "state": "PE",
        "district": "Porto de Galinhas",
        "street": "Rua dos Navegantes 26",
        "zipcode": "55592-970"
    },
    {
        "city": "Ipojuca",
        "state": "PE",
        "district": "Suape",
        "street": "Avenida Portuaria s/n",
        "zipcode": "55594-900"
    }
]