[
    {
        "city": "Jaboatao dos Guararapes",
        "state": "PE",
        "district": "Piedade",
        "street": "Rua Lua Cheia",
        "zipcode": "54420-712"
    },
    {
        "city": "Jaboatao dos Guararapes",
        "state": "PE",
        "district": "Guararapes",
        "street": "2ª Travessa do Patrocínio",
        "zipcode": "54325-487"
    },
    {
        "city": "Jaboatao dos Guararapes",
        "state": "PE",
        "district": "Candeias",
        "street": "Rua Planeta (Lot Prq Olho Dágua)",
        "zipcode": "54440-586"
    },
    {
        "city": "Jaboatao dos Guararapes",
        "state": "PE",
        "district": "Barra de Jangada",
        "street": "Rua Litoral (Lot Terra Mar)",
        "zipcode": "54490-650"
    },
    {
        "city": "Jaboatao dos Guararapes",
        "state": "PE",
        "district": "Guararapes",
        "street": "2ª Travessa da Creche (Com Crg do Balaio)",
        "zipcode": "54325-594"
    },
    {
        "city": "Jaboatao dos Guararapes",
        "state": "PE",
        "district": "Barra de Jangada",
        "street": "Rua Matapagi (Lot Terra Mar)",
        "zipcode": "54490-695"
    },
    {
        "city": "Jaboatao dos Guararapes",
        "state": "PE",
        "district": "Barra de Jangada",
        "street": "Rua Tatuape (Cond Horiz Barra de Jangada I)",
        "zipcode": "54490-052"
    },
    {
        "city": "Jaboatao dos Guararapes",
        "state": "PE",
        "district": "Centro",
        "street": "Rua Visconde do Rio Branco",
        "zipcode": "54110-145"
    },
    {
        "city": "Jaboatao dos Guararapes",
        "state": "PE",
        "district": "Candeias",
        "street": "Rua Alameda das Palmeiras (Lot Prq Olho Dágua)",
        "zipcode": "54440-584"
    },
    {
        "city": "Jaboatao dos Guararapes",
        "state": "PE",
        "district": "Santana",
        "street": "Via Local VI (Lot Reserva VI Natal)",
        "zipcode": "54160-458"
    },
    {
        "city": "Jaboatao dos Guararapes",
        "state": "PE",
        "district": "Piedade",
        "street": "Rua Professor Francisco Bione",
        "zipcode": "54400-555"
    },
    {
        "city": "Jaboatao dos Guararapes",
        "state": "PE",
        "district": "Santana",
        "street": "Rua Hortencias",
        "zipcode": "54160-554"
    },
    {
        "city": "Jaboatao dos Guararapes",
        "state": "PE",
        "district": "Piedade",
        "street": "Rua Verde Mares",
        "zipcode": "54410-098"
    },
    {
        "city": "Jaboatao dos Guararapes",
        "state": "PE",
        "district": "Centro",
        "street": "Avenida Barao de Lucena",
        "zipcode": "54110-035"
    },
    {
        "city": "Jaboatao dos Guararapes",
        "state": "PE",
        "district": "Centro",
        "street": "Avenida Barao de Lucena",
        "zipcode": "54110-045"
    },
    {
        "city": "Jaboatao dos Guararapes",
        "state": "PE",
        "district": "Curado",
        "street": "Rua Oito (Lot Alphaville)",
        "zipcode": "54270-813"
    },
    {
        "city": "Jaboatao dos Guararapes",
        "state": "PE",
        "district": "Curado",
        "street": "Rua Dez (Lot Alphaville)",
        "zipcode": "54270-817"
    },
    {
        "city": "Jaboatao dos Guararapes",
        "state": "PE",
        "district": "Curado",
        "street": "Rua Doze (Lot Alphaville)",
        "zipcode": "54270-823"
    },
    {
        "city": "Jaboatao dos Guararapes",
        "state": "PE",
        "district": "Curado",
        "street": "Rua Treze (Lot Alphaville)",
        "zipcode": "54270-826"
    },
    {
        "city": "Jaboatao dos Guararapes",
        "state": "PE",
        "district": "Curado",
        "street": "Rua Quinze (Lot Alphaville)",
        "zipcode": "54270-830"
    },
    {
        "city": "Jaboatao dos Guararapes",
        "state": "PE",
        "district": "Jardim Jordao",
        "street": "Rua São Jorge",
        "zipcode": "54320-820"
    },
    {
        "city": "Jaboatao dos Guararapes",
        "state": "PE",
        "district": "Guararapes",
        "street": "Avenida dos Guararapes",
        "zipcode": "54325-012"
    },
    {
        "city": "Jaboatao dos Guararapes",
        "state": "PE",
        "district": "Guararapes",
        "street": "Rua Santo Amaro (Com At da União)",
        "zipcode": "54325-504"
    },
    {
        "city": "Jaboatao dos Guararapes",
        "state": "PE",
        "district": "Guararapes",
        "street": "Rua São José (Com At da União)",
        "zipcode": "54325-514"
    },
    {
        "city": "Jaboatao dos Guararapes",
        "state": "PE",
        "district": "Guararapes",
        "street": "Rua Santa Maria (Com At da Uinão)",
        "zipcode": "54325-518"
    },
    {
        "city": "Jaboatao dos Guararapes",
        "state": "PE",
        "district": "Sucupira",
        "street": "Alto 1 Manoel Carneiro Leão",
        "zipcode": "54280-352"
    },
    {
        "city": "Jaboatao dos Guararapes",
        "state": "PE",
        "district": "Vila Rica",
        "street": "Avenida Tenente",
        "zipcode": "54090-095"
    },
    {
        "city": "Jaboatao dos Guararapes",
        "state": "PE",
        "district": "Guararapes",
        "street": "Rua da Creche (Com Crg do Balaio)",
        "zipcode": "54325-592"
    },
    {
        "city": "Jaboatao dos Guararapes",
        "state": "PE",
        "district": "Guararapes",
        "street": "1ª Travessa São da José (Com At da União)",
        "zipcode": "54325-515"
    },
    {
        "city": "Jaboatao dos Guararapes",
        "state": "PE",
        "district": "Santana",
        "street": "Via Local IV (Lot Reserva VI Natal)",
        "zipcode": "54160-454"
    },
    {
        "city": "Jaboatao dos Guararapes",
        "state": "PE",
        "district": "Centro",
        "street": "1  Travessa Jose Laurentino de Macedo",
        "zipcode": "54100-679"
    },
    {
        "city": "Jaboatao dos Guararapes",
        "state": "PE",
        "district": "Jardim Jordao",
        "street": "Travessa Guararapes",
        "zipcode": "54315-605"
    },
    {
        "city": "Jaboatao dos Guararapes",
        "state": "PE",
        "district": "Guararapes",
        "street": "Travessa do Veiga",
        "zipcode": "54325-043"
    },
    {
        "city": "Jaboatao dos Guararapes",
        "state": "PE",
        "district": "Guararapes",
        "street": "Rua Alto da União (Com At da União)",
        "zipcode": "54325-512"
    },
    {
        "city": "Jaboatao dos Guararapes",
        "state": "PE",
        "district": "Vista Alegre",
        "street": "Rua Visconde do Rio Branco",
        "zipcode": "54080-205"
    },
    {
        "city": "Jaboatao dos Guararapes",
        "state": "PE",
        "district": "Guararapes",
        "street": "2  Travessa Aurino Viana dos Santos (Com At da Uniao)",
        "zipcode": "54325-538"
    },
    {
        "city": "Jaboatao dos Guararapes",
        "state": "PE",
        "district": "Guararapes",
        "street": "1  Travessa Santo Amaro (Com At da Uniao)",
        "zipcode": "54325-507"
    },
    {
        "city": "Jaboatao dos Guararapes",
        "state": "PE",
        "district": "Prazeres",
        "street": "Rua Professor Francisco Bione",
        "zipcode": "54310-315"
    },
    {
        "city": "Jaboatao dos Guararapes",
        "state": "PE",
        "district": "Guararapes",
        "street": "1ª Travessa de Todos os Santos (Com At da União)",
        "zipcode": "54325-508"
    },
    {
        "city": "Jaboatao dos Guararapes",
        "state": "PE",
        "district": "Dois Carneiros",
        "street": "Rua Lacrau",
        "zipcode": "54280-800"
    },
    {
        "city": "Jaboatao dos Guararapes",
        "state": "PE",
        "district": "Guararapes",
        "street": "1ª Travessa da Creche (Com Crg do Balaio)",
        "zipcode": "54325-593"
    },
    {
        "city": "Jaboatao dos Guararapes",
        "state": "PE",
        "district": "Guararapes",
        "street": "3  Travessa Aurino Viana dos Santos (Com At da Uniao)",
        "zipcode": "54325-539"
    },
    {
        "city": "Jaboatao dos Guararapes",
        "state": "PE",
        "district": "Guararapes",
        "street": "4ª Travessa Aurino Viana dos Santos (Com At da União)",
        "zipcode": "54325-540"
    },
    {
        "city": "Jaboatao dos Guararapes",
        "state": "PE",
        "district": "Guararapes",
        "street": "3ª Travessa da Creche (Com Crg do Balaio)",
        "zipcode": "54325-595"
    },
    {
        "city": "Jaboatao dos Guararapes",
        "state": "PE",
        "district": "Guararapes",
        "street": "1ª Travessa Frei Cassimiro (Com At da União)",
        "zipcode": "54325-516"
    },
    {
        "city": "Jaboatao dos Guararapes",
        "state": "PE",
        "district": "Santana",
        "street": "Via Local I (Lot Reserva VI Natal)",
        "zipcode": "54160-448"
    },
    {
        "city": "Jaboatao dos Guararapes",
        "state": "PE",
        "district": "Curado",
        "street": "Rua Dezessete (Lot Alphaville)",
        "zipcode": "54270-835"
    },
    {
        "city": "Jaboatao dos Guararapes",
        "state": "PE",
        "district": "Guararapes",
        "street": "Estrada Velha do Jordão",
        "zipcode": "54325-055"
    },
    {
        "city": "Jaboatao dos Guararapes",
        "state": "PE",
        "district": "Vila Rica",
        "street": "3  Travessa Boa Esperanca",
        "zipcode": "54100-422"
    },
    {
        "city": "Jaboatao dos Guararapes",
        "state": "PE",
        "district": "Vista Alegre",
        "street": "Avenida Barao de Lucena",
        "zipcode": "54080-105"
    },
    {
        "city": "Jaboatao dos Guararapes",
        "state": "PE",
        "district": "Santana",
        "street": "Via Local III (Lot Reserva VI Natal)",
        "zipcode": "54160-452"
    },
    {
        "city": "Jaboatao dos Guararapes",
        "state": "PE",
        "district": "Manassu",
        "street": "Estrada da Goiabeira",
        "zipcode": "54130-345"
    },
    {
        "city": "Jaboatao dos Guararapes",
        "state": "PE",
        "district": "Guararapes",
        "street": "2ª Travessa dos Guararapes",
        "zipcode": "54325-014"
    },
    {
        "city": "Jaboatao dos Guararapes",
        "state": "PE",
        "district": "Guararapes",
        "street": "Travessa São José (Com At da União)",
        "zipcode": "54325-517"
    },
    {
        "city": "Jaboatao dos Guararapes",
        "state": "PE",
        "district": "Guararapes",
        "street": "1ª Travessa Aurino Viana dos Santos (Com At da Uinão)",
        "zipcode": "54325-537"
    },
    {
        "city": "Jaboatao dos Guararapes",
        "state": "PE",
        "district": "Curado",
        "street": "Rua Dezesseis (Lot Alphaville)",
        "zipcode": "54270-833"
    },
    {
        "city": "Jaboatao dos Guararapes",
        "state": "PE",
        "district": "Curado",
        "street": "Rua Nove (Lot Alphaville)",
        "zipcode": "54270-815"
    },
    {
        "city": "Jaboatao dos Guararapes",
        "state": "PE",
        "district": "Santana",
        "street": "Via Local V (Lot Reserva VI Natal)",
        "zipcode": "54160-546"
    },
    {
        "city": "Jaboatao dos Guararapes",
        "state": "PE",
        "district": "Guararapes",
        "street": "Travessa São Marcos (Com At da Uinão)",
        "zipcode": "54325-503"
    },
    {
        "city": "Jaboatao dos Guararapes",
        "state": "PE",
        "district": "Sucupira",
        "street": "Rua Conde Pereira Carneiro",
        "zipcode": "54280-372"
    },
    {
        "city": "Jaboatao dos Guararapes",
        "state": "PE",
        "district": "Prazeres",
        "street": "Rua Sítio Novo",
        "zipcode": "54325-628"
    },
    {
        "city": "Jaboatao dos Guararapes",
        "state": "PE",
        "district": "Guararapes",
        "street": "Rua do Sossego",
        "zipcode": "54325-716"
    },
    {
        "city": "Jaboatao dos Guararapes",
        "state": "PE",
        "district": "Barra de Jangada",
        "street": "Rua E (Lot Prq Barra)",
        "zipcode": "54470-575"
    },
    {
        "city": "Jaboatao dos Guararapes",
        "state": "PE",
        "district": "Barra de Jangada",
        "street": "Rua São Salvador (Lot Terra Mar)",
        "zipcode": "54490-580"
    },
    {
        "city": "Jaboatao dos Guararapes",
        "state": "PE",
        "district": "Candeias",
        "street": "Rua Elígio Medeiros de Araújo",
        "zipcode": "54450-135"
    },
    {
        "city": "Jaboatao dos Guararapes",
        "state": "PE",
        "district": "Guararapes",
        "street": "Rua Cassimiro (Com Crg do Balaio)",
        "zipcode": "54325-596"
    },
    {
        "city": "Jaboatao dos Guararapes",
        "state": "PE",
        "district": "Cajueiro Seco",
        "street": "Rua Nosso Senhor do Bonfim",
        "zipcode": "54330-612"
    },
    {
        "city": "Jaboatao dos Guararapes",
        "state": "PE",
        "district": "Guararapes",
        "street": "Rua Bela Vista",
        "zipcode": "54325-722"
    },
    {
        "city": "Jaboatao dos Guararapes",
        "state": "PE",
        "district": "Muribeca",
        "street": "1ª Travessa Rosa de Saron (Com Portelinha)",
        "zipcode": "54355-211"
    },
    {
        "city": "Jaboatao dos Guararapes",
        "state": "PE",
        "district": "Muribeca",
        "street": "Rua Estado do Pará (Com Portelinha)",
        "zipcode": "54355-165"
    },
    {
        "city": "Jaboatao dos Guararapes",
        "state": "PE",
        "district": "Marcos Freire",
        "street": "Avenida Rio Combate",
        "zipcode": "54365-525"
    },
    {
        "city": "Jaboatao dos Guararapes",
        "state": "PE",
        "district": "Guararapes",
        "street": "Rua Ipumirim",
        "zipcode": "54325-718"
    },
    {
        "city": "Jaboatao dos Guararapes",
        "state": "PE",
        "district": "Candeias",
        "street": "Rua Lua Cheia",
        "zipcode": "54440-582"
    },
    {
        "city": "Jaboatao dos Guararapes",
        "state": "PE",
        "district": "Barra de Jangada",
        "street": "Rua da Fraternidade",
        "zipcode": "54460-145"
    },
    {
        "city": "Jaboatao dos Guararapes",
        "state": "PE",
        "district": "Muribeca",
        "street": "4ª Travessa Nossa Senhora da Conceição (Com Portelinha)",
        "zipcode": "54355-204"
    },
    {
        "city": "Jaboatao dos Guararapes",
        "state": "PE",
        "district": "Piedade",
        "street": "Rua Brigadeiro Melibeu",
        "zipcode": "54400-135"
    },
    {
        "city": "Jaboatao dos Guararapes",
        "state": "PE",
        "district": "Piedade",
        "street": "5ª Travessa Ibimirim",
        "zipcode": "54410-685"
    },
    {
        "city": "Jaboatao dos Guararapes",
        "state": "PE",
        "district": "Piedade",
        "street": "3ª Travessa Professora Judith Malta Góis",
        "zipcode": "54410-266"
    },
    {
        "city": "Jaboatao dos Guararapes",
        "state": "PE",
        "district": "Piedade",
        "street": "Rua Planeta (Lot Prq Olho Dágua)",
        "zipcode": "54420-708"
    },
    {
        "city": "Jaboatao dos Guararapes",
        "state": "PE",
        "district": "Barra de Jangada",
        "street": "Rua Santo Expedito (Lot Terra Mar)",
        "zipcode": "54490-585"
    },
    {
        "city": "Jaboatao dos Guararapes",
        "state": "PE",
        "district": "Barra de Jangada",
        "street": "Rua Jequitibá",
        "zipcode": "54470-345"
    },
    {
        "city": "Jaboatao dos Guararapes",
        "state": "PE",
        "district": "Guararapes",
        "street": "Rua da Prosperidade (Com Crg do Balaio)",
        "zipcode": "54325-604"
    },
    {
        "city": "Jaboatao dos Guararapes",
        "state": "PE",
        "district": "Guararapes",
        "street": "Travessa Fidelidade",
        "zipcode": "54325-712"
    },
    {
        "city": "Jaboatao dos Guararapes",
        "state": "PE",
        "district": "Muribeca",
        "street": "7ª Travessa Nossa Senhora da Conceição (Com Portelinha)",
        "zipcode": "54355-207"
    },
    {
        "city": "Jaboatao dos Guararapes",
        "state": "PE",
        "district": "Comportas",
        "street": "Rua Cubati",
        "zipcode": "54345-645"
    },
    {
        "city": "Jaboatao dos Guararapes",
        "state": "PE",
        "district": "Guararapes",
        "street": "Travessa Cassimiro (Com Crg do Balaio)",
        "zipcode": "54325-597"
    },
    {
        "city": "Jaboatao dos Guararapes",
        "state": "PE",
        "district": "Prazeres",
        "street": "Rua Guilbues",
        "zipcode": "54335-190"
    },
    {
        "city": "Jaboatao dos Guararapes",
        "state": "PE",
        "district": "Guararapes",
        "street": "Rua Beija",
        "zipcode": "54325-606"
    },
    {
        "city": "Jaboatao dos Guararapes",
        "state": "PE",
        "district": "Marcos Freire",
        "street": "Rua Santa Maria da Boa Vista",
        "zipcode": "54360-116"
    },
    {
        "city": "Jaboatao dos Guararapes",
        "state": "PE",
        "district": "Barra de Jangada",
        "street": "Rua Oriental (Lot Terra Mar)",
        "zipcode": "54490-600"
    },
    {
        "city": "Jaboatao dos Guararapes",
        "state": "PE",
        "district": "Barra de Jangada",
        "street": "Rua Agrestina",
        "zipcode": "54490-357"
    },
    {
        "city": "Jaboatao dos Guararapes",
        "state": "PE",
        "district": "Comportas",
        "street": "Estrada de Comportas 2",
        "zipcode": "54345-515"
    },
    {
        "city": "Jaboatao dos Guararapes",
        "state": "PE",
        "district": "Candeias",
        "street": "Rua Planaltinho",
        "zipcode": "54430-205"
    },
    {
        "city": "Jaboatao dos Guararapes",
        "state": "PE",
        "district": "Muribeca",
        "street": "8ª Travessa Nossa Senhora da Conceição (Com Portelinha)",
        "zipcode": "54355-208"
    },
    {
        "city": "Jaboatao dos Guararapes",
        "state": "PE",
        "district": "Marcos Freire",
        "street": "Rua São José do Belmonte",
        "zipcode": "54360-118"
    },
    {
        "city": "Jaboatao dos Guararapes",
        "state": "PE",
        "district": "Cajueiro Seco",
        "street": "Rua das Flores (Jd Coqueiral)",
        "zipcode": "54330-535"
    },
    {
        "city": "Jaboatao dos Guararapes",
        "state": "PE",
        "district": "Muribeca",
        "street": "2ª Travessa Nossa Senhora da Conceição (Com Portelinha)",
        "zipcode": "54355-202"
    },
    {
        "city": "Jaboatao dos Guararapes",
        "state": "PE",
        "district": "Guararapes",
        "street": "2  Travessa Cassimiro (Com Crg do Balaio)",
        "zipcode": "54325-598"
    },
    {
        "city": "Jaboatao dos Guararapes",
        "state": "PE",
        "district": "Prazeres",
        "street": "Rua Ana Maria Vieira",
        "zipcode": "54335-200"
    },
    {
        "city": "Jaboatao dos Guararapes",
        "state": "PE",
        "district": "Muribeca",
        "street": "1ª Travessa Nossa Senhora da Conceição (Com Portelinha)",
        "zipcode": "54355-201"
    },
    {
        "city": "Jaboatao dos Guararapes",
        "state": "PE",
        "district": "Barra de Jangada",
        "street": "Avenida José da Câmara Vieira",
        "zipcode": "54470-355"
    },
    {
        "city": "Jaboatao dos Guararapes",
        "state": "PE",
        "district": "Guararapes",
        "street": "1ª Travessa Divino Amor",
        "zipcode": "54325-616"
    },
    {
        "city": "Jaboatao dos Guararapes",
        "state": "PE",
        "district": "Marcos Freire",
        "street": "Avenida Rio Cubatão",
        "zipcode": "54365-515"
    },
    {
        "city": "Jaboatao dos Guararapes",
        "state": "PE",
        "district": "Piedade",
        "street": "5ª Travessa Maria do Carmo de Almeida",
        "zipcode": "54410-718"
    },
    {
        "city": "Jaboatao dos Guararapes",
        "state": "PE",
        "district": "Barra de Jangada",
        "street": "Rua dos Pilares (Lot Terra Mar)",
        "zipcode": "54490-575"
    },
    {
        "city": "Jaboatao dos Guararapes",
        "state": "PE",
        "district": "Barra de Jangada",
        "street": "Rua Jorge Amaral (Lot Terra Mar)",
        "zipcode": "54490-595"
    },
    {
        "city": "Jaboatao dos Guararapes",
        "state": "PE",
        "district": "Muribeca",
        "street": "6ª Travessa Nossa Senhora da Conceição (Com Portelinha)",
        "zipcode": "54355-206"
    },
    {
        "city": "Jaboatao dos Guararapes",
        "state": "PE",
        "district": "Comportas",
        "street": "Rua Rondonia",
        "zipcode": "54345-060"
    },
    {
        "city": "Jaboatao dos Guararapes",
        "state": "PE",
        "district": "Prazeres",
        "street": "Rua Colinas",
        "zipcode": "54345-137"
    },
    {
        "city": "Jaboatao dos Guararapes",
        "state": "PE",
        "district": "Barra de Jangada",
        "street": "Rua Alegria (Lot Terra Mar)",
        "zipcode": "54490-675"
    },
    {
        "city": "Jaboatao dos Guararapes",
        "state": "PE",
        "district": "Barra de Jangada",
        "street": "Rua do Eden (Lot Terra Mar)",
        "zipcode": "54490-665"
    },
    {
        "city": "Jaboatao dos Guararapes",
        "state": "PE",
        "district": "Barra de Jangada",
        "street": "Rua Pitanga",
        "zipcode": "54490-670"
    },
    {
        "city": "Jaboatao dos Guararapes",
        "state": "PE",
        "district": "Barra de Jangada",
        "street": "Rua Bom Conselho (Lot Terra Mar)",
        "zipcode": "54490-645"
    },
    {
        "city": "Jaboatao dos Guararapes",
        "state": "PE",
        "district": "Barra de Jangada",
        "street": "Rua dos Louvores (Lot Terra Mar)",
        "zipcode": "54490-620"
    },
    {
        "city": "Jaboatao dos Guararapes",
        "state": "PE",
        "district": "Barra de Jangada",
        "street": "Rua Dona Elvira (Lot Terra Mar)",
        "zipcode": "54490-680"
    },
    {
        "city": "Jaboatao dos Guararapes",
        "state": "PE",
        "district": "Barra de Jangada",
        "street": "Rua Paraiso (Lot Terra Mar)",
        "zipcode": "54490-685"
    },
    {
        "city": "Jaboatao dos Guararapes",
        "state": "PE",
        "district": "Barra de Jangada",
        "street": "Rua dos Salmos (Lot Terra Mar)",
        "zipcode": "54490-690"
    },
    {
        "city": "Jaboatao dos Guararapes",
        "state": "PE",
        "district": "Barra de Jangada",
        "street": "Rua Ubarama (Lot Terra Mar)",
        "zipcode": "54490-700"
    },
    {
        "city": "Jaboatao dos Guararapes",
        "state": "PE",
        "district": "Barra de Jangada",
        "street": "Rua Pajeú (Lot Terra Mar)",
        "zipcode": "54490-610"
    },
    {
        "city": "Jaboatao dos Guararapes",
        "state": "PE",
        "district": "Barra de Jangada",
        "street": "Rua Ocidental (Lot Terra Mar)",
        "zipcode": "54490-605"
    },
    {
        "city": "Jaboatao dos Guararapes",
        "state": "PE",
        "district": "Barra de Jangada",
        "street": "Rua Manoel Menezes de Santana (Lot Terra Mar)",
        "zipcode": "54490-640"
    },
    {
        "city": "Jaboatao dos Guararapes",
        "state": "PE",
        "district": "Barra de Jangada",
        "street": "Rua Cisne Branco (Lot  Terra Mar)",
        "zipcode": "54490-635"
    },
    {
        "city": "Jaboatao dos Guararapes",
        "state": "PE",
        "district": "Barra de Jangada",
        "street": "Rua Elchaday (Lot Terra Mar)",
        "zipcode": "54490-705"
    },
    {
        "city": "Jaboatao dos Guararapes",
        "state": "PE",
        "district": "Barra de Jangada",
        "street": "Rua Capim Santo (Lot Terra Mar)",
        "zipcode": "54490-630"
    },
    {
        "city": "Jaboatao dos Guararapes",
        "state": "PE",
        "district": "Sucupira",
        "street": "Rua Iracema (Lot Sítio Queimadas)",
        "zipcode": "54170-710"
    },
    {
        "city": "Jaboatao dos Guararapes",
        "state": "PE",
        "district": "Curado",
        "street": "Rua Quatorze (Lot Alphaville)",
        "zipcode": "54270-828"
    },
    {
        "city": "Jaboatao dos Guararapes",
        "state": "PE",
        "district": "Guararapes",
        "street": "Rua São Marcos (Com At da União)",
        "zipcode": "54325-502"
    },
    {
        "city": "Jaboatao dos Guararapes",
        "state": "PE",
        "district": "Sucupira",
        "street": "Rua Almirante Saldanha",
        "zipcode": "54280-025"
    },
    {
        "city": "Jaboatao dos Guararapes",
        "state": "PE",
        "district": "Prazeres",
        "street": "Avenida José da Câmara Vieira",
        "zipcode": "54340-440"
    },
    {
        "city": "Jaboatao dos Guararapes",
        "state": "PE",
        "district": "Cajueiro Seco",
        "street": "Rua Beco Dois",
        "zipcode": "54330-357"
    },
    {
        "city": "Jaboatao dos Guararapes",
        "state": "PE",
        "district": "Curado",
        "street": "Rua Moranguinho",
        "zipcode": "54270-840"
    },
    {
        "city": "Jaboatao dos Guararapes",
        "state": "PE",
        "district": "Guararapes",
        "street": "5ª Travessa Aurino Viana dos Santos (Com At da Uinão)",
        "zipcode": "54325-541"
    },
    {
        "city": "Jaboatao dos Guararapes",
        "state": "PE",
        "district": "Guararapes",
        "street": "Travessa Sao Lafaeite (Com At da Uniao)",
        "zipcode": "54325-521"
    },
    {
        "city": "Jaboatao dos Guararapes",
        "state": "PE",
        "district": "Guararapes",
        "street": "1ª Travessa Guararapes",
        "zipcode": "54325-013"
    },
    {
        "city": "Jaboatao dos Guararapes",
        "state": "PE",
        "district": "Guararapes",
        "street": "2ª Travessa de Todos os Santos (Com At da União)",
        "zipcode": "54325-509"
    },
    {
        "city": "Jaboatao dos Guararapes",
        "state": "PE",
        "district": "Dois Carneiros",
        "street": "Avenida Chapada do Araripe",
        "zipcode": "54280-820"
    },
    {
        "city": "Jaboatao dos Guararapes",
        "state": "PE",
        "district": "Guararapes",
        "street": "Rua Caiçara",
        "zipcode": "54325-714"
    },
    {
        "city": "Jaboatao dos Guararapes",
        "state": "PE",
        "district": "Centro",
        "street": "Avenida Barao de Lucena",
        "zipcode": "54110-005"
    },
    {
        "city": "Jaboatao dos Guararapes",
        "state": "PE",
        "district": "Curado",
        "street": "Rua Onze (Lot Alphaville)",
        "zipcode": "54270-820"
    },
    {
        "city": "Jaboatao dos Guararapes",
        "state": "PE",
        "district": "Guararapes",
        "street": "Rua da Mangueira (Com Crg do Balaio)",
        "zipcode": "54325-602"
    },
    {
        "city": "Jaboatao dos Guararapes",
        "state": "PE",
        "district": "Santana",
        "street": "Via Local II (Lot Reserva VI Natal)",
        "zipcode": "54160-449"
    },
    {
        "city": "Jaboatao dos Guararapes",
        "state": "PE",
        "district": "Barra de Jangada",
        "street": "Rua Novo Horizonte (Lot Terra Mar)",
        "zipcode": "54490-655"
    },
    {
        "city": "Jaboatao dos Guararapes",
        "state": "PE",
        "district": "Barra de Jangada",
        "street": "Rua Jabaquara (Cond Horiz Barra de Jangada I)",
        "zipcode": "54490-048"
    },
    {
        "city": "Jaboatao dos Guararapes",
        "state": "PE",
        "district": "Muribeca",
        "street": "1ª Travessa Estado do Maranhão (Com Portelinha)",
        "zipcode": "54355-181"
    },
    {
        "city": "Jaboatao dos Guararapes",
        "state": "PE",
        "district": "Marcos Freire",
        "street": "Rua Rio Corumba",
        "zipcode": "54365-495"
    },
    {
        "city": "Jaboatao dos Guararapes",
        "state": "PE",
        "district": "Piedade",
        "street": "Rua Jarangari",
        "zipcode": "54420-120"
    },
    {
        "city": "Jaboatao dos Guararapes",
        "state": "PE",
        "district": "Muribeca",
        "street": "3ª Travessa Nossa Senhora da Conceição (Com Portelinha)",
        "zipcode": "54355-203"
    },
    {
        "city": "Jaboatao dos Guararapes",
        "state": "PE",
        "district": "Muribeca",
        "street": "5ª Travessa Nossa Senhora da Conceição (Com Portelinha)",
        "zipcode": "54355-205"
    },
    {
        "city": "Jaboatao dos Guararapes",
        "state": "PE",
        "district": "Piedade",
        "street": "Rua Projetada 0009",
        "zipcode": "54410-215"
    },
    {
        "city": "Jaboatao dos Guararapes",
        "state": "PE",
        "district": "Barra de Jangada",
        "street": "Rua dos Coqueiros (Lot Terra Mar)",
        "zipcode": "54490-625"
    },
    {
        "city": "Jaboatao dos Guararapes",
        "state": "PE",
        "district": "Barra de Jangada",
        "street": "Rua Belas Flores (Lot Terra Mar)",
        "zipcode": "54490-590"
    }
]