[
    {
        "city": "Pesqueira",
        "state": "PE",
        "district": null,
        "street": "Rua Constâncio Dovaizem",
        "zipcode": "55215-990"
    },
    {
        "city": "Pesqueira",
        "state": "PE",
        "district": "Distrito Salobro",
        "street": "Rua Nova s/n",
        "zipcode": "55220-970"
    },
    {
        "city": "Pesqueira",
        "state": "PE",
        "district": "Centro",
        "street": "Rua Cardeal Arcoverde 87",
        "zipcode": "55200-970"
    },
    {
        "city": "Pesqueira",
        "state": "PE",
        "district": "Mutuca",
        "street": "Rua São Francisco s/n",
        "zipcode": "55210-970"
    },
    {
        "city": "Pesqueira",
        "state": "PE",
        "district": "Cimbres",
        "street": "Rua Cardeal Arcoverde s/n",
        "zipcode": "55205-970"
    },
    {
        "city": "Pesqueira",
        "state": "PE",
        "district": null,
        "street": "Rua Nova",
        "zipcode": "55200-990"
    },
    {
        "city": "Pesqueira",
        "state": "PE",
        "district": null,
        "street": "Rua São Francisco",
        "zipcode": "55210-990"
    },
    {
        "city": "Pesqueira",
        "state": "PE",
        "district": "",
        "street": "",
        "zipcode": "55200-000"
    },
    {
        "city": "Pesqueira",
        "state": "PE",
        "district": "Papagaio",
        "street": "Rua Constâncio Dovaizim s/n",
        "zipcode": "55215-970"
    },
    {
        "city": "Pesqueira",
        "state": "PE",
        "district": null,
        "street": "Rua da Creche",
        "zipcode": "55205-990"
    },
    {
        "city": "Pesqueira",
        "state": "PE",
        "district": "Mimoso",
        "street": "Sítio Climério s/n",
        "zipcode": "55225-970"
    },
    {
        "city": "Pesqueira",
        "state": "PE",
        "district": null,
        "street": "Avenida Antonio Rosa da Silva",
        "zipcode": "55200-991"
    },
    {
        "city": "Pesqueira",
        "state": "PE",
        "district": "Ipanema",
        "street": "Praça Leopoldo de Carvalho s/n",
        "zipcode": "55200-975"
    }
]