[
    {
        "city": "Riacho das Almas",
        "state": "PE",
        "district": null,
        "street": "Povoado Vila do Vitorino",
        "zipcode": "55120-992"
    },
    {
        "city": "Riacho das Almas",
        "state": "PE",
        "district": "Centro",
        "street": "Rua Doutor Manoel Borba 12",
        "zipcode": "55120-970"
    },
    {
        "city": "Riacho das Almas",
        "state": "PE",
        "district": "Trapiá",
        "street": "Vila Trapiá s/n",
        "zipcode": "55122-970"
    },
    {
        "city": "Riacho das Almas",
        "state": "PE",
        "district": "",
        "street": "",
        "zipcode": "55120-000"
    },
    {
        "city": "Riacho das Almas",
        "state": "PE",
        "district": "Centro",
        "street": "Vila do Vitorino s/n",
        "zipcode": "55120-973"
    },
    {
        "city": "Riacho das Almas",
        "state": "PE",
        "district": "Couro Dantas",
        "street": "Vila Couro Dantas s/n",
        "zipcode": "55121-971"
    },
    {
        "city": "Riacho das Almas",
        "state": "PE",
        "district": "Distrito Vila de Pinhões",
        "street": "Vila de Pinhoes s/n",
        "zipcode": "55120-972"
    },
    {
        "city": "Riacho das Almas",
        "state": "PE",
        "district": null,
        "street": "Povoado Vila do Rangel",
        "zipcode": "55120-990"
    },
    {
        "city": "Riacho das Almas",
        "state": "PE",
        "district": null,
        "street": "Povoado Vila Trapiá",
        "zipcode": "55122-990"
    },
    {
        "city": "Riacho das Almas",
        "state": "PE",
        "district": null,
        "street": "Povoado de Pinhões",
        "zipcode": "55120-991"
    },
    {
        "city": "Riacho das Almas",
        "state": "PE",
        "district": "Povoado Rangel",
        "street": "Rua Povoado de Rangel s/n",
        "zipcode": "55120-971"
    },
    {
        "city": "Riacho das Almas",
        "state": "PE",
        "district": null,
        "street": "Povoado Vila Couro DAntas",
        "zipcode": "55121-990"
    }
]