[
    {
        "city": "Sanharó",
        "state": "PE",
        "district": null,
        "street": "Rua Manoel Raimundo Oliveira",
        "zipcode": "55255-990"
    },
    {
        "city": "Sanharó",
        "state": "PE",
        "district": "Centro",
        "street": "Rua Coronel Júlio Nunes 50",
        "zipcode": "55250-970"
    },
    {
        "city": "Sanharó",
        "state": "PE",
        "district": "",
        "street": "",
        "zipcode": "55250-000"
    },
    {
        "city": "Sanharó",
        "state": "PE",
        "district": "Jenipapo",
        "street": "Rua Antônio Júlio Filho s/n",
        "zipcode": "55258-970"
    },
    {
        "city": "Sanharó",
        "state": "PE",
        "district": "Esplendor",
        "street": "Rua Maria Pacífica s/n",
        "zipcode": "55250-971"
    },
    {
        "city": "Sanharó",
        "state": "PE",
        "district": "Distrito de Mulungu",
        "street": "Rua Manoel Raimundo de Oliveira 15",
        "zipcode": "55250-972"
    },
    {
        "city": "Sanharó",
        "state": "PE",
        "district": "Divisão",
        "street": "Sítio Divisão",
        "zipcode": "55250-973"
    },
    {
        "city": "Sanharó",
        "state": "PE",
        "district": null,
        "street": "Rua Principal",
        "zipcode": "55250-991"
    }
]