[
    {
        "city": "Santa Cruz do Capibaribe",
        "state": "PE",
        "district": "Bela Vista",
        "street": "Rua Pirangá",
        "zipcode": "55195-641"
    },
    {
        "city": "Santa Cruz do Capibaribe",
        "state": "PE",
        "district": "Bela Vista",
        "street": "Rua Pedro Fernandes de Moura (Lot C Alta)",
        "zipcode": "55195-740"
    },
    {
        "city": "Santa Cruz do Capibaribe",
        "state": "PE",
        "district": "Malaquias Cardoso",
        "street": "Rua Caleb de Oliveira Carvalho",
        "zipcode": "55190-603"
    },
    {
        "city": "Santa Cruz do Capibaribe",
        "state": "PE",
        "district": "Malaquias Cardoso",
        "street": "Rua Pedro Pereira Diniz",
        "zipcode": "55190-323"
    },
    {
        "city": "Santa Cruz do Capibaribe",
        "state": "PE",
        "district": "Malaquias Cardoso",
        "street": "Rua João Olegário do Nascimento (Lot A Aleixo I",
        "zipcode": "55191-003"
    },
    {
        "city": "Santa Cruz do Capibaribe",
        "state": "PE",
        "district": "Bairro Novo",
        "street": "Rua Major Negrinho",
        "zipcode": "55192-970"
    },
    {
        "city": "Santa Cruz do Capibaribe",
        "state": "PE",
        "district": "Cruz Alta",
        "street": "Rua Tuparetama (Lot São José II)",
        "zipcode": "55195-302"
    },
    {
        "city": "Santa Cruz do Capibaribe",
        "state": "PE",
        "district": "Nova Santa Cruz",
        "street": "Rua João Maria da Silva",
        "zipcode": "55194-396"
    },
    {
        "city": "Santa Cruz do Capibaribe",
        "state": "PE",
        "district": "Bela Vista",
        "street": "Rua Danuaba Felix",
        "zipcode": "55195-653"
    },
    {
        "city": "Santa Cruz do Capibaribe",
        "state": "PE",
        "district": "Dona Dom",
        "street": "Rua Boaventura Bezerra da Silva",
        "zipcode": "55192-536"
    },
    {
        "city": "Santa Cruz do Capibaribe",
        "state": "PE",
        "district": "Centro",
        "street": "Rua Severino Pereira da Silva",
        "zipcode": "55192-190"
    },
    {
        "city": "Santa Cruz do Capibaribe",
        "state": "PE",
        "district": "Santo Agostinho",
        "street": "Rua Professora Doroteia Balbino Aragão (Lot Acauã)",
        "zipcode": "55191-445"
    },
    {
        "city": "Santa Cruz do Capibaribe",
        "state": "PE",
        "district": "Palestina",
        "street": "Rua Nélson João da Silva",
        "zipcode": "55190-058"
    },
    {
        "city": "Santa Cruz do Capibaribe",
        "state": "PE",
        "district": "Palestina",
        "street": "Rua São Joaquim",
        "zipcode": "55190-056"
    },
    {
        "city": "Santa Cruz do Capibaribe",
        "state": "PE",
        "district": "Dona Dom",
        "street": "Rua Deputado Emídio Cavalcante",
        "zipcode": "55192-554"
    },
    {
        "city": "Santa Cruz do Capibaribe",
        "state": "PE",
        "district": "Dona Dom",
        "street": "Rua José Roberto Ramos (Lot D Lica)",
        "zipcode": "55192-654"
    },
    {
        "city": "Santa Cruz do Capibaribe",
        "state": "PE",
        "district": "Bela Vista",
        "street": "Avenida Amaro Manoel das Chagas (Lot C Alta)",
        "zipcode": "55195-749"
    },
    {
        "city": "Santa Cruz do Capibaribe",
        "state": "PE",
        "district": "São Cristovão",
        "street": "Rua Neco Neves",
        "zipcode": "55194-060"
    },
    {
        "city": "Santa Cruz do Capibaribe",
        "state": "PE",
        "district": "Malaquias Cardoso",
        "street": "Rua Severino Roqueira de Siqueira (Lot N Aragão)",
        "zipcode": "55190-776"
    },
    {
        "city": "Santa Cruz do Capibaribe",
        "state": "PE",
        "district": "Santo Agostinho",
        "street": "Rua Cosmana Alcina Tavares (Lot Acauã)",
        "zipcode": "55191-448"
    },
    {
        "city": "Santa Cruz do Capibaribe",
        "state": "PE",
        "district": "Santo Agostinho",
        "street": "Rua Manoel Rodrigues Sobrinho (Lot Sto Agostinho)",
        "zipcode": "55191-582"
    },
    {
        "city": "Santa Cruz do Capibaribe",
        "state": "PE",
        "district": "Centro",
        "street": "Travessa Júlio Moraes",
        "zipcode": "55192-045"
    },
    {
        "city": "Santa Cruz do Capibaribe",
        "state": "PE",
        "district": "Centro",
        "street": "Travessa Nice de Melo",
        "zipcode": "55192-050"
    },
    {
        "city": "Santa Cruz do Capibaribe",
        "state": "PE",
        "district": "Centro",
        "street": "Praça da Bandeira",
        "zipcode": "55192-055"
    },
    {
        "city": "Santa Cruz do Capibaribe",
        "state": "PE",
        "district": "Bairro Novo",
        "street": "Praça Fernando Silvestre Silva",
        "zipcode": "55192-375"
    },
    {
        "city": "Santa Cruz do Capibaribe",
        "state": "PE",
        "district": "Bairro Novo",
        "street": "Rua dos Pacas",
        "zipcode": "55192-425"
    },
    {
        "city": "Santa Cruz do Capibaribe",
        "state": "PE",
        "district": "Dona Dom",
        "street": "Avenida João Pereira de Abreu (Lot D Lica)",
        "zipcode": "55192-630"
    },
    {
        "city": "Santa Cruz do Capibaribe",
        "state": "PE",
        "district": "Dona Dom",
        "street": "Rua Manoel José dos Prazeres (Lot D Dom)",
        "zipcode": "55192-678"
    },
    {
        "city": "Santa Cruz do Capibaribe",
        "state": "PE",
        "district": "Dona Dom",
        "street": "Rua Helena do Nascimento Oliveira (Lot D Dom)",
        "zipcode": "55192-681"
    },
    {
        "city": "Santa Cruz do Capibaribe",
        "state": "PE",
        "district": "Nova Santa Cruz",
        "street": "Rua Enedina Ferreira (Lot Maria Vieira)",
        "zipcode": "55194-526"
    },
    {
        "city": "Santa Cruz do Capibaribe",
        "state": "PE",
        "district": "Nova Santa Cruz",
        "street": "Rua Manoel Gonçalves de Souza Neto (Lot Maria Vieira)",
        "zipcode": "55194-529"
    },
    {
        "city": "Santa Cruz do Capibaribe",
        "state": "PE",
        "district": "Bela Vista",
        "street": "Rua Ladislau Gomes de Araújo",
        "zipcode": "55195-707"
    },
    {
        "city": "Santa Cruz do Capibaribe",
        "state": "PE",
        "district": "Bela Vista",
        "street": "Rua Manuel Hinô da Silva",
        "zipcode": "55195-710"
    },
    {
        "city": "Santa Cruz do Capibaribe",
        "state": "PE",
        "district": "Bela Vista",
        "street": "Rua Secundino Gomes Ribeiro",
        "zipcode": "55195-713"
    },
    {
        "city": "Santa Cruz do Capibaribe",
        "state": "PE",
        "district": "Bela Vista",
        "street": "Avenida Alice Pontes Coelho",
        "zipcode": "55195-716"
    },
    {
        "city": "Santa Cruz do Capibaribe",
        "state": "PE",
        "district": "Bela Vista",
        "street": "Rua Maria Leonor Lourdes Lima",
        "zipcode": "55195-722"
    },
    {
        "city": "Santa Cruz do Capibaribe",
        "state": "PE",
        "district": "Bela Vista",
        "street": "Rua Marksaline Santana da Silva",
        "zipcode": "55195-725"
    },
    {
        "city": "Santa Cruz do Capibaribe",
        "state": "PE",
        "district": "Bela Vista",
        "street": "Rua Cabo Alfredo Mariano da Silva",
        "zipcode": "55195-728"
    },
    {
        "city": "Santa Cruz do Capibaribe",
        "state": "PE",
        "district": "Bela Vista",
        "street": "Rua José Valério do Nascimento",
        "zipcode": "55195-731"
    },
    {
        "city": "Santa Cruz do Capibaribe",
        "state": "PE",
        "district": "Bairro Novo",
        "street": "Rua Cabo Otávio Aragão",
        "zipcode": "55192-355"
    },
    {
        "city": "Santa Cruz do Capibaribe",
        "state": "PE",
        "district": "Oscarzão",
        "street": "Rua do Parque",
        "zipcode": "55193-545"
    },
    {
        "city": "Santa Cruz do Capibaribe",
        "state": "PE",
        "district": "Bela Vista",
        "street": "Rua Ivanildo Silvestre da Silva (Lot N Arruda)",
        "zipcode": "55196-139"
    },
    {
        "city": "Santa Cruz do Capibaribe",
        "state": "PE",
        "district": "Bela Vista",
        "street": "Rua Maria das Dores Ramos do Nascimento (Lot N Arruda)",
        "zipcode": "55196-133"
    },
    {
        "city": "Santa Cruz do Capibaribe",
        "state": "PE",
        "district": "Bela Vista",
        "street": "Rua Helena Neres de Araújo (Lot J C Arruda)",
        "zipcode": "55196-064"
    },
    {
        "city": "Santa Cruz do Capibaribe",
        "state": "PE",
        "district": "Bela Vista",
        "street": "Rua José Mariano Feitosa (Lot J C Arruda)",
        "zipcode": "55196-058"
    },
    {
        "city": "Santa Cruz do Capibaribe",
        "state": "PE",
        "district": "Bela Vista",
        "street": "Rua Margarida Silva (Lot S Miguel)",
        "zipcode": "55195-833"
    },
    {
        "city": "Santa Cruz do Capibaribe",
        "state": "PE",
        "district": "Bela Vista",
        "street": "Rua Pedro e Paulo Alves da Rocha (Lot S Miguel)",
        "zipcode": "55195-803"
    },
    {
        "city": "Santa Cruz do Capibaribe",
        "state": "PE",
        "district": "Dona Dom",
        "street": "Rua Beringue (Lot D Dom)",
        "zipcode": "55192-551"
    },
    {
        "city": "Santa Cruz do Capibaribe",
        "state": "PE",
        "district": "Bela Vista",
        "street": "Rua João Gomes Feitosa (Lot Sta Cruz C Alta)",
        "zipcode": "55195-746"
    },
    {
        "city": "Santa Cruz do Capibaribe",
        "state": "PE",
        "district": "Bela Vista",
        "street": "Rua Eudes Nunes de Araújo (Lot Sta Cruz C Alta)",
        "zipcode": "55195-752"
    },
    {
        "city": "Santa Cruz do Capibaribe",
        "state": "PE",
        "district": "Bela Vista",
        "street": "Rua Pedro Pereira Torres (Lot Sao Miguel II)",
        "zipcode": "55195-758"
    },
    {
        "city": "Santa Cruz do Capibaribe",
        "state": "PE",
        "district": "Bela Vista",
        "street": "Rua Odete Eunice Feitosa de Araújo (Lot São Miguel II)",
        "zipcode": "55195-818"
    },
    {
        "city": "Santa Cruz do Capibaribe",
        "state": "PE",
        "district": "Bela Vista",
        "street": "Rua Otaviano Francisco de Queiroz (Lot São Miguel II)",
        "zipcode": "55195-821"
    },
    {
        "city": "Santa Cruz do Capibaribe",
        "state": "PE",
        "district": "Palestina",
        "street": "Rua São Benedito",
        "zipcode": "55190-052"
    },
    {
        "city": "Santa Cruz do Capibaribe",
        "state": "PE",
        "district": "Bela Vista",
        "street": "Rua João José dos Santos (Lot São Miguel)",
        "zipcode": "55195-827"
    },
    {
        "city": "Santa Cruz do Capibaribe",
        "state": "PE",
        "district": "Bela Vista",
        "street": "Rua José Marcelo Simão (Lot São Miguel)",
        "zipcode": "55195-830"
    },
    {
        "city": "Santa Cruz do Capibaribe",
        "state": "PE",
        "district": "Bela Vista",
        "street": "Rua Reginaldo Ramos Soares (Lot São Miguel II)",
        "zipcode": "55195-836"
    },
    {
        "city": "Santa Cruz do Capibaribe",
        "state": "PE",
        "district": "Bela Vista",
        "street": "Rua Antônio Ferreira Gomes (Lot S Miguel)",
        "zipcode": "55195-848"
    },
    {
        "city": "Santa Cruz do Capibaribe",
        "state": "PE",
        "district": "Bela Vista",
        "street": "Rua Maria Júlia de Arruda (Lot São Miguel)",
        "zipcode": "55195-854"
    },
    {
        "city": "Santa Cruz do Capibaribe",
        "state": "PE",
        "district": "Bela Vista",
        "street": "Rua Jaime Francisco de Queiroz (Lot Nova Morada)",
        "zipcode": "55196-000"
    },
    {
        "city": "Santa Cruz do Capibaribe",
        "state": "PE",
        "district": "Bela Vista",
        "street": "Rua Alonso Nunes de Lima (Lot Nova Morada)",
        "zipcode": "55196-003"
    },
    {
        "city": "Santa Cruz do Capibaribe",
        "state": "PE",
        "district": "Bela Vista",
        "street": "Rua Naelson Gregório Nunes (Lot Nova Morada)",
        "zipcode": "55196-006"
    },
    {
        "city": "Santa Cruz do Capibaribe",
        "state": "PE",
        "district": "Bela Vista",
        "street": "Rua Antônio Luiz de Andrade (Lot Nova Morada)",
        "zipcode": "55196-009"
    },
    {
        "city": "Santa Cruz do Capibaribe",
        "state": "PE",
        "district": "Bela Vista",
        "street": "Rua Helena Neres de Araújo (Lot Novo Progresso)",
        "zipcode": "55196-015"
    },
    {
        "city": "Santa Cruz do Capibaribe",
        "state": "PE",
        "district": "Bela Vista",
        "street": "Rua Josefa Mendes de Barros (Lot Sta Filomena)",
        "zipcode": "55196-046"
    },
    {
        "city": "Santa Cruz do Capibaribe",
        "state": "PE",
        "district": "Bela Vista",
        "street": "Rua Bento Marques Júnior (Lot Nova Morada)",
        "zipcode": "55196-049"
    },
    {
        "city": "Santa Cruz do Capibaribe",
        "state": "PE",
        "district": "Bela Vista",
        "street": "Rua Jorge Xavier da Silva (Lot Jordão Arruda)",
        "zipcode": "55196-052"
    },
    {
        "city": "Santa Cruz do Capibaribe",
        "state": "PE",
        "district": "Bela Vista",
        "street": "Rua Pedro George Bezerra da Silva (Lot Jordão Arruda)",
        "zipcode": "55196-055"
    },
    {
        "city": "Santa Cruz do Capibaribe",
        "state": "PE",
        "district": "Bela Vista",
        "street": "Rua Maria Querino de Farias (Lot Nezinho Arruda)",
        "zipcode": "55196-145"
    },
    {
        "city": "Santa Cruz do Capibaribe",
        "state": "PE",
        "district": "Bela Vista",
        "street": "Rua José Edval Moraes (Lot Nezinho Arruda)",
        "zipcode": "55196-151"
    },
    {
        "city": "Santa Cruz do Capibaribe",
        "state": "PE",
        "district": "Bela Vista",
        "street": "Rua José Antônio de Araújo (Lot Nezinho Arruda)",
        "zipcode": "55196-154"
    },
    {
        "city": "Santa Cruz do Capibaribe",
        "state": "PE",
        "district": "Bela Vista",
        "street": "Rua Raimundo Gomes Feitosa (Lot Polispacas)",
        "zipcode": "55195-680"
    },
    {
        "city": "Santa Cruz do Capibaribe",
        "state": "PE",
        "district": "Bela Vista",
        "street": "Rua Estrada do Pará",
        "zipcode": "55195-668"
    },
    {
        "city": "Santa Cruz do Capibaribe",
        "state": "PE",
        "district": "Bela Vista",
        "street": "Rua Marta Casimiro",
        "zipcode": "55195-665"
    },
    {
        "city": "Santa Cruz do Capibaribe",
        "state": "PE",
        "district": "Bela Vista",
        "street": "Rua Josefa Vieira Ferreira de Souza",
        "zipcode": "55195-662"
    },
    {
        "city": "Santa Cruz do Capibaribe",
        "state": "PE",
        "district": "Bela Vista",
        "street": "Rua Josefa Maria dos Santos",
        "zipcode": "55195-659"
    },
    {
        "city": "Santa Cruz do Capibaribe",
        "state": "PE",
        "district": "Bela Vista",
        "street": "Rua José de Alencar",
        "zipcode": "55195-656"
    },
    {
        "city": "Santa Cruz do Capibaribe",
        "state": "PE",
        "district": "Bela Vista",
        "street": "Travessa Abílio Paulino Bezerra",
        "zipcode": "55195-647"
    },
    {
        "city": "Santa Cruz do Capibaribe",
        "state": "PE",
        "district": "Bela Vista",
        "street": "Travessa Marcelino Barbosa da Silva",
        "zipcode": "55195-644"
    },
    {
        "city": "Santa Cruz do Capibaribe",
        "state": "PE",
        "district": "Bela Vista",
        "street": "Avenida Rui Barbosa",
        "zipcode": "55195-638"
    },
    {
        "city": "Santa Cruz do Capibaribe",
        "state": "PE",
        "district": "Bela Vista",
        "street": "Rua Severino Francelino Aragão (Lot Nova Morada)",
        "zipcode": "55196-040"
    },
    {
        "city": "Santa Cruz do Capibaribe",
        "state": "PE",
        "district": "Bela Vista",
        "street": "Rua Manoel Teodoro Aragão",
        "zipcode": "55195-632"
    },
    {
        "city": "Santa Cruz do Capibaribe",
        "state": "PE",
        "district": "Bela Vista",
        "street": "Avenida Antônia Ferreira Ramos",
        "zipcode": "55195-626"
    },
    {
        "city": "Santa Cruz do Capibaribe",
        "state": "PE",
        "district": "Bela Vista",
        "street": "Rua Severino Pinheiro Sobrinho",
        "zipcode": "55195-623"
    },
    {
        "city": "Santa Cruz do Capibaribe",
        "state": "PE",
        "district": "Bela Vista",
        "street": "Rua Virtuosa Ramos",
        "zipcode": "55195-620"
    },
    {
        "city": "Santa Cruz do Capibaribe",
        "state": "PE",
        "district": "Bela Vista",
        "street": "Rua Maria Francisca Ramos",
        "zipcode": "55195-614"
    },
    {
        "city": "Santa Cruz do Capibaribe",
        "state": "PE",
        "district": "Bela Vista",
        "street": "Rua Martins Ferreira de Araújo",
        "zipcode": "55195-608"
    },
    {
        "city": "Santa Cruz do Capibaribe",
        "state": "PE",
        "district": "Bela Vista",
        "street": "Rua Projetada Trinta e Nove",
        "zipcode": "55195-599"
    },
    {
        "city": "Santa Cruz do Capibaribe",
        "state": "PE",
        "district": "Bela Vista",
        "street": "Rua Severino Nunes de Lima",
        "zipcode": "55195-587"
    },
    {
        "city": "Santa Cruz do Capibaribe",
        "state": "PE",
        "district": "Bela Vista",
        "street": "Rua José Firmino",
        "zipcode": "55195-584"
    },
    {
        "city": "Santa Cruz do Capibaribe",
        "state": "PE",
        "district": "Bela Vista",
        "street": "Rua José Amaro da Silva",
        "zipcode": "55195-581"
    },
    {
        "city": "Santa Cruz do Capibaribe",
        "state": "PE",
        "district": "Bela Vista",
        "street": "Rua José Francelino Aragão Filho",
        "zipcode": "55195-563"
    },
    {
        "city": "Santa Cruz do Capibaribe",
        "state": "PE",
        "district": "Bela Vista",
        "street": "Rua Maria do Socorro Aragão Florêncio",
        "zipcode": "55195-560"
    },
    {
        "city": "Santa Cruz do Capibaribe",
        "state": "PE",
        "district": "Bela Vista",
        "street": "Rua Maria Vieira de Araújo",
        "zipcode": "55195-554"
    },
    {
        "city": "Santa Cruz do Capibaribe",
        "state": "PE",
        "district": "Bela Vista",
        "street": "Rua Analicio Antônio de Moura (Lot Bela Vista)",
        "zipcode": "55195-542"
    },
    {
        "city": "Santa Cruz do Capibaribe",
        "state": "PE",
        "district": "Bela Vista",
        "street": "Avenida Amaro Manoel das Chagas",
        "zipcode": "55195-530"
    },
    {
        "city": "Santa Cruz do Capibaribe",
        "state": "PE",
        "district": "Bela Vista",
        "street": "Rua João Glicério do Nascimento",
        "zipcode": "55195-527"
    },
    {
        "city": "Santa Cruz do Capibaribe",
        "state": "PE",
        "district": "Bela Vista",
        "street": "Rua Paulo Arruda Aragão",
        "zipcode": "55195-524"
    },
    {
        "city": "Santa Cruz do Capibaribe",
        "state": "PE",
        "district": "Bela Vista",
        "street": "Rua Doutor José Ramos Aragão",
        "zipcode": "55195-521"
    },
    {
        "city": "Santa Cruz do Capibaribe",
        "state": "PE",
        "district": "Bela Vista",
        "street": "Rua Maria Eunice Chagas",
        "zipcode": "55195-509"
    },
    {
        "city": "Santa Cruz do Capibaribe",
        "state": "PE",
        "district": "Cruz Alta",
        "street": "Rua Corina Silva de Queiroz (Lot S José I)",
        "zipcode": "55195-247"
    },
    {
        "city": "Santa Cruz do Capibaribe",
        "state": "PE",
        "district": "Bela Vista",
        "street": "Rua José Vidal (Lot Bela Vista)",
        "zipcode": "55195-512"
    },
    {
        "city": "Santa Cruz do Capibaribe",
        "state": "PE",
        "district": "Bela Vista",
        "street": "Rua Inaldo Moraes (Lot Bela Vista)",
        "zipcode": "55195-518"
    },
    {
        "city": "Santa Cruz do Capibaribe",
        "state": "PE",
        "district": "Bela Vista",
        "street": "Rua Maria Júlia de Arruda",
        "zipcode": "55195-551"
    },
    {
        "city": "Santa Cruz do Capibaribe",
        "state": "PE",
        "district": "Bela Vista",
        "street": "Rua Martins de Barros (Lot Bela Vista)",
        "zipcode": "55195-566"
    },
    {
        "city": "Santa Cruz do Capibaribe",
        "state": "PE",
        "district": "Bela Vista",
        "street": "Rua Maria Pereira da Rocha (Lot Bela Vista)",
        "zipcode": "55195-578"
    },
    {
        "city": "Santa Cruz do Capibaribe",
        "state": "PE",
        "district": "Bela Vista",
        "street": "Avenida Wanderbilte Dias Bezerra (Lot Bela Vista)",
        "zipcode": "55195-593"
    },
    {
        "city": "Santa Cruz do Capibaribe",
        "state": "PE",
        "district": "Bela Vista",
        "street": "Rua José Rogaciano Aragão",
        "zipcode": "55195-605"
    },
    {
        "city": "Santa Cruz do Capibaribe",
        "state": "PE",
        "district": "Bela Vista",
        "street": "Rua João Vicente Ferreira (Lot Bom Jesus)",
        "zipcode": "55195-689"
    },
    {
        "city": "Santa Cruz do Capibaribe",
        "state": "PE",
        "district": "Bela Vista",
        "street": "Avenida Maria Santina (Lot Polispacas)",
        "zipcode": "55195-695"
    },
    {
        "city": "Santa Cruz do Capibaribe",
        "state": "PE",
        "district": "Cruz Alta",
        "street": "Rua Floriano Mestre da Silva (Lot S José I)",
        "zipcode": "55195-235"
    },
    {
        "city": "Santa Cruz do Capibaribe",
        "state": "PE",
        "district": "Cruz Alta",
        "street": "Rua José Aragão Neto (Lot S José I)",
        "zipcode": "55195-232"
    },
    {
        "city": "Santa Cruz do Capibaribe",
        "state": "PE",
        "district": "Cruz Alta",
        "street": "Rua Maria Lica de Vasconcelos (Lot S José I)",
        "zipcode": "55195-229"
    },
    {
        "city": "Santa Cruz do Capibaribe",
        "state": "PE",
        "district": "Cruz Alta",
        "street": "2ª Travessa José Ramos Neto (Lot S José I)",
        "zipcode": "55195-226"
    },
    {
        "city": "Santa Cruz do Capibaribe",
        "state": "PE",
        "district": "Cruz Alta",
        "street": "Rua José Ramos Neto (Lot S José I)",
        "zipcode": "55195-220"
    },
    {
        "city": "Santa Cruz do Capibaribe",
        "state": "PE",
        "district": "Cruz Alta",
        "street": "Avenida Bela Vista (Rod PE",
        "zipcode": "55195-208"
    },
    {
        "city": "Santa Cruz do Capibaribe",
        "state": "PE",
        "district": "Cruz Alta",
        "street": "Rua Projetada",
        "zipcode": "55195-205"
    },
    {
        "city": "Santa Cruz do Capibaribe",
        "state": "PE",
        "district": "Cruz Alta",
        "street": "Rua Tereza Chagas",
        "zipcode": "55195-202"
    },
    {
        "city": "Santa Cruz do Capibaribe",
        "state": "PE",
        "district": "Cruz Alta",
        "street": "Rua José Chagas",
        "zipcode": "55195-199"
    },
    {
        "city": "Santa Cruz do Capibaribe",
        "state": "PE",
        "district": "Cruz Alta",
        "street": "Rua Manoel Lucas de Araújo",
        "zipcode": "55195-196"
    },
    {
        "city": "Santa Cruz do Capibaribe",
        "state": "PE",
        "district": "Cruz Alta",
        "street": "Rua Josefa Maria de Jesus",
        "zipcode": "55195-193"
    },
    {
        "city": "Santa Cruz do Capibaribe",
        "state": "PE",
        "district": "Cruz Alta",
        "street": "Avenida Sebastião Alves de Oliveira (Lot S José II)",
        "zipcode": "55195-138"
    },
    {
        "city": "Santa Cruz do Capibaribe",
        "state": "PE",
        "district": "Cruz Alta",
        "street": "Rua Agamenon Vieira Catolé (Lot S José II)",
        "zipcode": "55195-126"
    },
    {
        "city": "Santa Cruz do Capibaribe",
        "state": "PE",
        "district": "Cruz Alta",
        "street": "Rua Alfredo Francisco Farias (Lot R Verde)",
        "zipcode": "55195-112"
    },
    {
        "city": "Santa Cruz do Capibaribe",
        "state": "PE",
        "district": "Cruz Alta",
        "street": "Rua Maria Fernandes de Moura (Lot R Verde)",
        "zipcode": "55195-109"
    },
    {
        "city": "Santa Cruz do Capibaribe",
        "state": "PE",
        "district": "Cruz Alta",
        "street": "Rua Miguel José da Silva (Lot R Verde)",
        "zipcode": "55195-100"
    },
    {
        "city": "Santa Cruz do Capibaribe",
        "state": "PE",
        "district": "Cruz Alta",
        "street": "Rua Maria do Socorro Costa (Lot R Verde)",
        "zipcode": "55195-097"
    },
    {
        "city": "Santa Cruz do Capibaribe",
        "state": "PE",
        "district": "Cruz Alta",
        "street": "Rua Manoel Dunda de Lima (Lot R Verde)",
        "zipcode": "55195-091"
    },
    {
        "city": "Santa Cruz do Capibaribe",
        "state": "PE",
        "district": "Cruz Alta",
        "street": "Rua José Geraldo da Silva (Lot R Verde)",
        "zipcode": "55195-085"
    },
    {
        "city": "Santa Cruz do Capibaribe",
        "state": "PE",
        "district": "Cruz Alta",
        "street": "Rua Wellingtton Monteiro de Araújo (Lot R Verde)",
        "zipcode": "55195-082"
    },
    {
        "city": "Santa Cruz do Capibaribe",
        "state": "PE",
        "district": "Cruz Alta",
        "street": "Rua Alice Xavier de Moraes (Lot R Verde)",
        "zipcode": "55195-079"
    },
    {
        "city": "Santa Cruz do Capibaribe",
        "state": "PE",
        "district": "Cruz Alta",
        "street": "Rua Antônio Farias (Lot R Verde)",
        "zipcode": "55195-073"
    },
    {
        "city": "Santa Cruz do Capibaribe",
        "state": "PE",
        "district": "Cruz Alta",
        "street": "Rua Antônio Gonçalves de Lima (Lot R Verde)",
        "zipcode": "55195-070"
    },
    {
        "city": "Santa Cruz do Capibaribe",
        "state": "PE",
        "district": "Cruz Alta",
        "street": "Travessa Carmelita Olímpio da Rocha (Lot Sta Tereza)",
        "zipcode": "55195-063"
    },
    {
        "city": "Santa Cruz do Capibaribe",
        "state": "PE",
        "district": "Cruz Alta",
        "street": "Rua Carmelita Olímpio da Rocha (Lot Sta Tereza)",
        "zipcode": "55195-060"
    },
    {
        "city": "Santa Cruz do Capibaribe",
        "state": "PE",
        "district": "Cruz Alta",
        "street": "Rua Ivanildo Vieira de Araújo (Lot Sta Tereza)",
        "zipcode": "55195-048"
    },
    {
        "city": "Santa Cruz do Capibaribe",
        "state": "PE",
        "district": "Palestina",
        "street": "Rua Santa Terezinha",
        "zipcode": "55190-050"
    },
    {
        "city": "Santa Cruz do Capibaribe",
        "state": "PE",
        "district": "São Cristovão",
        "street": "Rua Senador Paulo Pessoa Guerra (Lot M Morais)",
        "zipcode": "55194-133"
    },
    {
        "city": "Santa Cruz do Capibaribe",
        "state": "PE",
        "district": "Cruz Alta",
        "street": "Rua Professora Maria Nogaia de Souza (Lot Sta Tereza)",
        "zipcode": "55195-042"
    },
    {
        "city": "Santa Cruz do Capibaribe",
        "state": "PE",
        "district": "Cruz Alta",
        "street": "Rua José Joaquim de Araújo (Lot Sta Tereza)",
        "zipcode": "55195-039"
    },
    {
        "city": "Santa Cruz do Capibaribe",
        "state": "PE",
        "district": "Cruz Alta",
        "street": "Rua Genario Olímpio da Rocha (Lot Sta Tereza)",
        "zipcode": "55195-036"
    },
    {
        "city": "Santa Cruz do Capibaribe",
        "state": "PE",
        "district": "Cruz Alta",
        "street": "Rua José Gomes Feitosa (Lot Sta Tereza)",
        "zipcode": "55195-030"
    },
    {
        "city": "Santa Cruz do Capibaribe",
        "state": "PE",
        "district": "Cruz Alta",
        "street": "Rua Leonides Menino da Silva (Lot Sta Tereza)",
        "zipcode": "55195-027"
    },
    {
        "city": "Santa Cruz do Capibaribe",
        "state": "PE",
        "district": "Cruz Alta",
        "street": "Rua José Bezerra da Costa (Lot Sta Tereza)",
        "zipcode": "55195-024"
    },
    {
        "city": "Santa Cruz do Capibaribe",
        "state": "PE",
        "district": "Cruz Alta",
        "street": "Rua São Paulo (Lot Sta Tereza)",
        "zipcode": "55195-021"
    },
    {
        "city": "Santa Cruz do Capibaribe",
        "state": "PE",
        "district": "Cruz Alta",
        "street": "Rua Rio de Janeiro (Lot Sta Tereza)",
        "zipcode": "55195-018"
    },
    {
        "city": "Santa Cruz do Capibaribe",
        "state": "PE",
        "district": "Cruz Alta",
        "street": "Rua Joaquim Nabuco (Lot Sta Tereza)",
        "zipcode": "55195-009"
    },
    {
        "city": "Santa Cruz do Capibaribe",
        "state": "PE",
        "district": "Cruz Alta",
        "street": "Rua Bahia (Lot Sta Tereza)",
        "zipcode": "55195-006"
    },
    {
        "city": "Santa Cruz do Capibaribe",
        "state": "PE",
        "district": "Cruz Alta",
        "street": "Rua Bernardino Pereira Diniz (Lot S José I)",
        "zipcode": "55195-123"
    },
    {
        "city": "Santa Cruz do Capibaribe",
        "state": "PE",
        "district": "Cruz Alta",
        "street": "Rua Jorge Elias do Nascimento (Lot S José II)",
        "zipcode": "55195-129"
    },
    {
        "city": "Santa Cruz do Capibaribe",
        "state": "PE",
        "district": "Cruz Alta",
        "street": "Rua José Tenório da Silva (Lot S José II)",
        "zipcode": "55195-132"
    },
    {
        "city": "Santa Cruz do Capibaribe",
        "state": "PE",
        "district": "Nova Santa Cruz",
        "street": "Rua Adailza Nazinha Bezerra (Lot M Monteiro)",
        "zipcode": "55194-481"
    },
    {
        "city": "Santa Cruz do Capibaribe",
        "state": "PE",
        "district": "Nova Santa Cruz",
        "street": "Rua Belarmina Pereira da Silva (Lot M Monteiro)",
        "zipcode": "55194-475"
    },
    {
        "city": "Santa Cruz do Capibaribe",
        "state": "PE",
        "district": "Nova Santa Cruz",
        "street": "Rua José Vitorino da Silva (Lot M Monteiro)",
        "zipcode": "55194-472"
    },
    {
        "city": "Santa Cruz do Capibaribe",
        "state": "PE",
        "district": "Nova Santa Cruz",
        "street": "Rua João Hino da Silva (Lot M Monteiro)",
        "zipcode": "55194-469"
    },
    {
        "city": "Santa Cruz do Capibaribe",
        "state": "PE",
        "district": "Nova Santa Cruz",
        "street": "Rua José Luis de Souza (Lot M Monteiro)",
        "zipcode": "55194-466"
    },
    {
        "city": "Santa Cruz do Capibaribe",
        "state": "PE",
        "district": "Nova Santa Cruz",
        "street": "Rua Manoel Galdino Filho (Lot M Monteiro)",
        "zipcode": "55194-457"
    },
    {
        "city": "Santa Cruz do Capibaribe",
        "state": "PE",
        "district": "Nova Santa Cruz",
        "street": "Rua José Clemente Filho (Lot M Monteiro)",
        "zipcode": "55194-454"
    },
    {
        "city": "Santa Cruz do Capibaribe",
        "state": "PE",
        "district": "Nova Santa Cruz",
        "street": "Rua João Marcelino da Silva (Lot M Monteiro)",
        "zipcode": "55194-451"
    },
    {
        "city": "Santa Cruz do Capibaribe",
        "state": "PE",
        "district": "Nova Santa Cruz",
        "street": "Rua Rosa Maria Torres (Lot M Monteiro)",
        "zipcode": "55194-445"
    },
    {
        "city": "Santa Cruz do Capibaribe",
        "state": "PE",
        "district": "Nova Santa Cruz",
        "street": "Rua Jorge Luiz de Souza (Lot M Monteiro)",
        "zipcode": "55194-442"
    },
    {
        "city": "Santa Cruz do Capibaribe",
        "state": "PE",
        "district": "Nova Santa Cruz",
        "street": "Rua Palmares (Lot M Monteiro)",
        "zipcode": "55194-436"
    },
    {
        "city": "Santa Cruz do Capibaribe",
        "state": "PE",
        "district": "Nova Santa Cruz",
        "street": "Rua José Francisco Catolé",
        "zipcode": "55194-420"
    },
    {
        "city": "Santa Cruz do Capibaribe",
        "state": "PE",
        "district": "Nova Santa Cruz",
        "street": "Rua Maria Júlia da Silva",
        "zipcode": "55194-417"
    },
    {
        "city": "Santa Cruz do Capibaribe",
        "state": "PE",
        "district": "Nova Santa Cruz",
        "street": "Rua Ludugero Gomes Bezerra",
        "zipcode": "55194-411"
    },
    {
        "city": "Santa Cruz do Capibaribe",
        "state": "PE",
        "district": "Nova Santa Cruz",
        "street": "Rua Tereza Vasconcelos Jordão",
        "zipcode": "55194-408"
    },
    {
        "city": "Santa Cruz do Capibaribe",
        "state": "PE",
        "district": "Nova Santa Cruz",
        "street": "Rua Maria Cadete de Melo",
        "zipcode": "55194-402"
    },
    {
        "city": "Santa Cruz do Capibaribe",
        "state": "PE",
        "district": "Nova Santa Cruz",
        "street": "Rua João Pereira da Silva",
        "zipcode": "55194-399"
    },
    {
        "city": "Santa Cruz do Capibaribe",
        "state": "PE",
        "district": "Nova Santa Cruz",
        "street": "Rua Maria Carneiro Pontes",
        "zipcode": "55194-393"
    },
    {
        "city": "Santa Cruz do Capibaribe",
        "state": "PE",
        "district": "Nova Santa Cruz",
        "street": "Rua Roberto Maia de Queiroz",
        "zipcode": "55194-390"
    },
    {
        "city": "Santa Cruz do Capibaribe",
        "state": "PE",
        "district": "Nova Santa Cruz",
        "street": "Rua Maria Paulina da Conceição",
        "zipcode": "55194-381"
    },
    {
        "city": "Santa Cruz do Capibaribe",
        "state": "PE",
        "district": "Nova Santa Cruz",
        "street": "Rua Júlia Oliveira da Silva",
        "zipcode": "55194-378"
    },
    {
        "city": "Santa Cruz do Capibaribe",
        "state": "PE",
        "district": "Nova Santa Cruz",
        "street": "Rua Uleide Farias da Silva",
        "zipcode": "55194-369"
    },
    {
        "city": "Santa Cruz do Capibaribe",
        "state": "PE",
        "district": "Nova Santa Cruz",
        "street": "Rua Maria Júlia Aragão",
        "zipcode": "55194-366"
    },
    {
        "city": "Santa Cruz do Capibaribe",
        "state": "PE",
        "district": "Nova Santa Cruz",
        "street": "Avenida José Francisco de Queiroz",
        "zipcode": "55194-363"
    },
    {
        "city": "Santa Cruz do Capibaribe",
        "state": "PE",
        "district": "São Cristovão",
        "street": "Rua Ademar Francelino Aragão",
        "zipcode": "55194-175"
    },
    {
        "city": "Santa Cruz do Capibaribe",
        "state": "PE",
        "district": "São Cristovão",
        "street": "Rua Virgilina Pereira",
        "zipcode": "55194-160"
    },
    {
        "city": "Santa Cruz do Capibaribe",
        "state": "PE",
        "district": "São Cristovão",
        "street": "Rua dos Tamoios (Lot M Morais)",
        "zipcode": "55194-145"
    },
    {
        "city": "Santa Cruz do Capibaribe",
        "state": "PE",
        "district": "São Cristovão",
        "street": "Avenida Cézario Aragão (Lot M Morais)",
        "zipcode": "55194-139"
    },
    {
        "city": "Santa Cruz do Capibaribe",
        "state": "PE",
        "district": "São Cristovão",
        "street": "Travessa Senador Paulo Pessoa Guerra (Lot M Morais)",
        "zipcode": "55194-136"
    },
    {
        "city": "Santa Cruz do Capibaribe",
        "state": "PE",
        "district": "São Cristovão",
        "street": "Rua Artur Correia de Araújo (Lot M Morais)",
        "zipcode": "55194-130"
    },
    {
        "city": "Santa Cruz do Capibaribe",
        "state": "PE",
        "district": "São Cristovão",
        "street": "2ª Travessa Rita Nunes de Araújo (Lot M Morais)",
        "zipcode": "55194-127"
    },
    {
        "city": "Santa Cruz do Capibaribe",
        "state": "PE",
        "district": "São Cristovão",
        "street": "Travessa Rita Nunes de Araújo (Lot M Morais)",
        "zipcode": "55194-124"
    },
    {
        "city": "Santa Cruz do Capibaribe",
        "state": "PE",
        "district": "São Cristovão",
        "street": "Rua Margarida Ferreira de Santana Araújo (Lot M Morais)",
        "zipcode": "55194-118"
    },
    {
        "city": "Santa Cruz do Capibaribe",
        "state": "PE",
        "district": "São Cristovão",
        "street": "Rua Edgar Catolé Araújo (Lot M Morais)",
        "zipcode": "55194-115"
    },
    {
        "city": "Santa Cruz do Capibaribe",
        "state": "PE",
        "district": "São Cristovão",
        "street": "Rua Severino Ramos Ferreira (Lot M Morais)",
        "zipcode": "55194-112"
    },
    {
        "city": "Santa Cruz do Capibaribe",
        "state": "PE",
        "district": "São Cristovão",
        "street": "Rua Ivonaldo Avelino de Melo (Lot M Morais)",
        "zipcode": "55194-109"
    },
    {
        "city": "Santa Cruz do Capibaribe",
        "state": "PE",
        "district": "Nova Santa Cruz",
        "street": "Rua Paulo Bernardino do Nascimento (Lot M Monteiro)",
        "zipcode": "55194-448"
    },
    {
        "city": "Santa Cruz do Capibaribe",
        "state": "PE",
        "district": "Nova Santa Cruz",
        "street": "Rua Maria Silva de Souza (Lot M Monteiro)",
        "zipcode": "55194-478"
    },
    {
        "city": "Santa Cruz do Capibaribe",
        "state": "PE",
        "district": "São Cristovão",
        "street": "Rua Capitão Pedrosa (Lot M Morais)",
        "zipcode": "55194-100"
    },
    {
        "city": "Santa Cruz do Capibaribe",
        "state": "PE",
        "district": "São Cristovão",
        "street": "Rua Maria José de Moura",
        "zipcode": "55194-095"
    },
    {
        "city": "Santa Cruz do Capibaribe",
        "state": "PE",
        "district": "São Cristovão",
        "street": "Rua José Jerônimo da Silva",
        "zipcode": "55194-090"
    },
    {
        "city": "Santa Cruz do Capibaribe",
        "state": "PE",
        "district": "São Cristovão",
        "street": "Praça José Balbino Bezerra",
        "zipcode": "55194-080"
    },
    {
        "city": "Santa Cruz do Capibaribe",
        "state": "PE",
        "district": "São Cristovão",
        "street": "Rua Nega Panta",
        "zipcode": "55194-075"
    },
    {
        "city": "Santa Cruz do Capibaribe",
        "state": "PE",
        "district": "São Cristovão",
        "street": "Rua Padre Manoel da Nóbrega",
        "zipcode": "55194-070"
    },
    {
        "city": "Santa Cruz do Capibaribe",
        "state": "PE",
        "district": "São Cristovão",
        "street": "Rua Padre José de Anchieta",
        "zipcode": "55194-065"
    },
    {
        "city": "Santa Cruz do Capibaribe",
        "state": "PE",
        "district": "São Cristovão",
        "street": "Rua Francisco Barros",
        "zipcode": "55194-055"
    },
    {
        "city": "Santa Cruz do Capibaribe",
        "state": "PE",
        "district": "São Cristovão",
        "street": "Rua Joana Maria da Conceição",
        "zipcode": "55194-050"
    },
    {
        "city": "Santa Cruz do Capibaribe",
        "state": "PE",
        "district": "São Cristovão",
        "street": "1ª Travessa Passo da Pátria",
        "zipcode": "55194-040"
    },
    {
        "city": "Santa Cruz do Capibaribe",
        "state": "PE",
        "district": "São Cristovão",
        "street": "Rua Passo da Pátria",
        "zipcode": "55194-035"
    },
    {
        "city": "Santa Cruz do Capibaribe",
        "state": "PE",
        "district": "São Cristovão",
        "street": "Rua Padre Antônio Gomes de Souza",
        "zipcode": "55194-030"
    },
    {
        "city": "Santa Cruz do Capibaribe",
        "state": "PE",
        "district": "São Cristovão",
        "street": "Travessa Luiz Pereira das Neves",
        "zipcode": "55194-025"
    },
    {
        "city": "Santa Cruz do Capibaribe",
        "state": "PE",
        "district": "São Cristovão",
        "street": "Rua Luiz Pereira das Neves",
        "zipcode": "55194-020"
    },
    {
        "city": "Santa Cruz do Capibaribe",
        "state": "PE",
        "district": "São Cristovão",
        "street": "Travessa Miguel Caloia",
        "zipcode": "55194-005"
    },
    {
        "city": "Santa Cruz do Capibaribe",
        "state": "PE",
        "district": "São Cristovão",
        "street": "Rua Miguel Caloia",
        "zipcode": "55194-000"
    },
    {
        "city": "Santa Cruz do Capibaribe",
        "state": "PE",
        "district": "Dona Dom",
        "street": "Rua Josefa Bezerra de Araújo (Lot D Lica)",
        "zipcode": "55192-672"
    },
    {
        "city": "Santa Cruz do Capibaribe",
        "state": "PE",
        "district": "Dona Dom",
        "street": "Rua Manoel Gomes Ribeiro (Lot D Lica)",
        "zipcode": "55192-669"
    },
    {
        "city": "Santa Cruz do Capibaribe",
        "state": "PE",
        "district": "Dona Dom",
        "street": "Rua Quitéria Ramos Cardoso (Lot D Lica)",
        "zipcode": "55192-663"
    },
    {
        "city": "Santa Cruz do Capibaribe",
        "state": "PE",
        "district": "Dona Dom",
        "street": "Rua Jordão Batista de Oliveira (Lot D Lica)",
        "zipcode": "55192-660"
    },
    {
        "city": "Santa Cruz do Capibaribe",
        "state": "PE",
        "district": "Oscarzão",
        "street": "Rua Vi Plaço",
        "zipcode": "55193-502"
    },
    {
        "city": "Santa Cruz do Capibaribe",
        "state": "PE",
        "district": "Dona Dom",
        "street": "Rua Maria Eulália Barbosa Lira (Lot D Lica)",
        "zipcode": "55192-648"
    },
    {
        "city": "Santa Cruz do Capibaribe",
        "state": "PE",
        "district": "Dona Dom",
        "street": "Rua Projetada (Lot D Lica)",
        "zipcode": "55192-639"
    },
    {
        "city": "Santa Cruz do Capibaribe",
        "state": "PE",
        "district": "Dona Dom",
        "street": "Rua Severino Ferreira de Abreu",
        "zipcode": "55192-617"
    },
    {
        "city": "Santa Cruz do Capibaribe",
        "state": "PE",
        "district": "Dona Dom",
        "street": "Rua Manoel Miguel Sobrinho",
        "zipcode": "55192-614"
    },
    {
        "city": "Santa Cruz do Capibaribe",
        "state": "PE",
        "district": "Dona Dom",
        "street": "Travessa Beatriz Felomena Nunes",
        "zipcode": "55192-611"
    },
    {
        "city": "Santa Cruz do Capibaribe",
        "state": "PE",
        "district": "Dona Dom",
        "street": "Travessa Juscelino Nunes de Oliveira",
        "zipcode": "55192-602"
    },
    {
        "city": "Santa Cruz do Capibaribe",
        "state": "PE",
        "district": "Dona Dom",
        "street": "Rua Juscelino Nunes de Oliveira",
        "zipcode": "55192-599"
    },
    {
        "city": "Santa Cruz do Capibaribe",
        "state": "PE",
        "district": "Dona Dom",
        "street": "Avenida Souza Aragão",
        "zipcode": "55192-593"
    },
    {
        "city": "Santa Cruz do Capibaribe",
        "state": "PE",
        "district": "Dona Dom",
        "street": "Rua Flávio Soares Bezerra",
        "zipcode": "55192-590"
    },
    {
        "city": "Santa Cruz do Capibaribe",
        "state": "PE",
        "district": "Dona Dom",
        "street": "Rua José Ronaldo Gomes",
        "zipcode": "55192-587"
    },
    {
        "city": "Santa Cruz do Capibaribe",
        "state": "PE",
        "district": "Palestina",
        "street": "Rua São Judas Tadeu",
        "zipcode": "55190-048"
    },
    {
        "city": "Santa Cruz do Capibaribe",
        "state": "PE",
        "district": "Dona Dom",
        "street": "Rua Severino Antero de Lira",
        "zipcode": "55192-578"
    },
    {
        "city": "Santa Cruz do Capibaribe",
        "state": "PE",
        "district": "Dona Dom",
        "street": "Rua Vereador Armando Aleixo de Barros",
        "zipcode": "55192-572"
    },
    {
        "city": "Santa Cruz do Capibaribe",
        "state": "PE",
        "district": "Dona Dom",
        "street": "Rua Severino Sebastião da Silva",
        "zipcode": "55192-563"
    },
    {
        "city": "Santa Cruz do Capibaribe",
        "state": "PE",
        "district": "Dona Dom",
        "street": "Rua Letícia Carlos Rocha",
        "zipcode": "55192-560"
    },
    {
        "city": "Santa Cruz do Capibaribe",
        "state": "PE",
        "district": "Dona Dom",
        "street": "Rua Francisco Inácio de Andrade",
        "zipcode": "55192-557"
    },
    {
        "city": "Santa Cruz do Capibaribe",
        "state": "PE",
        "district": "Dona Dom",
        "street": "Rua Bonifácio Fernando de Moura",
        "zipcode": "55192-548"
    },
    {
        "city": "Santa Cruz do Capibaribe",
        "state": "PE",
        "district": "Dona Dom",
        "street": "Rua Vereador Inocêncio Morais da Silva",
        "zipcode": "55192-542"
    },
    {
        "city": "Santa Cruz do Capibaribe",
        "state": "PE",
        "district": "Dona Dom",
        "street": "Rua Ana Maria do Nascimento",
        "zipcode": "55192-539"
    },
    {
        "city": "Santa Cruz do Capibaribe",
        "state": "PE",
        "district": "Dona Dom",
        "street": "Rua José Vieira Filho (Lot D Dom)",
        "zipcode": "55192-581"
    },
    {
        "city": "Santa Cruz do Capibaribe",
        "state": "PE",
        "district": "Dona Dom",
        "street": "Rua Francisca Pereira Lisboa (Lot D Dom)",
        "zipcode": "55192-605"
    },
    {
        "city": "Santa Cruz do Capibaribe",
        "state": "PE",
        "district": "Dona Dom",
        "street": "Rua Beatriz Filomena Nunes (Lot D Lica)",
        "zipcode": "55192-608"
    },
    {
        "city": "Santa Cruz do Capibaribe",
        "state": "PE",
        "district": "Dona Dom",
        "street": "Rua Biu de Deda",
        "zipcode": "55192-530"
    },
    {
        "city": "Santa Cruz do Capibaribe",
        "state": "PE",
        "district": "Dona Dom",
        "street": "Rua Maria Martins de Souza",
        "zipcode": "55192-524"
    },
    {
        "city": "Santa Cruz do Capibaribe",
        "state": "PE",
        "district": "Dona Dom",
        "street": "Rua João Hermano de Souza",
        "zipcode": "55192-521"
    },
    {
        "city": "Santa Cruz do Capibaribe",
        "state": "PE",
        "district": "Dona Dom",
        "street": "Rua Maria Madalena Monteiro",
        "zipcode": "55192-518"
    },
    {
        "city": "Santa Cruz do Capibaribe",
        "state": "PE",
        "district": "Dona Dom",
        "street": "Rua Elias Ferreira do Nascimento",
        "zipcode": "55192-515"
    },
    {
        "city": "Santa Cruz do Capibaribe",
        "state": "PE",
        "district": "Dona Dom",
        "street": "Rua Pedro Paulo de Souza",
        "zipcode": "55192-512"
    },
    {
        "city": "Santa Cruz do Capibaribe",
        "state": "PE",
        "district": "Dona Dom",
        "street": "Rua João de Oliveira Ramos",
        "zipcode": "55192-509"
    },
    {
        "city": "Santa Cruz do Capibaribe",
        "state": "PE",
        "district": "Dona Dom",
        "street": "Avenida Prefeito Braz Lira (Rod PE",
        "zipcode": "55192-500"
    },
    {
        "city": "Santa Cruz do Capibaribe",
        "state": "PE",
        "district": "Bairro Novo",
        "street": "Rua Projetada (Lor Sto Antônio)",
        "zipcode": "55192-456"
    },
    {
        "city": "Santa Cruz do Capibaribe",
        "state": "PE",
        "district": "Bairro Novo",
        "street": "Rua João Moraes da Silva (Lot Sto Antônio)",
        "zipcode": "55192-452"
    },
    {
        "city": "Santa Cruz do Capibaribe",
        "state": "PE",
        "district": "Bairro Novo",
        "street": "Rua Maria Francisca da Silva (Lot Sto Antônio)",
        "zipcode": "55192-448"
    },
    {
        "city": "Santa Cruz do Capibaribe",
        "state": "PE",
        "district": "Bairro Novo",
        "street": "Rua Antônio Félix da Silva (Lot Sto Antônio)",
        "zipcode": "55192-444"
    },
    {
        "city": "Santa Cruz do Capibaribe",
        "state": "PE",
        "district": "Bairro Novo",
        "street": "Rua João Pereira de Abreu (Lot Sto Antônio)",
        "zipcode": "55192-440"
    },
    {
        "city": "Santa Cruz do Capibaribe",
        "state": "PE",
        "district": "Bairro Novo",
        "street": "Rua Ananias Carlos da Rocha",
        "zipcode": "55192-435"
    },
    {
        "city": "Santa Cruz do Capibaribe",
        "state": "PE",
        "district": "Bairro Novo",
        "street": "Rua José Olímpio da Rocha",
        "zipcode": "55192-420"
    },
    {
        "city": "Santa Cruz do Capibaribe",
        "state": "PE",
        "district": "Bairro Novo",
        "street": "Rua Major Negrinho",
        "zipcode": "55192-415"
    },
    {
        "city": "Santa Cruz do Capibaribe",
        "state": "PE",
        "district": "Bairro Novo",
        "street": "Rua Doutor José Vieira de Arruda",
        "zipcode": "55192-395"
    },
    {
        "city": "Santa Cruz do Capibaribe",
        "state": "PE",
        "district": "Bairro Novo",
        "street": "Rua José Bernardino Gomes",
        "zipcode": "55192-390"
    },
    {
        "city": "Santa Cruz do Capibaribe",
        "state": "PE",
        "district": "Bairro Novo",
        "street": "Rua José Francisco Barbosa",
        "zipcode": "55192-385"
    },
    {
        "city": "Santa Cruz do Capibaribe",
        "state": "PE",
        "district": "Centro",
        "street": "Avenida João Francisco Aragão",
        "zipcode": "55192-245"
    },
    {
        "city": "Santa Cruz do Capibaribe",
        "state": "PE",
        "district": "Bairro Novo",
        "street": "Rua Júlia Aragão",
        "zipcode": "55192-365"
    },
    {
        "city": "Santa Cruz do Capibaribe",
        "state": "PE",
        "district": "Bairro Novo",
        "street": "Rua Siqueira Campos",
        "zipcode": "55192-360"
    },
    {
        "city": "Santa Cruz do Capibaribe",
        "state": "PE",
        "district": "Oscarzão",
        "street": "Rua São José",
        "zipcode": "55193-499"
    },
    {
        "city": "Santa Cruz do Capibaribe",
        "state": "PE",
        "district": "Bairro Novo",
        "street": "Rua Antônio Pereira de Abreu",
        "zipcode": "55192-345"
    },
    {
        "city": "Santa Cruz do Capibaribe",
        "state": "PE",
        "district": "Bairro Novo",
        "street": "Avenida Vinte e Nove de Dezembro",
        "zipcode": "55192-340"
    },
    {
        "city": "Santa Cruz do Capibaribe",
        "state": "PE",
        "district": "Centro",
        "street": "Avenida José Moraes da Silva",
        "zipcode": "55192-330"
    },
    {
        "city": "Santa Cruz do Capibaribe",
        "state": "PE",
        "district": "Centro",
        "street": "Rua Cabo Otávio Aragão",
        "zipcode": "55192-325"
    },
    {
        "city": "Santa Cruz do Capibaribe",
        "state": "PE",
        "district": "Centro",
        "street": "Rua dos Pacas",
        "zipcode": "55192-310"
    },
    {
        "city": "Santa Cruz do Capibaribe",
        "state": "PE",
        "district": "Centro",
        "street": "Rua Rosemiro Alves da Rocha",
        "zipcode": "55192-305"
    },
    {
        "city": "Santa Cruz do Capibaribe",
        "state": "PE",
        "district": "Centro",
        "street": "Rua Amaro Severino",
        "zipcode": "55192-300"
    },
    {
        "city": "Santa Cruz do Capibaribe",
        "state": "PE",
        "district": "Centro",
        "street": "Rua Siqueira Campos",
        "zipcode": "55192-290"
    },
    {
        "city": "Santa Cruz do Capibaribe",
        "state": "PE",
        "district": "Centro",
        "street": "Rua Doutor Sílvio Monteiro",
        "zipcode": "55192-280"
    },
    {
        "city": "Santa Cruz do Capibaribe",
        "state": "PE",
        "district": "Centro",
        "street": "Rua Bom Jesus",
        "zipcode": "55192-275"
    },
    {
        "city": "Santa Cruz do Capibaribe",
        "state": "PE",
        "district": "Centro",
        "street": "Rua São Miguel",
        "zipcode": "55192-270"
    },
    {
        "city": "Santa Cruz do Capibaribe",
        "state": "PE",
        "district": "Centro",
        "street": "Rua Boaventura Galdino",
        "zipcode": "55192-260"
    },
    {
        "city": "Santa Cruz do Capibaribe",
        "state": "PE",
        "district": "Centro",
        "street": "Rua Padre Estima",
        "zipcode": "55192-255"
    },
    {
        "city": "Santa Cruz do Capibaribe",
        "state": "PE",
        "district": "Centro",
        "street": "Praça do Estudante",
        "zipcode": "55192-240"
    },
    {
        "city": "Santa Cruz do Capibaribe",
        "state": "PE",
        "district": "Centro",
        "street": "Avenida Vinte e Nove de Dezembro",
        "zipcode": "55192-235"
    },
    {
        "city": "Santa Cruz do Capibaribe",
        "state": "PE",
        "district": "Centro",
        "street": "Rua Professora Olindina",
        "zipcode": "55192-230"
    },
    {
        "city": "Santa Cruz do Capibaribe",
        "state": "PE",
        "district": "Centro",
        "street": "Rua Manoel Veloso",
        "zipcode": "55192-225"
    },
    {
        "city": "Santa Cruz do Capibaribe",
        "state": "PE",
        "district": "Centro",
        "street": "2ª Travessa Vera Cruz",
        "zipcode": "55192-215"
    },
    {
        "city": "Santa Cruz do Capibaribe",
        "state": "PE",
        "district": "Centro",
        "street": "1ª Travessa Vera Cruz",
        "zipcode": "55192-210"
    },
    {
        "city": "Santa Cruz do Capibaribe",
        "state": "PE",
        "district": "Centro",
        "street": "Rua José Paulo de Souza",
        "zipcode": "55192-195"
    },
    {
        "city": "Santa Cruz do Capibaribe",
        "state": "PE",
        "district": "Dona Dom",
        "street": "Rua Josefa Cordeiro da Silva (Lot D Dom)",
        "zipcode": "55192-533"
    },
    {
        "city": "Santa Cruz do Capibaribe",
        "state": "PE",
        "district": "Centro",
        "street": "Rua Padre Arruda",
        "zipcode": "55192-185"
    },
    {
        "city": "Santa Cruz do Capibaribe",
        "state": "PE",
        "district": "Centro",
        "street": "Travessa Gutemberg",
        "zipcode": "55192-175"
    },
    {
        "city": "Santa Cruz do Capibaribe",
        "state": "PE",
        "district": "Centro",
        "street": "Rua Gutemberg",
        "zipcode": "55192-170"
    },
    {
        "city": "Santa Cruz do Capibaribe",
        "state": "PE",
        "district": "Centro",
        "street": "Travessa Quintiliano Bernardo da Cruz",
        "zipcode": "55192-165"
    },
    {
        "city": "Santa Cruz do Capibaribe",
        "state": "PE",
        "district": "Centro",
        "street": "Rua Caramuru",
        "zipcode": "55192-155"
    },
    {
        "city": "Santa Cruz do Capibaribe",
        "state": "PE",
        "district": "Centro",
        "street": "Rua do Rio",
        "zipcode": "55192-140"
    },
    {
        "city": "Santa Cruz do Capibaribe",
        "state": "PE",
        "district": "Centro",
        "street": "Rua Manoel Ferreira",
        "zipcode": "55192-135"
    },
    {
        "city": "Santa Cruz do Capibaribe",
        "state": "PE",
        "district": "Centro",
        "street": "Rua Moisés Ferreira",
        "zipcode": "55192-125"
    },
    {
        "city": "Santa Cruz do Capibaribe",
        "state": "PE",
        "district": "Centro",
        "street": "Travessa Sete de Setembro",
        "zipcode": "55192-120"
    },
    {
        "city": "Santa Cruz do Capibaribe",
        "state": "PE",
        "district": "Centro",
        "street": "Avenida Jatobá",
        "zipcode": "55192-110"
    },
    {
        "city": "Santa Cruz do Capibaribe",
        "state": "PE",
        "district": "Centro",
        "street": "Rua Coronel Luiz Alves",
        "zipcode": "55192-100"
    },
    {
        "city": "Santa Cruz do Capibaribe",
        "state": "PE",
        "district": "Centro",
        "street": "Rua Manoel Bernardino Ferreira Gomes",
        "zipcode": "55192-095"
    },
    {
        "city": "Santa Cruz do Capibaribe",
        "state": "PE",
        "district": "Centro",
        "street": "Rua Padre Ibiapina",
        "zipcode": "55192-090"
    },
    {
        "city": "Santa Cruz do Capibaribe",
        "state": "PE",
        "district": "Centro",
        "street": "Rua José Gomes Ribeiro",
        "zipcode": "55192-085"
    },
    {
        "city": "Santa Cruz do Capibaribe",
        "state": "PE",
        "district": "Centro",
        "street": "Rua Mestre João Francisco",
        "zipcode": "55192-080"
    },
    {
        "city": "Santa Cruz do Capibaribe",
        "state": "PE",
        "district": "Centro",
        "street": "Rua Saldanha da Gama",
        "zipcode": "55192-075"
    },
    {
        "city": "Santa Cruz do Capibaribe",
        "state": "PE",
        "district": "Centro",
        "street": "Rua Zumbi",
        "zipcode": "55192-070"
    },
    {
        "city": "Santa Cruz do Capibaribe",
        "state": "PE",
        "district": "Centro",
        "street": "Rua Treze de Maio",
        "zipcode": "55192-060"
    },
    {
        "city": "Santa Cruz do Capibaribe",
        "state": "PE",
        "district": "Centro",
        "street": "Praça Tiradentes",
        "zipcode": "55192-040"
    },
    {
        "city": "Santa Cruz do Capibaribe",
        "state": "PE",
        "district": "Centro",
        "street": "Rua Paraguassu",
        "zipcode": "55192-035"
    },
    {
        "city": "Santa Cruz do Capibaribe",
        "state": "PE",
        "district": "Centro",
        "street": "Rua David Monteiro dos Anjos",
        "zipcode": "55192-020"
    },
    {
        "city": "Santa Cruz do Capibaribe",
        "state": "PE",
        "district": "Centro",
        "street": "2ª Travessa Padre Zuzinha",
        "zipcode": "55192-015"
    },
    {
        "city": "Santa Cruz do Capibaribe",
        "state": "PE",
        "district": "Centro",
        "street": "Travessa Padre Zuzinha",
        "zipcode": "55192-005"
    },
    {
        "city": "Santa Cruz do Capibaribe",
        "state": "PE",
        "district": "Centro",
        "street": "Avenida Padre Zuzinha",
        "zipcode": "55192-000"
    },
    {
        "city": "Santa Cruz do Capibaribe",
        "state": "PE",
        "district": "Santo Agostinho",
        "street": "Rua Presidente Tancredo Neves (Lot Sto Agostinho)",
        "zipcode": "55191-615"
    },
    {
        "city": "Santa Cruz do Capibaribe",
        "state": "PE",
        "district": "Santo Agostinho",
        "street": "Rua Pau",
        "zipcode": "55191-612"
    },
    {
        "city": "Santa Cruz do Capibaribe",
        "state": "PE",
        "district": "Santo Agostinho",
        "street": "Rua Fortaleza (Lot Sto Agostinho)",
        "zipcode": "55191-609"
    },
    {
        "city": "Santa Cruz do Capibaribe",
        "state": "PE",
        "district": "Santo Agostinho",
        "street": "Rua Cinco de Outubro (Lot Sto Agostinho)",
        "zipcode": "55191-603"
    },
    {
        "city": "Santa Cruz do Capibaribe",
        "state": "PE",
        "district": "Santo Agostinho",
        "street": "Rua Duarte Coelho Pereira (Lot Sto Agostinho)",
        "zipcode": "55191-600"
    },
    {
        "city": "Santa Cruz do Capibaribe",
        "state": "PE",
        "district": "Santo Agostinho",
        "street": "Rua Salvador (Lot Sto Agostinho)",
        "zipcode": "55191-594"
    },
    {
        "city": "Santa Cruz do Capibaribe",
        "state": "PE",
        "district": "Santo Agostinho",
        "street": "Rua Primeiro de Maio (Lot Sto Agostinho)",
        "zipcode": "55191-591"
    },
    {
        "city": "Santa Cruz do Capibaribe",
        "state": "PE",
        "district": "Santo Agostinho",
        "street": "Rua Sete de Setembro (Lot Sto Agostinho)",
        "zipcode": "55191-588"
    },
    {
        "city": "Santa Cruz do Capibaribe",
        "state": "PE",
        "district": "Santo Agostinho",
        "street": "Rua José Guilherme da Silva (Lot Sto Agostinho)",
        "zipcode": "55191-576"
    },
    {
        "city": "Santa Cruz do Capibaribe",
        "state": "PE",
        "district": "Santo Agostinho",
        "street": "Rua José Genivaldo dos Santos (Lot Sto Agostinho)",
        "zipcode": "55191-573"
    },
    {
        "city": "Santa Cruz do Capibaribe",
        "state": "PE",
        "district": "Santo Agostinho",
        "street": "Rua Maria de Lourdes Silva Torres (Lot Sto Agostinho)",
        "zipcode": "55191-570"
    },
    {
        "city": "Santa Cruz do Capibaribe",
        "state": "PE",
        "district": "Santo Agostinho",
        "street": "Rua Severino Luis da Silva (Lot Acauã)",
        "zipcode": "55191-472"
    },
    {
        "city": "Santa Cruz do Capibaribe",
        "state": "PE",
        "district": "Santo Agostinho",
        "street": "Rua Pastor Júlio Leitão de Melo (Lot Acauã)",
        "zipcode": "55191-469"
    },
    {
        "city": "Santa Cruz do Capibaribe",
        "state": "PE",
        "district": "Santo Agostinho",
        "street": "Rua Marcolino Ferreira Simões (Lot Acauã)",
        "zipcode": "55191-463"
    },
    {
        "city": "Santa Cruz do Capibaribe",
        "state": "PE",
        "district": "Santo Agostinho",
        "street": "Rua Maurício Lopes da Silva (Lot Acauã)",
        "zipcode": "55191-460"
    },
    {
        "city": "Santa Cruz do Capibaribe",
        "state": "PE",
        "district": "Santo Agostinho",
        "street": "Avenida Professora Maria Lucina Gonçalves (Lot Acauã)",
        "zipcode": "55191-457"
    },
    {
        "city": "Santa Cruz do Capibaribe",
        "state": "PE",
        "district": "Santo Agostinho",
        "street": "Avenida Antônio Gomes Aragão (Lot Acauã)",
        "zipcode": "55191-454"
    },
    {
        "city": "Santa Cruz do Capibaribe",
        "state": "PE",
        "district": "Santo Agostinho",
        "street": "Avenida Tomazia Cantuaria Tavares (Lot Acauã)",
        "zipcode": "55191-451"
    },
    {
        "city": "Santa Cruz do Capibaribe",
        "state": "PE",
        "district": "Santo Agostinho",
        "street": "Rua José Moraes da Silva (Lot Acauã)",
        "zipcode": "55191-439"
    },
    {
        "city": "Santa Cruz do Capibaribe",
        "state": "PE",
        "district": "Santo Agostinho",
        "street": "Rua Serafim Gonçalves da Silva (Lot Acauã)",
        "zipcode": "55191-436"
    },
    {
        "city": "Santa Cruz do Capibaribe",
        "state": "PE",
        "district": "Santo Agostinho",
        "street": "Rua Carlos Correira da Silva (Lot Acauã)",
        "zipcode": "55191-430"
    },
    {
        "city": "Santa Cruz do Capibaribe",
        "state": "PE",
        "district": "Malaquias Cardoso",
        "street": "Rua William Banister Forsyth (Lot A Aleixo I",
        "zipcode": "55191-000"
    },
    {
        "city": "Santa Cruz do Capibaribe",
        "state": "PE",
        "district": "Malaquias Cardoso",
        "street": "Avenida Secundária ll (Lot N Aragão)",
        "zipcode": "55190-803"
    },
    {
        "city": "Santa Cruz do Capibaribe",
        "state": "PE",
        "district": "Malaquias Cardoso",
        "street": "Rua Sebastião Gonçalves de Melo (Lot N Aragão)",
        "zipcode": "55190-797"
    },
    {
        "city": "Santa Cruz do Capibaribe",
        "state": "PE",
        "district": "Malaquias Cardoso",
        "street": "Rua José Izidorio Filho (Lot N Aragão)",
        "zipcode": "55190-794"
    },
    {
        "city": "Santa Cruz do Capibaribe",
        "state": "PE",
        "district": "Malaquias Cardoso",
        "street": "Rua José Bezerra da Silva (Lot N Aragão)",
        "zipcode": "55190-791"
    },
    {
        "city": "Santa Cruz do Capibaribe",
        "state": "PE",
        "district": "Malaquias Cardoso",
        "street": "Rua Jaime José da Costa (Lot N Aragão)",
        "zipcode": "55190-788"
    },
    {
        "city": "Santa Cruz do Capibaribe",
        "state": "PE",
        "district": "Malaquias Cardoso",
        "street": "Rua Pedro Procópio Ferreira (Lot N Aragão)",
        "zipcode": "55190-785"
    },
    {
        "city": "Santa Cruz do Capibaribe",
        "state": "PE",
        "district": "Malaquias Cardoso",
        "street": "Rua José Nivaldo de Farias (Lot N Aragão)",
        "zipcode": "55190-779"
    },
    {
        "city": "Santa Cruz do Capibaribe",
        "state": "PE",
        "district": "Malaquias Cardoso",
        "street": "Rua Projetada Dois (Lot N Aragão)",
        "zipcode": "55190-773"
    },
    {
        "city": "Santa Cruz do Capibaribe",
        "state": "PE",
        "district": "Malaquias Cardoso",
        "street": "Rua José Olinto Filho",
        "zipcode": "55190-597"
    },
    {
        "city": "Santa Cruz do Capibaribe",
        "state": "PE",
        "district": "Malaquias Cardoso",
        "street": "Rua Mariano Amaro de Oliveira",
        "zipcode": "55190-591"
    },
    {
        "city": "Santa Cruz do Capibaribe",
        "state": "PE",
        "district": "Malaquias Cardoso",
        "street": "Rua Orlando Alves Silva (Lot B Rio)",
        "zipcode": "55190-724"
    },
    {
        "city": "Santa Cruz do Capibaribe",
        "state": "PE",
        "district": "Malaquias Cardoso",
        "street": "Rua Ana Beatriz das Neves (Lot B Rio)",
        "zipcode": "55190-718"
    },
    {
        "city": "Santa Cruz do Capibaribe",
        "state": "PE",
        "district": "Malaquias Cardoso",
        "street": "Rua Eunice Martins Mestre (Lot B Rio)",
        "zipcode": "55190-712"
    },
    {
        "city": "Santa Cruz do Capibaribe",
        "state": "PE",
        "district": "Malaquias Cardoso",
        "street": "Rua Analícia Áurea Xavier (Lot B Rio)",
        "zipcode": "55190-706"
    },
    {
        "city": "Santa Cruz do Capibaribe",
        "state": "PE",
        "district": "Malaquias Cardoso",
        "street": "Rua Manoel Cordeiro de Arruda (Lot B Rio)",
        "zipcode": "55190-703"
    },
    {
        "city": "Santa Cruz do Capibaribe",
        "state": "PE",
        "district": "Malaquias Cardoso",
        "street": "Rua José Valderi Neves (Lot B Rio)",
        "zipcode": "55190-700"
    },
    {
        "city": "Santa Cruz do Capibaribe",
        "state": "PE",
        "district": "Malaquias Cardoso",
        "street": "Rua Santo Antônio (VI Sto Antônio)",
        "zipcode": "55190-659"
    },
    {
        "city": "Santa Cruz do Capibaribe",
        "state": "PE",
        "district": "Malaquias Cardoso",
        "street": "Rua José Gérson da Silva (Lot Pedra Branca)",
        "zipcode": "55190-653"
    },
    {
        "city": "Santa Cruz do Capibaribe",
        "state": "PE",
        "district": "Malaquias Cardoso",
        "street": "Rua José Morais Aragão (VI Sto Antônio)",
        "zipcode": "55190-650"
    },
    {
        "city": "Santa Cruz do Capibaribe",
        "state": "PE",
        "district": "Malaquias Cardoso",
        "street": "Rua Maria Nunes Torres (Lot P Branca)",
        "zipcode": "55190-631"
    },
    {
        "city": "Santa Cruz do Capibaribe",
        "state": "PE",
        "district": "Malaquias Cardoso",
        "street": "Rua Maria Nunes Silva Correia Torres (Lot P Branca)",
        "zipcode": "55190-628"
    },
    {
        "city": "Santa Cruz do Capibaribe",
        "state": "PE",
        "district": "Malaquias Cardoso",
        "street": "Rua Wilton Olinda de Melo (Lot P Branca)",
        "zipcode": "55190-622"
    },
    {
        "city": "Santa Cruz do Capibaribe",
        "state": "PE",
        "district": "Malaquias Cardoso",
        "street": "Rua Pedro Severino Bispo (Lot P Branca)",
        "zipcode": "55190-619"
    },
    {
        "city": "Santa Cruz do Capibaribe",
        "state": "PE",
        "district": "Malaquias Cardoso",
        "street": "Rua Jorge Galdino de Souza (Lot P Branca)",
        "zipcode": "55190-616"
    },
    {
        "city": "Santa Cruz do Capibaribe",
        "state": "PE",
        "district": "Malaquias Cardoso",
        "street": "Rua Vicente Rufino de Melo (Lot P Branca)",
        "zipcode": "55190-613"
    },
    {
        "city": "Santa Cruz do Capibaribe",
        "state": "PE",
        "district": "Malaquias Cardoso",
        "street": "Rua Elias Andrade da Silva (Lot P Branca)",
        "zipcode": "55190-610"
    },
    {
        "city": "Santa Cruz do Capibaribe",
        "state": "PE",
        "district": "Malaquias Cardoso",
        "street": "Rua Severino Moura de Oliveira",
        "zipcode": "55190-594"
    },
    {
        "city": "Santa Cruz do Capibaribe",
        "state": "PE",
        "district": "Malaquias Cardoso",
        "street": "Rua Luiza Alves Aragão",
        "zipcode": "55190-588"
    },
    {
        "city": "Santa Cruz do Capibaribe",
        "state": "PE",
        "district": "Malaquias Cardoso",
        "street": "Rua Dona Mãezinha Félix",
        "zipcode": "55190-585"
    },
    {
        "city": "Santa Cruz do Capibaribe",
        "state": "PE",
        "district": "Malaquias Cardoso",
        "street": "Rua Joaquim Cosmo Bezerra (Lot São Jorge)",
        "zipcode": "55190-582"
    },
    {
        "city": "Santa Cruz do Capibaribe",
        "state": "PE",
        "district": "Malaquias Cardoso",
        "street": "Rua Bonifácio Fernando de Moura",
        "zipcode": "55190-570"
    },
    {
        "city": "Santa Cruz do Capibaribe",
        "state": "PE",
        "district": "Malaquias Cardoso",
        "street": "Rua Amélia Francisca Bezerra (Lot S Jorge)",
        "zipcode": "55190-551"
    },
    {
        "city": "Santa Cruz do Capibaribe",
        "state": "PE",
        "district": "Malaquias Cardoso",
        "street": "Rua Eunice Bezerra (Lot S Jorge)",
        "zipcode": "55190-548"
    },
    {
        "city": "Santa Cruz do Capibaribe",
        "state": "PE",
        "district": "Malaquias Cardoso",
        "street": "Rua Paulo Lucena de Mendonça (Lot S Jorge)",
        "zipcode": "55190-536"
    },
    {
        "city": "Santa Cruz do Capibaribe",
        "state": "PE",
        "district": "Malaquias Cardoso",
        "street": "Rua Hildevanio Gomes de Lima (Lot S Jorge)",
        "zipcode": "55190-533"
    },
    {
        "city": "Santa Cruz do Capibaribe",
        "state": "PE",
        "district": "Malaquias Cardoso",
        "street": "Rua Amélia Cintra Pontes (Lot S Jorge)",
        "zipcode": "55190-530"
    },
    {
        "city": "Santa Cruz do Capibaribe",
        "state": "PE",
        "district": "Malaquias Cardoso",
        "street": "Rua Biu de Deda",
        "zipcode": "55190-407"
    },
    {
        "city": "Santa Cruz do Capibaribe",
        "state": "PE",
        "district": "Malaquias Cardoso",
        "street": "Rua Amaro João de Melo",
        "zipcode": "55190-395"
    },
    {
        "city": "Santa Cruz do Capibaribe",
        "state": "PE",
        "district": "Malaquias Cardoso",
        "street": "Rua José Gonçalves Sobrinho",
        "zipcode": "55190-392"
    },
    {
        "city": "Santa Cruz do Capibaribe",
        "state": "PE",
        "district": "Malaquias Cardoso",
        "street": "Rua Abílio César Pedrosa Neto",
        "zipcode": "55190-389"
    },
    {
        "city": "Santa Cruz do Capibaribe",
        "state": "PE",
        "district": "Malaquias Cardoso",
        "street": "Rua Governador Etelvino Lins",
        "zipcode": "55190-386"
    },
    {
        "city": "Santa Cruz do Capibaribe",
        "state": "PE",
        "district": "Malaquias Cardoso",
        "street": "Praça Governador Etelvino Lins",
        "zipcode": "55190-383"
    },
    {
        "city": "Santa Cruz do Capibaribe",
        "state": "PE",
        "district": "Malaquias Cardoso",
        "street": "Rua Severino Cordeiro de Arruda",
        "zipcode": "55190-377"
    },
    {
        "city": "Santa Cruz do Capibaribe",
        "state": "PE",
        "district": "Malaquias Cardoso",
        "street": "Rua Guilherme José da Costa",
        "zipcode": "55190-371"
    },
    {
        "city": "Santa Cruz do Capibaribe",
        "state": "PE",
        "district": "Malaquias Cardoso",
        "street": "Rua José Pacas",
        "zipcode": "55190-353"
    },
    {
        "city": "Santa Cruz do Capibaribe",
        "state": "PE",
        "district": "Malaquias Cardoso",
        "street": "Rua José Marinho de França",
        "zipcode": "55190-341"
    },
    {
        "city": "Santa Cruz do Capibaribe",
        "state": "PE",
        "district": "Malaquias Cardoso",
        "street": "Rua Amaro Monteiro do Nascimento",
        "zipcode": "55190-335"
    },
    {
        "city": "Santa Cruz do Capibaribe",
        "state": "PE",
        "district": "Bela Vista",
        "street": "Rua Henrique Barbosa Pereira (Lot Polispacas)",
        "zipcode": "55195-683"
    },
    {
        "city": "Santa Cruz do Capibaribe",
        "state": "PE",
        "district": "Bela Vista",
        "street": "Travessa Vinte e Dois de Abril",
        "zipcode": "55195-575"
    },
    {
        "city": "Santa Cruz do Capibaribe",
        "state": "PE",
        "district": "Bela Vista",
        "street": "Travessa Tomé de Souza",
        "zipcode": "55195-506"
    },
    {
        "city": "Santa Cruz do Capibaribe",
        "state": "PE",
        "district": "Cruz Alta",
        "street": "Rua José Gomes Bezerra Sobrinho (Lot R Verde)",
        "zipcode": "55195-103"
    },
    {
        "city": "Santa Cruz do Capibaribe",
        "state": "PE",
        "district": "Centro",
        "street": "Rua Manoel Rufino de Melo",
        "zipcode": "55192-315"
    },
    {
        "city": "Santa Cruz do Capibaribe",
        "state": "PE",
        "district": "Malaquias Cardoso",
        "street": "Rua Manoel Monteiro da Paixão",
        "zipcode": "55190-359"
    },
    {
        "city": "Santa Cruz do Capibaribe",
        "state": "PE",
        "district": "Malaquias Cardoso",
        "street": "Avenida Prefeito Braz Lira (Rod PE",
        "zipcode": "55190-356"
    },
    {
        "city": "Santa Cruz do Capibaribe",
        "state": "PE",
        "district": "Malaquias Cardoso",
        "street": "Avenida Prefeito Braz Lira (Rod PE",
        "zipcode": "55190-350"
    },
    {
        "city": "Santa Cruz do Capibaribe",
        "state": "PE",
        "district": "Malaquias Cardoso",
        "street": "Travessa Vinte e Cinco de Agosto",
        "zipcode": "55190-347"
    },
    {
        "city": "Santa Cruz do Capibaribe",
        "state": "PE",
        "district": "Malaquias Cardoso",
        "street": "Rua João Otávio Paulino",
        "zipcode": "55190-344"
    },
    {
        "city": "Santa Cruz do Capibaribe",
        "state": "PE",
        "district": "Malaquias Cardoso",
        "street": "Rua Inácio Clementino de Assis",
        "zipcode": "55190-332"
    },
    {
        "city": "Santa Cruz do Capibaribe",
        "state": "PE",
        "district": "Malaquias Cardoso",
        "street": "Rua São João",
        "zipcode": "55190-326"
    },
    {
        "city": "Santa Cruz do Capibaribe",
        "state": "PE",
        "district": "Nova Santa Cruz",
        "street": "Travessa Maria Paulina da Conceição",
        "zipcode": "55194-384"
    },
    {
        "city": "Santa Cruz do Capibaribe",
        "state": "PE",
        "district": "Centro",
        "street": "Travessa Moisés Ferreira",
        "zipcode": "55192-130"
    },
    {
        "city": "Santa Cruz do Capibaribe",
        "state": "PE",
        "district": "Malaquias Cardoso",
        "street": "Travessa Manoel Monteiro da Paixão",
        "zipcode": "55190-362"
    },
    {
        "city": "Santa Cruz do Capibaribe",
        "state": "PE",
        "district": "Malaquias Cardoso",
        "street": "Rua Raimundo Catanho",
        "zipcode": "55190-305"
    },
    {
        "city": "Santa Cruz do Capibaribe",
        "state": "PE",
        "district": "Malaquias Cardoso",
        "street": "Rua Pedra do Ouro",
        "zipcode": "55190-302"
    },
    {
        "city": "Santa Cruz do Capibaribe",
        "state": "PE",
        "district": "Malaquias Cardoso",
        "street": "Rua Pedra da Prata",
        "zipcode": "55190-299"
    },
    {
        "city": "Santa Cruz do Capibaribe",
        "state": "PE",
        "district": "Malaquias Cardoso",
        "street": "Travessa Cecília Bezerra Aragão",
        "zipcode": "55190-293"
    },
    {
        "city": "Santa Cruz do Capibaribe",
        "state": "PE",
        "district": "Malaquias Cardoso",
        "street": "Rua Cecília Bezerra Aragão",
        "zipcode": "55190-290"
    },
    {
        "city": "Santa Cruz do Capibaribe",
        "state": "PE",
        "district": "Palestina",
        "street": "Rua Santo Agostinho",
        "zipcode": "55190-062"
    },
    {
        "city": "Santa Cruz do Capibaribe",
        "state": "PE",
        "district": "Palestina",
        "street": "Rua Pedro José de Barros",
        "zipcode": "55190-054"
    },
    {
        "city": "Santa Cruz do Capibaribe",
        "state": "PE",
        "district": "Palestina",
        "street": "Rua Elias Morais",
        "zipcode": "55190-046"
    },
    {
        "city": "Santa Cruz do Capibaribe",
        "state": "PE",
        "district": "Palestina",
        "street": "Rua São Miguel",
        "zipcode": "55190-026"
    },
    {
        "city": "Santa Cruz do Capibaribe",
        "state": "PE",
        "district": "Palestina",
        "street": "Travessa São Rafael",
        "zipcode": "55190-024"
    },
    {
        "city": "Santa Cruz do Capibaribe",
        "state": "PE",
        "district": "Palestina",
        "street": "Travessa Santa Luzia",
        "zipcode": "55190-018"
    },
    {
        "city": "Santa Cruz do Capibaribe",
        "state": "PE",
        "district": "Palestina",
        "street": "Rua Santa Luzia",
        "zipcode": "55190-016"
    },
    {
        "city": "Santa Cruz do Capibaribe",
        "state": "PE",
        "district": "Palestina",
        "street": "Rua São Geraldo",
        "zipcode": "55190-014"
    },
    {
        "city": "Santa Cruz do Capibaribe",
        "state": "PE",
        "district": "Palestina",
        "street": "Rua São Carlos",
        "zipcode": "55190-010"
    },
    {
        "city": "Santa Cruz do Capibaribe",
        "state": "PE",
        "district": "Bela Vista",
        "street": "Rua Bernardino Vitorino da Silva",
        "zipcode": "55195-590"
    },
    {
        "city": "Santa Cruz do Capibaribe",
        "state": "PE",
        "district": "Bela Vista",
        "street": "Rua José Bernardino Gomes Filho",
        "zipcode": "55195-533"
    },
    {
        "city": "Santa Cruz do Capibaribe",
        "state": "PE",
        "district": "Bela Vista",
        "street": "Avenida Raimunda Maria Aragão",
        "zipcode": "55195-515"
    },
    {
        "city": "Santa Cruz do Capibaribe",
        "state": "PE",
        "district": "Cruz Alta",
        "street": "Rua Geovana Clementino da Silva (Lot S José II)",
        "zipcode": "55195-120"
    },
    {
        "city": "Santa Cruz do Capibaribe",
        "state": "PE",
        "district": "Cruz Alta",
        "street": "Avenida Cézario Aragão (Lot Sta Tereza)",
        "zipcode": "55195-015"
    },
    {
        "city": "Santa Cruz do Capibaribe",
        "state": "PE",
        "district": "Nova Santa Cruz",
        "street": "Rua Doutor Petrônio Barbosa",
        "zipcode": "55194-414"
    },
    {
        "city": "Santa Cruz do Capibaribe",
        "state": "PE",
        "district": "Nova Santa Cruz",
        "street": "Rua José Glicério da Silva",
        "zipcode": "55194-372"
    },
    {
        "city": "Santa Cruz do Capibaribe",
        "state": "PE",
        "district": "Nova Santa Cruz",
        "street": "Rua Sabina Moraes da Silva",
        "zipcode": "55194-354"
    },
    {
        "city": "Santa Cruz do Capibaribe",
        "state": "PE",
        "district": "Nova Santa Cruz",
        "street": "Avenida Santa Cruz",
        "zipcode": "55194-351"
    },
    {
        "city": "Santa Cruz do Capibaribe",
        "state": "PE",
        "district": "Nova Santa Cruz",
        "street": "Avenida Papa João XXIII",
        "zipcode": "55194-345"
    },
    {
        "city": "Santa Cruz do Capibaribe",
        "state": "PE",
        "district": "Nova Santa Cruz",
        "street": "Avenida América do Sul",
        "zipcode": "55194-342"
    },
    {
        "city": "Santa Cruz do Capibaribe",
        "state": "PE",
        "district": "Nova Santa Cruz",
        "street": "Avenida Batalha dos Guararapes",
        "zipcode": "55194-339"
    },
    {
        "city": "Santa Cruz do Capibaribe",
        "state": "PE",
        "district": "Nova Santa Cruz",
        "street": "Avenida Bela Vista (Rod PE",
        "zipcode": "55194-336"
    },
    {
        "city": "Santa Cruz do Capibaribe",
        "state": "PE",
        "district": "Malaquias Cardoso",
        "street": "Rua Domingo Gomes de Melo (Lot Malaquias Cardoso)",
        "zipcode": "55190-317"
    },
    {
        "city": "Santa Cruz do Capibaribe",
        "state": "PE",
        "district": "Malaquias Cardoso",
        "street": "Rua Luiz Abílio Aragão",
        "zipcode": "55190-311"
    },
    {
        "city": "Santa Cruz do Capibaribe",
        "state": "PE",
        "district": "Malaquias Cardoso",
        "street": "Rua Abílio Balbino Sobrinho",
        "zipcode": "55190-308"
    },
    {
        "city": "Santa Cruz do Capibaribe",
        "state": "PE",
        "district": "Palestina",
        "street": "Rua São Gabriel",
        "zipcode": "55190-030"
    },
    {
        "city": "Santa Cruz do Capibaribe",
        "state": "PE",
        "district": "Nova Santa Cruz",
        "street": "Avenida Vereador Rodolfo Francelino Aragão (Rod PE",
        "zipcode": "55194-333"
    },
    {
        "city": "Santa Cruz do Capibaribe",
        "state": "PE",
        "district": "Nova Santa Cruz",
        "street": "Rua Presidente Artur da Costa e Silva",
        "zipcode": "55194-330"
    },
    {
        "city": "Santa Cruz do Capibaribe",
        "state": "PE",
        "district": "Nova Santa Cruz",
        "street": "Rua Prefeito Augustinho Rufino de Melo",
        "zipcode": "55194-324"
    },
    {
        "city": "Santa Cruz do Capibaribe",
        "state": "PE",
        "district": "Nova Santa Cruz",
        "street": "Rua Maestro Alexandre",
        "zipcode": "55194-321"
    },
    {
        "city": "Santa Cruz do Capibaribe",
        "state": "PE",
        "district": "Nova Santa Cruz",
        "street": "Rua Pedro Teodoro Aragão",
        "zipcode": "55194-318"
    },
    {
        "city": "Santa Cruz do Capibaribe",
        "state": "PE",
        "district": "Nova Santa Cruz",
        "street": "Rua Doutor Cláudio Abilio Aragão",
        "zipcode": "55194-315"
    },
    {
        "city": "Santa Cruz do Capibaribe",
        "state": "PE",
        "district": "Nova Santa Cruz",
        "street": "Rua Antônio Burgos",
        "zipcode": "55194-306"
    },
    {
        "city": "Santa Cruz do Capibaribe",
        "state": "PE",
        "district": "Nova Santa Cruz",
        "street": "Rua Luíza Mendes",
        "zipcode": "55194-300"
    },
    {
        "city": "Santa Cruz do Capibaribe",
        "state": "PE",
        "district": "São Cristovão",
        "street": "Rua João Manoel dos Santos",
        "zipcode": "55194-245"
    },
    {
        "city": "Santa Cruz do Capibaribe",
        "state": "PE",
        "district": "São Cristovão",
        "street": "Travessa Emília Nicacia Aragão",
        "zipcode": "55194-235"
    },
    {
        "city": "Santa Cruz do Capibaribe",
        "state": "PE",
        "district": "São Cristovão",
        "street": "Rua Emília Nicacia Aragão",
        "zipcode": "55194-230"
    },
    {
        "city": "Santa Cruz do Capibaribe",
        "state": "PE",
        "district": "São Cristovão",
        "street": "Rua José Barbosa da Silva",
        "zipcode": "55194-225"
    },
    {
        "city": "Santa Cruz do Capibaribe",
        "state": "PE",
        "district": "São Cristovão",
        "street": "Rua João Fernandes Vieira",
        "zipcode": "55194-220"
    },
    {
        "city": "Santa Cruz do Capibaribe",
        "state": "PE",
        "district": "São Cristovão",
        "street": "Rua Cristóvão Colombo",
        "zipcode": "55194-210"
    },
    {
        "city": "Santa Cruz do Capibaribe",
        "state": "PE",
        "district": "Nova Santa Cruz",
        "street": "Rua João Clemente Sobrinho",
        "zipcode": "55194-348"
    },
    {
        "city": "Santa Cruz do Capibaribe",
        "state": "PE",
        "district": "Bela Vista",
        "street": "Rua Edeilson Nunes de Araújo (Lot Sta Cruz Cid Alta)",
        "zipcode": "55195-755"
    },
    {
        "city": "Santa Cruz do Capibaribe",
        "state": "PE",
        "district": "Bela Vista",
        "street": "Rua Irenice Meires Ramos da Silva (Lot Nezinho Arruda)",
        "zipcode": "55196-136"
    },
    {
        "city": "Santa Cruz do Capibaribe",
        "state": "PE",
        "district": "Malaquias Cardoso",
        "street": "Rua Tertulina Felismina de Araújo (Lot B Rio)",
        "zipcode": "55190-733"
    },
    {
        "city": "Santa Cruz do Capibaribe",
        "state": "PE",
        "district": "Palestina",
        "street": "Avenida Nicolau Teodoro Aragão",
        "zipcode": "55190-040"
    },
    {
        "city": "Santa Cruz do Capibaribe",
        "state": "PE",
        "district": "Palestina",
        "street": "Rua Manoel Teodoro Aragão",
        "zipcode": "55190-038"
    },
    {
        "city": "Santa Cruz do Capibaribe",
        "state": "PE",
        "district": "Palestina",
        "street": "Rua São Francisco ll",
        "zipcode": "55190-034"
    },
    {
        "city": "Santa Cruz do Capibaribe",
        "state": "PE",
        "district": "Palestina",
        "street": "Rua Jaílton José de Menezes",
        "zipcode": "55190-012"
    },
    {
        "city": "Santa Cruz do Capibaribe",
        "state": "PE",
        "district": "Nova Santa Cruz",
        "street": "Avenida Rio Branco",
        "zipcode": "55194-312"
    },
    {
        "city": "Santa Cruz do Capibaribe",
        "state": "PE",
        "district": "São Cristovão",
        "street": "Rua Professor Domingos Pereira",
        "zipcode": "55194-275"
    },
    {
        "city": "Santa Cruz do Capibaribe",
        "state": "PE",
        "district": "São Cristovão",
        "street": "Rua Rogaciano Assis Aragão",
        "zipcode": "55194-270"
    },
    {
        "city": "Santa Cruz do Capibaribe",
        "state": "PE",
        "district": "São Cristovão",
        "street": "Rua João Francisco de Moura",
        "zipcode": "55194-265"
    },
    {
        "city": "Santa Cruz do Capibaribe",
        "state": "PE",
        "district": "São Cristovão",
        "street": "Rua Manoel Vitorino da Silva",
        "zipcode": "55194-260"
    },
    {
        "city": "Santa Cruz do Capibaribe",
        "state": "PE",
        "district": "São Cristovão",
        "street": "Rua Otacilio Moreira da Silva",
        "zipcode": "55194-255"
    },
    {
        "city": "Santa Cruz do Capibaribe",
        "state": "PE",
        "district": "São Cristovão",
        "street": "Rua Lídia Gomes Ribeiro",
        "zipcode": "55194-250"
    },
    {
        "city": "Santa Cruz do Capibaribe",
        "state": "PE",
        "district": "São Cristovão",
        "street": "Rua São Francisco de Paula",
        "zipcode": "55194-240"
    },
    {
        "city": "Santa Cruz do Capibaribe",
        "state": "PE",
        "district": "São Cristovão",
        "street": "Rua Henrique Dias",
        "zipcode": "55194-205"
    },
    {
        "city": "Santa Cruz do Capibaribe",
        "state": "PE",
        "district": "São Cristovão",
        "street": "Rua Lazáro David Monteiro",
        "zipcode": "55194-200"
    },
    {
        "city": "Santa Cruz do Capibaribe",
        "state": "PE",
        "district": "São Cristovão",
        "street": "Rua Irene Maria de Jesus",
        "zipcode": "55194-195"
    },
    {
        "city": "Santa Cruz do Capibaribe",
        "state": "PE",
        "district": "São Cristovão",
        "street": "Rua Mariza Neves",
        "zipcode": "55194-190"
    },
    {
        "city": "Santa Cruz do Capibaribe",
        "state": "PE",
        "district": "São Cristovão",
        "street": "Travessa Ademar Francelino Aragão",
        "zipcode": "55194-180"
    },
    {
        "city": "Santa Cruz do Capibaribe",
        "state": "PE",
        "district": "São Cristovão",
        "street": "Rua Francisco Antônio Aragão",
        "zipcode": "55194-085"
    },
    {
        "city": "Santa Cruz do Capibaribe",
        "state": "PE",
        "district": "São Cristovão",
        "street": "Rua João Balbino",
        "zipcode": "55194-010"
    },
    {
        "city": "Santa Cruz do Capibaribe",
        "state": "PE",
        "district": "Oscarzão",
        "street": "Rodovia PE",
        "zipcode": "55193-566"
    },
    {
        "city": "Santa Cruz do Capibaribe",
        "state": "PE",
        "district": "Oscarzão",
        "street": "Rua José Capibaribe (Lot Severino Amaro)",
        "zipcode": "55193-563"
    },
    {
        "city": "Santa Cruz do Capibaribe",
        "state": "PE",
        "district": "Oscarzão",
        "street": "Rua do Serrote (Lot Severino Amaro)",
        "zipcode": "55193-551"
    },
    {
        "city": "Santa Cruz do Capibaribe",
        "state": "PE",
        "district": "Oscarzão",
        "street": "Avenida José Djarbas (Lot Severino Amaro)",
        "zipcode": "55193-548"
    },
    {
        "city": "Santa Cruz do Capibaribe",
        "state": "PE",
        "district": "Oscarzão",
        "street": "Travessa São Pedro",
        "zipcode": "55193-542"
    },
    {
        "city": "Santa Cruz do Capibaribe",
        "state": "PE",
        "district": "Oscarzão",
        "street": "Rua Santo Antônio",
        "zipcode": "55193-539"
    },
    {
        "city": "Santa Cruz do Capibaribe",
        "state": "PE",
        "district": "Oscarzão",
        "street": "Rua São Pedro",
        "zipcode": "55193-536"
    },
    {
        "city": "Santa Cruz do Capibaribe",
        "state": "PE",
        "district": "Oscarzão",
        "street": "Rua Treze de Maio",
        "zipcode": "55193-533"
    },
    {
        "city": "Santa Cruz do Capibaribe",
        "state": "PE",
        "district": "Oscarzão",
        "street": "Rua Primeiro de Maio",
        "zipcode": "55193-530"
    },
    {
        "city": "Santa Cruz do Capibaribe",
        "state": "PE",
        "district": "Oscarzão",
        "street": "Rua Projetada 1",
        "zipcode": "55193-527"
    },
    {
        "city": "Santa Cruz do Capibaribe",
        "state": "PE",
        "district": "Oscarzão",
        "street": "Rua Via São Pedro",
        "zipcode": "55193-517"
    },
    {
        "city": "Santa Cruz do Capibaribe",
        "state": "PE",
        "district": "Oscarzão",
        "street": "Rua Santa Luzia",
        "zipcode": "55193-514"
    },
    {
        "city": "Santa Cruz do Capibaribe",
        "state": "PE",
        "district": "Oscarzão",
        "street": "Rua São João",
        "zipcode": "55193-511"
    },
    {
        "city": "Santa Cruz do Capibaribe",
        "state": "PE",
        "district": "Oscarzão",
        "street": "Rua Pedin do Golf",
        "zipcode": "55193-508"
    },
    {
        "city": "Santa Cruz do Capibaribe",
        "state": "PE",
        "district": "Oscarzão",
        "street": "Rua da Pedra",
        "zipcode": "55193-505"
    },
    {
        "city": "Santa Cruz do Capibaribe",
        "state": "PE",
        "district": "Oscarzão",
        "street": "Rua do Sol",
        "zipcode": "55193-496"
    },
    {
        "city": "Santa Cruz do Capibaribe",
        "state": "PE",
        "district": "Oscarzão",
        "street": "Rua São Jorge",
        "zipcode": "55193-493"
    },
    {
        "city": "Santa Cruz do Capibaribe",
        "state": "PE",
        "district": "Nova Santa Cruz",
        "street": "Rua Professora Ivani Batista da Silva",
        "zipcode": "55194-309"
    },
    {
        "city": "Santa Cruz do Capibaribe",
        "state": "PE",
        "district": "Dona Dom",
        "street": "Avenida Aírton Senna da Silva (Lot D Lica)",
        "zipcode": "55192-636"
    },
    {
        "city": "Santa Cruz do Capibaribe",
        "state": "PE",
        "district": "Dona Dom",
        "street": "Rua Padre José Aragão Araújo",
        "zipcode": "55192-596"
    },
    {
        "city": "Santa Cruz do Capibaribe",
        "state": "PE",
        "district": "Nova Santa Cruz",
        "street": "Rua Maria Lira de Moraes",
        "zipcode": "55194-303"
    },
    {
        "city": "Santa Cruz do Capibaribe",
        "state": "PE",
        "district": "Dona Dom",
        "street": "Rua Manoel Alves da Silva",
        "zipcode": "55192-545"
    },
    {
        "city": "Santa Cruz do Capibaribe",
        "state": "PE",
        "district": "Dona Dom",
        "street": "Rua Dom Pedro I",
        "zipcode": "55192-506"
    },
    {
        "city": "Santa Cruz do Capibaribe",
        "state": "PE",
        "district": "Centro",
        "street": "Rua Igarassu",
        "zipcode": "55192-295"
    },
    {
        "city": "Santa Cruz do Capibaribe",
        "state": "PE",
        "district": "Centro",
        "street": "Rua José Pereira Neto",
        "zipcode": "55192-250"
    },
    {
        "city": "Santa Cruz do Capibaribe",
        "state": "PE",
        "district": "Centro",
        "street": "Avenida Cézario Aragão",
        "zipcode": "55192-200"
    },
    {
        "city": "Santa Cruz do Capibaribe",
        "state": "PE",
        "district": "Centro",
        "street": "Rua Beira Rio",
        "zipcode": "55192-150"
    },
    {
        "city": "Santa Cruz do Capibaribe",
        "state": "PE",
        "district": "Bela Vista",
        "street": "Avenida Amaro Manoel das Chagas (Lot S Miguel)",
        "zipcode": "55195-800"
    },
    {
        "city": "Santa Cruz do Capibaribe",
        "state": "PE",
        "district": "Bela Vista",
        "street": "Avenida Pedro e Paulo Alves da Rocha",
        "zipcode": "55195-536"
    },
    {
        "city": "Santa Cruz do Capibaribe",
        "state": "PE",
        "district": "Cruz Alta",
        "street": "Rua Manoel Marques da Silva (Lot R Verde)",
        "zipcode": "55195-115"
    },
    {
        "city": "Santa Cruz do Capibaribe",
        "state": "PE",
        "district": "Cruz Alta",
        "street": "Rua Belarmina Pereira (Lot Sta Tereza)",
        "zipcode": "55195-057"
    },
    {
        "city": "Santa Cruz do Capibaribe",
        "state": "PE",
        "district": "Cruz Alta",
        "street": "Rua Beatriz Chagas (Lot Sta Tereza)",
        "zipcode": "55195-051"
    },
    {
        "city": "Santa Cruz do Capibaribe",
        "state": "PE",
        "district": "Nova Santa Cruz",
        "street": "Rua Flávio Soares Bezerra",
        "zipcode": "55194-360"
    },
    {
        "city": "Santa Cruz do Capibaribe",
        "state": "PE",
        "district": "Oscarzão",
        "street": "Rua João Bosco Filho (Lot Antonina)",
        "zipcode": "55193-521"
    },
    {
        "city": "Santa Cruz do Capibaribe",
        "state": "PE",
        "district": "Dona Dom",
        "street": "Rua David Ferreira de Araújo (Lot D Lica)",
        "zipcode": "55192-642"
    },
    {
        "city": "Santa Cruz do Capibaribe",
        "state": "PE",
        "district": "Dona Dom",
        "street": "Rua Irmã Eveline (Lot D Lica)",
        "zipcode": "55192-626"
    },
    {
        "city": "Santa Cruz do Capibaribe",
        "state": "PE",
        "district": "Bairro Novo",
        "street": "Rua Francisco de Paula Farias",
        "zipcode": "55192-430"
    },
    {
        "city": "Santa Cruz do Capibaribe",
        "state": "PE",
        "district": "Bairro Novo",
        "street": "Avenida Vereador Rodolfo Francelino Aragão (Rod PE",
        "zipcode": "55192-410"
    },
    {
        "city": "Santa Cruz do Capibaribe",
        "state": "PE",
        "district": "Centro",
        "street": "Rua Major Negrinho",
        "zipcode": "55192-320"
    },
    {
        "city": "Santa Cruz do Capibaribe",
        "state": "PE",
        "district": "Centro",
        "street": "Rua José Francelino Aragão",
        "zipcode": "55192-115"
    },
    {
        "city": "Santa Cruz do Capibaribe",
        "state": "PE",
        "district": "Centro",
        "street": "Rua Manoel Silva",
        "zipcode": "55192-105"
    },
    {
        "city": "Santa Cruz do Capibaribe",
        "state": "PE",
        "district": "Centro",
        "street": "1ª Travessa Padre Zuzinha",
        "zipcode": "55192-010"
    },
    {
        "city": "Santa Cruz do Capibaribe",
        "state": "PE",
        "district": "Santo Agostinho",
        "street": "Rua Deputado Ulisses Guimarães (Lot Sto Agostinho)",
        "zipcode": "55191-621"
    },
    {
        "city": "Santa Cruz do Capibaribe",
        "state": "PE",
        "district": "Santo Agostinho",
        "street": "Rua Santa Catarina (Lot Sto Agostinho)",
        "zipcode": "55191-618"
    },
    {
        "city": "Santa Cruz do Capibaribe",
        "state": "PE",
        "district": "Santo Agostinho",
        "street": "Rua Quinze de Novembro (Lot Sto Agostinho)",
        "zipcode": "55191-585"
    },
    {
        "city": "Santa Cruz do Capibaribe",
        "state": "PE",
        "district": "Santo Agostinho",
        "street": "Rua Waldenice Moraes Aragão Araújo (Lot Acauã)",
        "zipcode": "55191-433"
    },
    {
        "city": "Santa Cruz do Capibaribe",
        "state": "PE",
        "district": "Malaquias Cardoso",
        "street": "Rua José da Silva Neves (Lot N Aragão)",
        "zipcode": "55190-770"
    },
    {
        "city": "Santa Cruz do Capibaribe",
        "state": "PE",
        "district": "Malaquias Cardoso",
        "street": "Rua Nélson Pedro de Araújo (Lot B Rio)",
        "zipcode": "55190-730"
    },
    {
        "city": "Santa Cruz do Capibaribe",
        "state": "PE",
        "district": "Malaquias Cardoso",
        "street": "Rua Clóvis Vicente de Souza",
        "zipcode": "55190-579"
    },
    {
        "city": "Santa Cruz do Capibaribe",
        "state": "PE",
        "district": "Malaquias Cardoso",
        "street": "Rua Santo Antônio (Lot S Jorge)",
        "zipcode": "55190-542"
    },
    {
        "city": "Santa Cruz do Capibaribe",
        "state": "PE",
        "district": "Malaquias Cardoso",
        "street": "Rua Marcelo Ramos da Silva",
        "zipcode": "55190-368"
    },
    {
        "city": "Santa Cruz do Capibaribe",
        "state": "PE",
        "district": "Malaquias Cardoso",
        "street": "Travessa Amaro Monteiro do Nascimento",
        "zipcode": "55190-338"
    },
    {
        "city": "Santa Cruz do Capibaribe",
        "state": "PE",
        "district": "Malaquias Cardoso",
        "street": "Rua Pedra do Bronze",
        "zipcode": "55190-296"
    },
    {
        "city": "Santa Cruz do Capibaribe",
        "state": "PE",
        "district": "Bela Vista",
        "street": "Rua Zenilde Lira Ferreira de Moraes",
        "zipcode": "55195-596"
    },
    {
        "city": "Santa Cruz do Capibaribe",
        "state": "PE",
        "district": "Bela Vista",
        "street": "Rua Josefa Maria de Oliveira (Lot N Arruda)",
        "zipcode": "55196-148"
    },
    {
        "city": "Santa Cruz do Capibaribe",
        "state": "PE",
        "district": "Bela Vista",
        "street": "Rua José Braz Vieira (Lot Nezinho Arruda)",
        "zipcode": "55196-160"
    },
    {
        "city": "Santa Cruz do Capibaribe",
        "state": "PE",
        "district": "Bela Vista",
        "street": "Rua João Gomes Ribeiro (Lot Nezinho Arruda)",
        "zipcode": "55196-163"
    },
    {
        "city": "Santa Cruz do Capibaribe",
        "state": "PE",
        "district": "Bela Vista",
        "street": "Rua José Monteiro do Nascimento (Lot Nezinho Arruda)",
        "zipcode": "55196-166"
    },
    {
        "city": "Santa Cruz do Capibaribe",
        "state": "PE",
        "district": "Bela Vista",
        "street": "Rua Luis Bernardino Ferreira",
        "zipcode": "55195-548"
    },
    {
        "city": "Santa Cruz do Capibaribe",
        "state": "PE",
        "district": "Bela Vista",
        "street": "Avenida Bela Vista (Rod PE",
        "zipcode": "55195-500"
    },
    {
        "city": "Santa Cruz do Capibaribe",
        "state": "PE",
        "district": "Cruz Alta",
        "street": "Rua Inácio Vitorino (Lot Sta Tereza)",
        "zipcode": "55195-054"
    },
    {
        "city": "Santa Cruz do Capibaribe",
        "state": "PE",
        "district": "Nova Santa Cruz",
        "street": "Rua Monte das Tabocas (Lot M Monteiro)",
        "zipcode": "55194-433"
    },
    {
        "city": "Santa Cruz do Capibaribe",
        "state": "PE",
        "district": "Malaquias Cardoso",
        "street": "Rua Severina Lopes do Nascimento",
        "zipcode": "55190-404"
    },
    {
        "city": "Santa Cruz do Capibaribe",
        "state": "PE",
        "district": "São Cristovão",
        "street": "Rua Doutor Silva Jardim",
        "zipcode": "55194-185"
    },
    {
        "city": "Santa Cruz do Capibaribe",
        "state": "PE",
        "district": "Dona Dom",
        "street": "Rua Fausto Antônio da Silva (Lot D Lica)",
        "zipcode": "55192-657"
    },
    {
        "city": "Santa Cruz do Capibaribe",
        "state": "PE",
        "district": "Dona Dom",
        "street": "Avenida José Pedro de Lima",
        "zipcode": "55192-623"
    },
    {
        "city": "Santa Cruz do Capibaribe",
        "state": "PE",
        "district": "Dona Dom",
        "street": "Rua Boaventura Vieira de Araújo",
        "zipcode": "55192-584"
    },
    {
        "city": "Santa Cruz do Capibaribe",
        "state": "PE",
        "district": "Bairro Novo",
        "street": "Rua Amaro Aleixo de Barros",
        "zipcode": "55192-380"
    },
    {
        "city": "Santa Cruz do Capibaribe",
        "state": "PE",
        "district": "Centro",
        "street": "Avenida Tito Sinésio Aragão",
        "zipcode": "55192-335"
    },
    {
        "city": "Santa Cruz do Capibaribe",
        "state": "PE",
        "district": "Centro",
        "street": "Rua Graciliano Arruda",
        "zipcode": "55192-065"
    },
    {
        "city": "Santa Cruz do Capibaribe",
        "state": "PE",
        "district": "Centro",
        "street": "Rua Raimundo Francelino Aragão",
        "zipcode": "55192-030"
    },
    {
        "city": "Santa Cruz do Capibaribe",
        "state": "PE",
        "district": "Malaquias Cardoso",
        "street": "Rua Deputado Osvaldo Rabelo (Lot B Rio)",
        "zipcode": "55190-727"
    },
    {
        "city": "Santa Cruz do Capibaribe",
        "state": "PE",
        "district": "Malaquias Cardoso",
        "street": "Rua Carmecita Joventino da Silva",
        "zipcode": "55190-576"
    },
    {
        "city": "Santa Cruz do Capibaribe",
        "state": "PE",
        "district": "Palestina",
        "street": "Rua Manoel Francisco Xavier",
        "zipcode": "55190-036"
    },
    {
        "city": "Santa Cruz do Capibaribe",
        "state": "PE",
        "district": "Santo Agostinho",
        "street": "Avenida Olímpio Bezerra de Arruda (Lot Sto Agostinho)",
        "zipcode": "55191-597"
    },
    {
        "city": "Santa Cruz do Capibaribe",
        "state": "PE",
        "district": "Bela Vista",
        "street": "Rua Antônio Raimundo de Souza",
        "zipcode": "55195-815"
    },
    {
        "city": "Santa Cruz do Capibaribe",
        "state": "PE",
        "district": "Bela Vista",
        "street": "Rua Joaquim Ferreira Filho (Lot Nova Morada)",
        "zipcode": "55196-043"
    },
    {
        "city": "Santa Cruz do Capibaribe",
        "state": "PE",
        "district": "Bela Vista",
        "street": "Rua João Raimundo de Souza (Lot Bela Vista)",
        "zipcode": "55195-557"
    },
    {
        "city": "Santa Cruz do Capibaribe",
        "state": "PE",
        "district": "Palestina",
        "street": "Rua São Sebastião",
        "zipcode": "55190-020"
    },
    {
        "city": "Santa Cruz do Capibaribe",
        "state": "PE",
        "district": "Palestina",
        "street": "Travessa São Sebastião",
        "zipcode": "55190-022"
    },
    {
        "city": "Santa Cruz do Capibaribe",
        "state": "PE",
        "district": "Palestina",
        "street": "Rua São Lucas",
        "zipcode": "55190-042"
    },
    {
        "city": "Santa Cruz do Capibaribe",
        "state": "PE",
        "district": "Palestina",
        "street": "Rua João Gueiros do Nascimento",
        "zipcode": "55190-044"
    },
    {
        "city": "Santa Cruz do Capibaribe",
        "state": "PE",
        "district": "Palestina",
        "street": "Rua Pedro Felinto de Araújo",
        "zipcode": "55190-060"
    },
    {
        "city": "Santa Cruz do Capibaribe",
        "state": "PE",
        "district": "Malaquias Cardoso",
        "street": "Rua Pedro Assis Aragão",
        "zipcode": "55190-374"
    },
    {
        "city": "Santa Cruz do Capibaribe",
        "state": "PE",
        "district": "Malaquias Cardoso",
        "street": "Avenida Prefeito Braz Lira (Rod PE",
        "zipcode": "55190-398"
    },
    {
        "city": "Santa Cruz do Capibaribe",
        "state": "PE",
        "district": "Malaquias Cardoso",
        "street": "Rua Luiz Gonçalves da Silva (Lot S Jorge)",
        "zipcode": "55190-545"
    },
    {
        "city": "Santa Cruz do Capibaribe",
        "state": "PE",
        "district": "Dona Dom",
        "street": "Travessa Oito de Março (Lot D Dom)",
        "zipcode": "55192-684"
    },
    {
        "city": "Santa Cruz do Capibaribe",
        "state": "PE",
        "district": "Dona Dom",
        "street": "Rua Maria Lucina Gonçalves (Lot D Lica)",
        "zipcode": "55192-687"
    },
    {
        "city": "Santa Cruz do Capibaribe",
        "state": "PE",
        "district": "Dona Dom",
        "street": "Rua Cezária Francisca de Araújo (Lot D Lica)",
        "zipcode": "55192-690"
    },
    {
        "city": "Santa Cruz do Capibaribe",
        "state": "PE",
        "district": "Oscarzão",
        "street": "Rua Maria Izabel (Lot Severino Amaro)",
        "zipcode": "55193-554"
    },
    {
        "city": "Santa Cruz do Capibaribe",
        "state": "PE",
        "district": "Oscarzão",
        "street": "Rua São José (Lot Severino Amaro)",
        "zipcode": "55193-557"
    },
    {
        "city": "Santa Cruz do Capibaribe",
        "state": "PE",
        "district": "São Cristovão",
        "street": "Rua Vidal de Negreiros (Lot M Morais)",
        "zipcode": "55194-106"
    },
    {
        "city": "Santa Cruz do Capibaribe",
        "state": "PE",
        "district": "Nova Santa Cruz",
        "street": "Rua Riachuelo (Lot M Monteiro)",
        "zipcode": "55194-430"
    },
    {
        "city": "Santa Cruz do Capibaribe",
        "state": "PE",
        "district": "Nova Santa Cruz",
        "street": "Rua Josefa Gomes da Silva (Lot M Monteiro)",
        "zipcode": "55194-487"
    },
    {
        "city": "Santa Cruz do Capibaribe",
        "state": "PE",
        "district": "Nova Santa Cruz",
        "street": "Avenida Marinete de Assis Santos Tavares (Lot M Monteiro)",
        "zipcode": "55194-493"
    },
    {
        "city": "Santa Cruz do Capibaribe",
        "state": "PE",
        "district": "Nova Santa Cruz",
        "street": "Rua Edinaldo Izídio da Silva (Lot Maria Vieira)",
        "zipcode": "55194-496"
    },
    {
        "city": "Santa Cruz do Capibaribe",
        "state": "PE",
        "district": "Nova Santa Cruz",
        "street": "Rua Alcindo Bezerra Aragão (Lot Maria Vieira)",
        "zipcode": "55194-499"
    },
    {
        "city": "Santa Cruz do Capibaribe",
        "state": "PE",
        "district": "Nova Santa Cruz",
        "street": "Rua Alcindo Arruda Bezerra (Lot Maria Vieira)",
        "zipcode": "55194-502"
    },
    {
        "city": "Santa Cruz do Capibaribe",
        "state": "PE",
        "district": "Nova Santa Cruz",
        "street": "Rua Maria Marlene Ramos Arruda (Lot Maria Vieira)",
        "zipcode": "55194-505"
    },
    {
        "city": "Santa Cruz do Capibaribe",
        "state": "PE",
        "district": "Nova Santa Cruz",
        "street": "Rua João Correia das Neves (Lot Maria Vieira)",
        "zipcode": "55194-511"
    },
    {
        "city": "Santa Cruz do Capibaribe",
        "state": "PE",
        "district": "Nova Santa Cruz",
        "street": "Rua Jeiel Augusto Rodrigues Ferreira (Lot Maria Vieira)",
        "zipcode": "55194-514"
    },
    {
        "city": "Santa Cruz do Capibaribe",
        "state": "PE",
        "district": "Nova Santa Cruz",
        "street": "Rua Ilta Queiroz Oliveira da Silva (Lot Maria Vieira)",
        "zipcode": "55194-517"
    },
    {
        "city": "Santa Cruz do Capibaribe",
        "state": "PE",
        "district": "Nova Santa Cruz",
        "street": "Rua Mabel Arruda Aragão (Lot Maria Vieira)",
        "zipcode": "55194-520"
    },
    {
        "city": "Santa Cruz do Capibaribe",
        "state": "PE",
        "district": "Nova Santa Cruz",
        "street": "Rua Maria de Lourdes Arruda Aragão (Lot Maria Vieira)",
        "zipcode": "55194-532"
    },
    {
        "city": "Santa Cruz do Capibaribe",
        "state": "PE",
        "district": "Nova Santa Cruz",
        "street": "Rua Tomé de Souza",
        "zipcode": "55194-405"
    },
    {
        "city": "Santa Cruz do Capibaribe",
        "state": "PE",
        "district": "Nova Santa Cruz",
        "street": "Rua das Palmas (Lot Maria Vieira)",
        "zipcode": "55194-541"
    },
    {
        "city": "Santa Cruz do Capibaribe",
        "state": "PE",
        "district": "Nova Santa Cruz",
        "street": "Rua dos Ipês (Lot Maria Vieira)",
        "zipcode": "55194-544"
    },
    {
        "city": "Santa Cruz do Capibaribe",
        "state": "PE",
        "district": "Nova Santa Cruz",
        "street": "Rua das Algarobas (Lot Maria Vieira)",
        "zipcode": "55194-547"
    },
    {
        "city": "Santa Cruz do Capibaribe",
        "state": "PE",
        "district": "Nova Santa Cruz",
        "street": "Rua das Palmeiras (Lot Maria Vieira)",
        "zipcode": "55194-550"
    },
    {
        "city": "Santa Cruz do Capibaribe",
        "state": "PE",
        "district": "Nova Santa Cruz",
        "street": "Rua das Baraúnas (Lot Maria Vieira)",
        "zipcode": "55194-553"
    },
    {
        "city": "Santa Cruz do Capibaribe",
        "state": "PE",
        "district": "Nova Santa Cruz",
        "street": "Rua dos Coqueirais (Lot Maria Vieira)",
        "zipcode": "55194-559"
    },
    {
        "city": "Santa Cruz do Capibaribe",
        "state": "PE",
        "district": "Nova Santa Cruz",
        "street": "Rua dos Cactos (Lot Maria Vieira)",
        "zipcode": "55194-562"
    },
    {
        "city": "Santa Cruz do Capibaribe",
        "state": "PE",
        "district": "Nova Santa Cruz",
        "street": "Rua dos Cajueiros (Lot Maria Vieira)",
        "zipcode": "55194-565"
    },
    {
        "city": "Santa Cruz do Capibaribe",
        "state": "PE",
        "district": "Nova Santa Cruz",
        "street": "Rua do Ingazeiro (Lot Maria Vieira)",
        "zipcode": "55194-568"
    },
    {
        "city": "Santa Cruz do Capibaribe",
        "state": "PE",
        "district": "Nova Santa Cruz",
        "street": "Rua do Umbuzeiro (Lot Maria Vieira)",
        "zipcode": "55194-571"
    },
    {
        "city": "Santa Cruz do Capibaribe",
        "state": "PE",
        "district": "Nova Santa Cruz",
        "street": "Rua do Marmeleiro (Lot Maria Vieira)",
        "zipcode": "55194-577"
    },
    {
        "city": "Santa Cruz do Capibaribe",
        "state": "PE",
        "district": "Nova Santa Cruz",
        "street": "Rua do Mandacaru (Lot Maria Vieira)",
        "zipcode": "55194-580"
    },
    {
        "city": "Santa Cruz do Capibaribe",
        "state": "PE",
        "district": "Nova Santa Cruz",
        "street": "Avenida das Gameleiras (Lot Maria Vieira)",
        "zipcode": "55194-583"
    },
    {
        "city": "Santa Cruz do Capibaribe",
        "state": "PE",
        "district": "Nova Santa Cruz",
        "street": "Rua Filósofo Sócrates (Lot Maria Vieira)",
        "zipcode": "55194-586"
    },
    {
        "city": "Santa Cruz do Capibaribe",
        "state": "PE",
        "district": "Nova Santa Cruz",
        "street": "Rua Vereador Ciríaco Ramos (Lot Maria Vieira)",
        "zipcode": "55194-592"
    },
    {
        "city": "Santa Cruz do Capibaribe",
        "state": "PE",
        "district": "Nova Santa Cruz",
        "street": "Rua Maria Arruda Bezerra (Lot Maria Vieira)",
        "zipcode": "55194-598"
    },
    {
        "city": "Santa Cruz do Capibaribe",
        "state": "PE",
        "district": "Nova Santa Cruz",
        "street": "Avenida Manoel Gomes Ferreira (Lot Maria Vieira)",
        "zipcode": "55194-601"
    },
    {
        "city": "Santa Cruz do Capibaribe",
        "state": "PE",
        "district": "Nova Santa Cruz",
        "street": "Rua das Castanholas (Lot Maria Vieira)",
        "zipcode": "55194-603"
    },
    {
        "city": "Santa Cruz do Capibaribe",
        "state": "PE",
        "district": "Nova Santa Cruz",
        "street": "Rua Maria Dorinha Pereira Arruda (Lot Maria Vieira)",
        "zipcode": "55194-607"
    },
    {
        "city": "Santa Cruz do Capibaribe",
        "state": "PE",
        "district": "Nova Santa Cruz",
        "street": "Avenida Fernando Lyra (Lot Maria Vieira)",
        "zipcode": "55194-610"
    },
    {
        "city": "Santa Cruz do Capibaribe",
        "state": "PE",
        "district": "Cruz Alta",
        "street": "Rua Paraná (Lot Sta Tereza)",
        "zipcode": "55195-003"
    },
    {
        "city": "Santa Cruz do Capibaribe",
        "state": "PE",
        "district": "Cruz Alta",
        "street": "Rua James Dean Lopes Neves da Silva (Lot R Verde)",
        "zipcode": "55195-094"
    },
    {
        "city": "Santa Cruz do Capibaribe",
        "state": "PE",
        "district": "Cruz Alta",
        "street": "Rua Maria Feitosa de Jesus (Lot S José I)",
        "zipcode": "55195-244"
    },
    {
        "city": "Santa Cruz do Capibaribe",
        "state": "PE",
        "district": "Cruz Alta",
        "street": "Avenida Miguel Arraes de Alencar",
        "zipcode": "55195-260"
    },
    {
        "city": "Santa Cruz do Capibaribe",
        "state": "PE",
        "district": "Cruz Alta",
        "street": "Rua Amélia Maria Xavier (Lot São José II)",
        "zipcode": "55195-263"
    },
    {
        "city": "Santa Cruz do Capibaribe",
        "state": "PE",
        "district": "Cruz Alta",
        "street": "Rua Nelson Rodrigues (Lot Arruda)",
        "zipcode": "55195-266"
    },
    {
        "city": "Santa Cruz do Capibaribe",
        "state": "PE",
        "district": "Cruz Alta",
        "street": "Rua Jataúba (Lot São José II)",
        "zipcode": "55195-269"
    },
    {
        "city": "Santa Cruz do Capibaribe",
        "state": "PE",
        "district": "Cruz Alta",
        "street": "Rua Bonito (Lot São José II)",
        "zipcode": "55195-275"
    },
    {
        "city": "Santa Cruz do Capibaribe",
        "state": "PE",
        "district": "Cruz Alta",
        "street": "Rua Afogados da Ingazeira (Lot São José II)",
        "zipcode": "55195-278"
    },
    {
        "city": "Santa Cruz do Capibaribe",
        "state": "PE",
        "district": "Cruz Alta",
        "street": "Rua São Paulo II (Lot São José II)",
        "zipcode": "55195-281"
    },
    {
        "city": "Santa Cruz do Capibaribe",
        "state": "PE",
        "district": "Cruz Alta",
        "street": "Rua Custódia (Lot São José II)",
        "zipcode": "55195-284"
    },
    {
        "city": "Santa Cruz do Capibaribe",
        "state": "PE",
        "district": "Cruz Alta",
        "street": "Rua Sertânia (Lot São José II)",
        "zipcode": "55195-290"
    },
    {
        "city": "Santa Cruz do Capibaribe",
        "state": "PE",
        "district": "Cruz Alta",
        "street": "Rua Congo (Lot São José II)",
        "zipcode": "55195-293"
    },
    {
        "city": "Santa Cruz do Capibaribe",
        "state": "PE",
        "district": "Cruz Alta",
        "street": "Rua Taquaritinga do Norte (Lot São José II)",
        "zipcode": "55195-299"
    },
    {
        "city": "Santa Cruz do Capibaribe",
        "state": "PE",
        "district": "Cruz Alta",
        "street": "Rua Poção (Lot São José II)",
        "zipcode": "55195-305"
    },
    {
        "city": "Santa Cruz do Capibaribe",
        "state": "PE",
        "district": "Cruz Alta",
        "street": "Rua Sumé (Lot São José II)",
        "zipcode": "55195-308"
    },
    {
        "city": "Santa Cruz do Capibaribe",
        "state": "PE",
        "district": "Bela Vista",
        "street": "Rua João Monteiro da Silva (Lot Bela Vista)",
        "zipcode": "55195-545"
    },
    {
        "city": "Santa Cruz do Capibaribe",
        "state": "PE",
        "district": "Bela Vista",
        "street": "Rua Nélson Rodrigues (Lot Arruda)",
        "zipcode": "55195-564"
    },
    {
        "city": "Santa Cruz do Capibaribe",
        "state": "PE",
        "district": "Bela Vista",
        "street": "Rua Lucinalva Santos Aragão de Souza",
        "zipcode": "55195-629"
    },
    {
        "city": "Santa Cruz do Capibaribe",
        "state": "PE",
        "district": "Bela Vista",
        "street": "Rua José Pedro da Silva (Lot Polispacas)",
        "zipcode": "55195-701"
    },
    {
        "city": "Santa Cruz do Capibaribe",
        "state": "PE",
        "district": "Bela Vista",
        "street": "Rua Maria do Carmo Oliveira",
        "zipcode": "55195-734"
    },
    {
        "city": "Santa Cruz do Capibaribe",
        "state": "PE",
        "district": "Bela Vista",
        "street": "Rua Vereador Francisco Glicério da Silva (Lot J Arruda)",
        "zipcode": "55196-061"
    },
    {
        "city": "Santa Cruz do Capibaribe",
        "state": "PE",
        "district": "Bela Vista",
        "street": "Rua Regina Maria de Jesus (Lot Jordão Arruda)",
        "zipcode": "55196-170"
    },
    {
        "city": "Santa Cruz do Capibaribe",
        "state": "PE",
        "district": "Bela Vista",
        "street": "Rua Zumbi dos Palmares (Lot Jordão Arruda)",
        "zipcode": "55196-180"
    },
    {
        "city": "Santa Cruz do Capibaribe",
        "state": "PE",
        "district": "Bela Vista",
        "street": "Rua Oswald de Andrade (Lot Bom Jesus)",
        "zipcode": "55196-190"
    },
    {
        "city": "Santa Cruz do Capibaribe",
        "state": "PE",
        "district": "Bela Vista",
        "street": "Rua Miguel Vilázaro da Silva (Lot Sta Filomena)",
        "zipcode": "55196-210"
    },
    {
        "city": "Santa Cruz do Capibaribe",
        "state": "PE",
        "district": "Bela Vista",
        "street": "Rua Maria de Lourdes Silvestre Ramos (Lot Sta Filomena)",
        "zipcode": "55196-215"
    },
    {
        "city": "Santa Cruz do Capibaribe",
        "state": "PE",
        "district": "Bela Vista",
        "street": "Rua Abenildo Marques Ramos (Lot Sta Filomena)",
        "zipcode": "55196-220"
    },
    {
        "city": "Santa Cruz do Capibaribe",
        "state": "PE",
        "district": "Bela Vista",
        "street": "Rua Diácono Ezequias Belo de Souza (Lot Sta Filomena)",
        "zipcode": "55196-225"
    },
    {
        "city": "Santa Cruz do Capibaribe",
        "state": "PE",
        "district": "Bela Vista",
        "street": "Rua Adjanir Arruda Silva (Lot Sta Filomena)",
        "zipcode": "55196-230"
    },
    {
        "city": "Santa Cruz do Capibaribe",
        "state": "PE",
        "district": "Bela Vista",
        "street": "Rua Zilda Arns Neumann (Lot Sta Filomena I)",
        "zipcode": "55196-245"
    },
    {
        "city": "Santa Cruz do Capibaribe",
        "state": "PE",
        "district": "Bela Vista",
        "street": "Rua João Firmino da Costa (Lot Sta Filomena)",
        "zipcode": "55196-250"
    },
    {
        "city": "Santa Cruz do Capibaribe",
        "state": "PE",
        "district": "Bela Vista",
        "street": "Rua José Francisco de Melo (Lot Novo Progresso)",
        "zipcode": "55196-270"
    },
    {
        "city": "Santa Cruz do Capibaribe",
        "state": "PE",
        "district": "Bela Vista",
        "street": "Rua Manoel Francisco de Deus (Lot Novo Progresso)",
        "zipcode": "55196-275"
    },
    {
        "city": "Santa Cruz do Capibaribe",
        "state": "PE",
        "district": "Bela Vista",
        "street": "Rua Malaquias Cardoso Aragão (Lot Novo Progresso)",
        "zipcode": "55196-280"
    },
    {
        "city": "Santa Cruz do Capibaribe",
        "state": "PE",
        "district": "Bela Vista",
        "street": "Rua Ana Luiza de Moura (Lot Novo Progresso)",
        "zipcode": "55196-290"
    },
    {
        "city": "Santa Cruz do Capibaribe",
        "state": "PE",
        "district": "Bela Vista",
        "street": "Rua Pedro Nunes de Farias (Lot Novo Progresso)",
        "zipcode": "55196-295"
    },
    {
        "city": "Santa Cruz do Capibaribe",
        "state": "PE",
        "district": "Bela Vista",
        "street": "Rua Severino Alves da Silva (Lot Novo Progresso)",
        "zipcode": "55196-300"
    },
    {
        "city": "Santa Cruz do Capibaribe",
        "state": "PE",
        "district": "Bela Vista",
        "street": "Rua Severino Santana da Silva (Lot Novo Progresso)",
        "zipcode": "55196-305"
    },
    {
        "city": "Santa Cruz do Capibaribe",
        "state": "PE",
        "district": "Bela Vista",
        "street": "Rua Pedro Francisco dos Santos (Lot São Miguel II)",
        "zipcode": "55196-320"
    },
    {
        "city": "Santa Cruz do Capibaribe",
        "state": "PE",
        "district": "Bela Vista",
        "street": "Rua Zenildo Evaristo de Araújo (Lot São Miguel II)",
        "zipcode": "55196-330"
    },
    {
        "city": "Santa Cruz do Capibaribe",
        "state": "PE",
        "district": "Bela Vista",
        "street": "Rua Cícero Galdino (Lot Sta Filomena II)",
        "zipcode": "55196-345"
    },
    {
        "city": "Santa Cruz do Capibaribe",
        "state": "PE",
        "district": "Bela Vista",
        "street": "Rua Valdir Teotônio da Silva (Lot Novo Progresso)",
        "zipcode": "55196-350"
    },
    {
        "city": "Santa Cruz do Capibaribe",
        "state": "PE",
        "district": "Bela Vista",
        "street": "Rua José Antônio Joaquim",
        "zipcode": "55196-355"
    },
    {
        "city": "Santa Cruz do Capibaribe",
        "state": "PE",
        "district": "Bela Vista",
        "street": "Rua Raimundo Bezerra de Freitas",
        "zipcode": "55196-360"
    },
    {
        "city": "Santa Cruz do Capibaribe",
        "state": "PE",
        "district": "Área Rural de Santa Cruz do Capibaribe",
        "street": "Área Rural",
        "zipcode": "55197-899"
    },
    {
        "city": "Santa Cruz do Capibaribe",
        "state": "PE",
        "district": "Bela Vista",
        "street": "Rua Rosa Maria Torres",
        "zipcode": "55195-671"
    },
    {
        "city": "Santa Cruz do Capibaribe",
        "state": "PE",
        "district": "Palestina",
        "street": "Rua Projetada",
        "zipcode": "55190-028"
    },
    {
        "city": "Santa Cruz do Capibaribe",
        "state": "PE",
        "district": "Centro",
        "street": "Rua Vera Cruz",
        "zipcode": "55192-205"
    },
    {
        "city": "Santa Cruz do Capibaribe",
        "state": "PE",
        "district": "Bela Vista",
        "street": "Rua Castro Alves",
        "zipcode": "55195-650"
    },
    {
        "city": "Santa Cruz do Capibaribe",
        "state": "PE",
        "district": "Bela Vista",
        "street": "Rua Damiana Félix Bezerra (Lot Polispacas)",
        "zipcode": "55195-692"
    },
    {
        "city": "Santa Cruz do Capibaribe",
        "state": "PE",
        "district": "Cruz Alta",
        "street": "Rua José Marcelino Simplício (Lot S José I)",
        "zipcode": "55195-238"
    },
    {
        "city": "Santa Cruz do Capibaribe",
        "state": "PE",
        "district": "Cruz Alta",
        "street": "Rua Belo Horizonte (Lot Sta Tereza)",
        "zipcode": "55195-001"
    },
    {
        "city": "Santa Cruz do Capibaribe",
        "state": "PE",
        "district": "Bela Vista",
        "street": "Rua Severino Barros de Lima",
        "zipcode": "55195-602"
    },
    {
        "city": "Santa Cruz do Capibaribe",
        "state": "PE",
        "district": "Palestina",
        "street": "Travessa Santa Cecília (Lot Arcoverde)",
        "zipcode": "55190-002"
    },
    {
        "city": "Santa Cruz do Capibaribe",
        "state": "PE",
        "district": "Palestina",
        "street": "Rua Santo André (Lot Arcoverde)",
        "zipcode": "55190-004"
    },
    {
        "city": "Santa Cruz do Capibaribe",
        "state": "PE",
        "district": "Palestina",
        "street": "Travessa Santo André (Lot Arcoverde)",
        "zipcode": "55190-006"
    },
    {
        "city": "Santa Cruz do Capibaribe",
        "state": "PE",
        "district": "Malaquias Cardoso",
        "street": "Rua Sargento Adelmo Martins Mestre (Lot Malaquias Cardoso)",
        "zipcode": "55190-365"
    },
    {
        "city": "Santa Cruz do Capibaribe",
        "state": "PE",
        "district": "Bela Vista",
        "street": "Rua Célio Júnior da Silva (Lot S Miguel II)",
        "zipcode": "55195-812"
    },
    {
        "city": "Santa Cruz do Capibaribe",
        "state": "PE",
        "district": "Centro",
        "street": "Rua Felipe Camarão",
        "zipcode": "55192-145"
    },
    {
        "city": "Santa Cruz do Capibaribe",
        "state": "PE",
        "district": "Cruz Alta",
        "street": "Rua Belo Jardim (Lot São José II)",
        "zipcode": "55195-287"
    },
    {
        "city": "Santa Cruz do Capibaribe",
        "state": "PE",
        "district": "Bela Vista",
        "street": "Avenida Moda Center",
        "zipcode": "55195-501"
    },
    {
        "city": "Santa Cruz do Capibaribe",
        "state": "PE",
        "district": "São Cristovão",
        "street": "Travessa Capitão Pedrosa (Lot M Morais)",
        "zipcode": "55194-103"
    },
    {
        "city": "Santa Cruz do Capibaribe",
        "state": "PE",
        "district": "Malaquias Cardoso",
        "street": "Rua José Ivanildo Gonçalves (Lot S Jorge)",
        "zipcode": "55190-539"
    },
    {
        "city": "Santa Cruz do Capibaribe",
        "state": "PE",
        "district": "Malaquias Cardoso",
        "street": "Avenida Manoel Gomes Ferreira (Lot P Branca)",
        "zipcode": "55190-634"
    },
    {
        "city": "Santa Cruz do Capibaribe",
        "state": "PE",
        "district": "Bairro Novo",
        "street": "Rua Vereador Severino Ribeiro da Silva",
        "zipcode": "55192-405"
    },
    {
        "city": "Santa Cruz do Capibaribe",
        "state": "PE",
        "district": "Nova Santa Cruz",
        "street": "Rua Ana Clara Ferreira da Silva (Lot Maria Vieira)",
        "zipcode": "55194-523"
    },
    {
        "city": "Santa Cruz do Capibaribe",
        "state": "PE",
        "district": "Bela Vista",
        "street": "Rua Severina Maria Feitosa",
        "zipcode": "55195-719"
    },
    {
        "city": "Santa Cruz do Capibaribe",
        "state": "PE",
        "district": "Bela Vista",
        "street": "Avenida Manoel Pedro da Silva (Lot N Arruda)",
        "zipcode": "55196-142"
    },
    {
        "city": "Santa Cruz do Capibaribe",
        "state": "PE",
        "district": "Bela Vista",
        "street": "Rua Josefa Maria de Barros (Lot N Progresso)",
        "zipcode": "55196-012"
    },
    {
        "city": "Santa Cruz do Capibaribe",
        "state": "PE",
        "district": "Bela Vista",
        "street": "Rua Helena Neres de Araújo (Lot Nova Morada)",
        "zipcode": "55195-850"
    },
    {
        "city": "Santa Cruz do Capibaribe",
        "state": "PE",
        "district": "Bela Vista",
        "street": "Rua Olavo Bilac (Lot S Miguel)",
        "zipcode": "55195-839"
    },
    {
        "city": "Santa Cruz do Capibaribe",
        "state": "PE",
        "district": "Bela Vista",
        "street": "Rua José Alberto Ramos Gonçalves (Lot Polispacas)",
        "zipcode": "55195-704"
    },
    {
        "city": "Santa Cruz do Capibaribe",
        "state": "PE",
        "district": "Bela Vista",
        "street": "Rua Maria Eunice Ramos de Lima (Lot São Miguel lI)",
        "zipcode": "55195-824"
    },
    {
        "city": "Santa Cruz do Capibaribe",
        "state": "PE",
        "district": "Bela Vista",
        "street": "Rua Heleno Severino da Silva (Lot Nova Morada)",
        "zipcode": "55195-829"
    },
    {
        "city": "Santa Cruz do Capibaribe",
        "state": "PE",
        "district": "Bela Vista",
        "street": "Rua Vereador Francisco Glicério da Silva (Lot Nova Morada)",
        "zipcode": "55195-832"
    },
    {
        "city": "Santa Cruz do Capibaribe",
        "state": "PE",
        "district": "Bela Vista",
        "street": "Rua Teodora de Carvalho Aragão (Lot Nova Morada)",
        "zipcode": "55195-838"
    },
    {
        "city": "Santa Cruz do Capibaribe",
        "state": "PE",
        "district": "Bela Vista",
        "street": "Rua José Nunes de Lima (Lot Nova Morada)",
        "zipcode": "55195-843"
    },
    {
        "city": "Santa Cruz do Capibaribe",
        "state": "PE",
        "district": "Bela Vista",
        "street": "Rua Olavo Bilac",
        "zipcode": "55195-635"
    },
    {
        "city": "Santa Cruz do Capibaribe",
        "state": "PE",
        "district": "Bela Vista",
        "street": "Rua Manoel Pereira da Silva",
        "zipcode": "55195-617"
    },
    {
        "city": "Santa Cruz do Capibaribe",
        "state": "PE",
        "district": "Bela Vista",
        "street": "Rua Jaílson Ferreira Tenório",
        "zipcode": "55195-611"
    },
    {
        "city": "Santa Cruz do Capibaribe",
        "state": "PE",
        "district": "Bela Vista",
        "street": "Avenida Vinte e Dois de Abril",
        "zipcode": "55195-572"
    },
    {
        "city": "Santa Cruz do Capibaribe",
        "state": "PE",
        "district": "Bela Vista",
        "street": "Rua Luiz Francelino Aragão",
        "zipcode": "55195-539"
    },
    {
        "city": "Santa Cruz do Capibaribe",
        "state": "PE",
        "district": "Cruz Alta",
        "street": "Avenida Sebastião Alves de Oliveira (Lot S José I)",
        "zipcode": "55195-250"
    },
    {
        "city": "Santa Cruz do Capibaribe",
        "state": "PE",
        "district": "Bela Vista",
        "street": "Rua Lindario Dias dos Santos (Lot Bela Vista)",
        "zipcode": "55195-569"
    },
    {
        "city": "Santa Cruz do Capibaribe",
        "state": "PE",
        "district": "Bela Vista",
        "street": "Rua Pedro Fernandes Moura (Lot Polispacas)",
        "zipcode": "55195-698"
    },
    {
        "city": "Santa Cruz do Capibaribe",
        "state": "PE",
        "district": "Cruz Alta",
        "street": "1ª Travessa José Ramos Neto (Lot S José I)",
        "zipcode": "55195-223"
    },
    {
        "city": "Santa Cruz do Capibaribe",
        "state": "PE",
        "district": "Cruz Alta",
        "street": "Rua Vereador Artur Clemente da Silva",
        "zipcode": "55195-190"
    },
    {
        "city": "Santa Cruz do Capibaribe",
        "state": "PE",
        "district": "Cruz Alta",
        "street": "Rua José Siqueira da Silva (Lot R Verde)",
        "zipcode": "55195-088"
    },
    {
        "city": "Santa Cruz do Capibaribe",
        "state": "PE",
        "district": "Cruz Alta",
        "street": "Rua Raimundo Balbino Bezerra (Lot R Verde)",
        "zipcode": "55195-076"
    },
    {
        "city": "Santa Cruz do Capibaribe",
        "state": "PE",
        "district": "Cruz Alta",
        "street": "Travessa Professora Maria Nogaia de Souza (Lot Sta Tereza)",
        "zipcode": "55195-045"
    },
    {
        "city": "Santa Cruz do Capibaribe",
        "state": "PE",
        "district": "Cruz Alta",
        "street": "Rua Lazáro David Monteiro (Lot Sta Tereza)",
        "zipcode": "55195-033"
    },
    {
        "city": "Santa Cruz do Capibaribe",
        "state": "PE",
        "district": "Cruz Alta",
        "street": "Rua Assis Severino Chagas (Lot Sta Tereza)",
        "zipcode": "55195-012"
    },
    {
        "city": "Santa Cruz do Capibaribe",
        "state": "PE",
        "district": "Cruz Alta",
        "street": "Rua Pedro Pereira Torres Galindo (Lot S José I)",
        "zipcode": "55195-241"
    },
    {
        "city": "Santa Cruz do Capibaribe",
        "state": "PE",
        "district": "Nova Santa Cruz",
        "street": "Rua Raimundo José do Nascimento (Lot M Monteiro)",
        "zipcode": "55194-460"
    },
    {
        "city": "Santa Cruz do Capibaribe",
        "state": "PE",
        "district": "Nova Santa Cruz",
        "street": "Rua Sebastião Rodrigues Lima",
        "zipcode": "55194-423"
    },
    {
        "city": "Santa Cruz do Capibaribe",
        "state": "PE",
        "district": "Nova Santa Cruz",
        "street": "Rua Amaro Rodrigues de Lima",
        "zipcode": "55194-387"
    },
    {
        "city": "Santa Cruz do Capibaribe",
        "state": "PE",
        "district": "Nova Santa Cruz",
        "street": "Rua Anatilde Hermínio Muniz",
        "zipcode": "55194-375"
    },
    {
        "city": "Santa Cruz do Capibaribe",
        "state": "PE",
        "district": "São Cristovão",
        "street": "Avenida Teonilo Silvestre da Silva",
        "zipcode": "55194-142"
    },
    {
        "city": "Santa Cruz do Capibaribe",
        "state": "PE",
        "district": "São Cristovão",
        "street": "Rua Rita Nunes de Araújo (Lot M Morais)",
        "zipcode": "55194-121"
    },
    {
        "city": "Santa Cruz do Capibaribe",
        "state": "PE",
        "district": "Nova Santa Cruz",
        "street": "Rua Marieta de Vieira da Silva (Lot M Monteiro)",
        "zipcode": "55194-463"
    },
    {
        "city": "Santa Cruz do Capibaribe",
        "state": "PE",
        "district": "São Cristovão",
        "street": "2ª Travessa Passo da Pátria",
        "zipcode": "55194-045"
    },
    {
        "city": "Santa Cruz do Capibaribe",
        "state": "PE",
        "district": "São Cristovão",
        "street": "Travessa João Balbino",
        "zipcode": "55194-015"
    },
    {
        "city": "Santa Cruz do Capibaribe",
        "state": "PE",
        "district": "Dona Dom",
        "street": "Rua Maria Luciana Gonçalves (Lot D Lica)",
        "zipcode": "55192-675"
    },
    {
        "city": "Santa Cruz do Capibaribe",
        "state": "PE",
        "district": "Dona Dom",
        "street": "Rua Ana Eulina da Rocha (Lot D Lica)",
        "zipcode": "55192-651"
    },
    {
        "city": "Santa Cruz do Capibaribe",
        "state": "PE",
        "district": "Dona Dom",
        "street": "Rua José Lúcio da Silva (Lot D Lica)",
        "zipcode": "55192-645"
    },
    {
        "city": "Santa Cruz do Capibaribe",
        "state": "PE",
        "district": "Dona Dom",
        "street": "Rua José Moraes Aragão (Lot D Lica)",
        "zipcode": "55192-620"
    },
    {
        "city": "Santa Cruz do Capibaribe",
        "state": "PE",
        "district": "Dona Dom",
        "street": "Rua Severino Balbino Bezerra",
        "zipcode": "55192-566"
    },
    {
        "city": "Santa Cruz do Capibaribe",
        "state": "PE",
        "district": "Dona Dom",
        "street": "Rua Maria de Lourdes do Nascimento",
        "zipcode": "55192-527"
    },
    {
        "city": "Santa Cruz do Capibaribe",
        "state": "PE",
        "district": "Bairro Novo",
        "street": "Avenida Prefeito Braz Lira (Rod PE",
        "zipcode": "55192-460"
    },
    {
        "city": "Santa Cruz do Capibaribe",
        "state": "PE",
        "district": "Bairro Novo",
        "street": "Rua Clementino Fernandes de Moura",
        "zipcode": "55192-400"
    },
    {
        "city": "Santa Cruz do Capibaribe",
        "state": "PE",
        "district": "Bairro Novo",
        "street": "Avenida Doutor Arnaldo Monteiro",
        "zipcode": "55192-370"
    },
    {
        "city": "Santa Cruz do Capibaribe",
        "state": "PE",
        "district": "Bairro Novo",
        "street": "Avenida José Moraes da Silva",
        "zipcode": "55192-350"
    },
    {
        "city": "Santa Cruz do Capibaribe",
        "state": "PE",
        "district": "Centro",
        "street": "Rua Capitão Manoel Bernardino",
        "zipcode": "55192-285"
    },
    {
        "city": "Santa Cruz do Capibaribe",
        "state": "PE",
        "district": "Centro",
        "street": "Avenida Teonilo Silvestre da Silva",
        "zipcode": "55192-220"
    },
    {
        "city": "Santa Cruz do Capibaribe",
        "state": "PE",
        "district": "Centro",
        "street": "Rua Luiz de Camões",
        "zipcode": "55192-180"
    },
    {
        "city": "Santa Cruz do Capibaribe",
        "state": "PE",
        "district": "Centro",
        "street": "Rua Quintiliano Bernardo da Cruz",
        "zipcode": "55192-160"
    },
    {
        "city": "Santa Cruz do Capibaribe",
        "state": "PE",
        "district": "Centro",
        "street": "Rua Manoel Balbino",
        "zipcode": "55192-025"
    },
    {
        "city": "Santa Cruz do Capibaribe",
        "state": "PE",
        "district": "Santo Agostinho",
        "street": "Rua João Pessoa (Lot Sto Agostinho)",
        "zipcode": "55191-606"
    },
    {
        "city": "Santa Cruz do Capibaribe",
        "state": "PE",
        "district": "Santo Agostinho",
        "street": "Rua José Aurélio da Silva (Lot Sto Agostinho)",
        "zipcode": "55191-579"
    },
    {
        "city": "Santa Cruz do Capibaribe",
        "state": "PE",
        "district": "Santo Agostinho",
        "street": "Rua Projetada Treze (Lot Acauã)",
        "zipcode": "55191-466"
    },
    {
        "city": "Santa Cruz do Capibaribe",
        "state": "PE",
        "district": "Santo Agostinho",
        "street": "Rua Pedro Ferreira da Silva (Lot Acauã)",
        "zipcode": "55191-442"
    },
    {
        "city": "Santa Cruz do Capibaribe",
        "state": "PE",
        "district": "Malaquias Cardoso",
        "street": "Avenida Secundária l (Lot N Aragão)",
        "zipcode": "55190-800"
    },
    {
        "city": "Santa Cruz do Capibaribe",
        "state": "PE",
        "district": "Malaquias Cardoso",
        "street": "Avenida Eunice Aragão Neves (Lot N Aragão)",
        "zipcode": "55190-782"
    },
    {
        "city": "Santa Cruz do Capibaribe",
        "state": "PE",
        "district": "Malaquias Cardoso",
        "street": "Rua Maria Izabel Xavier (Lot B Rio)",
        "zipcode": "55190-709"
    },
    {
        "city": "Santa Cruz do Capibaribe",
        "state": "PE",
        "district": "Malaquias Cardoso",
        "street": "Rua José Nélson de Assis (Lot Pedra Branca)",
        "zipcode": "55190-656"
    },
    {
        "city": "Santa Cruz do Capibaribe",
        "state": "PE",
        "district": "Malaquias Cardoso",
        "street": "Rua Margarida Josefa da Conceição (Lot P Branca)",
        "zipcode": "55190-625"
    },
    {
        "city": "Santa Cruz do Capibaribe",
        "state": "PE",
        "district": "Malaquias Cardoso",
        "street": "Rua Carlos Alberto de Santana",
        "zipcode": "55190-600"
    },
    {
        "city": "Santa Cruz do Capibaribe",
        "state": "PE",
        "district": "Malaquias Cardoso",
        "street": "Rua Maria da Conceição Jerônimo da Silva",
        "zipcode": "55190-573"
    },
    {
        "city": "Santa Cruz do Capibaribe",
        "state": "PE",
        "district": "Malaquias Cardoso",
        "street": "Rua Deputado Osvaldo Rabelo",
        "zipcode": "55190-401"
    },
    {
        "city": "Santa Cruz do Capibaribe",
        "state": "PE",
        "district": "Malaquias Cardoso",
        "street": "Rua Vereador José Morais Irmão",
        "zipcode": "55190-380"
    },
    {
        "city": "Santa Cruz do Capibaribe",
        "state": "PE",
        "district": "Nova Santa Cruz",
        "street": "Rua Anália Severina de Oliveira (Lot M monteiro)",
        "zipcode": "55194-484"
    },
    {
        "city": "Santa Cruz do Capibaribe",
        "state": "PE",
        "district": "Malaquias Cardoso",
        "street": "Travessa Domingo Gomes de Melo",
        "zipcode": "55190-320"
    },
    {
        "city": "Santa Cruz do Capibaribe",
        "state": "PE",
        "district": "Bela Vista",
        "street": "Rua Luiz Jerônimo Bezerra (Lot Nova Morada)",
        "zipcode": "55195-834"
    },
    {
        "city": "Santa Cruz do Capibaribe",
        "state": "PE",
        "district": "Nova Santa Cruz",
        "street": "Avenida Brasil",
        "zipcode": "55194-357"
    },
    {
        "city": "Santa Cruz do Capibaribe",
        "state": "PE",
        "district": "Palestina",
        "street": "Rua São Francisco l",
        "zipcode": "55190-032"
    },
    {
        "city": "Santa Cruz do Capibaribe",
        "state": "PE",
        "district": "São Cristovão",
        "street": "Avenida Vinte e Nove de Dezembro",
        "zipcode": "55194-280"
    },
    {
        "city": "Santa Cruz do Capibaribe",
        "state": "PE",
        "district": "São Cristovão",
        "street": "Rua Sebastião Bastos da Silva",
        "zipcode": "55194-215"
    },
    {
        "city": "Santa Cruz do Capibaribe",
        "state": "PE",
        "district": "Malaquias Cardoso",
        "street": "Rua José Bezerra da Silva Filho (Lot B Rio)",
        "zipcode": "55190-715"
    },
    {
        "city": "Santa Cruz do Capibaribe",
        "state": "PE",
        "district": "São Cristovão",
        "street": "Avenida Bela Vista (Rod PE",
        "zipcode": "55194-285"
    },
    {
        "city": "Santa Cruz do Capibaribe",
        "state": "PE",
        "district": "Oscarzão",
        "street": "Rua Santo Antônio (Lot Severino Amaro)",
        "zipcode": "55193-560"
    },
    {
        "city": "Santa Cruz do Capibaribe",
        "state": "PE",
        "district": "Oscarzão",
        "street": "Rua Nova",
        "zipcode": "55193-524"
    },
    {
        "city": "Santa Cruz do Capibaribe",
        "state": "PE",
        "district": "Dona Dom",
        "street": "Rua Severino Pinheiro Sobrinho (Lot D Lica)",
        "zipcode": "55192-666"
    },
    {
        "city": "Santa Cruz do Capibaribe",
        "state": "PE",
        "district": "Dona Dom",
        "street": "Rua João Deodato de Barros",
        "zipcode": "55192-569"
    },
    {
        "city": "Santa Cruz do Capibaribe",
        "state": "PE",
        "district": "Bela Vista",
        "street": "Rua Professora Maria Erasta de Moraes Oliveira (Lot N Arruda)",
        "zipcode": "55196-130"
    },
    {
        "city": "Santa Cruz do Capibaribe",
        "state": "PE",
        "district": "São Cristovão",
        "street": "Rua Zeferino Clementino Batista (Lot M Morais)",
        "zipcode": "55194-148"
    },
    {
        "city": "Santa Cruz do Capibaribe",
        "state": "PE",
        "district": "Dona Dom",
        "street": "Avenida Vereador Rodolfo Francelino Aragão (Rod PE",
        "zipcode": "55192-503"
    },
    {
        "city": "Santa Cruz do Capibaribe",
        "state": "PE",
        "district": "Malaquias Cardoso",
        "street": "Rua Adelaide Pereira das Neves (Lot B Rio)",
        "zipcode": "55190-721"
    },
    {
        "city": "Santa Cruz do Capibaribe",
        "state": "PE",
        "district": "Bela Vista",
        "street": "Rua Venceslau Ferreira de Lima (Lot Nezinho Arruda)",
        "zipcode": "55196-157"
    },
    {
        "city": "Santa Cruz do Capibaribe",
        "state": "PE",
        "district": "Nova Santa Cruz",
        "street": "Avenida José Francisco de Queiroz (Lot M Monteiro)",
        "zipcode": "55194-439"
    },
    {
        "city": "Santa Cruz do Capibaribe",
        "state": "PE",
        "district": "Nova Santa Cruz",
        "street": "Rua Presidente Humberto de Alencar Castelo Branco",
        "zipcode": "55194-327"
    },
    {
        "city": "Santa Cruz do Capibaribe",
        "state": "PE",
        "district": "São Cristovão",
        "street": "Avenida Bela Vista (Rod PE",
        "zipcode": "55194-290"
    },
    {
        "city": "Santa Cruz do Capibaribe",
        "state": "PE",
        "district": "Bela Vista",
        "street": "Rua José Marcelino Ramos (Lot Nova Morada)",
        "zipcode": "55195-841"
    },
    {
        "city": "Santa Cruz do Capibaribe",
        "state": "PE",
        "district": "Malaquias Cardoso",
        "street": "Avenida Prefeito Teófanes Ferraz Torres Filho",
        "zipcode": "55190-329"
    },
    {
        "city": "Santa Cruz do Capibaribe",
        "state": "PE",
        "district": "Dona Dom",
        "street": "Avenida Soriano Feliciano Mestre (Lot D Lica)",
        "zipcode": "55192-693"
    },
    {
        "city": "Santa Cruz do Capibaribe",
        "state": "PE",
        "district": "Nova Santa Cruz",
        "street": "Rua Benjamim Ferreira Piu (Lot M Monteiro)",
        "zipcode": "55194-490"
    },
    {
        "city": "Santa Cruz do Capibaribe",
        "state": "PE",
        "district": "Nova Santa Cruz",
        "street": "Rua Manoel José Albuquerque (Lot Maria Vieira)",
        "zipcode": "55194-508"
    },
    {
        "city": "Santa Cruz do Capibaribe",
        "state": "PE",
        "district": "Nova Santa Cruz",
        "street": "Rua Flamboyant (Lot Maria Vieira)",
        "zipcode": "55194-535"
    },
    {
        "city": "Santa Cruz do Capibaribe",
        "state": "PE",
        "district": "Nova Santa Cruz",
        "street": "Rua das Acácias (Lot Maria Vieira)",
        "zipcode": "55194-538"
    },
    {
        "city": "Santa Cruz do Capibaribe",
        "state": "PE",
        "district": "Nova Santa Cruz",
        "street": "Rua das Aroeiras (Lot Maria Vieira)",
        "zipcode": "55194-556"
    },
    {
        "city": "Santa Cruz do Capibaribe",
        "state": "PE",
        "district": "Nova Santa Cruz",
        "street": "Rua da Macambira (Lot Maria Vieira)",
        "zipcode": "55194-574"
    },
    {
        "city": "Santa Cruz do Capibaribe",
        "state": "PE",
        "district": "Nova Santa Cruz",
        "street": "Avenida Maria Vieira de Araújo (Lot Maria Vieira)",
        "zipcode": "55194-595"
    },
    {
        "city": "Santa Cruz do Capibaribe",
        "state": "PE",
        "district": "Nova Santa Cruz",
        "street": "Rua Maria Marly Neves Jordão (Lot Maria Vieira)",
        "zipcode": "55194-613"
    },
    {
        "city": "Santa Cruz do Capibaribe",
        "state": "PE",
        "district": "Cruz Alta",
        "street": "Rua Barra de São Miguel (Lot São José II)",
        "zipcode": "55195-272"
    },
    {
        "city": "Santa Cruz do Capibaribe",
        "state": "PE",
        "district": "Cruz Alta",
        "street": "Rua São Bento (Lot São José II)",
        "zipcode": "55195-296"
    },
    {
        "city": "Santa Cruz do Capibaribe",
        "state": "PE",
        "district": "Cruz Alta",
        "street": "Avenida São José do Egito (Lot São José II)",
        "zipcode": "55195-311"
    },
    {
        "city": "Santa Cruz do Capibaribe",
        "state": "PE",
        "district": "Bela Vista",
        "street": "Rua Severina Eronilda da Silva (Lot Sta Cruz C Alta)",
        "zipcode": "55195-743"
    },
    {
        "city": "Santa Cruz do Capibaribe",
        "state": "PE",
        "district": "Bela Vista",
        "street": "Rua Aniceto Jacinto Ramos (Lot S Miguel)",
        "zipcode": "55195-842"
    },
    {
        "city": "Santa Cruz do Capibaribe",
        "state": "PE",
        "district": "Bela Vista",
        "street": "Rua Marta Cassimiro Ferreira (Lot Bom Jesus)",
        "zipcode": "55196-200"
    },
    {
        "city": "Santa Cruz do Capibaribe",
        "state": "PE",
        "district": "Bela Vista",
        "street": "Rua Carlos Drumond de Andrade (Lot Sta Filomena I)",
        "zipcode": "55196-240"
    },
    {
        "city": "Santa Cruz do Capibaribe",
        "state": "PE",
        "district": "Bela Vista",
        "street": "Rua Iracema Gomes Bezerra (Lot Novo Progresso)",
        "zipcode": "55196-285"
    },
    {
        "city": "Santa Cruz do Capibaribe",
        "state": "PE",
        "district": "Bela Vista",
        "street": "Rua Gilvan Sebastião da Silva (Lot São Miguel II)",
        "zipcode": "55196-325"
    },
    {
        "city": "Santa Cruz do Capibaribe",
        "state": "PE",
        "district": "Bela Vista",
        "street": "Rua Ivone Gonçalves de Araújo (Lot Bela Vista)",
        "zipcode": "55196-370"
    },
    {
        "city": "Santa Cruz do Capibaribe",
        "state": "PE",
        "district": "Malaquias Cardoso",
        "street": "Rua Doutor Naércio Cireno Gonçalves",
        "zipcode": "55190-314"
    },
    {
        "city": "Santa Cruz do Capibaribe",
        "state": "PE",
        "district": "Bela Vista",
        "street": "Rua Helena Neres de Araújo (Lot N Morada)",
        "zipcode": "55195-888"
    },
    {
        "city": "Santa Cruz do Capibaribe",
        "state": "PE",
        "district": "Bela Vista",
        "street": "Rua Heleno Severino da Silva (Lot Nova Morada)",
        "zipcode": "55195-870"
    },
    {
        "city": "Santa Cruz do Capibaribe",
        "state": "PE",
        "district": "Bela Vista",
        "street": "Rua Teodora de Carvalho Aragão (Lot Nova Morada)",
        "zipcode": "55195-879"
    },
    {
        "city": "Santa Cruz do Capibaribe",
        "state": "PE",
        "district": "Bela Vista",
        "street": "Rua José Nunes de Lima (Lot Nova Morada)",
        "zipcode": "55195-885"
    },
    {
        "city": "Santa Cruz do Capibaribe",
        "state": "PE",
        "district": "Bela Vista",
        "street": "Rua Luiz Jerônimo Bezerra (Lot Nova Morada)",
        "zipcode": "55195-876"
    },
    {
        "city": "Santa Cruz do Capibaribe",
        "state": "PE",
        "district": "Bela Vista",
        "street": "Rua José Marcelino Ramos (Lot Nova Morada)",
        "zipcode": "55195-882"
    },
    {
        "city": "Santa Cruz do Capibaribe",
        "state": "PE",
        "district": "Bela Vista",
        "street": "Rua Maria Santinha (Lot C Alta)",
        "zipcode": "55195-809"
    },
    {
        "city": "Santa Cruz do Capibaribe",
        "state": "PE",
        "district": "Bela Vista",
        "street": "Rua Tomé de Souza",
        "zipcode": "55195-503"
    },
    {
        "city": "Santa Cruz do Capibaribe",
        "state": "PE",
        "district": "Palestina",
        "street": "Rua Santa Cecília (Lot Arcoverde)",
        "zipcode": "55190-001"
    },
    {
        "city": "Santa Cruz do Capibaribe",
        "state": "PE",
        "district": "Bela Vista",
        "street": "Rua Cecílio Arruda de Farias (Lot São Miguel II)",
        "zipcode": "55195-845"
    },
    {
        "city": "Santa Cruz do Capibaribe",
        "state": "PE",
        "district": "Bela Vista",
        "street": "Rua Vereador Francisco Glicério da Silva (Lot Nova Morada)",
        "zipcode": "55195-873"
    },
    {
        "city": "Santa Cruz do Capibaribe",
        "state": "PE",
        "district": "Bela Vista",
        "street": "Rua Paulo José de Moraes (Lot Polispacas)",
        "zipcode": "55195-686"
    },
    {
        "city": "Santa Cruz do Capibaribe",
        "state": "PE",
        "district": "Cruz Alta",
        "street": "Rua José Ramos Neto (Lot S José II)",
        "zipcode": "55195-135"
    }
]