[
    {
        "city": "Sertânia",
        "state": "PE",
        "district": "Povoado Waldemar Siqueira",
        "street": "Rua do Comercio 540",
        "zipcode": "56600-975"
    },
    {
        "city": "Sertânia",
        "state": "PE",
        "district": "Povoado de Moderna",
        "street": "Rua do Comercio s/n",
        "zipcode": "56600-972"
    },
    {
        "city": "Sertânia",
        "state": "PE",
        "district": "Albuquerque Ne",
        "street": "Rua Coronel Antonio Siqueira 271",
        "zipcode": "56610-970"
    },
    {
        "city": "Sertânia",
        "state": "PE",
        "district": "Distrito de Algodoes",
        "street": "Rua do Comercio s/n",
        "zipcode": "56625-970"
    },
    {
        "city": "Sertânia",
        "state": "PE",
        "district": "Centro",
        "street": "Rua Raul Lafayette 73",
        "zipcode": "56600-970"
    },
    {
        "city": "Sertânia",
        "state": "PE",
        "district": "Cruzeiro do Nordeste",
        "street": "Rua Doutor José Ciriaco s/n",
        "zipcode": "56600-977"
    },
    {
        "city": "Sertânia",
        "state": "PE",
        "district": "",
        "street": "",
        "zipcode": "56600-000"
    },
    {
        "city": "Sertânia",
        "state": "PE",
        "district": null,
        "street": "Rua do Comércio",
        "zipcode": "56625-990"
    },
    {
        "city": "Sertânia",
        "state": "PE",
        "district": "Henrique Dias",
        "street": "Rua do Comércio s/n",
        "zipcode": "56620-970"
    },
    {
        "city": "Sertânia",
        "state": "PE",
        "district": "Rio da Barra",
        "street": "Rua do Comércio s/n",
        "zipcode": "56615-970"
    },
    {
        "city": "Sertânia",
        "state": "PE",
        "district": null,
        "street": "Rua do Comércio",
        "zipcode": "56620-990"
    },
    {
        "city": "Sertânia",
        "state": "PE",
        "district": "Povoado de Galeão",
        "street": "Rua do Comercio s/n",
        "zipcode": "56600-974"
    },
    {
        "city": "Sertânia",
        "state": "PE",
        "district": "Povoado de Caroalina",
        "street": "Rua do Comercio s/n",
        "zipcode": "56600-971"
    },
    {
        "city": "Sertânia",
        "state": "PE",
        "district": "Povoado de Pernambuquinho",
        "street": "Rua do Comercio s/n",
        "zipcode": "56600-973"
    },
    {
        "city": "Sertânia",
        "state": "PE",
        "district": "Vila Ferro Velho",
        "street": "Rua Severino Rodrigues s/n",
        "zipcode": "56600-976"
    }
]