[
    {
        "city": "Surubim",
        "state": "PE",
        "district": "Lério de Cima",
        "street": "Sítio Lério de Cima s/n",
        "zipcode": "55750-976"
    },
    {
        "city": "Surubim",
        "state": "PE",
        "district": "Povoado Chá do Marinheiro",
        "street": "Rua Agamenon Magalhães s/n",
        "zipcode": "55750-973"
    },
    {
        "city": "Surubim",
        "state": "PE",
        "district": "Centro",
        "street": "Rua Agamenon Magalhães 264",
        "zipcode": "55750-970"
    },
    {
        "city": "Surubim",
        "state": "PE",
        "district": "Povoado de Juca Ferrado",
        "street": "Rua Juca Ferrado s/n",
        "zipcode": "55750-974"
    },
    {
        "city": "Surubim",
        "state": "PE",
        "district": "",
        "street": "",
        "zipcode": "55750-000"
    },
    {
        "city": "Surubim",
        "state": "PE",
        "district": null,
        "street": "Rua Oscar Cavalcante",
        "zipcode": "55750-990"
    },
    {
        "city": "Surubim",
        "state": "PE",
        "district": "Lagoa da Vaca",
        "street": "Sítio Lagoa da Vaca s/n",
        "zipcode": "55750-975"
    },
    {
        "city": "Surubim",
        "state": "PE",
        "district": "Povoado Mimoso",
        "street": "Avenida São Jose 37",
        "zipcode": "55750-972"
    },
    {
        "city": "Surubim",
        "state": "PE",
        "district": "Centro",
        "street": "Praça Santa Luzia 12",
        "zipcode": "55750-971"
    }
]