[
    {
        "city": "Vitoria De Santo Antao",
        "state": "PE",
        "district": "Livramento",
        "street": "Rua Marques Do Herval",
        "zipcode": "55602-370"
    },
    {
        "city": "Vitoria De Santo Antao",
        "state": "PE",
        "district": "Matriz",
        "street": "Rua Prefeito Joao Cleofas De Oliveira",
        "zipcode": "55602-590"
    },
    {
        "city": "Vitoria De Santo Antao",
        "state": "PE",
        "district": "Maues",
        "street": "Rodovia Br",
        "zipcode": "55604-000"
    },
    {
        "city": "Vitoria De Santo Antao",
        "state": "PE",
        "district": "Santo Ivo",
        "street": "Rua Alcides Bulhoes",
        "zipcode": "55614-330"
    },
    {
        "city": "Vitoria De Santo Antao",
        "state": "PE",
        "district": "Redencao",
        "street": "Rodovia Pe",
        "zipcode": "55612-580"
    },
    {
        "city": "Vitoria De Santo Antao",
        "state": "PE",
        "district": "Caja",
        "street": "Rodovia Br",
        "zipcode": "55610-000"
    },
    {
        "city": "Vitoria De Santo Antao",
        "state": "PE",
        "district": "Redencao",
        "street": "Rua Cinco",
        "zipcode": "55612-570"
    },
    {
        "city": "Vitoria De Santo Antao",
        "state": "PE",
        "district": "Redencao",
        "street": "Rodovia Br",
        "zipcode": "55612-000"
    },
    {
        "city": "Vitoria De Santo Antao",
        "state": "PE",
        "district": "Matriz",
        "street": "Pra√ßa Joao Pessoa",
        "zipcode": "55602-085"
    }
]