[
    {
        "city": "Anapolis",
        "state": "GO",
        "district": "Jardim Das Primaveras",
        "street": "Rua Jp",
        "zipcode": "75090-580"
    },
    {
        "city": "Anapolis",
        "state": "GO",
        "district": "Parque Sao Joao",
        "street": "Rua Trajano",
        "zipcode": "75133-340"
    },
    {
        "city": "Anapolis",
        "state": "GO",
        "district": "Jardim Das Americas",
        "street": "Avenida Raimundo C. Costa E Silva",
        "zipcode": "75070-270"
    },
    {
        "city": "Anapolis",
        "state": "GO",
        "district": "Cidade Jardim",
        "street": "Avenida Presidente Janio Quadros",
        "zipcode": "75084-530"
    },
    {
        "city": "Anapolis",
        "state": "GO",
        "district": "Vila Joao Luiz De Oliveira",
        "street": "Rua Manoel Santana Dos Santos",
        "zipcode": "75125-620"
    },
    {
        "city": "Anapolis",
        "state": "GO",
        "district": "Jardim Eldorado",
        "street": "Rua Rodovanio Rodovalho",
        "zipcode": "75105-110"
    },
    {
        "city": "Anapolis",
        "state": "GO",
        "district": "Vila Sao Jorge",
        "street": "Rua Nove De Julho",
        "zipcode": "75115-820"
    },
    {
        "city": "Anapolis",
        "state": "GO",
        "district": "Vivian Parque",
        "street": "Rua Cleusa",
        "zipcode": "75135-680"
    },
    {
        "city": "Anapolis",
        "state": "GO",
        "district": "Loteamento Novo Jundiai",
        "street": "Avenida Aderbal Cunha",
        "zipcode": "75095-580"
    },
    {
        "city": "Anapolis",
        "state": "GO",
        "district": "Parque Sao Joao",
        "street": "Rua Do Castelo",
        "zipcode": "75133-070"
    },
    {
        "city": "Anapolis",
        "state": "GO",
        "district": "Alto Da Bela Vista",
        "street": "Rua 133",
        "zipcode": "75105-660"
    },
    {
        "city": "Anapolis",
        "state": "GO",
        "district": "Conj Mirage",
        "street": "Rua 018",
        "zipcode": "75063-360"
    },
    {
        "city": "Anapolis",
        "state": "GO",
        "district": "Jardim Das Primaveras",
        "street": "Rua Jp",
        "zipcode": "75090-570"
    },
    {
        "city": "Anapolis",
        "state": "GO",
        "district": "Itamaraty",
        "street": "Rua Silvania",
        "zipcode": "75050-400"
    },
    {
        "city": "Anapolis",
        "state": "GO",
        "district": "Setor Residencial Jandaia",
        "street": "Avenida Souzania",
        "zipcode": "75053-160"
    },
    {
        "city": "Anapolis",
        "state": "GO",
        "district": "Adriana Parque",
        "street": "Rua C",
        "zipcode": "75053-460"
    },
    {
        "city": "Anapolis",
        "state": "GO",
        "district": "Setor Residencial Jandaia",
        "street": "Rua P",
        "zipcode": "75053-600"
    },
    {
        "city": "Anapolis",
        "state": "GO",
        "district": "Parque Iracema",
        "street": "Rodovia Br",
        "zipcode": "75063-770"
    },
    {
        "city": "Anapolis",
        "state": "GO",
        "district": "Setor Central",
        "street": "Praça Manoel Demostenes",
        "zipcode": "75043-120"
    },
    {
        "city": "Anapolis",
        "state": "GO",
        "district": "Village Jardim Anapolis",
        "street": "Rua Aymores",
        "zipcode": "75063-020"
    },
    {
        "city": "Anapolis",
        "state": "GO",
        "district": "Nova Alexandrina",
        "street": "Rua Olimpia R. Amorim",
        "zipcode": "75060-530"
    },
    {
        "city": "Anapolis",
        "state": "GO",
        "district": "Jardim Das Americas",
        "street": "Rua Coronel Barbosa",
        "zipcode": "75070-110"
    },
    {
        "city": "Anapolis",
        "state": "GO",
        "district": "Jardim Das Americas",
        "street": "Rua Coronel Valtervan",
        "zipcode": "75070-120"
    },
    {
        "city": "Anapolis",
        "state": "GO",
        "district": "Jardim Das Americas",
        "street": "Rua Lisboa",
        "zipcode": "75070-200"
    },
    {
        "city": "Anapolis",
        "state": "GO",
        "district": "Vila Gois",
        "street": "Rua Gois",
        "zipcode": "75115-361"
    },
    {
        "city": "Anapolis",
        "state": "GO",
        "district": "Boa Vista",
        "street": "Avenida Senador Ramos Caiado",
        "zipcode": "75075-270"
    },
    {
        "city": "Anapolis",
        "state": "GO",
        "district": "Alvorada",
        "street": "Travessa Duque De Caxias",
        "zipcode": "75075-690"
    },
    {
        "city": "Anapolis",
        "state": "GO",
        "district": "Alvorada",
        "street": "Avenida Brasil",
        "zipcode": "75075-670"
    },
    {
        "city": "Anapolis",
        "state": "GO",
        "district": "Conj Mirage",
        "street": "Rua 005",
        "zipcode": "75070-590"
    },
    {
        "city": "Anapolis",
        "state": "GO",
        "district": "Alto Da Bela Vista",
        "street": "Rua 134",
        "zipcode": "75105-670"
    },
    {
        "city": "Anapolis",
        "state": "GO",
        "district": "Nova Alexandrina",
        "street": "Rua Joao Antonio Guimaraes",
        "zipcode": "75060-520"
    },
    {
        "city": "Anapolis",
        "state": "GO",
        "district": "Vila Jaiara",
        "street": "Rodovia Br",
        "zipcode": "75064-800"
    },
    {
        "city": "Anapolis",
        "state": "GO",
        "district": "Jardim Das Americas",
        "street": "Rua Dona Andrelina",
        "zipcode": "75070-140"
    },
    {
        "city": "Anapolis",
        "state": "GO",
        "district": "Parque Iracema",
        "street": "Avenida Paranapua",
        "zipcode": "75063-760"
    },
    {
        "city": "Anapolis",
        "state": "GO",
        "district": "Bandeiras",
        "street": "Rua Jonas Alves Ferreira Duarte",
        "zipcode": "75065-190"
    },
    {
        "city": "Anapolis",
        "state": "GO",
        "district": "Maracana",
        "street": "Rua Rodrigues Alves",
        "zipcode": "75040-220"
    },
    {
        "city": "Anapolis",
        "state": "GO",
        "district": "Alvorada",
        "street": "Avenida Brasilia",
        "zipcode": "75075-700"
    },
    {
        "city": "Anapolis",
        "state": "GO",
        "district": "Cidade Jardim",
        "street": "Rua B",
        "zipcode": "75080-060"
    },
    {
        "city": "Anapolis",
        "state": "GO",
        "district": "Cidade Jardim",
        "street": "Rua A",
        "zipcode": "75080-160"
    },
    {
        "city": "Anapolis",
        "state": "GO",
        "district": "Jardim Bandeirante",
        "street": "Rua Das Americas",
        "zipcode": "75080-770"
    },
    {
        "city": "Anapolis",
        "state": "GO",
        "district": "Jardim Bandeirante",
        "street": "Rua Costa E Silva",
        "zipcode": "75083-570"
    },
    {
        "city": "Anapolis",
        "state": "GO",
        "district": "Jardim Alvorada",
        "street": "Rua Das Cerejeiras",
        "zipcode": "75095-550"
    },
    {
        "city": "Anapolis",
        "state": "GO",
        "district": "Jardim Alvorada",
        "street": "Rua Israel Pinheiro",
        "zipcode": "75095-560"
    },
    {
        "city": "Anapolis",
        "state": "GO",
        "district": "Jardim Alvorada",
        "street": "Rua Dos Chineses",
        "zipcode": "75095-571"
    },
    {
        "city": "Anapolis",
        "state": "GO",
        "district": "Jardim Das Americas",
        "street": "Viela 004",
        "zipcode": "75070-390"
    },
    {
        "city": "Anapolis",
        "state": "GO",
        "district": "Alto Da Bela Vista",
        "street": "Rua 140",
        "zipcode": "75105-730"
    },
    {
        "city": "Anapolis",
        "state": "GO",
        "district": "Jardim Das Americas",
        "street": "Rua Vinte E Quatro De Maio",
        "zipcode": "75070-370"
    },
    {
        "city": "Anapolis",
        "state": "GO",
        "district": "Boa Vista",
        "street": "Rua Joaquim Inocencio Da Silva",
        "zipcode": "75084-010"
    },
    {
        "city": "Anapolis",
        "state": "GO",
        "district": "Lourdes",
        "street": "Estrada Municipal",
        "zipcode": "75095-540"
    },
    {
        "city": "Anapolis",
        "state": "GO",
        "district": "Parque Brasilia",
        "street": "Avenida Borges Almeida",
        "zipcode": "75093-060"
    },
    {
        "city": "Anapolis",
        "state": "GO",
        "district": "Setor Nova Capital",
        "street": "Rua 001",
        "zipcode": "75114-690"
    },
    {
        "city": "Anapolis",
        "state": "GO",
        "district": "Jardim Das Primaveras",
        "street": "Rua Jp",
        "zipcode": "75090-560"
    },
    {
        "city": "Anapolis",
        "state": "GO",
        "district": "Boa Vista",
        "street": "Praça Carlos De Pina",
        "zipcode": "75084-690"
    },
    {
        "city": "Anapolis",
        "state": "GO",
        "district": "Parque Brasilia",
        "street": "Avenida Vento",
        "zipcode": "75093-330"
    },
    {
        "city": "Anapolis",
        "state": "GO",
        "district": "Jardim Das Primaveras",
        "street": "Rua Jp",
        "zipcode": "75090-610"
    },
    {
        "city": "Anapolis",
        "state": "GO",
        "district": "Jk",
        "street": "Rua Maria Aparecida De Carvalho",
        "zipcode": "75115-790"
    },
    {
        "city": "Anapolis",
        "state": "GO",
        "district": "Village Jardim Anapolis",
        "street": "Rua Tupi",
        "zipcode": "75063-190"
    },
    {
        "city": "Anapolis",
        "state": "GO",
        "district": "Conj Mirage",
        "street": "Rua Vinte E Quatro De Maio",
        "zipcode": "75063-230"
    },
    {
        "city": "Anapolis",
        "state": "GO",
        "district": "Jardim Das Primaveras",
        "street": "Rua Jp",
        "zipcode": "75090-460"
    },
    {
        "city": "Anapolis",
        "state": "GO",
        "district": "Jardim Das Americas",
        "street": "Avenida Universitaria",
        "zipcode": "75070-290"
    },
    {
        "city": "Anapolis",
        "state": "GO",
        "district": "Alvorada",
        "street": "Rua Dona Neli Gomes Carneiro",
        "zipcode": "75084-670"
    },
    {
        "city": "Anapolis",
        "state": "GO",
        "district": "Jardim Das Americas",
        "street": "Rua Magistrado Idalina",
        "zipcode": "75070-210"
    },
    {
        "city": "Anapolis",
        "state": "GO",
        "district": "Loteamento Novo Jundiai",
        "street": "Rua Nj",
        "zipcode": "75095-590"
    },
    {
        "city": "Anapolis",
        "state": "GO",
        "district": "Jardim Das Primaveras",
        "street": "Rua Jp",
        "zipcode": "75090-500"
    },
    {
        "city": "Anapolis",
        "state": "GO",
        "district": "Jardim Das Primaveras",
        "street": "Rua Jp",
        "zipcode": "75090-620"
    },
    {
        "city": "Anapolis",
        "state": "GO",
        "district": "Itamaraty",
        "street": "Rua Tamandare",
        "zipcode": "75050-080"
    },
    {
        "city": "Anapolis",
        "state": "GO",
        "district": "Parque Brasilia",
        "street": "Avenida Orlando",
        "zipcode": "75093-250"
    },
    {
        "city": "Anapolis",
        "state": "GO",
        "district": "Jardim Das Primaveras",
        "street": "Rua Jp",
        "zipcode": "75090-540"
    },
    {
        "city": "Anapolis",
        "state": "GO",
        "district": "Jardim Das Primaveras",
        "street": "Rua Jp",
        "zipcode": "75090-630"
    },
    {
        "city": "Anapolis",
        "state": "GO",
        "district": "Jardim Das Primaveras",
        "street": "Rua Jp",
        "zipcode": "75090-520"
    },
    {
        "city": "Anapolis",
        "state": "GO",
        "district": "Jardim Das Primaveras",
        "street": "Rua Jp",
        "zipcode": "75090-650"
    },
    {
        "city": "Anapolis",
        "state": "GO",
        "district": "Jardim Bandeirante",
        "street": "Rua Benedito Moreira Damasceno",
        "zipcode": "75080-780"
    },
    {
        "city": "Anapolis",
        "state": "GO",
        "district": "Jk",
        "street": "Avenida Jamel Cecilio",
        "zipcode": "75114-140"
    },
    {
        "city": "Anapolis",
        "state": "GO",
        "district": "Maracana",
        "street": "Avenida Leopoldo De Bulhoes",
        "zipcode": "75040-500"
    },
    {
        "city": "Anapolis",
        "state": "GO",
        "district": "Parque Iracema",
        "street": "Rua Guarany",
        "zipcode": "75063-070"
    },
    {
        "city": "Anapolis",
        "state": "GO",
        "district": "Santo Antonio",
        "street": "Rua Julia Sahium",
        "zipcode": "75103-510"
    },
    {
        "city": "Anapolis",
        "state": "GO",
        "district": "Vila Popular Munir Calixto",
        "street": "Rua 001",
        "zipcode": "75125-400"
    },
    {
        "city": "Anapolis",
        "state": "GO",
        "district": "Jardim Ana Paula",
        "street": "Rua Vivian",
        "zipcode": "75125-830"
    },
    {
        "city": "Anapolis",
        "state": "GO",
        "district": "Polocentro",
        "street": "Rua Alto Do Ouro",
        "zipcode": "75130-040"
    },
    {
        "city": "Anapolis",
        "state": "GO",
        "district": "Polocentro",
        "street": "Rua Antonio Vento",
        "zipcode": "75130-090"
    },
    {
        "city": "Anapolis",
        "state": "GO",
        "district": "Sao Joao",
        "street": "Rodovia Br",
        "zipcode": "75133-050"
    },
    {
        "city": "Anapolis",
        "state": "GO",
        "district": "Parque Brasilia",
        "street": "Avenida Abrao Asmor",
        "zipcode": "75090-010"
    },
    {
        "city": "Anapolis",
        "state": "GO",
        "district": "Vila Joao Luiz De Oliveira",
        "street": "Rua 001",
        "zipcode": "75125-660"
    },
    {
        "city": "Anapolis",
        "state": "GO",
        "district": "Vila Rica",
        "street": "Rua B",
        "zipcode": "75103-740"
    },
    {
        "city": "Anapolis",
        "state": "GO",
        "district": "Jardim Das Primaveras",
        "street": "Rua Jp",
        "zipcode": "75090-490"
    },
    {
        "city": "Anapolis",
        "state": "GO",
        "district": "Polocentro",
        "street": "Rua Prof. Florinda",
        "zipcode": "75130-360"
    },
    {
        "city": "Anapolis",
        "state": "GO",
        "district": "Jardim Das Primaveras",
        "street": "Rua Jp",
        "zipcode": "75090-530"
    },
    {
        "city": "Anapolis",
        "state": "GO",
        "district": "Vila Joao Luiz De Oliveira",
        "street": "Rua 004",
        "zipcode": "75125-430"
    },
    {
        "city": "Anapolis",
        "state": "GO",
        "district": "Jardim Alvorada",
        "street": "Rodovia Br",
        "zipcode": "75095-810"
    },
    {
        "city": "Anapolis",
        "state": "GO",
        "district": "Santo Andre",
        "street": "Rua 001",
        "zipcode": "75125-730"
    },
    {
        "city": "Anapolis",
        "state": "GO",
        "district": "Jardim Das Primaveras",
        "street": "Rua Jp",
        "zipcode": "75090-450"
    },
    {
        "city": "Anapolis",
        "state": "GO",
        "district": "Alvorada",
        "street": "Rua Edwardes Jose Ribeiro",
        "zipcode": "75084-170"
    },
    {
        "city": "Anapolis",
        "state": "GO",
        "district": "Jardim Das Primaveras",
        "street": "Rua Jp",
        "zipcode": "75090-480"
    },
    {
        "city": "Anapolis",
        "state": "GO",
        "district": "Jardim Das Primaveras",
        "street": "Rua Jp",
        "zipcode": "75090-590"
    },
    {
        "city": "Anapolis",
        "state": "GO",
        "district": "Loteamento Novo Jundiai",
        "street": "Rua Nj",
        "zipcode": "75095-610"
    },
    {
        "city": "Anapolis",
        "state": "GO",
        "district": "Santo Andre",
        "street": "Rua 004",
        "zipcode": "75125-770"
    },
    {
        "city": "Anapolis",
        "state": "GO",
        "district": "Jundiai",
        "street": "Avenida Goias",
        "zipcode": "75113-150"
    },
    {
        "city": "Anapolis",
        "state": "GO",
        "district": "Parque Sao Joao",
        "street": "Rua Minas Gerais",
        "zipcode": "75133-260"
    },
    {
        "city": "Anapolis",
        "state": "GO",
        "district": "Sao Joao",
        "street": "Rua Joao Xxiii",
        "zipcode": "75133-240"
    },
    {
        "city": "Anapolis",
        "state": "GO",
        "district": "Vila Calixto Abrao",
        "street": "Avenida Goias",
        "zipcode": "75144-820"
    },
    {
        "city": "Anapolis",
        "state": "GO",
        "district": "Vila Fabril",
        "street": "Avenida Fabril",
        "zipcode": "75144-830"
    },
    {
        "city": "Anapolis",
        "state": "GO",
        "district": "Setor Industrial Munir Calixto",
        "street": "Rua Daia",
        "zipcode": "75133-600"
    },
    {
        "city": "Anapolis",
        "state": "GO",
        "district": "Vila Jussara",
        "street": "Praça Achiles De Pina",
        "zipcode": "75123-720"
    },
    {
        "city": "Anapolis",
        "state": "GO",
        "district": "Jardim Flor De Liz",
        "street": "Rodovia Br",
        "zipcode": "75103-195"
    },
    {
        "city": "Anapolis",
        "state": "GO",
        "district": "Parque Sao Joao",
        "street": "Avenida Contorno",
        "zipcode": "75133-080"
    },
    {
        "city": "Anapolis",
        "state": "GO",
        "district": "Polocentro",
        "street": "Avenida Milagre",
        "zipcode": "75130-280"
    },
    {
        "city": "Anapolis",
        "state": "GO",
        "district": "Conj Villa Verde",
        "street": "Rua Perola",
        "zipcode": "75123-690"
    },
    {
        "city": "Anapolis",
        "state": "GO",
        "district": "Vila Goncalves",
        "street": "Rua F Cunha",
        "zipcode": "75144-790"
    },
    {
        "city": "Anapolis",
        "state": "GO",
        "district": "Parque Calixtopolis",
        "street": "Rua Governador Feliciano",
        "zipcode": "75135-140"
    },
    {
        "city": "Anapolis",
        "state": "GO",
        "district": "Alto Da Bela Vista",
        "street": "Rua 132",
        "zipcode": "75105-650"
    },
    {
        "city": "Anapolis",
        "state": "GO",
        "district": "Vila Formosa",
        "street": "Rua Paraguai",
        "zipcode": "75100-200"
    },
    {
        "city": "Anapolis",
        "state": "GO",
        "district": "Polocentro",
        "street": "Rua Joao Gomes",
        "zipcode": "75130-240"
    },
    {
        "city": "Anapolis",
        "state": "GO",
        "district": "Vila Nossa Senhora D Abadia",
        "street": "Rua 004",
        "zipcode": "75120-790"
    },
    {
        "city": "Anapolis",
        "state": "GO",
        "district": "Batista",
        "street": "Avenida Brasil",
        "zipcode": "75123-710"
    },
    {
        "city": "Anapolis",
        "state": "GO",
        "district": "Polocentro",
        "street": "Rua Abadiania",
        "zipcode": "75130-010"
    },
    {
        "city": "Anapolis",
        "state": "GO",
        "district": "Vila Esperanca",
        "street": "Rua Inconfidencia",
        "zipcode": "75133-530"
    },
    {
        "city": "Anapolis",
        "state": "GO",
        "district": "Parque Sao Joao",
        "street": "Avenida Das Nacoes",
        "zipcode": "75133-270"
    },
    {
        "city": "Anapolis",
        "state": "GO",
        "district": "Parque Sao Joao",
        "street": "Praça Paris",
        "zipcode": "75133-290"
    },
    {
        "city": "Anapolis",
        "state": "GO",
        "district": "Parque Sao Joao",
        "street": "Rua Unai",
        "zipcode": "75133-360"
    },
    {
        "city": "Anapolis",
        "state": "GO",
        "district": "Parque Sao Joao",
        "street": "Rua Italia",
        "zipcode": "75133-100"
    },
    {
        "city": "Anapolis",
        "state": "GO",
        "district": "Sao Joao",
        "street": "Avenida Independencia",
        "zipcode": "75133-090"
    },
    {
        "city": "Anapolis",
        "state": "GO",
        "district": "Vivian Parque",
        "street": "Rua Viana Lobo",
        "zipcode": "75135-430"
    },
    {
        "city": "Anapolis",
        "state": "GO",
        "district": "Vivian Parque",
        "street": "Rua Cristina",
        "zipcode": "75135-660"
    },
    {
        "city": "Anapolis",
        "state": "GO",
        "district": "Alto Da Bela Vista",
        "street": "Rua 131",
        "zipcode": "75105-640"
    },
    {
        "city": "Anapolis",
        "state": "GO",
        "district": "Setor Tropical",
        "street": "Rodovia Br",
        "zipcode": "75095-820"
    },
    {
        "city": "Anapolis",
        "state": "GO",
        "district": "Jardim Goncalves",
        "street": "Rua Pedro Ludovico",
        "zipcode": "75120-360"
    },
    {
        "city": "Anapolis",
        "state": "GO",
        "district": "Parque Sao Joao",
        "street": "Rua 013",
        "zipcode": "75133-170"
    },
    {
        "city": "Anapolis",
        "state": "GO",
        "district": "Santo Andre",
        "street": "Loteamento Olhos D Agua",
        "zipcode": "75125-380"
    },
    {
        "city": "Anapolis",
        "state": "GO",
        "district": "Polocentro",
        "street": "Rua Antonio Gomes",
        "zipcode": "75130-080"
    },
    {
        "city": "Anapolis",
        "state": "GO",
        "district": "Parque Das Primaveras",
        "street": "Rua Jose Martins De Brito",
        "zipcode": "75124-780"
    },
    {
        "city": "Anapolis",
        "state": "GO",
        "district": "Vivian Parque",
        "street": "Rua Adelice",
        "zipcode": "75135-750"
    },
    {
        "city": "Anapolis",
        "state": "GO",
        "district": "Parque Das Nacoes",
        "street": "Rua Monaco",
        "zipcode": "75143-480"
    },
    {
        "city": "Anapolis",
        "state": "GO",
        "district": "Sao Jose",
        "street": "Rua Tenente Jose Rocha Junior",
        "zipcode": "75140-620"
    },
    {
        "city": "Anapolis",
        "state": "GO",
        "district": "Parque Sao Joao",
        "street": "Rua Sabara",
        "zipcode": "75133-310"
    },
    {
        "city": "Anapolis",
        "state": "GO",
        "district": "Vivian Parque",
        "street": "Rua Jari",
        "zipcode": "75135-540"
    },
    {
        "city": "Anapolis",
        "state": "GO",
        "district": "Sao Joao",
        "street": "Rua Rio Branco",
        "zipcode": "75133-830"
    },
    {
        "city": "Anapolis",
        "state": "GO",
        "district": "Maracana",
        "street": "Avenida Tiradentes",
        "zipcode": "75040-010"
    },
    {
        "city": "Anapolis",
        "state": "GO",
        "district": "Nova Alexandrina",
        "street": "Rua Dona Izaura",
        "zipcode": "75060-330"
    },
    {
        "city": "Anapolis",
        "state": "GO",
        "district": "Jardim Das Americas",
        "street": "Rua Imigrante",
        "zipcode": "75070-190"
    },
    {
        "city": "Anapolis",
        "state": "GO",
        "district": "Vila Jussara",
        "street": "Avenida Miguel Joao",
        "zipcode": "75123-730"
    },
    {
        "city": "Anapolis",
        "state": "GO",
        "district": "Polocentro",
        "street": "Rua Dona Cristina",
        "zipcode": "75130-170"
    },
    {
        "city": "Anapolis",
        "state": "GO",
        "district": "Vila Mariana",
        "street": "Avenida Pedro Ludovico",
        "zipcode": "75134-580"
    },
    {
        "city": "Anapolis",
        "state": "GO",
        "district": "Jardim Nacoes Unidas",
        "street": "Avenida Prof. Benvindo Machado",
        "zipcode": "75143-150"
    },
    {
        "city": "Anapolis",
        "state": "GO",
        "district": "Polocentro",
        "street": "Rua Agua Cristalina",
        "zipcode": "75130-030"
    },
    {
        "city": "Anapolis",
        "state": "GO",
        "district": "Calixtolandia",
        "street": "Rua Nossa Senhora Aparecida",
        "zipcode": "75130-500"
    },
    {
        "city": "Anapolis",
        "state": "GO",
        "district": "Vila Nossa Senhora D Abadia",
        "street": "Rua Perola",
        "zipcode": "75120-550"
    },
    {
        "city": "Anapolis",
        "state": "GO",
        "district": "Parque Sao Joao",
        "street": "Rua 015",
        "zipcode": "75133-190"
    },
    {
        "city": "Anapolis",
        "state": "GO",
        "district": "Parque Sao Joao",
        "street": "Rua Treze De Maio",
        "zipcode": "75133-350"
    },
    {
        "city": "Anapolis",
        "state": "GO",
        "district": "Setor Nova Capital",
        "street": "Avenida Brasil",
        "zipcode": "75114-650"
    },
    {
        "city": "Anapolis",
        "state": "GO",
        "district": "Jardim Das Americas",
        "street": "Rua Porto Nacional",
        "zipcode": "75070-260"
    },
    {
        "city": "Anapolis",
        "state": "GO",
        "district": "Alvorada",
        "street": "Rua Araguaia",
        "zipcode": "75075-680"
    },
    {
        "city": "Anapolis",
        "state": "GO",
        "district": "Alvorada",
        "street": "Rua Venezuela",
        "zipcode": "75075-710"
    },
    {
        "city": "Anapolis",
        "state": "GO",
        "district": "Vila Santa Isabel",
        "street": "Rua A",
        "zipcode": "75083-090"
    },
    {
        "city": "Anapolis",
        "state": "GO",
        "district": "Jardim Alvorada",
        "street": "Avenida Das Nacoes Unidas",
        "zipcode": "75095-570"
    },
    {
        "city": "Anapolis",
        "state": "GO",
        "district": "Vila Rica",
        "street": "Rua Dos Engenheiros",
        "zipcode": "75104-780"
    },
    {
        "city": "Anapolis",
        "state": "GO",
        "district": "Vila Santana",
        "street": "Rua Amazilio Lino Souza",
        "zipcode": "75115-370"
    },
    {
        "city": "Anapolis",
        "state": "GO",
        "district": "Village Jardim Anapolis",
        "street": "Rua Borba Gato",
        "zipcode": "75063-030"
    },
    {
        "city": "Anapolis",
        "state": "GO",
        "district": "Parque Sao Joao",
        "street": "Avenida Brasil",
        "zipcode": "75133-840"
    },
    {
        "city": "Anapolis",
        "state": "GO",
        "district": "Vila Santana",
        "street": "Rua Nove De Julho",
        "zipcode": "75115-380"
    },
    {
        "city": "Anapolis",
        "state": "GO",
        "district": "Jardim Das Americas",
        "street": "Rua Clementino De A Lima",
        "zipcode": "75070-090"
    },
    {
        "city": "Anapolis",
        "state": "GO",
        "district": "Vivian Parque",
        "street": "Rua Claudia",
        "zipcode": "75135-690"
    },
    {
        "city": "Anapolis",
        "state": "GO",
        "district": "Vila Maracananzinho",
        "street": "Rua B",
        "zipcode": "75080-200"
    },
    {
        "city": "Anapolis",
        "state": "GO",
        "district": "Loteamento Novo Jundiai",
        "street": "Rodovia Br",
        "zipcode": "75095-830"
    },
    {
        "city": "Anapolis",
        "state": "GO",
        "district": "Parque Das Primaveras",
        "street": "Rua Maria C. Santos",
        "zipcode": "75124-790"
    },
    {
        "city": "Anapolis",
        "state": "GO",
        "district": "Parque Sao Joao",
        "street": "Rua Ouvidor",
        "zipcode": "75133-280"
    },
    {
        "city": "Anapolis",
        "state": "GO",
        "district": "Vila Santa Helena",
        "street": "Travessa Izabel Rodrigues De Rezende",
        "zipcode": "75045-290"
    },
    {
        "city": "Anapolis",
        "state": "GO",
        "district": "Jardim Das Primaveras",
        "street": "Rua Jp",
        "zipcode": "75090-640"
    },
    {
        "city": "Anapolis",
        "state": "GO",
        "district": "Jardim Das Primaveras",
        "street": "Rua Jp",
        "zipcode": "75090-470"
    },
    {
        "city": "Anapolis",
        "state": "GO",
        "district": "Prive Lirios Dos Campos",
        "street": "Alameda Das Rosas",
        "zipcode": "75093-550"
    },
    {
        "city": "Anapolis",
        "state": "GO",
        "district": "Vila Santa Helena",
        "street": "Travessa Francisco Pedro Da Silva",
        "zipcode": "75045-280"
    },
    {
        "city": "Anapolis",
        "state": "GO",
        "district": "Loteamento Novo Jundiai",
        "street": "Rua Nj",
        "zipcode": "75095-600"
    },
    {
        "city": "Anapolis",
        "state": "GO",
        "district": "Jardim Das Primaveras",
        "street": "Rua Jp",
        "zipcode": "75090-510"
    },
    {
        "city": "Anapolis",
        "state": "GO",
        "district": "Boa Vista",
        "street": "Rua Edwardes Jose Ribeiro",
        "zipcode": "75075-240"
    },
    {
        "city": "Anapolis",
        "state": "GO",
        "district": "Jardim Das Primaveras",
        "street": "Rua Jp",
        "zipcode": "75090-550"
    },
    {
        "city": "Anapolis",
        "state": "GO",
        "district": "Jardim Das Primaveras",
        "street": "Rua Jp",
        "zipcode": "75090-600"
    },
    {
        "city": "Anapolis",
        "state": "GO",
        "district": "Vila Jaiara",
        "street": "Rua Miguel Luiz De Freitas",
        "zipcode": "75064-320"
    }
]