[
    {
        "city": "Aparecida De Goiania",
        "state": "GO",
        "district": "Parque Industrial Santo Antonio",
        "street": "Alameda Antonio Elias De Deus",
        "zipcode": "74987-540"
    },
    {
        "city": "Aparecida De Goiania",
        "state": "GO",
        "district": "Jardim Tropical Verde",
        "street": "Rua Babacu",
        "zipcode": "74972-080"
    },
    {
        "city": "Aparecida De Goiania",
        "state": "GO",
        "district": "Residencial Caraibas",
        "street": "Avenida Flamboyante",
        "zipcode": "74983-747"
    },
    {
        "city": "Aparecida De Goiania",
        "state": "GO",
        "district": "Jardim Santo Antonio",
        "street": "Rua 0002",
        "zipcode": "74905-119"
    },
    {
        "city": "Aparecida De Goiania",
        "state": "GO",
        "district": "Jardim Tropical Verde",
        "street": "Alameda Laranja",
        "zipcode": "74972-490"
    },
    {
        "city": "Aparecida De Goiania",
        "state": "GO",
        "district": "Jardim Tropical Verde",
        "street": "Rua Marolo",
        "zipcode": "74972-530"
    },
    {
        "city": "Aparecida De Goiania",
        "state": "GO",
        "district": "Parque Industrial Santo Antonio",
        "street": "Rua Auriano De Souza",
        "zipcode": "74987-550"
    },
    {
        "city": "Aparecida De Goiania",
        "state": "GO",
        "district": "Vila Alzira",
        "street": "Rua Das Esmeraldas",
        "zipcode": "74913-250"
    },
    {
        "city": "Aparecida De Goiania",
        "state": "GO",
        "district": "Jardim Tropical Verde",
        "street": "Rua Das Ameixas",
        "zipcode": "74972-040"
    },
    {
        "city": "Aparecida De Goiania",
        "state": "GO",
        "district": "Parque Industrial Santo Antonio",
        "street": "Rua Veiga Jardim",
        "zipcode": "74987-710"
    },
    {
        "city": "Aparecida De Goiania",
        "state": "GO",
        "district": "Jardim Tropical Verde",
        "street": "Rua Dos Eucaliptos",
        "zipcode": "74972-300"
    },
    {
        "city": "Aparecida De Goiania",
        "state": "GO",
        "district": "Setor Conde Dos Arcos",
        "street": "Rua Da Divisa",
        "zipcode": "74969-220"
    },
    {
        "city": "Aparecida De Goiania",
        "state": "GO",
        "district": "Parque Industrial Santo Antonio",
        "street": "Rua Dona Gercina Borges",
        "zipcode": "74987-580"
    },
    {
        "city": "Aparecida De Goiania",
        "state": "GO",
        "district": "Parque Atalaia",
        "street": "Rua Carai",
        "zipcode": "74968-420"
    },
    {
        "city": "Aparecida De Goiania",
        "state": "GO",
        "district": "Parque Atalaia",
        "street": "Rua Abaete",
        "zipcode": "74968-360"
    },
    {
        "city": "Aparecida De Goiania",
        "state": "GO",
        "district": "Vila Maria",
        "street": "Rua 002",
        "zipcode": "74919-364"
    },
    {
        "city": "Aparecida De Goiania",
        "state": "GO",
        "district": "Vila Brasilia",
        "street": "Avenida Anapolis",
        "zipcode": "74911-370"
    },
    {
        "city": "Aparecida De Goiania",
        "state": "GO",
        "district": "Jardim Tropical Verde",
        "street": "Rua Ebano",
        "zipcode": "74972-280"
    },
    {
        "city": "Aparecida De Goiania",
        "state": "GO",
        "district": "Vila Brasilia",
        "street": "Rua Cintia",
        "zipcode": "74911-420"
    },
    {
        "city": "Aparecida De Goiania",
        "state": "GO",
        "district": "Cardoso",
        "street": "Rua Inhumas",
        "zipcode": "74933-100"
    },
    {
        "city": "Aparecida De Goiania",
        "state": "GO",
        "district": "Vila Alzira",
        "street": "Rua Das Ametistas",
        "zipcode": "74913-160"
    },
    {
        "city": "Aparecida De Goiania",
        "state": "GO",
        "district": "Cardoso",
        "street": "Rua Trindade",
        "zipcode": "74933-180"
    },
    {
        "city": "Aparecida De Goiania",
        "state": "GO",
        "district": "Cardoso",
        "street": "Rua 050",
        "zipcode": "74934-380"
    },
    {
        "city": "Aparecida De Goiania",
        "state": "GO",
        "district": "Vila Alzira",
        "street": "Rua Gardenias",
        "zipcode": "74913-260"
    },
    {
        "city": "Aparecida De Goiania",
        "state": "GO",
        "district": "Cardoso",
        "street": "Rua Anapolis",
        "zipcode": "74934-460"
    },
    {
        "city": "Aparecida De Goiania",
        "state": "GO",
        "district": "Vila Alzira",
        "street": "Rua Das Samambaias",
        "zipcode": "74913-440"
    },
    {
        "city": "Aparecida De Goiania",
        "state": "GO",
        "district": "Jardim Tropical Verde",
        "street": "Rua Caqui",
        "zipcode": "74972-190"
    },
    {
        "city": "Aparecida De Goiania",
        "state": "GO",
        "district": "Cardoso",
        "street": "Rua Araxa",
        "zipcode": "74934-480"
    },
    {
        "city": "Aparecida De Goiania",
        "state": "GO",
        "district": "Cardoso",
        "street": "Rua Caetes",
        "zipcode": "74934-500"
    },
    {
        "city": "Aparecida De Goiania",
        "state": "GO",
        "district": "Jardim Nova Era",
        "street": "Avenida Mineira",
        "zipcode": "74916-250"
    },
    {
        "city": "Aparecida De Goiania",
        "state": "GO",
        "district": "Jardim Nova Era",
        "street": "Rua Uberaba",
        "zipcode": "74916-280"
    },
    {
        "city": "Aparecida De Goiania",
        "state": "GO",
        "district": "Cardoso",
        "street": "Rua Goiania",
        "zipcode": "74934-540"
    },
    {
        "city": "Aparecida De Goiania",
        "state": "GO",
        "district": "Parque Madre Germana",
        "street": "Rua Sao Judas",
        "zipcode": "74965-680"
    },
    {
        "city": "Aparecida De Goiania",
        "state": "GO",
        "district": "Jardim Nova Era",
        "street": "Avenida Chevalier Bazelio Tafet",
        "zipcode": "74916-020"
    },
    {
        "city": "Aparecida De Goiania",
        "state": "GO",
        "district": "Jardim Imperial",
        "street": "Rua Marques",
        "zipcode": "74914-654"
    },
    {
        "city": "Aparecida De Goiania",
        "state": "GO",
        "district": "Parque Flamboyant",
        "street": "Rua Gonzaga Jaime",
        "zipcode": "74920-795"
    },
    {
        "city": "Aparecida De Goiania",
        "state": "GO",
        "district": "Cardoso",
        "street": "Rua Guapo",
        "zipcode": "74933-060"
    },
    {
        "city": "Aparecida De Goiania",
        "state": "GO",
        "district": "Cardoso",
        "street": "Rua X",
        "zipcode": "74934-640"
    },
    {
        "city": "Aparecida De Goiania",
        "state": "GO",
        "district": "Cardoso",
        "street": "Rua X",
        "zipcode": "74934-630"
    },
    {
        "city": "Aparecida De Goiania",
        "state": "GO",
        "district": "Cardoso",
        "street": "Rua Neropolis",
        "zipcode": "74934-560"
    },
    {
        "city": "Aparecida De Goiania",
        "state": "GO",
        "district": "Cardoso",
        "street": "Rua Goianira",
        "zipcode": "74934-550"
    },
    {
        "city": "Aparecida De Goiania",
        "state": "GO",
        "district": "Cardoso",
        "street": "Rua Hidrolandia",
        "zipcode": "74933-080"
    },
    {
        "city": "Aparecida De Goiania",
        "state": "GO",
        "district": "Cardoso",
        "street": "Rua Aragoiania",
        "zipcode": "74933-020"
    },
    {
        "city": "Aparecida De Goiania",
        "state": "GO",
        "district": "Parque Madre Germana",
        "street": "Rua Sao Pedro",
        "zipcode": "74965-710"
    },
    {
        "city": "Aparecida De Goiania",
        "state": "GO",
        "district": "Jardim Monte Serrat",
        "street": "Rua 504",
        "zipcode": "74917-330"
    },
    {
        "city": "Aparecida De Goiania",
        "state": "GO",
        "district": "Residencial Por Do Sol",
        "street": "Rua Do Ipe",
        "zipcode": "74946-558"
    },
    {
        "city": "Aparecida De Goiania",
        "state": "GO",
        "district": "Residencial Baliza",
        "street": "Rua Bl",
        "zipcode": "74940-693"
    },
    {
        "city": "Aparecida De Goiania",
        "state": "GO",
        "district": "Parque Madre Germana",
        "street": "Rua Sao Jose",
        "zipcode": "74965-670"
    },
    {
        "city": "Aparecida De Goiania",
        "state": "GO",
        "district": "Jardim Bonanca",
        "street": "Avenida 010",
        "zipcode": "74919-070"
    },
    {
        "city": "Aparecida De Goiania",
        "state": "GO",
        "district": "Conj Cruzeiro Do Sul",
        "street": "Rua Paulistas",
        "zipcode": "74917-230"
    },
    {
        "city": "Aparecida De Goiania",
        "state": "GO",
        "district": "Cardoso",
        "street": "Rua X",
        "zipcode": "74934-740"
    },
    {
        "city": "Aparecida De Goiania",
        "state": "GO",
        "district": "Cardoso",
        "street": "Rua X",
        "zipcode": "74934-710"
    },
    {
        "city": "Aparecida De Goiania",
        "state": "GO",
        "district": "Parque Madre Germana",
        "street": "Rua Mg",
        "zipcode": "74965-440"
    },
    {
        "city": "Aparecida De Goiania",
        "state": "GO",
        "district": "Parque Madre Germana",
        "street": "Rua Mg",
        "zipcode": "74965-450"
    },
    {
        "city": "Aparecida De Goiania",
        "state": "GO",
        "district": "Parque Madre Germana",
        "street": "Rua Aurora Esteves Pereira",
        "zipcode": "74965-390"
    },
    {
        "city": "Aparecida De Goiania",
        "state": "GO",
        "district": "Cardoso",
        "street": "Rua X",
        "zipcode": "74934-720"
    },
    {
        "city": "Aparecida De Goiania",
        "state": "GO",
        "district": "Jardim Nova Era",
        "street": "Rua Araxa",
        "zipcode": "74916-010"
    },
    {
        "city": "Aparecida De Goiania",
        "state": "GO",
        "district": "Jardim Maria Inez",
        "street": "Alameda Das Garcas",
        "zipcode": "74914-320"
    },
    {
        "city": "Aparecida De Goiania",
        "state": "GO",
        "district": "Vila Alzira",
        "street": "Avenida Euclides Da Cunha Amendoeiro",
        "zipcode": "74913-500"
    },
    {
        "city": "Aparecida De Goiania",
        "state": "GO",
        "district": "Residencial Por Do Sol",
        "street": "Rua Das Paineiras",
        "zipcode": "74946-575"
    },
    {
        "city": "Aparecida De Goiania",
        "state": "GO",
        "district": "Residencial Por Do Sol",
        "street": "Rua Do Pequizeiro",
        "zipcode": "74946-582"
    },
    {
        "city": "Aparecida De Goiania",
        "state": "GO",
        "district": "Residencial Por Do Sol",
        "street": "Rua Do Cedro",
        "zipcode": "74946-598"
    },
    {
        "city": "Aparecida De Goiania",
        "state": "GO",
        "district": "Residencial Caraibas",
        "street": "Rua Das Cerejeiras",
        "zipcode": "74946-608"
    },
    {
        "city": "Aparecida De Goiania",
        "state": "GO",
        "district": "Residencial Norte Sul",
        "street": "Rua Das Laranjeiras",
        "zipcode": "74946-638"
    },
    {
        "city": "Aparecida De Goiania",
        "state": "GO",
        "district": "Jardim Tropical Verde",
        "street": "Rua Begonias",
        "zipcode": "74972-110"
    },
    {
        "city": "Aparecida De Goiania",
        "state": "GO",
        "district": "Jardim Tropical Verde",
        "street": "Rua Do Cafe",
        "zipcode": "74972-150"
    },
    {
        "city": "Aparecida De Goiania",
        "state": "GO",
        "district": "Residencial Caraibas",
        "street": "Rua Jacaranda",
        "zipcode": "74946-618"
    },
    {
        "city": "Aparecida De Goiania",
        "state": "GO",
        "district": "Jardim Tropical Verde",
        "street": "Rua Cipreste",
        "zipcode": "74972-220"
    },
    {
        "city": "Aparecida De Goiania",
        "state": "GO",
        "district": "Jardim Tropical Verde",
        "street": "Alameda Imbuia",
        "zipcode": "74972-410"
    },
    {
        "city": "Aparecida De Goiania",
        "state": "GO",
        "district": "Goiania Park Sul",
        "street": "Rua R",
        "zipcode": "74945-426"
    },
    {
        "city": "Aparecida De Goiania",
        "state": "GO",
        "district": "Jardim Tropical Verde",
        "street": "Rua Atas",
        "zipcode": "74972-060"
    },
    {
        "city": "Aparecida De Goiania",
        "state": "GO",
        "district": "Jardim Tropical Verde",
        "street": "Rua Goiabeira",
        "zipcode": "74972-350"
    },
    {
        "city": "Aparecida De Goiania",
        "state": "GO",
        "district": "Jardim Tropical Verde",
        "street": "Rua Alecrim",
        "zipcode": "74972-020"
    },
    {
        "city": "Aparecida De Goiania",
        "state": "GO",
        "district": "Parque Atalaia",
        "street": "Rua Amarai",
        "zipcode": "74968-370"
    },
    {
        "city": "Aparecida De Goiania",
        "state": "GO",
        "district": "Jardim Tropical Verde",
        "street": "Rua Amapa",
        "zipcode": "74972-030"
    },
    {
        "city": "Aparecida De Goiania",
        "state": "GO",
        "district": "Jardim Tropical Verde",
        "street": "Rua Carnauba",
        "zipcode": "74972-200"
    },
    {
        "city": "Aparecida De Goiania",
        "state": "GO",
        "district": "Setor Pontal Sul",
        "street": "Avenida Guatemala",
        "zipcode": "74955-330"
    },
    {
        "city": "Aparecida De Goiania",
        "state": "GO",
        "district": "Mansoes Paraiso",
        "street": "Rua Senador Antonio Ramos Caiado",
        "zipcode": "74950-020"
    },
    {
        "city": "Aparecida De Goiania",
        "state": "GO",
        "district": "Jardim Tropical Verde",
        "street": "Praça Do Ebano",
        "zipcode": "74972-290"
    },
    {
        "city": "Aparecida De Goiania",
        "state": "GO",
        "district": "Goiania Park Sul",
        "street": "Avenida R",
        "zipcode": "74945-424"
    },
    {
        "city": "Aparecida De Goiania",
        "state": "GO",
        "district": "Residencial Por Do Sol",
        "street": "Rodovia Go",
        "zipcode": "74946-568"
    },
    {
        "city": "Aparecida De Goiania",
        "state": "GO",
        "district": "Jardim Tropical Verde",
        "street": "Rua Angelim",
        "zipcode": "74972-050"
    },
    {
        "city": "Aparecida De Goiania",
        "state": "GO",
        "district": "Jardim Cristalino",
        "street": "Rua Das Laranjeiras",
        "zipcode": "74968-050"
    },
    {
        "city": "Aparecida De Goiania",
        "state": "GO",
        "district": "Jardim Tropical Verde",
        "street": "Rua Gameleiras",
        "zipcode": "74972-310"
    },
    {
        "city": "Aparecida De Goiania",
        "state": "GO",
        "district": "Residencial Caraibas",
        "street": "Rua Das Acacias",
        "zipcode": "74946-612"
    },
    {
        "city": "Aparecida De Goiania",
        "state": "GO",
        "district": "Goiania Park Sul",
        "street": "Avenida R",
        "zipcode": "74945-390"
    },
    {
        "city": "Aparecida De Goiania",
        "state": "GO",
        "district": "Jardim Tropical Verde",
        "street": "Rua Dalias",
        "zipcode": "74972-260"
    },
    {
        "city": "Aparecida De Goiania",
        "state": "GO",
        "district": "Jardim Tropical Verde",
        "street": "Rua Dos Jasmins",
        "zipcode": "74972-460"
    },
    {
        "city": "Aparecida De Goiania",
        "state": "GO",
        "district": "Jardim Tropical Verde",
        "street": "Rua Baunilha",
        "zipcode": "74972-100"
    },
    {
        "city": "Aparecida De Goiania",
        "state": "GO",
        "district": "Setor Pontal Sul",
        "street": "Rua Santarem",
        "zipcode": "74955-440"
    },
    {
        "city": "Aparecida De Goiania",
        "state": "GO",
        "district": "Goiania Park Sul",
        "street": "Rua R",
        "zipcode": "74945-410"
    },
    {
        "city": "Aparecida De Goiania",
        "state": "GO",
        "district": "Goiania Park Sul",
        "street": "Rua R",
        "zipcode": "74945-422"
    },
    {
        "city": "Aparecida De Goiania",
        "state": "GO",
        "district": "Parque Madre Germana",
        "street": "Rua Sao Paulo",
        "zipcode": "74965-700"
    },
    {
        "city": "Aparecida De Goiania",
        "state": "GO",
        "district": "Jardim Tropical Verde",
        "street": "Avenida Dos Bosque",
        "zipcode": "74972-130"
    },
    {
        "city": "Aparecida De Goiania",
        "state": "GO",
        "district": "Jardim Tropical Verde",
        "street": "Rua Das Cambraias",
        "zipcode": "74972-180"
    },
    {
        "city": "Aparecida De Goiania",
        "state": "GO",
        "district": "Setor Pontal Sul",
        "street": "Rua Criolita",
        "zipcode": "74955-200"
    },
    {
        "city": "Aparecida De Goiania",
        "state": "GO",
        "district": "Jardim Tropical Verde",
        "street": "Rua Butia",
        "zipcode": "74972-140"
    },
    {
        "city": "Aparecida De Goiania",
        "state": "GO",
        "district": "Jardim Tropical Verde",
        "street": "Rua Imbe",
        "zipcode": "74972-400"
    },
    {
        "city": "Aparecida De Goiania",
        "state": "GO",
        "district": "Jardim Cristalino",
        "street": "Rua Copacabana",
        "zipcode": "74968-010"
    },
    {
        "city": "Aparecida De Goiania",
        "state": "GO",
        "district": "Jardim Tropical Verde",
        "street": "Rua Ipes",
        "zipcode": "74972-420"
    },
    {
        "city": "Aparecida De Goiania",
        "state": "GO",
        "district": "Jardim Tropical Verde",
        "street": "Rua Das Azaleias",
        "zipcode": "74972-070"
    },
    {
        "city": "Aparecida De Goiania",
        "state": "GO",
        "district": "Jardim Tropical Verde",
        "street": "Rua Dos Condes",
        "zipcode": "74972-240"
    },
    {
        "city": "Aparecida De Goiania",
        "state": "GO",
        "district": "Jardim Tropical Verde",
        "street": "Rua Dos Cajueiros",
        "zipcode": "74972-170"
    },
    {
        "city": "Aparecida De Goiania",
        "state": "GO",
        "district": "Jardim Cristalino",
        "street": "Rua Limeira",
        "zipcode": "74968-060"
    },
    {
        "city": "Aparecida De Goiania",
        "state": "GO",
        "district": "Jardim Tropical Verde",
        "street": "Rua Dos Genipapos",
        "zipcode": "74972-330"
    },
    {
        "city": "Aparecida De Goiania",
        "state": "GO",
        "district": "Jardim Tropical Verde",
        "street": "Alameda Jacana",
        "zipcode": "74972-470"
    },
    {
        "city": "Aparecida De Goiania",
        "state": "GO",
        "district": "Jardim Tropical Verde",
        "street": "Rua Jaborandi",
        "zipcode": "74972-430"
    },
    {
        "city": "Aparecida De Goiania",
        "state": "GO",
        "district": "Setor Pontal Sul",
        "street": "Avenida 012",
        "zipcode": "74955-020"
    },
    {
        "city": "Aparecida De Goiania",
        "state": "GO",
        "district": "Jardim Veneza",
        "street": "Rua Dos Magistrados",
        "zipcode": "74958-070"
    },
    {
        "city": "Aparecida De Goiania",
        "state": "GO",
        "district": "Jardim Tropical Verde",
        "street": "Rua Das Congonhas",
        "zipcode": "74972-250"
    },
    {
        "city": "Aparecida De Goiania",
        "state": "GO",
        "district": "Jardim Tropical Verde",
        "street": "Rua Gravata",
        "zipcode": "74972-380"
    },
    {
        "city": "Aparecida De Goiania",
        "state": "GO",
        "district": "Jardim Tropical Verde",
        "street": "Rua Grauna",
        "zipcode": "74972-370"
    },
    {
        "city": "Aparecida De Goiania",
        "state": "GO",
        "district": "Jardim Tropical Verde",
        "street": "Rua Das Gramas",
        "zipcode": "74972-360"
    },
    {
        "city": "Aparecida De Goiania",
        "state": "GO",
        "district": "Parque Atalaia",
        "street": "Rua Guarani",
        "zipcode": "74968-380"
    },
    {
        "city": "Aparecida De Goiania",
        "state": "GO",
        "district": "Residencial Caraibas",
        "street": "Rua Das Castanheiras",
        "zipcode": "74983-728"
    },
    {
        "city": "Aparecida De Goiania",
        "state": "GO",
        "district": "Residencial Caraibas",
        "street": "Rua Pau Brasil",
        "zipcode": "74983-730"
    },
    {
        "city": "Aparecida De Goiania",
        "state": "GO",
        "district": "Residencial Caraibas",
        "street": "Rua Das Cerejeiras",
        "zipcode": "74983-734"
    },
    {
        "city": "Aparecida De Goiania",
        "state": "GO",
        "district": "Residencial Caraibas",
        "street": "Rua Do Pequizeiro",
        "zipcode": "74983-735"
    },
    {
        "city": "Aparecida De Goiania",
        "state": "GO",
        "district": "Residencial Caraibas",
        "street": "Rua Gameleira",
        "zipcode": "74983-737"
    },
    {
        "city": "Aparecida De Goiania",
        "state": "GO",
        "district": "Residencial Caraibas",
        "street": "Avenida Domitila",
        "zipcode": "74983-738"
    },
    {
        "city": "Aparecida De Goiania",
        "state": "GO",
        "district": "Residencial Caraibas",
        "street": "Rua Do Angico",
        "zipcode": "74983-740"
    },
    {
        "city": "Aparecida De Goiania",
        "state": "GO",
        "district": "Residencial Caraibas",
        "street": "Rua Das Aroeiras",
        "zipcode": "74983-741"
    },
    {
        "city": "Aparecida De Goiania",
        "state": "GO",
        "district": "Residencial Caraibas",
        "street": "Rua Alecrim",
        "zipcode": "74983-743"
    },
    {
        "city": "Aparecida De Goiania",
        "state": "GO",
        "district": "Residencial Caraibas",
        "street": "Rua Do Cedro",
        "zipcode": "74983-746"
    },
    {
        "city": "Aparecida De Goiania",
        "state": "GO",
        "district": "Residencial Por Do Sol",
        "street": "Rua Da Peroba",
        "zipcode": "74983-751"
    },
    {
        "city": "Aparecida De Goiania",
        "state": "GO",
        "district": "Residencial Norte Sul",
        "street": "Rua Das Laranjeiras",
        "zipcode": "74983-757"
    },
    {
        "city": "Aparecida De Goiania",
        "state": "GO",
        "district": "Jardim Tropical Verde",
        "street": "Rua Pitangueira",
        "zipcode": "74972-690"
    },
    {
        "city": "Aparecida De Goiania",
        "state": "GO",
        "district": "Parque Industrial Santo Antonio",
        "street": "Rua 001",
        "zipcode": "74987-410"
    },
    {
        "city": "Aparecida De Goiania",
        "state": "GO",
        "district": "Residencial Norte Sul",
        "street": "Rua Do Cafe",
        "zipcode": "74983-758"
    },
    {
        "city": "Aparecida De Goiania",
        "state": "GO",
        "district": "Parque Atalaia",
        "street": "Avenida Iguatemi",
        "zipcode": "74968-430"
    },
    {
        "city": "Aparecida De Goiania",
        "state": "GO",
        "district": "Jardim Tropical Verde",
        "street": "Rua Dos Milhos",
        "zipcode": "74972-560"
    },
    {
        "city": "Aparecida De Goiania",
        "state": "GO",
        "district": "Residencial Caraibas",
        "street": "Avenida Dr Valdemiro Cruz",
        "zipcode": "74983-748"
    },
    {
        "city": "Aparecida De Goiania",
        "state": "GO",
        "district": "Residencial Caraibas",
        "street": "Rua Jatoba",
        "zipcode": "74983-729"
    },
    {
        "city": "Aparecida De Goiania",
        "state": "GO",
        "district": "Jardim Tropical Verde",
        "street": "Rua Mangabeira",
        "zipcode": "74972-510"
    },
    {
        "city": "Aparecida De Goiania",
        "state": "GO",
        "district": "Jardim Tropical Verde",
        "street": "Rua Dos Girassois",
        "zipcode": "74972-340"
    },
    {
        "city": "Aparecida De Goiania",
        "state": "GO",
        "district": "Residencial Por Do Sol",
        "street": "Rua Do Ipe",
        "zipcode": "74983-750"
    },
    {
        "city": "Aparecida De Goiania",
        "state": "GO",
        "district": "Residencial Caraibas",
        "street": "Rua Vinhaticos",
        "zipcode": "74983-733"
    },
    {
        "city": "Aparecida De Goiania",
        "state": "GO",
        "district": "Jardim Monte Libano",
        "street": "Rua Gardenias",
        "zipcode": "74969-411"
    },
    {
        "city": "Aparecida De Goiania",
        "state": "GO",
        "district": "Nova Olinda",
        "street": "Rua Boanerges A. Veiga",
        "zipcode": "74983-680"
    },
    {
        "city": "Aparecida De Goiania",
        "state": "GO",
        "district": "Jardim Tropical Verde",
        "street": "Rua Periandra",
        "zipcode": "74972-650"
    },
    {
        "city": "Aparecida De Goiania",
        "state": "GO",
        "district": "Nova Olinda",
        "street": "Rua Dilon Alencastro Veiga",
        "zipcode": "74983-700"
    },
    {
        "city": "Aparecida De Goiania",
        "state": "GO",
        "district": "Parque Industrial Santo Antonio",
        "street": "Rua 004",
        "zipcode": "74987-440"
    },
    {
        "city": "Aparecida De Goiania",
        "state": "GO",
        "district": "Jardim Tropical Verde",
        "street": "Alameda Dos Pampas",
        "zipcode": "74972-640"
    },
    {
        "city": "Aparecida De Goiania",
        "state": "GO",
        "district": "Jardim Tropical Verde",
        "street": "Rua Dos Pessegueiros",
        "zipcode": "74972-660"
    },
    {
        "city": "Aparecida De Goiania",
        "state": "GO",
        "district": "Jardim Tropical Verde",
        "street": "Rua Dos Juazeiros",
        "zipcode": "74972-480"
    },
    {
        "city": "Aparecida De Goiania",
        "state": "GO",
        "district": "Jardim Ipanema",
        "street": "Rua Jesuina De Abreu",
        "zipcode": "74984-240"
    },
    {
        "city": "Aparecida De Goiania",
        "state": "GO",
        "district": "Parque Industrial Santo Antonio",
        "street": "Rua 006",
        "zipcode": "74987-460"
    },
    {
        "city": "Aparecida De Goiania",
        "state": "GO",
        "district": "Jardim Tropical Verde",
        "street": "Rua Niva",
        "zipcode": "74972-580"
    },
    {
        "city": "Aparecida De Goiania",
        "state": "GO",
        "district": "Jardim Tropical Verde",
        "street": "Rua Mentrasto",
        "zipcode": "74972-550"
    },
    {
        "city": "Aparecida De Goiania",
        "state": "GO",
        "district": "Expansur",
        "street": "Alameda Dos Alecrins",
        "zipcode": "74986-050"
    },
    {
        "city": "Aparecida De Goiania",
        "state": "GO",
        "district": "Jardim Tropical Verde",
        "street": "Rua Mentha",
        "zipcode": "74972-540"
    },
    {
        "city": "Aparecida De Goiania",
        "state": "GO",
        "district": "Jardim Tropical Verde",
        "street": "Rua Das Marcas",
        "zipcode": "74972-520"
    },
    {
        "city": "Aparecida De Goiania",
        "state": "GO",
        "district": "Residencial Caraibas",
        "street": "Alameda Palmeiras",
        "zipcode": "74983-726"
    },
    {
        "city": "Aparecida De Goiania",
        "state": "GO",
        "district": "Residencial Por Do Sol",
        "street": "Rua Jequitiba",
        "zipcode": "74983-752"
    },
    {
        "city": "Aparecida De Goiania",
        "state": "GO",
        "district": "Jardim Tropical Verde",
        "street": "Rua Das Orquideas",
        "zipcode": "74972-610"
    },
    {
        "city": "Aparecida De Goiania",
        "state": "GO",
        "district": "Jardim Tropical Verde",
        "street": "Rua Columbrina",
        "zipcode": "74972-230"
    },
    {
        "city": "Aparecida De Goiania",
        "state": "GO",
        "district": "Residencial Caraibas",
        "street": "Rodovia Go",
        "zipcode": "74983-725"
    },
    {
        "city": "Aparecida De Goiania",
        "state": "GO",
        "district": "Expansur",
        "street": "Rua Gardenias",
        "zipcode": "74986-360"
    },
    {
        "city": "Aparecida De Goiania",
        "state": "GO",
        "district": "Residencial Norte Sul",
        "street": "Rua Limoeiro",
        "zipcode": "74983-754"
    },
    {
        "city": "Aparecida De Goiania",
        "state": "GO",
        "district": "Jardim Tropical Verde",
        "street": "Rua Jalapa",
        "zipcode": "74972-450"
    },
    {
        "city": "Aparecida De Goiania",
        "state": "GO",
        "district": "Residencial Caraibas",
        "street": "Rua Munguba",
        "zipcode": "74983-745"
    },
    {
        "city": "Aparecida De Goiania",
        "state": "GO",
        "district": "Residencial Norte Sul",
        "street": "Rua Das Acacias",
        "zipcode": "74983-756"
    },
    {
        "city": "Aparecida De Goiania",
        "state": "GO",
        "district": "Parque Industrial Santo Antonio",
        "street": "Rua 003",
        "zipcode": "74987-430"
    },
    {
        "city": "Aparecida De Goiania",
        "state": "GO",
        "district": "Jardim Tropical Verde",
        "street": "Rua Piacava",
        "zipcode": "74972-670"
    },
    {
        "city": "Aparecida De Goiania",
        "state": "GO",
        "district": "Jardim Tropical Verde",
        "street": "Rua Das Palmas",
        "zipcode": "74972-630"
    },
    {
        "city": "Aparecida De Goiania",
        "state": "GO",
        "district": "Jardim Tropical Verde",
        "street": "Rua Do Agriao",
        "zipcode": "74972-010"
    },
    {
        "city": "Aparecida De Goiania",
        "state": "GO",
        "district": "Jardim Tropical Verde",
        "street": "Praça Oregano",
        "zipcode": "74972-600"
    },
    {
        "city": "Aparecida De Goiania",
        "state": "GO",
        "district": "Jardim Tropical Verde",
        "street": "Rua Das Oliveiras",
        "zipcode": "74972-590"
    },
    {
        "city": "Aparecida De Goiania",
        "state": "GO",
        "district": "Residencial Caraibas",
        "street": "Rua Sucupira",
        "zipcode": "74983-742"
    },
    {
        "city": "Aparecida De Goiania",
        "state": "GO",
        "district": "Alvorada Oeste",
        "street": "Rua 103",
        "zipcode": "74988-010"
    },
    {
        "city": "Aparecida De Goiania",
        "state": "GO",
        "district": "Nova Olinda",
        "street": "Rua Joao Odilon G. Pinto",
        "zipcode": "74983-320"
    },
    {
        "city": "Aparecida De Goiania",
        "state": "GO",
        "district": "Distrito Agro",
        "street": "Rua Goianazes",
        "zipcode": "74993-400"
    },
    {
        "city": "Aparecida De Goiania",
        "state": "GO",
        "district": "Parque Industrial Santo Antonio",
        "street": "Rua 002",
        "zipcode": "74987-420"
    },
    {
        "city": "Aparecida De Goiania",
        "state": "GO",
        "district": "Parque Industrial Santo Antonio",
        "street": "Avenida Sampaio Vidal",
        "zipcode": "74987-700"
    },
    {
        "city": "Aparecida De Goiania",
        "state": "GO",
        "district": "Parque Industrial Santo Antonio",
        "street": "Rua 011",
        "zipcode": "74987-510"
    },
    {
        "city": "Aparecida De Goiania",
        "state": "GO",
        "district": "Jardim Tropical Verde",
        "street": "Rua Das Uvas",
        "zipcode": "74972-810"
    },
    {
        "city": "Aparecida De Goiania",
        "state": "GO",
        "district": "Parque Industrial Santo Antonio",
        "street": "Rua Ademar De Barros",
        "zipcode": "74987-520"
    },
    {
        "city": "Aparecida De Goiania",
        "state": "GO",
        "district": "Jardim Tropical Verde",
        "street": "Avenida Das Rosas",
        "zipcode": "74972-750"
    },
    {
        "city": "Aparecida De Goiania",
        "state": "GO",
        "district": "Parque Industrial Santo Antonio",
        "street": "Rua 009",
        "zipcode": "74987-490"
    },
    {
        "city": "Aparecida De Goiania",
        "state": "GO",
        "district": "Parque Industrial Santo Antonio",
        "street": "Rua Desembargador Fleury",
        "zipcode": "74987-570"
    },
    {
        "city": "Aparecida De Goiania",
        "state": "GO",
        "district": "Parque Industrial Santo Antonio",
        "street": "Avenida Contorno",
        "zipcode": "74987-560"
    },
    {
        "city": "Aparecida De Goiania",
        "state": "GO",
        "district": "Jardim Tropical Verde",
        "street": "Rua Sergipe",
        "zipcode": "74972-770"
    },
    {
        "city": "Aparecida De Goiania",
        "state": "GO",
        "district": "Parque Industrial Santo Antonio",
        "street": "Rua Jose Bonifacio Da Silva",
        "zipcode": "74987-640"
    },
    {
        "city": "Aparecida De Goiania",
        "state": "GO",
        "district": "Parque Industrial Santo Antonio",
        "street": "Rua Dr Pedro Ludovico Teixeira",
        "zipcode": "74987-600"
    },
    {
        "city": "Aparecida De Goiania",
        "state": "GO",
        "district": "Parque Industrial Santo Antonio",
        "street": "Rua Mario De Melo",
        "zipcode": "74987-670"
    },
    {
        "city": "Aparecida De Goiania",
        "state": "GO",
        "district": "Residencial Norte Sul",
        "street": "Rua Espatodia",
        "zipcode": "74983-753"
    },
    {
        "city": "Aparecida De Goiania",
        "state": "GO",
        "district": "Jardim Tropical Verde",
        "street": "Rua Rondonia",
        "zipcode": "74972-730"
    },
    {
        "city": "Aparecida De Goiania",
        "state": "GO",
        "district": "Parque Industrial Santo Antonio",
        "street": "Rua Manoel Da Nobrega",
        "zipcode": "74987-660"
    },
    {
        "city": "Aparecida De Goiania",
        "state": "GO",
        "district": "Jardim Tropical Verde",
        "street": "Rua Salva",
        "zipcode": "74972-760"
    },
    {
        "city": "Aparecida De Goiania",
        "state": "GO",
        "district": "Parque Industrial Santo Antonio",
        "street": "Alameda Aloizio Pompeu",
        "zipcode": "74987-530"
    },
    {
        "city": "Aparecida De Goiania",
        "state": "GO",
        "district": "Jardim Tropical Verde",
        "street": "Rua Violetas",
        "zipcode": "74972-820"
    },
    {
        "city": "Aparecida De Goiania",
        "state": "GO",
        "district": "Parque Industrial Santo Antonio",
        "street": "Alameda Paulo Vi",
        "zipcode": "74987-690"
    },
    {
        "city": "Aparecida De Goiania",
        "state": "GO",
        "district": "Parque Industrial Santo Antonio",
        "street": "Rua Joao Xxiii",
        "zipcode": "74987-630"
    },
    {
        "city": "Aparecida De Goiania",
        "state": "GO",
        "district": "Jardim Tropical Verde",
        "street": "Rua Das Rosanas",
        "zipcode": "74972-740"
    },
    {
        "city": "Aparecida De Goiania",
        "state": "GO",
        "district": "Parque Industrial Santo Antonio",
        "street": "Rua Dr Couto",
        "zipcode": "74987-590"
    },
    {
        "city": "Aparecida De Goiania",
        "state": "GO",
        "district": "Parque Industrial Santo Antonio",
        "street": "Rua 007",
        "zipcode": "74987-470"
    },
    {
        "city": "Aparecida De Goiania",
        "state": "GO",
        "district": "Setor Serra Dourada",
        "street": "Rua Da Gloria",
        "zipcode": "74973-290"
    },
    {
        "city": "Aparecida De Goiania",
        "state": "GO",
        "district": "Jardim Tropical Verde",
        "street": "Alameda Sombreiro",
        "zipcode": "74972-780"
    },
    {
        "city": "Aparecida De Goiania",
        "state": "GO",
        "district": "Jardim Tropical Verde",
        "street": "Rua Das Pragas",
        "zipcode": "74972-710"
    },
    {
        "city": "Aparecida De Goiania",
        "state": "GO",
        "district": "Parque Industrial Santo Antonio",
        "street": "Rua Edson Nunes",
        "zipcode": "74987-610"
    },
    {
        "city": "Aparecida De Goiania",
        "state": "GO",
        "district": "Parque Industrial Santo Antonio",
        "street": "Avenida Leste",
        "zipcode": "74987-650"
    },
    {
        "city": "Aparecida De Goiania",
        "state": "GO",
        "district": "Jardim Tropical Verde",
        "street": "Rua Sucupira",
        "zipcode": "74972-800"
    },
    {
        "city": "Aparecida De Goiania",
        "state": "GO",
        "district": "Cidade Livre",
        "street": "Rua 002",
        "zipcode": "74970-010"
    },
    {
        "city": "Aparecida De Goiania",
        "state": "GO",
        "district": "Jardim Palmares",
        "street": "Rodovia Br",
        "zipcode": "74987-820"
    },
    {
        "city": "Aparecida De Goiania",
        "state": "GO",
        "district": "Jardim Palmares",
        "street": "Rua Alfa",
        "zipcode": "74987-360"
    },
    {
        "city": "Aparecida De Goiania",
        "state": "GO",
        "district": "Jardim Tropical Verde",
        "street": "Rua Dos Jaboticabais",
        "zipcode": "74972-440"
    },
    {
        "city": "Aparecida De Goiania",
        "state": "GO",
        "district": "Jardim Cristalino",
        "street": "Praça Dois De Julho",
        "zipcode": "74968-020"
    },
    {
        "city": "Aparecida De Goiania",
        "state": "GO",
        "district": "Jardim Tropical Verde",
        "street": "Rua Sonho",
        "zipcode": "74972-790"
    },
    {
        "city": "Aparecida De Goiania",
        "state": "GO",
        "district": "Vila Brasilia",
        "street": "Rua Patricia",
        "zipcode": "74911-470"
    },
    {
        "city": "Aparecida De Goiania",
        "state": "GO",
        "district": "Jardim Tropical Verde",
        "street": "Alameda Dos Prados",
        "zipcode": "74972-700"
    },
    {
        "city": "Aparecida De Goiania",
        "state": "GO",
        "district": "Jardim Nova Era",
        "street": "Rua Cinelandia",
        "zipcode": "74916-030"
    },
    {
        "city": "Aparecida De Goiania",
        "state": "GO",
        "district": "Jardim Tropical Verde",
        "street": "Praça Das Palmas",
        "zipcode": "74972-620"
    },
    {
        "city": "Aparecida De Goiania",
        "state": "GO",
        "district": "Jardim Tropical Verde",
        "street": "Rua Do Carvalho",
        "zipcode": "74972-210"
    },
    {
        "city": "Aparecida De Goiania",
        "state": "GO",
        "district": "Jardim Tropical Verde",
        "street": "Rua Dragonas",
        "zipcode": "74972-270"
    },
    {
        "city": "Aparecida De Goiania",
        "state": "GO",
        "district": "Jardim Buriti Sereno",
        "street": "Avenida 115",
        "zipcode": "74942-010"
    },
    {
        "city": "Aparecida De Goiania",
        "state": "GO",
        "district": "Jardim Tropical Verde",
        "street": "Alameda Dos Pinheiros",
        "zipcode": "74972-680"
    },
    {
        "city": "Aparecida De Goiania",
        "state": "GO",
        "district": "Setor Pontal Sul",
        "street": "Rua Antonio Fidelis Soares",
        "zipcode": "74955-050"
    },
    {
        "city": "Aparecida De Goiania",
        "state": "GO",
        "district": "Goiania Park Sul",
        "street": "Rua R",
        "zipcode": "74945-400"
    },
    {
        "city": "Aparecida De Goiania",
        "state": "GO",
        "district": "Jardim Tropical Verde",
        "street": "Rua Gardencias",
        "zipcode": "74972-320"
    },
    {
        "city": "Aparecida De Goiania",
        "state": "GO",
        "district": "Jardim Tropical Verde",
        "street": "Rua Moreira",
        "zipcode": "74972-570"
    },
    {
        "city": "Aparecida De Goiania",
        "state": "GO",
        "district": "Jardim Tropical Verde",
        "street": "Rua Primavera",
        "zipcode": "74972-720"
    },
    {
        "city": "Aparecida De Goiania",
        "state": "GO",
        "district": "Jardim Tropical Verde",
        "street": "Rua Dos Balsamos",
        "zipcode": "74972-090"
    },
    {
        "city": "Aparecida De Goiania",
        "state": "GO",
        "district": "Jardim Tropical Verde",
        "street": "Rua Das Hosanas",
        "zipcode": "74972-390"
    },
    {
        "city": "Aparecida De Goiania",
        "state": "GO",
        "district": "Jardim Tropical Verde",
        "street": "Rua Do Linho",
        "zipcode": "74972-500"
    },
    {
        "city": "Aparecida De Goiania",
        "state": "GO",
        "district": "Jardim Tropical Verde",
        "street": "Rua Caiana",
        "zipcode": "74972-160"
    },
    {
        "city": "Aparecida De Goiania",
        "state": "GO",
        "district": "Cidade Vera Cruz",
        "street": "Avenida H",
        "zipcode": "74911-710"
    },
    {
        "city": "Aparecida De Goiania",
        "state": "GO",
        "district": "Parque Atalaia",
        "street": "Rua Sapucaia",
        "zipcode": "74968-400"
    },
    {
        "city": "Aparecida De Goiania",
        "state": "GO",
        "district": "Residencial Caraibas",
        "street": "Rua Dos Pinheiros",
        "zipcode": "74983-727"
    },
    {
        "city": "Aparecida De Goiania",
        "state": "GO",
        "district": "Residencial Caraibas",
        "street": "Rua Das Paineiras",
        "zipcode": "74983-732"
    },
    {
        "city": "Aparecida De Goiania",
        "state": "GO",
        "district": "Residencial Caraibas",
        "street": "Rua Buriti",
        "zipcode": "74983-736"
    },
    {
        "city": "Aparecida De Goiania",
        "state": "GO",
        "district": "Residencial Caraibas",
        "street": "Rua Tamboril",
        "zipcode": "74983-749"
    },
    {
        "city": "Aparecida De Goiania",
        "state": "GO",
        "district": "Residencial Norte Sul",
        "street": "Rua Girassol",
        "zipcode": "74983-755"
    },
    {
        "city": "Aparecida De Goiania",
        "state": "GO",
        "district": "Residencial Por Do Sol",
        "street": "Rua Dos Pinheiros",
        "zipcode": "74946-570"
    },
    {
        "city": "Aparecida De Goiania",
        "state": "GO",
        "district": "Residencial Caraibas",
        "street": "Rua Flamboyant",
        "zipcode": "74946-620"
    },
    {
        "city": "Aparecida De Goiania",
        "state": "GO",
        "district": "Residencial Caraibas",
        "street": "Rua Das Oliveiras",
        "zipcode": "74983-731"
    },
    {
        "city": "Aparecida De Goiania",
        "state": "GO",
        "district": "Jardim Tropical Verde",
        "street": "Rua Bem",
        "zipcode": "74972-120"
    },
    {
        "city": "Aparecida De Goiania",
        "state": "GO",
        "district": "Cardoso",
        "street": "Rua X",
        "zipcode": "74934-730"
    },
    {
        "city": "Aparecida De Goiania",
        "state": "GO",
        "district": "Cardoso",
        "street": "Alameda Santana",
        "zipcode": "74934-580"
    },
    {
        "city": "Aparecida De Goiania",
        "state": "GO",
        "district": "Setor Garavelo",
        "street": "Avenida Rio Verde",
        "zipcode": "74932-690"
    },
    {
        "city": "Aparecida De Goiania",
        "state": "GO",
        "district": "Cardoso",
        "street": "Rua Bela Vista",
        "zipcode": "74934-490"
    },
    {
        "city": "Aparecida De Goiania",
        "state": "GO",
        "district": "Setor Pontal Sul",
        "street": "Travessa Hematita",
        "zipcode": "74956-220"
    },
    {
        "city": "Aparecida De Goiania",
        "state": "GO",
        "district": "Vila Real",
        "street": "Rua 003",
        "zipcode": "74910-195"
    },
    {
        "city": "Aparecida De Goiania",
        "state": "GO",
        "district": "Parque Industrial Santo Antonio",
        "street": "Rua Elviro Cabral",
        "zipcode": "74987-620"
    },
    {
        "city": "Aparecida De Goiania",
        "state": "GO",
        "district": "Jardim Nova Era",
        "street": "Avenida Vilela",
        "zipcode": "74916-160"
    },
    {
        "city": "Aparecida De Goiania",
        "state": "GO",
        "district": "Residencial Caraibas",
        "street": "Rua Das Acacias",
        "zipcode": "74983-739"
    },
    {
        "city": "Aparecida De Goiania",
        "state": "GO",
        "district": "Vila Alzira",
        "street": "Avenida Indaia",
        "zipcode": "74913-290"
    },
    {
        "city": "Aparecida De Goiania",
        "state": "GO",
        "district": "Residencial Caraibas",
        "street": "Rua Jacaranda",
        "zipcode": "74983-744"
    },
    {
        "city": "Aparecida De Goiania",
        "state": "GO",
        "district": "Parque Industrial Santo Antonio",
        "street": "Avenida Oeste",
        "zipcode": "74987-680"
    },
    {
        "city": "Aparecida De Goiania",
        "state": "GO",
        "district": "Parque Industrial Santo Antonio",
        "street": "Rua 010",
        "zipcode": "74987-500"
    },
    {
        "city": "Aparecida De Goiania",
        "state": "GO",
        "district": "Residencial Norte Sul",
        "street": "Rua Das Matas (Alameda Bigudo)",
        "zipcode": "74983-759"
    },
    {
        "city": "Aparecida De Goiania",
        "state": "GO",
        "district": "Parque Rio Das Pedras",
        "street": "Avenida Abel Chaveiro",
        "zipcode": "74967-810"
    },
    {
        "city": "Aparecida De Goiania",
        "state": "GO",
        "district": "Parque Industrial Santo Antonio",
        "street": "Rua 008",
        "zipcode": "74987-480"
    },
    {
        "city": "Aparecida De Goiania",
        "state": "GO",
        "district": "Residencial Caraibas",
        "street": "Rua Jatoba",
        "zipcode": "74946-602"
    },
    {
        "city": "Aparecida De Goiania",
        "state": "GO",
        "district": "Nova Olinda",
        "street": "Avenida Maraba",
        "zipcode": "74983-340"
    },
    {
        "city": "Aparecida De Goiania",
        "state": "GO",
        "district": "Parque Madre Germana",
        "street": "Rua Januaria De Araujo Roriz",
        "zipcode": "74965-420"
    },
    {
        "city": "Aparecida De Goiania",
        "state": "GO",
        "district": "Nova Olinda",
        "street": "Rua Rosaura De Amorim",
        "zipcode": "74983-420"
    },
    {
        "city": "Aparecida De Goiania",
        "state": "GO",
        "district": "Parque Industrial Santo Antonio",
        "street": "Rua 005",
        "zipcode": "74987-450"
    },
    {
        "city": "Aparecida De Goiania",
        "state": "GO",
        "district": "Cardoso",
        "street": "Rua 005",
        "zipcode": "74934-030"
    }
]