[
    {
        "city": "Formosa",
        "state": "GO",
        "district": "Jardim Triângulo",
        "street": "Rua Reverendo John Miller",
        "zipcode": "73808-202"
    },
    {
        "city": "Formosa",
        "state": "GO",
        "district": "Parque Lago",
        "street": "Rua Trinca Ferro",
        "zipcode": "73813-792"
    },
    {
        "city": "Formosa",
        "state": "GO",
        "district": "Parque Laguna II",
        "street": "Rua Pedro Chaves Filho",
        "zipcode": "73814-060"
    },
    {
        "city": "Formosa",
        "state": "GO",
        "district": "Formosinha",
        "street": "Rua do CTG (Fundos do CTG)",
        "zipcode": "73813-501"
    },
    {
        "city": "Formosa",
        "state": "GO",
        "district": "Setor Industrial II",
        "street": "Rua Santo Espedito",
        "zipcode": "73803-173"
    },
    {
        "city": "Formosa",
        "state": "GO",
        "district": "Setor Nordeste",
        "street": "Rua Ludugério",
        "zipcode": "73807-295"
    },
    {
        "city": "Formosa",
        "state": "GO",
        "district": "Distrito Agroindustrial de Formosa",
        "street": "Via Secundária 2",
        "zipcode": "73808-092"
    },
    {
        "city": "Formosa",
        "state": "GO",
        "district": "Distrito Agroindustrial de Formosa",
        "street": "Via Secundária 4",
        "zipcode": "73808-094"
    },
    {
        "city": "Formosa",
        "state": "GO",
        "district": "Parque Lago",
        "street": "Rua Curió",
        "zipcode": "73813-782"
    },
    {
        "city": "Formosa",
        "state": "GO",
        "district": "Jardim Triângulo",
        "street": "Rua Juracy Pereira da Silva",
        "zipcode": "73808-203"
    },
    {
        "city": "Formosa",
        "state": "GO",
        "district": "Setor Sul",
        "street": "Rua Projetada",
        "zipcode": "73802-470"
    },
    {
        "city": "Formosa",
        "state": "GO",
        "district": "Centro",
        "street": "Praça da Imaculada Conceição",
        "zipcode": "73801-300"
    },
    {
        "city": "Formosa",
        "state": "GO",
        "district": "Vila Pantanal",
        "street": "Quadra 1",
        "zipcode": "73813-725"
    },
    {
        "city": "Formosa",
        "state": "GO",
        "district": "Jardim das Américas",
        "street": "Rua Projetada",
        "zipcode": "73803-384"
    },
    {
        "city": "Formosa",
        "state": "GO",
        "district": "Parque Lago",
        "street": "Rua Gaivota",
        "zipcode": "73813-786"
    },
    {
        "city": "Formosa",
        "state": "GO",
        "district": "Parque Laguna II",
        "street": "Praça Central",
        "zipcode": "73814-135"
    },
    {
        "city": "Formosa",
        "state": "GO",
        "district": "Parque Laguna II",
        "street": "Rua Mário Miguel da Silva",
        "zipcode": "73814-173"
    },
    {
        "city": "Formosa",
        "state": "GO",
        "district": "Vila Pantanal",
        "street": "Travessa Amaro Juvenal de Almeida",
        "zipcode": "73813-750"
    },
    {
        "city": "Formosa",
        "state": "GO",
        "district": "Vila Pantanal",
        "street": "Quadra 5",
        "zipcode": "73813-730"
    },
    {
        "city": "Formosa",
        "state": "GO",
        "district": "Vila Pantanal",
        "street": "Travessa Domingos José",
        "zipcode": "73813-740"
    },
    {
        "city": "Formosa",
        "state": "GO",
        "district": "Sul América",
        "street": "Rua Manoel Onofre Lira",
        "zipcode": "73803-556"
    },
    {
        "city": "Formosa",
        "state": "GO",
        "district": "Jardim das Américas",
        "street": "Rua Cristóvão Colombo",
        "zipcode": "73803-308"
    },
    {
        "city": "Formosa",
        "state": "GO",
        "district": "Setor Nordeste",
        "street": "Vila Marilaque",
        "zipcode": "73807-450"
    },
    {
        "city": "Formosa",
        "state": "GO",
        "district": "Setor Industrial II",
        "street": "Rua 8 (Vila Santa Bárbara)",
        "zipcode": "73803-155"
    },
    {
        "city": "Formosa",
        "state": "GO",
        "district": "Distrito Agroindustrial de Formosa",
        "street": "Via Secundária 3",
        "zipcode": "73808-093"
    },
    {
        "city": "Formosa",
        "state": "GO",
        "district": "Parque Lago",
        "street": "Rua Bem",
        "zipcode": "73813-785"
    },
    {
        "city": "Formosa",
        "state": "GO",
        "district": "Setor Sul",
        "street": "Via 5",
        "zipcode": "73802-463"
    },
    {
        "city": "Formosa",
        "state": "GO",
        "district": "Formosinha",
        "street": "Rua 25",
        "zipcode": "73813-380"
    },
    {
        "city": "Formosa",
        "state": "GO",
        "district": "Parque Lago",
        "street": "Rua Particular",
        "zipcode": "73813-814"
    },
    {
        "city": "Formosa",
        "state": "GO",
        "district": "Vila Aurora",
        "street": "Rua 6",
        "zipcode": "73807-505"
    },
    {
        "city": "Formosa",
        "state": "GO",
        "district": "Área Rural de Formosa",
        "street": "Área Rural",
        "zipcode": "73816-899"
    },
    {
        "city": "Formosa",
        "state": "GO",
        "district": "Setor Industrial II",
        "street": "Rua 2 (Vila Santa Bárbara)",
        "zipcode": "73803-169"
    },
    {
        "city": "Formosa",
        "state": "GO",
        "district": "Setor Industrial II",
        "street": "Rua 17 (Vila Santa Bárbara)",
        "zipcode": "73803-179"
    },
    {
        "city": "Formosa",
        "state": "GO",
        "district": "Vila Pantanal",
        "street": "Via 29",
        "zipcode": "73813-762"
    },
    {
        "city": "Formosa",
        "state": "GO",
        "district": "Centro",
        "street": "Travessa Francisco Magalhães",
        "zipcode": "73801-060"
    },
    {
        "city": "Formosa",
        "state": "GO",
        "district": "Setor Sul",
        "street": "Via 8",
        "zipcode": "73802-448"
    },
    {
        "city": "Formosa",
        "state": "GO",
        "district": "Parque União",
        "street": "Rua Q",
        "zipcode": "73808-520"
    },
    {
        "city": "Formosa",
        "state": "GO",
        "district": "Jardim Califórnia",
        "street": "Rua Frei Manoel",
        "zipcode": "73807-703"
    },
    {
        "city": "Formosa",
        "state": "GO",
        "district": "Setor Industrial II",
        "street": "Rua 13 (Vila Santa Bárbara)",
        "zipcode": "73803-177"
    },
    {
        "city": "Formosa",
        "state": "GO",
        "district": "São Benedito",
        "street": "Parque Vitória",
        "zipcode": "73813-670"
    },
    {
        "city": "Formosa",
        "state": "GO",
        "district": "Setor Sul",
        "street": "Rua B2",
        "zipcode": "73802-458"
    },
    {
        "city": "Formosa",
        "state": "GO",
        "district": "Vila Pantanal",
        "street": "Via 13",
        "zipcode": "73813-768"
    },
    {
        "city": "Formosa",
        "state": "GO",
        "district": "Jardim Califórnia",
        "street": "Rua Ágata",
        "zipcode": "73807-810"
    },
    {
        "city": "Formosa",
        "state": "GO",
        "district": "Parque Lago",
        "street": "Rua Garça",
        "zipcode": "73813-787"
    },
    {
        "city": "Formosa",
        "state": "GO",
        "district": "Sul América",
        "street": "Rua 3",
        "zipcode": "73803-521"
    },
    {
        "city": "Formosa",
        "state": "GO",
        "district": "Setor Nordeste",
        "street": "Rua São José",
        "zipcode": "73807-273"
    },
    {
        "city": "Formosa",
        "state": "GO",
        "district": "São Vicente",
        "street": "Rua 1",
        "zipcode": "73802-100"
    },
    {
        "city": "Formosa",
        "state": "GO",
        "district": "Setor Primavera",
        "street": "Rua 2",
        "zipcode": "73805-145"
    },
    {
        "city": "Formosa",
        "state": "GO",
        "district": "Setor Imperatriz",
        "street": "Rua 7",
        "zipcode": "73805-435"
    },
    {
        "city": "Formosa",
        "state": "GO",
        "district": "Setor Imperatriz",
        "street": "Rua 3",
        "zipcode": "73805-440"
    },
    {
        "city": "Formosa",
        "state": "GO",
        "district": "Setor Imperatriz",
        "street": "Rua 8",
        "zipcode": "73805-445"
    },
    {
        "city": "Formosa",
        "state": "GO",
        "district": "Setor Imperatriz",
        "street": "Rua D",
        "zipcode": "73805-455"
    },
    {
        "city": "Formosa",
        "state": "GO",
        "district": "Setor Imperatriz",
        "street": "Rua A",
        "zipcode": "73805-465"
    },
    {
        "city": "Formosa",
        "state": "GO",
        "district": "Setor Imperatriz",
        "street": "Rua B",
        "zipcode": "73805-470"
    },
    {
        "city": "Formosa",
        "state": "GO",
        "district": "Setor Imperatriz",
        "street": "Rua Particular",
        "zipcode": "73805-475"
    },
    {
        "city": "Formosa",
        "state": "GO",
        "district": "Setor Imperatriz",
        "street": "Travessa Particular",
        "zipcode": "73805-480"
    },
    {
        "city": "Formosa",
        "state": "GO",
        "district": "Vila Santos",
        "street": "Rua 12",
        "zipcode": "73805-510"
    },
    {
        "city": "Formosa",
        "state": "GO",
        "district": "Vila Santos",
        "street": "Rua 6",
        "zipcode": "73805-530"
    },
    {
        "city": "Formosa",
        "state": "GO",
        "district": "Vila Santos",
        "street": "Rua 8",
        "zipcode": "73805-540"
    },
    {
        "city": "Formosa",
        "state": "GO",
        "district": "Vila Lorena",
        "street": "Rua Final",
        "zipcode": "73805-875"
    },
    {
        "city": "Formosa",
        "state": "GO",
        "district": "Parque Esmeralda",
        "street": "Rua 2",
        "zipcode": "73807-010"
    },
    {
        "city": "Formosa",
        "state": "GO",
        "district": "Setor Nordeste",
        "street": "Rua Gomes Ornelas",
        "zipcode": "73807-225"
    },
    {
        "city": "Formosa",
        "state": "GO",
        "district": "Setor Nordeste",
        "street": "Rua do Brocotó",
        "zipcode": "73807-243"
    },
    {
        "city": "Formosa",
        "state": "GO",
        "district": "Setor Nordeste",
        "street": "Rua 11",
        "zipcode": "73807-255"
    },
    {
        "city": "Formosa",
        "state": "GO",
        "district": "Setor Nordeste",
        "street": "Rua 13",
        "zipcode": "73807-260"
    },
    {
        "city": "Formosa",
        "state": "GO",
        "district": "Setor Nordeste",
        "street": "Rua 15",
        "zipcode": "73807-265"
    },
    {
        "city": "Formosa",
        "state": "GO",
        "district": "Vila Aurora",
        "street": "Rua 5",
        "zipcode": "73807-504"
    },
    {
        "city": "Formosa",
        "state": "GO",
        "district": "Vila Aurora",
        "street": "Rua 8",
        "zipcode": "73807-519"
    },
    {
        "city": "Formosa",
        "state": "GO",
        "district": "Parque Dom Bosco",
        "street": "Rua 1",
        "zipcode": "73807-550"
    },
    {
        "city": "Formosa",
        "state": "GO",
        "district": "Sul América",
        "street": "Rua Projetada",
        "zipcode": "73803-541"
    },
    {
        "city": "Formosa",
        "state": "GO",
        "district": "Setor Industrial II",
        "street": "Rua 19 (Vila Santa Bárbara)",
        "zipcode": "73803-181"
    },
    {
        "city": "Formosa",
        "state": "GO",
        "district": "Jardim Califórnia",
        "street": "Rua Manoel Gonçalves",
        "zipcode": "73807-835"
    },
    {
        "city": "Formosa",
        "state": "GO",
        "district": "Centro",
        "street": "Praça da Concórdia",
        "zipcode": "73801-680"
    },
    {
        "city": "Formosa",
        "state": "GO",
        "district": "Parque Dom Bosco",
        "street": "Rua 2",
        "zipcode": "73807-553"
    },
    {
        "city": "Formosa",
        "state": "GO",
        "district": "Parque Dom Bosco",
        "street": "Rua 4",
        "zipcode": "73807-559"
    },
    {
        "city": "Formosa",
        "state": "GO",
        "district": "Parque Dom Bosco",
        "street": "Rua 5",
        "zipcode": "73807-562"
    },
    {
        "city": "Formosa",
        "state": "GO",
        "district": "Parque Dom Bosco",
        "street": "Rua 6",
        "zipcode": "73807-565"
    },
    {
        "city": "Formosa",
        "state": "GO",
        "district": "Parque Dom Bosco",
        "street": "Rua 7",
        "zipcode": "73807-568"
    },
    {
        "city": "Formosa",
        "state": "GO",
        "district": "Parque Dom Bosco",
        "street": "Rua 8",
        "zipcode": "73807-571"
    },
    {
        "city": "Formosa",
        "state": "GO",
        "district": "Parque Dom Bosco",
        "street": "Rua 9",
        "zipcode": "73807-574"
    },
    {
        "city": "Formosa",
        "state": "GO",
        "district": "Parque Dom Bosco",
        "street": "Rua 14",
        "zipcode": "73807-586"
    },
    {
        "city": "Formosa",
        "state": "GO",
        "district": "Parque União",
        "street": "Rua N",
        "zipcode": "73808-545"
    },
    {
        "city": "Formosa",
        "state": "GO",
        "district": "Parque União",
        "street": "Rua L",
        "zipcode": "73808-555"
    },
    {
        "city": "Formosa",
        "state": "GO",
        "district": "Parque União",
        "street": "Rua I",
        "zipcode": "73808-565"
    },
    {
        "city": "Formosa",
        "state": "GO",
        "district": "Formosinha",
        "street": "Rua 10",
        "zipcode": "73813-201"
    },
    {
        "city": "Formosa",
        "state": "GO",
        "district": "Formosinha",
        "street": "Rua 15",
        "zipcode": "73813-220"
    },
    {
        "city": "Formosa",
        "state": "GO",
        "district": "Formosinha",
        "street": "Rua 16",
        "zipcode": "73813-230"
    },
    {
        "city": "Formosa",
        "state": "GO",
        "district": "Formosinha",
        "street": "Rua 19",
        "zipcode": "73813-290"
    },
    {
        "city": "Formosa",
        "state": "GO",
        "district": "Formosinha",
        "street": "Rua 24",
        "zipcode": "73813-360"
    },
    {
        "city": "Formosa",
        "state": "GO",
        "district": "Vila Pantanal",
        "street": "Rua F",
        "zipcode": "73813-705"
    },
    {
        "city": "Formosa",
        "state": "GO",
        "district": "Centro",
        "street": "Rua Costa Pinto",
        "zipcode": "73801-130"
    },
    {
        "city": "Formosa",
        "state": "GO",
        "district": "Setor Bosque II",
        "street": "Rua 1",
        "zipcode": "73802-273"
    },
    {
        "city": "Formosa",
        "state": "GO",
        "district": "Setor Sul",
        "street": "Via 16A",
        "zipcode": "73802-435"
    },
    {
        "city": "Formosa",
        "state": "GO",
        "district": "Setor Primavera",
        "street": "Rua Particular",
        "zipcode": "73805-183"
    },
    {
        "city": "Formosa",
        "state": "GO",
        "district": "Setor Sul",
        "street": "Rua Vicentina",
        "zipcode": "73802-443"
    },
    {
        "city": "Formosa",
        "state": "GO",
        "district": "Setor Sul",
        "street": "Rua 16D",
        "zipcode": "73802-434"
    },
    {
        "city": "Formosa",
        "state": "GO",
        "district": "Centro",
        "street": "Rua Quintino Bocaiúva",
        "zipcode": "73801-090"
    },
    {
        "city": "Formosa",
        "state": "GO",
        "district": "Centro",
        "street": "Rua Senador Borba",
        "zipcode": "73801-120"
    },
    {
        "city": "Formosa",
        "state": "GO",
        "district": "Centro",
        "street": "Rua Alves de Castro",
        "zipcode": "73801-140"
    },
    {
        "city": "Formosa",
        "state": "GO",
        "district": "Centro",
        "street": "Rua Dário de Oliveira",
        "zipcode": "73801-180"
    },
    {
        "city": "Formosa",
        "state": "GO",
        "district": "Centro",
        "street": "Rua Antônio Dutra",
        "zipcode": "73801-200"
    },
    {
        "city": "Formosa",
        "state": "GO",
        "district": "Centro",
        "street": "Rua Hugo Lobo",
        "zipcode": "73801-210"
    },
    {
        "city": "Formosa",
        "state": "GO",
        "district": "Centro",
        "street": "Rua Alexandrino Lobo",
        "zipcode": "73801-425"
    },
    {
        "city": "Formosa",
        "state": "GO",
        "district": "Centro",
        "street": "Rua Herculano Lobo",
        "zipcode": "73801-260"
    },
    {
        "city": "Formosa",
        "state": "GO",
        "district": "Centro",
        "street": "Rua José Viana Lobo",
        "zipcode": "73801-270"
    },
    {
        "city": "Formosa",
        "state": "GO",
        "district": "Centro",
        "street": "Rua Emílio Póvoa",
        "zipcode": "73801-280"
    },
    {
        "city": "Formosa",
        "state": "GO",
        "district": "Centro",
        "street": "Avenida Bosque",
        "zipcode": "73801-340"
    },
    {
        "city": "Formosa",
        "state": "GO",
        "district": "Centro",
        "street": "Praça Anísio Lobo",
        "zipcode": "73801-350"
    },
    {
        "city": "Formosa",
        "state": "GO",
        "district": "Centro",
        "street": "Rua Leonel de Almeida Campos",
        "zipcode": "73801-360"
    },
    {
        "city": "Formosa",
        "state": "GO",
        "district": "Centro",
        "street": "Rua Moisés Barreto",
        "zipcode": "73801-380"
    },
    {
        "city": "Formosa",
        "state": "GO",
        "district": "Centro",
        "street": "Rua Deputado Florêncio Bernardes",
        "zipcode": "73801-390"
    },
    {
        "city": "Formosa",
        "state": "GO",
        "district": "Centro",
        "street": "Rua Santos Dumont",
        "zipcode": "73801-410"
    },
    {
        "city": "Formosa",
        "state": "GO",
        "district": "Centro",
        "street": "Rua Trajano Balduino",
        "zipcode": "73801-430"
    },
    {
        "city": "Formosa",
        "state": "GO",
        "district": "Centro",
        "street": "Rua Alfredo Nasser",
        "zipcode": "73801-215"
    },
    {
        "city": "Formosa",
        "state": "GO",
        "district": "Setor Bosque",
        "street": "Rua 29",
        "zipcode": "73802-025"
    },
    {
        "city": "Formosa",
        "state": "GO",
        "district": "Setor Bosque II",
        "street": "Rua 34",
        "zipcode": "73802-205"
    },
    {
        "city": "Formosa",
        "state": "GO",
        "district": "Setor Bosque II",
        "street": "Rua 33",
        "zipcode": "73802-215"
    },
    {
        "city": "Formosa",
        "state": "GO",
        "district": "Setor Bosque II",
        "street": "Rua 8",
        "zipcode": "73802-218"
    },
    {
        "city": "Formosa",
        "state": "GO",
        "district": "Setor Bosque II",
        "street": "Rua 5",
        "zipcode": "73802-225"
    },
    {
        "city": "Formosa",
        "state": "GO",
        "district": "Setor Bosque II",
        "street": "Rua 7",
        "zipcode": "73802-235"
    },
    {
        "city": "Formosa",
        "state": "GO",
        "district": "Setor Bosque II",
        "street": "Rua 9",
        "zipcode": "73802-245"
    },
    {
        "city": "Formosa",
        "state": "GO",
        "district": "Setor Bosque II",
        "street": "Rua 10",
        "zipcode": "73802-250"
    },
    {
        "city": "Formosa",
        "state": "GO",
        "district": "Setor Bosque II",
        "street": "Rua 2",
        "zipcode": "73802-270"
    },
    {
        "city": "Formosa",
        "state": "GO",
        "district": "Setor Bosque II",
        "street": "Rua 14",
        "zipcode": "73802-280"
    },
    {
        "city": "Formosa",
        "state": "GO",
        "district": "Setor Bosque II",
        "street": "Rua 15",
        "zipcode": "73802-285"
    },
    {
        "city": "Formosa",
        "state": "GO",
        "district": "Setor Sul",
        "street": "Avenida Circular",
        "zipcode": "73802-401"
    },
    {
        "city": "Formosa",
        "state": "GO",
        "district": "Setor Sul",
        "street": "Via 14",
        "zipcode": "73802-439"
    },
    {
        "city": "Formosa",
        "state": "GO",
        "district": "Vila Carolina",
        "street": "Rua 3",
        "zipcode": "73803-250"
    },
    {
        "city": "Formosa",
        "state": "GO",
        "district": "Jardim das Américas",
        "street": "Rua Colômbia",
        "zipcode": "73803-304"
    },
    {
        "city": "Formosa",
        "state": "GO",
        "district": "Jardim das Américas",
        "street": "Travessa Bolívia",
        "zipcode": "73803-312"
    },
    {
        "city": "Formosa",
        "state": "GO",
        "district": "Jardim das Américas",
        "street": "Rua Uruguai",
        "zipcode": "73803-324"
    },
    {
        "city": "Formosa",
        "state": "GO",
        "district": "Jardim das Américas",
        "street": "Rua Peru",
        "zipcode": "73803-334"
    },
    {
        "city": "Formosa",
        "state": "GO",
        "district": "Jardim das Américas",
        "street": "Rua Venezuela",
        "zipcode": "73803-340"
    },
    {
        "city": "Formosa",
        "state": "GO",
        "district": "Jardim das Américas",
        "street": "Rua Equador",
        "zipcode": "73803-348"
    },
    {
        "city": "Formosa",
        "state": "GO",
        "district": "Jardim das Américas",
        "street": "Rua Honduras",
        "zipcode": "73803-352"
    },
    {
        "city": "Formosa",
        "state": "GO",
        "district": "Jardim das Américas",
        "street": "Rua Costa Rica",
        "zipcode": "73803-356"
    },
    {
        "city": "Formosa",
        "state": "GO",
        "district": "Jardim das Américas",
        "street": "Rua México",
        "zipcode": "73803-364"
    },
    {
        "city": "Formosa",
        "state": "GO",
        "district": "Jardim das Américas",
        "street": "Rua Guatemala",
        "zipcode": "73803-372"
    },
    {
        "city": "Formosa",
        "state": "GO",
        "district": "Jardim das Américas",
        "street": "Rua Canadá",
        "zipcode": "73803-380"
    },
    {
        "city": "Formosa",
        "state": "GO",
        "district": "Setor Primavera",
        "street": "Rua 2A",
        "zipcode": "73805-150"
    },
    {
        "city": "Formosa",
        "state": "GO",
        "district": "Setor Primavera",
        "street": "Rua 2B",
        "zipcode": "73805-155"
    },
    {
        "city": "Formosa",
        "state": "GO",
        "district": "Setor Primavera",
        "street": "Avenida Circular",
        "zipcode": "73805-170"
    },
    {
        "city": "Formosa",
        "state": "GO",
        "district": "Setor Primavera",
        "street": "Rua 5",
        "zipcode": "73805-175"
    },
    {
        "city": "Formosa",
        "state": "GO",
        "district": "Setor Primavera",
        "street": "Avenida DNER",
        "zipcode": "73805-185"
    },
    {
        "city": "Formosa",
        "state": "GO",
        "district": "Setor Primavera",
        "street": "Rua 14",
        "zipcode": "73805-195"
    },
    {
        "city": "Formosa",
        "state": "GO",
        "district": "Parque Dom Bosco",
        "street": "Rua 12",
        "zipcode": "73807-583"
    },
    {
        "city": "Formosa",
        "state": "GO",
        "district": "Parque União",
        "street": "Rua J",
        "zipcode": "73808-560"
    },
    {
        "city": "Formosa",
        "state": "GO",
        "district": "Abreu",
        "street": "Avenida Rifaina",
        "zipcode": "73803-040"
    },
    {
        "city": "Formosa",
        "state": "GO",
        "district": "Setor Primavera",
        "street": "Viela João Nicolau",
        "zipcode": "73805-112"
    },
    {
        "city": "Formosa",
        "state": "GO",
        "district": "Centro",
        "street": "Rua Lindolfo Gonçalves",
        "zipcode": "73801-030"
    },
    {
        "city": "Formosa",
        "state": "GO",
        "district": "Centro",
        "street": "Avenida Ferroviária",
        "zipcode": "73801-020"
    },
    {
        "city": "Formosa",
        "state": "GO",
        "district": "Centro",
        "street": "Rua Francisco Magalhães",
        "zipcode": "73801-050"
    },
    {
        "city": "Formosa",
        "state": "GO",
        "district": "Centro",
        "street": "Rua 1",
        "zipcode": "73801-580"
    },
    {
        "city": "Formosa",
        "state": "GO",
        "district": "Centro",
        "street": "Praça Pedro Chaves",
        "zipcode": "73801-595"
    },
    {
        "city": "Formosa",
        "state": "GO",
        "district": "Centro",
        "street": "Rua Valdomiro de Miranda",
        "zipcode": "73801-610"
    },
    {
        "city": "Formosa",
        "state": "GO",
        "district": "Centro",
        "street": "Rua João Moreira",
        "zipcode": "73801-630"
    },
    {
        "city": "Formosa",
        "state": "GO",
        "district": "Centro",
        "street": "Rua Claudiano Rocha",
        "zipcode": "73801-640"
    },
    {
        "city": "Formosa",
        "state": "GO",
        "district": "Centro",
        "street": "Rua Leonino César",
        "zipcode": "73801-670"
    },
    {
        "city": "Formosa",
        "state": "GO",
        "district": "Setor Bosque",
        "street": "Rua Bosque",
        "zipcode": "73802-010"
    },
    {
        "city": "Formosa",
        "state": "GO",
        "district": "Setor Bosque",
        "street": "Travessa 29",
        "zipcode": "73802-015"
    },
    {
        "city": "Formosa",
        "state": "GO",
        "district": "Setor Bosque",
        "street": "Rua 27",
        "zipcode": "73802-030"
    },
    {
        "city": "Formosa",
        "state": "GO",
        "district": "Centro",
        "street": "Rua Projetada",
        "zipcode": "73801-600"
    },
    {
        "city": "Formosa",
        "state": "GO",
        "district": "Setor Bosque",
        "street": "Rua 30",
        "zipcode": "73802-040"
    },
    {
        "city": "Formosa",
        "state": "GO",
        "district": "Setor Bosque",
        "street": "Rua 31",
        "zipcode": "73802-045"
    },
    {
        "city": "Formosa",
        "state": "GO",
        "district": "Setor Bosque",
        "street": "Travessa A",
        "zipcode": "73802-055"
    },
    {
        "city": "Formosa",
        "state": "GO",
        "district": "Setor Bosque",
        "street": "Rua 33",
        "zipcode": "73802-065"
    },
    {
        "city": "Formosa",
        "state": "GO",
        "district": "Setor Bosque",
        "street": "Rua 34",
        "zipcode": "73802-070"
    },
    {
        "city": "Formosa",
        "state": "GO",
        "district": "São Vicente",
        "street": "Rua 4",
        "zipcode": "73802-115"
    },
    {
        "city": "Formosa",
        "state": "GO",
        "district": "São Vicente",
        "street": "Rua 5",
        "zipcode": "73802-120"
    },
    {
        "city": "Formosa",
        "state": "GO",
        "district": "São Vicente",
        "street": "Rua 6",
        "zipcode": "73802-125"
    },
    {
        "city": "Formosa",
        "state": "GO",
        "district": "São Vicente",
        "street": "Rua 9",
        "zipcode": "73802-145"
    },
    {
        "city": "Formosa",
        "state": "GO",
        "district": "São Vicente",
        "street": "Rua 11",
        "zipcode": "73802-155"
    },
    {
        "city": "Formosa",
        "state": "GO",
        "district": "São Vicente",
        "street": "Rua 19",
        "zipcode": "73802-165"
    },
    {
        "city": "Formosa",
        "state": "GO",
        "district": "Setor Sul",
        "street": "Rua B",
        "zipcode": "73802-480"
    },
    {
        "city": "Formosa",
        "state": "GO",
        "district": "Setor Sul",
        "street": "Rua A",
        "zipcode": "73802-483"
    },
    {
        "city": "Formosa",
        "state": "GO",
        "district": "Abreu",
        "street": "Avenida do Abreu",
        "zipcode": "73803-020"
    },
    {
        "city": "Formosa",
        "state": "GO",
        "district": "Abreu",
        "street": "Avenida Circular II",
        "zipcode": "73803-045"
    },
    {
        "city": "Formosa",
        "state": "GO",
        "district": "Vila Iara",
        "street": "Rua Ademar de Barros",
        "zipcode": "73803-060"
    },
    {
        "city": "Formosa",
        "state": "GO",
        "district": "Vila Iara",
        "street": "Avenida das Américas",
        "zipcode": "73803-075"
    },
    {
        "city": "Formosa",
        "state": "GO",
        "district": "Vila Iara",
        "street": "Rua 1",
        "zipcode": "73803-080"
    },
    {
        "city": "Formosa",
        "state": "GO",
        "district": "Vila Iara",
        "street": "Rua 3",
        "zipcode": "73803-085"
    },
    {
        "city": "Formosa",
        "state": "GO",
        "district": "Vila Iara",
        "street": "Rua 2",
        "zipcode": "73803-090"
    },
    {
        "city": "Formosa",
        "state": "GO",
        "district": "Setor Industrial II",
        "street": "Rua 7",
        "zipcode": "73803-115"
    },
    {
        "city": "Formosa",
        "state": "GO",
        "district": "Setor Industrial II",
        "street": "Rua 3",
        "zipcode": "73803-125"
    },
    {
        "city": "Formosa",
        "state": "GO",
        "district": "Setor Industrial II",
        "street": "Rua 1",
        "zipcode": "73803-130"
    },
    {
        "city": "Formosa",
        "state": "GO",
        "district": "Setor Industrial II",
        "street": "Rua 2",
        "zipcode": "73803-140"
    },
    {
        "city": "Formosa",
        "state": "GO",
        "district": "Setor Industrial II",
        "street": "Rua 10",
        "zipcode": "73803-160"
    },
    {
        "city": "Formosa",
        "state": "GO",
        "district": "Setor Industrial II",
        "street": "Rua 12",
        "zipcode": "73803-165"
    },
    {
        "city": "Formosa",
        "state": "GO",
        "district": "Vila Carolina",
        "street": "Avenida Circular",
        "zipcode": "73803-210"
    },
    {
        "city": "Formosa",
        "state": "GO",
        "district": "Vila Carolina",
        "street": "Rua 1",
        "zipcode": "73803-220"
    },
    {
        "city": "Formosa",
        "state": "GO",
        "district": "Vila Carolina",
        "street": "Rua 5",
        "zipcode": "73803-240"
    },
    {
        "city": "Formosa",
        "state": "GO",
        "district": "Setor Ferroviário",
        "street": "Rua 8",
        "zipcode": "73805-065"
    },
    {
        "city": "Formosa",
        "state": "GO",
        "district": "Setor Ferroviário",
        "street": "Rua 12",
        "zipcode": "73805-080"
    },
    {
        "city": "Formosa",
        "state": "GO",
        "district": "Setor Primavera",
        "street": "Rua 14A",
        "zipcode": "73805-115"
    },
    {
        "city": "Formosa",
        "state": "GO",
        "district": "Setor Primavera",
        "street": "Rua 10",
        "zipcode": "73805-125"
    },
    {
        "city": "Formosa",
        "state": "GO",
        "district": "Setor Primavera",
        "street": "Rua 6",
        "zipcode": "73805-135"
    },
    {
        "city": "Formosa",
        "state": "GO",
        "district": "Parque das Laranjeiras",
        "street": "Rua 1",
        "zipcode": "73805-610"
    },
    {
        "city": "Formosa",
        "state": "GO",
        "district": "Parque das Laranjeiras",
        "street": "Travessa B",
        "zipcode": "73805-615"
    },
    {
        "city": "Formosa",
        "state": "GO",
        "district": "Parque das Laranjeiras",
        "street": "Rua 3",
        "zipcode": "73805-625"
    },
    {
        "city": "Formosa",
        "state": "GO",
        "district": "Parque das Laranjeiras",
        "street": "Rua 2",
        "zipcode": "73805-630"
    },
    {
        "city": "Formosa",
        "state": "GO",
        "district": "Parque das Laranjeiras",
        "street": "Avenida 1",
        "zipcode": "73805-640"
    },
    {
        "city": "Formosa",
        "state": "GO",
        "district": "Parque das Laranjeiras",
        "street": "Rua 4",
        "zipcode": "73805-655"
    },
    {
        "city": "Formosa",
        "state": "GO",
        "district": "Parque das Laranjeiras",
        "street": "Rua 5",
        "zipcode": "73805-660"
    },
    {
        "city": "Formosa",
        "state": "GO",
        "district": "Parque das Laranjeiras",
        "street": "Rua 8",
        "zipcode": "73805-680"
    },
    {
        "city": "Formosa",
        "state": "GO",
        "district": "Parque das Laranjeiras",
        "street": "Rua 9",
        "zipcode": "73805-685"
    },
    {
        "city": "Formosa",
        "state": "GO",
        "district": "Setor Sul",
        "street": "Rua 17",
        "zipcode": "73802-476"
    },
    {
        "city": "Formosa",
        "state": "GO",
        "district": "Abreu",
        "street": "Rua São João",
        "zipcode": "73803-015"
    },
    {
        "city": "Formosa",
        "state": "GO",
        "district": "Centro",
        "street": "Rua 3 de Outubro",
        "zipcode": "73801-510"
    },
    {
        "city": "Formosa",
        "state": "GO",
        "district": "Chácaras do Abreu",
        "street": "Via 1",
        "zipcode": "73804-010"
    },
    {
        "city": "Formosa",
        "state": "GO",
        "district": "Chácaras do Abreu",
        "street": "Via 2",
        "zipcode": "73804-015"
    },
    {
        "city": "Formosa",
        "state": "GO",
        "district": "Chácaras do Abreu",
        "street": "Via 4",
        "zipcode": "73804-025"
    },
    {
        "city": "Formosa",
        "state": "GO",
        "district": "Chácaras do Abreu",
        "street": "Via 6",
        "zipcode": "73804-035"
    },
    {
        "city": "Formosa",
        "state": "GO",
        "district": "Chácaras do Abreu",
        "street": "Via 8",
        "zipcode": "73804-045"
    },
    {
        "city": "Formosa",
        "state": "GO",
        "district": "Chácaras do Abreu",
        "street": "Via 9",
        "zipcode": "73804-050"
    },
    {
        "city": "Formosa",
        "state": "GO",
        "district": "Chácaras do Abreu",
        "street": "Via 10",
        "zipcode": "73804-055"
    },
    {
        "city": "Formosa",
        "state": "GO",
        "district": "Chácaras do Abreu",
        "street": "Via 13",
        "zipcode": "73804-070"
    },
    {
        "city": "Formosa",
        "state": "GO",
        "district": "Chácaras do Abreu",
        "street": "Via 14",
        "zipcode": "73804-075"
    },
    {
        "city": "Formosa",
        "state": "GO",
        "district": "Chácaras do Abreu",
        "street": "Via 16",
        "zipcode": "73804-085"
    },
    {
        "city": "Formosa",
        "state": "GO",
        "district": "Chácaras do Abreu",
        "street": "Via 18",
        "zipcode": "73804-095"
    },
    {
        "city": "Formosa",
        "state": "GO",
        "district": "Chácaras do Abreu",
        "street": "Avenida Rezende Machado",
        "zipcode": "73804-110"
    },
    {
        "city": "Formosa",
        "state": "GO",
        "district": "Chácaras do Abreu",
        "street": "Rua Manuel Campos",
        "zipcode": "73804-115"
    },
    {
        "city": "Formosa",
        "state": "GO",
        "district": "Chácaras do Abreu",
        "street": "Rua Ibraim Jorge",
        "zipcode": "73804-105"
    },
    {
        "city": "Formosa",
        "state": "GO",
        "district": "Parque Serrano",
        "street": "Rua 1",
        "zipcode": "73804-555"
    },
    {
        "city": "Formosa",
        "state": "GO",
        "district": "Parque Serrano",
        "street": "Rua 3",
        "zipcode": "73804-565"
    },
    {
        "city": "Formosa",
        "state": "GO",
        "district": "Parque Serrano",
        "street": "Rua 4",
        "zipcode": "73804-570"
    },
    {
        "city": "Formosa",
        "state": "GO",
        "district": "Parque Serrano",
        "street": "Rua 5",
        "zipcode": "73804-575"
    },
    {
        "city": "Formosa",
        "state": "GO",
        "district": "Parque Serrano",
        "street": "Rua 8",
        "zipcode": "73804-590"
    },
    {
        "city": "Formosa",
        "state": "GO",
        "district": "Parque Serrano",
        "street": "Rua 10",
        "zipcode": "73804-600"
    },
    {
        "city": "Formosa",
        "state": "GO",
        "district": "Parque Serrano",
        "street": "Rua 11",
        "zipcode": "73804-605"
    },
    {
        "city": "Formosa",
        "state": "GO",
        "district": "Parque Serrano",
        "street": "Rua 13",
        "zipcode": "73804-615"
    },
    {
        "city": "Formosa",
        "state": "GO",
        "district": "Parque Serrano",
        "street": "Avenida A",
        "zipcode": "73804-620"
    },
    {
        "city": "Formosa",
        "state": "GO",
        "district": "Setor Industrial II",
        "street": "Rua 3 (Vila Santa Bárbara)",
        "zipcode": "73803-171"
    },
    {
        "city": "Formosa",
        "state": "GO",
        "district": "Setor Sul",
        "street": "Rua 18A",
        "zipcode": "73802-473"
    },
    {
        "city": "Formosa",
        "state": "GO",
        "district": "Sul América",
        "street": "Via 2",
        "zipcode": "73803-536"
    },
    {
        "city": "Formosa",
        "state": "GO",
        "district": "Chácaras do Abreu",
        "street": "Rua 5",
        "zipcode": "73804-018"
    },
    {
        "city": "Formosa",
        "state": "GO",
        "district": "Vila Santos",
        "street": "Rua 3",
        "zipcode": "73805-557"
    },
    {
        "city": "Formosa",
        "state": "GO",
        "district": "Residencial Santa Rosa",
        "street": "Rua Brasília",
        "zipcode": "73803-640"
    },
    {
        "city": "Formosa",
        "state": "GO",
        "district": "Residencial Santa Rosa",
        "street": "Rua Goiás",
        "zipcode": "73803-645"
    },
    {
        "city": "Formosa",
        "state": "GO",
        "district": "Jardim Califórnia",
        "street": "Rua dos Domenicanos",
        "zipcode": "73807-775"
    },
    {
        "city": "Formosa",
        "state": "GO",
        "district": "Jardim Califórnia",
        "street": "Rua José Jacinto",
        "zipcode": "73807-780"
    },
    {
        "city": "Formosa",
        "state": "GO",
        "district": "Centro",
        "street": "Rua Elder Saad Fayad",
        "zipcode": "73801-460"
    },
    {
        "city": "Formosa",
        "state": "GO",
        "district": "Centro",
        "street": "Rua Professora Alta Vidal",
        "zipcode": "73801-480"
    },
    {
        "city": "Formosa",
        "state": "GO",
        "district": "Centro",
        "street": "Travessa Trajano Dutra",
        "zipcode": "73801-520"
    },
    {
        "city": "Formosa",
        "state": "GO",
        "district": "Centro",
        "street": "Praça da Liberdade",
        "zipcode": "73801-540"
    },
    {
        "city": "Formosa",
        "state": "GO",
        "district": "Centro",
        "street": "Rua Lázaro de Melo",
        "zipcode": "73801-550"
    },
    {
        "city": "Formosa",
        "state": "GO",
        "district": "Setor Sul",
        "street": "Via 2",
        "zipcode": "73802-466"
    },
    {
        "city": "Formosa",
        "state": "GO",
        "district": "Setor Ferroviário",
        "street": "Rua 7",
        "zipcode": "73805-025"
    },
    {
        "city": "Formosa",
        "state": "GO",
        "district": "Setor Ferroviário",
        "street": "Rua 5",
        "zipcode": "73805-030"
    },
    {
        "city": "Formosa",
        "state": "GO",
        "district": "Setor Ferroviário",
        "street": "Rua 3",
        "zipcode": "73805-035"
    },
    {
        "city": "Formosa",
        "state": "GO",
        "district": "Setor Ferroviário",
        "street": "Rua 1",
        "zipcode": "73805-045"
    },
    {
        "city": "Formosa",
        "state": "GO",
        "district": "Setor Ferroviário",
        "street": "Rua 6",
        "zipcode": "73805-060"
    },
    {
        "city": "Formosa",
        "state": "GO",
        "district": "Vila Santos",
        "street": "Rua 9",
        "zipcode": "73805-515"
    },
    {
        "city": "Formosa",
        "state": "GO",
        "district": "Vila Santos",
        "street": "Rua Comunitária",
        "zipcode": "73805-545"
    },
    {
        "city": "Formosa",
        "state": "GO",
        "district": "Vila Santos",
        "street": "Rua 12A",
        "zipcode": "73805-555"
    },
    {
        "city": "Formosa",
        "state": "GO",
        "district": "Setor Nordeste",
        "street": "Rua Santa Gertrudes",
        "zipcode": "73807-210"
    },
    {
        "city": "Formosa",
        "state": "GO",
        "district": "Setor Nordeste",
        "street": "Rua 9",
        "zipcode": "73807-215"
    },
    {
        "city": "Formosa",
        "state": "GO",
        "district": "Setor Nordeste",
        "street": "Avenida 3",
        "zipcode": "73807-240"
    },
    {
        "city": "Formosa",
        "state": "GO",
        "district": "Setor Nordeste",
        "street": "Rua G",
        "zipcode": "73807-275"
    },
    {
        "city": "Formosa",
        "state": "GO",
        "district": "Setor Nordeste",
        "street": "Rua 19",
        "zipcode": "73807-290"
    },
    {
        "city": "Formosa",
        "state": "GO",
        "district": "Setor Nordeste",
        "street": "Rua 10",
        "zipcode": "73807-305"
    },
    {
        "city": "Formosa",
        "state": "GO",
        "district": "Setor Nordeste",
        "street": "Rua 6",
        "zipcode": "73807-310"
    },
    {
        "city": "Formosa",
        "state": "GO",
        "district": "Jardim Califórnia",
        "street": "Avenida 1",
        "zipcode": "73807-760"
    },
    {
        "city": "Formosa",
        "state": "GO",
        "district": "Jardim Califórnia",
        "street": "Rua Intendente Pereira Dutra",
        "zipcode": "73807-785"
    },
    {
        "city": "Formosa",
        "state": "GO",
        "district": "Jardim Califórnia",
        "street": "Avenida Senador Coimbra Bueno",
        "zipcode": "73807-685"
    },
    {
        "city": "Formosa",
        "state": "GO",
        "district": "Nova Formosa",
        "street": "Rua 112",
        "zipcode": "73809-260"
    },
    {
        "city": "Formosa",
        "state": "GO",
        "district": "Nova Formosa",
        "street": "Rua 114",
        "zipcode": "73809-270"
    },
    {
        "city": "Formosa",
        "state": "GO",
        "district": "Nova Formosa",
        "street": "Rua 115",
        "zipcode": "73809-280"
    },
    {
        "city": "Formosa",
        "state": "GO",
        "district": "Nova Formosa",
        "street": "Rua 124",
        "zipcode": "73809-305"
    },
    {
        "city": "Formosa",
        "state": "GO",
        "district": "Nova Formosa",
        "street": "Rua 205",
        "zipcode": "73809-330"
    },
    {
        "city": "Formosa",
        "state": "GO",
        "district": "Jardim Oliveira",
        "street": "Rua 2",
        "zipcode": "73805-252"
    },
    {
        "city": "Formosa",
        "state": "GO",
        "district": "Rosa Maria",
        "street": "Rua 22",
        "zipcode": "73809-640"
    },
    {
        "city": "Formosa",
        "state": "GO",
        "district": "Rosa Maria",
        "street": "Rua 19",
        "zipcode": "73809-610"
    },
    {
        "city": "Formosa",
        "state": "GO",
        "district": "Rosa Maria",
        "street": "Rua 15",
        "zipcode": "73809-620"
    },
    {
        "city": "Formosa",
        "state": "GO",
        "district": "Rosa Maria",
        "street": "Rua 13",
        "zipcode": "73809-625"
    },
    {
        "city": "Formosa",
        "state": "GO",
        "district": "Sul América",
        "street": "Rua 2",
        "zipcode": "73803-516"
    },
    {
        "city": "Formosa",
        "state": "GO",
        "district": "Setor Sul",
        "street": "Via 4",
        "zipcode": "73802-460"
    },
    {
        "city": "Formosa",
        "state": "GO",
        "district": "Jardim Oliveira",
        "street": "Rua 13",
        "zipcode": "73805-213"
    },
    {
        "city": "Formosa",
        "state": "GO",
        "district": "Jardim Oliveira",
        "street": "Rua 15",
        "zipcode": "73805-216"
    },
    {
        "city": "Formosa",
        "state": "GO",
        "district": "Jardim Oliveira",
        "street": "Rua 19",
        "zipcode": "73805-221"
    },
    {
        "city": "Formosa",
        "state": "GO",
        "district": "Jardim Oliveira",
        "street": "Rua 12A",
        "zipcode": "73805-232"
    },
    {
        "city": "Formosa",
        "state": "GO",
        "district": "Jardim Oliveira",
        "street": "Rua 10A",
        "zipcode": "73805-235"
    },
    {
        "city": "Formosa",
        "state": "GO",
        "district": "Jardim Oliveira",
        "street": "Rua 20",
        "zipcode": "73805-238"
    },
    {
        "city": "Formosa",
        "state": "GO",
        "district": "Sul América",
        "street": "Rua 8 (Paralela Argentina)",
        "zipcode": "73803-546"
    },
    {
        "city": "Formosa",
        "state": "GO",
        "district": "Setor Sul",
        "street": "Vila Imperatriz (Saida Sul)",
        "zipcode": "73802-488"
    },
    {
        "city": "Formosa",
        "state": "GO",
        "district": "Jardim Oliveira",
        "street": "Rua 8",
        "zipcode": "73805-247"
    },
    {
        "city": "Formosa",
        "state": "GO",
        "district": "Jardim Oliveira",
        "street": "Rua 1",
        "zipcode": "73805-253"
    },
    {
        "city": "Formosa",
        "state": "GO",
        "district": "Jardim Oliveira",
        "street": "Rua 6",
        "zipcode": "73805-256"
    },
    {
        "city": "Formosa",
        "state": "GO",
        "district": "Jardim Oliveira",
        "street": "Avenida B",
        "zipcode": "73805-265"
    },
    {
        "city": "Formosa",
        "state": "GO",
        "district": "Jardim Oliveira",
        "street": "Rua 10",
        "zipcode": "73805-268"
    },
    {
        "city": "Formosa",
        "state": "GO",
        "district": "Jardim Oliveira",
        "street": "Rua 5",
        "zipcode": "73805-274"
    },
    {
        "city": "Formosa",
        "state": "GO",
        "district": "Jardim Oliveira",
        "street": "Rua 7",
        "zipcode": "73805-280"
    },
    {
        "city": "Formosa",
        "state": "GO",
        "district": "Jardim Oliveira",
        "street": "Rua 9",
        "zipcode": "73805-286"
    },
    {
        "city": "Formosa",
        "state": "GO",
        "district": "Setor Pampulha",
        "street": "Rua Jaraguá",
        "zipcode": "73805-315"
    },
    {
        "city": "Formosa",
        "state": "GO",
        "district": "Setor Pampulha",
        "street": "Rua Vera Cruz",
        "zipcode": "73805-325"
    },
    {
        "city": "Formosa",
        "state": "GO",
        "district": "Setor Pampulha",
        "street": "Rua Presidente Venceslau Bráz",
        "zipcode": "73805-335"
    },
    {
        "city": "Formosa",
        "state": "GO",
        "district": "Setor Pampulha",
        "street": "Rua Virgílio Alves Ferreira",
        "zipcode": "73805-345"
    },
    {
        "city": "Formosa",
        "state": "GO",
        "district": "Setor Pampulha",
        "street": "Rua Coronel Limírio Rosa",
        "zipcode": "73805-350"
    },
    {
        "city": "Formosa",
        "state": "GO",
        "district": "Setor Pampulha",
        "street": "Rua 1",
        "zipcode": "73805-365"
    },
    {
        "city": "Formosa",
        "state": "GO",
        "district": "Setor Pampulha",
        "street": "Rua 12",
        "zipcode": "73805-370"
    },
    {
        "city": "Formosa",
        "state": "GO",
        "district": "Setor Imperatriz",
        "street": "Rua 1",
        "zipcode": "73805-410"
    },
    {
        "city": "Formosa",
        "state": "GO",
        "district": "Setor Imperatriz",
        "street": "Rua 4",
        "zipcode": "73805-420"
    },
    {
        "city": "Formosa",
        "state": "GO",
        "district": "Setor Imperatriz",
        "street": "Travessa da Rua 08",
        "zipcode": "73805-430"
    },
    {
        "city": "Formosa",
        "state": "GO",
        "district": "Vila Bela",
        "street": "Rua 8A",
        "zipcode": "73807-050"
    },
    {
        "city": "Formosa",
        "state": "GO",
        "district": "Jardim Califórnia",
        "street": "Rua Coronel Pedro",
        "zipcode": "73807-680"
    },
    {
        "city": "Formosa",
        "state": "GO",
        "district": "Jardim Califórnia",
        "street": "Rua José Martins",
        "zipcode": "73807-695"
    },
    {
        "city": "Formosa",
        "state": "GO",
        "district": "Jardim Califórnia",
        "street": "Rua Frei Constâncio",
        "zipcode": "73807-701"
    },
    {
        "city": "Formosa",
        "state": "GO",
        "district": "Jardim Califórnia",
        "street": "Rua Padre Antônio Marcigaglia",
        "zipcode": "73807-720"
    },
    {
        "city": "Formosa",
        "state": "GO",
        "district": "Jardim Califórnia",
        "street": "Rua Califórnia",
        "zipcode": "73807-730"
    },
    {
        "city": "Formosa",
        "state": "GO",
        "district": "Jardim Califórnia",
        "street": "Rua Santos Dumont",
        "zipcode": "73807-740"
    },
    {
        "city": "Formosa",
        "state": "GO",
        "district": "Jardim Triângulo",
        "street": "Avenida Circular",
        "zipcode": "73808-284"
    },
    {
        "city": "Formosa",
        "state": "GO",
        "district": "Jardim Triângulo",
        "street": "Rua R",
        "zipcode": "73808-260"
    },
    {
        "city": "Formosa",
        "state": "GO",
        "district": "Jardim Triângulo",
        "street": "Rua S",
        "zipcode": "73808-264"
    },
    {
        "city": "Formosa",
        "state": "GO",
        "district": "Jardim Triângulo",
        "street": "Rua U",
        "zipcode": "73808-272"
    },
    {
        "city": "Formosa",
        "state": "GO",
        "district": "Jardim Triângulo",
        "street": "Rua Z",
        "zipcode": "73808-280"
    },
    {
        "city": "Formosa",
        "state": "GO",
        "district": "Jardim Triângulo",
        "street": "Rua 6",
        "zipcode": "73808-292"
    },
    {
        "city": "Formosa",
        "state": "GO",
        "district": "Jardim Triângulo",
        "street": "Rua 4",
        "zipcode": "73808-296"
    },
    {
        "city": "Formosa",
        "state": "GO",
        "district": "Parque Vila Verde",
        "street": "Rua 12",
        "zipcode": "73808-310"
    },
    {
        "city": "Formosa",
        "state": "GO",
        "district": "Parque Vila Verde",
        "street": "Rua 11",
        "zipcode": "73808-315"
    },
    {
        "city": "Formosa",
        "state": "GO",
        "district": "Parque Vila Verde",
        "street": "Avenida C",
        "zipcode": "73808-325"
    },
    {
        "city": "Formosa",
        "state": "GO",
        "district": "Parque Vila Verde",
        "street": "Rua 9",
        "zipcode": "73808-330"
    },
    {
        "city": "Formosa",
        "state": "GO",
        "district": "Parque Vila Verde",
        "street": "Rua 5",
        "zipcode": "73808-350"
    },
    {
        "city": "Formosa",
        "state": "GO",
        "district": "Nova Formosa",
        "street": "Rua 103",
        "zipcode": "73809-210"
    },
    {
        "city": "Formosa",
        "state": "GO",
        "district": "Nova Formosa",
        "street": "Rua 105",
        "zipcode": "73809-240"
    },
    {
        "city": "Formosa",
        "state": "GO",
        "district": "Parque das Laranjeiras",
        "street": "Avenida 3",
        "zipcode": "73805-795"
    },
    {
        "city": "Formosa",
        "state": "GO",
        "district": "Setor Bela Vista",
        "street": "Rua G",
        "zipcode": "73808-865"
    },
    {
        "city": "Formosa",
        "state": "GO",
        "district": "Setor Bela Vista",
        "street": "Rua H",
        "zipcode": "73808-870"
    },
    {
        "city": "Formosa",
        "state": "GO",
        "district": "Setor Bela Vista",
        "street": "Rua 8A",
        "zipcode": "73808-872"
    },
    {
        "city": "Formosa",
        "state": "GO",
        "district": "Setor Bela Vista",
        "street": "Rua 6A",
        "zipcode": "73808-875"
    },
    {
        "city": "Formosa",
        "state": "GO",
        "district": "Parque das Laranjeiras",
        "street": "Rua 15",
        "zipcode": "73805-725"
    },
    {
        "city": "Formosa",
        "state": "GO",
        "district": "Parque das Laranjeiras",
        "street": "Rua 16",
        "zipcode": "73805-730"
    },
    {
        "city": "Formosa",
        "state": "GO",
        "district": "Parque das Laranjeiras",
        "street": "Travessa H",
        "zipcode": "73805-745"
    },
    {
        "city": "Formosa",
        "state": "GO",
        "district": "Parque das Laranjeiras",
        "street": "Travessa G",
        "zipcode": "73805-750"
    },
    {
        "city": "Formosa",
        "state": "GO",
        "district": "Parque das Laranjeiras",
        "street": "Travessa J",
        "zipcode": "73805-755"
    },
    {
        "city": "Formosa",
        "state": "GO",
        "district": "Parque das Laranjeiras",
        "street": "Rua 20",
        "zipcode": "73805-770"
    },
    {
        "city": "Formosa",
        "state": "GO",
        "district": "Parque das Laranjeiras",
        "street": "Rua 22",
        "zipcode": "73805-780"
    },
    {
        "city": "Formosa",
        "state": "GO",
        "district": "Parque das Laranjeiras",
        "street": "Travessa M",
        "zipcode": "73805-790"
    },
    {
        "city": "Formosa",
        "state": "GO",
        "district": "Vista Alegre",
        "street": "Rua 29 de Março",
        "zipcode": "73805-801"
    },
    {
        "city": "Formosa",
        "state": "GO",
        "district": "Vista Alegre",
        "street": "Rua 15 de Novembro",
        "zipcode": "73805-815"
    },
    {
        "city": "Formosa",
        "state": "GO",
        "district": "Vista Alegre",
        "street": "Rua 6",
        "zipcode": "73805-820"
    },
    {
        "city": "Formosa",
        "state": "GO",
        "district": "Vista Alegre",
        "street": "Avenida A",
        "zipcode": "73805-830"
    },
    {
        "city": "Formosa",
        "state": "GO",
        "district": "Vista Alegre",
        "street": "Rua Ana de Jesus Melo",
        "zipcode": "73805-835"
    },
    {
        "city": "Formosa",
        "state": "GO",
        "district": "Vista Alegre",
        "street": "Rua 1",
        "zipcode": "73805-850"
    },
    {
        "city": "Formosa",
        "state": "GO",
        "district": "Vila Lorena",
        "street": "Rua 8",
        "zipcode": "73805-855"
    },
    {
        "city": "Formosa",
        "state": "GO",
        "district": "Vila Lorena",
        "street": "Rua 7",
        "zipcode": "73805-860"
    },
    {
        "city": "Formosa",
        "state": "GO",
        "district": "Vila Lorena",
        "street": "Rua 2",
        "zipcode": "73805-890"
    },
    {
        "city": "Formosa",
        "state": "GO",
        "district": "Vila Lorena",
        "street": "Rua 1",
        "zipcode": "73805-895"
    },
    {
        "city": "Formosa",
        "state": "GO",
        "district": "Parque Esmeralda",
        "street": "Rua 1",
        "zipcode": "73807-005"
    },
    {
        "city": "Formosa",
        "state": "GO",
        "district": "Parque Esmeralda",
        "street": "Rua 3",
        "zipcode": "73807-015"
    },
    {
        "city": "Formosa",
        "state": "GO",
        "district": "Vila Bela",
        "street": "Rua B",
        "zipcode": "73807-070"
    },
    {
        "city": "Formosa",
        "state": "GO",
        "district": "Vila Bela",
        "street": "Rua D",
        "zipcode": "73807-080"
    },
    {
        "city": "Formosa",
        "state": "GO",
        "district": "Setor Nordeste",
        "street": "Rua Senador Borba",
        "zipcode": "73807-105"
    },
    {
        "city": "Formosa",
        "state": "GO",
        "district": "Setor Nordeste",
        "street": "Rua Santa Inês",
        "zipcode": "73807-110"
    },
    {
        "city": "Formosa",
        "state": "GO",
        "district": "Setor Nordeste",
        "street": "Rua Crixás",
        "zipcode": "73807-120"
    },
    {
        "city": "Formosa",
        "state": "GO",
        "district": "Setor Nordeste",
        "street": "Rua 2 (Ao lado da Crixás)",
        "zipcode": "73807-125"
    },
    {
        "city": "Formosa",
        "state": "GO",
        "district": "Setor Nordeste",
        "street": "Rua Paranã",
        "zipcode": "73807-140"
    },
    {
        "city": "Formosa",
        "state": "GO",
        "district": "Setor Nordeste",
        "street": "Rua Itiquira",
        "zipcode": "73807-145"
    },
    {
        "city": "Formosa",
        "state": "GO",
        "district": "Setor Nordeste",
        "street": "Rua 2 (Final da Paranã)",
        "zipcode": "73807-150"
    },
    {
        "city": "Formosa",
        "state": "GO",
        "district": "Setor Nordeste",
        "street": "Rua Lindolfo Gonçalves",
        "zipcode": "73807-170"
    },
    {
        "city": "Formosa",
        "state": "GO",
        "district": "Setor Nordeste",
        "street": "Avenida Ferroviária",
        "zipcode": "73807-175"
    },
    {
        "city": "Formosa",
        "state": "GO",
        "district": "Setor Nordeste",
        "street": "Rua C1",
        "zipcode": "73807-185"
    },
    {
        "city": "Formosa",
        "state": "GO",
        "district": "Setor Nordeste",
        "street": "Rua Joaquim Honório Pereira Dutra",
        "zipcode": "73807-190"
    },
    {
        "city": "Formosa",
        "state": "GO",
        "district": "Setor Nordeste",
        "street": "Rua C2",
        "zipcode": "73807-195"
    },
    {
        "city": "Formosa",
        "state": "GO",
        "district": "Jardim Califórnia",
        "street": "Rua José Magalhães",
        "zipcode": "73807-705"
    },
    {
        "city": "Formosa",
        "state": "GO",
        "district": "Parque da Colina II",
        "street": "Rua 18",
        "zipcode": "73808-170"
    },
    {
        "city": "Formosa",
        "state": "GO",
        "district": "Parque da Colina II",
        "street": "Rua B",
        "zipcode": "73808-175"
    },
    {
        "city": "Formosa",
        "state": "GO",
        "district": "Parque da Colina II",
        "street": "Rua 19",
        "zipcode": "73808-180"
    },
    {
        "city": "Formosa",
        "state": "GO",
        "district": "Jardim Triângulo",
        "street": "Rua 3",
        "zipcode": "73808-212"
    },
    {
        "city": "Formosa",
        "state": "GO",
        "district": "Jardim Triângulo",
        "street": "Rua 5",
        "zipcode": "73808-216"
    },
    {
        "city": "Formosa",
        "state": "GO",
        "district": "Parque da Colina II",
        "street": "Rua C",
        "zipcode": "73808-190"
    },
    {
        "city": "Formosa",
        "state": "GO",
        "district": "Jardim Triângulo",
        "street": "Rua 2",
        "zipcode": "73808-208"
    },
    {
        "city": "Formosa",
        "state": "GO",
        "district": "Jardim Triângulo",
        "street": "Rua A",
        "zipcode": "73808-228"
    },
    {
        "city": "Formosa",
        "state": "GO",
        "district": "Jardim Triângulo",
        "street": "Rua B",
        "zipcode": "73808-232"
    },
    {
        "city": "Formosa",
        "state": "GO",
        "district": "Jardim Triângulo",
        "street": "Rua D",
        "zipcode": "73808-240"
    },
    {
        "city": "Formosa",
        "state": "GO",
        "district": "Jardim Triângulo",
        "street": "Rua E",
        "zipcode": "73808-244"
    },
    {
        "city": "Formosa",
        "state": "GO",
        "district": "São Benedito",
        "street": "Rua 4",
        "zipcode": "73813-615"
    },
    {
        "city": "Formosa",
        "state": "GO",
        "district": "São Benedito",
        "street": "Rua 7",
        "zipcode": "73813-630"
    },
    {
        "city": "Formosa",
        "state": "GO",
        "district": "São Benedito",
        "street": "Rua 8",
        "zipcode": "73813-635"
    },
    {
        "city": "Formosa",
        "state": "GO",
        "district": "São Benedito",
        "street": "Rua 11C",
        "zipcode": "73813-665"
    },
    {
        "city": "Formosa",
        "state": "GO",
        "district": "Parque Lago",
        "street": "Rua 12",
        "zipcode": "73813-856"
    },
    {
        "city": "Formosa",
        "state": "GO",
        "district": "Setor Bela Vista",
        "street": "Avenida 1",
        "zipcode": "73808-860"
    },
    {
        "city": "Formosa",
        "state": "GO",
        "district": "Setor Nordeste",
        "street": "Rua J",
        "zipcode": "73807-403"
    },
    {
        "city": "Formosa",
        "state": "GO",
        "district": "Setor Nordeste",
        "street": "Travessa Santa Luzia",
        "zipcode": "73807-410"
    },
    {
        "city": "Formosa",
        "state": "GO",
        "district": "Setor Nordeste",
        "street": "Travessa G",
        "zipcode": "73807-399"
    },
    {
        "city": "Formosa",
        "state": "GO",
        "district": "Setor Nordeste",
        "street": "Rua 2A",
        "zipcode": "73807-340"
    },
    {
        "city": "Formosa",
        "state": "GO",
        "district": "Setor Nordeste",
        "street": "Rua Municipal",
        "zipcode": "73807-345"
    },
    {
        "city": "Formosa",
        "state": "GO",
        "district": "Setor Nordeste",
        "street": "Rua 21",
        "zipcode": "73807-350"
    },
    {
        "city": "Formosa",
        "state": "GO",
        "district": "Setor Nordeste",
        "street": "Rua 27A",
        "zipcode": "73807-380"
    },
    {
        "city": "Formosa",
        "state": "GO",
        "district": "Setor Nordeste",
        "street": "Rua 29",
        "zipcode": "73807-385"
    },
    {
        "city": "Formosa",
        "state": "GO",
        "district": "Setor Nordeste",
        "street": "Rua 31",
        "zipcode": "73807-390"
    },
    {
        "city": "Formosa",
        "state": "GO",
        "district": "Vila Aurora",
        "street": "Rua Dona Benta",
        "zipcode": "73807-510"
    },
    {
        "city": "Formosa",
        "state": "GO",
        "district": "Vila Aurora",
        "street": "Rua 2",
        "zipcode": "73807-513"
    },
    {
        "city": "Formosa",
        "state": "GO",
        "district": "Vila Aurora",
        "street": "Rua 7",
        "zipcode": "73807-516"
    },
    {
        "city": "Formosa",
        "state": "GO",
        "district": "Vila Aurora",
        "street": "Rua Dona Ventura",
        "zipcode": "73807-525"
    },
    {
        "city": "Formosa",
        "state": "GO",
        "district": "Vila Aurora",
        "street": "Rua José Ferreira",
        "zipcode": "73807-528"
    },
    {
        "city": "Formosa",
        "state": "GO",
        "district": "Jardim Califórnia",
        "street": "Rua Goiânia",
        "zipcode": "73807-605"
    },
    {
        "city": "Formosa",
        "state": "GO",
        "district": "Jardim Califórnia",
        "street": "Rua Olímpio de Melo Álvares",
        "zipcode": "73807-615"
    },
    {
        "city": "Formosa",
        "state": "GO",
        "district": "Jardim Califórnia",
        "street": "Rua Eunice",
        "zipcode": "73807-630"
    },
    {
        "city": "Formosa",
        "state": "GO",
        "district": "Jardim Califórnia",
        "street": "Rua do Mercado",
        "zipcode": "73807-635"
    },
    {
        "city": "Formosa",
        "state": "GO",
        "district": "Jardim Califórnia",
        "street": "Rua José Lobo",
        "zipcode": "73807-650"
    },
    {
        "city": "Formosa",
        "state": "GO",
        "district": "Jardim Califórnia",
        "street": "Rua Barberiana",
        "zipcode": "73807-660"
    },
    {
        "city": "Formosa",
        "state": "GO",
        "district": "Jardim Califórnia",
        "street": "Rua Marechal Rondon",
        "zipcode": "73807-670"
    },
    {
        "city": "Formosa",
        "state": "GO",
        "district": "Jardim Califórnia",
        "street": "Rua Maria Carlos",
        "zipcode": "73807-675"
    },
    {
        "city": "Formosa",
        "state": "GO",
        "district": "Parque da Colina I",
        "street": "Rua H",
        "zipcode": "73808-068"
    },
    {
        "city": "Formosa",
        "state": "GO",
        "district": "Parque da Colina I",
        "street": "Rua G",
        "zipcode": "73808-076"
    },
    {
        "city": "Formosa",
        "state": "GO",
        "district": "Parque da Colina I",
        "street": "Rua 21",
        "zipcode": "73808-084"
    },
    {
        "city": "Formosa",
        "state": "GO",
        "district": "Parque da Colina II",
        "street": "Rua 12",
        "zipcode": "73808-110"
    },
    {
        "city": "Formosa",
        "state": "GO",
        "district": "Parque da Colina II",
        "street": "Rua M",
        "zipcode": "73808-115"
    },
    {
        "city": "Formosa",
        "state": "GO",
        "district": "Parque da Colina II",
        "street": "Rua L",
        "zipcode": "73808-125"
    },
    {
        "city": "Formosa",
        "state": "GO",
        "district": "Parque da Colina II",
        "street": "Rua J",
        "zipcode": "73808-135"
    },
    {
        "city": "Formosa",
        "state": "GO",
        "district": "Parque da Colina II",
        "street": "Rua I",
        "zipcode": "73808-145"
    },
    {
        "city": "Formosa",
        "state": "GO",
        "district": "Parque da Colina II",
        "street": "Rua 16",
        "zipcode": "73808-150"
    },
    {
        "city": "Formosa",
        "state": "GO",
        "district": "Formosinha",
        "street": "Rua X",
        "zipcode": "73813-510"
    },
    {
        "city": "Formosa",
        "state": "GO",
        "district": "Formosinha",
        "street": "Travessa 13",
        "zipcode": "73813-530"
    },
    {
        "city": "Formosa",
        "state": "GO",
        "district": "Formosinha",
        "street": "Travessa Benedito Galvão",
        "zipcode": "73813-540"
    },
    {
        "city": "Formosa",
        "state": "GO",
        "district": "São Benedito",
        "street": "Rua 3",
        "zipcode": "73813-610"
    },
    {
        "city": "Formosa",
        "state": "GO",
        "district": "Setor Bela Vista",
        "street": "Rua 19",
        "zipcode": "73808-805"
    },
    {
        "city": "Formosa",
        "state": "GO",
        "district": "Setor Bela Vista",
        "street": "Avenida B",
        "zipcode": "73808-810"
    },
    {
        "city": "Formosa",
        "state": "GO",
        "district": "Setor Bela Vista",
        "street": "Avenida D",
        "zipcode": "73808-825"
    },
    {
        "city": "Formosa",
        "state": "GO",
        "district": "Setor Bela Vista",
        "street": "Rua J",
        "zipcode": "73808-835"
    },
    {
        "city": "Formosa",
        "state": "GO",
        "district": "Setor Bela Vista",
        "street": "Avenida K",
        "zipcode": "73808-840"
    },
    {
        "city": "Formosa",
        "state": "GO",
        "district": "Setor Bela Vista",
        "street": "Rua 15",
        "zipcode": "73808-845"
    },
    {
        "city": "Formosa",
        "state": "GO",
        "district": "Parque Laguna II",
        "street": "Rua José de Carvalho Maia",
        "zipcode": "73814-120"
    },
    {
        "city": "Formosa",
        "state": "GO",
        "district": "Parque Laguna II",
        "street": "Rua Rosalvo Olímpio Costa",
        "zipcode": "73814-125"
    },
    {
        "city": "Formosa",
        "state": "GO",
        "district": "Parque Laguna II",
        "street": "Rua Ibraim Saad",
        "zipcode": "73814-130"
    },
    {
        "city": "Formosa",
        "state": "GO",
        "district": "Parque Laguna II",
        "street": "Rua Padre Tiago",
        "zipcode": "73814-145"
    },
    {
        "city": "Formosa",
        "state": "GO",
        "district": "Parque Laguna II",
        "street": "Rua Salim Bittar",
        "zipcode": "73814-055"
    },
    {
        "city": "Formosa",
        "state": "GO",
        "district": "Parque Laguna II",
        "street": "Rua Abneres de Moura Telles",
        "zipcode": "73814-065"
    },
    {
        "city": "Formosa",
        "state": "GO",
        "district": "Parque Laguna II",
        "street": "Rua 2ª",
        "zipcode": "73814-080"
    },
    {
        "city": "Formosa",
        "state": "GO",
        "district": "Parque Laguna II",
        "street": "Avenida Sebastião Monteiro Guimarães",
        "zipcode": "73814-085"
    },
    {
        "city": "Formosa",
        "state": "GO",
        "district": "Parque Laguna II",
        "street": "Rua 3ª",
        "zipcode": "73814-090"
    },
    {
        "city": "Formosa",
        "state": "GO",
        "district": "Parque Laguna II",
        "street": "Rua Rosário Tavares dos Santos",
        "zipcode": "73814-100"
    },
    {
        "city": "Formosa",
        "state": "GO",
        "district": "Parque Laguna II",
        "street": "Rua Francisco do Espírito Santo Lobo",
        "zipcode": "73814-105"
    },
    {
        "city": "Formosa",
        "state": "GO",
        "district": "Parque da Colina II",
        "street": "Rua N",
        "zipcode": "73808-107"
    },
    {
        "city": "Formosa",
        "state": "GO",
        "district": "Parque São Francisco",
        "street": "Rua 31",
        "zipcode": "73815-130"
    },
    {
        "city": "Formosa",
        "state": "GO",
        "district": "Parque São Francisco",
        "street": "Rua 33",
        "zipcode": "73815-140"
    },
    {
        "city": "Formosa",
        "state": "GO",
        "district": "Parque São Francisco",
        "street": "Rua 35",
        "zipcode": "73815-150"
    },
    {
        "city": "Formosa",
        "state": "GO",
        "district": "Vila Pantanal",
        "street": "Quadra 3",
        "zipcode": "73813-715"
    },
    {
        "city": "Formosa",
        "state": "GO",
        "district": "Setor Nordeste",
        "street": "Rua 2 (Vila Barroquinha)",
        "zipcode": "73807-455"
    },
    {
        "city": "Formosa",
        "state": "GO",
        "district": "Setor Nordeste",
        "street": "Rua São Silvestre",
        "zipcode": "73807-355"
    },
    {
        "city": "Formosa",
        "state": "GO",
        "district": "Parque da Colina I",
        "street": "Rua 1",
        "zipcode": "73808-001"
    },
    {
        "city": "Formosa",
        "state": "GO",
        "district": "Parque da Colina I",
        "street": "Rua 3",
        "zipcode": "73808-008"
    },
    {
        "city": "Formosa",
        "state": "GO",
        "district": "Parque da Colina I",
        "street": "Rua 5",
        "zipcode": "73808-016"
    },
    {
        "city": "Formosa",
        "state": "GO",
        "district": "Parque da Colina I",
        "street": "Rua 6",
        "zipcode": "73808-020"
    },
    {
        "city": "Formosa",
        "state": "GO",
        "district": "Parque da Colina I",
        "street": "Rua 7",
        "zipcode": "73808-024"
    },
    {
        "city": "Formosa",
        "state": "GO",
        "district": "Parque da Colina I",
        "street": "Rua 9",
        "zipcode": "73808-032"
    },
    {
        "city": "Formosa",
        "state": "GO",
        "district": "Parque da Colina I",
        "street": "Rua 10",
        "zipcode": "73808-036"
    },
    {
        "city": "Formosa",
        "state": "GO",
        "district": "Parque da Colina I",
        "street": "Rua 11",
        "zipcode": "73808-040"
    },
    {
        "city": "Formosa",
        "state": "GO",
        "district": "Parque da Colina I",
        "street": "Rua O",
        "zipcode": "73808-048"
    },
    {
        "city": "Formosa",
        "state": "GO",
        "district": "Parque da Colina I",
        "street": "Rua L",
        "zipcode": "73808-052"
    },
    {
        "city": "Formosa",
        "state": "GO",
        "district": "Parque da Colina I",
        "street": "Rua I",
        "zipcode": "73808-064"
    },
    {
        "city": "Formosa",
        "state": "GO",
        "district": "Parque Vila Verde",
        "street": "Rua 25A",
        "zipcode": "73808-450"
    },
    {
        "city": "Formosa",
        "state": "GO",
        "district": "Parque Vila Verde",
        "street": "Rua 6",
        "zipcode": "73808-455"
    },
    {
        "city": "Formosa",
        "state": "GO",
        "district": "Parque Vila Verde",
        "street": "Rua 7A",
        "zipcode": "73808-460"
    },
    {
        "city": "Formosa",
        "state": "GO",
        "district": "Parque Vila Verde",
        "street": "Rua 27",
        "zipcode": "73808-470"
    },
    {
        "city": "Formosa",
        "state": "GO",
        "district": "Setor Bela Vista",
        "street": "Rua 17",
        "zipcode": "73808-701"
    },
    {
        "city": "Formosa",
        "state": "GO",
        "district": "Formosinha",
        "street": "Rua 11",
        "zipcode": "73813-440"
    },
    {
        "city": "Formosa",
        "state": "GO",
        "district": "Formosinha",
        "street": "Rua 12",
        "zipcode": "73813-450"
    },
    {
        "city": "Formosa",
        "state": "GO",
        "district": "Formosinha",
        "street": "Rua 14",
        "zipcode": "73813-460"
    },
    {
        "city": "Formosa",
        "state": "GO",
        "district": "Parque Vila Verde",
        "street": "Rua 19",
        "zipcode": "73808-385"
    },
    {
        "city": "Formosa",
        "state": "GO",
        "district": "Parque Vila Verde",
        "street": "Rua 20",
        "zipcode": "73808-390"
    },
    {
        "city": "Formosa",
        "state": "GO",
        "district": "Parque Vila Verde",
        "street": "Rua 21",
        "zipcode": "73808-395"
    },
    {
        "city": "Formosa",
        "state": "GO",
        "district": "Parque Vila Verde",
        "street": "Rua 3A",
        "zipcode": "73808-415"
    },
    {
        "city": "Formosa",
        "state": "GO",
        "district": "Parque Vila Verde",
        "street": "Rua 2",
        "zipcode": "73808-420"
    },
    {
        "city": "Formosa",
        "state": "GO",
        "district": "Parque Vila Verde",
        "street": "Rua 1",
        "zipcode": "73808-430"
    },
    {
        "city": "Formosa",
        "state": "GO",
        "district": "Parque Vila Verde",
        "street": "Avenida B",
        "zipcode": "73808-435"
    },
    {
        "city": "Formosa",
        "state": "GO",
        "district": "Setor Bela Vista",
        "street": "Rua 3",
        "zipcode": "73808-725"
    },
    {
        "city": "Formosa",
        "state": "GO",
        "district": "Setor Bela Vista",
        "street": "Rua 5",
        "zipcode": "73808-735"
    },
    {
        "city": "Formosa",
        "state": "GO",
        "district": "Vila Pantanal",
        "street": "Rua 1",
        "zipcode": "73813-701"
    },
    {
        "city": "Formosa",
        "state": "GO",
        "district": "Setor Bela Vista",
        "street": "Rua 8",
        "zipcode": "73808-755"
    },
    {
        "city": "Formosa",
        "state": "GO",
        "district": "Setor Bela Vista",
        "street": "Rua 9",
        "zipcode": "73808-760"
    },
    {
        "city": "Formosa",
        "state": "GO",
        "district": "Setor Bela Vista",
        "street": "Rua 11 A",
        "zipcode": "73808-770"
    },
    {
        "city": "Formosa",
        "state": "GO",
        "district": "Setor Bela Vista",
        "street": "Rua 13",
        "zipcode": "73808-780"
    },
    {
        "city": "Formosa",
        "state": "GO",
        "district": "Setor Bela Vista",
        "street": "Rua 16",
        "zipcode": "73808-790"
    },
    {
        "city": "Formosa",
        "state": "GO",
        "district": "Parque Lago",
        "street": "Rua 1",
        "zipcode": "73813-804"
    },
    {
        "city": "Formosa",
        "state": "GO",
        "district": "Parque Lago",
        "street": "Rua 65",
        "zipcode": "73813-812"
    },
    {
        "city": "Formosa",
        "state": "GO",
        "district": "Parque Lago",
        "street": "Rua 64",
        "zipcode": "73813-816"
    },
    {
        "city": "Formosa",
        "state": "GO",
        "district": "Parque Lago",
        "street": "Rua 2",
        "zipcode": "73813-820"
    },
    {
        "city": "Formosa",
        "state": "GO",
        "district": "Parque Lago",
        "street": "Rua 5",
        "zipcode": "73813-832"
    },
    {
        "city": "Formosa",
        "state": "GO",
        "district": "Parque Lago",
        "street": "Rua 6",
        "zipcode": "73813-836"
    },
    {
        "city": "Formosa",
        "state": "GO",
        "district": "Parque Lago",
        "street": "Rua 8",
        "zipcode": "73813-842"
    },
    {
        "city": "Formosa",
        "state": "GO",
        "district": "Parque Lago",
        "street": "Rua 9",
        "zipcode": "73813-844"
    },
    {
        "city": "Formosa",
        "state": "GO",
        "district": "Parque Lago",
        "street": "Rua 41",
        "zipcode": "73813-864"
    },
    {
        "city": "Formosa",
        "state": "GO",
        "district": "Parque Lago",
        "street": "Rua 42",
        "zipcode": "73813-868"
    },
    {
        "city": "Formosa",
        "state": "GO",
        "district": "Parque Lago",
        "street": "Rua 50",
        "zipcode": "73813-872"
    },
    {
        "city": "Formosa",
        "state": "GO",
        "district": "Parque Lago",
        "street": "Alameda dos Sonhos",
        "zipcode": "73813-876"
    },
    {
        "city": "Formosa",
        "state": "GO",
        "district": "Parque Lago",
        "street": "Alameda Esperança",
        "zipcode": "73813-884"
    },
    {
        "city": "Formosa",
        "state": "GO",
        "district": "Parque Laguna II",
        "street": "Avenida Contorno",
        "zipcode": "73814-001"
    },
    {
        "city": "Formosa",
        "state": "GO",
        "district": "Parque Laguna II",
        "street": "Rua Manezinho das Moças",
        "zipcode": "73814-015"
    },
    {
        "city": "Formosa",
        "state": "GO",
        "district": "Parque Laguna II",
        "street": "Rua Waldemar Guimarães",
        "zipcode": "73814-020"
    },
    {
        "city": "Formosa",
        "state": "GO",
        "district": "Parque Laguna II",
        "street": "Rua Albino Abadio de Oliveira",
        "zipcode": "73814-025"
    },
    {
        "city": "Formosa",
        "state": "GO",
        "district": "Parque Lago",
        "street": "Rua 14",
        "zipcode": "73813-858"
    },
    {
        "city": "Formosa",
        "state": "GO",
        "district": "Formosinha",
        "street": "Avenida Ivone Saad",
        "zipcode": "73813-050"
    },
    {
        "city": "Formosa",
        "state": "GO",
        "district": "Parque São Francisco",
        "street": "Rua 19",
        "zipcode": "73815-070"
    },
    {
        "city": "Formosa",
        "state": "GO",
        "district": "Parque São Francisco",
        "street": "Rua 21",
        "zipcode": "73815-080"
    },
    {
        "city": "Formosa",
        "state": "GO",
        "district": "Parque São Francisco",
        "street": "Rua 25",
        "zipcode": "73815-100"
    },
    {
        "city": "Formosa",
        "state": "GO",
        "district": "Parque São Francisco",
        "street": "Rua 2",
        "zipcode": "73815-010"
    },
    {
        "city": "Formosa",
        "state": "GO",
        "district": "Parque São Francisco",
        "street": "Rua 6",
        "zipcode": "73815-030"
    },
    {
        "city": "Formosa",
        "state": "GO",
        "district": "Parque São Francisco",
        "street": "Rua 8",
        "zipcode": "73815-040"
    },
    {
        "city": "Formosa",
        "state": "GO",
        "district": "Rosa Maria",
        "street": "Rua 26",
        "zipcode": "73809-650"
    },
    {
        "city": "Formosa",
        "state": "GO",
        "district": "Rosa Maria",
        "street": "Rua 30",
        "zipcode": "73809-660"
    },
    {
        "city": "Formosa",
        "state": "GO",
        "district": "Rosa Maria",
        "street": "Rua F",
        "zipcode": "73809-665"
    },
    {
        "city": "Formosa",
        "state": "GO",
        "district": "Jardim Califórnia",
        "street": "Rua Topázio",
        "zipcode": "73807-805"
    },
    {
        "city": "Formosa",
        "state": "GO",
        "district": "Jardim Califórnia",
        "street": "Rua Turmalina",
        "zipcode": "73807-815"
    },
    {
        "city": "Formosa",
        "state": "GO",
        "district": "Jardim Califórnia",
        "street": "Rua Ametista",
        "zipcode": "73807-825"
    },
    {
        "city": "Formosa",
        "state": "GO",
        "district": "Conjunto Padre José",
        "street": "Quadra 186A",
        "zipcode": "73809-706"
    },
    {
        "city": "Formosa",
        "state": "GO",
        "district": "Conjunto Padre José",
        "street": "Quadra 44",
        "zipcode": "73809-711"
    },
    {
        "city": "Formosa",
        "state": "GO",
        "district": "Conjunto Padre José",
        "street": "Quadra 45",
        "zipcode": "73809-716"
    },
    {
        "city": "Formosa",
        "state": "GO",
        "district": "Parque Lago",
        "street": "Rua Patativa",
        "zipcode": "73813-793"
    },
    {
        "city": "Formosa",
        "state": "GO",
        "district": "Parque Lago",
        "street": "Rua Seriema",
        "zipcode": "73813-794"
    },
    {
        "city": "Formosa",
        "state": "GO",
        "district": "Parque Laguna II",
        "street": "Rua 6",
        "zipcode": "73814-270"
    },
    {
        "city": "Formosa",
        "state": "GO",
        "district": "Setor Bosque II",
        "street": "Rua 4",
        "zipcode": "73802-275"
    },
    {
        "city": "Formosa",
        "state": "GO",
        "district": "Parque União",
        "street": "Rua 15",
        "zipcode": "73808-515"
    },
    {
        "city": "Formosa",
        "state": "GO",
        "district": "Parque União",
        "street": "Rua P",
        "zipcode": "73808-530"
    },
    {
        "city": "Formosa",
        "state": "GO",
        "district": "Parque União",
        "street": "Rua 17",
        "zipcode": "73808-535"
    },
    {
        "city": "Formosa",
        "state": "GO",
        "district": "Parque União",
        "street": "Rua M",
        "zipcode": "73808-550"
    },
    {
        "city": "Formosa",
        "state": "GO",
        "district": "Formosinha",
        "street": "Rua Augusto de Andrade",
        "zipcode": "73813-030"
    },
    {
        "city": "Formosa",
        "state": "GO",
        "district": "Formosinha",
        "street": "Rua Particular 2",
        "zipcode": "73813-060"
    },
    {
        "city": "Formosa",
        "state": "GO",
        "district": "Formosinha",
        "street": "Rua Sebastião Gontijo",
        "zipcode": "73813-080"
    },
    {
        "city": "Formosa",
        "state": "GO",
        "district": "Formosinha",
        "street": "Rua João Gomes Xavier",
        "zipcode": "73813-110"
    },
    {
        "city": "Formosa",
        "state": "GO",
        "district": "Parque União",
        "street": "Rua R",
        "zipcode": "73808-510"
    },
    {
        "city": "Formosa",
        "state": "GO",
        "district": "Jardim Califórnia",
        "street": "Rua Turquesa",
        "zipcode": "73807-820"
    },
    {
        "city": "Formosa",
        "state": "GO",
        "district": "Parque Lago",
        "street": "Rua Pintassilgo",
        "zipcode": "73813-795"
    },
    {
        "city": "Formosa",
        "state": "GO",
        "district": "Vila Pantanal",
        "street": "Quadra 4",
        "zipcode": "73813-710"
    },
    {
        "city": "Formosa",
        "state": "GO",
        "district": "Formosinha",
        "street": "Rua 8A",
        "zipcode": "73813-140"
    },
    {
        "city": "Formosa",
        "state": "GO",
        "district": "Formosinha",
        "street": "Rua 4A",
        "zipcode": "73813-150"
    },
    {
        "city": "Formosa",
        "state": "GO",
        "district": "Formosinha",
        "street": "Avenida Circular",
        "zipcode": "73813-170"
    },
    {
        "city": "Formosa",
        "state": "GO",
        "district": "Formosinha",
        "street": "Rua São Joaquim",
        "zipcode": "73813-180"
    },
    {
        "city": "Formosa",
        "state": "GO",
        "district": "Formosinha",
        "street": "Rua São Pedro",
        "zipcode": "73813-190"
    },
    {
        "city": "Formosa",
        "state": "GO",
        "district": "Formosinha",
        "street": "Rua 7",
        "zipcode": "73813-420"
    },
    {
        "city": "Formosa",
        "state": "GO",
        "district": "Formosinha",
        "street": "Avenida 2",
        "zipcode": "73813-430"
    },
    {
        "city": "Formosa",
        "state": "GO",
        "district": "Formosinha",
        "street": "Rua Boa Vista",
        "zipcode": "73813-020"
    },
    {
        "city": "Formosa",
        "state": "GO",
        "district": "Parque Laguna II",
        "street": "Rua Jorivê de Melo Álvares",
        "zipcode": "73814-235"
    },
    {
        "city": "Formosa",
        "state": "GO",
        "district": "Parque Laguna II",
        "street": "Rua Gabriel Monteiro Guimarães",
        "zipcode": "73814-240"
    },
    {
        "city": "Formosa",
        "state": "GO",
        "district": "Parque Laguna II",
        "street": "Rua Sílvio Oppa",
        "zipcode": "73814-245"
    },
    {
        "city": "Formosa",
        "state": "GO",
        "district": "Parque Laguna II",
        "street": "Rua José Alvarenga",
        "zipcode": "73814-250"
    },
    {
        "city": "Formosa",
        "state": "GO",
        "district": "Parque Laguna II",
        "street": "Rua Mathias José de Araújo",
        "zipcode": "73814-265"
    },
    {
        "city": "Formosa",
        "state": "GO",
        "district": "Village",
        "street": "Rua A",
        "zipcode": "73814-510"
    },
    {
        "city": "Formosa",
        "state": "GO",
        "district": "Village",
        "street": "Rua da Escola",
        "zipcode": "73814-515"
    },
    {
        "city": "Formosa",
        "state": "GO",
        "district": "Village",
        "street": "Rua B",
        "zipcode": "73814-520"
    },
    {
        "city": "Formosa",
        "state": "GO",
        "district": "Village",
        "street": "Rua D",
        "zipcode": "73814-535"
    },
    {
        "city": "Formosa",
        "state": "GO",
        "district": "Village",
        "street": "Rua E",
        "zipcode": "73814-540"
    },
    {
        "city": "Formosa",
        "state": "GO",
        "district": "Village",
        "street": "Rua F",
        "zipcode": "73814-545"
    },
    {
        "city": "Formosa",
        "state": "GO",
        "district": "Village",
        "street": "Rua G",
        "zipcode": "73814-550"
    },
    {
        "city": "Formosa",
        "state": "GO",
        "district": "Village",
        "street": "Rua I",
        "zipcode": "73814-560"
    },
    {
        "city": "Formosa",
        "state": "GO",
        "district": "Village",
        "street": "Rua J",
        "zipcode": "73814-565"
    },
    {
        "city": "Formosa",
        "state": "GO",
        "district": "Village",
        "street": "Rua K",
        "zipcode": "73814-570"
    },
    {
        "city": "Formosa",
        "state": "GO",
        "district": "Village",
        "street": "Rua L",
        "zipcode": "73814-575"
    },
    {
        "city": "Formosa",
        "state": "GO",
        "district": "Village",
        "street": "Rua O",
        "zipcode": "73814-590"
    },
    {
        "city": "Formosa",
        "state": "GO",
        "district": "Village",
        "street": "Rua P",
        "zipcode": "73814-595"
    },
    {
        "city": "Formosa",
        "state": "GO",
        "district": "Village",
        "street": "Rua Q",
        "zipcode": "73814-597"
    },
    {
        "city": "Formosa",
        "state": "GO",
        "district": "Formosinha",
        "street": "Rua São Judas Tadeu",
        "zipcode": "73813-055"
    },
    {
        "city": "Formosa",
        "state": "GO",
        "district": "Nova Formosa",
        "street": "Via Perimetral",
        "zipcode": "73809-350"
    },
    {
        "city": "Formosa",
        "state": "GO",
        "district": "Nova Formosa",
        "street": "Avenida Parque",
        "zipcode": "73809-375"
    },
    {
        "city": "Formosa",
        "state": "GO",
        "district": "Nova Formosa",
        "street": "Rua 113",
        "zipcode": "73809-265"
    },
    {
        "city": "Formosa",
        "state": "GO",
        "district": "Nova Formosa",
        "street": "Rua 123",
        "zipcode": "73809-300"
    },
    {
        "city": "Formosa",
        "state": "GO",
        "district": "Rosa Maria",
        "street": "Rua 28",
        "zipcode": "73809-655"
    },
    {
        "city": "Formosa",
        "state": "GO",
        "district": "Conjunto Padre José",
        "street": "Quadra 186",
        "zipcode": "73809-701"
    },
    {
        "city": "Formosa",
        "state": "GO",
        "district": "Setor Bela Vista",
        "street": "Rua 12A",
        "zipcode": "73808-862"
    },
    {
        "city": "Formosa",
        "state": "GO",
        "district": "Setor Bela Vista",
        "street": "Rua 4A",
        "zipcode": "73808-880"
    },
    {
        "city": "Formosa",
        "state": "GO",
        "district": "Parque Lago",
        "street": "Avenida João de Barro",
        "zipcode": "73813-772"
    },
    {
        "city": "Formosa",
        "state": "GO",
        "district": "Parque Lago",
        "street": "Rua Jaó",
        "zipcode": "73813-773"
    },
    {
        "city": "Formosa",
        "state": "GO",
        "district": "Parque Lago",
        "street": "Rua Jaçanã",
        "zipcode": "73813-775"
    },
    {
        "city": "Formosa",
        "state": "GO",
        "district": "Parque Lago",
        "street": "Rua Sabiá",
        "zipcode": "73813-781"
    },
    {
        "city": "Formosa",
        "state": "GO",
        "district": "Parque Lago",
        "street": "Rua 28",
        "zipcode": "73813-806"
    },
    {
        "city": "Formosa",
        "state": "GO",
        "district": "Setor Nordeste",
        "street": "Rua Nagib Simão",
        "zipcode": "73807-250"
    },
    {
        "city": "Formosa",
        "state": "GO",
        "district": "Setor Nordeste",
        "street": "Avenida Ferroviária E",
        "zipcode": "73807-330"
    },
    {
        "city": "Formosa",
        "state": "GO",
        "district": "Setor Nordeste",
        "street": "Rua 25",
        "zipcode": "73807-375"
    },
    {
        "city": "Formosa",
        "state": "GO",
        "district": "Parque da Colina II",
        "street": "Rua E",
        "zipcode": "73808-165"
    },
    {
        "city": "Formosa",
        "state": "GO",
        "district": "Formosinha",
        "street": "Rua Benedito Galvão",
        "zipcode": "73813-040"
    },
    {
        "city": "Formosa",
        "state": "GO",
        "district": "Formosinha",
        "street": "Rua Particular 1",
        "zipcode": "73813-070"
    },
    {
        "city": "Formosa",
        "state": "GO",
        "district": "Formosinha",
        "street": "Rua Sebastião Espíndola Ataídes",
        "zipcode": "73813-160"
    },
    {
        "city": "Formosa",
        "state": "GO",
        "district": "Formosinha",
        "street": "Avenida João Ísper Gebrim",
        "zipcode": "73813-210"
    },
    {
        "city": "Formosa",
        "state": "GO",
        "district": "Formosinha",
        "street": "Rua 17",
        "zipcode": "73813-240"
    },
    {
        "city": "Formosa",
        "state": "GO",
        "district": "Formosinha",
        "street": "Avenida Goiás",
        "zipcode": "73813-260"
    },
    {
        "city": "Formosa",
        "state": "GO",
        "district": "Formosinha",
        "street": "Rua 18",
        "zipcode": "73813-280"
    },
    {
        "city": "Formosa",
        "state": "GO",
        "district": "Formosinha",
        "street": "Rua São Benedito",
        "zipcode": "73813-401"
    },
    {
        "city": "Formosa",
        "state": "GO",
        "district": "Formosinha",
        "street": "Rua 13",
        "zipcode": "73813-520"
    },
    {
        "city": "Formosa",
        "state": "GO",
        "district": "Parque Vila Verde",
        "street": "Rua 17",
        "zipcode": "73808-375"
    },
    {
        "city": "Formosa",
        "state": "GO",
        "district": "São Benedito",
        "street": "Rua 2",
        "zipcode": "73813-605"
    },
    {
        "city": "Formosa",
        "state": "GO",
        "district": "Parque Lago",
        "street": "Rua Azulão",
        "zipcode": "73813-789"
    },
    {
        "city": "Formosa",
        "state": "GO",
        "district": "Parque Vila Verde",
        "street": "Rua 4A",
        "zipcode": "73808-410"
    },
    {
        "city": "Formosa",
        "state": "GO",
        "district": "São Benedito",
        "street": "Rua 6",
        "zipcode": "73813-625"
    },
    {
        "city": "Formosa",
        "state": "GO",
        "district": "São Benedito",
        "street": "Rua 9",
        "zipcode": "73813-640"
    },
    {
        "city": "Formosa",
        "state": "GO",
        "district": "Parque Lago",
        "street": "Avenida Central",
        "zipcode": "73813-801"
    },
    {
        "city": "Formosa",
        "state": "GO",
        "district": "Setor Bela Vista",
        "street": "Rua I",
        "zipcode": "73808-830"
    },
    {
        "city": "Formosa",
        "state": "GO",
        "district": "Parque Lago",
        "street": "Rua 4",
        "zipcode": "73813-828"
    },
    {
        "city": "Formosa",
        "state": "GO",
        "district": "Parque Laguna II",
        "street": "Rua Moacyr Pereira Dutra",
        "zipcode": "73814-115"
    },
    {
        "city": "Formosa",
        "state": "GO",
        "district": "Parque Lago",
        "street": "Rua 11",
        "zipcode": "73813-852"
    },
    {
        "city": "Formosa",
        "state": "GO",
        "district": "Parque Lago",
        "street": "Rua 13",
        "zipcode": "73813-860"
    },
    {
        "city": "Formosa",
        "state": "GO",
        "district": "Parque Laguna II",
        "street": "Rua Sebastião Spindola de Athaide",
        "zipcode": "73814-165"
    },
    {
        "city": "Formosa",
        "state": "GO",
        "district": "Parque Laguna II",
        "street": "Rua Francisco Monteiro Guimarães",
        "zipcode": "73814-170"
    },
    {
        "city": "Formosa",
        "state": "GO",
        "district": "Parque Lago",
        "street": "Alameda Boa Ventura",
        "zipcode": "73813-880"
    },
    {
        "city": "Formosa",
        "state": "GO",
        "district": "Parque Laguna II",
        "street": "Rua Celso Caldeira Nunes",
        "zipcode": "73814-180"
    },
    {
        "city": "Formosa",
        "state": "GO",
        "district": "Parque Laguna II",
        "street": "Avenida Antônio Guimarães",
        "zipcode": "73814-185"
    },
    {
        "city": "Formosa",
        "state": "GO",
        "district": "Parque Laguna II",
        "street": "Rua Luís Francisco de Sousa",
        "zipcode": "73814-190"
    },
    {
        "city": "Formosa",
        "state": "GO",
        "district": "Parque Laguna II",
        "street": "Rua Kalil Nessrrala",
        "zipcode": "73814-195"
    },
    {
        "city": "Formosa",
        "state": "GO",
        "district": "Parque Laguna II",
        "street": "Rua Eduardo Nunes Martins",
        "zipcode": "73814-205"
    },
    {
        "city": "Formosa",
        "state": "GO",
        "district": "Parque Laguna II",
        "street": "Rua Nenén Barreto",
        "zipcode": "73814-210"
    },
    {
        "city": "Formosa",
        "state": "GO",
        "district": "Parque Laguna II",
        "street": "Rua Antônio Jonas de Castro",
        "zipcode": "73814-035"
    },
    {
        "city": "Formosa",
        "state": "GO",
        "district": "Parque Laguna II",
        "street": "Rua Joaquim Nunes Caldeira",
        "zipcode": "73814-220"
    },
    {
        "city": "Formosa",
        "state": "GO",
        "district": "Parque Laguna II",
        "street": "Rua Manoel Abadia de Moura Telles",
        "zipcode": "73814-225"
    },
    {
        "city": "Formosa",
        "state": "GO",
        "district": "Parque Laguna II",
        "street": "Rua Helvécio Oppa",
        "zipcode": "73814-230"
    },
    {
        "city": "Formosa",
        "state": "GO",
        "district": "Parque Laguna II",
        "street": "Rua João da Costa Pinto",
        "zipcode": "73814-075"
    },
    {
        "city": "Formosa",
        "state": "GO",
        "district": "Residencial Jardim Planalto",
        "street": "Rua do Limoeiro",
        "zipcode": "73809-020"
    },
    {
        "city": "Formosa",
        "state": "GO",
        "district": "Abreu",
        "street": "Rua José Malheiros",
        "zipcode": "73803-010"
    },
    {
        "city": "Formosa",
        "state": "GO",
        "district": "Parque da Colina I",
        "street": "Avenida Senador Coimbra Bueno",
        "zipcode": "73808-044"
    },
    {
        "city": "Formosa",
        "state": "GO",
        "district": "Chácaras do Abreu",
        "street": "Rua Leonel Campos",
        "zipcode": "73804-120"
    },
    {
        "city": "Formosa",
        "state": "GO",
        "district": "Parque Lago",
        "street": "Rua Canário",
        "zipcode": "73813-774"
    },
    {
        "city": "Formosa",
        "state": "GO",
        "district": "Parque Lago",
        "street": "Rua Rouxinol",
        "zipcode": "73813-778"
    },
    {
        "city": "Formosa",
        "state": "GO",
        "district": "Sul América",
        "street": "Via 3",
        "zipcode": "73803-511"
    },
    {
        "city": "Formosa",
        "state": "GO",
        "district": "Jardim Triângulo",
        "street": "Avenida Senador Coimbra Bueno",
        "zipcode": "73808-294"
    },
    {
        "city": "Formosa",
        "state": "GO",
        "district": "Setor Sul",
        "street": "Via 19",
        "zipcode": "73802-452"
    },
    {
        "city": "Formosa",
        "state": "GO",
        "district": "Jardim Califórnia",
        "street": "Rua Ludovico de Almeida",
        "zipcode": "73807-770"
    },
    {
        "city": "Formosa",
        "state": "GO",
        "district": "Centro",
        "street": "Rua Joaquim Honório Pereira Dutra",
        "zipcode": "73801-040"
    },
    {
        "city": "Formosa",
        "state": "GO",
        "district": "Centro",
        "street": "Rua Honório Lobo",
        "zipcode": "73801-450"
    },
    {
        "city": "Formosa",
        "state": "GO",
        "district": "Parque Lago",
        "street": "Rua Perdiz",
        "zipcode": "73813-784"
    },
    {
        "city": "Formosa",
        "state": "GO",
        "district": "Parque Lago",
        "street": "Rua Marreco",
        "zipcode": "73813-788"
    },
    {
        "city": "Formosa",
        "state": "GO",
        "district": "Parque Lago",
        "street": "Rua Andorinha",
        "zipcode": "73813-780"
    },
    {
        "city": "Formosa",
        "state": "GO",
        "district": "São Vicente",
        "street": "Rua Vicentina",
        "zipcode": "73802-160"
    },
    {
        "city": "Formosa",
        "state": "GO",
        "district": "Setor Bosque II",
        "street": "Rua 12",
        "zipcode": "73802-260"
    },
    {
        "city": "Formosa",
        "state": "GO",
        "district": "Jardim das Américas",
        "street": "Avenida Circular",
        "zipcode": "73803-301"
    },
    {
        "city": "Formosa",
        "state": "GO",
        "district": "Jardim Oliveira",
        "street": "Avenida Circular",
        "zipcode": "73805-207"
    },
    {
        "city": "Formosa",
        "state": "GO",
        "district": "Jardim Oliveira",
        "street": "Rua 11",
        "zipcode": "73805-210"
    },
    {
        "city": "Formosa",
        "state": "GO",
        "district": "Setor Imperatriz",
        "street": "Avenida SHIS",
        "zipcode": "73805-405"
    },
    {
        "city": "Formosa",
        "state": "GO",
        "district": "Vila Santos",
        "street": "Avenida Circular",
        "zipcode": "73805-535"
    },
    {
        "city": "Formosa",
        "state": "GO",
        "district": "Parque das Laranjeiras",
        "street": "Rua 19",
        "zipcode": "73805-765"
    },
    {
        "city": "Formosa",
        "state": "GO",
        "district": "Vila Bela",
        "street": "Rua C",
        "zipcode": "73807-075"
    },
    {
        "city": "Formosa",
        "state": "GO",
        "district": "Vila Aurora",
        "street": "Rua 3",
        "zipcode": "73807-507"
    },
    {
        "city": "Formosa",
        "state": "GO",
        "district": "Vila Aurora",
        "street": "Rua 3 (Próximo ao Córrego)",
        "zipcode": "73807-522"
    },
    {
        "city": "Formosa",
        "state": "GO",
        "district": "Vila Aurora",
        "street": "Rua Clarindo Vieira",
        "zipcode": "73807-532"
    },
    {
        "city": "Formosa",
        "state": "GO",
        "district": "Jardim Califórnia",
        "street": "Rua Eduardo José de Paiva",
        "zipcode": "73807-620"
    },
    {
        "city": "Formosa",
        "state": "GO",
        "district": "Jardim Califórnia",
        "street": "Rua Leopoldo Bulhões",
        "zipcode": "73807-665"
    },
    {
        "city": "Formosa",
        "state": "GO",
        "district": "Jardim Califórnia",
        "street": "Rua da Passagem",
        "zipcode": "73807-755"
    },
    {
        "city": "Formosa",
        "state": "GO",
        "district": "Parque da Colina I",
        "street": "Rua 4",
        "zipcode": "73808-012"
    },
    {
        "city": "Formosa",
        "state": "GO",
        "district": "Parque da Colina I",
        "street": "Rua 8",
        "zipcode": "73808-028"
    },
    {
        "city": "Formosa",
        "state": "GO",
        "district": "Parque da Colina I",
        "street": "Rua F",
        "zipcode": "73808-080"
    },
    {
        "city": "Formosa",
        "state": "GO",
        "district": "Parque da Colina II",
        "street": "Rua O",
        "zipcode": "73808-105"
    },
    {
        "city": "Formosa",
        "state": "GO",
        "district": "Parque da Colina II",
        "street": "Rua 13",
        "zipcode": "73808-120"
    },
    {
        "city": "Formosa",
        "state": "GO",
        "district": "Parque da Colina II",
        "street": "Rua 15",
        "zipcode": "73808-140"
    },
    {
        "city": "Formosa",
        "state": "GO",
        "district": "Parque da Colina II",
        "street": "Rua D",
        "zipcode": "73808-185"
    },
    {
        "city": "Formosa",
        "state": "GO",
        "district": "Jardim Triângulo",
        "street": "Rua 7",
        "zipcode": "73808-220"
    },
    {
        "city": "Formosa",
        "state": "GO",
        "district": "Jardim Triângulo",
        "street": "Rua C",
        "zipcode": "73808-236"
    },
    {
        "city": "Formosa",
        "state": "GO",
        "district": "Jardim Triângulo",
        "street": "Rua T",
        "zipcode": "73808-268"
    },
    {
        "city": "Formosa",
        "state": "GO",
        "district": "Parque Vila Verde",
        "street": "Rua 24",
        "zipcode": "73808-445"
    },
    {
        "city": "Formosa",
        "state": "GO",
        "district": "Parque Vila Verde",
        "street": "Rua 25",
        "zipcode": "73808-465"
    },
    {
        "city": "Formosa",
        "state": "GO",
        "district": "Parque União",
        "street": "Rua 14",
        "zipcode": "73808-505"
    },
    {
        "city": "Formosa",
        "state": "GO",
        "district": "Parque União",
        "street": "Rua 16",
        "zipcode": "73808-525"
    },
    {
        "city": "Formosa",
        "state": "GO",
        "district": "Jardim Triângulo",
        "street": "Rua 8",
        "zipcode": "73808-288"
    },
    {
        "city": "Formosa",
        "state": "GO",
        "district": "Parque Vila Verde",
        "street": "Rua 13",
        "zipcode": "73808-305"
    },
    {
        "city": "Formosa",
        "state": "GO",
        "district": "Parque Vila Verde",
        "street": "Rua 7",
        "zipcode": "73808-340"
    },
    {
        "city": "Formosa",
        "state": "GO",
        "district": "Parque Vila Verde",
        "street": "Avenida Perimetral",
        "zipcode": "73808-365"
    },
    {
        "city": "Formosa",
        "state": "GO",
        "district": "Parque Vila Verde",
        "street": "Rua 16",
        "zipcode": "73808-370"
    },
    {
        "city": "Formosa",
        "state": "GO",
        "district": "Parque Vila Verde",
        "street": "Rua 18",
        "zipcode": "73808-380"
    },
    {
        "city": "Formosa",
        "state": "GO",
        "district": "Parque Vila Verde",
        "street": "Rua 22 A",
        "zipcode": "73808-425"
    },
    {
        "city": "Formosa",
        "state": "GO",
        "district": "Setor Bela Vista",
        "street": "Rua 4",
        "zipcode": "73808-730"
    },
    {
        "city": "Formosa",
        "state": "GO",
        "district": "Setor Bela Vista",
        "street": "Rua 7A",
        "zipcode": "73808-750"
    },
    {
        "city": "Formosa",
        "state": "GO",
        "district": "Setor Bela Vista",
        "street": "Rua 10",
        "zipcode": "73808-765"
    },
    {
        "city": "Formosa",
        "state": "GO",
        "district": "Setor Bela Vista",
        "street": "Rua 12",
        "zipcode": "73808-775"
    },
    {
        "city": "Formosa",
        "state": "GO",
        "district": "Setor Bela Vista",
        "street": "Avenida A",
        "zipcode": "73808-795"
    },
    {
        "city": "Formosa",
        "state": "GO",
        "district": "Jardim Califórnia",
        "street": "Rua Vicente Carvalho",
        "zipcode": "73807-733"
    },
    {
        "city": "Formosa",
        "state": "GO",
        "district": "Chácaras do Abreu",
        "street": "Via 3",
        "zipcode": "73804-020"
    },
    {
        "city": "Formosa",
        "state": "GO",
        "district": "Chácaras do Abreu",
        "street": "Via 7",
        "zipcode": "73804-040"
    },
    {
        "city": "Formosa",
        "state": "GO",
        "district": "Chácaras do Abreu",
        "street": "Via 15",
        "zipcode": "73804-080"
    },
    {
        "city": "Formosa",
        "state": "GO",
        "district": "Chácaras do Abreu",
        "street": "Rua Deodato",
        "zipcode": "73804-125"
    },
    {
        "city": "Formosa",
        "state": "GO",
        "district": "Chácaras do Abreu",
        "street": "Rua Dona Clarinda",
        "zipcode": "73804-100"
    },
    {
        "city": "Formosa",
        "state": "GO",
        "district": "Parque Serrano",
        "street": "Rua 2",
        "zipcode": "73804-560"
    },
    {
        "city": "Formosa",
        "state": "GO",
        "district": "Parque Serrano",
        "street": "Rua 9",
        "zipcode": "73804-595"
    },
    {
        "city": "Formosa",
        "state": "GO",
        "district": "Residencial Santa Rosa",
        "street": "Rua São Paulo",
        "zipcode": "73803-648"
    },
    {
        "city": "Formosa",
        "state": "GO",
        "district": "Setor Nordeste",
        "street": "Rua Buritís",
        "zipcode": "73807-411"
    },
    {
        "city": "Formosa",
        "state": "GO",
        "district": "Setor Nordeste",
        "street": "Travessa Buritís",
        "zipcode": "73807-412"
    },
    {
        "city": "Formosa",
        "state": "GO",
        "district": "Residencial Santa Rosa",
        "street": "Rua Dona Clarinda",
        "zipcode": "73803-658"
    },
    {
        "city": "Formosa",
        "state": "GO",
        "district": "Setor Ferroviário",
        "street": "Rua 9",
        "zipcode": "73805-020"
    },
    {
        "city": "Formosa",
        "state": "GO",
        "district": "Setor Ferroviário",
        "street": "Rua 10",
        "zipcode": "73805-070"
    },
    {
        "city": "Formosa",
        "state": "GO",
        "district": "Setor Primavera",
        "street": "Rua 12",
        "zipcode": "73805-120"
    },
    {
        "city": "Formosa",
        "state": "GO",
        "district": "Setor Primavera",
        "street": "Rua 4",
        "zipcode": "73805-140"
    },
    {
        "city": "Formosa",
        "state": "GO",
        "district": "Setor Primavera",
        "street": "Rua 3",
        "zipcode": "73805-160"
    },
    {
        "city": "Formosa",
        "state": "GO",
        "district": "Setor Primavera",
        "street": "Avenida DERGO",
        "zipcode": "73805-180"
    },
    {
        "city": "Formosa",
        "state": "GO",
        "district": "Jardim Oliveira",
        "street": "Avenida D",
        "zipcode": "73805-204"
    },
    {
        "city": "Formosa",
        "state": "GO",
        "district": "Jardim Oliveira",
        "street": "Rua 17",
        "zipcode": "73805-219"
    },
    {
        "city": "Formosa",
        "state": "GO",
        "district": "Jardim Oliveira",
        "street": "Rua 18",
        "zipcode": "73805-241"
    },
    {
        "city": "Formosa",
        "state": "GO",
        "district": "Jardim Oliveira",
        "street": "Rua 4",
        "zipcode": "73805-250"
    },
    {
        "city": "Formosa",
        "state": "GO",
        "district": "Jardim Oliveira",
        "street": "Avenida A",
        "zipcode": "73805-259"
    },
    {
        "city": "Formosa",
        "state": "GO",
        "district": "Jardim Oliveira",
        "street": "Rua 14",
        "zipcode": "73805-271"
    },
    {
        "city": "Formosa",
        "state": "GO",
        "district": "Jardim Oliveira",
        "street": "Avenida C",
        "zipcode": "73805-283"
    },
    {
        "city": "Formosa",
        "state": "GO",
        "district": "Setor Pampulha",
        "street": "Rua Brasília",
        "zipcode": "73805-320"
    },
    {
        "city": "Formosa",
        "state": "GO",
        "district": "Setor Pampulha",
        "street": "Rua Presidente Vargas",
        "zipcode": "73805-340"
    },
    {
        "city": "Formosa",
        "state": "GO",
        "district": "Setor Pampulha",
        "street": "Avenida Arthur Bernardes",
        "zipcode": "73805-360"
    },
    {
        "city": "Formosa",
        "state": "GO",
        "district": "Setor Pampulha",
        "street": "Rua Jacinto Borba",
        "zipcode": "73805-380"
    },
    {
        "city": "Formosa",
        "state": "GO",
        "district": "Setor Imperatriz",
        "street": "Rua C",
        "zipcode": "73805-460"
    },
    {
        "city": "Formosa",
        "state": "GO",
        "district": "Vila Santos",
        "street": "Rua 7",
        "zipcode": "73805-525"
    },
    {
        "city": "Formosa",
        "state": "GO",
        "district": "Vila Santos",
        "street": "Rua Primavera",
        "zipcode": "73805-550"
    },
    {
        "city": "Formosa",
        "state": "GO",
        "district": "Vila Santos",
        "street": "Rua 2",
        "zipcode": "73805-560"
    },
    {
        "city": "Formosa",
        "state": "GO",
        "district": "Parque das Laranjeiras",
        "street": "Travessa A",
        "zipcode": "73805-620"
    },
    {
        "city": "Formosa",
        "state": "GO",
        "district": "Parque das Laranjeiras",
        "street": "Travessa D",
        "zipcode": "73805-670"
    },
    {
        "city": "Formosa",
        "state": "GO",
        "district": "Parque das Laranjeiras",
        "street": "Avenida 2",
        "zipcode": "73805-690"
    },
    {
        "city": "Formosa",
        "state": "GO",
        "district": "Parque das Laranjeiras",
        "street": "Travessa F",
        "zipcode": "73805-695"
    },
    {
        "city": "Formosa",
        "state": "GO",
        "district": "Setor Industrial II",
        "street": "Avenida das Américas",
        "zipcode": "73803-135"
    },
    {
        "city": "Formosa",
        "state": "GO",
        "district": "Vila Pantanal",
        "street": "Quadra 2",
        "zipcode": "73813-720"
    },
    {
        "city": "Formosa",
        "state": "GO",
        "district": "Jardim Califórnia",
        "street": "Rua Catini",
        "zipcode": "73807-678"
    },
    {
        "city": "Formosa",
        "state": "GO",
        "district": "Parque das Laranjeiras",
        "street": "Travessa I",
        "zipcode": "73805-740"
    },
    {
        "city": "Formosa",
        "state": "GO",
        "district": "Parque das Laranjeiras",
        "street": "Rua 18",
        "zipcode": "73805-760"
    },
    {
        "city": "Formosa",
        "state": "GO",
        "district": "Parque das Laranjeiras",
        "street": "Travessa L",
        "zipcode": "73805-785"
    },
    {
        "city": "Formosa",
        "state": "GO",
        "district": "Vista Alegre",
        "street": "Rua Particular",
        "zipcode": "73805-805"
    },
    {
        "city": "Formosa",
        "state": "GO",
        "district": "Vista Alegre",
        "street": "Rua 8",
        "zipcode": "73805-840"
    },
    {
        "city": "Formosa",
        "state": "GO",
        "district": "Vista Alegre",
        "street": "Rua Santa Rosa",
        "zipcode": "73805-845"
    },
    {
        "city": "Formosa",
        "state": "GO",
        "district": "Vila Lorena",
        "street": "Rua 6",
        "zipcode": "73805-865"
    },
    {
        "city": "Formosa",
        "state": "GO",
        "district": "Vila Lorena",
        "street": "Rua 5",
        "zipcode": "73805-870"
    },
    {
        "city": "Formosa",
        "state": "GO",
        "district": "Vila Lorena",
        "street": "Rua 3",
        "zipcode": "73805-885"
    },
    {
        "city": "Formosa",
        "state": "GO",
        "district": "Setor Nordeste",
        "street": "Rua Tocantins",
        "zipcode": "73807-135"
    },
    {
        "city": "Formosa",
        "state": "GO",
        "district": "Setor Nordeste",
        "street": "Rua São Pedro",
        "zipcode": "73807-160"
    },
    {
        "city": "Formosa",
        "state": "GO",
        "district": "Setor Nordeste",
        "street": "Rua 2 (Travessa da Visconde)",
        "zipcode": "73807-230"
    },
    {
        "city": "Formosa",
        "state": "GO",
        "district": "Village",
        "street": "Avenida Lagoa",
        "zipcode": "73814-505"
    },
    {
        "city": "Formosa",
        "state": "GO",
        "district": "Setor Nordeste",
        "street": "Rua Santa Teresinha",
        "zipcode": "73807-245"
    },
    {
        "city": "Formosa",
        "state": "GO",
        "district": "Setor Nordeste",
        "street": "Rua Padre Thiago",
        "zipcode": "73807-270"
    },
    {
        "city": "Formosa",
        "state": "GO",
        "district": "Setor Nordeste",
        "street": "Rua 17",
        "zipcode": "73807-280"
    },
    {
        "city": "Formosa",
        "state": "GO",
        "district": "Setor Nordeste",
        "street": "Rua 8",
        "zipcode": "73807-315"
    },
    {
        "city": "Formosa",
        "state": "GO",
        "district": "Setor Nordeste",
        "street": "Rua São Francisco",
        "zipcode": "73807-360"
    },
    {
        "city": "Formosa",
        "state": "GO",
        "district": "Setor Nordeste",
        "street": "Rua 4",
        "zipcode": "73807-395"
    },
    {
        "city": "Formosa",
        "state": "GO",
        "district": "Setor Nordeste",
        "street": "Rua 1 (Divisa com o Parque da Colina)",
        "zipcode": "73807-405"
    },
    {
        "city": "Formosa",
        "state": "GO",
        "district": "Jardim Califórnia",
        "street": "Rua Dom Víctor",
        "zipcode": "73807-690"
    },
    {
        "city": "Formosa",
        "state": "GO",
        "district": "Formosinha",
        "street": "Travessa Industrial",
        "zipcode": "73813-015"
    },
    {
        "city": "Formosa",
        "state": "GO",
        "district": "Centro",
        "street": "Avenida Califórnia",
        "zipcode": "73801-160"
    },
    {
        "city": "Formosa",
        "state": "GO",
        "district": "Centro",
        "street": "Rua Manoel Alves Ferreira",
        "zipcode": "73801-250"
    },
    {
        "city": "Formosa",
        "state": "GO",
        "district": "Centro",
        "street": "Avenida Ângelo Chaves",
        "zipcode": "73801-290"
    },
    {
        "city": "Formosa",
        "state": "GO",
        "district": "Setor Ferroviário",
        "street": "Avenida Posto Agropecuário",
        "zipcode": "73805-055"
    },
    {
        "city": "Formosa",
        "state": "GO",
        "district": "Parque São Francisco",
        "street": "Rua 27",
        "zipcode": "73815-110"
    },
    {
        "city": "Formosa",
        "state": "GO",
        "district": "Parque São Francisco",
        "street": "Rua 37",
        "zipcode": "73815-160"
    },
    {
        "city": "Formosa",
        "state": "GO",
        "district": "Parque São Francisco",
        "street": "Rua 41",
        "zipcode": "73815-180"
    },
    {
        "city": "Formosa",
        "state": "GO",
        "district": "Parque São Francisco",
        "street": "Rua 43",
        "zipcode": "73815-190"
    },
    {
        "city": "Formosa",
        "state": "GO",
        "district": "Parque São Francisco",
        "street": "Rua 15",
        "zipcode": "73815-050"
    },
    {
        "city": "Formosa",
        "state": "GO",
        "district": "Setor Industrial II",
        "street": "Rua 1 (Vila Santa Bárbara)",
        "zipcode": "73803-167"
    },
    {
        "city": "Formosa",
        "state": "GO",
        "district": "Sul América",
        "street": "Rua 4",
        "zipcode": "73803-501"
    },
    {
        "city": "Formosa",
        "state": "GO",
        "district": "Sul América",
        "street": "Via 11",
        "zipcode": "73803-506"
    },
    {
        "city": "Formosa",
        "state": "GO",
        "district": "Setor Sul",
        "street": "Rua Pirapora",
        "zipcode": "73802-464"
    },
    {
        "city": "Formosa",
        "state": "GO",
        "district": "Vila Iara",
        "street": "Rua Eduardo Gomes",
        "zipcode": "73803-072"
    },
    {
        "city": "Formosa",
        "state": "GO",
        "district": "Setor Nordeste",
        "street": "Avenida Universitária",
        "zipcode": "73807-346"
    },
    {
        "city": "Formosa",
        "state": "GO",
        "district": "Setor Sul",
        "street": "Avenida Tancredo Neves",
        "zipcode": "73802-900"
    },
    {
        "city": "Formosa",
        "state": "GO",
        "district": "Centro",
        "street": "Rua Jesulino Malheiros",
        "zipcode": "73801-190"
    },
    {
        "city": "Formosa",
        "state": "GO",
        "district": "Centro",
        "street": "Rua Maestro Antônio Branco",
        "zipcode": "73801-330"
    },
    {
        "city": "Formosa",
        "state": "GO",
        "district": "Centro",
        "street": "Rua do Observatório",
        "zipcode": "73801-370"
    },
    {
        "city": "Formosa",
        "state": "GO",
        "district": "Centro",
        "street": "Rua Severiano Batista de Oliveira",
        "zipcode": "73801-420"
    },
    {
        "city": "Formosa",
        "state": "GO",
        "district": "Centro",
        "street": "Rua Santa Luzia",
        "zipcode": "73801-440"
    },
    {
        "city": "Formosa",
        "state": "GO",
        "district": "Centro",
        "street": "Rua Modesto de Melo",
        "zipcode": "73801-530"
    },
    {
        "city": "Formosa",
        "state": "GO",
        "district": "Centro",
        "street": "Rua Trajano Dutra",
        "zipcode": "73801-560"
    },
    {
        "city": "Formosa",
        "state": "GO",
        "district": "Centro",
        "street": "Rua 12 de Outubro",
        "zipcode": "73801-590"
    },
    {
        "city": "Formosa",
        "state": "GO",
        "district": "Centro",
        "street": "Praça do Mercado",
        "zipcode": "73801-620"
    },
    {
        "city": "Formosa",
        "state": "GO",
        "district": "Setor Bosque",
        "street": "Avenida Tancredo Neves",
        "zipcode": "73802-005"
    },
    {
        "city": "Formosa",
        "state": "GO",
        "district": "Setor Bosque",
        "street": "Rua 28",
        "zipcode": "73802-035"
    },
    {
        "city": "Formosa",
        "state": "GO",
        "district": "Setor Bosque",
        "street": "Travessa 28",
        "zipcode": "73802-060"
    },
    {
        "city": "Formosa",
        "state": "GO",
        "district": "Setor Bosque",
        "street": "Rua 35",
        "zipcode": "73802-075"
    },
    {
        "city": "Formosa",
        "state": "GO",
        "district": "São Vicente",
        "street": "Rua 7",
        "zipcode": "73802-130"
    },
    {
        "city": "Formosa",
        "state": "GO",
        "district": "São Vicente",
        "street": "Rua 10",
        "zipcode": "73802-150"
    },
    {
        "city": "Formosa",
        "state": "GO",
        "district": "São Vicente",
        "street": "Rua 22",
        "zipcode": "73802-170"
    },
    {
        "city": "Formosa",
        "state": "GO",
        "district": "Setor Bosque II",
        "street": "Rua C",
        "zipcode": "73802-210"
    },
    {
        "city": "Formosa",
        "state": "GO",
        "district": "Setor Bosque II",
        "street": "Rua 31",
        "zipcode": "73802-240"
    },
    {
        "city": "Formosa",
        "state": "GO",
        "district": "Setor Bosque II",
        "street": "Rua 11",
        "zipcode": "73802-255"
    },
    {
        "city": "Formosa",
        "state": "GO",
        "district": "Setor Bosque II",
        "street": "Rua 17",
        "zipcode": "73802-290"
    },
    {
        "city": "Formosa",
        "state": "GO",
        "district": "Setor Sul",
        "street": "Via 13",
        "zipcode": "73802-419"
    },
    {
        "city": "Formosa",
        "state": "GO",
        "district": "Setor Sul",
        "street": "Via 20",
        "zipcode": "73802-430"
    },
    {
        "city": "Formosa",
        "state": "GO",
        "district": "Setor Sul",
        "street": "Via 18",
        "zipcode": "73802-433"
    },
    {
        "city": "Formosa",
        "state": "GO",
        "district": "Setor Sul",
        "street": "Via 10",
        "zipcode": "73802-445"
    },
    {
        "city": "Formosa",
        "state": "GO",
        "district": "Setor Sul",
        "street": "Via 9",
        "zipcode": "73802-451"
    },
    {
        "city": "Formosa",
        "state": "GO",
        "district": "Setor Sul",
        "street": "Via 6",
        "zipcode": "73802-454"
    },
    {
        "city": "Formosa",
        "state": "GO",
        "district": "Setor Sul",
        "street": "Via 1",
        "zipcode": "73802-471"
    },
    {
        "city": "Formosa",
        "state": "GO",
        "district": "Setor Sul",
        "street": "Rua Particular",
        "zipcode": "73802-486"
    },
    {
        "city": "Formosa",
        "state": "GO",
        "district": "Abreu",
        "street": "Travessa do Abreu",
        "zipcode": "73803-030"
    },
    {
        "city": "Formosa",
        "state": "GO",
        "district": "Abreu",
        "street": "Rua Ademar de Barros",
        "zipcode": "73803-050"
    },
    {
        "city": "Formosa",
        "state": "GO",
        "district": "Setor Industrial II",
        "street": "Rua 5",
        "zipcode": "73803-120"
    },
    {
        "city": "Formosa",
        "state": "GO",
        "district": "Setor Industrial II",
        "street": "Rua 4",
        "zipcode": "73803-145"
    },
    {
        "city": "Formosa",
        "state": "GO",
        "district": "Vila Carolina",
        "street": "Rua 4",
        "zipcode": "73803-245"
    },
    {
        "city": "Formosa",
        "state": "GO",
        "district": "Jardim das Américas",
        "street": "Rua Bolívia",
        "zipcode": "73803-316"
    },
    {
        "city": "Formosa",
        "state": "GO",
        "district": "Jardim das Américas",
        "street": "Rua Chile",
        "zipcode": "73803-332"
    },
    {
        "city": "Formosa",
        "state": "GO",
        "district": "Vila Pantanal",
        "street": "Rua 91",
        "zipcode": "73813-760"
    },
    {
        "city": "Formosa",
        "state": "GO",
        "district": "Village",
        "street": "Rua M",
        "zipcode": "73814-580"
    },
    {
        "city": "Formosa",
        "state": "GO",
        "district": "Village",
        "street": "Rua N",
        "zipcode": "73814-585"
    },
    {
        "city": "Formosa",
        "state": "GO",
        "district": "Parque Vila Verde",
        "street": "Avenida L",
        "zipcode": "73808-478"
    },
    {
        "city": "Formosa",
        "state": "GO",
        "district": "Parque Vila Verde",
        "street": "Rua 10C",
        "zipcode": "73808-477"
    },
    {
        "city": "Formosa",
        "state": "GO",
        "district": "Parque Vila Verde",
        "street": "Rua 10B",
        "zipcode": "73808-476"
    },
    {
        "city": "Formosa",
        "state": "GO",
        "district": "Parque Vila Verde",
        "street": "Rua 6B",
        "zipcode": "73808-456"
    },
    {
        "city": "Formosa",
        "state": "GO",
        "district": "Parque Vila Verde",
        "street": "Rua 5A",
        "zipcode": "73808-351"
    },
    {
        "city": "Formosa",
        "state": "GO",
        "district": "Parque São Francisco",
        "street": "Rua 45",
        "zipcode": "73815-193"
    },
    {
        "city": "Formosa",
        "state": "GO",
        "district": "Residencial Jardim Planalto",
        "street": "Rua Araçá",
        "zipcode": "73809-032"
    },
    {
        "city": "Formosa",
        "state": "GO",
        "district": "Residencial Jardim Planalto",
        "street": "Rua Sucupira",
        "zipcode": "73809-026"
    },
    {
        "city": "Formosa",
        "state": "GO",
        "district": "Residencial Jardim Planalto",
        "street": "Rua Bogainville",
        "zipcode": "73809-016"
    },
    {
        "city": "Formosa",
        "state": "GO",
        "district": "Residencial Jardim Planalto",
        "street": "Avenida Flamboyant",
        "zipcode": "73809-010"
    },
    {
        "city": "Formosa",
        "state": "GO",
        "district": "Parque São Francisco",
        "street": "Rodovia BR",
        "zipcode": "73815-035"
    },
    {
        "city": "Formosa",
        "state": "GO",
        "district": "Residencial Jardim Planalto",
        "street": "Rua Jatobá",
        "zipcode": "73809-030"
    },
    {
        "city": "Formosa",
        "state": "GO",
        "district": "Parque das Laranjeiras",
        "street": "Travessa 9",
        "zipcode": "73805-686"
    },
    {
        "city": "Formosa",
        "state": "GO",
        "district": "Iris Village",
        "street": "Rua Ibraim Jorge",
        "zipcode": "73803-278"
    },
    {
        "city": "Formosa",
        "state": "GO",
        "district": "Iris Village",
        "street": "Rua Gabriel Guimarães",
        "zipcode": "73803-275"
    },
    {
        "city": "Formosa",
        "state": "GO",
        "district": "Iris Village",
        "street": "Rua Rachid Saad",
        "zipcode": "73803-272"
    },
    {
        "city": "Formosa",
        "state": "GO",
        "district": "Iris Village",
        "street": "Rua Borges Teixeira",
        "zipcode": "73803-266"
    },
    {
        "city": "Formosa",
        "state": "GO",
        "district": "Iris Village",
        "street": "Rua Anapólis",
        "zipcode": "73803-263"
    },
    {
        "city": "Formosa",
        "state": "GO",
        "district": "Iris Village",
        "street": "Rua Dona Clarinda",
        "zipcode": "73803-260"
    },
    {
        "city": "Formosa",
        "state": "GO",
        "district": "Jardim das Américas",
        "street": "Praça dos Pirineus",
        "zipcode": "73803-360"
    },
    {
        "city": "Formosa",
        "state": "GO",
        "district": "Setor Bosque II",
        "street": "Rua 3",
        "zipcode": "73802-274"
    },
    {
        "city": "Formosa",
        "state": "GO",
        "district": "Parque Laguna II",
        "street": "Rodovia BR",
        "zipcode": "73814-003"
    },
    {
        "city": "Formosa",
        "state": "GO",
        "district": "Parque Lago",
        "street": "Rodovia BR",
        "zipcode": "73813-888"
    },
    {
        "city": "Formosa",
        "state": "GO",
        "district": "Residencial Jardim Planalto",
        "street": "Rua Baru",
        "zipcode": "73809-006"
    },
    {
        "city": "Formosa",
        "state": "GO",
        "district": "Residencial Jardim Planalto",
        "street": "Rua Ingá",
        "zipcode": "73809-004"
    },
    {
        "city": "Formosa",
        "state": "GO",
        "district": "Residencial Jardim Planalto",
        "street": "Rua Bela Vista",
        "zipcode": "73809-000"
    },
    {
        "city": "Formosa",
        "state": "GO",
        "district": "Jardim Ipê",
        "street": "Rua Gameleira",
        "zipcode": "73808-622"
    },
    {
        "city": "Formosa",
        "state": "GO",
        "district": "Jardim Ipê",
        "street": "Rua Tamboril",
        "zipcode": "73808-620"
    },
    {
        "city": "Formosa",
        "state": "GO",
        "district": "Jardim Ipê",
        "street": "Rua Aroeira",
        "zipcode": "73808-618"
    },
    {
        "city": "Formosa",
        "state": "GO",
        "district": "Setor Bosque",
        "street": "Rua C",
        "zipcode": "73802-057"
    },
    {
        "city": "Formosa",
        "state": "GO",
        "district": "Jardim Ipê",
        "street": "Rua Angelin",
        "zipcode": "73808-616"
    },
    {
        "city": "Formosa",
        "state": "GO",
        "district": "Jardim Ipê",
        "street": "Rua Peroba",
        "zipcode": "73808-610"
    },
    {
        "city": "Formosa",
        "state": "GO",
        "district": "Centro",
        "street": "Avenida Valeriano de Castro",
        "zipcode": "73801-970"
    },
    {
        "city": "Formosa",
        "state": "GO",
        "district": "Centro",
        "street": "Rua Doutor José Décio",
        "zipcode": "73801-971"
    },
    {
        "city": "Formosa",
        "state": "GO",
        "district": "Setor Nordeste",
        "street": "Avenida Ferroviária D",
        "zipcode": "73807-325"
    },
    {
        "city": "Formosa",
        "state": "GO",
        "district": "Formosinha",
        "street": "Rua 27",
        "zipcode": "73813-390"
    },
    {
        "city": "Formosa",
        "state": "GO",
        "district": "Formosinha",
        "street": "Rua 6",
        "zipcode": "73813-410"
    },
    {
        "city": "Formosa",
        "state": "GO",
        "district": "Formosinha",
        "street": "Rua João Ísper Gebrim",
        "zipcode": "73813-470"
    },
    {
        "city": "Formosa",
        "state": "GO",
        "district": "São Benedito",
        "street": "Rua 1",
        "zipcode": "73813-601"
    },
    {
        "city": "Formosa",
        "state": "GO",
        "district": "São Benedito",
        "street": "Rua 5",
        "zipcode": "73813-620"
    },
    {
        "city": "Formosa",
        "state": "GO",
        "district": "São Benedito",
        "street": "Rua 11",
        "zipcode": "73813-650"
    },
    {
        "city": "Formosa",
        "state": "GO",
        "district": "São Benedito",
        "street": "Rua Paracatu",
        "zipcode": "73813-660"
    },
    {
        "city": "Formosa",
        "state": "GO",
        "district": "Vila Pantanal",
        "street": "Rua Amaro Juvenal de Almeida",
        "zipcode": "73813-745"
    },
    {
        "city": "Formosa",
        "state": "GO",
        "district": "Parque Lago",
        "street": "Rua 66",
        "zipcode": "73813-808"
    },
    {
        "city": "Formosa",
        "state": "GO",
        "district": "Parque Lago",
        "street": "Rua 3",
        "zipcode": "73813-824"
    },
    {
        "city": "Formosa",
        "state": "GO",
        "district": "Parque Lago",
        "street": "Rua 7",
        "zipcode": "73813-840"
    },
    {
        "city": "Formosa",
        "state": "GO",
        "district": "Parque Lago",
        "street": "Rua 10",
        "zipcode": "73813-848"
    },
    {
        "city": "Formosa",
        "state": "GO",
        "district": "Parque Laguna II",
        "street": "Rua Mário de Castro",
        "zipcode": "73814-175"
    },
    {
        "city": "Formosa",
        "state": "GO",
        "district": "Parque Laguna II",
        "street": "Rua Leônidas Ribeiro Magalhães",
        "zipcode": "73814-201"
    },
    {
        "city": "Formosa",
        "state": "GO",
        "district": "Parque Laguna II",
        "street": "Rua João Abadio de Oliveira",
        "zipcode": "73814-030"
    },
    {
        "city": "Formosa",
        "state": "GO",
        "district": "Parque Laguna II",
        "street": "Rua Zaíra Gonçalves de Oliveira",
        "zipcode": "73814-215"
    },
    {
        "city": "Formosa",
        "state": "GO",
        "district": "Parque Laguna II",
        "street": "Rua 1ª",
        "zipcode": "73814-070"
    },
    {
        "city": "Formosa",
        "state": "GO",
        "district": "Parque Laguna II",
        "street": "Rua Lenine Batista de Oliveira",
        "zipcode": "73814-255"
    },
    {
        "city": "Formosa",
        "state": "GO",
        "district": "Parque Laguna II",
        "street": "Rua Nassin Abdalla Saad",
        "zipcode": "73814-110"
    },
    {
        "city": "Formosa",
        "state": "GO",
        "district": "Village",
        "street": "Rua C",
        "zipcode": "73814-530"
    },
    {
        "city": "Formosa",
        "state": "GO",
        "district": "Village",
        "street": "Rua H",
        "zipcode": "73814-555"
    },
    {
        "city": "Formosa",
        "state": "GO",
        "district": "Jardim Ipê",
        "street": "Rua Ipê",
        "zipcode": "73808-606"
    },
    {
        "city": "Formosa",
        "state": "GO",
        "district": "Jardim Ipê",
        "street": "Rua Copaiba",
        "zipcode": "73808-604"
    },
    {
        "city": "Formosa",
        "state": "GO",
        "district": "Jardim Califórnia",
        "street": "Rua Augusto Inácio de Macêdo (Chácaras Eunice)",
        "zipcode": "73807-623"
    },
    {
        "city": "Formosa",
        "state": "GO",
        "district": "Setor Nordeste",
        "street": "Rua Carlos Alberto",
        "zipcode": "73807-274"
    },
    {
        "city": "Formosa",
        "state": "GO",
        "district": "Iris Village",
        "street": "Rua Leonel Campos",
        "zipcode": "73803-293"
    },
    {
        "city": "Formosa",
        "state": "GO",
        "district": "Setor Bosque",
        "street": "Rua B",
        "zipcode": "73802-056"
    },
    {
        "city": "Formosa",
        "state": "GO",
        "district": "Jardim Ipê",
        "street": "Rua Sucupira",
        "zipcode": "73808-614"
    },
    {
        "city": "Formosa",
        "state": "GO",
        "district": "Iris Village",
        "street": "Alameda Máximo Dutra",
        "zipcode": "73803-281"
    },
    {
        "city": "Formosa",
        "state": "GO",
        "district": "Iris Village",
        "street": "Rua Manoel Alves da Mata",
        "zipcode": "73803-290"
    },
    {
        "city": "Formosa",
        "state": "GO",
        "district": "Formosinha",
        "street": "Avenida Lagoa Feia",
        "zipcode": "73813-370"
    },
    {
        "city": "Formosa",
        "state": "GO",
        "district": "Formosinha",
        "street": "Avenida Maestro João Luiz do Espírito Santo",
        "zipcode": "73813-120"
    },
    {
        "city": "Formosa",
        "state": "GO",
        "district": "Formosinha",
        "street": "Avenida Brasília",
        "zipcode": "73813-011"
    },
    {
        "city": "Formosa",
        "state": "GO",
        "district": "Nova Formosa",
        "street": "Rua 101",
        "zipcode": "73809-201"
    },
    {
        "city": "Formosa",
        "state": "GO",
        "district": "Nova Formosa",
        "street": "Rua 104",
        "zipcode": "73809-215"
    },
    {
        "city": "Formosa",
        "state": "GO",
        "district": "Nova Formosa",
        "street": "Rua 116",
        "zipcode": "73809-285"
    },
    {
        "city": "Formosa",
        "state": "GO",
        "district": "Parque Serrano",
        "street": "Rua 6",
        "zipcode": "73804-580"
    },
    {
        "city": "Formosa",
        "state": "GO",
        "district": "Parque Vila Verde",
        "street": "Avenida A",
        "zipcode": "73808-475"
    },
    {
        "city": "Formosa",
        "state": "GO",
        "district": "Rosa Maria",
        "street": "Rua 21",
        "zipcode": "73809-605"
    },
    {
        "city": "Formosa",
        "state": "GO",
        "district": "Rosa Maria",
        "street": "Rua 18",
        "zipcode": "73809-630"
    },
    {
        "city": "Formosa",
        "state": "GO",
        "district": "Rosa Maria",
        "street": "Rua 24",
        "zipcode": "73809-645"
    },
    {
        "city": "Formosa",
        "state": "GO",
        "district": "Rosa Maria",
        "street": "Avenida Circular",
        "zipcode": "73809-670"
    },
    {
        "city": "Formosa",
        "state": "GO",
        "district": "Rosa Maria",
        "street": "Rua 17",
        "zipcode": "73809-615"
    },
    {
        "city": "Formosa",
        "state": "GO",
        "district": "Conjunto Padre José",
        "street": "Quadra 62",
        "zipcode": "73809-726"
    },
    {
        "city": "Formosa",
        "state": "GO",
        "district": "Parque da Colina I",
        "street": "Rua 2",
        "zipcode": "73808-004"
    },
    {
        "city": "Formosa",
        "state": "GO",
        "district": "Parque da Colina I",
        "street": "Rua Santa Luzia",
        "zipcode": "73808-056"
    },
    {
        "city": "Formosa",
        "state": "GO",
        "district": "Parque da Colina I",
        "street": "Rua J",
        "zipcode": "73808-060"
    },
    {
        "city": "Formosa",
        "state": "GO",
        "district": "Parque da Colina I",
        "street": "Avenida Engenheiro Flávio Víctor Dias",
        "zipcode": "73808-072"
    },
    {
        "city": "Formosa",
        "state": "GO",
        "district": "Parque da Colina II",
        "street": "Rua 11",
        "zipcode": "73808-101"
    },
    {
        "city": "Formosa",
        "state": "GO",
        "district": "Parque da Colina II",
        "street": "Rua 14",
        "zipcode": "73808-130"
    },
    {
        "city": "Formosa",
        "state": "GO",
        "district": "Parque da Colina II",
        "street": "Rua F",
        "zipcode": "73808-155"
    },
    {
        "city": "Formosa",
        "state": "GO",
        "district": "Parque da Colina II",
        "street": "Rua 17",
        "zipcode": "73808-160"
    },
    {
        "city": "Formosa",
        "state": "GO",
        "district": "Jardim Triângulo",
        "street": "Rua 9",
        "zipcode": "73808-224"
    },
    {
        "city": "Formosa",
        "state": "GO",
        "district": "Parque da Colina II",
        "street": "Rua A",
        "zipcode": "73808-195"
    },
    {
        "city": "Formosa",
        "state": "GO",
        "district": "Jardim Triângulo",
        "street": "Rua F",
        "zipcode": "73808-248"
    },
    {
        "city": "Formosa",
        "state": "GO",
        "district": "Jardim Triângulo",
        "street": "Rua 10",
        "zipcode": "73808-252"
    },
    {
        "city": "Formosa",
        "state": "GO",
        "district": "Jardim Triângulo",
        "street": "Avenida Central",
        "zipcode": "73808-256"
    },
    {
        "city": "Formosa",
        "state": "GO",
        "district": "Jardim Triângulo",
        "street": "Rua V",
        "zipcode": "73808-276"
    },
    {
        "city": "Formosa",
        "state": "GO",
        "district": "Parque Vila Verde",
        "street": "Rua 23",
        "zipcode": "73808-440"
    },
    {
        "city": "Formosa",
        "state": "GO",
        "district": "Setor Bela Vista",
        "street": "Rua 18",
        "zipcode": "73808-710"
    },
    {
        "city": "Formosa",
        "state": "GO",
        "district": "Formosinha",
        "street": "Avenida Formosa",
        "zipcode": "73813-250"
    },
    {
        "city": "Formosa",
        "state": "GO",
        "district": "Formosinha",
        "street": "Rua 1",
        "zipcode": "73813-270"
    },
    {
        "city": "Formosa",
        "state": "GO",
        "district": "Formosinha",
        "street": "Rua 2",
        "zipcode": "73813-301"
    },
    {
        "city": "Formosa",
        "state": "GO",
        "district": "Formosinha",
        "street": "Rua 20",
        "zipcode": "73813-310"
    },
    {
        "city": "Formosa",
        "state": "GO",
        "district": "Formosinha",
        "street": "Rua 21",
        "zipcode": "73813-320"
    },
    {
        "city": "Formosa",
        "state": "GO",
        "district": "Formosinha",
        "street": "Rua 3",
        "zipcode": "73813-330"
    },
    {
        "city": "Formosa",
        "state": "GO",
        "district": "Formosinha",
        "street": "Rua 22",
        "zipcode": "73813-340"
    },
    {
        "city": "Formosa",
        "state": "GO",
        "district": "Formosinha",
        "street": "Rua 23",
        "zipcode": "73813-350"
    },
    {
        "city": "Formosa",
        "state": "GO",
        "district": "Parque Vila Verde",
        "street": "Rua 14",
        "zipcode": "73808-300"
    },
    {
        "city": "Formosa",
        "state": "GO",
        "district": "Parque Vila Verde",
        "street": "Rua 10",
        "zipcode": "73808-320"
    },
    {
        "city": "Formosa",
        "state": "GO",
        "district": "Parque Vila Verde",
        "street": "Rua 8",
        "zipcode": "73808-335"
    },
    {
        "city": "Formosa",
        "state": "GO",
        "district": "Parque Vila Verde",
        "street": "Rua 3",
        "zipcode": "73808-360"
    },
    {
        "city": "Formosa",
        "state": "GO",
        "district": "Parque Vila Verde",
        "street": "Avenida Parque",
        "zipcode": "73808-400"
    },
    {
        "city": "Formosa",
        "state": "GO",
        "district": "Parque Vila Verde",
        "street": "Rua H",
        "zipcode": "73808-405"
    },
    {
        "city": "Formosa",
        "state": "GO",
        "district": "Setor Bela Vista",
        "street": "Rua 2",
        "zipcode": "73808-720"
    },
    {
        "city": "Formosa",
        "state": "GO",
        "district": "Setor Bela Vista",
        "street": "Rua 6",
        "zipcode": "73808-745"
    },
    {
        "city": "Formosa",
        "state": "GO",
        "district": "Setor Bela Vista",
        "street": "Rua 14",
        "zipcode": "73808-785"
    },
    {
        "city": "Formosa",
        "state": "GO",
        "district": "Setor Bela Vista",
        "street": "Avenida C",
        "zipcode": "73808-815"
    },
    {
        "city": "Formosa",
        "state": "GO",
        "district": "Setor Bela Vista",
        "street": "Rua A",
        "zipcode": "73808-820"
    },
    {
        "city": "Formosa",
        "state": "GO",
        "district": "Parque Vila Verde",
        "street": "Rodovia BR",
        "zipcode": "73808-307"
    },
    {
        "city": "Formosa",
        "state": "GO",
        "district": "Parque Vila Verde",
        "street": "Avenida Maestro João Luiz do Espírito Santo",
        "zipcode": "73808-303"
    },
    {
        "city": "Formosa",
        "state": "GO",
        "district": "Setor Industrial II",
        "street": "Rua 14 (Vila Santa Bárbara)",
        "zipcode": "73803-178"
    },
    {
        "city": "Formosa",
        "state": "GO",
        "district": "Vila Bela",
        "street": "Avenida Ivone Saad",
        "zipcode": "73807-065"
    },
    {
        "city": "Formosa",
        "state": "GO",
        "district": "Setor Nordeste",
        "street": "Rua 33",
        "zipcode": "73807-393"
    },
    {
        "city": "Formosa",
        "state": "GO",
        "district": "Chácaras do Abreu",
        "street": "Via 12",
        "zipcode": "73804-065"
    },
    {
        "city": "Formosa",
        "state": "GO",
        "district": "Chácaras do Abreu",
        "street": "Via 17",
        "zipcode": "73804-090"
    },
    {
        "city": "Formosa",
        "state": "GO",
        "district": "Chácaras do Abreu",
        "street": "Rua Rifania",
        "zipcode": "73804-130"
    },
    {
        "city": "Formosa",
        "state": "GO",
        "district": "Parque Serrano",
        "street": "Rua 7",
        "zipcode": "73804-585"
    },
    {
        "city": "Formosa",
        "state": "GO",
        "district": "Setor Primavera",
        "street": "Avenida SHIS",
        "zipcode": "73805-188"
    },
    {
        "city": "Formosa",
        "state": "GO",
        "district": "Setor Nordeste",
        "street": "Rua C",
        "zipcode": "73807-377"
    },
    {
        "city": "Formosa",
        "state": "GO",
        "district": "Setor Primavera",
        "street": "Rua 1",
        "zipcode": "73805-110"
    },
    {
        "city": "Formosa",
        "state": "GO",
        "district": "Setor Primavera",
        "street": "Rua 8",
        "zipcode": "73805-130"
    },
    {
        "city": "Formosa",
        "state": "GO",
        "district": "Setor Primavera",
        "street": "Praça da Alegria",
        "zipcode": "73805-165"
    },
    {
        "city": "Formosa",
        "state": "GO",
        "district": "Setor Primavera",
        "street": "Rua 7",
        "zipcode": "73805-190"
    },
    {
        "city": "Formosa",
        "state": "GO",
        "district": "Jardim Oliveira",
        "street": "Rua 21",
        "zipcode": "73805-223"
    },
    {
        "city": "Formosa",
        "state": "GO",
        "district": "Jardim Oliveira",
        "street": "Rua 22",
        "zipcode": "73805-229"
    },
    {
        "city": "Formosa",
        "state": "GO",
        "district": "Jardim Oliveira",
        "street": "Rua 16",
        "zipcode": "73805-244"
    },
    {
        "city": "Formosa",
        "state": "GO",
        "district": "Jardim Oliveira",
        "street": "Rua 3",
        "zipcode": "73805-262"
    },
    {
        "city": "Formosa",
        "state": "GO",
        "district": "Jardim Oliveira",
        "street": "Rua 12",
        "zipcode": "73805-277"
    },
    {
        "city": "Formosa",
        "state": "GO",
        "district": "Setor Pampulha",
        "street": "Rua Luiz Astoufo",
        "zipcode": "73805-330"
    },
    {
        "city": "Formosa",
        "state": "GO",
        "district": "Setor Pampulha",
        "street": "Rua Anápolis",
        "zipcode": "73805-355"
    },
    {
        "city": "Formosa",
        "state": "GO",
        "district": "Setor Imperatriz",
        "street": "Rua 2",
        "zipcode": "73805-415"
    },
    {
        "city": "Formosa",
        "state": "GO",
        "district": "Setor Imperatriz",
        "street": "Rua 5",
        "zipcode": "73805-425"
    },
    {
        "city": "Formosa",
        "state": "GO",
        "district": "Setor Imperatriz",
        "street": "Rua 6",
        "zipcode": "73805-450"
    },
    {
        "city": "Formosa",
        "state": "GO",
        "district": "Parque das Laranjeiras",
        "street": "Rua 12",
        "zipcode": "73805-605"
    },
    {
        "city": "Formosa",
        "state": "GO",
        "district": "Parque das Laranjeiras",
        "street": "Travessa C",
        "zipcode": "73805-635"
    },
    {
        "city": "Formosa",
        "state": "GO",
        "district": "Parque das Laranjeiras",
        "street": "Rua 6",
        "zipcode": "73805-665"
    },
    {
        "city": "Formosa",
        "state": "GO",
        "district": "Parque das Laranjeiras",
        "street": "Rua 11",
        "zipcode": "73805-705"
    },
    {
        "city": "Formosa",
        "state": "GO",
        "district": "Parque das Laranjeiras",
        "street": "Rua 14",
        "zipcode": "73805-715"
    },
    {
        "city": "Formosa",
        "state": "GO",
        "district": "Parque das Laranjeiras",
        "street": "Rua 10",
        "zipcode": "73805-720"
    },
    {
        "city": "Formosa",
        "state": "GO",
        "district": "Parque das Laranjeiras",
        "street": "Rua 17",
        "zipcode": "73805-735"
    },
    {
        "city": "Formosa",
        "state": "GO",
        "district": "Parque das Laranjeiras",
        "street": "Rua 21",
        "zipcode": "73805-775"
    },
    {
        "city": "Formosa",
        "state": "GO",
        "district": "Vista Alegre",
        "street": "Rua Clarinda Lobo de Miranda",
        "zipcode": "73805-825"
    },
    {
        "city": "Formosa",
        "state": "GO",
        "district": "Vila Lorena",
        "street": "Rua 4",
        "zipcode": "73805-880"
    },
    {
        "city": "Formosa",
        "state": "GO",
        "district": "Setor Nordeste",
        "street": "Rua 2 (Entre a Santa Inês e Tocantins)",
        "zipcode": "73807-115"
    },
    {
        "city": "Formosa",
        "state": "GO",
        "district": "Setor Nordeste",
        "street": "Rua 3 (Atrás do Colégio Estadual)",
        "zipcode": "73807-130"
    },
    {
        "city": "Formosa",
        "state": "GO",
        "district": "Setor Nordeste",
        "street": "Rua Bandeirinha",
        "zipcode": "73807-165"
    },
    {
        "city": "Formosa",
        "state": "GO",
        "district": "Setor Nordeste",
        "street": "Rua Amaro Juvenal de Almeida",
        "zipcode": "73807-200"
    },
    {
        "city": "Formosa",
        "state": "GO",
        "district": "Setor Nordeste",
        "street": "Rua das Flores",
        "zipcode": "73807-205"
    },
    {
        "city": "Formosa",
        "state": "GO",
        "district": "Setor Nordeste",
        "street": "Rua 7",
        "zipcode": "73807-235"
    },
    {
        "city": "Formosa",
        "state": "GO",
        "district": "Setor Nordeste",
        "street": "Travessa Nagib Simão",
        "zipcode": "73807-285"
    },
    {
        "city": "Formosa",
        "state": "GO",
        "district": "Setor Nordeste",
        "street": "Rua Ibraim Jorge",
        "zipcode": "73807-300"
    },
    {
        "city": "Formosa",
        "state": "GO",
        "district": "Setor Nordeste",
        "street": "Rua Ornelas Filho",
        "zipcode": "73807-335"
    },
    {
        "city": "Formosa",
        "state": "GO",
        "district": "Setor Nordeste",
        "street": "Rua 23",
        "zipcode": "73807-370"
    },
    {
        "city": "Formosa",
        "state": "GO",
        "district": "Setor Nordeste",
        "street": "Rua Santa Luzia",
        "zipcode": "73807-400"
    },
    {
        "city": "Formosa",
        "state": "GO",
        "district": "Vila Aurora",
        "street": "Rua do Matadouro",
        "zipcode": "73807-501"
    },
    {
        "city": "Formosa",
        "state": "GO",
        "district": "Jardim Califórnia",
        "street": "Rua Heitor Villa Lobos",
        "zipcode": "73807-610"
    },
    {
        "city": "Formosa",
        "state": "GO",
        "district": "Jardim Califórnia",
        "street": "Rua Goiás",
        "zipcode": "73807-640"
    },
    {
        "city": "Formosa",
        "state": "GO",
        "district": "Jardim Califórnia",
        "street": "Avenida Governador Bernardo Sayão",
        "zipcode": "73807-645"
    },
    {
        "city": "Formosa",
        "state": "GO",
        "district": "Jardim Califórnia",
        "street": "Rua José Machado",
        "zipcode": "73807-710"
    },
    {
        "city": "Formosa",
        "state": "GO",
        "district": "Jardim Califórnia",
        "street": "Rua Manoel de Oliveira",
        "zipcode": "73807-715"
    },
    {
        "city": "Formosa",
        "state": "GO",
        "district": "Jardim Califórnia",
        "street": "Rua da Passagem 2",
        "zipcode": "73807-750"
    },
    {
        "city": "Formosa",
        "state": "GO",
        "district": "Jardim Califórnia",
        "street": "Avenida Circular",
        "zipcode": "73807-765"
    },
    {
        "city": "Formosa",
        "state": "GO",
        "district": "Jardim Califórnia",
        "street": "Rua Salviano Guimarães",
        "zipcode": "73807-795"
    },
    {
        "city": "Formosa",
        "state": "GO",
        "district": "Vila Carolina",
        "street": "Avenida Rifaina",
        "zipcode": "73803-205"
    },
    {
        "city": "Formosa",
        "state": "GO",
        "district": "Setor Ferroviário",
        "street": "Rua Olímpio Espíndola",
        "zipcode": "73805-050"
    },
    {
        "city": "Formosa",
        "state": "GO",
        "district": "Setor Ferroviário",
        "street": "Avenida Circular",
        "zipcode": "73805-075"
    },
    {
        "city": "Formosa",
        "state": "GO",
        "district": "Setor Primavera",
        "street": "Avenida Posto Agropecuário",
        "zipcode": "73805-105"
    },
    {
        "city": "Formosa",
        "state": "GO",
        "district": "Setor Sul",
        "street": "Rua B1",
        "zipcode": "73802-449"
    },
    {
        "city": "Formosa",
        "state": "GO",
        "district": "Setor Sul",
        "street": "Rua A1",
        "zipcode": "73802-431"
    },
    {
        "city": "Formosa",
        "state": "GO",
        "district": "Setor Sul",
        "street": "Rua 22A",
        "zipcode": "73802-428"
    },
    {
        "city": "Formosa",
        "state": "GO",
        "district": "Vila Pantanal",
        "street": "Rua Francisco Domingues de Souza",
        "zipcode": "73813-742"
    },
    {
        "city": "Formosa",
        "state": "GO",
        "district": "Setor Sul",
        "street": "Rua 26A",
        "zipcode": "73802-405"
    },
    {
        "city": "Formosa",
        "state": "GO",
        "district": "Chácaras do Abreu",
        "street": "Via 5",
        "zipcode": "73804-030"
    },
    {
        "city": "Formosa",
        "state": "GO",
        "district": "Vila Pantanal",
        "street": "Via 30",
        "zipcode": "73813-763"
    },
    {
        "city": "Formosa",
        "state": "GO",
        "district": "Residencial Santa Rosa",
        "street": "Rua Minas Gerais",
        "zipcode": "73803-650"
    },
    {
        "city": "Formosa",
        "state": "GO",
        "district": "Residencial Santa Rosa",
        "street": "Rua Pernambuco",
        "zipcode": "73803-655"
    },
    {
        "city": "Formosa",
        "state": "GO",
        "district": "Centro",
        "street": "Travessa Olímpio Espíndola",
        "zipcode": "73801-070"
    },
    {
        "city": "Formosa",
        "state": "GO",
        "district": "Centro",
        "street": "Praça São Vicente",
        "zipcode": "73801-150"
    },
    {
        "city": "Formosa",
        "state": "GO",
        "district": "Centro",
        "street": "Rua Anhangüera",
        "zipcode": "73801-170"
    },
    {
        "city": "Formosa",
        "state": "GO",
        "district": "Centro",
        "street": "Praça Rui Barbosa",
        "zipcode": "73801-220"
    },
    {
        "city": "Formosa",
        "state": "GO",
        "district": "Centro",
        "street": "Rua Olímpio Jacinto",
        "zipcode": "73801-400"
    },
    {
        "city": "Formosa",
        "state": "GO",
        "district": "Centro",
        "street": "Rua do Cruzeiro",
        "zipcode": "73801-570"
    },
    {
        "city": "Formosa",
        "state": "GO",
        "district": "Centro",
        "street": "Rua Padre Tomé",
        "zipcode": "73801-650"
    },
    {
        "city": "Formosa",
        "state": "GO",
        "district": "Centro",
        "street": "Avenida Circular do Cemitério",
        "zipcode": "73801-660"
    },
    {
        "city": "Formosa",
        "state": "GO",
        "district": "Setor Bosque",
        "street": "Rua 32",
        "zipcode": "73802-050"
    },
    {
        "city": "Formosa",
        "state": "GO",
        "district": "São Vicente",
        "street": "Rua 2",
        "zipcode": "73802-105"
    },
    {
        "city": "Formosa",
        "state": "GO",
        "district": "São Vicente",
        "street": "Rua 3",
        "zipcode": "73802-110"
    },
    {
        "city": "Formosa",
        "state": "GO",
        "district": "São Vicente",
        "street": "Rua 8",
        "zipcode": "73802-140"
    },
    {
        "city": "Formosa",
        "state": "GO",
        "district": "Setor Bosque II",
        "street": "Avenida Circular",
        "zipcode": "73802-200"
    },
    {
        "city": "Formosa",
        "state": "GO",
        "district": "Setor Bosque II",
        "street": "Rua 6",
        "zipcode": "73802-230"
    },
    {
        "city": "Formosa",
        "state": "GO",
        "district": "Setor Bosque II",
        "street": "Rua 13",
        "zipcode": "73802-265"
    },
    {
        "city": "Formosa",
        "state": "GO",
        "district": "Setor Bosque II",
        "street": "Rua 16",
        "zipcode": "73802-288"
    },
    {
        "city": "Formosa",
        "state": "GO",
        "district": "Setor Sul",
        "street": "Via 11",
        "zipcode": "73802-404"
    },
    {
        "city": "Formosa",
        "state": "GO",
        "district": "Setor Sul",
        "street": "Via 26",
        "zipcode": "73802-407"
    },
    {
        "city": "Formosa",
        "state": "GO",
        "district": "Setor Sul",
        "street": "Avenida Cristalina",
        "zipcode": "73802-410"
    },
    {
        "city": "Formosa",
        "state": "GO",
        "district": "Setor Sul",
        "street": "Via 24A",
        "zipcode": "73802-413"
    },
    {
        "city": "Formosa",
        "state": "GO",
        "district": "Setor Sul",
        "street": "Via 24",
        "zipcode": "73802-416"
    },
    {
        "city": "Formosa",
        "state": "GO",
        "district": "Setor Sul",
        "street": "Via 15",
        "zipcode": "73802-421"
    },
    {
        "city": "Formosa",
        "state": "GO",
        "district": "Setor Sul",
        "street": "Via 17",
        "zipcode": "73802-424"
    },
    {
        "city": "Formosa",
        "state": "GO",
        "district": "Setor Sul",
        "street": "Via 22",
        "zipcode": "73802-427"
    },
    {
        "city": "Formosa",
        "state": "GO",
        "district": "Setor Sul",
        "street": "Via 16",
        "zipcode": "73802-436"
    },
    {
        "city": "Formosa",
        "state": "GO",
        "district": "Setor Sul",
        "street": "Via 12",
        "zipcode": "73802-442"
    },
    {
        "city": "Formosa",
        "state": "GO",
        "district": "Setor Sul",
        "street": "Via 7",
        "zipcode": "73802-457"
    },
    {
        "city": "Formosa",
        "state": "GO",
        "district": "Setor Sul",
        "street": "Via 3",
        "zipcode": "73802-469"
    },
    {
        "city": "Formosa",
        "state": "GO",
        "district": "Setor Sul",
        "street": "Rua 19",
        "zipcode": "73802-474"
    },
    {
        "city": "Formosa",
        "state": "GO",
        "district": "Setor Sul",
        "street": "Rua 9A",
        "zipcode": "73802-477"
    },
    {
        "city": "Formosa",
        "state": "GO",
        "district": "Abreu",
        "street": "Avenida Circular",
        "zipcode": "73803-035"
    },
    {
        "city": "Formosa",
        "state": "GO",
        "district": "Vila Iara",
        "street": "Rua Poly Coelho",
        "zipcode": "73803-065"
    },
    {
        "city": "Formosa",
        "state": "GO",
        "district": "Vila Iara",
        "street": "Rua Castro Alves",
        "zipcode": "73803-070"
    },
    {
        "city": "Formosa",
        "state": "GO",
        "district": "Setor Industrial II",
        "street": "Rua 3B",
        "zipcode": "73803-110"
    },
    {
        "city": "Formosa",
        "state": "GO",
        "district": "Vila Carolina",
        "street": "Rua 2",
        "zipcode": "73803-230"
    },
    {
        "city": "Formosa",
        "state": "GO",
        "district": "Jardim das Américas",
        "street": "Rua Paraguai",
        "zipcode": "73803-320"
    },
    {
        "city": "Formosa",
        "state": "GO",
        "district": "Jardim das Américas",
        "street": "Rua Panamá",
        "zipcode": "73803-368"
    },
    {
        "city": "Formosa",
        "state": "GO",
        "district": "Parque Lago",
        "street": "Rua Maracanã",
        "zipcode": "73813-798"
    },
    {
        "city": "Formosa",
        "state": "GO",
        "district": "Jardim das Américas",
        "street": "Rua A",
        "zipcode": "73803-376"
    },
    {
        "city": "Formosa",
        "state": "GO",
        "district": "Jardim Califórnia",
        "street": "Praça Central",
        "zipcode": "73807-735"
    },
    {
        "city": "Formosa",
        "state": "GO",
        "district": "Formosinha",
        "street": "Rua A",
        "zipcode": "73813-480"
    },
    {
        "city": "Formosa",
        "state": "GO",
        "district": "Formosinha",
        "street": "Avenida Circular (Próximo ao Bairro São Benedito)",
        "zipcode": "73813-465"
    },
    {
        "city": "Formosa",
        "state": "GO",
        "district": "Parque Laguna II",
        "street": "Rua do Hospital",
        "zipcode": "73814-010"
    },
    {
        "city": "Formosa",
        "state": "GO",
        "district": "Jardim Califórnia",
        "street": "Avenida Califórnia",
        "zipcode": "73807-600"
    },
    {
        "city": "Formosa",
        "state": "GO",
        "district": "Centro",
        "street": "Avenida Brasília",
        "zipcode": "73801-310"
    },
    {
        "city": "Formosa",
        "state": "GO",
        "district": "Centro",
        "street": "Avenida Lagoa Feia",
        "zipcode": "73801-320"
    },
    {
        "city": "Formosa",
        "state": "GO",
        "district": "Centro",
        "street": "Rua São João",
        "zipcode": "73801-500"
    },
    {
        "city": "Formosa",
        "state": "GO",
        "district": "Centro",
        "street": "Avenida Pedro Monteiro Guimarães",
        "zipcode": "73801-690"
    },
    {
        "city": "Formosa",
        "state": "GO",
        "district": "Vila Santos",
        "street": "Avenida Pedro Monteiro Guimarães",
        "zipcode": "73805-505"
    },
    {
        "city": "Formosa",
        "state": "GO",
        "district": "Centro",
        "street": "Rua Olímpio Espíndola",
        "zipcode": "73801-080"
    },
    {
        "city": "Formosa",
        "state": "GO",
        "district": "Parque das Laranjeiras",
        "street": "Avenida Posto Agropecuário",
        "zipcode": "73805-650"
    },
    {
        "city": "Formosa",
        "state": "GO",
        "district": "Setor Bela Vista",
        "street": "Avenida Senador Coimbra Bueno",
        "zipcode": "73808-705"
    },
    {
        "city": "Formosa",
        "state": "GO",
        "district": "Jardim Califórnia",
        "street": "Avenida Maestro João Luiz do Espírito Santo",
        "zipcode": "73807-745"
    },
    {
        "city": "Formosa",
        "state": "GO",
        "district": "Setor Sul",
        "street": "Rua 12A",
        "zipcode": "73802-441"
    },
    {
        "city": "Formosa",
        "state": "GO",
        "district": "Setor Sul",
        "street": "Rua 14A",
        "zipcode": "73802-440"
    },
    {
        "city": "Formosa",
        "state": "GO",
        "district": "Parque São Francisco",
        "street": "Rua 13",
        "zipcode": "73815-045"
    },
    {
        "city": "Formosa",
        "state": "GO",
        "district": "Setor Sul",
        "street": "Via 15A",
        "zipcode": "73802-422"
    },
    {
        "city": "Formosa",
        "state": "GO",
        "district": "Jardim Ipê",
        "street": "Rua Jatobá",
        "zipcode": "73808-624"
    },
    {
        "city": "Formosa",
        "state": "GO",
        "district": "Parque São Francisco",
        "street": "Rua 39",
        "zipcode": "73815-170"
    },
    {
        "city": "Formosa",
        "state": "GO",
        "district": "Parque São Francisco",
        "street": "Rua 47",
        "zipcode": "73815-200"
    },
    {
        "city": "Formosa",
        "state": "GO",
        "district": "Parque Lago",
        "street": "Rua Cardeal",
        "zipcode": "73813-791"
    },
    {
        "city": "Formosa",
        "state": "GO",
        "district": "Parque Lago",
        "street": "Rua Codorna",
        "zipcode": "73813-776"
    },
    {
        "city": "Formosa",
        "state": "GO",
        "district": "Parque Lago",
        "street": "Rua Jandaia",
        "zipcode": "73813-777"
    },
    {
        "city": "Formosa",
        "state": "GO",
        "district": "Parque Lago",
        "street": "Rua Juriti",
        "zipcode": "73813-797"
    },
    {
        "city": "Formosa",
        "state": "GO",
        "district": "Parque Lago",
        "street": "Rua Pássaro Preto",
        "zipcode": "73813-799"
    },
    {
        "city": "Formosa",
        "state": "GO",
        "district": "Jardim Califórnia",
        "street": "Rua A (Ch Eunice)",
        "zipcode": "73807-840"
    },
    {
        "city": "Formosa",
        "state": "GO",
        "district": "Centro",
        "street": "Rua Domingos José de Paiva",
        "zipcode": "73801-230"
    },
    {
        "city": "Formosa",
        "state": "GO",
        "district": "Setor Bosque",
        "street": "Avenida Circular",
        "zipcode": "73802-020"
    },
    {
        "city": "Formosa",
        "state": "GO",
        "district": "Setor Bosque II",
        "street": "Rua 32",
        "zipcode": "73802-220"
    },
    {
        "city": "Formosa",
        "state": "GO",
        "district": "Abreu",
        "street": "Praça 21 de Abril",
        "zipcode": "73803-025"
    },
    {
        "city": "Formosa",
        "state": "GO",
        "district": "Jardim das Américas",
        "street": "Rua Argentina",
        "zipcode": "73803-328"
    },
    {
        "city": "Formosa",
        "state": "GO",
        "district": "Jardim Oliveira",
        "street": "Avenida Oeste",
        "zipcode": "73805-201"
    },
    {
        "city": "Formosa",
        "state": "GO",
        "district": "Parque Lago",
        "street": "Rua Beija",
        "zipcode": "73813-783"
    },
    {
        "city": "Formosa",
        "state": "GO",
        "district": "Setor Pampulha",
        "street": "Rua Polly Coelho",
        "zipcode": "73805-375"
    },
    {
        "city": "Formosa",
        "state": "GO",
        "district": "Parque das Laranjeiras",
        "street": "Rua 3",
        "zipcode": "73805-645"
    },
    {
        "city": "Formosa",
        "state": "GO",
        "district": "Parque das Laranjeiras",
        "street": "Rua 13",
        "zipcode": "73805-701"
    },
    {
        "city": "Formosa",
        "state": "GO",
        "district": "Vista Alegre",
        "street": "Rua 13 de Maio",
        "zipcode": "73805-810"
    },
    {
        "city": "Formosa",
        "state": "GO",
        "district": "Setor Nordeste",
        "street": "Rua Maestro Joaquim de Abreu",
        "zipcode": "73807-100"
    },
    {
        "city": "Formosa",
        "state": "GO",
        "district": "Jardim Califórnia",
        "street": "Rua Alexandrino Lobo",
        "zipcode": "73807-625"
    },
    {
        "city": "Formosa",
        "state": "GO",
        "district": "Jardim Califórnia",
        "street": "Rua Lázaro de Melo",
        "zipcode": "73807-790"
    },
    {
        "city": "Formosa",
        "state": "GO",
        "district": "Setor Bela Vista",
        "street": "Rua 1",
        "zipcode": "73808-715"
    },
    {
        "city": "Formosa",
        "state": "GO",
        "district": "Parque Vila Verde",
        "street": "Rua 6A",
        "zipcode": "73808-345"
    },
    {
        "city": "Formosa",
        "state": "GO",
        "district": "Parque Vila Verde",
        "street": "Rua 4",
        "zipcode": "73808-355"
    },
    {
        "city": "Formosa",
        "state": "GO",
        "district": "Formosinha",
        "street": "Rua Maria de Melo Pinto",
        "zipcode": "73813-490"
    },
    {
        "city": "Formosa",
        "state": "GO",
        "district": "Vila Pantanal",
        "street": "Rua 28",
        "zipcode": "73813-755"
    },
    {
        "city": "Formosa",
        "state": "GO",
        "district": "Vila Pantanal",
        "street": "Rua 92",
        "zipcode": "73813-765"
    },
    {
        "city": "Formosa",
        "state": "GO",
        "district": "Parque Laguna II",
        "street": "Rua Djalma Chaves",
        "zipcode": "73814-160"
    },
    {
        "city": "Formosa",
        "state": "GO",
        "district": "Parque Laguna II",
        "street": "Rua Tasso Dutra",
        "zipcode": "73814-040"
    },
    {
        "city": "Formosa",
        "state": "GO",
        "district": "Parque Laguna II",
        "street": "Rua Arthur Ribeiro de Magalhães Júnior",
        "zipcode": "73814-045"
    },
    {
        "city": "Formosa",
        "state": "GO",
        "district": "Jardim Triângulo",
        "street": "Praça do Esporte",
        "zipcode": "73808-201"
    },
    {
        "city": "Formosa",
        "state": "GO",
        "district": "Parque Lago",
        "street": "Rua Tizil",
        "zipcode": "73813-790"
    },
    {
        "city": "Formosa",
        "state": "GO",
        "district": "Vila Pantanal",
        "street": "Quadra 6",
        "zipcode": "73813-735"
    },
    {
        "city": "Formosa",
        "state": "GO",
        "district": "Jardim das Américas",
        "street": "Rua Haiti",
        "zipcode": "73803-388"
    },
    {
        "city": "Formosa",
        "state": "GO",
        "district": "Parque Laguna II",
        "street": "Rua José Theodolino Filho",
        "zipcode": "73814-095"
    },
    {
        "city": "Formosa",
        "state": "GO",
        "district": "Village",
        "street": "Rua Benedito Tasso Dutra",
        "zipcode": "73814-525"
    },
    {
        "city": "Formosa",
        "state": "GO",
        "district": "Village",
        "street": "Rodovia BR",
        "zipcode": "73814-500"
    },
    {
        "city": "Formosa",
        "state": "GO",
        "district": "Residencial Jardim Planalto",
        "street": "Rua das Laranjeiras",
        "zipcode": "73809-008"
    },
    {
        "city": "Formosa",
        "state": "GO",
        "district": "Iris Village",
        "street": "Rua Elias João Hamú",
        "zipcode": "73803-287"
    },
    {
        "city": "Formosa",
        "state": "GO",
        "district": "Residencial Jardim Planalto",
        "street": "Rua Buriti",
        "zipcode": "73809-012"
    },
    {
        "city": "Formosa",
        "state": "GO",
        "district": "Jardim Ipê",
        "street": "Avenida Heitor Villa Lobos (Jardim Ipe)",
        "zipcode": "73808-600"
    },
    {
        "city": "Formosa",
        "state": "GO",
        "district": "Nova Formosa",
        "street": "Rua 206",
        "zipcode": "73809-335"
    },
    {
        "city": "Formosa",
        "state": "GO",
        "district": "Jardim Califórnia",
        "street": "Rua Jade",
        "zipcode": "73807-830"
    },
    {
        "city": "Formosa",
        "state": "GO",
        "district": "Conjunto Padre José",
        "street": "Quadra 46",
        "zipcode": "73809-721"
    },
    {
        "city": "Formosa",
        "state": "GO",
        "district": "Setor Bela Vista",
        "street": "Rua 10A",
        "zipcode": "73808-867"
    },
    {
        "city": "Formosa",
        "state": "GO",
        "district": "Centro",
        "street": "Rua Marechal Deodoro da Fonseca",
        "zipcode": "73801-490"
    },
    {
        "city": "Formosa",
        "state": "GO",
        "district": "Vila Carolina",
        "street": "Rua 2 (paralela a Avenida Rifaina)",
        "zipcode": "73803-225"
    },
    {
        "city": "Formosa",
        "state": "GO",
        "district": "Vila Carolina",
        "street": "Rua 2 (Final)",
        "zipcode": "73803-235"
    },
    {
        "city": "Formosa",
        "state": "GO",
        "district": "Parque das Laranjeiras",
        "street": "Rua 12 (Final)",
        "zipcode": "73805-710"
    },
    {
        "city": "Formosa",
        "state": "GO",
        "district": "Parque Dom Bosco",
        "street": "Rua 10",
        "zipcode": "73807-577"
    },
    {
        "city": "Formosa",
        "state": "GO",
        "district": "Jardim Califórnia",
        "street": "Rua Grundwild Costa",
        "zipcode": "73807-725"
    },
    {
        "city": "Formosa",
        "state": "GO",
        "district": "São Benedito",
        "street": "Rua 10",
        "zipcode": "73813-645"
    },
    {
        "city": "Formosa",
        "state": "GO",
        "district": "Setor Bela Vista",
        "street": "Rua 20",
        "zipcode": "73808-800"
    },
    {
        "city": "Formosa",
        "state": "GO",
        "district": "Setor Bela Vista",
        "street": "Avenida Circular",
        "zipcode": "73808-850"
    },
    {
        "city": "Formosa",
        "state": "GO",
        "district": "Setor Bela Vista",
        "street": "Estrada do Vale",
        "zipcode": "73808-855"
    },
    {
        "city": "Formosa",
        "state": "GO",
        "district": "Parque Laguna II",
        "street": "Rua Sargento Damy de Souza Geracy",
        "zipcode": "73814-140"
    },
    {
        "city": "Formosa",
        "state": "GO",
        "district": "Parque São Francisco",
        "street": "Rua 4",
        "zipcode": "73815-020"
    },
    {
        "city": "Formosa",
        "state": "GO",
        "district": "Vila Pantanal",
        "street": "Via 15",
        "zipcode": "73813-770"
    },
    {
        "city": "Formosa",
        "state": "GO",
        "district": "Residencial Jardim Planalto",
        "street": "Rua dos Ipês",
        "zipcode": "73809-014"
    },
    {
        "city": "Formosa",
        "state": "GO",
        "district": "Setor Industrial II",
        "street": "Rua 15 (Vila Santa Bárbara)",
        "zipcode": "73803-180"
    },
    {
        "city": "Formosa",
        "state": "GO",
        "district": "Setor Bosque II",
        "street": "Rua B",
        "zipcode": "73802-209"
    },
    {
        "city": "Formosa",
        "state": "GO",
        "district": "Jardim Ipê",
        "street": "Rua Angico",
        "zipcode": "73808-626"
    },
    {
        "city": "Formosa",
        "state": "GO",
        "district": "Setor Sul",
        "street": "Via 10A",
        "zipcode": "73802-446"
    },
    {
        "city": "Formosa",
        "state": "GO",
        "district": "Jardim Ipê",
        "street": "Rua Tingui",
        "zipcode": "73808-628"
    },
    {
        "city": "Formosa",
        "state": "GO",
        "district": "Residencial Jardim Planalto",
        "street": "Rua B",
        "zipcode": "73809-022"
    },
    {
        "city": "Formosa",
        "state": "GO",
        "district": "Parque São Francisco",
        "street": "Rua Benedito Tasso Dutra",
        "zipcode": "73815-012"
    },
    {
        "city": "Formosa",
        "state": "GO",
        "district": "Setor Bela Vista",
        "street": "Rua 11",
        "zipcode": "73808-769"
    },
    {
        "city": "Formosa",
        "state": "GO",
        "district": "Parque Laguna II",
        "street": "Rua Depois do Hospital",
        "zipcode": "73814-050"
    },
    {
        "city": "Formosa",
        "state": "GO",
        "district": "Vila Aurora",
        "street": "Rua Anita Garibaldi",
        "zipcode": "73807-503"
    },
    {
        "city": "Formosa",
        "state": "GO",
        "district": "Vila Carolina",
        "street": "Rua Honório Barreto (Paralela a  Avenida Rifaina)",
        "zipcode": "73803-215"
    },
    {
        "city": "Formosa",
        "state": "GO",
        "district": "Sul América",
        "street": "Rua Projetada 2 (Paralela Manoel Onofre)",
        "zipcode": "73803-526"
    },
    {
        "city": "Formosa",
        "state": "GO",
        "district": "Residencial Jardim Planalto",
        "street": "Rua Gravatá",
        "zipcode": "73809-028"
    },
    {
        "city": "Formosa",
        "state": "GO",
        "district": "Iris Village",
        "street": "Avenida Rezende Machado",
        "zipcode": "73803-284"
    },
    {
        "city": "Formosa",
        "state": "GO",
        "district": "Residencial Jardim Planalto",
        "street": "Rua do Bosque",
        "zipcode": "73809-002"
    },
    {
        "city": "Formosa",
        "state": "GO",
        "district": "Residencial Jardim Planalto",
        "street": "Rua Jequitibá",
        "zipcode": "73809-024"
    },
    {
        "city": "Formosa",
        "state": "GO",
        "district": "Jardim Ipê",
        "street": "Rua Cedro",
        "zipcode": "73808-612"
    },
    {
        "city": "Formosa",
        "state": "GO",
        "district": "Jardim Ipê",
        "street": "Rua Brauna",
        "zipcode": "73808-602"
    },
    {
        "city": "Formosa",
        "state": "GO",
        "district": "Formosinha",
        "street": "Rua 9",
        "zipcode": "73813-295"
    },
    {
        "city": "Formosa",
        "state": "GO",
        "district": "Jardim Califórnia",
        "street": "Rua 2",
        "zipcode": "73807-773"
    },
    {
        "city": "Formosa",
        "state": "GO",
        "district": "Iris Village",
        "street": "Rua Deodato Louly",
        "zipcode": "73803-295"
    },
    {
        "city": "Formosa",
        "state": "GO",
        "district": "Iris Village",
        "street": "Alameda Professor Antonio Eusébio",
        "zipcode": "73803-269"
    },
    {
        "city": "Formosa",
        "state": "GO",
        "district": "Centro",
        "street": "Travessa Honório Lobo",
        "zipcode": "73801-455"
    },
    {
        "city": "Formosa",
        "state": "GO",
        "district": "Village",
        "street": "Rua Margens da Lagoa",
        "zipcode": "73814-605"
    },
    {
        "city": "Formosa",
        "state": "GO",
        "district": "São Benedito",
        "street": "Rua 11B",
        "zipcode": "73813-653"
    },
    {
        "city": "Formosa",
        "state": "GO",
        "district": "Residencial Jardim Planalto",
        "street": "Rua Acácia",
        "zipcode": "73809-018"
    },
    {
        "city": "Formosa",
        "state": "GO",
        "district": "Jardim Califórnia",
        "street": "Rua B (Ch Eunice)",
        "zipcode": "73807-842"
    },
    {
        "city": "Formosa",
        "state": "GO",
        "district": "Parque Lago",
        "street": "Rua Tico",
        "zipcode": "73813-796"
    },
    {
        "city": "Formosa",
        "state": "GO",
        "district": "Formosinha",
        "street": "Avenida Circular (Industrial)",
        "zipcode": "73813-014"
    },
    {
        "city": "Formosa",
        "state": "GO",
        "district": "Jardim Califórnia",
        "street": "Rua Doutor Manoel de Almeida",
        "zipcode": "73807-655"
    },
    {
        "city": "Formosa",
        "state": "GO",
        "district": "Parque Lago",
        "street": "Rua Sanhaço",
        "zipcode": "73813-779"
    },
    {
        "city": "Formosa",
        "state": "GO",
        "district": "Centro",
        "street": "Rua Visconde de Porto Seguro",
        "zipcode": "73801-010"
    },
    {
        "city": "Formosa",
        "state": "GO",
        "district": "Setor Ferroviário",
        "street": "Rua Visconde de Porto Seguro",
        "zipcode": "73805-005"
    },
    {
        "city": "Formosa",
        "state": "GO",
        "district": "Setor Nordeste",
        "street": "Rua Visconde de Porto Seguro",
        "zipcode": "73807-220"
    },
    {
        "city": "Formosa",
        "state": "GO",
        "district": "Centro",
        "street": "Avenida Valeriano de Castro",
        "zipcode": "73801-100"
    },
    {
        "city": "Formosa",
        "state": "GO",
        "district": "Setor Nordeste",
        "street": "Avenida Valeriano de Castro",
        "zipcode": "73807-180"
    },
    {
        "city": "Formosa",
        "state": "GO",
        "district": "Centro",
        "street": "Rua Doutor José Décio",
        "zipcode": "73801-110"
    },
    {
        "city": "Formosa",
        "state": "GO",
        "district": "Setor Ferroviário",
        "street": "Rua Doutor José Décio",
        "zipcode": "73805-040"
    },
    {
        "city": "Formosa",
        "state": "GO",
        "district": "Setor Ferroviário",
        "street": "Rua Costa Pinto",
        "zipcode": "73805-010"
    },
    {
        "city": "Formosa",
        "state": "GO",
        "district": "Formosinha",
        "street": "Rua Manoel Alves Ferreira",
        "zipcode": "73813-130"
    },
    {
        "city": "Formosa",
        "state": "GO",
        "district": "Formosinha",
        "street": "Avenida Ângelo Chaves",
        "zipcode": "73813-101"
    },
    {
        "city": "Formosa",
        "state": "GO",
        "district": "Formosinha",
        "street": "Avenida Brasília",
        "zipcode": "73813-010"
    },
    {
        "city": "Formosa",
        "state": "GO",
        "district": "Abreu",
        "street": "Rua 3 de Outubro",
        "zipcode": "73803-005"
    },
    {
        "city": "Formosa",
        "state": "GO",
        "district": "Setor Ferroviário",
        "street": "Avenida Pedro Monteiro Guimarães",
        "zipcode": "73805-015"
    },
    {
        "city": "Formosa",
        "state": "GO",
        "district": "Vila Iara",
        "street": "Rua José Malheiros",
        "zipcode": "73803-055"
    },
    {
        "city": "Formosa",
        "state": "GO",
        "district": "Setor Pampulha",
        "street": "Avenida Circular",
        "zipcode": "73805-305"
    },
    {
        "city": "Formosa",
        "state": "GO",
        "district": "Setor Pampulha",
        "street": "Avenida Posto Agropecuário",
        "zipcode": "73805-310"
    },
    {
        "city": "Formosa",
        "state": "GO",
        "district": "Parque Laguna II",
        "street": "Avenida Maestro João Luiz do Espírito Santo",
        "zipcode": "73814-005"
    },
    {
        "city": "Formosa",
        "state": "GO",
        "district": "Centro",
        "street": "Avenida Posto Agropecuário",
        "zipcode": "73801-655"
    },
    {
        "city": "Formosa",
        "state": "GO",
        "district": "Centro",
        "street": "Travessa do Cruzeiro",
        "zipcode": "73801-575"
    },
    {
        "city": "Formosa",
        "state": "GO",
        "district": "Setor Sul",
        "street": "Avenida Tancredo Neves",
        "zipcode": "73802-489"
    },
    {
        "city": "Formosa",
        "state": "GO",
        "district": "Setor Nordeste",
        "street": "Rua 2B",
        "zipcode": "73807-343"
    },
    {
        "city": "Formosa",
        "state": "GO",
        "district": "Setor Nordeste",
        "street": "Rua Doutor Vasco",
        "zipcode": "73807-347"
    },
    {
        "city": "Formosa",
        "state": "GO",
        "district": "Parque da Colina I",
        "street": "Avenida Circular",
        "zipcode": "73808-030"
    },
    {
        "city": "Formosa",
        "state": "GO",
        "district": "Residencial Santa Rosa",
        "street": "Rua Paraíba",
        "zipcode": "73803-660"
    },
    {
        "city": "Formosa",
        "state": "GO",
        "district": "Setor Bosque",
        "street": "Rua 26",
        "zipcode": "73802-027"
    },
    {
        "city": "Formosa",
        "state": "GO",
        "district": "Nova Formosa",
        "street": "Rua 102",
        "zipcode": "73809-205"
    },
    {
        "city": "Formosa",
        "state": "GO",
        "district": "Nova Formosa",
        "street": "Rua 106",
        "zipcode": "73809-245"
    },
    {
        "city": "Formosa",
        "state": "GO",
        "district": "Parque São Francisco",
        "street": "Rua 17",
        "zipcode": "73815-060"
    },
    {
        "city": "Formosa",
        "state": "GO",
        "district": "Parque São Francisco",
        "street": "Rua 23",
        "zipcode": "73815-090"
    },
    {
        "city": "Formosa",
        "state": "GO",
        "district": "Parque São Francisco",
        "street": "Rua 29",
        "zipcode": "73815-120"
    },
    {
        "city": "Formosa",
        "state": "GO",
        "district": "Parque São Francisco",
        "street": "Rua 49",
        "zipcode": "73815-210"
    },
    {
        "city": "Formosa",
        "state": "GO",
        "district": "Chácaras do Abreu",
        "street": "Via 11",
        "zipcode": "73804-060"
    },
    {
        "city": "Formosa",
        "state": "GO",
        "district": "Setor Sul",
        "street": "Rua C",
        "zipcode": "73802-481"
    },
    {
        "city": "Formosa",
        "state": "GO",
        "district": "Parque Serrano",
        "street": "Rua 12",
        "zipcode": "73804-610"
    },
    {
        "city": "Formosa",
        "state": "GO",
        "district": "Rosa Maria",
        "street": "Rua 20",
        "zipcode": "73809-635"
    },
    {
        "city": "Formosa",
        "state": "GO",
        "district": "Distrito Agroindustrial de Formosa",
        "street": "Via Secundária 1",
        "zipcode": "73808-091"
    },
    {
        "city": "Formosa",
        "state": "GO",
        "district": "Formosinha",
        "street": "Travessa Luiz Lango Vargas",
        "zipcode": "73813-142"
    },
    {
        "city": "Formosa",
        "state": "GO",
        "district": "Jardim Califórnia",
        "street": "Rua Ônix",
        "zipcode": "73807-800"
    },
    {
        "city": "Formosa",
        "state": "GO",
        "district": "Setor Industrial II",
        "street": "Rua 11 (Vila Santa Bárbara)",
        "zipcode": "73803-175"
    },
    {
        "city": "Formosa",
        "state": "GO",
        "district": "Jardim das Américas",
        "street": "Rua da Esperança",
        "zipcode": "73803-342"
    },
    {
        "city": "Formosa",
        "state": "GO",
        "district": "Sul América",
        "street": "Rua Maria Marta Gonçalves",
        "zipcode": "73803-531"
    },
    {
        "city": "Formosa",
        "state": "GO",
        "district": "Setor Nordeste",
        "street": "Travessa Ferroviária E",
        "zipcode": "73807-397"
    },
    {
        "city": "Formosa",
        "state": "GO",
        "district": "Parque Laguna II",
        "street": "Rua 1A",
        "zipcode": "73814-275"
    },
    {
        "city": "Formosa",
        "state": "GO",
        "district": "Parque Lago",
        "street": "Rua Martins",
        "zipcode": "73813-805"
    },
    {
        "city": "Formosa",
        "state": "GO",
        "district": "Residencial Santa Rosa",
        "street": "Rua Ceará",
        "zipcode": "73803-656"
    },
    {
        "city": "Formosa",
        "state": "GO",
        "district": "São Vicente",
        "street": "Travessa 7",
        "zipcode": "73802-135"
    },
    {
        "city": "Formosa",
        "state": "GO",
        "district": "São Vicente",
        "street": "Avenida Circular",
        "zipcode": "73802-175"
    },
    {
        "city": "Formosa",
        "state": "GO",
        "district": "Setor Industrial II",
        "street": "Avenida Oeste",
        "zipcode": "73803-105"
    },
    {
        "city": "Formosa",
        "state": "GO",
        "district": "Setor Industrial II",
        "street": "Rua 6",
        "zipcode": "73803-150"
    },
    {
        "city": "Formosa",
        "state": "GO",
        "district": "Jardim das Américas",
        "street": "Rua São Salvador",
        "zipcode": "73803-344"
    },
    {
        "city": "Formosa",
        "state": "GO",
        "district": "Jardim Oliveira",
        "street": "Avenida Brocotó",
        "zipcode": "73805-226"
    },
    {
        "city": "Formosa",
        "state": "GO",
        "district": "Vila Santos",
        "street": "Travessa Pedro Monteiro Guimarães",
        "zipcode": "73805-520"
    },
    {
        "city": "Formosa",
        "state": "GO",
        "district": "Parque das Laranjeiras",
        "street": "Rua 7",
        "zipcode": "73805-675"
    },
    {
        "city": "Formosa",
        "state": "GO",
        "district": "Vila Bela",
        "street": "Rua A",
        "zipcode": "73807-055"
    },
    {
        "city": "Formosa",
        "state": "GO",
        "district": "Vila Bela",
        "street": "Rua E",
        "zipcode": "73807-060"
    },
    {
        "city": "Formosa",
        "state": "GO",
        "district": "Setor Nordeste",
        "street": "Rua 1 (Final da São Pedro)",
        "zipcode": "73807-155"
    },
    {
        "city": "Formosa",
        "state": "GO",
        "district": "Setor Nordeste",
        "street": "Rua Maria Angélica",
        "zipcode": "73807-320"
    },
    {
        "city": "Formosa",
        "state": "GO",
        "district": "Setor Nordeste",
        "street": "Travessa São Silvestre",
        "zipcode": "73807-365"
    },
    {
        "city": "Formosa",
        "state": "GO",
        "district": "Parque Dom Bosco",
        "street": "Rua 3",
        "zipcode": "73807-556"
    },
    {
        "city": "Formosa",
        "state": "GO",
        "district": "Parque Dom Bosco",
        "street": "Rua Buritis",
        "zipcode": "73807-580"
    },
    {
        "city": "Formosa",
        "state": "GO",
        "district": "Jardim Triângulo",
        "street": "Rua 1",
        "zipcode": "73808-204"
    },
    {
        "city": "Formosa",
        "state": "GO",
        "district": "Parque União",
        "street": "Rua O",
        "zipcode": "73808-540"
    },
    {
        "city": "Formosa",
        "state": "GO",
        "district": "Formosinha",
        "street": "Rua Padre José Willens",
        "zipcode": "73813-090"
    },
    {
        "city": "Formosa",
        "state": "GO",
        "district": "São Benedito",
        "street": "Rua 12",
        "zipcode": "73813-655"
    },
    {
        "city": "Formosa",
        "state": "GO",
        "district": "Setor Bela Vista",
        "street": "Avenida B (Do Final)",
        "zipcode": "73808-740"
    },
    {
        "city": "Formosa",
        "state": "GO",
        "district": "Parque Laguna II",
        "street": "Avenida Joaquim Antonio Magalhães",
        "zipcode": "73814-150"
    },
    {
        "city": "Formosa",
        "state": "GO",
        "district": "Parque Laguna II",
        "street": "Rua Antônio Pereira de Araújo",
        "zipcode": "73814-155"
    },
    {
        "city": "Formosa",
        "state": "GO",
        "district": "Parque Laguna II",
        "street": "Rua José Pereira de Araújo",
        "zipcode": "73814-260"
    },
    {
        "city": "Formosa",
        "state": "GO",
        "district": "Village",
        "street": "Rua R",
        "zipcode": "73814-599"
    }
]