[
    {
        "city": "Goiania",
        "state": "GO",
        "district": "Jardim Santa Barbara",
        "street": "Rua Sb",
        "zipcode": "74873-300"
    },
    {
        "city": "Goiania",
        "state": "GO",
        "district": "Jardim Oliveiras",
        "street": "Estrada E",
        "zipcode": "74484-605"
    },
    {
        "city": "Goiania",
        "state": "GO",
        "district": "Jardim Liberdade",
        "street": "Rua Vm Z",
        "zipcode": "74480-420"
    },
    {
        "city": "Goiania",
        "state": "GO",
        "district": "Sitios Ipe",
        "street": "Rua Dona Sanduca",
        "zipcode": "74680-460"
    },
    {
        "city": "Goiania",
        "state": "GO",
        "district": "Sitios De Recreio Quinta Dos Sonhos",
        "street": "Alameda Das Amapolas",
        "zipcode": "74377-035"
    },
    {
        "city": "Goiania",
        "state": "GO",
        "district": "Parque Das Andorinhas",
        "street": "Rua Pa",
        "zipcode": "74880-500"
    },
    {
        "city": "Goiania",
        "state": "GO",
        "district": "Jardim America",
        "street": "Avenida C",
        "zipcode": "74255-020"
    },
    {
        "city": "Goiania",
        "state": "GO",
        "district": "Goia I",
        "street": "Rua Pirineus",
        "zipcode": "74485-190"
    },
    {
        "city": "Goiania",
        "state": "GO",
        "district": "Vila Santa Tereza",
        "street": "Rua 0011",
        "zipcode": "74405-160"
    },
    {
        "city": "Goiania",
        "state": "GO",
        "district": "Jardim Santa Barbara",
        "street": "Rua Sb",
        "zipcode": "74873-310"
    },
    {
        "city": "Goiania",
        "state": "GO",
        "district": "Chacaras Grande Retiro",
        "street": "Rua Sao Gabriel",
        "zipcode": "74766-170"
    },
    {
        "city": "Goiania",
        "state": "GO",
        "district": "Jardim Santa Barbara",
        "street": "Rua Sb",
        "zipcode": "74883-360"
    },
    {
        "city": "Goiania",
        "state": "GO",
        "district": "Jardim Santa Barbara",
        "street": "Rua Pirigara",
        "zipcode": "74873-100"
    },
    {
        "city": "Goiania",
        "state": "GO",
        "district": "Setor Coimbra",
        "street": "Rua 0240B",
        "zipcode": "74533-300"
    },
    {
        "city": "Goiania",
        "state": "GO",
        "district": "Sitio De Recreio Mansoes Bernardo Sayao",
        "street": "Rua Cajazeiras",
        "zipcode": "74680-105"
    },
    {
        "city": "Goiania",
        "state": "GO",
        "district": "Residencial Eli Forte",
        "street": "Rua Ef",
        "zipcode": "74371-016"
    },
    {
        "city": "Goiania",
        "state": "GO",
        "district": "Jardim Santa Barbara",
        "street": "Rua Sb",
        "zipcode": "74873-260"
    },
    {
        "city": "Goiania",
        "state": "GO",
        "district": "Cidade Jardim",
        "street": "Rua C",
        "zipcode": "74413-060"
    },
    {
        "city": "Goiania",
        "state": "GO",
        "district": "Setor Sul",
        "street": "Praça Desembargador Inacio De Alencastro Caiado",
        "zipcode": "74093-130"
    },
    {
        "city": "Goiania",
        "state": "GO",
        "district": "Vila Cristina",
        "street": "Rua Sete De Setembro",
        "zipcode": "74583-140"
    },
    {
        "city": "Goiania",
        "state": "GO",
        "district": "Sitios De Recreio Quinta Dos Sonhos",
        "street": "Alameda Dos Anturios",
        "zipcode": "74377-155"
    },
    {
        "city": "Goiania",
        "state": "GO",
        "district": "Condominio Santa Rita",
        "street": "Rua Prof. Maria De Castro",
        "zipcode": "74485-660"
    },
    {
        "city": "Goiania",
        "state": "GO",
        "district": "Jardim Santa Barbara",
        "street": "Rua Trinta E Um De Dezembro",
        "zipcode": "74883-640"
    },
    {
        "city": "Goiania",
        "state": "GO",
        "district": "Jardim Santa Barbara",
        "street": "Rua E",
        "zipcode": "74883-110"
    },
    {
        "city": "Goiania",
        "state": "GO",
        "district": "Sitios Ipe",
        "street": "Rua Santa Rosa",
        "zipcode": "74680-480"
    },
    {
        "city": "Goiania",
        "state": "GO",
        "district": "Jardim Santa Barbara",
        "street": "Rua Saragossa",
        "zipcode": "74873-150"
    },
    {
        "city": "Goiania",
        "state": "GO",
        "district": "Jardim Italia",
        "street": "Rua Trapani",
        "zipcode": "74367-160"
    },
    {
        "city": "Goiania",
        "state": "GO",
        "district": "Vila Nossa Senhora Da Guia",
        "street": "Rua Santa Rita De Cassia",
        "zipcode": "74394-015"
    },
    {
        "city": "Goiania",
        "state": "GO",
        "district": "Residencial Primavera",
        "street": "Rua Rp",
        "zipcode": "74593-820"
    },
    {
        "city": "Goiania",
        "state": "GO",
        "district": "Jardim Italia",
        "street": "Rua Segesta",
        "zipcode": "74367-540"
    },
    {
        "city": "Goiania",
        "state": "GO",
        "district": "Jardim Santa Barbara",
        "street": "Rua Sb",
        "zipcode": "74883-350"
    },
    {
        "city": "Goiania",
        "state": "GO",
        "district": "Residencial Primavera",
        "street": "Rua Das Fontes",
        "zipcode": "74593-610"
    },
    {
        "city": "Goiania",
        "state": "GO",
        "district": "Parque Das Andorinhas",
        "street": "Rua Borges Teixeira",
        "zipcode": "74880-030"
    },
    {
        "city": "Goiania",
        "state": "GO",
        "district": "Sitios De Recreio Quinta Dos Sonhos",
        "street": "Alameda Das Violetas",
        "zipcode": "74377-095"
    },
    {
        "city": "Goiania",
        "state": "GO",
        "district": "Vila Aurora",
        "street": "Travessa 0004",
        "zipcode": "74403-060"
    },
    {
        "city": "Goiania",
        "state": "GO",
        "district": "Parque Dom Ricardo",
        "street": "Avenida Dom Ricardo",
        "zipcode": "74875-180"
    },
    {
        "city": "Goiania",
        "state": "GO",
        "district": "Jardim Italia",
        "street": "Rua Novara",
        "zipcode": "74367-350"
    },
    {
        "city": "Goiania",
        "state": "GO",
        "district": "Alto Da Gloria",
        "street": "Rua Recife",
        "zipcode": "74815-260"
    },
    {
        "city": "Goiania",
        "state": "GO",
        "district": "Jardim California",
        "street": "Viela Da Passagem",
        "zipcode": "74735-140"
    },
    {
        "city": "Goiania",
        "state": "GO",
        "district": "Setor Norte Ferroviario",
        "street": "Avenida Independencia",
        "zipcode": "74063-055"
    },
    {
        "city": "Goiania",
        "state": "GO",
        "district": "Vila Coronel Cosme",
        "street": "Viela C",
        "zipcode": "74635-085"
    },
    {
        "city": "Goiania",
        "state": "GO",
        "district": "Sao Francisco",
        "street": "Travessa Independencia",
        "zipcode": "74455-110"
    },
    {
        "city": "Goiania",
        "state": "GO",
        "district": "Setor Sul",
        "street": "Praça Desembargador Mario De Alencastro Caiado",
        "zipcode": "74085-560"
    },
    {
        "city": "Goiania",
        "state": "GO",
        "district": "Sitio De Recreio Mansoes Bernardo Sayao",
        "street": "Rua Firmina",
        "zipcode": "74680-190"
    },
    {
        "city": "Goiania",
        "state": "GO",
        "district": "Sitio De Recreio Morada Do Sol",
        "street": "Rua T",
        "zipcode": "74475-142"
    },
    {
        "city": "Goiania",
        "state": "GO",
        "district": "Residencial Primavera",
        "street": "Rua Das Flores",
        "zipcode": "74593-600"
    },
    {
        "city": "Goiania",
        "state": "GO",
        "district": "Setor Candida De Morais",
        "street": "Avenida Inconfidencia",
        "zipcode": "74463-300"
    },
    {
        "city": "Goiania",
        "state": "GO",
        "district": "Jardim Santa Barbara",
        "street": "Rua Sb",
        "zipcode": "74883-650"
    },
    {
        "city": "Goiania",
        "state": "GO",
        "district": "Sitios De Recreio Quinta Dos Sonhos",
        "street": "Rua Q",
        "zipcode": "74377-030"
    },
    {
        "city": "Goiania",
        "state": "GO",
        "district": "Parque Das Andorinhas",
        "street": "Rua Itaperatica",
        "zipcode": "74880-140"
    },
    {
        "city": "Goiania",
        "state": "GO",
        "district": "Setor Central",
        "street": "Rua 0010A",
        "zipcode": "74030-170"
    },
    {
        "city": "Goiania",
        "state": "GO",
        "district": "Setor Central",
        "street": "Rua 0005",
        "zipcode": "74055-290"
    },
    {
        "city": "Goiania",
        "state": "GO",
        "district": "Setor Aeroporto",
        "street": "Avenida Republica Do Libano",
        "zipcode": "74075-020"
    },
    {
        "city": "Goiania",
        "state": "GO",
        "district": "Setor Sul",
        "street": "Rua 0081",
        "zipcode": "74083-400"
    },
    {
        "city": "Goiania",
        "state": "GO",
        "district": "Setor Sul",
        "street": "Praça Do Cruzeiro",
        "zipcode": "74093-010"
    },
    {
        "city": "Goiania",
        "state": "GO",
        "district": "Setor Oeste",
        "street": "Rua 101",
        "zipcode": "74120-101"
    },
    {
        "city": "Goiania",
        "state": "GO",
        "district": "Jardim Caravelas",
        "street": "Rua 0029",
        "zipcode": "74354-029"
    },
    {
        "city": "Goiania",
        "state": "GO",
        "district": "Setor Bueno",
        "street": "Avenida T",
        "zipcode": "74230-040"
    },
    {
        "city": "Goiania",
        "state": "GO",
        "district": "Setor Oeste",
        "street": "Rua T",
        "zipcode": "74140-025"
    },
    {
        "city": "Goiania",
        "state": "GO",
        "district": "Vila Santa Efigenia",
        "street": "Rua C",
        "zipcode": "74265-090"
    },
    {
        "city": "Goiania",
        "state": "GO",
        "district": "Setor Bueno",
        "street": "Rua Rachid Auad",
        "zipcode": "74230-020"
    },
    {
        "city": "Goiania",
        "state": "GO",
        "district": "Jardim America",
        "street": "Avenida C",
        "zipcode": "74290-010"
    },
    {
        "city": "Goiania",
        "state": "GO",
        "district": "Jardim Europa",
        "street": "Rua Marechal Deodoro",
        "zipcode": "74330-410"
    },
    {
        "city": "Goiania",
        "state": "GO",
        "district": "Setor Norte Ferroviario",
        "street": "Rua 0017B",
        "zipcode": "74063-175"
    },
    {
        "city": "Goiania",
        "state": "GO",
        "district": "Jardim Italia",
        "street": "Rua Milao",
        "zipcode": "74367-320"
    },
    {
        "city": "Goiania",
        "state": "GO",
        "district": "Jardim Europa",
        "street": "Rua Caramuru",
        "zipcode": "74330-610"
    },
    {
        "city": "Goiania",
        "state": "GO",
        "district": "Jardim America",
        "street": "Praça C",
        "zipcode": "74265-380"
    },
    {
        "city": "Goiania",
        "state": "GO",
        "district": "Vila Sol Nascente",
        "street": "Rua Direita",
        "zipcode": "74120-123"
    },
    {
        "city": "Goiania",
        "state": "GO",
        "district": "Jardim Italia",
        "street": "Rua Imola",
        "zipcode": "74367-310"
    },
    {
        "city": "Goiania",
        "state": "GO",
        "district": "Setor Oeste",
        "street": "Praça Silvia Baiochi",
        "zipcode": "74125-190"
    },
    {
        "city": "Goiania",
        "state": "GO",
        "district": "Jardim Atlantico",
        "street": "Rua Capitao Breno",
        "zipcode": "74343-255"
    },
    {
        "city": "Goiania",
        "state": "GO",
        "district": "Anhanguera",
        "street": "Avenida Epitacio Pessoa",
        "zipcode": "74335-070"
    },
    {
        "city": "Goiania",
        "state": "GO",
        "district": "Parque Anhanguera Ii",
        "street": "Avenida Marechal Rondon",
        "zipcode": "74340-535"
    },
    {
        "city": "Goiania",
        "state": "GO",
        "district": "Anhanguera",
        "street": "Avenida Vital Brasil",
        "zipcode": "74335-150"
    },
    {
        "city": "Goiania",
        "state": "GO",
        "district": "Jardim Italia",
        "street": "Rua Ticiano",
        "zipcode": "74367-250"
    },
    {
        "city": "Goiania",
        "state": "GO",
        "district": "Setor Sul",
        "street": "Rua 0112B",
        "zipcode": "74085-170"
    },
    {
        "city": "Goiania",
        "state": "GO",
        "district": "Setor Sudoeste",
        "street": "Rua Dr Pinheiro Chagas",
        "zipcode": "74303-064"
    },
    {
        "city": "Goiania",
        "state": "GO",
        "district": "Jardim Sao Paulo",
        "street": "Rua Dr Solon De Almeida",
        "zipcode": "74303-068"
    },
    {
        "city": "Goiania",
        "state": "GO",
        "district": "Jardim Italia",
        "street": "Rua Modena",
        "zipcode": "74367-360"
    },
    {
        "city": "Goiania",
        "state": "GO",
        "district": "Setor Sudoeste",
        "street": "Praça C",
        "zipcode": "74305-070"
    },
    {
        "city": "Goiania",
        "state": "GO",
        "district": "Jardim Italia",
        "street": "Avenida Sorrento",
        "zipcode": "74367-380"
    },
    {
        "city": "Goiania",
        "state": "GO",
        "district": "Setor Norte Ferroviario",
        "street": "Rua 0067D",
        "zipcode": "74063-430"
    },
    {
        "city": "Goiania",
        "state": "GO",
        "district": "Parque Anhanguera",
        "street": "Avenida Prudente De Morais",
        "zipcode": "74340-100"
    },
    {
        "city": "Goiania",
        "state": "GO",
        "district": "Vila Alvorada",
        "street": "Rua San Rafael",
        "zipcode": "74315-410"
    },
    {
        "city": "Goiania",
        "state": "GO",
        "district": "Setor Sul",
        "street": "Rua 0082A",
        "zipcode": "74083-015"
    },
    {
        "city": "Goiania",
        "state": "GO",
        "district": "Jardim Italia",
        "street": "Rua Arese",
        "zipcode": "74367-240"
    },
    {
        "city": "Goiania",
        "state": "GO",
        "district": "Jardim Europa",
        "street": "Rua Pasteur",
        "zipcode": "74330-154"
    },
    {
        "city": "Goiania",
        "state": "GO",
        "district": "Setor Bueno",
        "street": "Rua T",
        "zipcode": "74223-050"
    },
    {
        "city": "Goiania",
        "state": "GO",
        "district": "Setor Norte Ferroviario",
        "street": "Rua 0015A",
        "zipcode": "74063-027"
    },
    {
        "city": "Goiania",
        "state": "GO",
        "district": "Setor Sul",
        "street": "Praça Desembargador Emilio Povoa",
        "zipcode": "74085-550"
    },
    {
        "city": "Goiania",
        "state": "GO",
        "district": "Setor Oeste",
        "street": "Rua 0023B",
        "zipcode": "74120-150"
    },
    {
        "city": "Goiania",
        "state": "GO",
        "district": "Setor Bueno",
        "street": "Rua T",
        "zipcode": "74223-090"
    },
    {
        "city": "Goiania",
        "state": "GO",
        "district": "Setor Sul",
        "street": "Rua 0112C",
        "zipcode": "74085-180"
    },
    {
        "city": "Goiania",
        "state": "GO",
        "district": "Parque Anhanguera Ii",
        "street": "Rua Presidente Prudente De Morais",
        "zipcode": "74340-580"
    },
    {
        "city": "Goiania",
        "state": "GO",
        "district": "Setor Oeste",
        "street": "Praça Vila Boa",
        "zipcode": "74110-080"
    },
    {
        "city": "Goiania",
        "state": "GO",
        "district": "Faicalville",
        "street": "Rua Presidente Lincoln",
        "zipcode": "74350-830"
    },
    {
        "city": "Goiania",
        "state": "GO",
        "district": "Vila Rosa",
        "street": "Avenida Rio Verde",
        "zipcode": "74345-330"
    },
    {
        "city": "Goiania",
        "state": "GO",
        "district": "Jardim Italia",
        "street": "Avenida Firenze",
        "zipcode": "74367-290"
    },
    {
        "city": "Goiania",
        "state": "GO",
        "district": "Vila Uniao",
        "street": "Rua C",
        "zipcode": "74313-770"
    },
    {
        "city": "Goiania",
        "state": "GO",
        "district": "Setor Marista",
        "street": "Rua T",
        "zipcode": "74150-290"
    },
    {
        "city": "Goiania",
        "state": "GO",
        "district": "Setor Bueno",
        "street": "Avenida T",
        "zipcode": "74215-100"
    },
    {
        "city": "Goiania",
        "state": "GO",
        "district": "Jardim Italia",
        "street": "Rua Ferrara",
        "zipcode": "74367-340"
    },
    {
        "city": "Goiania",
        "state": "GO",
        "district": "Jardim Atlantico",
        "street": "Rua Da Ancora",
        "zipcode": "74343-130"
    },
    {
        "city": "Goiania",
        "state": "GO",
        "district": "Setor Marista",
        "street": "Rua 0144A",
        "zipcode": "74170-070"
    },
    {
        "city": "Goiania",
        "state": "GO",
        "district": "Parque Anhanguera",
        "street": "Rua Pasteur",
        "zipcode": "74340-215"
    },
    {
        "city": "Goiania",
        "state": "GO",
        "district": "Setor Bueno",
        "street": "Rua T",
        "zipcode": "74210-360"
    },
    {
        "city": "Goiania",
        "state": "GO",
        "district": "Jardim Italia",
        "street": "Rua Laniere",
        "zipcode": "74367-280"
    },
    {
        "city": "Goiania",
        "state": "GO",
        "district": "Vila Teofilo Neto",
        "street": "Rua Mendanha",
        "zipcode": "74210-111"
    },
    {
        "city": "Goiania",
        "state": "GO",
        "district": "Jardim Italia",
        "street": "Rua Luini",
        "zipcode": "74367-260"
    },
    {
        "city": "Goiania",
        "state": "GO",
        "district": "Vila Lucy",
        "street": "Rua Uberaba",
        "zipcode": "74320-410"
    },
    {
        "city": "Goiania",
        "state": "GO",
        "district": "Parque Santa Rita",
        "street": "Rua 0003",
        "zipcode": "74370-475"
    },
    {
        "city": "Goiania",
        "state": "GO",
        "district": "Parque Santa Rita",
        "street": "Rua 0004",
        "zipcode": "74370-485"
    },
    {
        "city": "Goiania",
        "state": "GO",
        "district": "Parque Santa Rita",
        "street": "Rua 0005",
        "zipcode": "74370-490"
    },
    {
        "city": "Goiania",
        "state": "GO",
        "district": "Parque Santa Rita",
        "street": "Rua 0001",
        "zipcode": "74370-470"
    },
    {
        "city": "Goiania",
        "state": "GO",
        "district": "Jardim Italia",
        "street": "Rua Fiora",
        "zipcode": "74367-220"
    },
    {
        "city": "Goiania",
        "state": "GO",
        "district": "Jardim Italia",
        "street": "Rua Ortona",
        "zipcode": "74367-430"
    },
    {
        "city": "Goiania",
        "state": "GO",
        "district": "Oriente Ville",
        "street": "Rua Bolivar Peres",
        "zipcode": "74355-653"
    },
    {
        "city": "Goiania",
        "state": "GO",
        "district": "Jardim Italia",
        "street": "Rua Lanciano",
        "zipcode": "74367-130"
    },
    {
        "city": "Goiania",
        "state": "GO",
        "district": "Jardim Italia",
        "street": "Rua Verceli",
        "zipcode": "74367-300"
    },
    {
        "city": "Goiania",
        "state": "GO",
        "district": "Oriente Ville",
        "street": "Praça Joaquim Borges De Menezes",
        "zipcode": "74355-661"
    },
    {
        "city": "Goiania",
        "state": "GO",
        "district": "Jardim Italia",
        "street": "Rua Ceruti",
        "zipcode": "74367-070"
    },
    {
        "city": "Goiania",
        "state": "GO",
        "district": "Jardim Italia",
        "street": "Rua Rimini",
        "zipcode": "74367-190"
    },
    {
        "city": "Goiania",
        "state": "GO",
        "district": "Jardim Italia",
        "street": "Rua Ravena",
        "zipcode": "74367-030"
    },
    {
        "city": "Goiania",
        "state": "GO",
        "district": "Sitios De Recreio Quinta Dos Sonhos",
        "street": "Rua Q",
        "zipcode": "74377-020"
    },
    {
        "city": "Goiania",
        "state": "GO",
        "district": "Residencial Eli Forte",
        "street": "Rua Ef",
        "zipcode": "74371-031"
    },
    {
        "city": "Goiania",
        "state": "GO",
        "district": "Residencial Eli Forte",
        "street": "Rua Ef",
        "zipcode": "74371-034"
    },
    {
        "city": "Goiania",
        "state": "GO",
        "district": "Jardim Italia",
        "street": "Rua Lavino",
        "zipcode": "74367-140"
    },
    {
        "city": "Goiania",
        "state": "GO",
        "district": "Jardim Italia",
        "street": "Rua Tivoli",
        "zipcode": "74367-610"
    },
    {
        "city": "Goiania",
        "state": "GO",
        "district": "Parque Santa Rita",
        "street": "Rua Sao Pedro",
        "zipcode": "74370-500"
    },
    {
        "city": "Goiania",
        "state": "GO",
        "district": "Residencial Eli Forte",
        "street": "Rua Ef",
        "zipcode": "74371-014"
    },
    {
        "city": "Goiania",
        "state": "GO",
        "district": "Jardim Italia",
        "street": "Rua Pitati",
        "zipcode": "74367-010"
    },
    {
        "city": "Goiania",
        "state": "GO",
        "district": "Jardim Italia",
        "street": "Rua Eboli",
        "zipcode": "74367-400"
    },
    {
        "city": "Goiania",
        "state": "GO",
        "district": "Jardim Italia",
        "street": "Rua Piza",
        "zipcode": "74367-450"
    },
    {
        "city": "Goiania",
        "state": "GO",
        "district": "Oriente Ville",
        "street": "Rua Adeli Guirandelli",
        "zipcode": "74355-659"
    },
    {
        "city": "Goiania",
        "state": "GO",
        "district": "Jardim Italia",
        "street": "Rua Gravina",
        "zipcode": "74367-180"
    },
    {
        "city": "Goiania",
        "state": "GO",
        "district": "Sitios De Recreio Quinta Dos Sonhos",
        "street": "Alameda Das Begonias",
        "zipcode": "74377-005"
    },
    {
        "city": "Goiania",
        "state": "GO",
        "district": "Sitios De Recreio Quinta Dos Sonhos",
        "street": "Alameda Das Tulipas",
        "zipcode": "74377-025"
    },
    {
        "city": "Goiania",
        "state": "GO",
        "district": "Jardim Italia",
        "street": "Rua Varese",
        "zipcode": "74367-210"
    },
    {
        "city": "Goiania",
        "state": "GO",
        "district": "Oriente Ville",
        "street": "Rua Marcelo Moreira",
        "zipcode": "74355-651"
    },
    {
        "city": "Goiania",
        "state": "GO",
        "district": "Jardim Italia",
        "street": "Rua Udine",
        "zipcode": "74367-390"
    },
    {
        "city": "Goiania",
        "state": "GO",
        "district": "Parque Santa Rita",
        "street": "Rua Lidio De Faria",
        "zipcode": "74370-540"
    },
    {
        "city": "Goiania",
        "state": "GO",
        "district": "Jardim Italia",
        "street": "Rua Morel",
        "zipcode": "74367-150"
    },
    {
        "city": "Goiania",
        "state": "GO",
        "district": "Jardim Italia",
        "street": "Rua Faensa",
        "zipcode": "74367-090"
    },
    {
        "city": "Goiania",
        "state": "GO",
        "district": "Jardim Italia",
        "street": "Rua Reggo",
        "zipcode": "74367-580"
    },
    {
        "city": "Goiania",
        "state": "GO",
        "district": "Jardim Italia",
        "street": "Rua Urbino",
        "zipcode": "74367-620"
    },
    {
        "city": "Goiania",
        "state": "GO",
        "district": "Jardim Italia",
        "street": "Rua Milano",
        "zipcode": "74367-590"
    },
    {
        "city": "Goiania",
        "state": "GO",
        "district": "Residencial Eli Forte",
        "street": "Rua Ef",
        "zipcode": "74371-021"
    },
    {
        "city": "Goiania",
        "state": "GO",
        "district": "Jardim Italia",
        "street": "Rua Molise",
        "zipcode": "74367-480"
    },
    {
        "city": "Goiania",
        "state": "GO",
        "district": "Jardim Italia",
        "street": "Rua Andria",
        "zipcode": "74367-490"
    },
    {
        "city": "Goiania",
        "state": "GO",
        "district": "Jardim Italia",
        "street": "Avenida Napoli",
        "zipcode": "74367-050"
    },
    {
        "city": "Goiania",
        "state": "GO",
        "district": "Parque Santa Rita",
        "street": "Rua Sirlene",
        "zipcode": "74370-505"
    },
    {
        "city": "Goiania",
        "state": "GO",
        "district": "Oriente Ville",
        "street": "Rua Melchiades Jose Da Silva",
        "zipcode": "74355-655"
    },
    {
        "city": "Goiania",
        "state": "GO",
        "district": "Jardim Italia",
        "street": "Rua Padova",
        "zipcode": "74367-500"
    },
    {
        "city": "Goiania",
        "state": "GO",
        "district": "Residencial Eli Forte",
        "street": "Rua Ef",
        "zipcode": "74371-027"
    },
    {
        "city": "Goiania",
        "state": "GO",
        "district": "Parque Santa Rita",
        "street": "Rua Sao Joao",
        "zipcode": "74370-510"
    },
    {
        "city": "Goiania",
        "state": "GO",
        "district": "Parque Santa Rita",
        "street": "Rua Hortencia",
        "zipcode": "74370-545"
    },
    {
        "city": "Goiania",
        "state": "GO",
        "district": "Jardim Italia",
        "street": "Rua Verdona",
        "zipcode": "74367-550"
    },
    {
        "city": "Goiania",
        "state": "GO",
        "district": "Jardim Italia",
        "street": "Rua Mantolva",
        "zipcode": "74367-460"
    },
    {
        "city": "Goiania",
        "state": "GO",
        "district": "Residencial Eli Forte",
        "street": "Rua Ef",
        "zipcode": "74371-025"
    },
    {
        "city": "Goiania",
        "state": "GO",
        "district": "Jardim Italia",
        "street": "Rua Muziano",
        "zipcode": "74367-060"
    },
    {
        "city": "Goiania",
        "state": "GO",
        "district": "Jardim Italia",
        "street": "Rua Catania",
        "zipcode": "74367-410"
    },
    {
        "city": "Goiania",
        "state": "GO",
        "district": "Setor Esmeraldas",
        "street": "Rua 0046",
        "zipcode": "74355-431"
    },
    {
        "city": "Goiania",
        "state": "GO",
        "district": "Jardim Italia",
        "street": "Rua Beluno",
        "zipcode": "74367-110"
    },
    {
        "city": "Goiania",
        "state": "GO",
        "district": "Residencial Eli Forte",
        "street": "Rua Ef",
        "zipcode": "74371-013"
    },
    {
        "city": "Goiania",
        "state": "GO",
        "district": "Jardim Italia",
        "street": "Rua Sardenha",
        "zipcode": "74367-570"
    },
    {
        "city": "Goiania",
        "state": "GO",
        "district": "Jardim Italia",
        "street": "Rua Casio",
        "zipcode": "74367-170"
    },
    {
        "city": "Goiania",
        "state": "GO",
        "district": "Sitios De Recreio Quinta Dos Sonhos",
        "street": "Rua Q",
        "zipcode": "74377-015"
    },
    {
        "city": "Goiania",
        "state": "GO",
        "district": "Parque Santa Rita",
        "street": "Rua Realino Borges",
        "zipcode": "74370-560"
    },
    {
        "city": "Goiania",
        "state": "GO",
        "district": "Parque Santa Rita",
        "street": "Rua Vicente Costa",
        "zipcode": "74370-550"
    },
    {
        "city": "Goiania",
        "state": "GO",
        "district": "Jardim Italia",
        "street": "Rua Santi",
        "zipcode": "74367-020"
    },
    {
        "city": "Goiania",
        "state": "GO",
        "district": "Jardim Italia",
        "street": "Rua Ragusa",
        "zipcode": "74367-530"
    },
    {
        "city": "Goiania",
        "state": "GO",
        "district": "Jardim Italia",
        "street": "Avenida Pescara",
        "zipcode": "74367-100"
    },
    {
        "city": "Goiania",
        "state": "GO",
        "district": "Jardim Italia",
        "street": "Rua Riete",
        "zipcode": "74367-440"
    },
    {
        "city": "Goiania",
        "state": "GO",
        "district": "Vila Mutirao (I Etapa)",
        "street": "Rua Da Mata",
        "zipcode": "74480-090"
    },
    {
        "city": "Goiania",
        "state": "GO",
        "district": "Sitios De Recreio Quinta Dos Sonhos",
        "street": "Rua Q",
        "zipcode": "74377-185"
    },
    {
        "city": "Goiania",
        "state": "GO",
        "district": "Vila Canaa",
        "street": "Rua Santa Catarina",
        "zipcode": "74415-335"
    },
    {
        "city": "Goiania",
        "state": "GO",
        "district": "Vila Canaa",
        "street": "Rua Canaa",
        "zipcode": "74415-330"
    },
    {
        "city": "Goiania",
        "state": "GO",
        "district": "Sitios De Recreio Quinta Dos Sonhos",
        "street": "Rua Q",
        "zipcode": "74377-110"
    },
    {
        "city": "Goiania",
        "state": "GO",
        "district": "Sitios De Recreio Quinta Dos Sonhos",
        "street": "Rua Q",
        "zipcode": "74377-130"
    },
    {
        "city": "Goiania",
        "state": "GO",
        "district": "Sao Carlos",
        "street": "Rua Bs",
        "zipcode": "74477-386"
    },
    {
        "city": "Goiania",
        "state": "GO",
        "district": "Vila Nossa Senhora Da Guia",
        "street": "Rua 0013",
        "zipcode": "74394-025"
    },
    {
        "city": "Goiania",
        "state": "GO",
        "district": "Vila Nossa Senhora Da Guia",
        "street": "Rua 0003",
        "zipcode": "74394-050"
    },
    {
        "city": "Goiania",
        "state": "GO",
        "district": "Sitios De Recreio Quinta Dos Sonhos",
        "street": "Alameda Das Samambaias",
        "zipcode": "74377-175"
    },
    {
        "city": "Goiania",
        "state": "GO",
        "district": "Sitios De Recreio Quinta Dos Sonhos",
        "street": "Rua Q",
        "zipcode": "74377-040"
    },
    {
        "city": "Goiania",
        "state": "GO",
        "district": "Sitios De Recreio Quinta Dos Sonhos",
        "street": "Alameda Dos Crisantemos",
        "zipcode": "74377-070"
    },
    {
        "city": "Goiania",
        "state": "GO",
        "district": "Jardim Botanico",
        "street": "Avenida Pinheiros",
        "zipcode": "74390-695"
    },
    {
        "city": "Goiania",
        "state": "GO",
        "district": "Sitios De Recreio Quinta Dos Sonhos",
        "street": "Rua Q",
        "zipcode": "74377-065"
    },
    {
        "city": "Goiania",
        "state": "GO",
        "district": "Sitios De Recreio Quinta Dos Sonhos",
        "street": "Alameda Das Dalias",
        "zipcode": "74377-150"
    },
    {
        "city": "Goiania",
        "state": "GO",
        "district": "Sitios De Recreio Quinta Dos Sonhos",
        "street": "Rua Q",
        "zipcode": "74377-100"
    },
    {
        "city": "Goiania",
        "state": "GO",
        "district": "Vila Aurora",
        "street": "Alameda Aidilio Ferreira",
        "zipcode": "74403-320"
    },
    {
        "city": "Goiania",
        "state": "GO",
        "district": "Sitios De Recreio Quinta Dos Sonhos",
        "street": "Rua Q",
        "zipcode": "74377-170"
    },
    {
        "city": "Goiania",
        "state": "GO",
        "district": "Sitios De Recreio Quinta Dos Sonhos",
        "street": "Rua Q",
        "zipcode": "74377-180"
    },
    {
        "city": "Goiania",
        "state": "GO",
        "district": "Vila Nossa Senhora Da Guia",
        "street": "Avenida Intermunicipal",
        "zipcode": "74394-010"
    },
    {
        "city": "Goiania",
        "state": "GO",
        "district": "Vila Nossa Senhora Da Guia",
        "street": "Rua 0011",
        "zipcode": "74394-030"
    },
    {
        "city": "Goiania",
        "state": "GO",
        "district": "Sitios De Recreio Quinta Dos Sonhos",
        "street": "Rua Q",
        "zipcode": "74377-145"
    },
    {
        "city": "Goiania",
        "state": "GO",
        "district": "Sao Carlos",
        "street": "Rua Bs",
        "zipcode": "74477-391"
    },
    {
        "city": "Goiania",
        "state": "GO",
        "district": "Sao Carlos",
        "street": "Rua Bs",
        "zipcode": "74477-381"
    },
    {
        "city": "Goiania",
        "state": "GO",
        "district": "Sao Carlos",
        "street": "Rua Bs",
        "zipcode": "74477-399"
    },
    {
        "city": "Goiania",
        "state": "GO",
        "district": "Sao Carlos",
        "street": "Rua Bs",
        "zipcode": "74477-396"
    },
    {
        "city": "Goiania",
        "state": "GO",
        "district": "Sitios De Recreio Quinta Dos Sonhos",
        "street": "Rua Q",
        "zipcode": "74377-045"
    },
    {
        "city": "Goiania",
        "state": "GO",
        "district": "Conj Castelo Branco",
        "street": "Rua Cirineu De Araujo",
        "zipcode": "74413-195"
    },
    {
        "city": "Goiania",
        "state": "GO",
        "district": "Sitios De Recreio Quinta Dos Sonhos",
        "street": "Rua Q",
        "zipcode": "74377-105"
    },
    {
        "city": "Goiania",
        "state": "GO",
        "district": "Vila Canaa",
        "street": "Rua Conquista",
        "zipcode": "74415-340"
    },
    {
        "city": "Goiania",
        "state": "GO",
        "district": "Condominio Jardim Aritana",
        "street": "Via Dos Santos",
        "zipcode": "74391-330"
    },
    {
        "city": "Goiania",
        "state": "GO",
        "district": "Sitios De Recreio Quinta Dos Sonhos",
        "street": "Rua Q",
        "zipcode": "74377-080"
    },
    {
        "city": "Goiania",
        "state": "GO",
        "district": "Sitios De Recreio Quinta Dos Sonhos",
        "street": "Rua Q",
        "zipcode": "74377-135"
    },
    {
        "city": "Goiania",
        "state": "GO",
        "district": "Vila Nossa Senhora Da Guia",
        "street": "Rua 0009",
        "zipcode": "74394-035"
    },
    {
        "city": "Goiania",
        "state": "GO",
        "district": "Sitios De Recreio Quinta Dos Sonhos",
        "street": "Rua Q",
        "zipcode": "74377-140"
    },
    {
        "city": "Goiania",
        "state": "GO",
        "district": "Vila Nossa Senhora Da Guia",
        "street": "Rua 0002",
        "zipcode": "74394-020"
    },
    {
        "city": "Goiania",
        "state": "GO",
        "district": "Sitios De Recreio Quinta Dos Sonhos",
        "street": "Rua Q",
        "zipcode": "74377-090"
    },
    {
        "city": "Goiania",
        "state": "GO",
        "district": "Vila Nossa Senhora Da Guia",
        "street": "Rodovia Br",
        "zipcode": "74394-005"
    },
    {
        "city": "Goiania",
        "state": "GO",
        "district": "Vila Aurora",
        "street": "Praça Prof. Agnelo Fleury",
        "zipcode": "74403-240"
    },
    {
        "city": "Goiania",
        "state": "GO",
        "district": "Sitios De Recreio Quinta Dos Sonhos",
        "street": "Rua Q",
        "zipcode": "74377-055"
    },
    {
        "city": "Goiania",
        "state": "GO",
        "district": "Jardim Liberdade",
        "street": "Rua Vm X",
        "zipcode": "74480-410"
    },
    {
        "city": "Goiania",
        "state": "GO",
        "district": "Vila Bethel",
        "street": "Avenida Cascavel",
        "zipcode": "74410-010"
    },
    {
        "city": "Goiania",
        "state": "GO",
        "district": "Sao Carlos",
        "street": "Rua Bs",
        "zipcode": "74477-382"
    },
    {
        "city": "Goiania",
        "state": "GO",
        "district": "Operario",
        "street": "Rua 0006",
        "zipcode": "74403-066"
    },
    {
        "city": "Goiania",
        "state": "GO",
        "district": "Operario",
        "street": "Rua Teixeira Filho",
        "zipcode": "74403-062"
    },
    {
        "city": "Goiania",
        "state": "GO",
        "district": "Sitios De Recreio Quinta Dos Sonhos",
        "street": "Rua Q",
        "zipcode": "74377-060"
    },
    {
        "city": "Goiania",
        "state": "GO",
        "district": "Sao Carlos",
        "street": "Rua Bs",
        "zipcode": "74477-385"
    },
    {
        "city": "Goiania",
        "state": "GO",
        "district": "Vila Nossa Senhora Da Guia",
        "street": "Rua 0005",
        "zipcode": "74394-045"
    },
    {
        "city": "Goiania",
        "state": "GO",
        "district": "Sitios De Recreio Quinta Dos Sonhos",
        "street": "Alameda Dos Lirios",
        "zipcode": "74377-160"
    },
    {
        "city": "Goiania",
        "state": "GO",
        "district": "Sao Carlos",
        "street": "Rua Bs",
        "zipcode": "74477-398"
    },
    {
        "city": "Goiania",
        "state": "GO",
        "district": "Sitios De Recreio Quinta Dos Sonhos",
        "street": "Rua Q",
        "zipcode": "74377-120"
    },
    {
        "city": "Goiania",
        "state": "GO",
        "district": "Residencial Eli Forte",
        "street": "Rua Ef",
        "zipcode": "74371-026"
    },
    {
        "city": "Goiania",
        "state": "GO",
        "district": "Sao Carlos",
        "street": "Rua Bs",
        "zipcode": "74477-400"
    },
    {
        "city": "Goiania",
        "state": "GO",
        "district": "Sitios De Recreio Quinta Dos Sonhos",
        "street": "Rua Q",
        "zipcode": "74377-165"
    },
    {
        "city": "Goiania",
        "state": "GO",
        "district": "Sao Carlos",
        "street": "Rua Bs",
        "zipcode": "74477-389"
    },
    {
        "city": "Goiania",
        "state": "GO",
        "district": "Vila Bethel",
        "street": "Rua 0006",
        "zipcode": "74410-055"
    },
    {
        "city": "Goiania",
        "state": "GO",
        "district": "Sitios De Recreio Quinta Dos Sonhos",
        "street": "Alameda Hortencias",
        "zipcode": "74377-125"
    },
    {
        "city": "Goiania",
        "state": "GO",
        "district": "Sao Carlos",
        "street": "Rua Bs",
        "zipcode": "74477-392"
    },
    {
        "city": "Goiania",
        "state": "GO",
        "district": "Sitios De Recreio Quinta Dos Sonhos",
        "street": "Rua Q",
        "zipcode": "74377-075"
    },
    {
        "city": "Goiania",
        "state": "GO",
        "district": "Vila Sol Nascente",
        "street": "Avenida Cascavel",
        "zipcode": "74410-142"
    },
    {
        "city": "Goiania",
        "state": "GO",
        "district": "Jardim Nova Esperanca",
        "street": "Rua Independencia",
        "zipcode": "74465-180"
    },
    {
        "city": "Goiania",
        "state": "GO",
        "district": "Jardim Liberdade",
        "street": "Rua Vm S",
        "zipcode": "74475-490"
    },
    {
        "city": "Goiania",
        "state": "GO",
        "district": "Setor Coimbra",
        "street": "Rua Campinas",
        "zipcode": "74530-242"
    },
    {
        "city": "Goiania",
        "state": "GO",
        "district": "Setor Coimbra",
        "street": "Rua 0260",
        "zipcode": "74535-480"
    },
    {
        "city": "Goiania",
        "state": "GO",
        "district": "Loteamento Santa Terezinha",
        "street": "Rua 0004",
        "zipcode": "74425-610"
    },
    {
        "city": "Goiania",
        "state": "GO",
        "district": "Parque Industrial Joao Braz",
        "street": "Rua Do Bosque",
        "zipcode": "74483-120"
    },
    {
        "city": "Goiania",
        "state": "GO",
        "district": "Jardim Liberdade",
        "street": "Rua Vm A",
        "zipcode": "74475-560"
    },
    {
        "city": "Goiania",
        "state": "GO",
        "district": "Residencial Recanto Do Bosque",
        "street": "Avenida Goias",
        "zipcode": "74474-311"
    },
    {
        "city": "Goiania",
        "state": "GO",
        "district": "Residencial Recanto Do Bosque",
        "street": "Rua Rb",
        "zipcode": "74474-351"
    },
    {
        "city": "Goiania",
        "state": "GO",
        "district": "Sao Carlos",
        "street": "Rua Bs",
        "zipcode": "74477-372"
    },
    {
        "city": "Goiania",
        "state": "GO",
        "district": "Condominio Fortaleza",
        "street": "Avenida Transversal",
        "zipcode": "74476-090"
    },
    {
        "city": "Goiania",
        "state": "GO",
        "district": "Sitio De Recreio Morada Do Sol",
        "street": "Rua Araca",
        "zipcode": "74475-191"
    },
    {
        "city": "Goiania",
        "state": "GO",
        "district": "Sitio De Recreio Morada Do Sol",
        "street": "Rua Mangabeira",
        "zipcode": "74475-144"
    },
    {
        "city": "Goiania",
        "state": "GO",
        "district": "Vila Santa Rita",
        "street": "Rua Castelo Grande",
        "zipcode": "74420-050"
    },
    {
        "city": "Goiania",
        "state": "GO",
        "district": "Solange Park I",
        "street": "Travessa 0001",
        "zipcode": "74484-170"
    },
    {
        "city": "Goiania",
        "state": "GO",
        "district": "Sao Carlos",
        "street": "Rua Bs",
        "zipcode": "74477-378"
    },
    {
        "city": "Goiania",
        "state": "GO",
        "district": "Sao Carlos",
        "street": "Avenida Vale Dos Sonhos",
        "zipcode": "74477-368"
    },
    {
        "city": "Goiania",
        "state": "GO",
        "district": "Vila Bandeirantes",
        "street": "Rodovia Br",
        "zipcode": "74615-171"
    },
    {
        "city": "Goiania",
        "state": "GO",
        "district": "Sitio De Recreio Morada Do Sol",
        "street": "Rua Almiro Soares",
        "zipcode": "74475-193"
    },
    {
        "city": "Goiania",
        "state": "GO",
        "district": "Condominio Santa Rita",
        "street": "Rua Itajuba",
        "zipcode": "74485-640"
    },
    {
        "city": "Goiania",
        "state": "GO",
        "district": "Jardim Petropolis",
        "street": "Rodovia Go",
        "zipcode": "74460-150"
    },
    {
        "city": "Goiania",
        "state": "GO",
        "district": "Conj Padre Pelagio",
        "street": "Rua F",
        "zipcode": "74440-110"
    },
    {
        "city": "Goiania",
        "state": "GO",
        "district": "Setor Campinas",
        "street": "Viela Perim",
        "zipcode": "74520-090"
    },
    {
        "city": "Goiania",
        "state": "GO",
        "district": "Setor Coimbra",
        "street": "Rua 0214A",
        "zipcode": "74530-120"
    },
    {
        "city": "Goiania",
        "state": "GO",
        "district": "Ipiranga",
        "street": "Rodovia Go",
        "zipcode": "74453-240"
    },
    {
        "city": "Goiania",
        "state": "GO",
        "district": "Condominio Santa Rita",
        "street": "Rua Monte Negro",
        "zipcode": "74485-650"
    },
    {
        "city": "Goiania",
        "state": "GO",
        "district": "Sitio De Recreio Morada Do Sol",
        "street": "Rua Rosicler",
        "zipcode": "74475-190"
    },
    {
        "city": "Goiania",
        "state": "GO",
        "district": "Sao Carlos",
        "street": "Rua Bs",
        "zipcode": "74477-376"
    },
    {
        "city": "Goiania",
        "state": "GO",
        "district": "Sao Carlos",
        "street": "Rua Bs",
        "zipcode": "74477-377"
    },
    {
        "city": "Goiania",
        "state": "GO",
        "district": "Vila Finsocial",
        "street": "Rua Vf",
        "zipcode": "74473-610"
    },
    {
        "city": "Goiania",
        "state": "GO",
        "district": "Sitio De Recreio Morada Do Sol",
        "street": "Rua Divisa",
        "zipcode": "74475-150"
    },
    {
        "city": "Goiania",
        "state": "GO",
        "district": "Esplanada Do Anicuns",
        "street": "Rua Do Babacu",
        "zipcode": "74433-070"
    },
    {
        "city": "Goiania",
        "state": "GO",
        "district": "Vila Santa Rita",
        "street": "Rua Santa Rita",
        "zipcode": "74420-120"
    },
    {
        "city": "Goiania",
        "state": "GO",
        "district": "Solange Park I",
        "street": "Travessa 0002",
        "zipcode": "74484-175"
    },
    {
        "city": "Goiania",
        "state": "GO",
        "district": "Vila Mooca",
        "street": "Rua Dona Julia Duarte",
        "zipcode": "74420-155"
    },
    {
        "city": "Goiania",
        "state": "GO",
        "district": "Setor Sevene",
        "street": "Rua Rn",
        "zipcode": "74573-405"
    },
    {
        "city": "Goiania",
        "state": "GO",
        "district": "Goia Iii",
        "street": "Rua Gladiolo",
        "zipcode": "74485-420"
    },
    {
        "city": "Goiania",
        "state": "GO",
        "district": "Goia I",
        "street": "Rua Nizia Floresta",
        "zipcode": "74485-485"
    },
    {
        "city": "Goiania",
        "state": "GO",
        "district": "Solange Park I",
        "street": "Rua 0001",
        "zipcode": "74484-374"
    },
    {
        "city": "Goiania",
        "state": "GO",
        "district": "Goia Ii",
        "street": "Rua Alonso Machado",
        "zipcode": "74485-380"
    },
    {
        "city": "Goiania",
        "state": "GO",
        "district": "Sao Carlos",
        "street": "Rua Bs",
        "zipcode": "74477-370"
    },
    {
        "city": "Goiania",
        "state": "GO",
        "district": "Loteamento Santa Terezinha",
        "street": "Rua 0001",
        "zipcode": "74425-580"
    },
    {
        "city": "Goiania",
        "state": "GO",
        "district": "Jardim Paraguacu",
        "street": "Rua Marinho Paraguacu",
        "zipcode": "74475-163"
    },
    {
        "city": "Goiania",
        "state": "GO",
        "district": "Chacaras Recreio Sao Joaquim",
        "street": "Rua Ipiranga",
        "zipcode": "74470-350"
    },
    {
        "city": "Goiania",
        "state": "GO",
        "district": "Sitio De Recreio Morada Do Sol",
        "street": "Rua Celestino",
        "zipcode": "74475-192"
    },
    {
        "city": "Goiania",
        "state": "GO",
        "district": "Jardim Oliveiras",
        "street": "Estrada C",
        "zipcode": "74484-603"
    },
    {
        "city": "Goiania",
        "state": "GO",
        "district": "Setor Coimbra",
        "street": "Rua 0240A",
        "zipcode": "74533-290"
    },
    {
        "city": "Goiania",
        "state": "GO",
        "district": "Setor Centro Oeste",
        "street": "Viela C",
        "zipcode": "74550-040"
    },
    {
        "city": "Goiania",
        "state": "GO",
        "district": "Sao Carlos",
        "street": "Rua Bs",
        "zipcode": "74477-371"
    },
    {
        "city": "Goiania",
        "state": "GO",
        "district": "Loteamento Santa Terezinha",
        "street": "Rua Ferroviaria",
        "zipcode": "74425-620"
    },
    {
        "city": "Goiania",
        "state": "GO",
        "district": "Jardim Paraguacu",
        "street": "Rua Claudenor L Paraguacu",
        "zipcode": "74475-161"
    },
    {
        "city": "Goiania",
        "state": "GO",
        "district": "Conj Padre Pelagio",
        "street": "Avenida Sao Clemente",
        "zipcode": "74440-015"
    },
    {
        "city": "Goiania",
        "state": "GO",
        "district": "Loteamento Santa Terezinha",
        "street": "Rua 0003",
        "zipcode": "74425-600"
    },
    {
        "city": "Goiania",
        "state": "GO",
        "district": "Jardim Mirabel",
        "street": "Avenida Nizia Floresta",
        "zipcode": "74485-480"
    },
    {
        "city": "Goiania",
        "state": "GO",
        "district": "Vila Canaa",
        "street": "Rua Dionisio De Abreu",
        "zipcode": "74415-360"
    },
    {
        "city": "Goiania",
        "state": "GO",
        "district": "Loteamento Santa Terezinha",
        "street": "Rua Anicuns",
        "zipcode": "74425-595"
    },
    {
        "city": "Goiania",
        "state": "GO",
        "district": "Sao Carlos",
        "street": "Rua Bs",
        "zipcode": "74477-375"
    },
    {
        "city": "Goiania",
        "state": "GO",
        "district": "Sao Carlos",
        "street": "Rua Bs",
        "zipcode": "74477-390"
    },
    {
        "city": "Goiania",
        "state": "GO",
        "district": "Vila Finsocial",
        "street": "Rua Vf",
        "zipcode": "74473-575"
    },
    {
        "city": "Goiania",
        "state": "GO",
        "district": "Sao Carlos",
        "street": "Rua Bs",
        "zipcode": "74477-373"
    },
    {
        "city": "Goiania",
        "state": "GO",
        "district": "Jardim Oliveiras",
        "street": "Estrada D",
        "zipcode": "74484-604"
    },
    {
        "city": "Goiania",
        "state": "GO",
        "district": "Vila Cristina",
        "street": "Avenida Maria De Melo",
        "zipcode": "74583-085"
    },
    {
        "city": "Goiania",
        "state": "GO",
        "district": "Zona Industrial Pedro Abrao",
        "street": "Avenida Maria De Melo",
        "zipcode": "74583-280"
    },
    {
        "city": "Goiania",
        "state": "GO",
        "district": "Sitio De Recreio Panorama",
        "street": "Rua M",
        "zipcode": "74583-305"
    },
    {
        "city": "Goiania",
        "state": "GO",
        "district": "Vila Cristina",
        "street": "Avenida Bologna",
        "zipcode": "74583-020"
    },
    {
        "city": "Goiania",
        "state": "GO",
        "district": "Setor Leste Universitario",
        "street": "Rua Araxa",
        "zipcode": "74611-015"
    },
    {
        "city": "Goiania",
        "state": "GO",
        "district": "Setor Leste Universitario",
        "street": "Rua Conquista",
        "zipcode": "74611-017"
    },
    {
        "city": "Goiania",
        "state": "GO",
        "district": "Residencial Primavera",
        "street": "Rua Do Sol",
        "zipcode": "74593-850"
    },
    {
        "city": "Goiania",
        "state": "GO",
        "district": "Vila Santa Helena",
        "street": "Rua Guaguin",
        "zipcode": "74555-400"
    },
    {
        "city": "Goiania",
        "state": "GO",
        "district": "Residencial Primavera",
        "street": "Rua Rp",
        "zipcode": "74593-700"
    },
    {
        "city": "Goiania",
        "state": "GO",
        "district": "Jardim Novo Mundo",
        "street": "Travessa A",
        "zipcode": "74720-060"
    },
    {
        "city": "Goiania",
        "state": "GO",
        "district": "Setor Crimeia Oeste",
        "street": "Rua Coronel Ferreira Viana",
        "zipcode": "74563-060"
    },
    {
        "city": "Goiania",
        "state": "GO",
        "district": "Setor Leste Universitario",
        "street": "Rua 0301",
        "zipcode": "74611-009"
    },
    {
        "city": "Goiania",
        "state": "GO",
        "district": "Setor Centro Oeste",
        "street": "Rua Florianopolis",
        "zipcode": "74560-473"
    },
    {
        "city": "Goiania",
        "state": "GO",
        "district": "Residencial Primavera",
        "street": "Rua Rp",
        "zipcode": "74593-720"
    },
    {
        "city": "Goiania",
        "state": "GO",
        "district": "Residencial Primavera",
        "street": "Rua Rp",
        "zipcode": "74593-605"
    },
    {
        "city": "Goiania",
        "state": "GO",
        "district": "Residencial Primavera",
        "street": "Rua Rp",
        "zipcode": "74593-690"
    },
    {
        "city": "Goiania",
        "state": "GO",
        "district": "Setor Leste Universitario",
        "street": "Rua 0307",
        "zipcode": "74611-013"
    },
    {
        "city": "Goiania",
        "state": "GO",
        "district": "Sitio De Recreio Panorama",
        "street": "Rua Ceu Azul",
        "zipcode": "74583-307"
    },
    {
        "city": "Goiania",
        "state": "GO",
        "district": "Residencial Primavera",
        "street": "Rua Das Auroras",
        "zipcode": "74593-570"
    },
    {
        "city": "Goiania",
        "state": "GO",
        "district": "Residencial Morumbi",
        "street": "Alameda Fragonard",
        "zipcode": "74574-007"
    },
    {
        "city": "Goiania",
        "state": "GO",
        "district": "Residencial Primavera",
        "street": "Rua Rp",
        "zipcode": "74593-790"
    },
    {
        "city": "Goiania",
        "state": "GO",
        "district": "Setor Marechal Rondon",
        "street": "Rua Vinte E Um De Abril",
        "zipcode": "74560-270"
    },
    {
        "city": "Goiania",
        "state": "GO",
        "district": "Setor Centro Oeste",
        "street": "Rua S",
        "zipcode": "74560-474"
    },
    {
        "city": "Goiania",
        "state": "GO",
        "district": "Setor Campinas",
        "street": "Rua Jabara",
        "zipcode": "74523-120"
    },
    {
        "city": "Goiania",
        "state": "GO",
        "district": "Vila Xavier",
        "street": "Rua 0015",
        "zipcode": "74550-390"
    },
    {
        "city": "Goiania",
        "state": "GO",
        "district": "Sitio De Recreio Panorama",
        "street": "Rua Raiar Do Sol",
        "zipcode": "74583-325"
    },
    {
        "city": "Goiania",
        "state": "GO",
        "district": "Vila Roriz",
        "street": "Rua Um",
        "zipcode": "74565-705"
    },
    {
        "city": "Goiania",
        "state": "GO",
        "district": "Residencial Primavera",
        "street": "Rua Rp",
        "zipcode": "74593-710"
    },
    {
        "city": "Goiania",
        "state": "GO",
        "district": "Residencial Primavera",
        "street": "Rua Rp",
        "zipcode": "74593-770"
    },
    {
        "city": "Goiania",
        "state": "GO",
        "district": "Vila Cristina",
        "street": "Praça Bologna",
        "zipcode": "74583-010"
    },
    {
        "city": "Goiania",
        "state": "GO",
        "district": "Vila Maria Dilce",
        "street": "Rua Doze De Julho",
        "zipcode": "74583-040"
    },
    {
        "city": "Goiania",
        "state": "GO",
        "district": "Sitio De Recreio Panorama",
        "street": "Rua Marlene Oliveira",
        "zipcode": "74583-327"
    },
    {
        "city": "Goiania",
        "state": "GO",
        "district": "Residencial Primavera",
        "street": "Rua Do Luar",
        "zipcode": "74593-825"
    },
    {
        "city": "Goiania",
        "state": "GO",
        "district": "Setor Centro Oeste",
        "street": "Avenida B",
        "zipcode": "74560-640"
    },
    {
        "city": "Goiania",
        "state": "GO",
        "district": "Setor Centro Oeste",
        "street": "Rua 0508",
        "zipcode": "74550-245"
    },
    {
        "city": "Goiania",
        "state": "GO",
        "district": "Setor Urias Magalhaes",
        "street": "Praça Da Liberdade",
        "zipcode": "74565-530"
    },
    {
        "city": "Goiania",
        "state": "GO",
        "district": "Residencial Primavera",
        "street": "Rua Rp",
        "zipcode": "74593-760"
    },
    {
        "city": "Goiania",
        "state": "GO",
        "district": "Goia I",
        "street": "Rua Eliza",
        "zipcode": "74485-300"
    },
    {
        "city": "Goiania",
        "state": "GO",
        "district": "Residencial Primavera",
        "street": "Rua Rp",
        "zipcode": "74593-780"
    },
    {
        "city": "Goiania",
        "state": "GO",
        "district": "Residencial Primavera",
        "street": "Rua Dos Passaros",
        "zipcode": "74593-640"
    },
    {
        "city": "Goiania",
        "state": "GO",
        "district": "Residencial Primavera",
        "street": "Rua Rp",
        "zipcode": "74593-810"
    },
    {
        "city": "Goiania",
        "state": "GO",
        "district": "Setor Leste Universitario",
        "street": "Rua 0001A",
        "zipcode": "74603-068"
    },
    {
        "city": "Goiania",
        "state": "GO",
        "district": "Sitio De Recreio Panorama",
        "street": "Rua Cinco Estrelas",
        "zipcode": "74583-315"
    },
    {
        "city": "Goiania",
        "state": "GO",
        "district": "Setor Crimeia Oeste",
        "street": "Viela Conego Evaristo Costa Campos",
        "zipcode": "74563-031"
    },
    {
        "city": "Goiania",
        "state": "GO",
        "district": "Vila Cristina",
        "street": "Rua Dezenove De Novembro",
        "zipcode": "74583-080"
    },
    {
        "city": "Goiania",
        "state": "GO",
        "district": "Setor Centro Oeste",
        "street": "Rua 0505",
        "zipcode": "74550-230"
    },
    {
        "city": "Goiania",
        "state": "GO",
        "district": "Vila Cristina",
        "street": "Rua Montanha",
        "zipcode": "74583-090"
    },
    {
        "city": "Goiania",
        "state": "GO",
        "district": "Setor Crimeia Oeste",
        "street": "Rua Manoel Dos Reis",
        "zipcode": "74563-240"
    },
    {
        "city": "Goiania",
        "state": "GO",
        "district": "Setor Leste Universitario",
        "street": "Rua Valenca",
        "zipcode": "74611-018"
    },
    {
        "city": "Goiania",
        "state": "GO",
        "district": "Setor Gentil Meireles",
        "street": "Avenida Perimentral Norte",
        "zipcode": "74575-380"
    },
    {
        "city": "Goiania",
        "state": "GO",
        "district": "Residencial Primavera",
        "street": "Rua Do Vale",
        "zipcode": "74593-855"
    },
    {
        "city": "Goiania",
        "state": "GO",
        "district": "Setor Centro Oeste",
        "street": "Rua Senador Jaime",
        "zipcode": "74550-290"
    },
    {
        "city": "Goiania",
        "state": "GO",
        "district": "Sitio De Recreio Panorama",
        "street": "Rua Boa Vista",
        "zipcode": "74583-322"
    },
    {
        "city": "Goiania",
        "state": "GO",
        "district": "Residencial Primavera",
        "street": "Rua Das Frutas",
        "zipcode": "74593-620"
    },
    {
        "city": "Goiania",
        "state": "GO",
        "district": "Setor Leste Universitario",
        "street": "Rua 0303",
        "zipcode": "74611-011"
    },
    {
        "city": "Goiania",
        "state": "GO",
        "district": "Residencial Primavera",
        "street": "Avenida Primavera",
        "zipcode": "74593-650"
    },
    {
        "city": "Goiania",
        "state": "GO",
        "district": "Setor Centro Oeste",
        "street": "Viela 0500A",
        "zipcode": "74550-220"
    },
    {
        "city": "Goiania",
        "state": "GO",
        "district": "Residencial Morumbi",
        "street": "Rua Goya",
        "zipcode": "74574-010"
    },
    {
        "city": "Goiania",
        "state": "GO",
        "district": "Sitio De Recreio Panorama",
        "street": "Rua Joaquim Lucio Alves",
        "zipcode": "74583-312"
    },
    {
        "city": "Goiania",
        "state": "GO",
        "district": "Setor Centro Oeste",
        "street": "Viela 0028",
        "zipcode": "74560-725"
    },
    {
        "city": "Goiania",
        "state": "GO",
        "district": "Setor Leste Universitario",
        "street": "Rua Petrolina",
        "zipcode": "74611-021"
    },
    {
        "city": "Goiania",
        "state": "GO",
        "district": "Setor Leste Universitario",
        "street": "Rua Angra Dos Reis",
        "zipcode": "74611-022"
    },
    {
        "city": "Goiania",
        "state": "GO",
        "district": "Vila Bandeirantes",
        "street": "Rua 0001",
        "zipcode": "74615-050"
    },
    {
        "city": "Goiania",
        "state": "GO",
        "district": "Vila Bandeirantes",
        "street": "Rua 0005",
        "zipcode": "74615-100"
    },
    {
        "city": "Goiania",
        "state": "GO",
        "district": "Zona Industrial Pedro Abrao",
        "street": "Rua C",
        "zipcode": "74635-045"
    },
    {
        "city": "Goiania",
        "state": "GO",
        "district": "Santa Genoveva",
        "street": "Rua Guatipira",
        "zipcode": "74670-160"
    },
    {
        "city": "Goiania",
        "state": "GO",
        "district": "Santa Genoveva",
        "street": "Avenida Presidente Kennedy",
        "zipcode": "74672-080"
    },
    {
        "city": "Goiania",
        "state": "GO",
        "district": "Santa Genoveva",
        "street": "Avenida Perimetral Norte",
        "zipcode": "74672-090"
    },
    {
        "city": "Goiania",
        "state": "GO",
        "district": "Jardim Novo Mundo",
        "street": "Rua Alaska",
        "zipcode": "74710-280"
    },
    {
        "city": "Goiania",
        "state": "GO",
        "district": "Chacaras Botafogo",
        "street": "Estrada D",
        "zipcode": "74710-330"
    },
    {
        "city": "Goiania",
        "state": "GO",
        "district": "Vila Bandeirantes",
        "street": "Rua 0011",
        "zipcode": "74713-143"
    },
    {
        "city": "Goiania",
        "state": "GO",
        "district": "Jardim Novo Mundo",
        "street": "Avenida Do Ouro",
        "zipcode": "74720-010"
    },
    {
        "city": "Goiania",
        "state": "GO",
        "district": "Jardim Novo Mundo",
        "street": "Rua Dos Cristais",
        "zipcode": "74720-030"
    },
    {
        "city": "Goiania",
        "state": "GO",
        "district": "Jardim Novo Mundo",
        "street": "Rua Das Esmeraldas",
        "zipcode": "74720-050"
    },
    {
        "city": "Goiania",
        "state": "GO",
        "district": "Jardim Novo Mundo",
        "street": "Rua Da Prata",
        "zipcode": "74720-080"
    },
    {
        "city": "Goiania",
        "state": "GO",
        "district": "Jardim Novo Mundo",
        "street": "Praça Rio Branco",
        "zipcode": "74720-090"
    },
    {
        "city": "Goiania",
        "state": "GO",
        "district": "Jardim Novo Mundo",
        "street": "Rua Das Safiras",
        "zipcode": "74720-110"
    },
    {
        "city": "Goiania",
        "state": "GO",
        "district": "Jardim Pompeia",
        "street": "Rua Dr Paulo Alves",
        "zipcode": "74685-305"
    },
    {
        "city": "Goiania",
        "state": "GO",
        "district": "Conj Itatiaia",
        "street": "Praça Marli Januaria De Lima",
        "zipcode": "74690-240"
    },
    {
        "city": "Goiania",
        "state": "GO",
        "district": "Sitio De Recreio Mansoes Bernardo Sayao",
        "street": "Alameda Dos Bambus",
        "zipcode": "74680-080"
    },
    {
        "city": "Goiania",
        "state": "GO",
        "district": "Vila Coronel Cosme",
        "street": "Avenida Independencia",
        "zipcode": "74635-025"
    },
    {
        "city": "Goiania",
        "state": "GO",
        "district": "Vila Coronel Cosme",
        "street": "Rua C",
        "zipcode": "74635-010"
    },
    {
        "city": "Goiania",
        "state": "GO",
        "district": "Sitio De Recreio Mansoes Bernardo Sayao",
        "street": "Alameda Dos Palmitos",
        "zipcode": "74680-400"
    },
    {
        "city": "Goiania",
        "state": "GO",
        "district": "Vila Sao Pedro",
        "street": "Rua A",
        "zipcode": "74633-305"
    },
    {
        "city": "Goiania",
        "state": "GO",
        "district": "Mansoes Pereira",
        "street": "Rua 0231",
        "zipcode": "74655-330"
    },
    {
        "city": "Goiania",
        "state": "GO",
        "district": "Jardim Guanabara Ii",
        "street": "Rua Gb",
        "zipcode": "74680-820"
    },
    {
        "city": "Goiania",
        "state": "GO",
        "district": "Sitio De Recreio Mansoes Bernardo Sayao",
        "street": "Alameda Dos Abacateiros",
        "zipcode": "74680-420"
    },
    {
        "city": "Goiania",
        "state": "GO",
        "district": "Elisios Campos",
        "street": "Rua 0209A",
        "zipcode": "74633-320"
    },
    {
        "city": "Goiania",
        "state": "GO",
        "district": "Vila Bandeirantes",
        "street": "Alameda Do Palmito",
        "zipcode": "74713-141"
    },
    {
        "city": "Goiania",
        "state": "GO",
        "district": "Setor Perilo",
        "street": "Rua 0020",
        "zipcode": "74620-340"
    },
    {
        "city": "Goiania",
        "state": "GO",
        "district": "Elisios Campos",
        "street": "Rua 0210",
        "zipcode": "74633-330"
    },
    {
        "city": "Goiania",
        "state": "GO",
        "district": "Vila Sao Pedro",
        "street": "Avenida Independencia",
        "zipcode": "74633-315"
    },
    {
        "city": "Goiania",
        "state": "GO",
        "district": "Sitio De Recreio Mansoes Bernardo Sayao",
        "street": "Alameda Dos Flamboyants",
        "zipcode": "74680-200"
    },
    {
        "city": "Goiania",
        "state": "GO",
        "district": "Vila Sao Pedro",
        "street": "Avenida Nona Avenida",
        "zipcode": "74633-306"
    },
    {
        "city": "Goiania",
        "state": "GO",
        "district": "Setor Jao",
        "street": "Rua Sucuri",
        "zipcode": "74674-020"
    },
    {
        "city": "Goiania",
        "state": "GO",
        "district": "Santa Genoveva",
        "street": "Rua Trindade",
        "zipcode": "74672-140"
    },
    {
        "city": "Goiania",
        "state": "GO",
        "district": "Sitio De Recreio Mansoes Bernardo Sayao",
        "street": "Rua Mirindibas",
        "zipcode": "74680-305"
    },
    {
        "city": "Goiania",
        "state": "GO",
        "district": "Vila Yate",
        "street": "Rua 0002",
        "zipcode": "74620-325"
    },
    {
        "city": "Goiania",
        "state": "GO",
        "district": "Santa Genoveva",
        "street": "Praça Das Palmeiras",
        "zipcode": "74670-390"
    },
    {
        "city": "Goiania",
        "state": "GO",
        "district": "Santa Genoveva",
        "street": "Praça Olavo Bilac",
        "zipcode": "74670-385"
    },
    {
        "city": "Goiania",
        "state": "GO",
        "district": "Vila Bandeirantes",
        "street": "Rodovia Br",
        "zipcode": "74713-011"
    },
    {
        "city": "Goiania",
        "state": "GO",
        "district": "Setor Leste Vila Nova",
        "street": "Praça Coracao De Jesus",
        "zipcode": "74645-131"
    },
    {
        "city": "Goiania",
        "state": "GO",
        "district": "Parque Industrial",
        "street": "Rua Pardal",
        "zipcode": "74630-085"
    },
    {
        "city": "Goiania",
        "state": "GO",
        "district": "Setor Leste Universitario",
        "street": "Rua Vicosa",
        "zipcode": "74611-019"
    },
    {
        "city": "Goiania",
        "state": "GO",
        "district": "Sitios Ipe",
        "street": "Rua Todica",
        "zipcode": "74680-540"
    },
    {
        "city": "Goiania",
        "state": "GO",
        "district": "Sitio De Recreio Mansoes Bernardo Sayao",
        "street": "Travessa Do Oriente",
        "zipcode": "74680-370"
    },
    {
        "city": "Goiania",
        "state": "GO",
        "district": "Sitio De Recreio Mansoes Bernardo Sayao",
        "street": "Rua Dos Guatambus",
        "zipcode": "74680-250"
    },
    {
        "city": "Goiania",
        "state": "GO",
        "district": "Jardim Guanabara Iii",
        "street": "Rua Gb",
        "zipcode": "74683-440"
    },
    {
        "city": "Goiania",
        "state": "GO",
        "district": "Vila Yate",
        "street": "Rua 0020B",
        "zipcode": "74620-350"
    },
    {
        "city": "Goiania",
        "state": "GO",
        "district": "Vila Romana",
        "street": "Praça Jardim Da Infancia",
        "zipcode": "74705-330"
    },
    {
        "city": "Goiania",
        "state": "GO",
        "district": "Sitio De Recreio Mansoes Bernardo Sayao",
        "street": "Rua Dos Ciprestes",
        "zipcode": "74680-140"
    },
    {
        "city": "Goiania",
        "state": "GO",
        "district": "Vila Jardim Dom Bosco",
        "street": "Rua 0004",
        "zipcode": "74620-390"
    },
    {
        "city": "Goiania",
        "state": "GO",
        "district": "Elisios Campos",
        "street": "Avenida Independencia",
        "zipcode": "74633-335"
    },
    {
        "city": "Goiania",
        "state": "GO",
        "district": "Chacaras Botafogo",
        "street": "Estrada A",
        "zipcode": "74710-270"
    },
    {
        "city": "Goiania",
        "state": "GO",
        "district": "Vila Coronel Cosme",
        "street": "Rua 0401",
        "zipcode": "74635-035"
    },
    {
        "city": "Goiania",
        "state": "GO",
        "district": "Vila Yate",
        "street": "Rodovia Br",
        "zipcode": "74620-351"
    },
    {
        "city": "Goiania",
        "state": "GO",
        "district": "Chacaras Botafogo",
        "street": "Estrada E",
        "zipcode": "74710-340"
    },
    {
        "city": "Goiania",
        "state": "GO",
        "district": "Sitios Ipe",
        "street": "Rua Santa Luiza",
        "zipcode": "74680-470"
    },
    {
        "city": "Goiania",
        "state": "GO",
        "district": "Vila Jardim Dom Bosco",
        "street": "Rua 0003",
        "zipcode": "74620-380"
    },
    {
        "city": "Goiania",
        "state": "GO",
        "district": "Jardim Novo Mundo",
        "street": "Rua Das Turmalinas",
        "zipcode": "74720-130"
    },
    {
        "city": "Goiania",
        "state": "GO",
        "district": "Vila Bandeirantes",
        "street": "Rua 0010",
        "zipcode": "74713-142"
    },
    {
        "city": "Goiania",
        "state": "GO",
        "district": "Alto Da Gloria",
        "street": "Avenida Engenheiro Eurico Viana",
        "zipcode": "74815-100"
    },
    {
        "city": "Goiania",
        "state": "GO",
        "district": "Jardim Luz",
        "street": "Avenida Rio Verde",
        "zipcode": "74843-680"
    },
    {
        "city": "Goiania",
        "state": "GO",
        "district": "Alto Da Gloria",
        "street": "Rua Joao Pessoa",
        "zipcode": "74815-150"
    },
    {
        "city": "Goiania",
        "state": "GO",
        "district": "Alto Da Gloria",
        "street": "Avenida Sao Joao",
        "zipcode": "74815-280"
    },
    {
        "city": "Goiania",
        "state": "GO",
        "district": "Santo Antonio",
        "street": "Rua 0030",
        "zipcode": "74853-135"
    },
    {
        "city": "Goiania",
        "state": "GO",
        "district": "Jardim Retiro",
        "street": "Rua G",
        "zipcode": "74765-180"
    },
    {
        "city": "Goiania",
        "state": "GO",
        "district": "Carolina Parque",
        "street": "Avenida Cp",
        "zipcode": "74783-001"
    },
    {
        "city": "Goiania",
        "state": "GO",
        "district": "Santo Hilario",
        "street": "Rua Virginia G Pereira",
        "zipcode": "74780-204"
    },
    {
        "city": "Goiania",
        "state": "GO",
        "district": "Alto Da Gloria",
        "street": "Rua Vitoria",
        "zipcode": "74815-380"
    },
    {
        "city": "Goiania",
        "state": "GO",
        "district": "Sitios Ipe",
        "street": "Rua Dona Pilena",
        "zipcode": "74680-490"
    },
    {
        "city": "Goiania",
        "state": "GO",
        "district": "Santo Hilario",
        "street": "Praça Augusto Andrade",
        "zipcode": "74780-070"
    },
    {
        "city": "Goiania",
        "state": "GO",
        "district": "Jardim Goias",
        "street": "Rua 0108",
        "zipcode": "74810-135"
    },
    {
        "city": "Goiania",
        "state": "GO",
        "district": "Santo Hilario",
        "street": "Rua Dr Augusto Alves Prado",
        "zipcode": "74780-130"
    },
    {
        "city": "Goiania",
        "state": "GO",
        "district": "Jardim Retiro",
        "street": "Avenida Retiro",
        "zipcode": "74765-210"
    },
    {
        "city": "Goiania",
        "state": "GO",
        "district": "Conj Itatiaia",
        "street": "Avenida Bandeirantes",
        "zipcode": "74690-220"
    },
    {
        "city": "Goiania",
        "state": "GO",
        "district": "Chacaras Grande Retiro",
        "street": "Rua Sao Judas Tadeu",
        "zipcode": "74766-160"
    },
    {
        "city": "Goiania",
        "state": "GO",
        "district": "Alto Da Gloria",
        "street": "Rua Niteroi",
        "zipcode": "74815-200"
    },
    {
        "city": "Goiania",
        "state": "GO",
        "district": "Alto Da Gloria",
        "street": "Rua Manaus",
        "zipcode": "74815-275"
    },
    {
        "city": "Goiania",
        "state": "GO",
        "district": "Santo Hilario",
        "street": "Rua Antonio Santana",
        "zipcode": "74780-060"
    },
    {
        "city": "Goiania",
        "state": "GO",
        "district": "Sitios Ipe",
        "street": "Rua Santa Rita",
        "zipcode": "74680-485"
    },
    {
        "city": "Goiania",
        "state": "GO",
        "district": "Alto Da Gloria",
        "street": "Rua 0109",
        "zipcode": "74815-600"
    },
    {
        "city": "Goiania",
        "state": "GO",
        "district": "Jardim Retiro",
        "street": "Rua G",
        "zipcode": "74765-120"
    },
    {
        "city": "Goiania",
        "state": "GO",
        "district": "Jardim Retiro",
        "street": "Rua G",
        "zipcode": "74765-050"
    },
    {
        "city": "Goiania",
        "state": "GO",
        "district": "Jardim Dom Fernando Ii",
        "street": "Rua Poeta Jose Bonifacio",
        "zipcode": "74765-320"
    },
    {
        "city": "Goiania",
        "state": "GO",
        "district": "Carolina Parque",
        "street": "Avenida Carolina Candida Cabral",
        "zipcode": "74783-011"
    },
    {
        "city": "Goiania",
        "state": "GO",
        "district": "Alto Da Gloria",
        "street": "Rua Florianopolis",
        "zipcode": "74815-110"
    },
    {
        "city": "Goiania",
        "state": "GO",
        "district": "Jardim Retiro",
        "street": "Alameda Beira Rio",
        "zipcode": "74765-030"
    },
    {
        "city": "Goiania",
        "state": "GO",
        "district": "Jardim Retiro",
        "street": "Rua G",
        "zipcode": "74765-160"
    },
    {
        "city": "Goiania",
        "state": "GO",
        "district": "Santo Hilario",
        "street": "Rua Dr Joao Alves Santos",
        "zipcode": "74780-150"
    },
    {
        "city": "Goiania",
        "state": "GO",
        "district": "Condominio Santa Izabel",
        "street": "Rua L",
        "zipcode": "74815-490"
    },
    {
        "city": "Goiania",
        "state": "GO",
        "district": "Jardim Retiro",
        "street": "Rua G",
        "zipcode": "74765-040"
    },
    {
        "city": "Goiania",
        "state": "GO",
        "district": "Condominio Santa Izabel",
        "street": "Rua L",
        "zipcode": "74815-485"
    },
    {
        "city": "Goiania",
        "state": "GO",
        "district": "Vila Concordia",
        "street": "Rua Poeta Joaquim Bonifacio",
        "zipcode": "74770-410"
    },
    {
        "city": "Goiania",
        "state": "GO",
        "district": "Jardim Retiro",
        "street": "Rua G",
        "zipcode": "74765-100"
    },
    {
        "city": "Goiania",
        "state": "GO",
        "district": "Jardim Retiro",
        "street": "Rua Guaranta",
        "zipcode": "74765-200"
    },
    {
        "city": "Goiania",
        "state": "GO",
        "district": "Parque Amazonia",
        "street": "Praça Da Urca",
        "zipcode": "74843-360"
    },
    {
        "city": "Goiania",
        "state": "GO",
        "district": "Jardim Retiro",
        "street": "Rua G",
        "zipcode": "74765-130"
    },
    {
        "city": "Goiania",
        "state": "GO",
        "district": "Jardim Retiro",
        "street": "Rua G",
        "zipcode": "74765-190"
    },
    {
        "city": "Goiania",
        "state": "GO",
        "district": "Jardim Retiro",
        "street": "Rua G",
        "zipcode": "74765-140"
    },
    {
        "city": "Goiania",
        "state": "GO",
        "district": "Jardim Retiro",
        "street": "Rua G",
        "zipcode": "74765-090"
    },
    {
        "city": "Goiania",
        "state": "GO",
        "district": "Chacaras Grande Retiro",
        "street": "Alameda Capoeirao",
        "zipcode": "74766-140"
    },
    {
        "city": "Goiania",
        "state": "GO",
        "district": "Alto Da Gloria",
        "street": "Rua Sao Luiz",
        "zipcode": "74815-590"
    },
    {
        "city": "Goiania",
        "state": "GO",
        "district": "Condominio Santa Izabel",
        "street": "Rua L",
        "zipcode": "74815-510"
    },
    {
        "city": "Goiania",
        "state": "GO",
        "district": "Jardim Dom Fernando Ii",
        "street": "Rua Jdf",
        "zipcode": "74765-305"
    },
    {
        "city": "Goiania",
        "state": "GO",
        "district": "Chacaras Grande Retiro",
        "street": "Rua Trindade",
        "zipcode": "74766-060"
    },
    {
        "city": "Goiania",
        "state": "GO",
        "district": "Vila Redencao",
        "street": "Viela C",
        "zipcode": "74845-114"
    },
    {
        "city": "Goiania",
        "state": "GO",
        "district": "Vila Rosa",
        "street": "Alameda Alianca",
        "zipcode": "74843-630"
    },
    {
        "city": "Goiania",
        "state": "GO",
        "district": "Sitios Ipe",
        "street": "Rua Santana",
        "zipcode": "74680-500"
    },
    {
        "city": "Goiania",
        "state": "GO",
        "district": "Alto Da Gloria",
        "street": "Rua Curitiba",
        "zipcode": "74815-080"
    },
    {
        "city": "Goiania",
        "state": "GO",
        "district": "Vila Alto Da Gloria",
        "street": "Rua Varginha",
        "zipcode": "74815-570"
    },
    {
        "city": "Goiania",
        "state": "GO",
        "district": "Alto Da Gloria",
        "street": "Rua Salvador",
        "zipcode": "74815-270"
    },
    {
        "city": "Goiania",
        "state": "GO",
        "district": "Alto Da Gloria",
        "street": "Rua 0106",
        "zipcode": "74815-320"
    },
    {
        "city": "Goiania",
        "state": "GO",
        "district": "Jardim Retiro",
        "street": "Rua G",
        "zipcode": "74765-070"
    },
    {
        "city": "Goiania",
        "state": "GO",
        "district": "Jardim Retiro",
        "street": "Rua G",
        "zipcode": "74765-080"
    },
    {
        "city": "Goiania",
        "state": "GO",
        "district": "Jardim Retiro",
        "street": "Rua G",
        "zipcode": "74765-170"
    },
    {
        "city": "Goiania",
        "state": "GO",
        "district": "Santo Hilario",
        "street": "Rua Abel Rodrigues",
        "zipcode": "74780-206"
    },
    {
        "city": "Goiania",
        "state": "GO",
        "district": "Jardim Retiro",
        "street": "Praça A",
        "zipcode": "74765-010"
    },
    {
        "city": "Goiania",
        "state": "GO",
        "district": "Vila Sao Tomaz",
        "street": "Rua Campos Do Jordao",
        "zipcode": "74843-675"
    },
    {
        "city": "Goiania",
        "state": "GO",
        "district": "Jardim Abapuru",
        "street": "Alameda Eva Vieira",
        "zipcode": "74781-017"
    },
    {
        "city": "Goiania",
        "state": "GO",
        "district": "Alto Da Gloria",
        "street": "Rua Natal",
        "zipcode": "74815-190"
    },
    {
        "city": "Goiania",
        "state": "GO",
        "district": "Vila Sao Tomaz",
        "street": "Rua Dona Maria Cardoso",
        "zipcode": "74843-665"
    },
    {
        "city": "Goiania",
        "state": "GO",
        "district": "Jardim Vitoria",
        "street": "Rua Iara",
        "zipcode": "74865-160"
    },
    {
        "city": "Goiania",
        "state": "GO",
        "district": "Parque Das Andorinhas",
        "street": "Rua Pa",
        "zipcode": "74880-400"
    },
    {
        "city": "Goiania",
        "state": "GO",
        "district": "Chacara Do Governador",
        "street": "Avenida Do Contorno",
        "zipcode": "74870-180"
    },
    {
        "city": "Goiania",
        "state": "GO",
        "district": "Parque Das Andorinhas",
        "street": "Rua Pa",
        "zipcode": "74880-360"
    },
    {
        "city": "Goiania",
        "state": "GO",
        "district": "Parque Das Andorinhas",
        "street": "Rua Pa",
        "zipcode": "74880-440"
    },
    {
        "city": "Goiania",
        "state": "GO",
        "district": "Parque Das Andorinhas",
        "street": "Rua Pa",
        "zipcode": "74880-390"
    },
    {
        "city": "Goiania",
        "state": "GO",
        "district": "Jardim Santa Barbara",
        "street": "Rua Itacarambi",
        "zipcode": "74873-070"
    },
    {
        "city": "Goiania",
        "state": "GO",
        "district": "Parque Das Andorinhas",
        "street": "Rua Pa",
        "zipcode": "74880-340"
    },
    {
        "city": "Goiania",
        "state": "GO",
        "district": "Jardim Santa Barbara",
        "street": "Rua Sb",
        "zipcode": "74873-290"
    },
    {
        "city": "Goiania",
        "state": "GO",
        "district": "Jardim Santa Barbara",
        "street": "Rua Sb",
        "zipcode": "74873-280"
    },
    {
        "city": "Goiania",
        "state": "GO",
        "district": "Jardim Santa Barbara",
        "street": "Rua Sb",
        "zipcode": "74873-370"
    },
    {
        "city": "Goiania",
        "state": "GO",
        "district": "Parque Das Andorinhas",
        "street": "Rua Maias",
        "zipcode": "74880-160"
    },
    {
        "city": "Goiania",
        "state": "GO",
        "district": "Jardim Santa Barbara",
        "street": "Rua Sb",
        "zipcode": "74873-330"
    },
    {
        "city": "Goiania",
        "state": "GO",
        "district": "Santo Antonio",
        "street": "Rua 0028",
        "zipcode": "74853-430"
    },
    {
        "city": "Goiania",
        "state": "GO",
        "district": "Jardim Santa Barbara",
        "street": "Rua Salamanca",
        "zipcode": "74873-140"
    },
    {
        "city": "Goiania",
        "state": "GO",
        "district": "Parque Das Andorinhas",
        "street": "Rua Pa",
        "zipcode": "74880-410"
    },
    {
        "city": "Goiania",
        "state": "GO",
        "district": "Jardim Santa Barbara",
        "street": "Rua Sb",
        "zipcode": "74873-210"
    },
    {
        "city": "Goiania",
        "state": "GO",
        "district": "Jardim Santa Barbara",
        "street": "Rua Saramenha",
        "zipcode": "74873-160"
    },
    {
        "city": "Goiania",
        "state": "GO",
        "district": "Jardim Santa Barbara",
        "street": "Rua Catas Saltos",
        "zipcode": "74873-010"
    },
    {
        "city": "Goiania",
        "state": "GO",
        "district": "Conj Progresso",
        "street": "Avenida G",
        "zipcode": "74853-470"
    },
    {
        "city": "Goiania",
        "state": "GO",
        "district": "Jardim Santa Barbara",
        "street": "Rua Sb",
        "zipcode": "74873-270"
    },
    {
        "city": "Goiania",
        "state": "GO",
        "district": "Parque Das Andorinhas",
        "street": "Rua Pa",
        "zipcode": "74880-200"
    },
    {
        "city": "Goiania",
        "state": "GO",
        "district": "Parque Das Andorinhas",
        "street": "Rua Pa",
        "zipcode": "74880-380"
    },
    {
        "city": "Goiania",
        "state": "GO",
        "district": "Parque Das Andorinhas",
        "street": "Rua Iguaruana",
        "zipcode": "74880-120"
    },
    {
        "city": "Goiania",
        "state": "GO",
        "district": "Jardim Santa Barbara",
        "street": "Rua Sb",
        "zipcode": "74873-250"
    },
    {
        "city": "Goiania",
        "state": "GO",
        "district": "Parque Das Andorinhas",
        "street": "Rua Pa",
        "zipcode": "74880-210"
    },
    {
        "city": "Goiania",
        "state": "GO",
        "district": "Parque Das Andorinhas",
        "street": "Rua Pa",
        "zipcode": "74880-250"
    },
    {
        "city": "Goiania",
        "state": "GO",
        "district": "Jardim Santa Barbara",
        "street": "Rua Galax",
        "zipcode": "74873-040"
    },
    {
        "city": "Goiania",
        "state": "GO",
        "district": "Parque Das Laranjeiras",
        "street": "Viela Plinio Hermano",
        "zipcode": "74855-285"
    },
    {
        "city": "Goiania",
        "state": "GO",
        "district": "Jardim Santa Barbara",
        "street": "Rua Sb",
        "zipcode": "74873-240"
    },
    {
        "city": "Goiania",
        "state": "GO",
        "district": "Vila Redencao",
        "street": "Viela C",
        "zipcode": "74845-108"
    },
    {
        "city": "Goiania",
        "state": "GO",
        "district": "Jardim Santa Barbara",
        "street": "Rua Pentapolim",
        "zipcode": "74873-090"
    },
    {
        "city": "Goiania",
        "state": "GO",
        "district": "Jardim Santa Barbara",
        "street": "Rua Sb",
        "zipcode": "74873-340"
    },
    {
        "city": "Goiania",
        "state": "GO",
        "district": "Parque Das Andorinhas",
        "street": "Rua Gaivota",
        "zipcode": "74880-090"
    },
    {
        "city": "Goiania",
        "state": "GO",
        "district": "Jardim Santa Barbara",
        "street": "Rua Quixote",
        "zipcode": "74873-120"
    },
    {
        "city": "Goiania",
        "state": "GO",
        "district": "Parque Das Andorinhas",
        "street": "Rua Pa",
        "zipcode": "74880-330"
    },
    {
        "city": "Goiania",
        "state": "GO",
        "district": "Parque Das Andorinhas",
        "street": "Rua Pa",
        "zipcode": "74880-310"
    },
    {
        "city": "Goiania",
        "state": "GO",
        "district": "Jardim Santa Barbara",
        "street": "Rua Sb",
        "zipcode": "74873-320"
    },
    {
        "city": "Goiania",
        "state": "GO",
        "district": "Parque Das Andorinhas",
        "street": "Rua Pa",
        "zipcode": "74880-290"
    },
    {
        "city": "Goiania",
        "state": "GO",
        "district": "Parque Das Andorinhas",
        "street": "Rua Colina",
        "zipcode": "74880-080"
    },
    {
        "city": "Goiania",
        "state": "GO",
        "district": "Parque Das Andorinhas",
        "street": "Rua Pa",
        "zipcode": "74880-230"
    },
    {
        "city": "Goiania",
        "state": "GO",
        "district": "Parque Das Andorinhas",
        "street": "Rua Guacui",
        "zipcode": "74880-100"
    },
    {
        "city": "Goiania",
        "state": "GO",
        "district": "Jardim Santa Barbara",
        "street": "Rua Quixeramobim",
        "zipcode": "74873-110"
    },
    {
        "city": "Goiania",
        "state": "GO",
        "district": "Santo Antonio",
        "street": "Rua 0006 B",
        "zipcode": "74853-195"
    },
    {
        "city": "Goiania",
        "state": "GO",
        "district": "Jardim Santa Barbara",
        "street": "Rua Sb",
        "zipcode": "74873-180"
    },
    {
        "city": "Goiania",
        "state": "GO",
        "district": "Parque Das Andorinhas",
        "street": "Rua Pa",
        "zipcode": "74880-300"
    },
    {
        "city": "Goiania",
        "state": "GO",
        "district": "Parque Das Andorinhas",
        "street": "Rua Mariana",
        "zipcode": "74880-170"
    },
    {
        "city": "Goiania",
        "state": "GO",
        "district": "Jardim Santa Barbara",
        "street": "Rua Iguape",
        "zipcode": "74873-060"
    },
    {
        "city": "Goiania",
        "state": "GO",
        "district": "Parque Das Andorinhas",
        "street": "Rua Pa",
        "zipcode": "74880-280"
    },
    {
        "city": "Goiania",
        "state": "GO",
        "district": "Jardim Santa Barbara",
        "street": "Rua Cervantes",
        "zipcode": "74873-020"
    },
    {
        "city": "Goiania",
        "state": "GO",
        "district": "Parque Das Andorinhas",
        "street": "Rua Pa",
        "zipcode": "74880-260"
    },
    {
        "city": "Goiania",
        "state": "GO",
        "district": "Jardim Santa Barbara",
        "street": "Rua Sb",
        "zipcode": "74873-200"
    },
    {
        "city": "Goiania",
        "state": "GO",
        "district": "Conj Progresso",
        "street": "Rua Olimpia",
        "zipcode": "74853-450"
    },
    {
        "city": "Goiania",
        "state": "GO",
        "district": "Parque Das Andorinhas",
        "street": "Rua Pa",
        "zipcode": "74880-430"
    },
    {
        "city": "Goiania",
        "state": "GO",
        "district": "Jardim Bela Vista",
        "street": "Rua Das Paineiras",
        "zipcode": "74863-150"
    },
    {
        "city": "Goiania",
        "state": "GO",
        "district": "Jardim Santa Barbara",
        "street": "Rua Sb",
        "zipcode": "74873-360"
    },
    {
        "city": "Goiania",
        "state": "GO",
        "district": "Parque Das Andorinhas",
        "street": "Rua Pa",
        "zipcode": "74880-190"
    },
    {
        "city": "Goiania",
        "state": "GO",
        "district": "Parque Das Andorinhas",
        "street": "Rua Itapirapua",
        "zipcode": "74880-150"
    },
    {
        "city": "Goiania",
        "state": "GO",
        "district": "Jardim Santa Barbara",
        "street": "Rua Sb",
        "zipcode": "74873-190"
    },
    {
        "city": "Goiania",
        "state": "GO",
        "district": "Jardim Santa Barbara",
        "street": "Rua Garamantes",
        "zipcode": "74873-050"
    },
    {
        "city": "Goiania",
        "state": "GO",
        "district": "Jardim Santa Barbara",
        "street": "Rua Sb",
        "zipcode": "74873-230"
    },
    {
        "city": "Goiania",
        "state": "GO",
        "district": "Parque Das Andorinhas",
        "street": "Rua Ribeiro",
        "zipcode": "74880-720"
    },
    {
        "city": "Goiania",
        "state": "GO",
        "district": "Parque Das Andorinhas",
        "street": "Rua Pa",
        "zipcode": "74880-590"
    },
    {
        "city": "Goiania",
        "state": "GO",
        "district": "Parque Dom Ricardo",
        "street": "Rua De",
        "zipcode": "74875-030"
    },
    {
        "city": "Goiania",
        "state": "GO",
        "district": "Jardim Santa Barbara",
        "street": "Rua Itabira",
        "zipcode": "74883-220"
    },
    {
        "city": "Goiania",
        "state": "GO",
        "district": "Parque Das Andorinhas",
        "street": "Travessa C",
        "zipcode": "74880-040"
    },
    {
        "city": "Goiania",
        "state": "GO",
        "district": "Jardim Santa Barbara",
        "street": "Rua E",
        "zipcode": "74883-180"
    },
    {
        "city": "Goiania",
        "state": "GO",
        "district": "Jardim Santa Barbara",
        "street": "Rua E",
        "zipcode": "74883-160"
    },
    {
        "city": "Goiania",
        "state": "GO",
        "district": "Parque Das Andorinhas",
        "street": "Rua Do Prea",
        "zipcode": "74880-710"
    },
    {
        "city": "Goiania",
        "state": "GO",
        "district": "Jardim Santa Barbara",
        "street": "Rua Sb",
        "zipcode": "74873-420"
    },
    {
        "city": "Goiania",
        "state": "GO",
        "district": "Parque Dom Ricardo",
        "street": "Rua Da Redencao",
        "zipcode": "74875-200"
    },
    {
        "city": "Goiania",
        "state": "GO",
        "district": "Jardim Santa Barbara",
        "street": "Rua Intinga",
        "zipcode": "74883-210"
    },
    {
        "city": "Goiania",
        "state": "GO",
        "district": "Parque Dom Ricardo",
        "street": "Rua De",
        "zipcode": "74875-010"
    },
    {
        "city": "Goiania",
        "state": "GO",
        "district": "Jardim Santa Barbara",
        "street": "Rua Sb",
        "zipcode": "74873-400"
    },
    {
        "city": "Goiania",
        "state": "GO",
        "district": "Parque Dom Ricardo",
        "street": "Rua Dm",
        "zipcode": "74875-130"
    },
    {
        "city": "Goiania",
        "state": "GO",
        "district": "Parque Das Andorinhas",
        "street": "Rua Pa",
        "zipcode": "74880-350"
    },
    {
        "city": "Goiania",
        "state": "GO",
        "district": "Parque Das Andorinhas",
        "street": "Rua Pa",
        "zipcode": "74880-670"
    },
    {
        "city": "Goiania",
        "state": "GO",
        "district": "Parque Dom Ricardo",
        "street": "Rua De",
        "zipcode": "74875-040"
    },
    {
        "city": "Goiania",
        "state": "GO",
        "district": "Jardim Santa Barbara",
        "street": "Rua Sb",
        "zipcode": "74873-390"
    },
    {
        "city": "Goiania",
        "state": "GO",
        "district": "Parque Das Andorinhas",
        "street": "Rua Pa",
        "zipcode": "74880-450"
    },
    {
        "city": "Goiania",
        "state": "GO",
        "district": "Parque Das Andorinhas",
        "street": "Rua Pa",
        "zipcode": "74880-540"
    },
    {
        "city": "Goiania",
        "state": "GO",
        "district": "Parque Das Andorinhas",
        "street": "Rua Apolo",
        "zipcode": "74880-770"
    },
    {
        "city": "Goiania",
        "state": "GO",
        "district": "Parque Das Andorinhas",
        "street": "Rua Pa",
        "zipcode": "74880-620"
    },
    {
        "city": "Goiania",
        "state": "GO",
        "district": "Jardim Santa Barbara",
        "street": "Rua E",
        "zipcode": "74883-145"
    },
    {
        "city": "Goiania",
        "state": "GO",
        "district": "Parque Dom Ricardo",
        "street": "Rua Dj",
        "zipcode": "74875-070"
    },
    {
        "city": "Goiania",
        "state": "GO",
        "district": "Parque Dom Ricardo",
        "street": "Rua Dj",
        "zipcode": "74875-090"
    },
    {
        "city": "Goiania",
        "state": "GO",
        "district": "Parque Das Andorinhas",
        "street": "Rua Pa",
        "zipcode": "74880-510"
    },
    {
        "city": "Goiania",
        "state": "GO",
        "district": "Jardim Santa Barbara",
        "street": "Rua Itapema",
        "zipcode": "74883-230"
    },
    {
        "city": "Goiania",
        "state": "GO",
        "district": "Parque Das Andorinhas",
        "street": "Rua Pa",
        "zipcode": "74880-480"
    },
    {
        "city": "Goiania",
        "state": "GO",
        "district": "Parque Das Andorinhas",
        "street": "Rua Pa",
        "zipcode": "74880-660"
    },
    {
        "city": "Goiania",
        "state": "GO",
        "district": "Parque Das Andorinhas",
        "street": "Rua Vilhena",
        "zipcode": "74880-760"
    },
    {
        "city": "Goiania",
        "state": "GO",
        "district": "Parque Dom Ricardo",
        "street": "Rua De",
        "zipcode": "74875-020"
    },
    {
        "city": "Goiania",
        "state": "GO",
        "district": "Parque Dom Ricardo",
        "street": "Rua De",
        "zipcode": "74875-060"
    },
    {
        "city": "Goiania",
        "state": "GO",
        "district": "Jardim Santa Barbara",
        "street": "Rua E",
        "zipcode": "74883-130"
    },
    {
        "city": "Goiania",
        "state": "GO",
        "district": "Parque Das Andorinhas",
        "street": "Rua Pa",
        "zipcode": "74880-460"
    },
    {
        "city": "Goiania",
        "state": "GO",
        "district": "Jardim Santa Barbara",
        "street": "Rua Sb",
        "zipcode": "74883-250"
    },
    {
        "city": "Goiania",
        "state": "GO",
        "district": "Parque Das Andorinhas",
        "street": "Rua Sao Vicente",
        "zipcode": "74880-730"
    },
    {
        "city": "Goiania",
        "state": "GO",
        "district": "Parque Dom Ricardo",
        "street": "Rua Dm",
        "zipcode": "74875-120"
    },
    {
        "city": "Goiania",
        "state": "GO",
        "district": "Jardim Santa Barbara",
        "street": "Rua E",
        "zipcode": "74883-120"
    },
    {
        "city": "Goiania",
        "state": "GO",
        "district": "Parque Das Andorinhas",
        "street": "Rua Taia",
        "zipcode": "74880-740"
    },
    {
        "city": "Goiania",
        "state": "GO",
        "district": "Parque Das Andorinhas",
        "street": "Rua Pa",
        "zipcode": "74880-630"
    },
    {
        "city": "Goiania",
        "state": "GO",
        "district": "Parque Dom Ricardo",
        "street": "Avenida Dom Emanuel",
        "zipcode": "74875-150"
    },
    {
        "city": "Goiania",
        "state": "GO",
        "district": "Parque Das Andorinhas",
        "street": "Rua Pa",
        "zipcode": "74880-610"
    },
    {
        "city": "Goiania",
        "state": "GO",
        "district": "Parque Dom Ricardo",
        "street": "Rua Dm",
        "zipcode": "74875-140"
    },
    {
        "city": "Goiania",
        "state": "GO",
        "district": "Parque Dom Ricardo",
        "street": "Rua Dona Talita",
        "zipcode": "74875-190"
    },
    {
        "city": "Goiania",
        "state": "GO",
        "district": "Parque Das Andorinhas",
        "street": "Rua Pacone",
        "zipcode": "74880-690"
    },
    {
        "city": "Goiania",
        "state": "GO",
        "district": "Parque Das Andorinhas",
        "street": "Rua Pa",
        "zipcode": "74880-240"
    },
    {
        "city": "Goiania",
        "state": "GO",
        "district": "Jardim Santa Barbara",
        "street": "Rua Sb",
        "zipcode": "74883-260"
    },
    {
        "city": "Goiania",
        "state": "GO",
        "district": "Parque Dom Ricardo",
        "street": "Rua Dom Marcos",
        "zipcode": "74875-170"
    },
    {
        "city": "Goiania",
        "state": "GO",
        "district": "Parque Das Andorinhas",
        "street": "Rua Barao Da Torre",
        "zipcode": "74880-020"
    },
    {
        "city": "Goiania",
        "state": "GO",
        "district": "Jardim Santa Barbara",
        "street": "Rua Sb",
        "zipcode": "74883-270"
    },
    {
        "city": "Goiania",
        "state": "GO",
        "district": "Jardim Santa Barbara",
        "street": "Rua Sb",
        "zipcode": "74883-280"
    },
    {
        "city": "Goiania",
        "state": "GO",
        "district": "Parque Dom Ricardo",
        "street": "Rua Dj",
        "zipcode": "74875-100"
    },
    {
        "city": "Goiania",
        "state": "GO",
        "district": "Parque Das Andorinhas",
        "street": "Rua Caranai",
        "zipcode": "74880-050"
    },
    {
        "city": "Goiania",
        "state": "GO",
        "district": "Parque Das Andorinhas",
        "street": "Rua Pa",
        "zipcode": "74880-650"
    },
    {
        "city": "Goiania",
        "state": "GO",
        "district": "Parque Das Andorinhas",
        "street": "Rua Pa",
        "zipcode": "74880-550"
    },
    {
        "city": "Goiania",
        "state": "GO",
        "district": "Parque Das Andorinhas",
        "street": "Rua Pa",
        "zipcode": "74880-530"
    },
    {
        "city": "Goiania",
        "state": "GO",
        "district": "Jardim Santa Barbara",
        "street": "Rua De Creta",
        "zipcode": "74883-030"
    },
    {
        "city": "Goiania",
        "state": "GO",
        "district": "Jardim Santa Barbara",
        "street": "Rua Sb",
        "zipcode": "74873-380"
    },
    {
        "city": "Goiania",
        "state": "GO",
        "district": "Jardim Santa Barbara",
        "street": "Rua E",
        "zipcode": "74883-150"
    },
    {
        "city": "Goiania",
        "state": "GO",
        "district": "Parque Das Andorinhas",
        "street": "Rua Pa",
        "zipcode": "74880-490"
    },
    {
        "city": "Goiania",
        "state": "GO",
        "district": "Parque Dom Ricardo",
        "street": "Rua Dj",
        "zipcode": "74875-080"
    },
    {
        "city": "Goiania",
        "state": "GO",
        "district": "Parque Das Andorinhas",
        "street": "Rua Pa",
        "zipcode": "74880-570"
    },
    {
        "city": "Goiania",
        "state": "GO",
        "district": "Jardim Santa Barbara",
        "street": "Rua Sb",
        "zipcode": "74883-390"
    },
    {
        "city": "Goiania",
        "state": "GO",
        "district": "Jardim Santa Barbara",
        "street": "Rua Sb",
        "zipcode": "74883-600"
    },
    {
        "city": "Goiania",
        "state": "GO",
        "district": "Jardim Santa Barbara",
        "street": "Rua Sb",
        "zipcode": "74883-330"
    },
    {
        "city": "Goiania",
        "state": "GO",
        "district": "Jardim Santa Barbara",
        "street": "Rua E",
        "zipcode": "74883-090"
    },
    {
        "city": "Goiania",
        "state": "GO",
        "district": "Parque Atheneu",
        "street": "Rua 0002 U",
        "zipcode": "74893-110"
    },
    {
        "city": "Goiania",
        "state": "GO",
        "district": "Jardim Santa Barbara",
        "street": "Rua Sb",
        "zipcode": "74883-620"
    },
    {
        "city": "Goiania",
        "state": "GO",
        "district": "Jardim Santa Barbara",
        "street": "Rua Sb",
        "zipcode": "74883-580"
    },
    {
        "city": "Goiania",
        "state": "GO",
        "district": "Parque Atheneu",
        "street": "Rua 0001 U",
        "zipcode": "74890-050"
    },
    {
        "city": "Goiania",
        "state": "GO",
        "district": "Jardim Santa Barbara",
        "street": "Rua Sb",
        "zipcode": "74883-310"
    },
    {
        "city": "Goiania",
        "state": "GO",
        "district": "Jardim Santa Barbara",
        "street": "Rua Sb",
        "zipcode": "74883-550"
    },
    {
        "city": "Goiania",
        "state": "GO",
        "district": "Jardim Santa Barbara",
        "street": "Rua Sb",
        "zipcode": "74883-590"
    },
    {
        "city": "Goiania",
        "state": "GO",
        "district": "Parque Atheneu",
        "street": "Rua 0001 U",
        "zipcode": "74893-030"
    },
    {
        "city": "Goiania",
        "state": "GO",
        "district": "Parque Atheneu",
        "street": "Rua 2024 U",
        "zipcode": "74893-025"
    },
    {
        "city": "Goiania",
        "state": "GO",
        "district": "Jardim Santa Barbara",
        "street": "Rua Sb",
        "zipcode": "74883-470"
    },
    {
        "city": "Goiania",
        "state": "GO",
        "district": "Jardim Santa Barbara",
        "street": "Rua Taucina",
        "zipcode": "74883-630"
    },
    {
        "city": "Goiania",
        "state": "GO",
        "district": "Jardim Santa Barbara",
        "street": "Rua Sb",
        "zipcode": "74883-480"
    },
    {
        "city": "Goiania",
        "state": "GO",
        "district": "Jardim Santa Barbara",
        "street": "Rua Sb",
        "zipcode": "74883-520"
    },
    {
        "city": "Goiania",
        "state": "GO",
        "district": "Jardim Santa Barbara",
        "street": "Rua Sb",
        "zipcode": "74883-320"
    },
    {
        "city": "Goiania",
        "state": "GO",
        "district": "Jardim Santa Barbara",
        "street": "Rua Do Farol",
        "zipcode": "74883-200"
    },
    {
        "city": "Goiania",
        "state": "GO",
        "district": "Jardim Santa Barbara",
        "street": "Rua Sb",
        "zipcode": "74883-510"
    },
    {
        "city": "Goiania",
        "state": "GO",
        "district": "Jardim Santa Barbara",
        "street": "Rua Sb",
        "zipcode": "74883-540"
    },
    {
        "city": "Goiania",
        "state": "GO",
        "district": "Jardim Santa Barbara",
        "street": "Rua Sb",
        "zipcode": "74883-300"
    },
    {
        "city": "Goiania",
        "state": "GO",
        "district": "Jardim Santa Barbara",
        "street": "Rua Sb",
        "zipcode": "74883-460"
    },
    {
        "city": "Goiania",
        "state": "GO",
        "district": "Jardim Santa Barbara",
        "street": "Rua Sb",
        "zipcode": "74883-410"
    },
    {
        "city": "Goiania",
        "state": "GO",
        "district": "Jardim Santa Barbara",
        "street": "Rua Sb",
        "zipcode": "74883-440"
    },
    {
        "city": "Goiania",
        "state": "GO",
        "district": "Jardim Santa Barbara",
        "street": "Rua Sb",
        "zipcode": "74883-560"
    },
    {
        "city": "Goiania",
        "state": "GO",
        "district": "Jardim Santa Barbara",
        "street": "Rua Sb",
        "zipcode": "74883-370"
    },
    {
        "city": "Goiania",
        "state": "GO",
        "district": "Parque Atheneu",
        "street": "Rua 0002 U",
        "zipcode": "74890-090"
    },
    {
        "city": "Goiania",
        "state": "GO",
        "district": "Jardim Santa Barbara",
        "street": "Rua Sb",
        "zipcode": "74883-430"
    },
    {
        "city": "Goiania",
        "state": "GO",
        "district": "Parque Atheneu",
        "street": "Rua 0001 U",
        "zipcode": "74893-070"
    },
    {
        "city": "Goiania",
        "state": "GO",
        "district": "Jardim Santa Barbara",
        "street": "Rua Sb",
        "zipcode": "74883-490"
    },
    {
        "city": "Goiania",
        "state": "GO",
        "district": "Jardim Santa Barbara",
        "street": "Rua Sb",
        "zipcode": "74883-420"
    },
    {
        "city": "Goiania",
        "state": "GO",
        "district": "Jardim Italia",
        "street": "Rua Lorenzo",
        "zipcode": "74367-270"
    },
    {
        "city": "Goiania",
        "state": "GO",
        "district": "Jardim Santa Barbara",
        "street": "Rua Sb",
        "zipcode": "74883-290"
    },
    {
        "city": "Goiania",
        "state": "GO",
        "district": "Jardim Novo Mundo",
        "street": "Rua Dos Diamantes",
        "zipcode": "74720-040"
    },
    {
        "city": "Goiania",
        "state": "GO",
        "district": "Setor Sul",
        "street": "Rua 0128B",
        "zipcode": "74093-120"
    },
    {
        "city": "Goiania",
        "state": "GO",
        "district": "Setor Crimeia Oeste",
        "street": "Avenida Republica Do Libano",
        "zipcode": "74110-095"
    },
    {
        "city": "Goiania",
        "state": "GO",
        "district": "Setor Aeroporto",
        "street": "Viela 0001A",
        "zipcode": "74075-055"
    },
    {
        "city": "Goiania",
        "state": "GO",
        "district": "Parque Santa Rita",
        "street": "Rua 0002",
        "zipcode": "74370-480"
    },
    {
        "city": "Goiania",
        "state": "GO",
        "district": "Setor Campinas",
        "street": "Rua G",
        "zipcode": "74523-580"
    },
    {
        "city": "Goiania",
        "state": "GO",
        "district": "Setor Coimbra",
        "street": "Rua Do Radio Amador",
        "zipcode": "74533-100"
    },
    {
        "city": "Goiania",
        "state": "GO",
        "district": "Jardim Liberdade",
        "street": "Rua Vm A",
        "zipcode": "74480-020"
    },
    {
        "city": "Goiania",
        "state": "GO",
        "district": "Jardim Italia",
        "street": "Rua Ancona",
        "zipcode": "74367-470"
    },
    {
        "city": "Goiania",
        "state": "GO",
        "district": "Sitios De Recreio Quinta Dos Sonhos",
        "street": "Alameda Das Orquideas",
        "zipcode": "74377-085"
    },
    {
        "city": "Goiania",
        "state": "GO",
        "district": "Sitios De Recreio Quinta Dos Sonhos",
        "street": "Alameda Das Avencas",
        "zipcode": "74377-115"
    },
    {
        "city": "Goiania",
        "state": "GO",
        "district": "Setor Centro Oeste",
        "street": "Rua 0023",
        "zipcode": "74560-605"
    },
    {
        "city": "Goiania",
        "state": "GO",
        "district": "Residencial Eli Forte",
        "street": "Rua Ef",
        "zipcode": "74371-011"
    },
    {
        "city": "Goiania",
        "state": "GO",
        "district": "Sao Carlos",
        "street": "Rua Bs",
        "zipcode": "74477-383"
    },
    {
        "city": "Goiania",
        "state": "GO",
        "district": "Jardim Italia",
        "street": "Rua Doria",
        "zipcode": "74367-230"
    },
    {
        "city": "Goiania",
        "state": "GO",
        "district": "Setor Dos Funcionarios",
        "street": "Viela P",
        "zipcode": "74543-515"
    },
    {
        "city": "Goiania",
        "state": "GO",
        "district": "Jardim Italia",
        "street": "Rua Piacenza",
        "zipcode": "74367-370"
    },
    {
        "city": "Goiania",
        "state": "GO",
        "district": "Sitios De Recreio Quinta Dos Sonhos",
        "street": "Alameda Dos Girassois",
        "zipcode": "74377-010"
    },
    {
        "city": "Goiania",
        "state": "GO",
        "district": "Vila Cristina",
        "street": "Rua Vinte E Um De Abril",
        "zipcode": "74583-035"
    },
    {
        "city": "Goiania",
        "state": "GO",
        "district": "Parque Santa Rita",
        "street": "Rua Maria B Faria",
        "zipcode": "74370-515"
    },
    {
        "city": "Goiania",
        "state": "GO",
        "district": "Jardim Italia",
        "street": "Rua Missina",
        "zipcode": "74367-330"
    },
    {
        "city": "Goiania",
        "state": "GO",
        "district": "Sao Carlos",
        "street": "Rua Bs",
        "zipcode": "74477-380"
    },
    {
        "city": "Goiania",
        "state": "GO",
        "district": "Setor Norte Ferroviario",
        "street": "Rua 0017",
        "zipcode": "74063-170"
    },
    {
        "city": "Goiania",
        "state": "GO",
        "district": "Setor Sul",
        "street": "Praça Nossa Senhora Da Assuncao",
        "zipcode": "74083-420"
    },
    {
        "city": "Goiania",
        "state": "GO",
        "district": "Vila Cristina",
        "street": "Rua Reno",
        "zipcode": "74583-095"
    },
    {
        "city": "Goiania",
        "state": "GO",
        "district": "Chacaras Botafogo",
        "street": "Rua B",
        "zipcode": "74710-290"
    },
    {
        "city": "Goiania",
        "state": "GO",
        "district": "Jardim Novo Mundo",
        "street": "Rua Ricardo Cesar",
        "zipcode": "74710-371"
    },
    {
        "city": "Goiania",
        "state": "GO",
        "district": "Vila Bandeirantes",
        "street": "Rua 0012",
        "zipcode": "74713-144"
    },
    {
        "city": "Goiania",
        "state": "GO",
        "district": "Jardim Novo Mundo",
        "street": "Rua Da Platina",
        "zipcode": "74720-070"
    },
    {
        "city": "Goiania",
        "state": "GO",
        "district": "Sitio De Recreio Panorama",
        "street": "Rua Por Do Sol",
        "zipcode": "74583-302"
    },
    {
        "city": "Goiania",
        "state": "GO",
        "district": "Jardim Novo Mundo",
        "street": "Avenida Do Topazio",
        "zipcode": "74720-120"
    },
    {
        "city": "Goiania",
        "state": "GO",
        "district": "Sitios Ipe",
        "street": "Rua Amelia Rosa",
        "zipcode": "74680-550"
    },
    {
        "city": "Goiania",
        "state": "GO",
        "district": "Solange Park I",
        "street": "Rua Sebastiao Jardim",
        "zipcode": "74484-376"
    },
    {
        "city": "Goiania",
        "state": "GO",
        "district": "Jardim Retiro",
        "street": "Praça B",
        "zipcode": "74765-020"
    },
    {
        "city": "Goiania",
        "state": "GO",
        "district": "Conj Caicara",
        "street": "Avenida Ludovico De Almeida",
        "zipcode": "74775-016"
    },
    {
        "city": "Goiania",
        "state": "GO",
        "district": "Setor Urias Magalhaes",
        "street": "Rua Cuiaba",
        "zipcode": "74565-470"
    },
    {
        "city": "Goiania",
        "state": "GO",
        "district": "Residencial Eli Forte",
        "street": "Rua Ef",
        "zipcode": "74371-029"
    },
    {
        "city": "Goiania",
        "state": "GO",
        "district": "Goia Ii",
        "street": "Rua Severina Marques De Abreu",
        "zipcode": "74485-230"
    },
    {
        "city": "Goiania",
        "state": "GO",
        "district": "Residencial Primavera",
        "street": "Rua Rp",
        "zipcode": "74593-730"
    },
    {
        "city": "Goiania",
        "state": "GO",
        "district": "Santo Hilario",
        "street": "Rua Ernesto M Cardoso",
        "zipcode": "74780-205"
    },
    {
        "city": "Goiania",
        "state": "GO",
        "district": "Vila Santa Helena",
        "street": "Rua Comandante Moncono",
        "zipcode": "74555-080"
    },
    {
        "city": "Goiania",
        "state": "GO",
        "district": "Vila Sao Paulo",
        "street": "Rua Imbauba",
        "zipcode": "74390-810"
    },
    {
        "city": "Goiania",
        "state": "GO",
        "district": "Sao Carlos",
        "street": "Rua Bs",
        "zipcode": "74477-393"
    },
    {
        "city": "Goiania",
        "state": "GO",
        "district": "Residencial Primavera",
        "street": "Rua Rp",
        "zipcode": "74593-740"
    },
    {
        "city": "Goiania",
        "state": "GO",
        "district": "Sitios De Recreio Quinta Dos Sonhos",
        "street": "Avenida Dona Branca Marques",
        "zipcode": "74377-050"
    },
    {
        "city": "Goiania",
        "state": "GO",
        "district": "Recreio Dos Bandeirantes",
        "street": "Alameda Das Petunias",
        "zipcode": "74482-330"
    },
    {
        "city": "Goiania",
        "state": "GO",
        "district": "Condominio Santa Rita",
        "street": "Rua Santa Maria",
        "zipcode": "74485-500"
    },
    {
        "city": "Goiania",
        "state": "GO",
        "district": "Residencial Primavera",
        "street": "Rua Dos Riacho",
        "zipcode": "74593-680"
    },
    {
        "city": "Goiania",
        "state": "GO",
        "district": "Jardim Italia",
        "street": "Rua Siena",
        "zipcode": "74367-600"
    },
    {
        "city": "Goiania",
        "state": "GO",
        "district": "Jardim Santa Barbara",
        "street": "Rua Sb",
        "zipcode": "74883-340"
    },
    {
        "city": "Goiania",
        "state": "GO",
        "district": "Jardim Italia",
        "street": "Rua Perugia",
        "zipcode": "74367-420"
    },
    {
        "city": "Goiania",
        "state": "GO",
        "district": "Sitio De Recreio Mansoes Bernardo Sayao",
        "street": "Alameda Das Tamarineiras",
        "zipcode": "74680-530"
    },
    {
        "city": "Goiania",
        "state": "GO",
        "district": "Residencial Primavera",
        "street": "Rua Rp",
        "zipcode": "74593-750"
    },
    {
        "city": "Goiania",
        "state": "GO",
        "district": "Sitio De Recreio Panorama",
        "street": "Rua H",
        "zipcode": "74583-320"
    },
    {
        "city": "Goiania",
        "state": "GO",
        "district": "Residencial Eli Forte",
        "street": "Rua Ef",
        "zipcode": "74371-017"
    },
    {
        "city": "Goiania",
        "state": "GO",
        "district": "Jardim Pompeia",
        "street": "Rua Vasco Dos Reis",
        "zipcode": "74690-085"
    },
    {
        "city": "Goiania",
        "state": "GO",
        "district": "Parque Santa Rita",
        "street": "Rua 0006",
        "zipcode": "74370-495"
    },
    {
        "city": "Goiania",
        "state": "GO",
        "district": "Jardim Retiro",
        "street": "Rua G",
        "zipcode": "74765-060"
    },
    {
        "city": "Goiania",
        "state": "GO",
        "district": "Jardim Italia",
        "street": "Rua Narni",
        "zipcode": "74367-510"
    },
    {
        "city": "Goiania",
        "state": "GO",
        "district": "Residencial Morumbi",
        "street": "Alameda Leger",
        "zipcode": "74574-008"
    },
    {
        "city": "Goiania",
        "state": "GO",
        "district": "Jardim Italia",
        "street": "Rua Consenza",
        "zipcode": "74367-560"
    },
    {
        "city": "Goiania",
        "state": "GO",
        "district": "Vila Nossa Senhora Da Guia",
        "street": "Rua 0007",
        "zipcode": "74394-040"
    },
    {
        "city": "Goiania",
        "state": "GO",
        "district": "Residencial Eli Forte",
        "street": "Rua Ef",
        "zipcode": "74371-020"
    },
    {
        "city": "Goiania",
        "state": "GO",
        "district": "Setor Sudoeste",
        "street": "Praça C",
        "zipcode": "74305-150"
    },
    {
        "city": "Goiania",
        "state": "GO",
        "district": "Chacaras Grande Retiro",
        "street": "Rua Sao Cristovao",
        "zipcode": "74766-110"
    },
    {
        "city": "Goiania",
        "state": "GO",
        "district": "Alto Da Gloria",
        "street": "Avenida Porto Alegre",
        "zipcode": "74815-240"
    },
    {
        "city": "Goiania",
        "state": "GO",
        "district": "Setor Bueno",
        "street": "Rua C",
        "zipcode": "74230-145"
    },
    {
        "city": "Goiania",
        "state": "GO",
        "district": "Parque Das Andorinhas",
        "street": "Rua Tartuci",
        "zipcode": "74880-750"
    },
    {
        "city": "Goiania",
        "state": "GO",
        "district": "Residencial Primavera",
        "street": "Rua Rp",
        "zipcode": "74593-800"
    },
    {
        "city": "Goiania",
        "state": "GO",
        "district": "Vila Redencao",
        "street": "Viela C",
        "zipcode": "74845-118"
    },
    {
        "city": "Goiania",
        "state": "GO",
        "district": "Jardim Retiro",
        "street": "Rua G",
        "zipcode": "74765-150"
    },
    {
        "city": "Goiania",
        "state": "GO",
        "district": "Parque Das Andorinhas",
        "street": "Rua Pa",
        "zipcode": "74880-640"
    },
    {
        "city": "Goiania",
        "state": "GO",
        "district": "Parque Das Andorinhas",
        "street": "Avenida Carlucio",
        "zipcode": "74880-060"
    },
    {
        "city": "Goiania",
        "state": "GO",
        "district": "Parque Das Andorinhas",
        "street": "Rua Platao",
        "zipcode": "74880-700"
    },
    {
        "city": "Goiania",
        "state": "GO",
        "district": "Parque Das Andorinhas",
        "street": "Rua Mesquita",
        "zipcode": "74880-180"
    },
    {
        "city": "Goiania",
        "state": "GO",
        "district": "Jardim Retiro",
        "street": "Rua G",
        "zipcode": "74765-110"
    },
    {
        "city": "Goiania",
        "state": "GO",
        "district": "Jardim Santa Barbara",
        "street": "Rua E",
        "zipcode": "74883-100"
    },
    {
        "city": "Goiania",
        "state": "GO",
        "district": "Jardim Santa Barbara",
        "street": "Rua Sb",
        "zipcode": "74883-400"
    },
    {
        "city": "Goiania",
        "state": "GO",
        "district": "Parque Das Andorinhas",
        "street": "Rua Pa",
        "zipcode": "74880-560"
    },
    {
        "city": "Goiania",
        "state": "GO",
        "district": "Setor Bueno",
        "street": "Rua T",
        "zipcode": "74223-040"
    },
    {
        "city": "Goiania",
        "state": "GO",
        "district": "Alto Da Gloria",
        "street": "Praça Boa Vista",
        "zipcode": "74815-060"
    },
    {
        "city": "Goiania",
        "state": "GO",
        "district": "Parque Das Andorinhas",
        "street": "Rua Pa",
        "zipcode": "74880-580"
    },
    {
        "city": "Goiania",
        "state": "GO",
        "district": "Parque Das Andorinhas",
        "street": "Rua Pa",
        "zipcode": "74880-270"
    },
    {
        "city": "Goiania",
        "state": "GO",
        "district": "Jardim Santa Barbara",
        "street": "Rua E",
        "zipcode": "74883-190"
    },
    {
        "city": "Goiania",
        "state": "GO",
        "district": "Residencial Primavera",
        "street": "Rua Rp",
        "zipcode": "74593-830"
    },
    {
        "city": "Goiania",
        "state": "GO",
        "district": "Parque Das Andorinhas",
        "street": "Avenida Guanabara",
        "zipcode": "74880-110"
    },
    {
        "city": "Goiania",
        "state": "GO",
        "district": "Jardim Dom Fernando Ii",
        "street": "Rua Jdf",
        "zipcode": "74765-300"
    },
    {
        "city": "Goiania",
        "state": "GO",
        "district": "Nova Suica",
        "street": "Praça C",
        "zipcode": "74280-350"
    },
    {
        "city": "Goiania",
        "state": "GO",
        "district": "Conj Progresso",
        "street": "Rua Regina Maria",
        "zipcode": "74853-460"
    },
    {
        "city": "Goiania",
        "state": "GO",
        "district": "Jardim Europa",
        "street": "Avenida Prudente De Morais",
        "zipcode": "74330-650"
    },
    {
        "city": "Goiania",
        "state": "GO",
        "district": "Parque Das Andorinhas",
        "street": "Avenida Carvalho Ramos",
        "zipcode": "74880-070"
    },
    {
        "city": "Goiania",
        "state": "GO",
        "district": "Jardim Vitoria",
        "street": "Rua Do Mercado",
        "zipcode": "74865-375"
    },
    {
        "city": "Goiania",
        "state": "GO",
        "district": "Setor Esmeraldas",
        "street": "Rodovia Go",
        "zipcode": "74355-467"
    },
    {
        "city": "Goiania",
        "state": "GO",
        "district": "Parque Das Andorinhas",
        "street": "Rua Pa",
        "zipcode": "74880-420"
    },
    {
        "city": "Goiania",
        "state": "GO",
        "district": "Jardim Italia",
        "street": "Rua Tiarini",
        "zipcode": "74367-080"
    },
    {
        "city": "Goiania",
        "state": "GO",
        "district": "Condominio Marques De Abreu",
        "street": "Via Anita Soares",
        "zipcode": "74391-210"
    },
    {
        "city": "Goiania",
        "state": "GO",
        "district": "Parque Das Andorinhas",
        "street": "Rua Pa",
        "zipcode": "74880-220"
    },
    {
        "city": "Goiania",
        "state": "GO",
        "district": "Alto Da Gloria",
        "street": "Praça Do Triangulo",
        "zipcode": "74815-330"
    },
    {
        "city": "Goiania",
        "state": "GO",
        "district": "Setor Bueno",
        "street": "Avenida T",
        "zipcode": "74210-020"
    },
    {
        "city": "Goiania",
        "state": "GO",
        "district": "Jardim Santa Barbara",
        "street": "Avenida Nova Esperanca",
        "zipcode": "74883-240"
    },
    {
        "city": "Goiania",
        "state": "GO",
        "district": "Granja Santos Dumont",
        "street": "Rua Dr Jose Lobo",
        "zipcode": "74430-220"
    },
    {
        "city": "Goiania",
        "state": "GO",
        "district": "Alto Da Gloria",
        "street": "Rua Fortaleza",
        "zipcode": "74815-120"
    },
    {
        "city": "Goiania",
        "state": "GO",
        "district": "Parque Amazonia",
        "street": "Rua Tauari",
        "zipcode": "74835-540"
    },
    {
        "city": "Goiania",
        "state": "GO",
        "district": "Parque Das Andorinhas",
        "street": "Rua Pa",
        "zipcode": "74880-370"
    },
    {
        "city": "Goiania",
        "state": "GO",
        "district": "Vila Santa Rita",
        "street": "Rua Itaucu",
        "zipcode": "74420-100"
    },
    {
        "city": "Goiania",
        "state": "GO",
        "district": "Vila Sao Tomaz",
        "street": "Rua Marayola",
        "zipcode": "74843-670"
    },
    {
        "city": "Goiania",
        "state": "GO",
        "district": "Parque Das Andorinhas",
        "street": "Rua Pa",
        "zipcode": "74880-520"
    },
    {
        "city": "Goiania",
        "state": "GO",
        "district": "Oriente Ville",
        "street": "Rua Joao Manoel Barcelos",
        "zipcode": "74355-657"
    },
    {
        "city": "Goiania",
        "state": "GO",
        "district": "Faicalville",
        "street": "Rua Presidente Martins",
        "zipcode": "74350-805"
    },
    {
        "city": "Goiania",
        "state": "GO",
        "district": "Parque Das Andorinhas",
        "street": "Rua Pa",
        "zipcode": "74880-470"
    },
    {
        "city": "Goiania",
        "state": "GO",
        "district": "Jardim Santa Barbara",
        "street": "Rua E",
        "zipcode": "74883-140"
    },
    {
        "city": "Goiania",
        "state": "GO",
        "district": "Jardim Italia",
        "street": "Rua Vitali",
        "zipcode": "74367-040"
    },
    {
        "city": "Goiania",
        "state": "GO",
        "district": "Jardim Santa Barbara",
        "street": "Rua Sb",
        "zipcode": "74883-500"
    },
    {
        "city": "Goiania",
        "state": "GO",
        "district": "Jardim Italia",
        "street": "Rua Canova",
        "zipcode": "74367-120"
    },
    {
        "city": "Goiania",
        "state": "GO",
        "district": "Parque Das Andorinhas",
        "street": "Rua Pa",
        "zipcode": "74880-320"
    },
    {
        "city": "Goiania",
        "state": "GO",
        "district": "Parque Das Andorinhas",
        "street": "Rua Pa",
        "zipcode": "74880-600"
    },
    {
        "city": "Goiania",
        "state": "GO",
        "district": "Loteamento Santa Terezinha",
        "street": "Rua 0002",
        "zipcode": "74425-590"
    },
    {
        "city": "Goiania",
        "state": "GO",
        "district": "Condominio Santa Izabel",
        "street": "Rua L",
        "zipcode": "74815-500"
    },
    {
        "city": "Goiania",
        "state": "GO",
        "district": "Jardim Santa Barbara",
        "street": "Rua Sb",
        "zipcode": "74883-450"
    },
    {
        "city": "Goiania",
        "state": "GO",
        "district": "Alto Da Gloria",
        "street": "Rodovia Br",
        "zipcode": "74815-070"
    },
    {
        "city": "Goiania",
        "state": "GO",
        "district": "Setor Leste Universitario",
        "street": "Rua Uberaba",
        "zipcode": "74611-014"
    },
    {
        "city": "Goiania",
        "state": "GO",
        "district": "Vila Bandeirantes",
        "street": "Avenida Anhanguera",
        "zipcode": "74615-020"
    },
    {
        "city": "Goiania",
        "state": "GO",
        "district": "Vila Colemar Natal E Silva",
        "street": "Rua A",
        "zipcode": "74633-030"
    },
    {
        "city": "Goiania",
        "state": "GO",
        "district": "Sao Carlos",
        "street": "Rua Bs",
        "zipcode": "74477-369"
    },
    {
        "city": "Goiania",
        "state": "GO",
        "district": "Vila Regina",
        "street": "Rodovia Go",
        "zipcode": "74453-680"
    },
    {
        "city": "Goiania",
        "state": "GO",
        "district": "Santa Genoveva",
        "street": "Viela Das Industrias",
        "zipcode": "74670-610"
    },
    {
        "city": "Goiania",
        "state": "GO",
        "district": "Setor Campinas",
        "street": "Rua Joaquim Bonifacio",
        "zipcode": "74523-590"
    },
    {
        "city": "Goiania",
        "state": "GO",
        "district": "Santa Genoveva",
        "street": "Rua Cabo Verde",
        "zipcode": "74672-692"
    },
    {
        "city": "Goiania",
        "state": "GO",
        "district": "Setor Leste Universitario",
        "street": "Rua 0262",
        "zipcode": "74611-020"
    },
    {
        "city": "Goiania",
        "state": "GO",
        "district": "Jardim Santa Barbara",
        "street": "Rua Sb",
        "zipcode": "74883-530"
    },
    {
        "city": "Goiania",
        "state": "GO",
        "district": "Sitio De Recreio Morada Do Sol",
        "street": "Rua Lidia Paraguacu",
        "zipcode": "74475-164"
    },
    {
        "city": "Goiania",
        "state": "GO",
        "district": "Sao Carlos",
        "street": "Rua Bs",
        "zipcode": "74477-374"
    },
    {
        "city": "Goiania",
        "state": "GO",
        "district": "Jardim Nova Esperanca",
        "street": "Avenida Do Contorno",
        "zipcode": "74465-130"
    },
    {
        "city": "Goiania",
        "state": "GO",
        "district": "Jardim Das Hortencias",
        "street": "Rua Jh",
        "zipcode": "74474-135"
    },
    {
        "city": "Goiania",
        "state": "GO",
        "district": "Jardim Santa Barbara",
        "street": "Rua Itaobim",
        "zipcode": "74873-080"
    },
    {
        "city": "Goiania",
        "state": "GO",
        "district": "Jardim Santa Barbara",
        "street": "Rua Das Sagaramantas",
        "zipcode": "74873-130"
    },
    {
        "city": "Goiania",
        "state": "GO",
        "district": "Jardim Italia",
        "street": "Rua Cerano",
        "zipcode": "74367-200"
    },
    {
        "city": "Goiania",
        "state": "GO",
        "district": "Parque Das Andorinhas",
        "street": "Rua Pa",
        "zipcode": "74880-680"
    },
    {
        "city": "Goiania",
        "state": "GO",
        "district": "Operario",
        "street": "Viela 0001",
        "zipcode": "74403-064"
    },
    {
        "city": "Goiania",
        "state": "GO",
        "district": "Sitios Ipe",
        "street": "Rua Izildinha",
        "zipcode": "74680-465"
    },
    {
        "city": "Goiania",
        "state": "GO",
        "district": "Jardim Italia",
        "street": "Rua Asti",
        "zipcode": "74367-520"
    },
    {
        "city": "Goiania",
        "state": "GO",
        "district": "Parque Anhanguera Ii",
        "street": "Rua Onze De Outubro",
        "zipcode": "74340-510"
    },
    {
        "city": "Goiania",
        "state": "GO",
        "district": "Conj Caicara",
        "street": "Rua Dr Francisco Ludovico De Almeida",
        "zipcode": "74775-011"
    },
    {
        "city": "Goiania",
        "state": "GO",
        "district": "Parque Das Andorinhas",
        "street": "Rua Itabira",
        "zipcode": "74880-130"
    },
    {
        "city": "Goiania",
        "state": "GO",
        "district": "Jardim Liberdade",
        "street": "Rua Vm",
        "zipcode": "74475-510"
    },
    {
        "city": "Goiania",
        "state": "GO",
        "district": "Jardim Santa Barbara",
        "street": "Rua Sb",
        "zipcode": "74873-350"
    },
    {
        "city": "Goiania",
        "state": "GO",
        "district": "Setor Crimeia Leste",
        "street": "Rua Coronel Braz Arantes",
        "zipcode": "74660-175"
    },
    {
        "city": "Goiania",
        "state": "GO",
        "district": "Parque Das Andorinhas",
        "street": "Rua Alabama",
        "zipcode": "74880-010"
    },
    {
        "city": "Goiania",
        "state": "GO",
        "district": "Vila Bandeirantes",
        "street": "Avenida A",
        "zipcode": "74615-180"
    },
    {
        "city": "Goiania",
        "state": "GO",
        "district": "Vila Lucy",
        "street": "Rua Juiz De Fora",
        "zipcode": "74320-430"
    },
    {
        "city": "Goiania",
        "state": "GO",
        "district": "Condominio Santa Izabel",
        "street": "Rua L",
        "zipcode": "74815-520"
    },
    {
        "city": "Goiania",
        "state": "GO",
        "district": "Sao Carlos",
        "street": "Rua Bs",
        "zipcode": "74477-379"
    },
    {
        "city": "Goiania",
        "state": "GO",
        "district": "Parque Dom Ricardo",
        "street": "Rua Dj",
        "zipcode": "74875-110"
    },
    {
        "city": "Goiania",
        "state": "GO",
        "district": "Jardim Santa Barbara",
        "street": "Rua Sb",
        "zipcode": "74873-170"
    },
    {
        "city": "Goiania",
        "state": "GO",
        "district": "Setor Leste Universitario",
        "street": "Avenida Das Nacoes Unidas",
        "zipcode": "74605-030"
    },
    {
        "city": "Goiania",
        "state": "GO",
        "district": "Sitios Ipe",
        "street": "Rua Joana Darc",
        "zipcode": "74680-505"
    },
    {
        "city": "Goiania",
        "state": "GO",
        "district": "Vila Jardim Dom Bosco",
        "street": "Rua 0001",
        "zipcode": "74620-370"
    },
    {
        "city": "Goiania",
        "state": "GO",
        "district": "Parque Dom Ricardo",
        "street": "Rua De",
        "zipcode": "74875-050"
    },
    {
        "city": "Goiania",
        "state": "GO",
        "district": "Jardim Santa Barbara",
        "street": "Rua Sb",
        "zipcode": "74883-610"
    },
    {
        "city": "Goiania",
        "state": "GO",
        "district": "Setor Crimeia Oeste",
        "street": "Rua Coronel Francisco Viana",
        "zipcode": "74563-070"
    },
    {
        "city": "Goiania",
        "state": "GO",
        "district": "Jardim Santa Barbara",
        "street": "Rua Sb",
        "zipcode": "74883-570"
    },
    {
        "city": "Goiania",
        "state": "GO",
        "district": "Jardim Santa Barbara",
        "street": "Rua Sb",
        "zipcode": "74873-410"
    },
    {
        "city": "Goiania",
        "state": "GO",
        "district": "Vila Coronel Cosme",
        "street": "Rua B",
        "zipcode": "74635-080"
    },
    {
        "city": "Goiania",
        "state": "GO",
        "district": "Jardim Santa Barbara",
        "street": "Rua Coimbra",
        "zipcode": "74873-030"
    },
    {
        "city": "Goiania",
        "state": "GO",
        "district": "Parque Atheneu",
        "street": "Rua 0001 U",
        "zipcode": "74890-040"
    },
    {
        "city": "Goiania",
        "state": "GO",
        "district": "Sitio De Recreio Mansoes Bernardo Sayao",
        "street": "Rua Dos Ipes",
        "zipcode": "74680-260"
    },
    {
        "city": "Goiania",
        "state": "GO",
        "district": "Jardim Novo Mundo",
        "street": "Rua Dos Rubis",
        "zipcode": "74720-100"
    },
    {
        "city": "Goiania",
        "state": "GO",
        "district": "Jardim Santa Barbara",
        "street": "Rua Sb",
        "zipcode": "74873-220"
    },
    {
        "city": "Goiania",
        "state": "GO",
        "district": "Parque Dom Ricardo",
        "street": "Rua Dom Joao Vi",
        "zipcode": "74875-160"
    },
    {
        "city": "Goiania",
        "state": "GO",
        "district": "Vila Sao Pedro",
        "street": "Rua 0208",
        "zipcode": "74633-325"
    },
    {
        "city": "Goiania",
        "state": "GO",
        "district": "Sitio De Recreio Mansoes Bernardo Sayao",
        "street": "Rodovia Br",
        "zipcode": "74680-090"
    },
    {
        "city": "Goiania",
        "state": "GO",
        "district": "Vila Coronel Cosme",
        "street": "Rua A",
        "zipcode": "74635-020"
    },
    {
        "city": "Goiania",
        "state": "GO",
        "district": "Parque Atheneu",
        "street": "Rua 2054 U",
        "zipcode": "74893-027"
    }
]