[
    {
        "city": "Goianésia",
        "state": "GO",
        "district": "Carrilho",
        "street": "Rua 45 A",
        "zipcode": "76380-810"
    },
    {
        "city": "Goianésia",
        "state": "GO",
        "district": "Jardim Esperança",
        "street": "Rua dos Lagedos",
        "zipcode": "76383-664"
    },
    {
        "city": "Goianésia",
        "state": "GO",
        "district": "Vila Nova Aurora",
        "street": "Rua 11 A",
        "zipcode": "76385-320"
    },
    {
        "city": "Goianésia",
        "state": "GO",
        "district": "Dona Fiica II",
        "street": "Rua 48 A Oeste",
        "zipcode": "76387-086"
    },
    {
        "city": "Goianésia",
        "state": "GO",
        "district": "Dona Fiica",
        "street": "Rua 48 A Oeste",
        "zipcode": "76387-012"
    },
    {
        "city": "Goianésia",
        "state": "GO",
        "district": "Covoa",
        "street": "Rua Jatobá",
        "zipcode": "76385-580"
    },
    {
        "city": "Goianésia",
        "state": "GO",
        "district": "Aldeia do Morro",
        "street": "Rua Jatobá",
        "zipcode": "76388-483"
    },
    {
        "city": "Goianésia",
        "state": "GO",
        "district": "Covoa",
        "street": "Rua Jacarandá Norte",
        "zipcode": "76385-584"
    },
    {
        "city": "Goianésia",
        "state": "GO",
        "district": "Jardim Esperança",
        "street": "Rua Fidalgo Leste",
        "zipcode": "76383-718"
    },
    {
        "city": "Goianésia",
        "state": "GO",
        "district": "Jardim Esperança",
        "street": "Rua Taquaral",
        "zipcode": "76383-700"
    },
    {
        "city": "Goianésia",
        "state": "GO",
        "district": "Residencial Granville",
        "street": "Rua Petrolina",
        "zipcode": "76382-322"
    },
    {
        "city": "Goianésia",
        "state": "GO",
        "district": "Carrilho",
        "street": "Viela 108",
        "zipcode": "76380-769"
    },
    {
        "city": "Goianésia",
        "state": "GO",
        "district": "Nova Fiica",
        "street": "Rua Açaí",
        "zipcode": "76387-815"
    },
    {
        "city": "Goianésia",
        "state": "GO",
        "district": "Residencial Vereda dos Buritis",
        "street": "Avenida Brasil Leste",
        "zipcode": "76380-356"
    },
    {
        "city": "Goianésia",
        "state": "GO",
        "district": "Residencial Parque das Palmeiras",
        "street": "Rua Bacuri",
        "zipcode": "76386-125"
    },
    {
        "city": "Goianésia",
        "state": "GO",
        "district": "Covoa II",
        "street": "Rua João Marcelino Patrício",
        "zipcode": "76385-546"
    },
    {
        "city": "Goianésia",
        "state": "GO",
        "district": "Primavera",
        "street": "Rua Pernambuco",
        "zipcode": "76384-039"
    },
    {
        "city": "Goianésia",
        "state": "GO",
        "district": "Dona Fiica II",
        "street": "Rua 25 Norte",
        "zipcode": "76387-077"
    },
    {
        "city": "Goianésia",
        "state": "GO",
        "district": "Residencial Ipês",
        "street": "Rua 56",
        "zipcode": "76387-313"
    },
    {
        "city": "Goianésia",
        "state": "GO",
        "district": "Parque Araguaia",
        "street": "Rua 1 Norte",
        "zipcode": "76388-293"
    },
    {
        "city": "Goianésia",
        "state": "GO",
        "district": "Residencial Flamboyant",
        "street": "Rua 27 Norte",
        "zipcode": "76387-162"
    },
    {
        "city": "Goianésia",
        "state": "GO",
        "district": "Residencial Jardim do Cerrado",
        "street": "Rua Cumaru",
        "zipcode": "76388-683"
    },
    {
        "city": "Goianésia",
        "state": "GO",
        "district": "Amigo",
        "street": "Rua 5 Sul",
        "zipcode": "76385-864"
    },
    {
        "city": "Goianésia",
        "state": "GO",
        "district": "Vila Nova Aurora III",
        "street": "Rua 34 Oeste",
        "zipcode": "76385-409"
    },
    {
        "city": "Goianésia",
        "state": "GO",
        "district": "Setor Oeste",
        "street": "Rua 21 Norte",
        "zipcode": "76385-265"
    },
    {
        "city": "Goianésia",
        "state": "GO",
        "district": "Jardim Esperança",
        "street": "Rua Ponte Alta",
        "zipcode": "76383-706"
    },
    {
        "city": "Goianésia",
        "state": "GO",
        "district": "Colina Park Residencial",
        "street": "Rua 65",
        "zipcode": "76383-320"
    },
    {
        "city": "Goianésia",
        "state": "GO",
        "district": "Residencial Granville",
        "street": "Rua São Francisco Oeste",
        "zipcode": "76382-319"
    },
    {
        "city": "Goianésia",
        "state": "GO",
        "district": "Residencial Laurentino Martins",
        "street": "Rua José Floriano da Silva Leste",
        "zipcode": "76381-209"
    },
    {
        "city": "Goianésia",
        "state": "GO",
        "district": "Laranjeiras",
        "street": "Rua Laranjeira",
        "zipcode": "76380-825"
    },
    {
        "city": "Goianésia",
        "state": "GO",
        "district": "Carrilho",
        "street": "Avenida Contorno",
        "zipcode": "76380-800"
    },
    {
        "city": "Goianésia",
        "state": "GO",
        "district": "Setor dos Buritis",
        "street": "Rua 26 Leste",
        "zipcode": "76380-136"
    },
    {
        "city": "Goianésia",
        "state": "GO",
        "district": "Centro",
        "street": "Avenida Goiás Norte",
        "zipcode": "76380-100"
    },
    {
        "city": "Goianésia",
        "state": "GO",
        "district": "Centro",
        "street": "Rua 31 Sul",
        "zipcode": "76380-970"
    },
    {
        "city": "Goianésia",
        "state": "GO",
        "district": null,
        "street": null,
        "zipcode": "76380-000"
    },
    {
        "city": "Goianésia",
        "state": "GO",
        "district": "Negrinho Carrilho",
        "street": "Rua 20 Oeste",
        "zipcode": "76385-049"
    },
    {
        "city": "Goianésia",
        "state": "GO",
        "district": "Centro",
        "street": "Rua 29 Norte",
        "zipcode": "76380-097"
    },
    {
        "city": "Goianésia",
        "state": "GO",
        "district": "Centro",
        "street": "Rua 18 Oeste",
        "zipcode": "76380-094"
    },
    {
        "city": "Goianésia",
        "state": "GO",
        "district": "Centro",
        "street": "Rua 27 Norte",
        "zipcode": "76380-091"
    },
    {
        "city": "Goianésia",
        "state": "GO",
        "district": "Centro",
        "street": "Rua 20 Oeste",
        "zipcode": "76380-088"
    },
    {
        "city": "Goianésia",
        "state": "GO",
        "district": "Centro",
        "street": "Rua 22 Oeste",
        "zipcode": "76380-085"
    },
    {
        "city": "Goianésia",
        "state": "GO",
        "district": "Centro",
        "street": "Viela Antônio Geraldo da Silva Oeste",
        "zipcode": "76380-079"
    },
    {
        "city": "Goianésia",
        "state": "GO",
        "district": "Setor Sul",
        "street": "Avenida Minas Gerais",
        "zipcode": "76382-223"
    },
    {
        "city": "Goianésia",
        "state": "GO",
        "district": "Setor Sul",
        "street": "Rua 29 Sul",
        "zipcode": "76382-182"
    },
    {
        "city": "Goianésia",
        "state": "GO",
        "district": "Setor Sul",
        "street": "Rua 25 A",
        "zipcode": "76382-172"
    },
    {
        "city": "Goianésia",
        "state": "GO",
        "district": "Residencial Jardim do Cerrado",
        "street": "Rua Baru",
        "zipcode": "76388-686"
    },
    {
        "city": "Goianésia",
        "state": "GO",
        "district": "Itapuã",
        "street": "Rua 8 Leste",
        "zipcode": "76383-017"
    },
    {
        "city": "Goianésia",
        "state": "GO",
        "district": "Setor Sul",
        "street": "Avenida Contorno",
        "zipcode": "76382-257"
    },
    {
        "city": "Goianésia",
        "state": "GO",
        "district": "Carrilho",
        "street": "Viela Fundo do Vale Oeste",
        "zipcode": "76380-724"
    },
    {
        "city": "Goianésia",
        "state": "GO",
        "district": "Centro",
        "street": "Rua 33 Sul",
        "zipcode": "76380-022"
    },
    {
        "city": "Goianésia",
        "state": "GO",
        "district": "Residencial Morada Nova",
        "street": "Rua José Benedito da Silva",
        "zipcode": "76387-486"
    },
    {
        "city": "Goianésia",
        "state": "GO",
        "district": "Residencial Jardim do Cerrado",
        "street": "Rua Geraldo Naves Pinto",
        "zipcode": "76388-695"
    },
    {
        "city": "Goianésia",
        "state": "GO",
        "district": "Residencial Jardim do Cerrado",
        "street": "Rua Antônio Severino Maia",
        "zipcode": "76388-692"
    },
    {
        "city": "Goianésia",
        "state": "GO",
        "district": "Residencial Jardim do Cerrado",
        "street": "Rua Jequitibá",
        "zipcode": "76388-680"
    },
    {
        "city": "Goianésia",
        "state": "GO",
        "district": "Residencial Jardim do Cerrado",
        "street": "Rua Guatambú",
        "zipcode": "76388-674"
    },
    {
        "city": "Goianésia",
        "state": "GO",
        "district": "Residencial Jardim do Cerrado",
        "street": "Rua Jurubeba",
        "zipcode": "76388-662"
    },
    {
        "city": "Goianésia",
        "state": "GO",
        "district": "Colina Park Residencial",
        "street": "Rua Santa Maria",
        "zipcode": "76383-380"
    },
    {
        "city": "Goianésia",
        "state": "GO",
        "district": "Residencial Jardim do Cerrado",
        "street": "Rua Irone Francisco Lopes",
        "zipcode": "76388-677"
    },
    {
        "city": "Goianésia",
        "state": "GO",
        "district": "Residencial Jardim do Cerrado",
        "street": "Rua Canela",
        "zipcode": "76388-656"
    },
    {
        "city": "Goianésia",
        "state": "GO",
        "district": "Residencial Jardim do Cerrado",
        "street": "Rua Benedito Vigilato",
        "zipcode": "76388-653"
    },
    {
        "city": "Goianésia",
        "state": "GO",
        "district": "Residencial Jardim do Cerrado",
        "street": "Rua Araticum",
        "zipcode": "76388-650"
    },
    {
        "city": "Goianésia",
        "state": "GO",
        "district": "Residencial Jardim do Cerrado",
        "street": "Rua 32 Oeste",
        "zipcode": "76388-647"
    },
    {
        "city": "Goianésia",
        "state": "GO",
        "district": "Residencial Jardim do Cerrado",
        "street": "Rua Galdino Rodrigues Paulino Filho",
        "zipcode": "76388-641"
    },
    {
        "city": "Goianésia",
        "state": "GO",
        "district": "Residencial Jardim do Cerrado",
        "street": "Rua Antônio Otaviano de Moura",
        "zipcode": "76388-638"
    },
    {
        "city": "Goianésia",
        "state": "GO",
        "district": "Residencial Jardim do Cerrado",
        "street": "Rua Juca Carioca",
        "zipcode": "76388-635"
    },
    {
        "city": "Goianésia",
        "state": "GO",
        "district": "Residencial Jardim do Cerrado",
        "street": "Rua Chico do Inho",
        "zipcode": "76388-632"
    },
    {
        "city": "Goianésia",
        "state": "GO",
        "district": "Residencial Jardim do Cerrado",
        "street": "Rua Guilherme Silvério de Araújo",
        "zipcode": "76388-668"
    },
    {
        "city": "Goianésia",
        "state": "GO",
        "district": "Residencial Vereda dos Buritis",
        "street": "Rua Maria Silva",
        "zipcode": "76380-338"
    },
    {
        "city": "Goianésia",
        "state": "GO",
        "district": "Residencial Vereda dos Buritis",
        "street": "Rua 51 Sul",
        "zipcode": "76380-332"
    },
    {
        "city": "Goianésia",
        "state": "GO",
        "district": "Residencial Vereda dos Buritis",
        "street": "Rua 14 Leste",
        "zipcode": "76380-329"
    },
    {
        "city": "Goianésia",
        "state": "GO",
        "district": "Residencial Vereda dos Buritis",
        "street": "Rua 14 A",
        "zipcode": "76380-326"
    },
    {
        "city": "Goianésia",
        "state": "GO",
        "district": "Residencial Vereda dos Buritis",
        "street": "Alameda Vereda dos Buritis",
        "zipcode": "76380-323"
    },
    {
        "city": "Goianésia",
        "state": "GO",
        "district": "Residencial Santa Clara",
        "street": "Rua 14 Leste",
        "zipcode": "76380-278"
    },
    {
        "city": "Goianésia",
        "state": "GO",
        "district": "Residencial Jardim do Cerrado",
        "street": "Rua Cerejeira",
        "zipcode": "76388-620"
    },
    {
        "city": "Goianésia",
        "state": "GO",
        "district": "Residencial Jardim do Cerrado",
        "street": "Avenida Urucum",
        "zipcode": "76388-611"
    },
    {
        "city": "Goianésia",
        "state": "GO",
        "district": "Residencial Jardim do Cerrado",
        "street": "Rua Augusto Honório da Silva",
        "zipcode": "76388-608"
    },
    {
        "city": "Goianésia",
        "state": "GO",
        "district": "Residencial Jardim do Cerrado",
        "street": "Rua Taguari",
        "zipcode": "76388-596"
    },
    {
        "city": "Goianésia",
        "state": "GO",
        "district": "Residencial Jardim do Cerrado",
        "street": "Rua Aroeira",
        "zipcode": "76388-593"
    },
    {
        "city": "Goianésia",
        "state": "GO",
        "district": "Residencial Jardim do Cerrado",
        "street": "Rua 34 Oeste",
        "zipcode": "76388-590"
    },
    {
        "city": "Goianésia",
        "state": "GO",
        "district": "Aldeia do Morro",
        "street": "Rua 34 Oeste",
        "zipcode": "76388-510"
    },
    {
        "city": "Goianésia",
        "state": "GO",
        "district": "Aldeia do Morro",
        "street": "Rua 32 Oeste",
        "zipcode": "76388-507"
    },
    {
        "city": "Goianésia",
        "state": "GO",
        "district": "Aldeia do Morro",
        "street": "Rua Santos Dumont Norte",
        "zipcode": "76388-501"
    },
    {
        "city": "Goianésia",
        "state": "GO",
        "district": "Residencial Vereda dos Buritis",
        "street": "Rua José Leite",
        "zipcode": "76380-344"
    },
    {
        "city": "Goianésia",
        "state": "GO",
        "district": "Residencial Jardim do Cerrado",
        "street": "Rua Jacarandá Norte",
        "zipcode": "76388-605"
    },
    {
        "city": "Goianésia",
        "state": "GO",
        "district": "Aldeia do Morro",
        "street": "Rua dos Pinheiros",
        "zipcode": "76388-492"
    },
    {
        "city": "Goianésia",
        "state": "GO",
        "district": "Aldeia do Morro",
        "street": "Rua 38 Oeste",
        "zipcode": "76388-486"
    },
    {
        "city": "Goianésia",
        "state": "GO",
        "district": "Aldeia do Morro",
        "street": "Rua Jacarandá Norte",
        "zipcode": "76388-480"
    },
    {
        "city": "Goianésia",
        "state": "GO",
        "district": "Parque Araguaia",
        "street": "Rua 36 A",
        "zipcode": "76388-332"
    },
    {
        "city": "Goianésia",
        "state": "GO",
        "district": "Parque Araguaia",
        "street": "Rua das Palmeiras Norte",
        "zipcode": "76388-330"
    },
    {
        "city": "Goianésia",
        "state": "GO",
        "district": "Parque Araguaia",
        "street": "Rua Tiradentes",
        "zipcode": "76388-329"
    },
    {
        "city": "Goianésia",
        "state": "GO",
        "district": "Parque Araguaia",
        "street": "Rua 38 Oeste",
        "zipcode": "76388-326"
    },
    {
        "city": "Goianésia",
        "state": "GO",
        "district": "Parque Araguaia",
        "street": "Rua Santcler",
        "zipcode": "76388-320"
    },
    {
        "city": "Goianésia",
        "state": "GO",
        "district": "Parque Araguaia",
        "street": "Rua 34 Oeste",
        "zipcode": "76388-317"
    },
    {
        "city": "Goianésia",
        "state": "GO",
        "district": "Parque Araguaia",
        "street": "Rua Brasília",
        "zipcode": "76388-314"
    },
    {
        "city": "Goianésia",
        "state": "GO",
        "district": "Dona Fiica II",
        "street": "Rua Augusto Martins Peixoto",
        "zipcode": "76387-074"
    },
    {
        "city": "Goianésia",
        "state": "GO",
        "district": "Parque Araguaia",
        "street": "Rua 3 A",
        "zipcode": "76388-305"
    },
    {
        "city": "Goianésia",
        "state": "GO",
        "district": "Parque Araguaia",
        "street": "Rua 3 Norte",
        "zipcode": "76388-302"
    },
    {
        "city": "Goianésia",
        "state": "GO",
        "district": "Parque Araguaia",
        "street": "Rua 1 A",
        "zipcode": "76388-299"
    },
    {
        "city": "Goianésia",
        "state": "GO",
        "district": "Parque Araguaia II",
        "street": "Rua Jacarandá Norte",
        "zipcode": "76388-284"
    },
    {
        "city": "Goianésia",
        "state": "GO",
        "district": "Parque Araguaia II",
        "street": "Rua 38 Oeste",
        "zipcode": "76388-281"
    },
    {
        "city": "Goianésia",
        "state": "GO",
        "district": "Residencial Paulo Dias",
        "street": "Rua 46 C",
        "zipcode": "76387-623"
    },
    {
        "city": "Goianésia",
        "state": "GO",
        "district": "Parque Araguaia II",
        "street": "Rua 40 Oeste",
        "zipcode": "76388-275"
    },
    {
        "city": "Goianésia",
        "state": "GO",
        "district": "Parque Araguaia II",
        "street": "Rua Jatobá",
        "zipcode": "76388-272"
    },
    {
        "city": "Goianésia",
        "state": "GO",
        "district": "Parque Araguaia II",
        "street": "Rua dos Pinheiros",
        "zipcode": "76388-266"
    },
    {
        "city": "Goianésia",
        "state": "GO",
        "district": "Parque Araguaia II",
        "street": "Rua Tiradentes",
        "zipcode": "76388-260"
    },
    {
        "city": "Goianésia",
        "state": "GO",
        "district": "Residencial Nestor Ville",
        "street": "Rua Raimundo Marques Nonato",
        "zipcode": "76388-125"
    },
    {
        "city": "Goianésia",
        "state": "GO",
        "district": "Residencial Jardim do Cerrado",
        "street": "Rua Mussolini",
        "zipcode": "76388-602"
    },
    {
        "city": "Goianésia",
        "state": "GO",
        "district": "Aldeia do Morro",
        "street": "Rua das Palmeiras Norte",
        "zipcode": "76388-495"
    },
    {
        "city": "Goianésia",
        "state": "GO",
        "district": "Parque Araguaia",
        "street": "Rua 36 Oeste",
        "zipcode": "76388-311"
    },
    {
        "city": "Goianésia",
        "state": "GO",
        "district": "Parque Araguaia II",
        "street": "Rua do Ipê Norte",
        "zipcode": "76388-269"
    },
    {
        "city": "Goianésia",
        "state": "GO",
        "district": "Residencial Nestor Ville",
        "street": "Rua Venezuela",
        "zipcode": "76388-122"
    },
    {
        "city": "Goianésia",
        "state": "GO",
        "district": "Aldeia do Morro",
        "street": "Rua Tiradentes",
        "zipcode": "76388-504"
    },
    {
        "city": "Goianésia",
        "state": "GO",
        "district": "Residencial Nestor Ville",
        "street": "Rua Eliete da Silva",
        "zipcode": "76388-119"
    },
    {
        "city": "Goianésia",
        "state": "GO",
        "district": "Residencial Nestor Ville",
        "street": "Rua Uruguai",
        "zipcode": "76388-113"
    },
    {
        "city": "Goianésia",
        "state": "GO",
        "district": "Residencial Nestor Ville",
        "street": "Rua 42 Oeste",
        "zipcode": "76388-110"
    },
    {
        "city": "Goianésia",
        "state": "GO",
        "district": "Residencial Nestor Ville",
        "street": "Rua Dona Cida",
        "zipcode": "76388-104"
    },
    {
        "city": "Goianésia",
        "state": "GO",
        "district": "Residencial Nestor Ville",
        "street": "Rua 40 Oeste",
        "zipcode": "76388-101"
    },
    {
        "city": "Goianésia",
        "state": "GO",
        "district": "Residencial Nestor Ville",
        "street": "Rua Paraguai",
        "zipcode": "76388-098"
    },
    {
        "city": "Goianésia",
        "state": "GO",
        "district": "Residencial Nestor Ville",
        "street": "Rua Equador",
        "zipcode": "76388-095"
    },
    {
        "city": "Goianésia",
        "state": "GO",
        "district": "Residencial Nestor Ville",
        "street": "Rua Colômbia",
        "zipcode": "76388-092"
    },
    {
        "city": "Goianésia",
        "state": "GO",
        "district": "Residencial Nestor Ville",
        "street": "Rua Chile",
        "zipcode": "76388-089"
    },
    {
        "city": "Goianésia",
        "state": "GO",
        "district": "Carrilho",
        "street": "Avenida Goiás Norte",
        "zipcode": "76380-971"
    },
    {
        "city": "Goianésia",
        "state": "GO",
        "district": "Residencial Nestor Ville",
        "street": "Rua 3 Norte",
        "zipcode": "76388-083"
    },
    {
        "city": "Goianésia",
        "state": "GO",
        "district": "Residencial Nestor Ville",
        "street": "Rua Bolívia",
        "zipcode": "76388-080"
    },
    {
        "city": "Goianésia",
        "state": "GO",
        "district": "Nova Fiica",
        "street": "Rua 11 Norte",
        "zipcode": "76387-812"
    },
    {
        "city": "Goianésia",
        "state": "GO",
        "district": "Nova Fiica",
        "street": "Rua da Acerola",
        "zipcode": "76387-809"
    },
    {
        "city": "Goianésia",
        "state": "GO",
        "district": "Nova Fiica",
        "street": "Rua da Pera",
        "zipcode": "76387-806"
    },
    {
        "city": "Goianésia",
        "state": "GO",
        "district": "Nova Fiica",
        "street": "Rua da Goiaba",
        "zipcode": "76387-803"
    },
    {
        "city": "Goianésia",
        "state": "GO",
        "district": "Nova Fiica",
        "street": "Rua 19 A",
        "zipcode": "76387-791"
    },
    {
        "city": "Goianésia",
        "state": "GO",
        "district": "Nova Fiica",
        "street": "Rua 19 Norte",
        "zipcode": "76387-788"
    },
    {
        "city": "Goianésia",
        "state": "GO",
        "district": "Nova Fiica",
        "street": "Rua 15 Norte",
        "zipcode": "76387-782"
    },
    {
        "city": "Goianésia",
        "state": "GO",
        "district": "Nova Fiica",
        "street": "Rua 13 Norte",
        "zipcode": "76387-779"
    },
    {
        "city": "Goianésia",
        "state": "GO",
        "district": "Nova Fiica",
        "street": "Rua do Abacate",
        "zipcode": "76387-776"
    },
    {
        "city": "Goianésia",
        "state": "GO",
        "district": "Nova Fiica",
        "street": "Rua 9 Norte",
        "zipcode": "76387-773"
    },
    {
        "city": "Goianésia",
        "state": "GO",
        "district": "Nova Fiica",
        "street": "Rua 5 Norte",
        "zipcode": "76387-767"
    },
    {
        "city": "Goianésia",
        "state": "GO",
        "district": "Nova Fiica",
        "street": "Rua da Manga",
        "zipcode": "76387-764"
    },
    {
        "city": "Goianésia",
        "state": "GO",
        "district": "Nova Fiica",
        "street": "Rua 42 Oeste",
        "zipcode": "76387-761"
    },
    {
        "city": "Goianésia",
        "state": "GO",
        "district": "Nova Fiica",
        "street": "Rua do Caju",
        "zipcode": "76387-758"
    },
    {
        "city": "Goianésia",
        "state": "GO",
        "district": "Nova Fiica",
        "street": "Rua da Laranja",
        "zipcode": "76387-797"
    },
    {
        "city": "Goianésia",
        "state": "GO",
        "district": "Nova Fiica",
        "street": "Rua Jabuticaba",
        "zipcode": "76387-794"
    },
    {
        "city": "Goianésia",
        "state": "GO",
        "district": "Nova Fiica",
        "street": "Rua da Cereja",
        "zipcode": "76387-755"
    },
    {
        "city": "Goianésia",
        "state": "GO",
        "district": "Nova Fiica",
        "street": "Rua Uva",
        "zipcode": "76387-740"
    },
    {
        "city": "Goianésia",
        "state": "GO",
        "district": "Residencial Paulo Dias",
        "street": "Rua 5 Norte",
        "zipcode": "76387-665"
    },
    {
        "city": "Goianésia",
        "state": "GO",
        "district": "Residencial Paulo Dias",
        "street": "Rua 7 A",
        "zipcode": "76387-662"
    },
    {
        "city": "Goianésia",
        "state": "GO",
        "district": "Residencial Paulo Dias",
        "street": "Rua 7 Norte",
        "zipcode": "76387-656"
    },
    {
        "city": "Goianésia",
        "state": "GO",
        "district": "Residencial Paulo Dias",
        "street": "Rua 48 Oeste",
        "zipcode": "76387-650"
    },
    {
        "city": "Goianésia",
        "state": "GO",
        "district": "Residencial Paulo Dias",
        "street": "Rua 9 A",
        "zipcode": "76387-647"
    },
    {
        "city": "Goianésia",
        "state": "GO",
        "district": "Residencial Paulo Dias",
        "street": "Rua Uva",
        "zipcode": "76387-644"
    },
    {
        "city": "Goianésia",
        "state": "GO",
        "district": "Residencial Paulo Dias",
        "street": "Rua 46 B",
        "zipcode": "76387-641"
    },
    {
        "city": "Goianésia",
        "state": "GO",
        "district": "Residencial Paulo Dias",
        "street": "Rua 48 A Oeste",
        "zipcode": "76387-635"
    },
    {
        "city": "Goianésia",
        "state": "GO",
        "district": "Residencial Paulo Dias",
        "street": "Rua 11 A",
        "zipcode": "76387-632"
    },
    {
        "city": "Goianésia",
        "state": "GO",
        "district": "Residencial Paulo Dias",
        "street": "Rua Pitanga",
        "zipcode": "76387-629"
    },
    {
        "city": "Goianésia",
        "state": "GO",
        "district": "Residencial Morada Nova",
        "street": "Rua 15 Norte",
        "zipcode": "76387-510"
    },
    {
        "city": "Goianésia",
        "state": "GO",
        "district": "Residencial Morada Nova",
        "street": "Rua 44 Oeste",
        "zipcode": "76387-504"
    },
    {
        "city": "Goianésia",
        "state": "GO",
        "district": "Residencial Morada Nova",
        "street": "Rua Pitanga",
        "zipcode": "76387-501"
    },
    {
        "city": "Goianésia",
        "state": "GO",
        "district": "Residencial Morada Nova",
        "street": "Rua 46 Oeste",
        "zipcode": "76387-492"
    },
    {
        "city": "Goianésia",
        "state": "GO",
        "district": "Residencial Morada Nova",
        "street": "Rua Carlos Henrique de Souza",
        "zipcode": "76387-489"
    },
    {
        "city": "Goianésia",
        "state": "GO",
        "district": "Residencial Morada Nova",
        "street": "Rua 48 Oeste",
        "zipcode": "76387-480"
    },
    {
        "city": "Goianésia",
        "state": "GO",
        "district": "Residencial Paulo Dias",
        "street": "Rua 46 A",
        "zipcode": "76387-659"
    },
    {
        "city": "Goianésia",
        "state": "GO",
        "district": "Residencial Paulo Dias",
        "street": "Rua 13 A",
        "zipcode": "76387-620"
    },
    {
        "city": "Goianésia",
        "state": "GO",
        "district": "Residencial Morada Nova",
        "street": "Rua Raulina Cândida Marques",
        "zipcode": "76387-498"
    },
    {
        "city": "Goianésia",
        "state": "GO",
        "district": "Residencial Paulo Dias",
        "street": "Rua 11 Norte",
        "zipcode": "76387-626"
    },
    {
        "city": "Goianésia",
        "state": "GO",
        "district": "Residencial Ipês",
        "street": "Rua Tonho da Nina",
        "zipcode": "76387-352"
    },
    {
        "city": "Goianésia",
        "state": "GO",
        "district": "Residencial Ipês",
        "street": "Rua 54 A",
        "zipcode": "76387-346"
    },
    {
        "city": "Goianésia",
        "state": "GO",
        "district": "Residencial Ipês",
        "street": "Rua 11 Norte",
        "zipcode": "76387-343"
    },
    {
        "city": "Goianésia",
        "state": "GO",
        "district": "Residencial Ipês",
        "street": "Rua Valeriano Carrilho",
        "zipcode": "76387-337"
    },
    {
        "city": "Goianésia",
        "state": "GO",
        "district": "Residencial Ipês",
        "street": "Rua Alaor José da Silva",
        "zipcode": "76387-334"
    },
    {
        "city": "Goianésia",
        "state": "GO",
        "district": "Residencial Ipês",
        "street": "Rua 9 Norte",
        "zipcode": "76387-358"
    },
    {
        "city": "Goianésia",
        "state": "GO",
        "district": "Residencial Ipês",
        "street": "Rua 13 Norte",
        "zipcode": "76387-331"
    },
    {
        "city": "Goianésia",
        "state": "GO",
        "district": "Residencial Ipês",
        "street": "Rua 15 Norte",
        "zipcode": "76387-319"
    },
    {
        "city": "Goianésia",
        "state": "GO",
        "district": "Residencial Ipês",
        "street": "Rua Geraldo Felipe Cunha",
        "zipcode": "76387-316"
    },
    {
        "city": "Goianésia",
        "state": "GO",
        "district": "Residencial Ipês",
        "street": "Rua Pedro Falcão",
        "zipcode": "76387-307"
    },
    {
        "city": "Goianésia",
        "state": "GO",
        "district": "Residencial Ipês",
        "street": "Rua Osvaldo de Matos",
        "zipcode": "76387-301"
    },
    {
        "city": "Goianésia",
        "state": "GO",
        "district": "Residencial Ipês",
        "street": "Rua 52 Oeste",
        "zipcode": "76387-292"
    },
    {
        "city": "Goianésia",
        "state": "GO",
        "district": "Residencial Ipês",
        "street": "Rua Zico Carrilho",
        "zipcode": "76387-286"
    },
    {
        "city": "Goianésia",
        "state": "GO",
        "district": "Residencial Ipês",
        "street": "Rua Zico Fraga",
        "zipcode": "76387-283"
    },
    {
        "city": "Goianésia",
        "state": "GO",
        "district": "Residencial Ipês",
        "street": "Avenida Nilson Ferreira da Silva",
        "zipcode": "76387-280"
    },
    {
        "city": "Goianésia",
        "state": "GO",
        "district": "Residencial Flamboyant",
        "street": "Avenida Walter Augusto Fernandes",
        "zipcode": "76387-171"
    },
    {
        "city": "Goianésia",
        "state": "GO",
        "district": "Amigo",
        "street": "Rua Curió",
        "zipcode": "76385-867"
    },
    {
        "city": "Goianésia",
        "state": "GO",
        "district": "Residencial Flamboyant",
        "street": "Rua Flor de Lotus Norte",
        "zipcode": "76387-156"
    },
    {
        "city": "Goianésia",
        "state": "GO",
        "district": "Residencial Flamboyant",
        "street": "Rua das Bromélias",
        "zipcode": "76387-153"
    },
    {
        "city": "Goianésia",
        "state": "GO",
        "district": "Dona Fiica II",
        "street": "Avenida Walter Augusto Fernandes",
        "zipcode": "76387-107"
    },
    {
        "city": "Goianésia",
        "state": "GO",
        "district": "Dona Fiica II",
        "street": "Rua 27 Norte",
        "zipcode": "76387-104"
    },
    {
        "city": "Goianésia",
        "state": "GO",
        "district": "Dona Fiica II",
        "street": "Rua 48 Oeste",
        "zipcode": "76387-092"
    },
    {
        "city": "Goianésia",
        "state": "GO",
        "district": "Dona Fiica II",
        "street": "Rua 48 Oeste",
        "zipcode": "76387-089"
    },
    {
        "city": "Goianésia",
        "state": "GO",
        "district": "Dona Fiica II",
        "street": "Rua 23 Norte",
        "zipcode": "76387-083"
    },
    {
        "city": "Goianésia",
        "state": "GO",
        "district": "Dona Fiica II",
        "street": "Rua Rubens Nascimento",
        "zipcode": "76387-071"
    },
    {
        "city": "Goianésia",
        "state": "GO",
        "district": "Dona Fiica II",
        "street": "Rua 46 Oeste",
        "zipcode": "76387-068"
    },
    {
        "city": "Goianésia",
        "state": "GO",
        "district": "Dona Fiica II",
        "street": "Rua Artur Alves da Fonseca Oeste",
        "zipcode": "76387-065"
    },
    {
        "city": "Goianésia",
        "state": "GO",
        "district": "Dona Fiica II",
        "street": "Rua Josefino Joaquim da Silva Oeste",
        "zipcode": "76387-062"
    },
    {
        "city": "Goianésia",
        "state": "GO",
        "district": "Residencial Ipês",
        "street": "Rua Francisco Rodrigues de Paula",
        "zipcode": "76387-349"
    },
    {
        "city": "Goianésia",
        "state": "GO",
        "district": "Residencial Ipês",
        "street": "Rua 54",
        "zipcode": "76387-328"
    },
    {
        "city": "Goianésia",
        "state": "GO",
        "district": "Residencial Ipês",
        "street": "Rua 17 Norte",
        "zipcode": "76387-310"
    },
    {
        "city": "Goianésia",
        "state": "GO",
        "district": "Residencial Ipês",
        "street": "Rua 23 Norte",
        "zipcode": "76387-289"
    },
    {
        "city": "Goianésia",
        "state": "GO",
        "district": "Dona Fiica II",
        "street": "Rua Benedito Leite Oeste",
        "zipcode": "76387-080"
    },
    {
        "city": "Goianésia",
        "state": "GO",
        "district": "Dona Fiica II",
        "street": "Rua 44 Oeste",
        "zipcode": "76387-059"
    },
    {
        "city": "Goianésia",
        "state": "GO",
        "district": "Dona Fiica II",
        "street": "Rua José Floriano da Silva Oeste",
        "zipcode": "76387-056"
    },
    {
        "city": "Goianésia",
        "state": "GO",
        "district": "Dona Fiica II",
        "street": "Avenida Goiás Norte",
        "zipcode": "76387-053"
    },
    {
        "city": "Goianésia",
        "state": "GO",
        "district": "Dona Fiica",
        "street": "Avenida Walter Augusto Fernandes",
        "zipcode": "76387-045"
    },
    {
        "city": "Goianésia",
        "state": "GO",
        "district": "Dona Fiica",
        "street": "Rua 27 Norte",
        "zipcode": "76387-039"
    },
    {
        "city": "Goianésia",
        "state": "GO",
        "district": "Dona Fiica",
        "street": "Rua 42 Oeste",
        "zipcode": "76387-033"
    },
    {
        "city": "Goianésia",
        "state": "GO",
        "district": "Dona Fiica",
        "street": "Rua 46 Oeste",
        "zipcode": "76387-027"
    },
    {
        "city": "Goianésia",
        "state": "GO",
        "district": "Residencial Ipês",
        "street": "Rua Ilídio Marçal da Silva",
        "zipcode": "76387-295"
    },
    {
        "city": "Goianésia",
        "state": "GO",
        "district": "Dona Fiica II",
        "street": "Avenida Contorno",
        "zipcode": "76387-050"
    },
    {
        "city": "Goianésia",
        "state": "GO",
        "district": "Dona Fiica",
        "street": "Rua 44 Oeste",
        "zipcode": "76387-030"
    },
    {
        "city": "Goianésia",
        "state": "GO",
        "district": "Dona Fiica",
        "street": "Avenida Contorno",
        "zipcode": "76387-021"
    },
    {
        "city": "Goianésia",
        "state": "GO",
        "district": "Dona Fiica",
        "street": "Rua 23 Norte",
        "zipcode": "76387-018"
    },
    {
        "city": "Goianésia",
        "state": "GO",
        "district": "Residencial Ipês",
        "street": "Rua Salustiano Ferreira",
        "zipcode": "76387-322"
    },
    {
        "city": "Goianésia",
        "state": "GO",
        "district": "Dona Fiica",
        "street": "Rua 40 Oeste",
        "zipcode": "76387-006"
    },
    {
        "city": "Goianésia",
        "state": "GO",
        "district": "Dona Fiica",
        "street": "Rua 19 Norte",
        "zipcode": "76387-000"
    },
    {
        "city": "Goianésia",
        "state": "GO",
        "district": "Residencial Parque das Palmeiras III",
        "street": "Rua Figueira Sul",
        "zipcode": "76386-615"
    },
    {
        "city": "Goianésia",
        "state": "GO",
        "district": "Residencial Parque das Palmeiras III",
        "street": "Rua Bálsamo",
        "zipcode": "76386-605"
    },
    {
        "city": "Goianésia",
        "state": "GO",
        "district": "Residencial Parque das Palmeiras III",
        "street": "Rua Araçá",
        "zipcode": "76386-595"
    },
    {
        "city": "Goianésia",
        "state": "GO",
        "district": "Dona Fiica",
        "street": "Rua 48 Oeste",
        "zipcode": "76387-015"
    },
    {
        "city": "Goianésia",
        "state": "GO",
        "district": "Residencial Parque das Palmeiras III",
        "street": "Rua Murici",
        "zipcode": "76386-610"
    },
    {
        "city": "Goianésia",
        "state": "GO",
        "district": "Residencial Parque das Palmeiras III",
        "street": "Rua Carandaí",
        "zipcode": "76386-590"
    },
    {
        "city": "Goianésia",
        "state": "GO",
        "district": "Residencial Parque das Palmeiras III",
        "street": "Rua Gravatá",
        "zipcode": "76386-580"
    },
    {
        "city": "Goianésia",
        "state": "GO",
        "district": "Residencial Parque das Palmeiras III",
        "street": "Rua 16 A",
        "zipcode": "76386-560"
    },
    {
        "city": "Goianésia",
        "state": "GO",
        "district": "Residencial Parque das Palmeiras III",
        "street": "Rua Vinhático",
        "zipcode": "76386-555"
    },
    {
        "city": "Goianésia",
        "state": "GO",
        "district": "Residencial Parque das Palmeiras III",
        "street": "Rua Jataí",
        "zipcode": "76386-550"
    },
    {
        "city": "Goianésia",
        "state": "GO",
        "district": "Residencial Parque das Palmeiras III",
        "street": "Rua Brejaúba",
        "zipcode": "76386-545"
    },
    {
        "city": "Goianésia",
        "state": "GO",
        "district": "Residencial Parque das Palmeiras III",
        "street": "Rua Quaresmeira",
        "zipcode": "76386-535"
    },
    {
        "city": "Goianésia",
        "state": "GO",
        "district": "Residencial Parque das Palmeiras III",
        "street": "Rua Paineira",
        "zipcode": "76386-520"
    },
    {
        "city": "Goianésia",
        "state": "GO",
        "district": "Residencial Parque das Palmeiras III",
        "street": "Rua Mutamba",
        "zipcode": "76386-515"
    },
    {
        "city": "Goianésia",
        "state": "GO",
        "district": "Residencial Parque das Palmeiras III",
        "street": "Rua Jussara",
        "zipcode": "76386-510"
    },
    {
        "city": "Goianésia",
        "state": "GO",
        "district": "Residencial Parque das Palmeiras III",
        "street": "Rua Mamacadela",
        "zipcode": "76386-495"
    },
    {
        "city": "Goianésia",
        "state": "GO",
        "district": "Residencial Parque das Palmeiras III",
        "street": "Rua Guapeva",
        "zipcode": "76386-490"
    },
    {
        "city": "Goianésia",
        "state": "GO",
        "district": "Residencial Parque das Palmeiras II",
        "street": "Rua Tamboril",
        "zipcode": "76386-385"
    },
    {
        "city": "Goianésia",
        "state": "GO",
        "district": "Residencial Parque das Palmeiras II",
        "street": "Rua Sucupira",
        "zipcode": "76386-375"
    },
    {
        "city": "Goianésia",
        "state": "GO",
        "district": "Residencial Parque das Palmeiras II",
        "street": "Rua Caraíba",
        "zipcode": "76386-370"
    },
    {
        "city": "Goianésia",
        "state": "GO",
        "district": "Residencial Parque das Palmeiras II",
        "street": "Rua Brauna",
        "zipcode": "76386-365"
    },
    {
        "city": "Goianésia",
        "state": "GO",
        "district": "Residencial Parque das Palmeiras II",
        "street": "Rua Pau",
        "zipcode": "76386-355"
    },
    {
        "city": "Goianésia",
        "state": "GO",
        "district": "Residencial Parque das Palmeiras II",
        "street": "Rua Barbatimão",
        "zipcode": "76386-340"
    },
    {
        "city": "Goianésia",
        "state": "GO",
        "district": "Residencial Parque das Palmeiras II",
        "street": "Rua Pau",
        "zipcode": "76386-335"
    },
    {
        "city": "Goianésia",
        "state": "GO",
        "district": "Residencial Parque das Palmeiras III",
        "street": "Rua Meriti",
        "zipcode": "76386-570"
    },
    {
        "city": "Goianésia",
        "state": "GO",
        "district": "Residencial Parque das Palmeiras III",
        "street": "Rua Monjoleiro",
        "zipcode": "76386-505"
    },
    {
        "city": "Goianésia",
        "state": "GO",
        "district": "Residencial Parque das Palmeiras II",
        "street": "Rua Piaçava",
        "zipcode": "76386-345"
    },
    {
        "city": "Goianésia",
        "state": "GO",
        "district": "Residencial Parque das Palmeiras II",
        "street": "Rua Mogno",
        "zipcode": "76386-325"
    },
    {
        "city": "Goianésia",
        "state": "GO",
        "district": "Residencial Parque das Palmeiras II",
        "street": "Rua 4 Oeste",
        "zipcode": "76386-320"
    },
    {
        "city": "Goianésia",
        "state": "GO",
        "district": "Residencial Parque das Palmeiras II",
        "street": "Rua Ingá",
        "zipcode": "76386-315"
    },
    {
        "city": "Goianésia",
        "state": "GO",
        "district": "Residencial Parque das Palmeiras",
        "street": "Rua Piaçava",
        "zipcode": "76386-195"
    },
    {
        "city": "Goianésia",
        "state": "GO",
        "district": "Residencial Parque das Palmeiras",
        "street": "Rua Acumã",
        "zipcode": "76386-190"
    },
    {
        "city": "Goianésia",
        "state": "GO",
        "district": "Residencial Parque das Palmeiras",
        "street": "Rua Buritirana",
        "zipcode": "76386-185"
    },
    {
        "city": "Goianésia",
        "state": "GO",
        "district": "Residencial Parque das Palmeiras",
        "street": "Rua Guriri",
        "zipcode": "76386-175"
    },
    {
        "city": "Goianésia",
        "state": "GO",
        "district": "Residencial Parque das Palmeiras",
        "street": "Rua Macaúba",
        "zipcode": "76386-155"
    },
    {
        "city": "Goianésia",
        "state": "GO",
        "district": "Residencial Parque das Palmeiras",
        "street": "Rua Catolé",
        "zipcode": "76386-140"
    },
    {
        "city": "Goianésia",
        "state": "GO",
        "district": "Residencial Parque das Palmeiras",
        "street": "Alameda Otávio Lage",
        "zipcode": "76386-120"
    },
    {
        "city": "Goianésia",
        "state": "GO",
        "district": "Dona Fiica",
        "street": "Rua 21 Norte",
        "zipcode": "76387-009"
    },
    {
        "city": "Goianésia",
        "state": "GO",
        "district": "Residencial Parque das Palmeiras III",
        "street": "Rua Embaúba",
        "zipcode": "76386-575"
    },
    {
        "city": "Goianésia",
        "state": "GO",
        "district": "Residencial Parque das Palmeiras",
        "street": "Rua Carnaúba",
        "zipcode": "76386-180"
    },
    {
        "city": "Goianésia",
        "state": "GO",
        "district": "Residencial Parque das Palmeiras",
        "street": "Rua Babaçu",
        "zipcode": "76386-160"
    },
    {
        "city": "Goianésia",
        "state": "GO",
        "district": "Residencial Parque das Palmeiras",
        "street": "Rua Bacaba",
        "zipcode": "76386-145"
    },
    {
        "city": "Goianésia",
        "state": "GO",
        "district": "Residencial Parque das Palmeiras",
        "street": "Rua Butiá",
        "zipcode": "76386-135"
    },
    {
        "city": "Goianésia",
        "state": "GO",
        "district": "Residencial Parque das Palmeiras II",
        "street": "Rua Mangabeira",
        "zipcode": "76386-330"
    },
    {
        "city": "Goianésia",
        "state": "GO",
        "district": "Residencial Parque das Palmeiras",
        "street": "Rua Lucuri",
        "zipcode": "76386-110"
    },
    {
        "city": "Goianésia",
        "state": "GO",
        "district": "Residencial Parque das Palmeiras",
        "street": "Rua Guariroba",
        "zipcode": "76386-105"
    },
    {
        "city": "Goianésia",
        "state": "GO",
        "district": "Residencial Parque das Palmeiras",
        "street": "Rua Jerivá",
        "zipcode": "76386-095"
    },
    {
        "city": "Goianésia",
        "state": "GO",
        "district": "Residencial Parque das Palmeiras",
        "street": "Rua Santos Dumont Sul",
        "zipcode": "76386-080"
    },
    {
        "city": "Goianésia",
        "state": "GO",
        "district": "Residencial Parque das Palmeiras",
        "street": "Avenida Brasil Oeste",
        "zipcode": "76386-065"
    },
    {
        "city": "Goianésia",
        "state": "GO",
        "district": "Residencial Parque das Palmeiras",
        "street": "Rua Indaiá",
        "zipcode": "76386-050"
    },
    {
        "city": "Goianésia",
        "state": "GO",
        "district": "Residencial Parque das Palmeiras",
        "street": "Rua 12 Oeste",
        "zipcode": "76386-046"
    },
    {
        "city": "Goianésia",
        "state": "GO",
        "district": "Amigo",
        "street": "Rua 3 Sul",
        "zipcode": "76385-888"
    },
    {
        "city": "Goianésia",
        "state": "GO",
        "district": "Amigo",
        "street": "Rua Beija",
        "zipcode": "76385-885"
    },
    {
        "city": "Goianésia",
        "state": "GO",
        "district": "Amigo",
        "street": "Rua 4 Oeste",
        "zipcode": "76385-882"
    },
    {
        "city": "Goianésia",
        "state": "GO",
        "district": "Amigo",
        "street": "Rua Sabiá",
        "zipcode": "76385-879"
    },
    {
        "city": "Goianésia",
        "state": "GO",
        "district": "Amigo",
        "street": "Rua Canário",
        "zipcode": "76385-873"
    },
    {
        "city": "Goianésia",
        "state": "GO",
        "district": "Amigo",
        "street": "Rua Calção de Couro",
        "zipcode": "76385-852"
    },
    {
        "city": "Goianésia",
        "state": "GO",
        "district": "Amigo",
        "street": "Rua Pintassilgo",
        "zipcode": "76385-849"
    },
    {
        "city": "Goianésia",
        "state": "GO",
        "district": "Amigo",
        "street": "Avenida Contorno",
        "zipcode": "76385-843"
    },
    {
        "city": "Goianésia",
        "state": "GO",
        "district": "Amigo",
        "street": "Rua 12 Oeste",
        "zipcode": "76385-840"
    },
    {
        "city": "Goianésia",
        "state": "GO",
        "district": "Santa Cecília",
        "street": "Rua 12 Oeste",
        "zipcode": "76385-828"
    },
    {
        "city": "Goianésia",
        "state": "GO",
        "district": "Santa Cecília",
        "street": "Avenida Contorno",
        "zipcode": "76385-825"
    },
    {
        "city": "Goianésia",
        "state": "GO",
        "district": "Santa Cecília",
        "street": "Rua 14 Oeste",
        "zipcode": "76385-822"
    },
    {
        "city": "Goianésia",
        "state": "GO",
        "district": "Santa Cecília",
        "street": "Rua 7 Sul",
        "zipcode": "76385-819"
    },
    {
        "city": "Goianésia",
        "state": "GO",
        "district": "Santa Cecília",
        "street": "Rua 16 A",
        "zipcode": "76385-813"
    },
    {
        "city": "Goianésia",
        "state": "GO",
        "district": "Santa Cecília",
        "street": "Rua 5 Sul",
        "zipcode": "76385-810"
    },
    {
        "city": "Goianésia",
        "state": "GO",
        "district": "Santa Cecília",
        "street": "Rua 3 Norte",
        "zipcode": "76385-798"
    },
    {
        "city": "Goianésia",
        "state": "GO",
        "district": "Santa Cecília",
        "street": "Avenida Brasil Oeste",
        "zipcode": "76385-795"
    },
    {
        "city": "Goianésia",
        "state": "GO",
        "district": "Santa Cecília",
        "street": "Avenida Brasil Oeste",
        "zipcode": "76385-792"
    },
    {
        "city": "Goianésia",
        "state": "GO",
        "district": "Santa Cecília",
        "street": "Rua 1 Sul",
        "zipcode": "76385-780"
    },
    {
        "city": "Goianésia",
        "state": "GO",
        "district": "Covoa",
        "street": "Rua dos Buritis",
        "zipcode": "76385-604"
    },
    {
        "city": "Goianésia",
        "state": "GO",
        "district": "Covoa",
        "street": "Rua das Laranjeiras",
        "zipcode": "76385-600"
    },
    {
        "city": "Goianésia",
        "state": "GO",
        "district": "Covoa",
        "street": "Rua Pau Brasil",
        "zipcode": "76385-596"
    },
    {
        "city": "Goianésia",
        "state": "GO",
        "district": "Covoa",
        "street": "Rua dos Angicos",
        "zipcode": "76385-592"
    },
    {
        "city": "Goianésia",
        "state": "GO",
        "district": "Amigo",
        "street": "Rua Andorinha",
        "zipcode": "76385-870"
    },
    {
        "city": "Goianésia",
        "state": "GO",
        "district": "Amigo",
        "street": "Rua 7 Sul",
        "zipcode": "76385-858"
    },
    {
        "city": "Goianésia",
        "state": "GO",
        "district": "Santa Cecília",
        "street": "Rua 3 Sul",
        "zipcode": "76385-804"
    },
    {
        "city": "Goianésia",
        "state": "GO",
        "district": "Santa Cecília",
        "street": "Praça Santa Cecília",
        "zipcode": "76385-801"
    },
    {
        "city": "Goianésia",
        "state": "GO",
        "district": "Covoa",
        "street": "Rua das Palmeiras Norte",
        "zipcode": "76385-588"
    },
    {
        "city": "Goianésia",
        "state": "GO",
        "district": "Covoa",
        "street": "Rua do Ipê Norte",
        "zipcode": "76385-576"
    },
    {
        "city": "Goianésia",
        "state": "GO",
        "district": "Covoa",
        "street": "Rua 18 A",
        "zipcode": "76385-572"
    },
    {
        "city": "Goianésia",
        "state": "GO",
        "district": "Covoa",
        "street": "Rua dos Pinheiros",
        "zipcode": "76385-568"
    },
    {
        "city": "Goianésia",
        "state": "GO",
        "district": "Covoa",
        "street": "Rua 20 Oeste",
        "zipcode": "76385-564"
    },
    {
        "city": "Goianésia",
        "state": "GO",
        "district": "Amigo",
        "street": "Rua 6 Oeste",
        "zipcode": "76385-861"
    },
    {
        "city": "Goianésia",
        "state": "GO",
        "district": "Amigo",
        "street": "Rua 8 Oeste",
        "zipcode": "76385-855"
    },
    {
        "city": "Goianésia",
        "state": "GO",
        "district": "Amigo",
        "street": "Rua 10 Oeste",
        "zipcode": "76385-846"
    },
    {
        "city": "Goianésia",
        "state": "GO",
        "district": "Covoa II",
        "street": "Rua 20 Oeste",
        "zipcode": "76385-550"
    },
    {
        "city": "Goianésia",
        "state": "GO",
        "district": "Covoa II",
        "street": "Avenida Brasil Oeste",
        "zipcode": "76385-538"
    },
    {
        "city": "Goianésia",
        "state": "GO",
        "district": "Amigo",
        "street": "Rua Colibri",
        "zipcode": "76385-876"
    },
    {
        "city": "Goianésia",
        "state": "GO",
        "district": "Santa Cecília",
        "street": "Rua 18 Oeste",
        "zipcode": "76385-789"
    },
    {
        "city": "Goianésia",
        "state": "GO",
        "district": "Covoa II",
        "street": "Rua José Rodrigues de Matos",
        "zipcode": "76385-530"
    },
    {
        "city": "Goianésia",
        "state": "GO",
        "district": "Morro da Ema",
        "street": "Rua João Moreira",
        "zipcode": "76385-443"
    },
    {
        "city": "Goianésia",
        "state": "GO",
        "district": "Morro da Ema",
        "street": "Rua Antônio Bernardes Oliveira Oeste",
        "zipcode": "76385-440"
    },
    {
        "city": "Goianésia",
        "state": "GO",
        "district": "Morro da Ema",
        "street": "Rua 30 Oeste",
        "zipcode": "76385-434"
    },
    {
        "city": "Goianésia",
        "state": "GO",
        "district": "Morro da Ema",
        "street": "Rua das Palmeiras Norte",
        "zipcode": "76385-428"
    },
    {
        "city": "Goianésia",
        "state": "GO",
        "district": "Morro da Ema",
        "street": "Rua Ananias Ferreira Mendes",
        "zipcode": "76385-425"
    },
    {
        "city": "Goianésia",
        "state": "GO",
        "district": "Morro da Ema",
        "street": "Rua Rosalvo Oliveira Martins",
        "zipcode": "76385-422"
    },
    {
        "city": "Goianésia",
        "state": "GO",
        "district": "Morro da Ema",
        "street": "Rua dos Pinheiros",
        "zipcode": "76385-416"
    },
    {
        "city": "Goianésia",
        "state": "GO",
        "district": "Vila Nova Aurora III",
        "street": "Rua 34 Oeste",
        "zipcode": "76385-406"
    },
    {
        "city": "Goianésia",
        "state": "GO",
        "district": "Vila Nova Aurora III",
        "street": "Rua 7 A",
        "zipcode": "76385-400"
    },
    {
        "city": "Goianésia",
        "state": "GO",
        "district": "Vila Nova Aurora III",
        "street": "Rua 5 A",
        "zipcode": "76385-391"
    },
    {
        "city": "Goianésia",
        "state": "GO",
        "district": "Vila Nova Aurora III",
        "street": "Rua 32 A",
        "zipcode": "76385-382"
    },
    {
        "city": "Goianésia",
        "state": "GO",
        "district": "Morro da Ema",
        "street": "Rua Santos Dumont Norte",
        "zipcode": "76385-452"
    },
    {
        "city": "Goianésia",
        "state": "GO",
        "district": "Morro da Ema",
        "street": "Rua 28 Oeste",
        "zipcode": "76385-446"
    },
    {
        "city": "Goianésia",
        "state": "GO",
        "district": "Vila Nova Aurora III",
        "street": "Rua 5 Norte",
        "zipcode": "76385-397"
    },
    {
        "city": "Goianésia",
        "state": "GO",
        "district": "Vila Nova Aurora III",
        "street": "Rua 32 Oeste",
        "zipcode": "76385-376"
    },
    {
        "city": "Goianésia",
        "state": "GO",
        "district": "Vila Nova Aurora III",
        "street": "Rua das Palmeiras Norte",
        "zipcode": "76385-372"
    },
    {
        "city": "Goianésia",
        "state": "GO",
        "district": "Vila Nova Aurora III",
        "street": "Rua 28 Oeste",
        "zipcode": "76385-370"
    },
    {
        "city": "Goianésia",
        "state": "GO",
        "district": "Vila Nova Aurora III",
        "street": "Rua Ipiranga",
        "zipcode": "76385-367"
    },
    {
        "city": "Goianésia",
        "state": "GO",
        "district": "Vila Nova Aurora III",
        "street": "Rua Benedito Vieira Guimarães",
        "zipcode": "76385-364"
    },
    {
        "city": "Goianésia",
        "state": "GO",
        "district": "Vila Nova Aurora III",
        "street": "Rua Santcler",
        "zipcode": "76385-361"
    },
    {
        "city": "Goianésia",
        "state": "GO",
        "district": "Vila Nova Aurora III",
        "street": "Rua Brasília",
        "zipcode": "76385-358"
    },
    {
        "city": "Goianésia",
        "state": "GO",
        "district": "Vila Nova Aurora III",
        "street": "Rua 1 A",
        "zipcode": "76385-355"
    },
    {
        "city": "Goianésia",
        "state": "GO",
        "district": "Vila Nova Aurora III",
        "street": "Rua 1 Norte",
        "zipcode": "76385-346"
    },
    {
        "city": "Goianésia",
        "state": "GO",
        "district": "Vila Nova Aurora III",
        "street": "Rua 1 Norte",
        "zipcode": "76385-340"
    },
    {
        "city": "Goianésia",
        "state": "GO",
        "district": "Vila Nova Aurora",
        "street": "Rua 5 Norte",
        "zipcode": "76385-332"
    },
    {
        "city": "Goianésia",
        "state": "GO",
        "district": "Vila Nova Aurora",
        "street": "Rua 7 Norte",
        "zipcode": "76385-329"
    },
    {
        "city": "Goianésia",
        "state": "GO",
        "district": "Vila Nova Aurora",
        "street": "Rua 9 A",
        "zipcode": "76385-326"
    },
    {
        "city": "Goianésia",
        "state": "GO",
        "district": "Vila Nova Aurora",
        "street": "Rua 9 Norte",
        "zipcode": "76385-323"
    },
    {
        "city": "Goianésia",
        "state": "GO",
        "district": "Vila Nova Aurora",
        "street": "Rua 11 Norte",
        "zipcode": "76385-317"
    },
    {
        "city": "Goianésia",
        "state": "GO",
        "district": "Vila Nova Aurora",
        "street": "Rua 13 A",
        "zipcode": "76385-314"
    },
    {
        "city": "Goianésia",
        "state": "GO",
        "district": "Vila Nova Aurora",
        "street": "Rua 13 Norte",
        "zipcode": "76385-311"
    },
    {
        "city": "Goianésia",
        "state": "GO",
        "district": "Vila Nova Aurora",
        "street": "Rua 15 A",
        "zipcode": "76385-308"
    },
    {
        "city": "Goianésia",
        "state": "GO",
        "district": "Vila Nova Aurora III",
        "street": "Rua 34 Oeste",
        "zipcode": "76385-407"
    },
    {
        "city": "Goianésia",
        "state": "GO",
        "district": "Vila Nova Aurora III",
        "street": "Rua Santos Dumont Norte",
        "zipcode": "76385-373"
    },
    {
        "city": "Goianésia",
        "state": "GO",
        "district": "Vila Nova Aurora III",
        "street": "Rua 30 Oeste",
        "zipcode": "76385-352"
    },
    {
        "city": "Goianésia",
        "state": "GO",
        "district": "Vila Nova Aurora III",
        "street": "Rua 3 A",
        "zipcode": "76385-349"
    },
    {
        "city": "Goianésia",
        "state": "GO",
        "district": "Vila Nova Aurora III",
        "street": "Rua 1 Norte",
        "zipcode": "76385-343"
    },
    {
        "city": "Goianésia",
        "state": "GO",
        "district": "Vila Nova Aurora",
        "street": "Rua 15 Norte",
        "zipcode": "76385-302"
    },
    {
        "city": "Goianésia",
        "state": "GO",
        "district": "Vila Nova Aurora",
        "street": "Avenida Pará",
        "zipcode": "76385-299"
    },
    {
        "city": "Goianésia",
        "state": "GO",
        "district": "Vila Nova Aurora",
        "street": "Avenida Contorno",
        "zipcode": "76385-296"
    },
    {
        "city": "Goianésia",
        "state": "GO",
        "district": "Vila Nova Aurora",
        "street": "Rua 34 Oeste",
        "zipcode": "76385-293"
    },
    {
        "city": "Goianésia",
        "state": "GO",
        "district": "Vila Nova Aurora III",
        "street": "Rua 7 Norte",
        "zipcode": "76385-403"
    },
    {
        "city": "Goianésia",
        "state": "GO",
        "district": "Vila Nova Aurora III",
        "street": "Rua Tiradentes",
        "zipcode": "76385-374"
    },
    {
        "city": "Goianésia",
        "state": "GO",
        "district": "Setor Oeste",
        "street": "Rua 3 Norte",
        "zipcode": "76385-274"
    },
    {
        "city": "Goianésia",
        "state": "GO",
        "district": "Setor Oeste",
        "street": "Rua 3 Norte",
        "zipcode": "76385-271"
    },
    {
        "city": "Goianésia",
        "state": "GO",
        "district": "Colina Park Residencial",
        "street": "Rua 67 A",
        "zipcode": "76383-326"
    },
    {
        "city": "Goianésia",
        "state": "GO",
        "district": "Setor Oeste",
        "street": "Rua 7 Norte",
        "zipcode": "76385-262"
    },
    {
        "city": "Goianésia",
        "state": "GO",
        "district": "Setor Oeste",
        "street": "Rua 9 Norte",
        "zipcode": "76385-259"
    },
    {
        "city": "Goianésia",
        "state": "GO",
        "district": "Setor Oeste",
        "street": "Rua 13 Norte",
        "zipcode": "76385-247"
    },
    {
        "city": "Goianésia",
        "state": "GO",
        "district": "Setor Oeste",
        "street": "Avenida Contorno",
        "zipcode": "76385-244"
    },
    {
        "city": "Goianésia",
        "state": "GO",
        "district": "Setor Oeste",
        "street": "Avenida Contorno",
        "zipcode": "76385-241"
    },
    {
        "city": "Goianésia",
        "state": "GO",
        "district": "Setor Oeste",
        "street": "Rua 15 Norte",
        "zipcode": "76385-238"
    },
    {
        "city": "Goianésia",
        "state": "GO",
        "district": "Setor Oeste",
        "street": "Rua 17 Norte",
        "zipcode": "76385-235"
    },
    {
        "city": "Goianésia",
        "state": "GO",
        "district": "Setor Oeste",
        "street": "Rua 34 Oeste",
        "zipcode": "76385-229"
    },
    {
        "city": "Goianésia",
        "state": "GO",
        "district": "Setor Oeste",
        "street": "Rua 19 Norte",
        "zipcode": "76385-226"
    },
    {
        "city": "Goianésia",
        "state": "GO",
        "district": "Setor Oeste",
        "street": "Rua 32 Oeste",
        "zipcode": "76385-220"
    },
    {
        "city": "Goianésia",
        "state": "GO",
        "district": "Setor Oeste",
        "street": "Rua 32 Oeste",
        "zipcode": "76385-217"
    },
    {
        "city": "Goianésia",
        "state": "GO",
        "district": "Setor Oeste",
        "street": "Rua 25 Norte",
        "zipcode": "76385-214"
    },
    {
        "city": "Goianésia",
        "state": "GO",
        "district": "Setor Oeste",
        "street": "Rua 30 Oeste",
        "zipcode": "76385-205"
    },
    {
        "city": "Goianésia",
        "state": "GO",
        "district": "Vila Nova Aurora",
        "street": "Rua 34 Oeste",
        "zipcode": "76385-290"
    },
    {
        "city": "Goianésia",
        "state": "GO",
        "district": "Setor Oeste",
        "street": "Rua 5 Norte",
        "zipcode": "76385-286"
    },
    {
        "city": "Goianésia",
        "state": "GO",
        "district": "Setor Oeste",
        "street": "Rua 1 Norte",
        "zipcode": "76385-283"
    },
    {
        "city": "Goianésia",
        "state": "GO",
        "district": "Setor Oeste",
        "street": "Viela Alvina Cândida Lacerda",
        "zipcode": "76385-268"
    },
    {
        "city": "Goianésia",
        "state": "GO",
        "district": "Setor Oeste",
        "street": "Rua 11 Norte",
        "zipcode": "76385-256"
    },
    {
        "city": "Goianésia",
        "state": "GO",
        "district": "Setor Oeste",
        "street": "Avenida Goiás Norte",
        "zipcode": "76385-193"
    },
    {
        "city": "Goianésia",
        "state": "GO",
        "district": "Setor Oeste",
        "street": "Rua 28 Oeste",
        "zipcode": "76385-190"
    },
    {
        "city": "Goianésia",
        "state": "GO",
        "district": "Negrinho Carrilho",
        "street": "Rua 28 Oeste",
        "zipcode": "76385-131"
    },
    {
        "city": "Goianésia",
        "state": "GO",
        "district": "Negrinho Carrilho",
        "street": "Rua 28 Oeste",
        "zipcode": "76385-130"
    },
    {
        "city": "Goianésia",
        "state": "GO",
        "district": "Negrinho Carrilho",
        "street": "Rua 23 Norte",
        "zipcode": "76385-127"
    },
    {
        "city": "Goianésia",
        "state": "GO",
        "district": "Negrinho Carrilho",
        "street": "Rua 19 Norte",
        "zipcode": "76385-124"
    },
    {
        "city": "Goianésia",
        "state": "GO",
        "district": "Negrinho Carrilho",
        "street": "Rua 17 Norte",
        "zipcode": "76385-121"
    },
    {
        "city": "Goianésia",
        "state": "GO",
        "district": "Negrinho Carrilho",
        "street": "Rua 15 Norte",
        "zipcode": "76385-118"
    },
    {
        "city": "Goianésia",
        "state": "GO",
        "district": "Negrinho Carrilho",
        "street": "Avenida Contorno",
        "zipcode": "76385-109"
    },
    {
        "city": "Goianésia",
        "state": "GO",
        "district": "Negrinho Carrilho",
        "street": "Rua 11 Norte",
        "zipcode": "76385-101"
    },
    {
        "city": "Goianésia",
        "state": "GO",
        "district": "Negrinho Carrilho",
        "street": "Rua 9 Norte",
        "zipcode": "76385-097"
    },
    {
        "city": "Goianésia",
        "state": "GO",
        "district": "Negrinho Carrilho",
        "street": "Viela João de Castro Souza",
        "zipcode": "76385-091"
    },
    {
        "city": "Goianésia",
        "state": "GO",
        "district": "Negrinho Carrilho",
        "street": "Viela Vander José Gomes",
        "zipcode": "76385-088"
    },
    {
        "city": "Goianésia",
        "state": "GO",
        "district": "Negrinho Carrilho",
        "street": "Viela Ernane Carrilho de Castro",
        "zipcode": "76385-085"
    },
    {
        "city": "Goianésia",
        "state": "GO",
        "district": "Negrinho Carrilho",
        "street": "Rua 26 Oeste",
        "zipcode": "76385-079"
    },
    {
        "city": "Goianésia",
        "state": "GO",
        "district": "Negrinho Carrilho",
        "street": "Viela C 4",
        "zipcode": "76385-076"
    },
    {
        "city": "Goianésia",
        "state": "GO",
        "district": "Setor Oeste",
        "street": "Rua 34 Oeste",
        "zipcode": "76385-232"
    },
    {
        "city": "Goianésia",
        "state": "GO",
        "district": "Setor Oeste",
        "street": "Rua 23 Norte",
        "zipcode": "76385-223"
    },
    {
        "city": "Goianésia",
        "state": "GO",
        "district": "Negrinho Carrilho",
        "street": "Alameda Haroldo Carrilho de Castro",
        "zipcode": "76385-115"
    },
    {
        "city": "Goianésia",
        "state": "GO",
        "district": "Setor Oeste",
        "street": "Rua 27 Norte",
        "zipcode": "76385-202"
    },
    {
        "city": "Goianésia",
        "state": "GO",
        "district": "Setor Oeste",
        "street": "Rua 29 Norte",
        "zipcode": "76385-199"
    },
    {
        "city": "Goianésia",
        "state": "GO",
        "district": "Setor Oeste",
        "street": "Avenida Pará",
        "zipcode": "76385-196"
    },
    {
        "city": "Goianésia",
        "state": "GO",
        "district": "Colina Park Residencial",
        "street": "Rua Cabo Frio",
        "zipcode": "76383-377"
    },
    {
        "city": "Goianésia",
        "state": "GO",
        "district": "Negrinho Carrilho",
        "street": "Viela Aureo Carrilho Arantes",
        "zipcode": "76385-112"
    },
    {
        "city": "Goianésia",
        "state": "GO",
        "district": "Negrinho Carrilho",
        "street": "Rua 13 Norte",
        "zipcode": "76385-103"
    },
    {
        "city": "Goianésia",
        "state": "GO",
        "district": "Negrinho Carrilho",
        "street": "Rua José Carrilho Oeste",
        "zipcode": "76385-070"
    },
    {
        "city": "Goianésia",
        "state": "GO",
        "district": "Negrinho Carrilho",
        "street": "Rua 7 Norte",
        "zipcode": "76385-065"
    },
    {
        "city": "Goianésia",
        "state": "GO",
        "district": "Negrinho Carrilho",
        "street": "Rua 7 Norte",
        "zipcode": "76385-064"
    },
    {
        "city": "Goianésia",
        "state": "GO",
        "district": "Negrinho Carrilho",
        "street": "Rua 20 Oeste",
        "zipcode": "76385-052"
    },
    {
        "city": "Goianésia",
        "state": "GO",
        "district": "Jardim Por do Sol",
        "street": "Rua 11 Norte",
        "zipcode": "76385-027"
    },
    {
        "city": "Goianésia",
        "state": "GO",
        "district": "Jardim Por do Sol",
        "street": "Rua 18 Oeste",
        "zipcode": "76385-021"
    },
    {
        "city": "Goianésia",
        "state": "GO",
        "district": "Jardim Por do Sol",
        "street": "Rua 18 Oeste",
        "zipcode": "76385-018"
    },
    {
        "city": "Goianésia",
        "state": "GO",
        "district": "Jardim Por do Sol",
        "street": "Rua 19 Norte",
        "zipcode": "76385-012"
    },
    {
        "city": "Goianésia",
        "state": "GO",
        "district": "Jardim Por do Sol",
        "street": "Rua 21 Norte",
        "zipcode": "76385-003"
    },
    {
        "city": "Goianésia",
        "state": "GO",
        "district": "Vivalle Goianésia",
        "street": "Rua V V 14",
        "zipcode": "76384-423"
    },
    {
        "city": "Goianésia",
        "state": "GO",
        "district": "Vivalle Goianésia",
        "street": "Rua V V 13",
        "zipcode": "76384-420"
    },
    {
        "city": "Goianésia",
        "state": "GO",
        "district": "Vivalle Goianésia",
        "street": "Rua V V 11",
        "zipcode": "76384-417"
    },
    {
        "city": "Goianésia",
        "state": "GO",
        "district": "Vivalle Goianésia",
        "street": "Rua V V 8",
        "zipcode": "76384-408"
    },
    {
        "city": "Goianésia",
        "state": "GO",
        "district": "Vivalle Goianésia",
        "street": "Rua V V 16",
        "zipcode": "76384-405"
    },
    {
        "city": "Goianésia",
        "state": "GO",
        "district": "Vivalle Goianésia",
        "street": "Rua V V 17",
        "zipcode": "76384-396"
    },
    {
        "city": "Goianésia",
        "state": "GO",
        "district": "Vivalle Goianésia",
        "street": "Rua V V 18",
        "zipcode": "76384-393"
    },
    {
        "city": "Goianésia",
        "state": "GO",
        "district": "Vivalle Goianésia",
        "street": "Rua V V 7",
        "zipcode": "76384-390"
    },
    {
        "city": "Goianésia",
        "state": "GO",
        "district": "Negrinho Carrilho",
        "street": "Rua 3 Norte",
        "zipcode": "76385-058"
    },
    {
        "city": "Goianésia",
        "state": "GO",
        "district": "Jardim Por do Sol",
        "street": "Rua 15 Norte",
        "zipcode": "76385-033"
    },
    {
        "city": "Goianésia",
        "state": "GO",
        "district": "Jardim Por do Sol",
        "street": "Avenida Contorno",
        "zipcode": "76385-029"
    },
    {
        "city": "Goianésia",
        "state": "GO",
        "district": "Jardim Por do Sol",
        "street": "Rua 17 Norte",
        "zipcode": "76385-015"
    },
    {
        "city": "Goianésia",
        "state": "GO",
        "district": "Jardim Por do Sol",
        "street": "Rua 20 Oeste",
        "zipcode": "76385-006"
    },
    {
        "city": "Goianésia",
        "state": "GO",
        "district": "Vivalle Goianésia",
        "street": "Rua V V 20",
        "zipcode": "76384-387"
    },
    {
        "city": "Goianésia",
        "state": "GO",
        "district": "Vivalle Goianésia",
        "street": "Alameda Recanto dos Buritis",
        "zipcode": "76384-384"
    },
    {
        "city": "Goianésia",
        "state": "GO",
        "district": "Vivalle Goianésia",
        "street": "Rua V V 19",
        "zipcode": "76384-381"
    },
    {
        "city": "Goianésia",
        "state": "GO",
        "district": "Vivalle Goianésia",
        "street": "Rua V V 6",
        "zipcode": "76384-378"
    },
    {
        "city": "Goianésia",
        "state": "GO",
        "district": "Vivalle Goianésia",
        "street": "Rua V V 4",
        "zipcode": "76384-375"
    },
    {
        "city": "Goianésia",
        "state": "GO",
        "district": "Vivalle Goianésia",
        "street": "Rua V V 2",
        "zipcode": "76384-369"
    },
    {
        "city": "Goianésia",
        "state": "GO",
        "district": "Vivalle Goianésia",
        "street": "Rua V V 1",
        "zipcode": "76384-366"
    },
    {
        "city": "Goianésia",
        "state": "GO",
        "district": "Vivalle Goianésia",
        "street": "Rua V V 3",
        "zipcode": "76384-363"
    },
    {
        "city": "Goianésia",
        "state": "GO",
        "district": "Primavera",
        "street": "Rua Tocantins",
        "zipcode": "76384-072"
    },
    {
        "city": "Goianésia",
        "state": "GO",
        "district": "Primavera",
        "street": "Rua Ceará",
        "zipcode": "76384-069"
    },
    {
        "city": "Goianésia",
        "state": "GO",
        "district": "Primavera",
        "street": "Rua 35 Sul",
        "zipcode": "76384-066"
    },
    {
        "city": "Goianésia",
        "state": "GO",
        "district": "Primavera",
        "street": "Rua 37 Sul",
        "zipcode": "76384-060"
    },
    {
        "city": "Goianésia",
        "state": "GO",
        "district": "Primavera",
        "street": "Rua 39 Sul",
        "zipcode": "76384-055"
    },
    {
        "city": "Goianésia",
        "state": "GO",
        "district": "Primavera",
        "street": "Rua Alagoas",
        "zipcode": "76384-051"
    },
    {
        "city": "Goianésia",
        "state": "GO",
        "district": "Primavera",
        "street": "Rua Paraíba",
        "zipcode": "76384-048"
    },
    {
        "city": "Goianésia",
        "state": "GO",
        "district": "Primavera",
        "street": "Rua São Paulo",
        "zipcode": "76384-045"
    },
    {
        "city": "Goianésia",
        "state": "GO",
        "district": "Primavera",
        "street": "Rua 41 Sul",
        "zipcode": "76384-042"
    },
    {
        "city": "Goianésia",
        "state": "GO",
        "district": "Primavera",
        "street": "Rua 43 Sul",
        "zipcode": "76384-035"
    },
    {
        "city": "Goianésia",
        "state": "GO",
        "district": "Primavera",
        "street": "Rua Paraná",
        "zipcode": "76384-033"
    },
    {
        "city": "Goianésia",
        "state": "GO",
        "district": "Primavera",
        "street": "Rua Calção de Couro",
        "zipcode": "76384-030"
    },
    {
        "city": "Goianésia",
        "state": "GO",
        "district": "Vivalle Goianésia",
        "street": "Rua V V 12",
        "zipcode": "76384-414"
    },
    {
        "city": "Goianésia",
        "state": "GO",
        "district": "Vivalle Goianésia",
        "street": "Rua V V 10",
        "zipcode": "76384-402"
    },
    {
        "city": "Goianésia",
        "state": "GO",
        "district": "Primavera",
        "street": "Rua Sergipe",
        "zipcode": "76384-063"
    },
    {
        "city": "Goianésia",
        "state": "GO",
        "district": "Negrinho Carrilho",
        "street": "Rua 1 Norte",
        "zipcode": "76385-043"
    },
    {
        "city": "Goianésia",
        "state": "GO",
        "district": "Negrinho Carrilho",
        "street": "Rua 18 Oeste",
        "zipcode": "76385-040"
    },
    {
        "city": "Goianésia",
        "state": "GO",
        "district": "Primavera",
        "street": "Rua Acre",
        "zipcode": "76384-057"
    },
    {
        "city": "Goianésia",
        "state": "GO",
        "district": "Jardim Esperança",
        "street": "Rua do Portal",
        "zipcode": "76383-715"
    },
    {
        "city": "Goianésia",
        "state": "GO",
        "district": "Jardim Esperança",
        "street": "Rua Lavrinha",
        "zipcode": "76383-712"
    },
    {
        "city": "Goianésia",
        "state": "GO",
        "district": "Jardim Esperança",
        "street": "Rua Caiçara",
        "zipcode": "76383-709"
    },
    {
        "city": "Goianésia",
        "state": "GO",
        "district": "Jardim Esperança",
        "street": "Rua Pouso Alegre",
        "zipcode": "76383-697"
    },
    {
        "city": "Goianésia",
        "state": "GO",
        "district": "Jardim Esperança",
        "street": "Rua Chumbada",
        "zipcode": "76383-694"
    },
    {
        "city": "Goianésia",
        "state": "GO",
        "district": "Jardim Esperança",
        "street": "Rua Vista Alegre",
        "zipcode": "76383-691"
    },
    {
        "city": "Goianésia",
        "state": "GO",
        "district": "Jardim Esperança",
        "street": "Rua Mariana",
        "zipcode": "76383-661"
    },
    {
        "city": "Goianésia",
        "state": "GO",
        "district": "Jardim Esperança",
        "street": "Rua Moreira",
        "zipcode": "76383-655"
    },
    {
        "city": "Goianésia",
        "state": "GO",
        "district": "Jardim Esperança",
        "street": "Rua Covoa",
        "zipcode": "76383-652"
    },
    {
        "city": "Goianésia",
        "state": "GO",
        "district": "Jardim Esperança",
        "street": "Rua Bela Vista",
        "zipcode": "76383-649"
    },
    {
        "city": "Goianésia",
        "state": "GO",
        "district": "Jardim Esperança",
        "street": "Rua Dias",
        "zipcode": "76383-646"
    },
    {
        "city": "Goianésia",
        "state": "GO",
        "district": "Jardim Esperança",
        "street": "Rua das Lages",
        "zipcode": "76383-643"
    },
    {
        "city": "Goianésia",
        "state": "GO",
        "district": "Jardim Esperança",
        "street": "Avenida Ulisses Guimarães",
        "zipcode": "76383-637"
    },
    {
        "city": "Goianésia",
        "state": "GO",
        "district": "Jardim Esperança",
        "street": "Rua Santa Família",
        "zipcode": "76383-631"
    },
    {
        "city": "Goianésia",
        "state": "GO",
        "district": "Jardim Esperança",
        "street": "Rua do Guará",
        "zipcode": "76383-628"
    },
    {
        "city": "Goianésia",
        "state": "GO",
        "district": "Jardim Esperança",
        "street": "Rua Monte Alegre",
        "zipcode": "76383-625"
    },
    {
        "city": "Goianésia",
        "state": "GO",
        "district": "Jardim Esperança",
        "street": "Rua da Pedra",
        "zipcode": "76383-622"
    },
    {
        "city": "Goianésia",
        "state": "GO",
        "district": "Jardim Esperança",
        "street": "Rua Itajá",
        "zipcode": "76383-619"
    },
    {
        "city": "Goianésia",
        "state": "GO",
        "district": "Jardim Esperança",
        "street": "Rua 2 Leste",
        "zipcode": "76383-616"
    },
    {
        "city": "Goianésia",
        "state": "GO",
        "district": "Jardim Esperança",
        "street": "Avenida Contorno",
        "zipcode": "76383-613"
    },
    {
        "city": "Goianésia",
        "state": "GO",
        "district": "Jardim Esperança",
        "street": "Rua dos Ambrósios",
        "zipcode": "76383-610"
    },
    {
        "city": "Goianésia",
        "state": "GO",
        "district": "Jardim Esperança",
        "street": "Rua Margarida",
        "zipcode": "76383-703"
    },
    {
        "city": "Goianésia",
        "state": "GO",
        "district": "Jardim Esperança",
        "street": "Rua Laranjeira",
        "zipcode": "76383-688"
    },
    {
        "city": "Goianésia",
        "state": "GO",
        "district": "Jardim Esperança",
        "street": "Rua Serra Negra",
        "zipcode": "76383-682"
    },
    {
        "city": "Goianésia",
        "state": "GO",
        "district": "Jardim Esperança",
        "street": "Rua Columbi",
        "zipcode": "76383-673"
    },
    {
        "city": "Goianésia",
        "state": "GO",
        "district": "Jardim Esperança",
        "street": "Rua Rio dos Patos",
        "zipcode": "76383-667"
    },
    {
        "city": "Goianésia",
        "state": "GO",
        "district": "Jardim Esperança",
        "street": "Rua Embira Branca",
        "zipcode": "76383-640"
    },
    {
        "city": "Goianésia",
        "state": "GO",
        "district": "Residencial Granville",
        "street": "Rua Rubiataba",
        "zipcode": "76382-304"
    },
    {
        "city": "Goianésia",
        "state": "GO",
        "district": "Residencial Mariana Park",
        "street": "Rua dos Ambrósios",
        "zipcode": "76383-602"
    },
    {
        "city": "Goianésia",
        "state": "GO",
        "district": "Residencial Mariana Park",
        "street": "Rua José Batista de Godoy",
        "zipcode": "76383-599"
    },
    {
        "city": "Goianésia",
        "state": "GO",
        "district": "Residencial Mariana Park",
        "street": "Rua Santa Família",
        "zipcode": "76383-596"
    },
    {
        "city": "Goianésia",
        "state": "GO",
        "district": "Residencial Mariana Park",
        "street": "Rua Jessy César de Oliveira",
        "zipcode": "76383-590"
    },
    {
        "city": "Goianésia",
        "state": "GO",
        "district": "Colina Park Residencial",
        "street": "Rua Olaria",
        "zipcode": "76383-374"
    },
    {
        "city": "Goianésia",
        "state": "GO",
        "district": "Colina Park Residencial",
        "street": "Rua Fluminense",
        "zipcode": "76383-353"
    },
    {
        "city": "Goianésia",
        "state": "GO",
        "district": "Colina Park Residencial",
        "street": "Rua Flamengo",
        "zipcode": "76383-350"
    },
    {
        "city": "Goianésia",
        "state": "GO",
        "district": "Colina Park Residencial",
        "street": "Rua 10 Leste",
        "zipcode": "76383-344"
    },
    {
        "city": "Goianésia",
        "state": "GO",
        "district": "Colina Park Residencial",
        "street": "Rua Botafogo",
        "zipcode": "76383-338"
    },
    {
        "city": "Goianésia",
        "state": "GO",
        "district": "Colina Park Residencial",
        "street": "Rua Madureira",
        "zipcode": "76383-335"
    },
    {
        "city": "Goianésia",
        "state": "GO",
        "district": "Jardim Esperança",
        "street": "Rua Calção de Couro",
        "zipcode": "76383-685"
    },
    {
        "city": "Goianésia",
        "state": "GO",
        "district": "Jardim Esperança",
        "street": "Rua São Bento",
        "zipcode": "76383-670"
    },
    {
        "city": "Goianésia",
        "state": "GO",
        "district": "Colina Park Residencial",
        "street": "Rua Maracanã",
        "zipcode": "76383-371"
    },
    {
        "city": "Goianésia",
        "state": "GO",
        "district": "Colina Park Residencial",
        "street": "Rua 6 Leste",
        "zipcode": "76383-365"
    },
    {
        "city": "Goianésia",
        "state": "GO",
        "district": "Colina Park Residencial",
        "street": "Rua São Cristóvão",
        "zipcode": "76383-362"
    },
    {
        "city": "Goianésia",
        "state": "GO",
        "district": "Colina Park Residencial",
        "street": "Rua Bangu",
        "zipcode": "76383-359"
    },
    {
        "city": "Goianésia",
        "state": "GO",
        "district": "Colina Park Residencial",
        "street": "Rua América",
        "zipcode": "76383-347"
    },
    {
        "city": "Goianésia",
        "state": "GO",
        "district": "Colina Park Residencial",
        "street": "Rua Vasco da Gama",
        "zipcode": "76383-341"
    },
    {
        "city": "Goianésia",
        "state": "GO",
        "district": "Jardim Esperança",
        "street": "Rua Pica",
        "zipcode": "76383-679"
    },
    {
        "city": "Goianésia",
        "state": "GO",
        "district": "Jardim Esperança",
        "street": "Rua São Carlos",
        "zipcode": "76383-676"
    },
    {
        "city": "Goianésia",
        "state": "GO",
        "district": "Colina Park Residencial",
        "street": "Rua 59",
        "zipcode": "76383-311"
    },
    {
        "city": "Goianésia",
        "state": "GO",
        "district": "Colina Park Residencial",
        "street": "Rua 53 Sul",
        "zipcode": "76383-299"
    },
    {
        "city": "Goianésia",
        "state": "GO",
        "district": "Colina Park Residencial",
        "street": "Rua 63",
        "zipcode": "76383-317"
    },
    {
        "city": "Goianésia",
        "state": "GO",
        "district": "Colina Park Residencial",
        "street": "Rua 10 A",
        "zipcode": "76383-296"
    },
    {
        "city": "Goianésia",
        "state": "GO",
        "district": "Residencial Jardim Mariana",
        "street": "Alameda Mariana",
        "zipcode": "76383-180"
    },
    {
        "city": "Goianésia",
        "state": "GO",
        "district": "Residencial Bougainville",
        "street": "Avenida Flamboyant",
        "zipcode": "76383-069"
    },
    {
        "city": "Goianésia",
        "state": "GO",
        "district": "Residencial Bougainville",
        "street": "Rua das Margaridas",
        "zipcode": "76383-066"
    },
    {
        "city": "Goianésia",
        "state": "GO",
        "district": "Residencial Bougainville",
        "street": "Rua das Violetas",
        "zipcode": "76383-060"
    },
    {
        "city": "Goianésia",
        "state": "GO",
        "district": "Residencial Bougainville",
        "street": "Rua Azaléia",
        "zipcode": "76383-054"
    },
    {
        "city": "Goianésia",
        "state": "GO",
        "district": "Residencial Bougainville",
        "street": "Rua 8 Leste",
        "zipcode": "76383-030"
    },
    {
        "city": "Goianésia",
        "state": "GO",
        "district": "Itapuã",
        "street": "Rua 49 Sul",
        "zipcode": "76383-014"
    },
    {
        "city": "Goianésia",
        "state": "GO",
        "district": "Itapuã",
        "street": "Rua 51 Sul",
        "zipcode": "76383-010"
    },
    {
        "city": "Goianésia",
        "state": "GO",
        "district": "Itapuã",
        "street": "Rua 10 A",
        "zipcode": "76383-008"
    },
    {
        "city": "Goianésia",
        "state": "GO",
        "district": "Itapuã",
        "street": "Rua 10 Leste",
        "zipcode": "76383-005"
    },
    {
        "city": "Goianésia",
        "state": "GO",
        "district": "Itapuã",
        "street": "Rua 47 Sul",
        "zipcode": "76383-001"
    },
    {
        "city": "Goianésia",
        "state": "GO",
        "district": "Vila Vera Cruz",
        "street": "Rua G",
        "zipcode": "76382-891"
    },
    {
        "city": "Goianésia",
        "state": "GO",
        "district": "Colina Park Residencial",
        "street": "Avenida Flamboyant",
        "zipcode": "76383-302"
    },
    {
        "city": "Goianésia",
        "state": "GO",
        "district": "Colina Park Residencial",
        "street": "Rua 51 Sul",
        "zipcode": "76383-293"
    },
    {
        "city": "Goianésia",
        "state": "GO",
        "district": "Colina Park Residencial",
        "street": "Rua das Margaridas",
        "zipcode": "76383-290"
    },
    {
        "city": "Goianésia",
        "state": "GO",
        "district": "Residencial Jardim Mariana",
        "street": "Rua das Margaridas",
        "zipcode": "76383-185"
    },
    {
        "city": "Goianésia",
        "state": "GO",
        "district": "Residencial Bougainville",
        "street": "Rua 47 Sul",
        "zipcode": "76383-039"
    },
    {
        "city": "Goianésia",
        "state": "GO",
        "district": "Residencial Bougainville",
        "street": "Rua 49 Sul",
        "zipcode": "76383-036"
    },
    {
        "city": "Goianésia",
        "state": "GO",
        "district": "Residencial Bougainville",
        "street": "Rua 51 Sul",
        "zipcode": "76383-033"
    },
    {
        "city": "Goianésia",
        "state": "GO",
        "district": "Vila Vera Cruz",
        "street": "Rua 47 Sul",
        "zipcode": "76382-894"
    },
    {
        "city": "Goianésia",
        "state": "GO",
        "district": "Vila Vera Cruz",
        "street": "Rua 8 Leste",
        "zipcode": "76382-888"
    },
    {
        "city": "Goianésia",
        "state": "GO",
        "district": "Vila Vera Cruz",
        "street": "Rua H",
        "zipcode": "76382-885"
    },
    {
        "city": "Goianésia",
        "state": "GO",
        "district": "Residencial Granville",
        "street": "Rua 27 Sul",
        "zipcode": "76382-286"
    },
    {
        "city": "Goianésia",
        "state": "GO",
        "district": "Vila Vera Cruz",
        "street": "Avenida Minas Gerais",
        "zipcode": "76382-882"
    },
    {
        "city": "Goianésia",
        "state": "GO",
        "district": "Vila Vera Cruz",
        "street": "Rua 45 Sul",
        "zipcode": "76382-879"
    },
    {
        "city": "Goianésia",
        "state": "GO",
        "district": "Vila Vera Cruz",
        "street": "Avenida Contorno",
        "zipcode": "76382-866"
    },
    {
        "city": "Goianésia",
        "state": "GO",
        "district": "Vila Vera Cruz",
        "street": "Rua J",
        "zipcode": "76382-864"
    },
    {
        "city": "Goianésia",
        "state": "GO",
        "district": "Vila Vera Cruz",
        "street": "Rua F",
        "zipcode": "76382-861"
    },
    {
        "city": "Goianésia",
        "state": "GO",
        "district": "Vila Vera Cruz",
        "street": "Rua D",
        "zipcode": "76382-855"
    },
    {
        "city": "Goianésia",
        "state": "GO",
        "district": "Vila Vera Cruz",
        "street": "Rua A",
        "zipcode": "76382-852"
    },
    {
        "city": "Goianésia",
        "state": "GO",
        "district": "Vila Vera Cruz",
        "street": "Rua C",
        "zipcode": "76382-849"
    },
    {
        "city": "Goianésia",
        "state": "GO",
        "district": "Vila Vera Cruz",
        "street": "Rua B",
        "zipcode": "76382-846"
    },
    {
        "city": "Goianésia",
        "state": "GO",
        "district": "Santa Tereza",
        "street": "Rua 10 Leste",
        "zipcode": "76382-718"
    },
    {
        "city": "Goianésia",
        "state": "GO",
        "district": "Santa Tereza",
        "street": "Rua 10 Leste",
        "zipcode": "76382-715"
    },
    {
        "city": "Goianésia",
        "state": "GO",
        "district": "Residencial Bougainville",
        "street": "Avenida Minas Gerais",
        "zipcode": "76383-051"
    },
    {
        "city": "Goianésia",
        "state": "GO",
        "district": "Residencial Bougainville",
        "street": "Avenida Contorno",
        "zipcode": "76383-045"
    },
    {
        "city": "Goianésia",
        "state": "GO",
        "district": "Vila Vera Cruz",
        "street": "Rua I",
        "zipcode": "76382-876"
    },
    {
        "city": "Goianésia",
        "state": "GO",
        "district": "Vila Vera Cruz",
        "street": "Rua 43 Sul",
        "zipcode": "76382-870"
    },
    {
        "city": "Goianésia",
        "state": "GO",
        "district": "Vila Vera Cruz",
        "street": "Avenida Contorno",
        "zipcode": "76382-867"
    },
    {
        "city": "Goianésia",
        "state": "GO",
        "district": "Vila Vera Cruz",
        "street": "Rua E",
        "zipcode": "76382-858"
    },
    {
        "city": "Goianésia",
        "state": "GO",
        "district": "Residencial Bougainville",
        "street": "Rua 6 Leste",
        "zipcode": "76383-063"
    },
    {
        "city": "Goianésia",
        "state": "GO",
        "district": "Vila Vera Cruz",
        "street": "Avenida Minas Gerais",
        "zipcode": "76382-873"
    },
    {
        "city": "Goianésia",
        "state": "GO",
        "district": "Santa Tereza",
        "street": "Rua 12 Leste",
        "zipcode": "76382-709"
    },
    {
        "city": "Goianésia",
        "state": "GO",
        "district": "Santa Tereza",
        "street": "Avenida Contorno",
        "zipcode": "76382-706"
    },
    {
        "city": "Goianésia",
        "state": "GO",
        "district": "Santa Tereza",
        "street": "Rua 47 Sul",
        "zipcode": "76382-700"
    },
    {
        "city": "Goianésia",
        "state": "GO",
        "district": "Santa Tereza",
        "street": "Rua 47 Sul",
        "zipcode": "76382-697"
    },
    {
        "city": "Goianésia",
        "state": "GO",
        "district": "Santa Tereza",
        "street": "Rua 49 Sul",
        "zipcode": "76382-688"
    },
    {
        "city": "Goianésia",
        "state": "GO",
        "district": "Santa Tereza",
        "street": "Rua 51 Sul",
        "zipcode": "76382-685"
    },
    {
        "city": "Goianésia",
        "state": "GO",
        "district": "Residencial Bougainville",
        "street": "Rua das Orquídeas",
        "zipcode": "76383-057"
    },
    {
        "city": "Goianésia",
        "state": "GO",
        "district": "Santa Tereza",
        "street": "Rua 53 Sul",
        "zipcode": "76382-679"
    },
    {
        "city": "Goianésia",
        "state": "GO",
        "district": "Santa Tereza",
        "street": "Rua 55 Sul",
        "zipcode": "76382-676"
    },
    {
        "city": "Goianésia",
        "state": "GO",
        "district": "Residencial Granville",
        "street": "Rua 15 Sul",
        "zipcode": "76382-358"
    },
    {
        "city": "Goianésia",
        "state": "GO",
        "district": "Residencial Granville",
        "street": "Rua 13 Sul",
        "zipcode": "76382-355"
    },
    {
        "city": "Goianésia",
        "state": "GO",
        "district": "Residencial Granville",
        "street": "Rua 3 Sul",
        "zipcode": "76382-340"
    },
    {
        "city": "Goianésia",
        "state": "GO",
        "district": "Residencial Granville",
        "street": "Rua Rialma",
        "zipcode": "76382-337"
    },
    {
        "city": "Goianésia",
        "state": "GO",
        "district": "Residencial Granville",
        "street": "Rua Ceres",
        "zipcode": "76382-334"
    },
    {
        "city": "Goianésia",
        "state": "GO",
        "district": "Residencial Granville",
        "street": "Avenida José Inácio",
        "zipcode": "76382-331"
    },
    {
        "city": "Goianésia",
        "state": "GO",
        "district": "Residencial Granville",
        "street": "Rua Nerópolis",
        "zipcode": "76382-325"
    },
    {
        "city": "Goianésia",
        "state": "GO",
        "district": "Residencial Granville",
        "street": "Rua 17 Sul",
        "zipcode": "76382-316"
    },
    {
        "city": "Goianésia",
        "state": "GO",
        "district": "Residencial Granville",
        "street": "Rua Uruaçu",
        "zipcode": "76382-310"
    },
    {
        "city": "Goianésia",
        "state": "GO",
        "district": "Residencial Granville",
        "street": "Rua Itapaci",
        "zipcode": "76382-301"
    },
    {
        "city": "Goianésia",
        "state": "GO",
        "district": "Residencial Granville",
        "street": "Rua 19 Sul",
        "zipcode": "76382-298"
    },
    {
        "city": "Goianésia",
        "state": "GO",
        "district": "Residencial Granville",
        "street": "Rua 21 Sul",
        "zipcode": "76382-295"
    },
    {
        "city": "Goianésia",
        "state": "GO",
        "district": "Residencial Granville",
        "street": "Rua 25 Sul",
        "zipcode": "76382-289"
    },
    {
        "city": "Goianésia",
        "state": "GO",
        "district": "Residencial Granville",
        "street": "Rua 29 Sul",
        "zipcode": "76382-283"
    },
    {
        "city": "Goianésia",
        "state": "GO",
        "district": "Residencial Granville",
        "street": "Rua Perimetral",
        "zipcode": "76382-280"
    },
    {
        "city": "Goianésia",
        "state": "GO",
        "district": "Barsanulfo",
        "street": "Avenida Goiás Sul",
        "zipcode": "76382-275"
    },
    {
        "city": "Goianésia",
        "state": "GO",
        "district": "Santa Tereza",
        "street": "Rua 12 A",
        "zipcode": "76382-691"
    },
    {
        "city": "Goianésia",
        "state": "GO",
        "district": "Santa Tereza",
        "street": "Rua 57 Sul",
        "zipcode": "76382-673"
    },
    {
        "city": "Goianésia",
        "state": "GO",
        "district": "Residencial Granville",
        "street": "Rua Porangatu",
        "zipcode": "76382-307"
    },
    {
        "city": "Goianésia",
        "state": "GO",
        "district": "Barsanulfo",
        "street": "Rua 29 Sul",
        "zipcode": "76382-272"
    },
    {
        "city": "Goianésia",
        "state": "GO",
        "district": "Barsanulfo",
        "street": "Rua 27 Sul",
        "zipcode": "76382-269"
    },
    {
        "city": "Goianésia",
        "state": "GO",
        "district": "Barsanulfo",
        "street": "Rua 2 Oeste",
        "zipcode": "76382-266"
    },
    {
        "city": "Goianésia",
        "state": "GO",
        "district": "Barsanulfo",
        "street": "Avenida Contorno",
        "zipcode": "76382-260"
    },
    {
        "city": "Goianésia",
        "state": "GO",
        "district": "Setor Sul",
        "street": "Avenida Contorno",
        "zipcode": "76382-256"
    },
    {
        "city": "Goianésia",
        "state": "GO",
        "district": "Setor Sul",
        "street": "Rua 2 Leste",
        "zipcode": "76382-253"
    },
    {
        "city": "Goianésia",
        "state": "GO",
        "district": "Setor Sul",
        "street": "Rua 6 Leste",
        "zipcode": "76382-247"
    },
    {
        "city": "Goianésia",
        "state": "GO",
        "district": "Setor Sul",
        "street": "Rua 8 Leste",
        "zipcode": "76382-244"
    },
    {
        "city": "Goianésia",
        "state": "GO",
        "district": "Setor Sul",
        "street": "Rua 10 Leste",
        "zipcode": "76382-235"
    },
    {
        "city": "Goianésia",
        "state": "GO",
        "district": "Setor Sul",
        "street": "Avenida Minas Gerais",
        "zipcode": "76382-226"
    },
    {
        "city": "Goianésia",
        "state": "GO",
        "district": "Setor Sul",
        "street": "Rua 43 Sul",
        "zipcode": "76382-220"
    },
    {
        "city": "Goianésia",
        "state": "GO",
        "district": "Setor Sul",
        "street": "Rua 39 Sul",
        "zipcode": "76382-214"
    },
    {
        "city": "Goianésia",
        "state": "GO",
        "district": "Setor Sul",
        "street": "Rua 35 Sul",
        "zipcode": "76382-208"
    },
    {
        "city": "Goianésia",
        "state": "GO",
        "district": "Setor Sul",
        "street": "Rua 33 Sul",
        "zipcode": "76382-205"
    },
    {
        "city": "Goianésia",
        "state": "GO",
        "district": "Setor Sul",
        "street": "Rua 31 Sul",
        "zipcode": "76382-202"
    },
    {
        "city": "Goianésia",
        "state": "GO",
        "district": "Residencial Granville",
        "street": "Rua Jaraguá",
        "zipcode": "76382-328"
    },
    {
        "city": "Goianésia",
        "state": "GO",
        "district": "Setor Sul",
        "street": "Rua 12 Leste",
        "zipcode": "76382-232"
    },
    {
        "city": "Goianésia",
        "state": "GO",
        "district": "Setor Sul",
        "street": "Rua 37 Sul",
        "zipcode": "76382-211"
    },
    {
        "city": "Goianésia",
        "state": "GO",
        "district": "Residencial Granville",
        "street": "Rua 11 Sul",
        "zipcode": "76382-352"
    },
    {
        "city": "Goianésia",
        "state": "GO",
        "district": "Setor Sul",
        "street": "Rua 41 Sul",
        "zipcode": "76382-217"
    },
    {
        "city": "Goianésia",
        "state": "GO",
        "district": "Setor Sul",
        "street": "Rua 4 Oeste",
        "zipcode": "76382-193"
    },
    {
        "city": "Goianésia",
        "state": "GO",
        "district": "Setor Sul",
        "street": "Avenida Goiás Sul",
        "zipcode": "76382-187"
    },
    {
        "city": "Goianésia",
        "state": "GO",
        "district": "Setor Sul",
        "street": "Rua 10 Oeste",
        "zipcode": "76382-169"
    },
    {
        "city": "Goianésia",
        "state": "GO",
        "district": "Setor Sul",
        "street": "Rua Antônio Albino Fernandes",
        "zipcode": "76382-166"
    },
    {
        "city": "Goianésia",
        "state": "GO",
        "district": "Setor Sul",
        "street": "Rua Lecy Pereira Leal",
        "zipcode": "76382-163"
    },
    {
        "city": "Goianésia",
        "state": "GO",
        "district": "Setor Sul",
        "street": "Rua 8 Oeste",
        "zipcode": "76382-160"
    },
    {
        "city": "Goianésia",
        "state": "GO",
        "district": "Setor Sul",
        "street": "Rua 6 Oeste",
        "zipcode": "76382-190"
    },
    {
        "city": "Goianésia",
        "state": "GO",
        "district": "Setor Sul",
        "street": "Rua 12 Oeste",
        "zipcode": "76382-184"
    },
    {
        "city": "Goianésia",
        "state": "GO",
        "district": "Setor Sul",
        "street": "Rua 29 Sul",
        "zipcode": "76382-181"
    },
    {
        "city": "Goianésia",
        "state": "GO",
        "district": "Setor Universitário",
        "street": "Avenida Mato Grosso",
        "zipcode": "76382-042"
    },
    {
        "city": "Goianésia",
        "state": "GO",
        "district": "Setor Universitário",
        "street": "Rua 21 Sul",
        "zipcode": "76382-039"
    },
    {
        "city": "Goianésia",
        "state": "GO",
        "district": "Setor Universitário",
        "street": "Rua 17 Sul",
        "zipcode": "76382-033"
    },
    {
        "city": "Goianésia",
        "state": "GO",
        "district": "Setor Universitário",
        "street": "Rua 15 Sul",
        "zipcode": "76382-030"
    },
    {
        "city": "Goianésia",
        "state": "GO",
        "district": "Setor Universitário",
        "street": "Rua 11 Sul",
        "zipcode": "76382-024"
    },
    {
        "city": "Goianésia",
        "state": "GO",
        "district": "Setor Universitário",
        "street": "Rua Andorinha",
        "zipcode": "76382-021"
    },
    {
        "city": "Goianésia",
        "state": "GO",
        "district": "Setor Universitário",
        "street": "Rua 9 Sul",
        "zipcode": "76382-018"
    },
    {
        "city": "Goianésia",
        "state": "GO",
        "district": "Setor Universitário",
        "street": "Rua 10 Oeste",
        "zipcode": "76382-015"
    },
    {
        "city": "Goianésia",
        "state": "GO",
        "district": "Residencial Laurentino Martins",
        "street": "Rua 45 Norte",
        "zipcode": "76381-248"
    },
    {
        "city": "Goianésia",
        "state": "GO",
        "district": "Residencial Laurentino Martins",
        "street": "Rua 43 Norte",
        "zipcode": "76381-245"
    },
    {
        "city": "Goianésia",
        "state": "GO",
        "district": "Residencial Laurentino Martins",
        "street": "Rua 41 Norte",
        "zipcode": "76381-242"
    },
    {
        "city": "Goianésia",
        "state": "GO",
        "district": "Residencial Laurentino Martins",
        "street": "Rua 39 Norte",
        "zipcode": "76381-239"
    },
    {
        "city": "Goianésia",
        "state": "GO",
        "district": "Residencial Laurentino Martins",
        "street": "Rua 39 Norte",
        "zipcode": "76381-236"
    },
    {
        "city": "Goianésia",
        "state": "GO",
        "district": "Residencial Laurentino Martins",
        "street": "Rua 52 Leste",
        "zipcode": "76381-233"
    },
    {
        "city": "Goianésia",
        "state": "GO",
        "district": "Residencial Laurentino Martins",
        "street": "Rua 31 Norte",
        "zipcode": "76381-224"
    },
    {
        "city": "Goianésia",
        "state": "GO",
        "district": "Residencial Laurentino Martins",
        "street": "Rua 42 Leste",
        "zipcode": "76381-221"
    },
    {
        "city": "Goianésia",
        "state": "GO",
        "district": "Residencial Laurentino Martins",
        "street": "Avenida Contorno",
        "zipcode": "76381-218"
    },
    {
        "city": "Goianésia",
        "state": "GO",
        "district": "Residencial Laurentino Martins",
        "street": "Rua 44 Leste",
        "zipcode": "76381-206"
    },
    {
        "city": "Goianésia",
        "state": "GO",
        "district": "Setor Sul",
        "street": "Rua 27 Sul",
        "zipcode": "76382-178"
    },
    {
        "city": "Goianésia",
        "state": "GO",
        "district": "Setor Universitário",
        "street": "Avenida Mato Grosso",
        "zipcode": "76382-045"
    },
    {
        "city": "Goianésia",
        "state": "GO",
        "district": "Setor Universitário",
        "street": "Rua 19 Sul",
        "zipcode": "76382-036"
    },
    {
        "city": "Goianésia",
        "state": "GO",
        "district": "Setor Universitário",
        "street": "Rua 12 Oeste",
        "zipcode": "76382-012"
    },
    {
        "city": "Goianésia",
        "state": "GO",
        "district": "Setor Universitário",
        "street": "Rua 14 Oeste",
        "zipcode": "76382-009"
    },
    {
        "city": "Goianésia",
        "state": "GO",
        "district": "Setor Universitário",
        "street": "Rua 16 A",
        "zipcode": "76382-006"
    },
    {
        "city": "Goianésia",
        "state": "GO",
        "district": "Residencial Laurentino Martins",
        "street": "Rua João Salvino de Menezes",
        "zipcode": "76381-215"
    },
    {
        "city": "Goianésia",
        "state": "GO",
        "district": "Residencial Laurentino Martins",
        "street": "Rua Josefino Joaquim da Silva Leste",
        "zipcode": "76381-203"
    },
    {
        "city": "Goianésia",
        "state": "GO",
        "district": "Residencial Laurentino Martins",
        "street": "Rua Artur Alves da Fonseca Leste",
        "zipcode": "76381-200"
    },
    {
        "city": "Goianésia",
        "state": "GO",
        "district": "Residencial Laurentino Martins",
        "street": "Rua Joaquim Carrijo de Mendonça",
        "zipcode": "76381-194"
    },
    {
        "city": "Goianésia",
        "state": "GO",
        "district": "Residencial Laurentino Martins",
        "street": "Rua Benedito Leite Leste",
        "zipcode": "76381-182"
    },
    {
        "city": "Goianésia",
        "state": "GO",
        "district": "Residencial Laurentino Martins",
        "street": "Rua Luíza Joaquina Rodrigues",
        "zipcode": "76381-176"
    },
    {
        "city": "Goianésia",
        "state": "GO",
        "district": "Residencial Laurentino Martins",
        "street": "Rua Juliano Batista Rocha",
        "zipcode": "76381-173"
    },
    {
        "city": "Goianésia",
        "state": "GO",
        "district": "Residencial Laurentino Martins",
        "street": "Avenida Goiás Norte",
        "zipcode": "76381-170"
    },
    {
        "city": "Goianésia",
        "state": "GO",
        "district": "Setor Universitário",
        "street": "Rua 21 A",
        "zipcode": "76382-048"
    },
    {
        "city": "Goianésia",
        "state": "GO",
        "district": "Residencial Laurentino Martins",
        "street": "Rua 48 Leste",
        "zipcode": "76381-188"
    },
    {
        "city": "Goianésia",
        "state": "GO",
        "district": "Setor Universitário",
        "street": "Avenida Contorno",
        "zipcode": "76382-003"
    },
    {
        "city": "Goianésia",
        "state": "GO",
        "district": "Residencial Laurentino Martins",
        "street": "Rua 48 A Leste",
        "zipcode": "76381-185"
    },
    {
        "city": "Goianésia",
        "state": "GO",
        "district": "São Cristóvão",
        "street": "Rua 34 Oeste",
        "zipcode": "76381-158"
    },
    {
        "city": "Goianésia",
        "state": "GO",
        "district": "São Cristóvão",
        "street": "Rua 38 Oeste",
        "zipcode": "76381-155"
    },
    {
        "city": "Goianésia",
        "state": "GO",
        "district": "São Cristóvão",
        "street": "Rua 19 Norte",
        "zipcode": "76381-143"
    },
    {
        "city": "Goianésia",
        "state": "GO",
        "district": "São Cristóvão",
        "street": "Rua 21 Norte",
        "zipcode": "76381-140"
    },
    {
        "city": "Goianésia",
        "state": "GO",
        "district": "São Cristóvão",
        "street": "Rua 23 Norte",
        "zipcode": "76381-137"
    },
    {
        "city": "Goianésia",
        "state": "GO",
        "district": "São Cristóvão",
        "street": "Rua 25 Norte",
        "zipcode": "76381-134"
    },
    {
        "city": "Goianésia",
        "state": "GO",
        "district": "São Cristóvão",
        "street": "Rua 27 Norte",
        "zipcode": "76381-131"
    },
    {
        "city": "Goianésia",
        "state": "GO",
        "district": "São Cristóvão",
        "street": "Avenida Goiás Norte",
        "zipcode": "76381-125"
    },
    {
        "city": "Goianésia",
        "state": "GO",
        "district": "São Cristóvão",
        "street": "Avenida Goiás Norte",
        "zipcode": "76381-122"
    },
    {
        "city": "Goianésia",
        "state": "GO",
        "district": "São Cristóvão",
        "street": "Rua 36 Oeste",
        "zipcode": "76381-152"
    },
    {
        "city": "Goianésia",
        "state": "GO",
        "district": "São Cristóvão",
        "street": "Avenida Pará",
        "zipcode": "76381-149"
    },
    {
        "city": "Goianésia",
        "state": "GO",
        "district": "São Cristóvão",
        "street": "Avenida Contorno",
        "zipcode": "76381-110"
    },
    {
        "city": "Goianésia",
        "state": "GO",
        "district": "São Cristóvão",
        "street": "Rua 40 Leste",
        "zipcode": "76381-107"
    },
    {
        "city": "Goianésia",
        "state": "GO",
        "district": "São Cristóvão",
        "street": "Rua 38 Leste",
        "zipcode": "76381-104"
    },
    {
        "city": "Goianésia",
        "state": "GO",
        "district": "São Cristóvão",
        "street": "Rua 36 Leste",
        "zipcode": "76381-101"
    },
    {
        "city": "Goianésia",
        "state": "GO",
        "district": "São Cristóvão",
        "street": "Rua 31 Norte",
        "zipcode": "76381-095"
    },
    {
        "city": "Goianésia",
        "state": "GO",
        "district": "São Cristóvão",
        "street": "Rua 33 Norte",
        "zipcode": "76381-092"
    },
    {
        "city": "Goianésia",
        "state": "GO",
        "district": "São Cristóvão",
        "street": "Rua 37 Norte",
        "zipcode": "76381-087"
    },
    {
        "city": "Goianésia",
        "state": "GO",
        "district": "Carrilho",
        "street": "Viela Geraldo Francisco de Miranda",
        "zipcode": "76380-814"
    },
    {
        "city": "Goianésia",
        "state": "GO",
        "district": "Carrilho",
        "street": "Rua 47 B",
        "zipcode": "76380-811"
    },
    {
        "city": "Goianésia",
        "state": "GO",
        "district": "Carrilho",
        "street": "Rua 47 A",
        "zipcode": "76380-805"
    },
    {
        "city": "Goianésia",
        "state": "GO",
        "district": "Carrilho",
        "street": "Avenida Contorno",
        "zipcode": "76380-799"
    },
    {
        "city": "Goianésia",
        "state": "GO",
        "district": "Carrilho",
        "street": "Avenida Bahia",
        "zipcode": "76380-796"
    },
    {
        "city": "Goianésia",
        "state": "GO",
        "district": "Carrilho",
        "street": "Travessa Onofra Batista de Arantes",
        "zipcode": "76380-793"
    },
    {
        "city": "Goianésia",
        "state": "GO",
        "district": "Carrilho",
        "street": "Praça Berquinho Rodrigues da Cunha",
        "zipcode": "76380-790"
    },
    {
        "city": "Goianésia",
        "state": "GO",
        "district": "Carrilho",
        "street": "Avenida Bahia",
        "zipcode": "76380-787"
    },
    {
        "city": "Goianésia",
        "state": "GO",
        "district": "Carrilho",
        "street": "Rua 41 Norte",
        "zipcode": "76380-784"
    },
    {
        "city": "Goianésia",
        "state": "GO",
        "district": "Carrilho",
        "street": "Rua 39 Norte",
        "zipcode": "76380-778"
    },
    {
        "city": "Goianésia",
        "state": "GO",
        "district": "São Cristóvão",
        "street": "Rua José Venâncio Maia Oeste",
        "zipcode": "76381-116"
    },
    {
        "city": "Goianésia",
        "state": "GO",
        "district": "São Cristóvão",
        "street": "Avenida Goiás A",
        "zipcode": "76381-113"
    },
    {
        "city": "Goianésia",
        "state": "GO",
        "district": "São Cristóvão",
        "street": "Rua 35 Norte",
        "zipcode": "76381-089"
    },
    {
        "city": "Goianésia",
        "state": "GO",
        "district": "São Cristóvão",
        "street": "Rua 37 Norte",
        "zipcode": "76381-086"
    },
    {
        "city": "Goianésia",
        "state": "GO",
        "district": "Carrilho",
        "street": "Rua 32 Leste",
        "zipcode": "76380-775"
    },
    {
        "city": "Goianésia",
        "state": "GO",
        "district": "Carrilho",
        "street": "Rua 31 Norte",
        "zipcode": "76380-754"
    },
    {
        "city": "Goianésia",
        "state": "GO",
        "district": "Carrilho",
        "street": "Viela Benedito Francisco Raposo Leste",
        "zipcode": "76380-748"
    },
    {
        "city": "Goianésia",
        "state": "GO",
        "district": "Carrilho",
        "street": "Avenida Goiás Norte",
        "zipcode": "76380-745"
    },
    {
        "city": "Goianésia",
        "state": "GO",
        "district": "Carrilho",
        "street": "Rua 30 Oeste",
        "zipcode": "76380-742"
    },
    {
        "city": "Goianésia",
        "state": "GO",
        "district": "Carrilho",
        "street": "Rua 32 Oeste",
        "zipcode": "76380-739"
    },
    {
        "city": "Goianésia",
        "state": "GO",
        "district": "São Cristóvão",
        "street": "Avenida Goiás B",
        "zipcode": "76381-114"
    },
    {
        "city": "Goianésia",
        "state": "GO",
        "district": "Carrilho",
        "street": "Rua 30 Leste",
        "zipcode": "76380-781"
    },
    {
        "city": "Goianésia",
        "state": "GO",
        "district": "Carrilho",
        "street": "Rua 37 Norte",
        "zipcode": "76380-772"
    },
    {
        "city": "Goianésia",
        "state": "GO",
        "district": "Carrilho",
        "street": "Rua 35 Norte",
        "zipcode": "76380-763"
    },
    {
        "city": "Goianésia",
        "state": "GO",
        "district": "Carrilho",
        "street": "Rua 33 Norte",
        "zipcode": "76380-760"
    },
    {
        "city": "Goianésia",
        "state": "GO",
        "district": "Carrilho",
        "street": "Rua 34 Leste",
        "zipcode": "76380-758"
    },
    {
        "city": "Goianésia",
        "state": "GO",
        "district": "São Cristóvão",
        "street": "Avenida Contorno",
        "zipcode": "76381-146"
    },
    {
        "city": "Goianésia",
        "state": "GO",
        "district": "Carrilho",
        "street": "Rua 34 Leste",
        "zipcode": "76380-757"
    },
    {
        "city": "Goianésia",
        "state": "GO",
        "district": "Carrilho",
        "street": "Rua 23 Norte",
        "zipcode": "76380-734"
    },
    {
        "city": "Goianésia",
        "state": "GO",
        "district": "Carrilho",
        "street": "Rua 23 Norte",
        "zipcode": "76380-733"
    },
    {
        "city": "Goianésia",
        "state": "GO",
        "district": "Distrito Agroindustrial Manoel Braollos Martins",
        "street": "Via Secundária 1",
        "zipcode": "76381-013"
    },
    {
        "city": "Goianésia",
        "state": "GO",
        "district": "Distrito Agroindustrial Manoel Braollos Martins",
        "street": "Via Primária 1",
        "zipcode": "76381-010"
    },
    {
        "city": "Goianésia",
        "state": "GO",
        "district": "Carrilho",
        "street": "Avenida Goiás Norte",
        "zipcode": "76380-728"
    },
    {
        "city": "Goianésia",
        "state": "GO",
        "district": "Carrilho",
        "street": "Rua 29 Norte",
        "zipcode": "76380-722"
    },
    {
        "city": "Goianésia",
        "state": "GO",
        "district": "Carrilho",
        "street": "Rua 29 Norte",
        "zipcode": "76380-721"
    },
    {
        "city": "Goianésia",
        "state": "GO",
        "district": "Carrilho",
        "street": "Viela Benedito Francisco Raposo Oeste",
        "zipcode": "76380-718"
    },
    {
        "city": "Goianésia",
        "state": "GO",
        "district": "Carrilho",
        "street": "Rua 27 Norte",
        "zipcode": "76380-709"
    },
    {
        "city": "Goianésia",
        "state": "GO",
        "district": "Carrilho",
        "street": "Rua 25 Norte",
        "zipcode": "76380-706"
    },
    {
        "city": "Goianésia",
        "state": "GO",
        "district": "Carrilho",
        "street": "Avenida Goiás Norte",
        "zipcode": "76380-727"
    },
    {
        "city": "Goianésia",
        "state": "GO",
        "district": "Carrilho",
        "street": "Viela C 4",
        "zipcode": "76380-715"
    },
    {
        "city": "Goianésia",
        "state": "GO",
        "district": "Carrilho",
        "street": "Rua 28 Oeste",
        "zipcode": "76380-703"
    },
    {
        "city": "Goianésia",
        "state": "GO",
        "district": "Muniz Falcão",
        "street": "Rua 53 Norte",
        "zipcode": "76380-499"
    },
    {
        "city": "Goianésia",
        "state": "GO",
        "district": "Muniz Falcão",
        "street": "Rua 51 Norte",
        "zipcode": "76380-496"
    },
    {
        "city": "Goianésia",
        "state": "GO",
        "district": "Muniz Falcão",
        "street": "Rua 47 Norte",
        "zipcode": "76380-490"
    },
    {
        "city": "Goianésia",
        "state": "GO",
        "district": "Muniz Falcão",
        "street": "Rua 45 Norte",
        "zipcode": "76380-487"
    },
    {
        "city": "Goianésia",
        "state": "GO",
        "district": "Muniz Falcão",
        "street": "Rua 45 Sul",
        "zipcode": "76380-469"
    },
    {
        "city": "Goianésia",
        "state": "GO",
        "district": "Muniz Falcão",
        "street": "Rua 47 Sul",
        "zipcode": "76380-466"
    },
    {
        "city": "Goianésia",
        "state": "GO",
        "district": "Muniz Falcão",
        "street": "Rua 49 Sul",
        "zipcode": "76380-463"
    },
    {
        "city": "Goianésia",
        "state": "GO",
        "district": "Residencial Santa Clara",
        "street": "Rua 12 A",
        "zipcode": "76380-275"
    },
    {
        "city": "Goianésia",
        "state": "GO",
        "district": "Residencial Santa Clara",
        "street": "Rua 12 Leste",
        "zipcode": "76380-263"
    },
    {
        "city": "Goianésia",
        "state": "GO",
        "district": "Vila São Caetano",
        "street": "Avenida Contorno",
        "zipcode": "76380-248"
    },
    {
        "city": "Goianésia",
        "state": "GO",
        "district": "Vila São Caetano",
        "street": "Rua 12 A",
        "zipcode": "76380-245"
    },
    {
        "city": "Goianésia",
        "state": "GO",
        "district": "Vila São Caetano",
        "street": "Rua 43 Sul",
        "zipcode": "76380-239"
    },
    {
        "city": "Goianésia",
        "state": "GO",
        "district": "Vila São Caetano",
        "street": "Rua 39 Sul",
        "zipcode": "76380-233"
    },
    {
        "city": "Goianésia",
        "state": "GO",
        "district": "Santa Luzia",
        "street": "Rua Maria Silva",
        "zipcode": "76380-226"
    },
    {
        "city": "Goianésia",
        "state": "GO",
        "district": "Santa Luzia",
        "street": "Rua 14 Leste",
        "zipcode": "76380-221"
    },
    {
        "city": "Goianésia",
        "state": "GO",
        "district": "Carrilho",
        "street": "Rua 27 Norte",
        "zipcode": "76380-710"
    },
    {
        "city": "Goianésia",
        "state": "GO",
        "district": "Muniz Falcão",
        "street": "Rua 55 Norte",
        "zipcode": "76380-502"
    },
    {
        "city": "Goianésia",
        "state": "GO",
        "district": "Muniz Falcão",
        "street": "Rua 22 Leste",
        "zipcode": "76380-484"
    },
    {
        "city": "Goianésia",
        "state": "GO",
        "district": "Muniz Falcão",
        "street": "Rua 20 Leste",
        "zipcode": "76380-481"
    },
    {
        "city": "Goianésia",
        "state": "GO",
        "district": "Vila São Caetano",
        "street": "Avenida Minas Gerais",
        "zipcode": "76380-230"
    },
    {
        "city": "Goianésia",
        "state": "GO",
        "district": "Santa Luzia",
        "street": "Avenida Contorno",
        "zipcode": "76380-217"
    },
    {
        "city": "Goianésia",
        "state": "GO",
        "district": "Santa Luzia",
        "street": "Rua Terezinha Pereira Fernandes",
        "zipcode": "76380-211"
    },
    {
        "city": "Goianésia",
        "state": "GO",
        "district": "Santa Luzia",
        "street": "Rua 37 Sul",
        "zipcode": "76380-202"
    },
    {
        "city": "Goianésia",
        "state": "GO",
        "district": "Santa Luzia",
        "street": "Rua 33 Sul",
        "zipcode": "76380-196"
    },
    {
        "city": "Goianésia",
        "state": "GO",
        "district": "Santa Luzia",
        "street": "Avenida Brasil Leste",
        "zipcode": "76380-190"
    },
    {
        "city": "Goianésia",
        "state": "GO",
        "district": "Residencial Vereda dos Buritis",
        "street": "Rua Bonifácio Teodoro Sobrinho",
        "zipcode": "76380-350"
    },
    {
        "city": "Goianésia",
        "state": "GO",
        "district": "Residencial Santa Clara",
        "street": "Rua 47 Sul",
        "zipcode": "76380-272"
    },
    {
        "city": "Goianésia",
        "state": "GO",
        "district": "Santa Luzia",
        "street": "Rua 43 Sul",
        "zipcode": "76380-214"
    },
    {
        "city": "Goianésia",
        "state": "GO",
        "district": "Santa Luzia",
        "street": "Rua 39 Sul",
        "zipcode": "76380-206"
    },
    {
        "city": "Goianésia",
        "state": "GO",
        "district": "Carrilho",
        "street": "Rua 28 Leste",
        "zipcode": "76380-700"
    },
    {
        "city": "Goianésia",
        "state": "GO",
        "district": "Santa Luzia",
        "street": "Avenida Minas Gerais",
        "zipcode": "76380-223"
    },
    {
        "city": "Goianésia",
        "state": "GO",
        "district": "Santa Luzia",
        "street": "Rua 35 Sul",
        "zipcode": "76380-199"
    },
    {
        "city": "Goianésia",
        "state": "GO",
        "district": "Santa Luzia",
        "street": "Rua 41 Sul",
        "zipcode": "76380-208"
    },
    {
        "city": "Goianésia",
        "state": "GO",
        "district": "Residencial Santa Clara",
        "street": "Avenida Contorno",
        "zipcode": "76380-260"
    },
    {
        "city": "Goianésia",
        "state": "GO",
        "district": "Vila São Caetano",
        "street": "Rua 12 Leste",
        "zipcode": "76380-242"
    },
    {
        "city": "Goianésia",
        "state": "GO",
        "district": "Vila São Caetano",
        "street": "Rua 14 Leste",
        "zipcode": "76380-236"
    },
    {
        "city": "Goianésia",
        "state": "GO",
        "district": "Centro",
        "street": "Rua 23 A",
        "zipcode": "76380-073"
    },
    {
        "city": "Goianésia",
        "state": "GO",
        "district": "Centro",
        "street": "Avenida Brasil Oeste",
        "zipcode": "76380-070"
    },
    {
        "city": "Goianésia",
        "state": "GO",
        "district": "Centro",
        "street": "Rua 25 Sul",
        "zipcode": "76380-064"
    },
    {
        "city": "Goianésia",
        "state": "GO",
        "district": "Centro",
        "street": "Avenida Mato Grosso",
        "zipcode": "76380-061"
    },
    {
        "city": "Goianésia",
        "state": "GO",
        "district": "Centro",
        "street": "Rua 27 Sul",
        "zipcode": "76380-058"
    },
    {
        "city": "Goianésia",
        "state": "GO",
        "district": "Centro",
        "street": "Rua 16 A",
        "zipcode": "76380-055"
    },
    {
        "city": "Goianésia",
        "state": "GO",
        "district": "Centro",
        "street": "Avenida Mato Grosso",
        "zipcode": "76380-052"
    },
    {
        "city": "Goianésia",
        "state": "GO",
        "district": "Centro",
        "street": "Rua 29 Sul",
        "zipcode": "76380-049"
    },
    {
        "city": "Goianésia",
        "state": "GO",
        "district": "Centro",
        "street": "Rua 12 Oeste",
        "zipcode": "76380-046"
    },
    {
        "city": "Goianésia",
        "state": "GO",
        "district": "Centro",
        "street": "Avenida Brasil Oeste",
        "zipcode": "76380-067"
    },
    {
        "city": "Goianésia",
        "state": "GO",
        "district": "Centro",
        "street": "Avenida Goiás Sul",
        "zipcode": "76380-043"
    },
    {
        "city": "Goianésia",
        "state": "GO",
        "district": "Centro",
        "street": "Rua Padre Angelo Maria Monreal",
        "zipcode": "76380-040"
    },
    {
        "city": "Goianésia",
        "state": "GO",
        "district": "Centro",
        "street": "Avenida Goiás Sul",
        "zipcode": "76380-037"
    },
    {
        "city": "Goianésia",
        "state": "GO",
        "district": "Centro",
        "street": "Rua 12 Leste",
        "zipcode": "76380-034"
    },
    {
        "city": "Goianésia",
        "state": "GO",
        "district": "Centro",
        "street": "Avenida Brasil Leste",
        "zipcode": "76380-028"
    },
    {
        "city": "Goianésia",
        "state": "GO",
        "district": "Centro",
        "street": "Rua 14 Oeste",
        "zipcode": "76380-013"
    },
    {
        "city": "Goianésia",
        "state": "GO",
        "district": "Residencial Santa Clara",
        "street": "Viela Geraldo Tocantins",
        "zipcode": "76380-266"
    },
    {
        "city": "Goianésia",
        "state": "GO",
        "district": "Centro",
        "street": "Rua 37 Sul",
        "zipcode": "76380-007"
    },
    {
        "city": "Goianésia",
        "state": "GO",
        "district": "Centro",
        "street": "Travessa Luiz de Oliveira",
        "zipcode": "76380-016"
    },
    {
        "city": "Goianésia",
        "state": "GO",
        "district": "Centro",
        "street": "Viela Antônio Geraldo da Silva Leste",
        "zipcode": "76380-103"
    },
    {
        "city": "Goianésia",
        "state": "GO",
        "district": "Centro",
        "street": "Avenida Goiás Norte",
        "zipcode": "76380-106"
    },
    {
        "city": "Goianésia",
        "state": "GO",
        "district": "Centro",
        "street": "Rua José Carrilho Leste",
        "zipcode": "76380-109"
    },
    {
        "city": "Goianésia",
        "state": "GO",
        "district": "Centro",
        "street": "Rua 22 Leste",
        "zipcode": "76380-112"
    },
    {
        "city": "Goianésia",
        "state": "GO",
        "district": "Centro",
        "street": "Rua 31 Norte",
        "zipcode": "76380-115"
    },
    {
        "city": "Goianésia",
        "state": "GO",
        "district": "Centro",
        "street": "Rua 18 Leste",
        "zipcode": "76380-121"
    },
    {
        "city": "Goianésia",
        "state": "GO",
        "district": "Setor dos Buritis",
        "street": "Rua 33 Norte",
        "zipcode": "76380-130"
    },
    {
        "city": "Goianésia",
        "state": "GO",
        "district": "Setor dos Buritis",
        "street": "Rua 22 Leste",
        "zipcode": "76380-142"
    },
    {
        "city": "Goianésia",
        "state": "GO",
        "district": "Setor dos Buritis",
        "street": "Rua 20 Leste",
        "zipcode": "76380-145"
    },
    {
        "city": "Goianésia",
        "state": "GO",
        "district": "Santa Luzia",
        "street": "Rua 26 Leste",
        "zipcode": "76380-169"
    },
    {
        "city": "Goianésia",
        "state": "GO",
        "district": "Centro",
        "street": "Rua 35 Sul",
        "zipcode": "76380-010"
    },
    {
        "city": "Goianésia",
        "state": "GO",
        "district": "Centro",
        "street": "Avenida Minas Gerais",
        "zipcode": "76380-001"
    },
    {
        "city": "Goianésia",
        "state": "GO",
        "district": "Setor dos Buritis",
        "street": "Rua José Carrilho Leste",
        "zipcode": "76380-139"
    },
    {
        "city": "Goianésia",
        "state": "GO",
        "district": "Setor dos Buritis",
        "street": "Avenida Brasil Leste",
        "zipcode": "76380-151"
    },
    {
        "city": "Goianésia",
        "state": "GO",
        "district": "Setor dos Buritis",
        "street": "Rua 37 Norte",
        "zipcode": "76380-154"
    },
    {
        "city": "Goianésia",
        "state": "GO",
        "district": "Santa Luzia",
        "street": "Rua 37 Norte",
        "zipcode": "76380-160"
    },
    {
        "city": "Goianésia",
        "state": "GO",
        "district": "Santa Luzia",
        "street": "Rua 28 Leste",
        "zipcode": "76380-166"
    },
    {
        "city": "Goianésia",
        "state": "GO",
        "district": "Santa Luzia",
        "street": "Rua 41 Norte",
        "zipcode": "76380-172"
    },
    {
        "city": "Goianésia",
        "state": "GO",
        "district": "Santa Luzia",
        "street": "Rua 43 Norte",
        "zipcode": "76380-175"
    },
    {
        "city": "Goianésia",
        "state": "GO",
        "district": "Santa Luzia",
        "street": "Rua José Carrilho Leste",
        "zipcode": "76380-181"
    },
    {
        "city": "Goianésia",
        "state": "GO",
        "district": "Santa Luzia",
        "street": "Praça Santa Luzia",
        "zipcode": "76380-209"
    },
    {
        "city": "Goianésia",
        "state": "GO",
        "district": "Centro",
        "street": "Avenida Minas Gerais",
        "zipcode": "76380-002"
    },
    {
        "city": "Goianésia",
        "state": "GO",
        "district": "Setor dos Buritis",
        "street": "Rua 18 Leste",
        "zipcode": "76380-148"
    },
    {
        "city": "Goianésia",
        "state": "GO",
        "district": "Centro",
        "street": "Rua 33 Norte",
        "zipcode": "76380-124"
    },
    {
        "city": "Goianésia",
        "state": "GO",
        "district": "Setor dos Buritis",
        "street": "Rua 35 Norte",
        "zipcode": "76380-133"
    },
    {
        "city": "Goianésia",
        "state": "GO",
        "district": "Muniz Falcão",
        "street": "Rua 57 Norte",
        "zipcode": "76380-505"
    },
    {
        "city": "Goianésia",
        "state": "GO",
        "district": "Carrilho",
        "street": "Viela Altamir Joaquim da Silva",
        "zipcode": "76380-802"
    },
    {
        "city": "Goianésia",
        "state": "GO",
        "district": "Residencial Laurentino Martins",
        "street": "Rua 35 Norte",
        "zipcode": "76381-212"
    },
    {
        "city": "Goianésia",
        "state": "GO",
        "district": "Residencial Laurentino Martins",
        "street": "Rua Ana Luiza Rodrigues",
        "zipcode": "76381-222"
    },
    {
        "city": "Goianésia",
        "state": "GO",
        "district": "Conjunto Meridian",
        "street": "Rua M 1",
        "zipcode": "76381-300"
    },
    {
        "city": "Goianésia",
        "state": "GO",
        "district": "Conjunto Meridian",
        "street": "Rua M 3",
        "zipcode": "76381-302"
    },
    {
        "city": "Goianésia",
        "state": "GO",
        "district": "Conjunto Meridian",
        "street": "Rua M 7",
        "zipcode": "76381-306"
    },
    {
        "city": "Goianésia",
        "state": "GO",
        "district": "Conjunto Meridian",
        "street": "Rua M 9",
        "zipcode": "76381-310"
    },
    {
        "city": "Goianésia",
        "state": "GO",
        "district": "Conjunto Meridian",
        "street": "Rua M 11",
        "zipcode": "76381-312"
    },
    {
        "city": "Goianésia",
        "state": "GO",
        "district": "Conjunto Meridian",
        "street": "Rua M 13",
        "zipcode": "76381-314"
    },
    {
        "city": "Goianésia",
        "state": "GO",
        "district": "Conjunto Meridian",
        "street": "Rua M 15",
        "zipcode": "76381-316"
    },
    {
        "city": "Goianésia",
        "state": "GO",
        "district": "Conjunto Meridian",
        "street": "Rua M 17",
        "zipcode": "76381-318"
    },
    {
        "city": "Goianésia",
        "state": "GO",
        "district": "Conjunto Meridian",
        "street": "Rua M 25",
        "zipcode": "76381-326"
    },
    {
        "city": "Goianésia",
        "state": "GO",
        "district": "Conjunto Meridian",
        "street": "Rua M 24",
        "zipcode": "76381-336"
    },
    {
        "city": "Goianésia",
        "state": "GO",
        "district": "Conjunto Meridian",
        "street": "Rua M 16",
        "zipcode": "76381-344"
    },
    {
        "city": "Goianésia",
        "state": "GO",
        "district": "Conjunto Meridian",
        "street": "Rua M 14",
        "zipcode": "76381-346"
    },
    {
        "city": "Goianésia",
        "state": "GO",
        "district": "Área Rural de Goianésia",
        "street": "Área Rural",
        "zipcode": "76388-899"
    },
    {
        "city": "Goianésia",
        "state": "GO",
        "district": "Residencial Jardim do Cerrado",
        "street": "Rua 3 Norte",
        "zipcode": "76388-614"
    },
    {
        "city": "Goianésia",
        "state": "GO",
        "district": "Parque Araguaia",
        "street": "Rua Raimundo Marques Nonato",
        "zipcode": "76388-290"
    },
    {
        "city": "Goianésia",
        "state": "GO",
        "district": "Nossa Senhora da Penha",
        "street": "Rua 5 Norte",
        "zipcode": "76387-888"
    },
    {
        "city": "Goianésia",
        "state": "GO",
        "district": "Carrilho",
        "street": "Rua 47 Norte",
        "zipcode": "76380-808"
    },
    {
        "city": "Goianésia",
        "state": "GO",
        "district": "São Cristóvão",
        "street": "Rua 39 Norte",
        "zipcode": "76381-083"
    },
    {
        "city": "Goianésia",
        "state": "GO",
        "district": "Residencial Laurentino Martins",
        "street": "Rua Theófilo Martins Rodrigues",
        "zipcode": "76381-191"
    },
    {
        "city": "Goianésia",
        "state": "GO",
        "district": "Conjunto Meridian",
        "street": "Rua M 19",
        "zipcode": "76381-320"
    },
    {
        "city": "Goianésia",
        "state": "GO",
        "district": "Conjunto Meridian",
        "street": "Rua M 21",
        "zipcode": "76381-322"
    },
    {
        "city": "Goianésia",
        "state": "GO",
        "district": "Conjunto Meridian",
        "street": "Avenida Bela Vista",
        "zipcode": "76381-328"
    },
    {
        "city": "Goianésia",
        "state": "GO",
        "district": "Conjunto Meridian",
        "street": "Rua M 28",
        "zipcode": "76381-332"
    },
    {
        "city": "Goianésia",
        "state": "GO",
        "district": "Conjunto Meridian",
        "street": "Rua M 22",
        "zipcode": "76381-338"
    },
    {
        "city": "Goianésia",
        "state": "GO",
        "district": "Nossa Senhora da Penha",
        "street": "Rua 7 Norte",
        "zipcode": "76387-882"
    },
    {
        "city": "Goianésia",
        "state": "GO",
        "district": "Nossa Senhora da Penha",
        "street": "Rua 9 Norte",
        "zipcode": "76387-879"
    },
    {
        "city": "Goianésia",
        "state": "GO",
        "district": "Nossa Senhora da Penha",
        "street": "Rua 36 A",
        "zipcode": "76387-873"
    },
    {
        "city": "Goianésia",
        "state": "GO",
        "district": "Nossa Senhora da Penha",
        "street": "Rua 36 Oeste",
        "zipcode": "76387-870"
    },
    {
        "city": "Goianésia",
        "state": "GO",
        "district": "Nossa Senhora da Penha",
        "street": "Rua 11 Norte",
        "zipcode": "76387-867"
    },
    {
        "city": "Goianésia",
        "state": "GO",
        "district": "Nossa Senhora da Penha",
        "street": "Avenida Contorno",
        "zipcode": "76387-846"
    },
    {
        "city": "Goianésia",
        "state": "GO",
        "district": "Nossa Senhora da Penha",
        "street": "Rua 17 Norte",
        "zipcode": "76387-843"
    },
    {
        "city": "Goianésia",
        "state": "GO",
        "district": "Nossa Senhora da Penha",
        "street": "Rua 38 A",
        "zipcode": "76387-840"
    },
    {
        "city": "Goianésia",
        "state": "GO",
        "district": "Conjunto Meridian",
        "street": "Rua M 18",
        "zipcode": "76381-342"
    },
    {
        "city": "Goianésia",
        "state": "GO",
        "district": "Parque Araguaia",
        "street": "Rua Santos Dumont Norte",
        "zipcode": "76388-323"
    },
    {
        "city": "Goianésia",
        "state": "GO",
        "district": "Nossa Senhora da Penha",
        "street": "Rua 11 A",
        "zipcode": "76387-876"
    },
    {
        "city": "Goianésia",
        "state": "GO",
        "district": "Nossa Senhora da Penha",
        "street": "Rua 13 Norte",
        "zipcode": "76387-864"
    },
    {
        "city": "Goianésia",
        "state": "GO",
        "district": "Nossa Senhora da Penha",
        "street": "Rua Ronan Alves Machado",
        "zipcode": "76387-861"
    },
    {
        "city": "Goianésia",
        "state": "GO",
        "district": "Nossa Senhora da Penha",
        "street": "Avenida Pará",
        "zipcode": "76387-855"
    },
    {
        "city": "Goianésia",
        "state": "GO",
        "district": "Nossa Senhora da Penha",
        "street": "Rua 38 Oeste",
        "zipcode": "76387-849"
    },
    {
        "city": "Goianésia",
        "state": "GO",
        "district": "Conjunto Meridian",
        "street": "Rua M 10",
        "zipcode": "76381-350"
    },
    {
        "city": "Goianésia",
        "state": "GO",
        "district": "Conjunto Meridian",
        "street": "Rua M 6",
        "zipcode": "76381-352"
    },
    {
        "city": "Goianésia",
        "state": "GO",
        "district": "Conjunto Meridian",
        "street": "Rua M 8",
        "zipcode": "76381-354"
    },
    {
        "city": "Goianésia",
        "state": "GO",
        "district": "Conjunto Meridian",
        "street": "Rua M 30",
        "zipcode": "76381-330"
    },
    {
        "city": "Goianésia",
        "state": "GO",
        "district": "Conjunto Meridian",
        "street": "Rua M 4",
        "zipcode": "76381-356"
    },
    {
        "city": "Goianésia",
        "state": "GO",
        "district": "Nossa Senhora Aparecida",
        "street": "Rua 38 A",
        "zipcode": "76387-829"
    },
    {
        "city": "Goianésia",
        "state": "GO",
        "district": "Nossa Senhora Aparecida",
        "street": "Rua 17 Norte",
        "zipcode": "76387-823"
    },
    {
        "city": "Goianésia",
        "state": "GO",
        "district": "Nova Fiica",
        "street": "Avenida Pará",
        "zipcode": "76387-753"
    },
    {
        "city": "Goianésia",
        "state": "GO",
        "district": "Nova Fiica",
        "street": "Rua Pitanga",
        "zipcode": "76387-746"
    },
    {
        "city": "Goianésia",
        "state": "GO",
        "district": "Residencial Morada Nova",
        "street": "Rua 17 Norte",
        "zipcode": "76387-507"
    },
    {
        "city": "Goianésia",
        "state": "GO",
        "district": "Residencial Flamboyant",
        "street": "Rua 25 Norte",
        "zipcode": "76387-165"
    },
    {
        "city": "Goianésia",
        "state": "GO",
        "district": "Residencial Parque das Palmeiras III",
        "street": "Avenida Brasil Oeste",
        "zipcode": "76386-585"
    },
    {
        "city": "Goianésia",
        "state": "GO",
        "district": "Residencial Parque das Palmeiras III",
        "street": "Rua Gameleira",
        "zipcode": "76386-530"
    },
    {
        "city": "Goianésia",
        "state": "GO",
        "district": "Residencial Parque das Palmeiras II",
        "street": "Rua Imbiriçu",
        "zipcode": "76386-392"
    },
    {
        "city": "Goianésia",
        "state": "GO",
        "district": "Residencial Parque das Palmeiras II",
        "street": "Alameda Antônio Fontoura Borges",
        "zipcode": "76386-360"
    },
    {
        "city": "Goianésia",
        "state": "GO",
        "district": "Residencial Parque das Palmeiras II",
        "street": "Rua Ataléia",
        "zipcode": "76386-310"
    },
    {
        "city": "Goianésia",
        "state": "GO",
        "district": "Residencial Parque das Palmeiras",
        "street": "Rua 8 Oeste",
        "zipcode": "76386-165"
    },
    {
        "city": "Goianésia",
        "state": "GO",
        "district": "Residencial Parque das Palmeiras",
        "street": "Rua 10 Oeste",
        "zipcode": "76386-150"
    },
    {
        "city": "Goianésia",
        "state": "GO",
        "district": "Residencial Parque das Palmeiras",
        "street": "Rua Tucum",
        "zipcode": "76386-075"
    },
    {
        "city": "Goianésia",
        "state": "GO",
        "district": "Residencial Parque das Palmeiras",
        "street": "Rua 1 Sul",
        "zipcode": "76386-060"
    },
    {
        "city": "Goianésia",
        "state": "GO",
        "district": "Santa Cecília",
        "street": "Rua 5 Norte",
        "zipcode": "76385-807"
    },
    {
        "city": "Goianésia",
        "state": "GO",
        "district": "Nossa Senhora Aparecida",
        "street": "Rua 13 Norte",
        "zipcode": "76387-820"
    },
    {
        "city": "Goianésia",
        "state": "GO",
        "district": "Nova Fiica",
        "street": "Rua 44 Oeste",
        "zipcode": "76387-749"
    },
    {
        "city": "Goianésia",
        "state": "GO",
        "district": "Residencial Parque das Palmeiras",
        "street": "Rua 14 Oeste",
        "zipcode": "76386-100"
    },
    {
        "city": "Goianésia",
        "state": "GO",
        "district": "Residencial Parque das Palmeiras",
        "street": "Rua 16 A",
        "zipcode": "76386-085"
    },
    {
        "city": "Goianésia",
        "state": "GO",
        "district": "Boa Vista",
        "street": "Avenida Brasil Oeste",
        "zipcode": "76385-517"
    },
    {
        "city": "Goianésia",
        "state": "GO",
        "district": "Boa Vista",
        "street": "Rua 18 Oeste",
        "zipcode": "76385-514"
    },
    {
        "city": "Goianésia",
        "state": "GO",
        "district": "Boa Vista",
        "street": "Rua 20 Oeste",
        "zipcode": "76385-511"
    },
    {
        "city": "Goianésia",
        "state": "GO",
        "district": "Boa Vista",
        "street": "Rua Duclerce de Assunção",
        "zipcode": "76385-505"
    },
    {
        "city": "Goianésia",
        "state": "GO",
        "district": "Boa Vista",
        "street": "Rua T 2",
        "zipcode": "76385-499"
    },
    {
        "city": "Goianésia",
        "state": "GO",
        "district": "Boa Vista",
        "street": "Rua 22 Oeste",
        "zipcode": "76385-496"
    },
    {
        "city": "Goianésia",
        "state": "GO",
        "district": "Boa Vista",
        "street": "Rua das Palmeiras Norte",
        "zipcode": "76385-493"
    },
    {
        "city": "Goianésia",
        "state": "GO",
        "district": "Boa Vista",
        "street": "Rua das Palmeiras Norte",
        "zipcode": "76385-490"
    },
    {
        "city": "Goianésia",
        "state": "GO",
        "district": "Boa Vista",
        "street": "Rua Florentino Cardoso Lozino Oeste",
        "zipcode": "76385-487"
    },
    {
        "city": "Goianésia",
        "state": "GO",
        "district": "Boa Vista",
        "street": "Rua Francisco Gomes Neto Oeste",
        "zipcode": "76385-481"
    },
    {
        "city": "Goianésia",
        "state": "GO",
        "district": "Boa Vista",
        "street": "Viela José da Guia Arantes",
        "zipcode": "76385-475"
    },
    {
        "city": "Goianésia",
        "state": "GO",
        "district": "Boa Vista",
        "street": "Viela Francisco Monteiro da Silva",
        "zipcode": "76385-472"
    },
    {
        "city": "Goianésia",
        "state": "GO",
        "district": "Boa Vista",
        "street": "Rua Francisco Monteiro da Silva",
        "zipcode": "76385-469"
    },
    {
        "city": "Goianésia",
        "state": "GO",
        "district": "Boa Vista",
        "street": "Rua 26 Oeste",
        "zipcode": "76385-466"
    },
    {
        "city": "Goianésia",
        "state": "GO",
        "district": "Boa Vista",
        "street": "Rua 28 Oeste",
        "zipcode": "76385-460"
    },
    {
        "city": "Goianésia",
        "state": "GO",
        "district": "Vila Nova Aurora III",
        "street": "Rua 3 Norte",
        "zipcode": "76385-388"
    },
    {
        "city": "Goianésia",
        "state": "GO",
        "district": "Setor Oeste",
        "street": "Travessa Ana Francisca Borges",
        "zipcode": "76385-211"
    },
    {
        "city": "Goianésia",
        "state": "GO",
        "district": "Boa Vista",
        "street": "Rua Santos Dumont Norte",
        "zipcode": "76385-523"
    },
    {
        "city": "Goianésia",
        "state": "GO",
        "district": "Boa Vista",
        "street": "Rua 20 Oeste",
        "zipcode": "76385-508"
    },
    {
        "city": "Goianésia",
        "state": "GO",
        "district": "Boa Vista",
        "street": "Rua T 1",
        "zipcode": "76385-502"
    },
    {
        "city": "Goianésia",
        "state": "GO",
        "district": "Boa Vista",
        "street": "Rua José Carrilho Oeste",
        "zipcode": "76385-484"
    },
    {
        "city": "Goianésia",
        "state": "GO",
        "district": "Morro da Ema",
        "street": "Rua João Marcelino Campos",
        "zipcode": "76385-413"
    },
    {
        "city": "Goianésia",
        "state": "GO",
        "district": "Morro da Ema",
        "street": "Rua Almerinda Maria de Jesus",
        "zipcode": "76385-410"
    },
    {
        "city": "Goianésia",
        "state": "GO",
        "district": "Residencial Parque das Palmeiras",
        "street": "Rua Meriti",
        "zipcode": "76386-070"
    },
    {
        "city": "Goianésia",
        "state": "GO",
        "district": "Dona Fiica",
        "street": "Rua 29 Norte",
        "zipcode": "76387-046"
    },
    {
        "city": "Goianésia",
        "state": "GO",
        "district": "Jardim Por do Sol",
        "street": "Rua 15 Norte",
        "zipcode": "76385-036"
    },
    {
        "city": "Goianésia",
        "state": "GO",
        "district": "Colina Park Residencial",
        "street": "Rua 4 Leste",
        "zipcode": "76383-368"
    },
    {
        "city": "Goianésia",
        "state": "GO",
        "district": "Colina Park Residencial",
        "street": "Rua 57 Sul",
        "zipcode": "76383-308"
    },
    {
        "city": "Goianésia",
        "state": "GO",
        "district": "Setor Sul",
        "street": "Rua 4 Leste",
        "zipcode": "76382-250"
    },
    {
        "city": "Goianésia",
        "state": "GO",
        "district": "Vila Nova Aurora III",
        "street": "Rua 3 Norte",
        "zipcode": "76385-385"
    },
    {
        "city": "Goianésia",
        "state": "GO",
        "district": "Residencial Granville",
        "street": "Rua 5 Sul",
        "zipcode": "76382-343"
    },
    {
        "city": "Goianésia",
        "state": "GO",
        "district": "Conjunto Meridian",
        "street": "Rua M 20",
        "zipcode": "76381-340"
    },
    {
        "city": "Goianésia",
        "state": "GO",
        "district": "São Cristóvão",
        "street": "Travessa José Venâncio Maia Leste",
        "zipcode": "76381-119"
    },
    {
        "city": "Goianésia",
        "state": "GO",
        "district": "Residencial Vereda dos Buritis",
        "street": "Rua 55 Sul",
        "zipcode": "76380-347"
    },
    {
        "city": "Goianésia",
        "state": "GO",
        "district": "Residencial Vereda dos Buritis",
        "street": "Rua 53 Sul",
        "zipcode": "76380-335"
    },
    {
        "city": "Goianésia",
        "state": "GO",
        "district": "Parque Bandeirantes",
        "street": "Rua Maria Silva",
        "zipcode": "76380-305"
    },
    {
        "city": "Goianésia",
        "state": "GO",
        "district": "Parque Bandeirantes",
        "street": "Rua 47 Sul",
        "zipcode": "76380-302"
    },
    {
        "city": "Goianésia",
        "state": "GO",
        "district": "Parque Bandeirantes",
        "street": "Rua Rui Barbosa",
        "zipcode": "76380-299"
    },
    {
        "city": "Goianésia",
        "state": "GO",
        "district": "Parque Bandeirantes",
        "street": "Rua 45 Sul",
        "zipcode": "76380-296"
    },
    {
        "city": "Goianésia",
        "state": "GO",
        "district": "Parque Bandeirantes",
        "street": "Avenida Contorno",
        "zipcode": "76380-290"
    },
    {
        "city": "Goianésia",
        "state": "GO",
        "district": "Negrinho Carrilho",
        "street": "Rua 30 Oeste",
        "zipcode": "76385-094"
    },
    {
        "city": "Goianésia",
        "state": "GO",
        "district": "Colina Park Residencial",
        "street": "Rua 67",
        "zipcode": "76383-323"
    },
    {
        "city": "Goianésia",
        "state": "GO",
        "district": "Vila Vera Cruz",
        "street": "Rua 10 Leste",
        "zipcode": "76382-840"
    },
    {
        "city": "Goianésia",
        "state": "GO",
        "district": "Distrito Agroindustrial Manoel Braollos Martins",
        "street": "Via Secundária 2",
        "zipcode": "76381-016"
    },
    {
        "city": "Goianésia",
        "state": "GO",
        "district": "Centro",
        "street": "Rua 33 Norte",
        "zipcode": "76380-128"
    },
    {
        "city": "Goianésia",
        "state": "GO",
        "district": "Centro",
        "street": "Rua 35 Norte",
        "zipcode": "76380-126"
    },
    {
        "city": "Goianésia",
        "state": "GO",
        "district": "Residencial Ipês",
        "street": "Rua 58",
        "zipcode": "76387-355"
    },
    {
        "city": "Goianésia",
        "state": "GO",
        "district": "Covoa II",
        "street": "Rua José Francisco da Silva",
        "zipcode": "76385-542"
    },
    {
        "city": "Goianésia",
        "state": "GO",
        "district": "Negrinho Carrilho",
        "street": "Viela Neide de Castro Souza",
        "zipcode": "76385-073"
    },
    {
        "city": "Goianésia",
        "state": "GO",
        "district": "Carrilho",
        "street": "Viela Antônio Parecido Hilário",
        "zipcode": "76380-751"
    },
    {
        "city": "Goianésia",
        "state": "GO",
        "district": "Santa Luzia",
        "street": "Avenida Brasil Leste",
        "zipcode": "76380-193"
    },
    {
        "city": "Goianésia",
        "state": "GO",
        "district": "Carrilho",
        "street": "Rua 35 Norte",
        "zipcode": "76380-765"
    },
    {
        "city": "Goianésia",
        "state": "GO",
        "district": "Parque Bandeirantes",
        "street": "Rua 14 Leste",
        "zipcode": "76380-311"
    },
    {
        "city": "Goianésia",
        "state": "GO",
        "district": "Parque Bandeirantes",
        "street": "Rua 12 A",
        "zipcode": "76380-314"
    },
    {
        "city": "Goianésia",
        "state": "GO",
        "district": "Setor dos Buritis",
        "street": "Rua José Carrilho Leste",
        "zipcode": "76380-141"
    },
    {
        "city": "Goianésia",
        "state": "GO",
        "district": "Centro",
        "street": "Rua José Carrilho Leste",
        "zipcode": "76380-110"
    },
    {
        "city": "Goianésia",
        "state": "GO",
        "district": "Santa Tereza",
        "street": "Rua 59 A",
        "zipcode": "76382-670"
    },
    {
        "city": "Goianésia",
        "state": "GO",
        "district": "Boa Vista",
        "street": "Rua 1 Norte",
        "zipcode": "76385-464"
    },
    {
        "city": "Goianésia",
        "state": "GO",
        "district": "Nova Fiica",
        "street": "Rua 3 Norte",
        "zipcode": "76387-743"
    },
    {
        "city": "Goianésia",
        "state": "GO",
        "district": "Residencial Flamboyant",
        "street": "Rua Begônia",
        "zipcode": "76387-159"
    },
    {
        "city": "Goianésia",
        "state": "GO",
        "district": "Setor Sul",
        "street": "Rua 43 Sul",
        "zipcode": "76382-229"
    },
    {
        "city": "Goianésia",
        "state": "GO",
        "district": "Residencial Parque das Palmeiras III",
        "street": "Rua Caviúna",
        "zipcode": "76386-525"
    },
    {
        "city": "Goianésia",
        "state": "GO",
        "district": "Centro",
        "street": "Rua José Carrilho Oeste",
        "zipcode": "76380-082"
    },
    {
        "city": "Goianésia",
        "state": "GO",
        "district": "Centro",
        "street": "Rua 14 Leste",
        "zipcode": "76380-019"
    },
    {
        "city": "Goianésia",
        "state": "GO",
        "district": "Residencial Jardim do Cerrado",
        "street": "Rua 30 Oeste",
        "zipcode": "76388-689"
    },
    {
        "city": "Goianésia",
        "state": "GO",
        "district": "Residencial Jardim do Cerrado",
        "street": "Rua do Pequi",
        "zipcode": "76388-659"
    },
    {
        "city": "Goianésia",
        "state": "GO",
        "district": "Residencial Jardim do Cerrado",
        "street": "Rua Jenipapo",
        "zipcode": "76388-644"
    },
    {
        "city": "Goianésia",
        "state": "GO",
        "district": "Residencial Jardim do Cerrado",
        "street": "Rua do Alecrim",
        "zipcode": "76388-626"
    },
    {
        "city": "Goianésia",
        "state": "GO",
        "district": "Residencial Jardim do Cerrado",
        "street": "Rua José Matias dos Santos",
        "zipcode": "76388-623"
    },
    {
        "city": "Goianésia",
        "state": "GO",
        "district": "Residencial Vereda dos Buritis",
        "street": "Rua 49 Sul",
        "zipcode": "76380-320"
    },
    {
        "city": "Goianésia",
        "state": "GO",
        "district": "Residencial Jardim do Cerrado",
        "street": "Rua João Martins Rodrigues",
        "zipcode": "76388-599"
    },
    {
        "city": "Goianésia",
        "state": "GO",
        "district": "Aldeia do Morro",
        "street": "Rua 36 Oeste",
        "zipcode": "76388-498"
    },
    {
        "city": "Goianésia",
        "state": "GO",
        "district": "Residencial Jardim do Cerrado",
        "street": "Rua 36 Oeste",
        "zipcode": "76388-629"
    },
    {
        "city": "Goianésia",
        "state": "GO",
        "district": "Aldeia do Morro",
        "street": "Rua do Ipê Norte",
        "zipcode": "76388-489"
    },
    {
        "city": "Goianésia",
        "state": "GO",
        "district": "Parque Araguaia",
        "street": "Rua 5 Norte",
        "zipcode": "76388-308"
    },
    {
        "city": "Goianésia",
        "state": "GO",
        "district": "Parque Araguaia II",
        "street": "Rua Raimundo Marques Nonato",
        "zipcode": "76388-278"
    },
    {
        "city": "Goianésia",
        "state": "GO",
        "district": "Residencial Nestor Ville",
        "street": "Rua das Palmeiras Norte",
        "zipcode": "76388-116"
    },
    {
        "city": "Goianésia",
        "state": "GO",
        "district": "Parque Araguaia II",
        "street": "Rua das Palmeiras Norte",
        "zipcode": "76388-263"
    },
    {
        "city": "Goianésia",
        "state": "GO",
        "district": "Residencial Nestor Ville",
        "street": "Rua Santos Dumont Norte",
        "zipcode": "76388-107"
    },
    {
        "city": "Goianésia",
        "state": "GO",
        "district": "Residencial Nestor Ville",
        "street": "Rua 38 Oeste",
        "zipcode": "76388-086"
    },
    {
        "city": "Goianésia",
        "state": "GO",
        "district": "Nova Fiica",
        "street": "Rua do Limão",
        "zipcode": "76387-800"
    },
    {
        "city": "Goianésia",
        "state": "GO",
        "district": "Nova Fiica",
        "street": "Rua 17 Norte",
        "zipcode": "76387-785"
    },
    {
        "city": "Goianésia",
        "state": "GO",
        "district": "Nova Fiica",
        "street": "Rua 7 Norte",
        "zipcode": "76387-770"
    },
    {
        "city": "Goianésia",
        "state": "GO",
        "district": "Nova Fiica",
        "street": "Rua da Amora",
        "zipcode": "76387-752"
    },
    {
        "city": "Goianésia",
        "state": "GO",
        "district": "Residencial Paulo Dias",
        "street": "Rua 46 Oeste",
        "zipcode": "76387-653"
    },
    {
        "city": "Goianésia",
        "state": "GO",
        "district": "Residencial Paulo Dias",
        "street": "Rua 9 Norte",
        "zipcode": "76387-638"
    },
    {
        "city": "Goianésia",
        "state": "GO",
        "district": "Residencial Morada Nova",
        "street": "Rua Maria Imaculada de Sousa Oliveira",
        "zipcode": "76387-495"
    },
    {
        "city": "Goianésia",
        "state": "GO",
        "district": "Residencial Morada Nova",
        "street": "Rua 19 Norte",
        "zipcode": "76387-483"
    },
    {
        "city": "Goianésia",
        "state": "GO",
        "district": "Residencial Ipês",
        "street": "Rua 7 Norte",
        "zipcode": "76387-362"
    },
    {
        "city": "Goianésia",
        "state": "GO",
        "district": "Residencial Ipês",
        "street": "Rua Bráz Ferreira de Oliveira",
        "zipcode": "76387-340"
    },
    {
        "city": "Goianésia",
        "state": "GO",
        "district": "Residencial Ipês",
        "street": "Alameda Cirineu Batista Naves",
        "zipcode": "76387-325"
    },
    {
        "city": "Goianésia",
        "state": "GO",
        "district": "Residencial Ipês",
        "street": "Rua 21 Norte",
        "zipcode": "76387-298"
    },
    {
        "city": "Goianésia",
        "state": "GO",
        "district": "Residencial Flamboyant",
        "street": "Alameda das Laranjeiras",
        "zipcode": "76387-168"
    },
    {
        "city": "Goianésia",
        "state": "GO",
        "district": "Dona Fiica II",
        "street": "Viela Claudionor Antunes de Souza",
        "zipcode": "76387-095"
    },
    {
        "city": "Goianésia",
        "state": "GO",
        "district": "Residencial Ipês",
        "street": "Rua 19 Norte",
        "zipcode": "76387-305"
    },
    {
        "city": "Goianésia",
        "state": "GO",
        "district": "Dona Fiica",
        "street": "Rua 42 Oeste",
        "zipcode": "76387-036"
    },
    {
        "city": "Goianésia",
        "state": "GO",
        "district": "Residencial Parque das Palmeiras III",
        "street": "Rua Cedro",
        "zipcode": "76386-600"
    },
    {
        "city": "Goianésia",
        "state": "GO",
        "district": "Residencial Parque das Palmeiras III",
        "street": "Rua Bacupari",
        "zipcode": "76386-565"
    },
    {
        "city": "Goianésia",
        "state": "GO",
        "district": "Residencial Parque das Palmeiras III",
        "street": "Rua Tucum",
        "zipcode": "76386-540"
    },
    {
        "city": "Goianésia",
        "state": "GO",
        "district": "Residencial Parque das Palmeiras III",
        "street": "Alameda Antônio Fontoura Borges",
        "zipcode": "76386-500"
    },
    {
        "city": "Goianésia",
        "state": "GO",
        "district": "Residencial Parque das Palmeiras II",
        "street": "Rua Aroeira",
        "zipcode": "76386-350"
    },
    {
        "city": "Goianésia",
        "state": "GO",
        "district": "Dona Fiica",
        "street": "Rua 25 Norte",
        "zipcode": "76387-024"
    },
    {
        "city": "Goianésia",
        "state": "GO",
        "district": "Residencial Parque das Palmeiras II",
        "street": "Rua Jequitibá",
        "zipcode": "76386-390"
    },
    {
        "city": "Goianésia",
        "state": "GO",
        "district": "Residencial Parque das Palmeiras",
        "street": "Rua Ataléia",
        "zipcode": "76386-200"
    },
    {
        "city": "Goianésia",
        "state": "GO",
        "district": "Residencial Parque das Palmeiras",
        "street": "Rua Jacarandá Sul",
        "zipcode": "76386-130"
    },
    {
        "city": "Goianésia",
        "state": "GO",
        "district": "Residencial Parque das Palmeiras",
        "street": "Rua do Ipê Sul",
        "zipcode": "76386-115"
    },
    {
        "city": "Goianésia",
        "state": "GO",
        "district": "Residencial Parque das Palmeiras",
        "street": "Rua das Palmeiras Sul",
        "zipcode": "76386-090"
    },
    {
        "city": "Goianésia",
        "state": "GO",
        "district": "Residencial Parque das Palmeiras",
        "street": "Rua 3 Sul",
        "zipcode": "76386-040"
    },
    {
        "city": "Goianésia",
        "state": "GO",
        "district": "Residencial Parque das Palmeiras II",
        "street": "Alameda Faustina Maria Gomes Oeste",
        "zipcode": "76386-380"
    },
    {
        "city": "Goianésia",
        "state": "GO",
        "district": "Covoa",
        "street": "Avenida Brasil Oeste",
        "zipcode": "76385-608"
    },
    {
        "city": "Goianésia",
        "state": "GO",
        "district": "Covoa",
        "street": "Rua 22 Oeste",
        "zipcode": "76385-560"
    },
    {
        "city": "Goianésia",
        "state": "GO",
        "district": "Covoa II",
        "street": "Rua Santos Dumont Norte",
        "zipcode": "76385-534"
    },
    {
        "city": "Goianésia",
        "state": "GO",
        "district": "Morro da Ema",
        "street": "Rua Guiloi Rezende",
        "zipcode": "76385-437"
    },
    {
        "city": "Goianésia",
        "state": "GO",
        "district": "Morro da Ema",
        "street": "Rua do Ipê Norte",
        "zipcode": "76385-419"
    },
    {
        "city": "Goianésia",
        "state": "GO",
        "district": "Vila Nova Aurora III",
        "street": "Rua 36 Oeste",
        "zipcode": "76385-394"
    },
    {
        "city": "Goianésia",
        "state": "GO",
        "district": "Vila Nova Aurora",
        "street": "Rua 7 A",
        "zipcode": "76385-335"
    },
    {
        "city": "Goianésia",
        "state": "GO",
        "district": "Vila Nova Aurora",
        "street": "Rua 36 Oeste",
        "zipcode": "76385-305"
    },
    {
        "city": "Goianésia",
        "state": "GO",
        "district": "Setor Oeste",
        "street": "Rua 5 A",
        "zipcode": "76385-277"
    },
    {
        "city": "Goianésia",
        "state": "GO",
        "district": "Setor Oeste",
        "street": "Rua 30 Oeste",
        "zipcode": "76385-208"
    },
    {
        "city": "Goianésia",
        "state": "GO",
        "district": "Vila Nova Aurora III",
        "street": "Rua 32 Oeste",
        "zipcode": "76385-379"
    },
    {
        "city": "Goianésia",
        "state": "GO",
        "district": "Negrinho Carrilho",
        "street": "Rua 19 Norte",
        "zipcode": "76385-125"
    },
    {
        "city": "Goianésia",
        "state": "GO",
        "district": "Negrinho Carrilho",
        "street": "Rua 11 Norte",
        "zipcode": "76385-100"
    },
    {
        "city": "Goianésia",
        "state": "GO",
        "district": "Negrinho Carrilho",
        "street": "Rua 26 Oeste",
        "zipcode": "76385-082"
    },
    {
        "city": "Goianésia",
        "state": "GO",
        "district": "Negrinho Carrilho",
        "street": "Rua 22 Oeste",
        "zipcode": "76385-067"
    },
    {
        "city": "Goianésia",
        "state": "GO",
        "district": "Negrinho Carrilho",
        "street": "Avenida Contorno",
        "zipcode": "76385-106"
    },
    {
        "city": "Goianésia",
        "state": "GO",
        "district": "Negrinho Carrilho",
        "street": "Rua 5 Norte",
        "zipcode": "76385-061"
    },
    {
        "city": "Goianésia",
        "state": "GO",
        "district": "Jardim Por do Sol",
        "street": "Rua 20 Oeste",
        "zipcode": "76385-009"
    },
    {
        "city": "Goianésia",
        "state": "GO",
        "district": "Vivalle Goianésia",
        "street": "Rua V V 15",
        "zipcode": "76384-399"
    },
    {
        "city": "Goianésia",
        "state": "GO",
        "district": "Negrinho Carrilho",
        "street": "Rua 22 Oeste",
        "zipcode": "76385-068"
    },
    {
        "city": "Goianésia",
        "state": "GO",
        "district": "Vivalle Goianésia",
        "street": "Rua V V 9",
        "zipcode": "76384-411"
    },
    {
        "city": "Goianésia",
        "state": "GO",
        "district": "Vivalle Goianésia",
        "street": "Rua V V 5",
        "zipcode": "76384-372"
    },
    {
        "city": "Goianésia",
        "state": "GO",
        "district": "Vivalle Goianésia",
        "street": "Avenida Vivalle Goianésia",
        "zipcode": "76384-360"
    },
    {
        "city": "Goianésia",
        "state": "GO",
        "district": "Setor Sul",
        "street": "Rua 8 Leste",
        "zipcode": "76382-241"
    },
    {
        "city": "Goianésia",
        "state": "GO",
        "district": "Jardim Esperança",
        "street": "Avenida Juscelino Kubitschek",
        "zipcode": "76383-658"
    },
    {
        "city": "Goianésia",
        "state": "GO",
        "district": "Jardim Esperança",
        "street": "Rua Corrente",
        "zipcode": "76383-634"
    },
    {
        "city": "Goianésia",
        "state": "GO",
        "district": "Residencial Mariana Park",
        "street": "Avenida Juscelino Kubitschek",
        "zipcode": "76383-593"
    },
    {
        "city": "Goianésia",
        "state": "GO",
        "district": "Colina Park Residencial",
        "street": "Rua 12 Leste",
        "zipcode": "76383-332"
    },
    {
        "city": "Goianésia",
        "state": "GO",
        "district": "Colina Park Residencial",
        "street": "Rua 61",
        "zipcode": "76383-314"
    },
    {
        "city": "Goianésia",
        "state": "GO",
        "district": "Colina Park Residencial",
        "street": "Rua 8 Leste",
        "zipcode": "76383-356"
    },
    {
        "city": "Goianésia",
        "state": "GO",
        "district": "Colina Park Residencial",
        "street": "Rua 55 Sul",
        "zipcode": "76383-305"
    },
    {
        "city": "Goianésia",
        "state": "GO",
        "district": "Residencial Bougainville",
        "street": "Avenida Minas Gerais",
        "zipcode": "76383-048"
    },
    {
        "city": "Goianésia",
        "state": "GO",
        "district": "Residencial Bougainville",
        "street": "Rua 45 Sul",
        "zipcode": "76383-042"
    },
    {
        "city": "Goianésia",
        "state": "GO",
        "district": "Vila Vera Cruz",
        "street": "Rua 41 Sul",
        "zipcode": "76382-843"
    },
    {
        "city": "Goianésia",
        "state": "GO",
        "district": "Santa Tereza",
        "street": "Rua 12 Leste",
        "zipcode": "76382-712"
    },
    {
        "city": "Goianésia",
        "state": "GO",
        "district": "Santa Tereza",
        "street": "Rua 45 Sul",
        "zipcode": "76382-703"
    },
    {
        "city": "Goianésia",
        "state": "GO",
        "district": "Santa Tereza",
        "street": "Rua 53 Sul",
        "zipcode": "76382-682"
    },
    {
        "city": "Goianésia",
        "state": "GO",
        "district": "Residencial Granville",
        "street": "Rua 9 Sul",
        "zipcode": "76382-349"
    },
    {
        "city": "Goianésia",
        "state": "GO",
        "district": "Residencial Granville",
        "street": "Rua Barro Alto",
        "zipcode": "76382-313"
    },
    {
        "city": "Goianésia",
        "state": "GO",
        "district": "Residencial Granville",
        "street": "Rua 23 Sul",
        "zipcode": "76382-292"
    },
    {
        "city": "Goianésia",
        "state": "GO",
        "district": "Santa Tereza",
        "street": "Rua 12 A",
        "zipcode": "76382-694"
    },
    {
        "city": "Goianésia",
        "state": "GO",
        "district": "Setor Sul",
        "street": "Rua 10 Leste",
        "zipcode": "76382-238"
    },
    {
        "city": "Goianésia",
        "state": "GO",
        "district": "Setor Sul",
        "street": "Avenida Goiás Sul",
        "zipcode": "76382-199"
    },
    {
        "city": "Goianésia",
        "state": "GO",
        "district": "Setor Sul",
        "street": "Rua 2 Oeste",
        "zipcode": "76382-196"
    },
    {
        "city": "Goianésia",
        "state": "GO",
        "district": "Setor Sul",
        "street": "Rua 25 Sul",
        "zipcode": "76382-175"
    },
    {
        "city": "Goianésia",
        "state": "GO",
        "district": "Setor Universitário",
        "street": "Rua 13 Sul",
        "zipcode": "76382-027"
    },
    {
        "city": "Goianésia",
        "state": "GO",
        "district": "Setor Universitário",
        "street": "Avenida Brasil Oeste",
        "zipcode": "76382-000"
    },
    {
        "city": "Goianésia",
        "state": "GO",
        "district": "Residencial Laurentino Martins",
        "street": "Rua 33 Norte",
        "zipcode": "76381-227"
    },
    {
        "city": "Goianésia",
        "state": "GO",
        "district": "Setor Universitário",
        "street": "Rua 8 Oeste",
        "zipcode": "76382-051"
    },
    {
        "city": "Goianésia",
        "state": "GO",
        "district": "Residencial Laurentino Martins",
        "street": "Avenida Laurentino Martins",
        "zipcode": "76381-230"
    },
    {
        "city": "Goianésia",
        "state": "GO",
        "district": "Residencial Laurentino Martins",
        "street": "Rua 50",
        "zipcode": "76381-179"
    },
    {
        "city": "Goianésia",
        "state": "GO",
        "district": "São Cristóvão",
        "street": "Avenida Walter Augusto Fernandes",
        "zipcode": "76381-167"
    },
    {
        "city": "Goianésia",
        "state": "GO",
        "district": "São Cristóvão",
        "street": "Rua 40 Oeste",
        "zipcode": "76381-161"
    },
    {
        "city": "Goianésia",
        "state": "GO",
        "district": "São Cristóvão",
        "street": "Rua 29 Norte",
        "zipcode": "76381-128"
    },
    {
        "city": "Goianésia",
        "state": "GO",
        "district": "Residencial Laurentino Martins",
        "street": "Rua 46 Leste",
        "zipcode": "76381-197"
    },
    {
        "city": "Goianésia",
        "state": "GO",
        "district": "São Cristóvão",
        "street": "Rua 34 Leste",
        "zipcode": "76381-098"
    },
    {
        "city": "Goianésia",
        "state": "GO",
        "district": "São Cristóvão",
        "street": "Avenida Bahia",
        "zipcode": "76381-080"
    },
    {
        "city": "Goianésia",
        "state": "GO",
        "district": "Carrilho",
        "street": "Rua 26 Leste",
        "zipcode": "76380-766"
    },
    {
        "city": "Goianésia",
        "state": "GO",
        "district": "Carrilho",
        "street": "Rua Pastor Geraldo Sebastião Coelho",
        "zipcode": "76380-817"
    },
    {
        "city": "Goianésia",
        "state": "GO",
        "district": "Carrilho",
        "street": "Rua 34 Oeste",
        "zipcode": "76380-736"
    },
    {
        "city": "Goianésia",
        "state": "GO",
        "district": "Carrilho",
        "street": "Avenida Pará",
        "zipcode": "76380-730"
    },
    {
        "city": "Goianésia",
        "state": "GO",
        "district": "Carrilho",
        "street": "Rua 26 Oeste",
        "zipcode": "76380-712"
    },
    {
        "city": "Goianésia",
        "state": "GO",
        "district": "Laranjeiras",
        "street": "Rua Pastor Geraldo Sebastião Coelho",
        "zipcode": "76380-820"
    },
    {
        "city": "Goianésia",
        "state": "GO",
        "district": "Muniz Falcão",
        "street": "Rua 49 Norte",
        "zipcode": "76380-493"
    },
    {
        "city": "Goianésia",
        "state": "GO",
        "district": "Muniz Falcão",
        "street": "Avenida Brasil Leste",
        "zipcode": "76380-478"
    },
    {
        "city": "Goianésia",
        "state": "GO",
        "district": "Santa Luzia",
        "street": "Rua 14 Leste",
        "zipcode": "76380-220"
    },
    {
        "city": "Goianésia",
        "state": "GO",
        "district": "Muniz Falcão",
        "street": "Avenida Contorno",
        "zipcode": "76380-475"
    },
    {
        "city": "Goianésia",
        "state": "GO",
        "district": "Residencial Santa Clara",
        "street": "Rua 45 Sul",
        "zipcode": "76380-269"
    },
    {
        "city": "Goianésia",
        "state": "GO",
        "district": "Santa Luzia",
        "street": "Rua 22 Leste",
        "zipcode": "76380-184"
    },
    {
        "city": "Goianésia",
        "state": "GO",
        "district": "Centro",
        "street": "Rua 31 Sul",
        "zipcode": "76380-031"
    },
    {
        "city": "Goianésia",
        "state": "GO",
        "district": "Centro",
        "street": "Avenida Brasil Leste",
        "zipcode": "76380-025"
    },
    {
        "city": "Goianésia",
        "state": "GO",
        "district": "Centro",
        "street": "Rua 20 Leste",
        "zipcode": "76380-118"
    },
    {
        "city": "Goianésia",
        "state": "GO",
        "district": "Santa Luzia",
        "street": "Rua 39 Sul",
        "zipcode": "76380-205"
    },
    {
        "city": "Goianésia",
        "state": "GO",
        "district": "Santa Luzia",
        "street": "Rua 20 Leste",
        "zipcode": "76380-187"
    },
    {
        "city": "Goianésia",
        "state": "GO",
        "district": "Santa Luzia",
        "street": "Rua 39 Norte",
        "zipcode": "76380-163"
    },
    {
        "city": "Goianésia",
        "state": "GO",
        "district": "Muniz Falcão",
        "street": "Avenida Brasil Leste",
        "zipcode": "76380-460"
    },
    {
        "city": "Goianésia",
        "state": "GO",
        "district": "Muniz Falcão",
        "street": "Rua José Carrilho Leste",
        "zipcode": "76380-508"
    },
    {
        "city": "Goianésia",
        "state": "GO",
        "district": "Conjunto Meridian",
        "street": "Rua M 5",
        "zipcode": "76381-304"
    },
    {
        "city": "Goianésia",
        "state": "GO",
        "district": "Centro",
        "street": "Rua 39 Sul",
        "zipcode": "76380-004"
    },
    {
        "city": "Goianésia",
        "state": "GO",
        "district": "Conjunto Meridian",
        "street": "Avenida Bela Vista",
        "zipcode": "76381-308"
    },
    {
        "city": "Goianésia",
        "state": "GO",
        "district": "Conjunto Meridian",
        "street": "Rua M 26",
        "zipcode": "76381-334"
    },
    {
        "city": "Goianésia",
        "state": "GO",
        "district": "Conjunto Meridian",
        "street": "Rua M 12",
        "zipcode": "76381-348"
    },
    {
        "city": "Goianésia",
        "state": "GO",
        "district": "Nossa Senhora da Penha",
        "street": "Rua Vicente Altamiro Pimenta",
        "zipcode": "76387-885"
    },
    {
        "city": "Goianésia",
        "state": "GO",
        "district": "Conjunto Meridian",
        "street": "Rua M 23",
        "zipcode": "76381-324"
    },
    {
        "city": "Goianésia",
        "state": "GO",
        "district": "Conjunto Meridian",
        "street": "Rua M 2",
        "zipcode": "76381-358"
    },
    {
        "city": "Goianésia",
        "state": "GO",
        "district": "Nossa Senhora da Penha",
        "street": "Rua 15 Norte",
        "zipcode": "76387-852"
    },
    {
        "city": "Goianésia",
        "state": "GO",
        "district": "Nossa Senhora Aparecida",
        "street": "Rua Vicente Altamiro Pimenta",
        "zipcode": "76387-832"
    },
    {
        "city": "Goianésia",
        "state": "GO",
        "district": "Nossa Senhora Aparecida",
        "street": "Rua 40 Oeste",
        "zipcode": "76387-826"
    },
    {
        "city": "Goianésia",
        "state": "GO",
        "district": "Nossa Senhora da Penha",
        "street": "Avenida Pará",
        "zipcode": "76387-858"
    },
    {
        "city": "Goianésia",
        "state": "GO",
        "district": "Residencial Flamboyant",
        "street": "Viela Claudionor Antunes de Souza",
        "zipcode": "76387-150"
    },
    {
        "city": "Goianésia",
        "state": "GO",
        "district": "Residencial Parque das Palmeiras",
        "street": "Rua 4 Oeste",
        "zipcode": "76386-170"
    },
    {
        "city": "Goianésia",
        "state": "GO",
        "district": "Covoa II",
        "street": "Rua das Palmeiras Norte",
        "zipcode": "76385-554"
    },
    {
        "city": "Goianésia",
        "state": "GO",
        "district": "Residencial Parque das Palmeiras",
        "street": "Rua 1 Sul",
        "zipcode": "76386-055"
    },
    {
        "city": "Goianésia",
        "state": "GO",
        "district": "Boa Vista",
        "street": "Rua Brasília",
        "zipcode": "76385-478"
    },
    {
        "city": "Goianésia",
        "state": "GO",
        "district": "Boa Vista",
        "street": "Viela C 4",
        "zipcode": "76385-526"
    },
    {
        "city": "Goianésia",
        "state": "GO",
        "district": "Residencial Granville",
        "street": "Rua 7 Sul",
        "zipcode": "76382-346"
    },
    {
        "city": "Goianésia",
        "state": "GO",
        "district": "Residencial Vereda dos Buritis",
        "street": "Rua 57 Sul",
        "zipcode": "76380-353"
    },
    {
        "city": "Goianésia",
        "state": "GO",
        "district": "Parque Bandeirantes",
        "street": "Rua 14 A",
        "zipcode": "76380-293"
    },
    {
        "city": "Goianésia",
        "state": "GO",
        "district": "Boa Vista",
        "street": "Rua Santos Dumont Norte",
        "zipcode": "76385-520"
    },
    {
        "city": "Goianésia",
        "state": "GO",
        "district": "Setor dos Buritis",
        "street": "Rua 35 Norte",
        "zipcode": "76380-135"
    },
    {
        "city": "Goianésia",
        "state": "GO",
        "district": "Colina Park Residencial",
        "street": "Rua Santa Cruz",
        "zipcode": "76383-329"
    },
    {
        "city": "Goianésia",
        "state": "GO",
        "district": "Parque Bandeirantes",
        "street": "Rua 49 Sul",
        "zipcode": "76380-308"
    },
    {
        "city": "Goianésia",
        "state": "GO",
        "district": "Centro",
        "street": "Rua 25 Norte",
        "zipcode": "76380-076"
    },
    {
        "city": "Goianésia",
        "state": "GO",
        "district": "Jardim Por do Sol",
        "street": "Avenida Brasil Oeste",
        "zipcode": "76385-000"
    },
    {
        "city": "Goianésia",
        "state": "GO",
        "district": "Negrinho Carrilho",
        "street": "Rua 5 Norte",
        "zipcode": "76385-060"
    },
    {
        "city": "Goianésia",
        "state": "GO",
        "district": "Carrilho",
        "street": "Rua 45 B",
        "zipcode": "76380-812"
    },
    {
        "city": "Goianésia",
        "state": "GO",
        "district": "Carrilho",
        "street": "Avenida Pará",
        "zipcode": "76380-732"
    }
]